{"type":"FeatureCollection","features":[{"type":"Feature","geometry":{"type":"Polygon","coordinates":[[[26.33846,62.28145],[26.33796,62.28245],[26.33716,62.28279],[26.33736,62.2829],[26.33758,62.283],[26.33758,62.28301],[26.33785,62.28305],[26.33795,62.28292],[26.33797,62.28293],[26.33878,62.2831],[26.33913,62.28317],[26.33904,62.28375],[26.33904,62.2838],[26.33948,62.28418],[26.34002,62.28442],[26.33965,62.2848],[26.33991,62.28486],[26.3404,62.28494],[26.34084,62.28501],[26.34143,62.28511],[26.34192,62.28519],[26.34231,62.28479],[26.34288,62.28485],[26.34272,62.28516],[26.34319,62.28521],[26.3431,62.28541],[26.34296,62.28569],[26.34292,62.28579],[26.34281,62.28601],[26.34271,62.2862],[26.34252,62.28661],[26.34241,62.28682],[26.34218,62.2873],[26.3433,62.28757],[26.34347,62.28754],[26.34369,62.28722],[26.34381,62.28695],[26.34384,62.28685],[26.34391,62.28675],[26.34396,62.28668],[26.34404,62.28648],[26.34417,62.28617],[26.34423,62.28608],[26.34428,62.28598],[26.34438,62.28577],[26.34445,62.28561],[26.34452,62.28557],[26.34461,62.28536],[26.34471,62.28515],[26.34474,62.2851],[26.34481,62.28495],[26.34499,62.2846],[26.34495,62.28454],[26.34498,62.28441],[26.34499,62.28437],[26.34479,62.28423],[26.3447,62.28417],[26.34396,62.28383],[26.34382,62.2837],[26.34388,62.28314],[26.34406,62.28307],[26.34469,62.28282],[26.34561,62.28292],[26.34568,62.28297],[26.3457,62.28293],[26.34635,62.283],[26.34625,62.28281],[26.34635,62.2826],[26.34649,62.28233],[26.34673,62.28187],[26.34754,62.28209],[26.34862,62.28239],[26.34878,62.28243],[26.34954,62.28263],[26.34964,62.28255],[26.35021,62.28207],[26.35033,62.2817],[26.35059,62.2808],[26.35063,62.28067],[26.34992,62.28073],[26.34803,62.28024],[26.34766,62.2801],[26.3446,62.27882],[26.344,62.27855],[26.34366,62.27871],[26.34379,62.27877],[26.34375,62.27882],[26.34358,62.27892],[26.34405,62.2789],[26.34456,62.27913],[26.34501,62.27932],[26.34573,62.27961],[26.34586,62.27965],[26.34612,62.27976],[26.34628,62.27982],[26.34594,62.28037],[26.34589,62.28045],[26.34524,62.28029],[26.34482,62.28076],[26.34418,62.28047],[26.34402,62.28042],[26.34345,62.28087],[26.34289,62.28071],[26.34207,62.28048],[26.34182,62.28062],[26.34158,62.28081],[26.34129,62.28073],[26.34063,62.28097],[26.34026,62.28112],[26.3397,62.28137],[26.33919,62.28118],[26.33846,62.28145]]]},"properties":{"name":"Niemisjärvi rakennuskaavan muutos ja laajennus","kind":"plan","ptype":"zoning","subtype":"Asemakaava","status":"vireilla","date":"NaT","url":"https://www.jyvaskyla.fi/kaavoitus","source":"Jyväskylä"}},{"type":"Feature","geometry":{"type":"Polygon","coordinates":[[[26.34635,62.2826],[26.34625,62.28281],[26.34635,62.283],[26.34642,62.28323],[26.34644,62.28329],[26.34654,62.28347],[26.34676,62.2834],[26.34829,62.28366],[26.34839,62.28359],[26.34866,62.28337],[26.34887,62.28322],[26.35203,62.28357],[26.35208,62.28346],[26.35254,62.28351],[26.35307,62.28357],[26.35317,62.28358],[26.35329,62.28331],[26.35337,62.28333],[26.35389,62.28276],[26.35403,62.28261],[26.35395,62.2826],[26.35386,62.28259],[26.351,62.28228],[26.35115,62.28198],[26.35407,62.28231],[26.35415,62.28231],[26.35488,62.2824],[26.35502,62.28225],[26.35509,62.28161],[26.35131,62.28076],[26.35099,62.28078],[26.35059,62.2808],[26.35033,62.2817],[26.35021,62.28207],[26.34964,62.28255],[26.34954,62.28263],[26.34878,62.28243],[26.34862,62.28239],[26.34754,62.28209],[26.34673,62.28187],[26.34649,62.28233],[26.34635,62.2826]]]},"properties":{"name":"Niemisjärvi Rakennuskaava ja rakennuskaavan muutos","kind":"plan","ptype":"zoning","subtype":"Asemakaava","status":"vireilla","date":"NaT","url":"https://www.jyvaskyla.fi/kaavoitus","source":"Jyväskylä"}},{"type":"Feature","geometry":{"type":"Polygon","coordinates":[[[26.35178,62.28371],[26.35106,62.28487],[26.35133,62.2849],[26.35115,62.28525],[26.35339,62.28551],[26.35442,62.28562],[26.35459,62.28564],[26.35481,62.28529],[26.35538,62.28439],[26.35561,62.28413],[26.35555,62.28412],[26.35623,62.28309],[26.35606,62.28307],[26.35474,62.28292],[26.35457,62.2829],[26.35461,62.28268],[26.35488,62.2824],[26.35415,62.28231],[26.35407,62.28231],[26.35115,62.28198],[26.351,62.28228],[26.35386,62.28259],[26.35395,62.2826],[26.35403,62.28261],[26.35389,62.28276],[26.35337,62.28333],[26.35329,62.28331],[26.35317,62.28358],[26.35307,62.28357],[26.35254,62.28351],[26.35208,62.28346],[26.35203,62.28357],[26.34887,62.28322],[26.34866,62.28337],[26.35178,62.28371]]]},"properties":{"name":"Ruututunturin alueen rakennuskaava ja rakennuskaavan muutos","kind":"plan","ptype":"zoning","subtype":"Asemakaava","status":"vireilla","date":"NaT","url":"https://www.jyvaskyla.fi/kaavoitus","source":"Jyväskylä"}}]}