{"type":"Topology","objects":{"neighborhoods":{"type":"GeometryCollection","geometries":[{"type":"MultiPolygon","arcs":[[[0,1,2]]],"properties":{"id":1320,"postinumeroalue":"44320","nimi":"Sirkkamäki","namn":"Sirkkamäki","euref_x":472394,"euref_y":6937285,"pinta_ala":94710112,"vuosi":2026,"kunta":"275","he_vakiy":109,"he_naiset":51,"he_miehet":58,"he_kika":51,"he_0_2":2,"he_3_6":2,"he_7_12":11,"he_13_15":3,"he_16_17":3,"he_18_19":3,"he_20_24":0,"he_25_29":2,"he_30_34":2,"he_35_39":7,"he_40_44":7,"he_45_49":1,"he_50_54":7,"he_55_59":11,"he_60_64":8,"he_65_69":5,"he_70_74":11,"he_75_79":17,"he_80_84":4,"he_85_":3,"ko_ika18y":88,"ko_perus":20,"ko_koul":68,"ko_yliop":1,"ko_ammat":39,"ko_al_kork":22,"ko_yl_kork":6,"hr_tuy":88,"hr_ktu":27794,"hr_mtu":22941,"hr_pi_tul":23,"hr_ke_tul":53,"hr_hy_tul":12,"hr_ovy":2445839,"te_taly":47,"te_takk":2.3,"te_as_valj":47.3,"te_yks":17,"te_nuor":2,"te_eil_np":0,"te_laps":9,"te_plap":2,"te_aklap":4,"te_klap":5,"te_teini":4,"te_yhlap":2,"te_aik":13,"te_elak":27,"te_omis_as":45,"te_vuok_as":1,"te_muu_as":1,"tr_kuty":47,"tr_ktu":51128,"tr_mtu":40388,"tr_pi_tul":12,"tr_ke_tul":28,"tr_hy_tul":7,"tr_ovy":2403027,"ra_ke":134,"ra_raky":84,"ra_muut":16,"ra_asrak":68,"ra_asunn":69,"ra_as_kpa":104.2,"ra_pt_as":67,"ra_kt_as":0,"ra_muu_as":2,"tp_tyopy":24,"tp_alku_a":19,"tp_jalo_bf":3,"tp_palv_gu":2,"tp_a_maat":19,"tp_b_kaiv":0,"tp_c_teol":0,"tp_d_ener":0,"tp_e_vesi":0,"tp_f_rake":3,"tp_g_kaup":0,"tp_h_kulj":0,"tp_i_majo":0,"tp_j_info":0,"tp_k_raho":0,"tp_l_kiin":0,"tp_m_erik":2,"tp_n_hall":0,"tp_o_julk":0,"tp_p_koul":0,"tp_q_terv":0,"tp_r_taid":0,"tp_s_muup":0,"tp_t_koti":0,"tp_u_kans":0,"tp_x_tunt":0,"pt_vakiy":109,"pt_tyoll":40,"pt_tyott":3,"pt_0_14":17,"pt_opisk":7,"pt_elakel":41,"pt_muut":1,"city":"aanekoski","pno":"44320","unemployment_rate":2.8,"higher_education_rate":31.8,"pensioner_share":37.6,"ownership_rate":95.7,"rental_rate":2.1,"population_density":1,"child_ratio":3.7,"student_share":6.4,"detached_house_share":97.1,"youth_ratio_pct":4.6,"gender_ratio":0.88,"single_parent_hh_pct":0,"families_with_children_pct":19.1,"tech_sector_pct":0,"healthcare_workers_pct":0,"employment_rate":36.7,"elderly_ratio_pct":36.7,"avg_household_size":2.32,"manufacturing_jobs_pct":12.5,"public_sector_jobs_pct":0,"service_sector_jobs_pct":8.3,"new_construction_pct":121.7,"foreign_language_pct":1.7,"crime_index":23.2,"property_price_sqm":null,"transit_stop_density":0,"air_quality_index":24.4,"daycare_density":0,"school_density":0,"healthcare_density":0,"restaurant_density":0,"grocery_density":0,"cycling_density":0,"single_person_hh_pct":36.2,"rental_price_sqm":null,"price_to_rent_ratio":null,"walkability_index":76,"traffic_accident_rate":3.1,"property_price_change_pct":null,"school_quality_score":null,"light_pollution":0,"noise_pollution":40,"voter_turnout_pct":66.3,"party_diversity_index":0.664,"broadband_coverage_pct":69,"ev_charging_density":0,"tree_canopy_pct":31.2,"transit_reachability_score":null,"sports_facility_density":0,"water_proximity_m":0,"avg_construction_year":1977,"income_history":[[2021,18421],[2022,18214],[2023,19439],[2024,23253],[2025,24923],[2026,22941]],"population_history":[[2021,121],[2022,115],[2023,105],[2024,110],[2025,116],[2026,109]],"unemployment_history":[[2021,4.1],[2022,1.7],[2023,2.9],[2024,2.7],[2025,3.4],[2026,2.8]],"income_change_pct":24.5,"population_change_pct":-9.9,"unemployment_change_pct":-31.7,"schools":null,"crime_index_history":[[2020,30],[2021,28.2],[2022,30.4],[2023,24.5],[2024,30.1],[2025,23.2]],"crime_index_change_pct":-22.7,"health_index":110.2,"radon":null,"municipality":"Konnevesi","lon":26.48625,"lat":62.57259,"flood_risk_pct":null,"population_projection_pct":-17.4,"construction_activity":10.7,"active_plan_count":0,"political_lean_index":60.1,"party_vote_kok_pct":11.3,"party_vote_sdp_pct":16.9,"party_vote_ps_pct":24.1,"party_vote_kesk_pct":31.9,"party_vote_vihr_pct":2.4,"party_vote_vas_pct":4.8,"party_vote_rkp_pct":0.1,"foreign_language_municipal_pct":2.4}},{"type":"MultiPolygon","arcs":[[[3,4,5,6,7,8]]],"properties":{"id":1308,"postinumeroalue":"44100","nimi":"Äänekoski Keskus","namn":"Äänekoski centrum","euref_x":434765,"euref_y":6940776,"pinta_ala":39896324,"vuosi":2026,"kunta":"992","he_vakiy":4135,"he_naiset":2202,"he_miehet":1933,"he_kika":49,"he_0_2":70,"he_3_6":106,"he_7_12":215,"he_13_15":133,"he_16_17":101,"he_18_19":125,"he_20_24":217,"he_25_29":178,"he_30_34":174,"he_35_39":187,"he_40_44":218,"he_45_49":241,"he_50_54":233,"he_55_59":234,"he_60_64":302,"he_65_69":310,"he_70_74":325,"he_75_79":326,"he_80_84":208,"he_85_":232,"ko_ika18y":3510,"ko_perus":943,"ko_koul":2567,"ko_yliop":105,"ko_ammat":1609,"ko_al_kork":645,"ko_yl_kork":208,"hr_tuy":3510,"hr_ktu":26946,"hr_mtu":23658,"hr_pi_tul":757,"hr_ke_tul":2300,"hr_hy_tul":453,"hr_ovy":94578961,"te_taly":2451,"te_takk":1.7,"te_as_valj":42,"te_yks":1428,"te_nuor":293,"te_eil_np":68,"te_laps":344,"te_plap":63,"te_aklap":117,"te_klap":139,"te_teini":155,"te_yhlap":102,"te_aik":1040,"te_elak":1073,"te_omis_as":1317,"te_vuok_as":1109,"te_muu_as":25,"tr_kuty":2451,"tr_ktu":38477,"tr_mtu":28972,"tr_pi_tul":844,"tr_ke_tul":1367,"tr_hy_tul":240,"tr_ovy":94306765,"ra_ke":30,"ra_raky":1075,"ra_muut":277,"ra_asrak":798,"ra_asunn":2898,"ra_as_kpa":67.8,"ra_pt_as":912,"ra_kt_as":1875,"ra_muu_as":111,"tp_tyopy":3180,"tp_alku_a":21,"tp_jalo_bf":1015,"tp_palv_gu":2144,"tp_a_maat":21,"tp_b_kaiv":0,"tp_c_teol":884,"tp_d_ener":26,"tp_e_vesi":11,"tp_f_rake":94,"tp_g_kaup":318,"tp_h_kulj":89,"tp_i_majo":82,"tp_j_info":17,"tp_k_raho":8,"tp_l_kiin":35,"tp_m_erik":72,"tp_n_hall":184,"tp_o_julk":195,"tp_p_koul":322,"tp_q_terv":762,"tp_r_taid":26,"tp_s_muup":34,"tp_t_koti":0,"tp_u_kans":0,"tp_x_tunt":0,"pt_vakiy":4135,"pt_tyoll":1347,"pt_tyott":314,"pt_0_14":476,"pt_opisk":294,"pt_elakel":1569,"pt_muut":135,"city":"aanekoski","pno":"44100","unemployment_rate":7.6,"higher_education_rate":24.3,"pensioner_share":37.9,"ownership_rate":53.7,"rental_rate":45.2,"population_density":104,"child_ratio":4.3,"student_share":7.1,"detached_house_share":31.5,"youth_ratio_pct":12.6,"gender_ratio":1.14,"single_parent_hh_pct":2.8,"families_with_children_pct":14,"tech_sector_pct":0.5,"healthcare_workers_pct":24,"employment_rate":32.6,"elderly_ratio_pct":33.9,"avg_household_size":1.69,"manufacturing_jobs_pct":31.9,"public_sector_jobs_pct":6.1,"service_sector_jobs_pct":67.4,"new_construction_pct":37.1,"foreign_language_pct":2.4,"crime_index":107.8,"property_price_sqm":941,"transit_stop_density":1,"air_quality_index":24.4,"daycare_density":0.1,"school_density":0.1,"healthcare_density":0.1,"restaurant_density":0.5,"grocery_density":0.1,"cycling_density":5.9,"single_person_hh_pct":58.3,"rental_price_sqm":null,"price_to_rent_ratio":null,"walkability_index":88,"traffic_accident_rate":0.6,"property_price_change_pct":-16.8,"school_quality_score":59.5,"light_pollution":11,"noise_pollution":41.7,"voter_turnout_pct":63.2,"party_diversity_index":0.699,"broadband_coverage_pct":64,"ev_charging_density":0.1,"tree_canopy_pct":15,"transit_reachability_score":null,"sports_facility_density":0.7,"water_proximity_m":0,"avg_construction_year":1977,"income_history":[[2021,20049],[2022,19872],[2023,20397],[2024,21454],[2025,22400],[2026,23658]],"population_history":[[2021,4194],[2022,4236],[2023,4164],[2024,4132],[2025,4159],[2026,4135]],"unemployment_history":[[2021,6.3],[2022,6.2],[2023,6.1],[2024,5.3],[2025,6.9],[2026,7.6]],"income_change_pct":18,"population_change_pct":-1.4,"unemployment_change_pct":20.6,"schools":[{"name":"Äänekosken lukio","score":59.5}],"property_price_history":[[2020,1131],[2021,1086],[2022,1059],[2023,967],[2024,978],[2025,941]],"crime_index_history":[[2020,112.5],[2021,122.7],[2022,125.3],[2023,110.4],[2024,101.9],[2025,107.8]],"crime_index_change_pct":-4.2,"health_index":115.2,"radon":97,"municipality":"Äänekoski","lon":25.71665,"lat":62.60064,"flood_risk_pct":null,"population_projection_pct":-12.6,"construction_activity":4.7,"active_plan_count":1,"political_lean_index":53.8,"party_vote_kok_pct":8.4,"party_vote_sdp_pct":26.7,"party_vote_ps_pct":22.1,"party_vote_kesk_pct":20.3,"party_vote_vihr_pct":4.5,"party_vote_vas_pct":10.3,"party_vote_rkp_pct":0.2,"foreign_language_municipal_pct":3.4}},{"type":"MultiPolygon","arcs":[[[9,10,-8]]],"properties":{"id":1309,"postinumeroalue":"44120","nimi":"Mämmensalmi-Mustaniemi","namn":"Mämmensalmi-Mustaniemi","euref_x":434707,"euref_y":6944322,"pinta_ala":6189270,"vuosi":2026,"kunta":"992","he_vakiy":2299,"he_naiset":1095,"he_miehet":1204,"he_kika":47,"he_0_2":46,"he_3_6":84,"he_7_12":157,"he_13_15":100,"he_16_17":65,"he_18_19":53,"he_20_24":47,"he_25_29":76,"he_30_34":111,"he_35_39":117,"he_40_44":129,"he_45_49":154,"he_50_54":168,"he_55_59":175,"he_60_64":195,"he_65_69":161,"he_70_74":157,"he_75_79":166,"he_80_84":77,"he_85_":61,"ko_ika18y":1847,"ko_perus":344,"ko_koul":1503,"ko_yliop":52,"ko_ammat":929,"ko_al_kork":394,"ko_yl_kork":128,"hr_tuy":1847,"hr_ktu":28120,"hr_mtu":27287,"hr_pi_tul":306,"hr_ke_tul":1237,"hr_hy_tul":304,"hr_ovy":51937828,"te_taly":1069,"te_takk":2.1,"te_as_valj":47,"te_yks":342,"te_nuor":41,"te_eil_np":18,"te_laps":236,"te_plap":37,"te_aklap":90,"te_klap":110,"te_teini":124,"te_yhlap":54,"te_aik":414,"te_elak":424,"te_omis_as":949,"te_vuok_as":114,"te_muu_as":6,"tr_kuty":1069,"tr_ktu":48938,"tr_mtu":46127,"tr_pi_tul":172,"tr_ke_tul":731,"tr_hy_tul":166,"tr_ovy":52315235,"ra_ke":14,"ra_raky":964,"ra_muut":19,"ra_asrak":945,"ra_asunn":1168,"ra_as_kpa":99.2,"ra_pt_as":1057,"ra_kt_as":92,"ra_muu_as":19,"tp_tyopy":197,"tp_alku_a":2,"tp_jalo_bf":33,"tp_palv_gu":162,"tp_a_maat":2,"tp_b_kaiv":0,"tp_c_teol":3,"tp_d_ener":0,"tp_e_vesi":0,"tp_f_rake":30,"tp_g_kaup":12,"tp_h_kulj":9,"tp_i_majo":8,"tp_j_info":1,"tp_k_raho":1,"tp_l_kiin":3,"tp_m_erik":2,"tp_n_hall":7,"tp_o_julk":0,"tp_p_koul":53,"tp_q_terv":23,"tp_r_taid":2,"tp_s_muup":41,"tp_t_koti":0,"tp_u_kans":0,"tp_x_tunt":0,"pt_vakiy":2299,"pt_tyoll":915,"pt_tyott":154,"pt_0_14":356,"pt_opisk":147,"pt_elakel":680,"pt_muut":47,"city":"aanekoski","pno":"44120","unemployment_rate":6.7,"higher_education_rate":28.3,"pensioner_share":29.6,"ownership_rate":88.8,"rental_rate":10.7,"population_density":371,"child_ratio":5.7,"student_share":6.4,"detached_house_share":90.5,"youth_ratio_pct":7.7,"gender_ratio":0.91,"single_parent_hh_pct":1.7,"families_with_children_pct":22.1,"tech_sector_pct":0.5,"healthcare_workers_pct":11.7,"employment_rate":39.8,"elderly_ratio_pct":27.1,"avg_household_size":2.15,"manufacturing_jobs_pct":16.8,"public_sector_jobs_pct":0,"service_sector_jobs_pct":82.2,"new_construction_pct":82.5,"foreign_language_pct":1.5,"crime_index":108.5,"property_price_sqm":1171,"transit_stop_density":2.3,"air_quality_index":24.4,"daycare_density":0,"school_density":0.2,"healthcare_density":0,"restaurant_density":0,"grocery_density":0.2,"cycling_density":7.8,"single_person_hh_pct":32,"rental_price_sqm":null,"price_to_rent_ratio":null,"walkability_index":86,"traffic_accident_rate":null,"property_price_change_pct":1.6,"school_quality_score":null,"light_pollution":3.86,"noise_pollution":40,"voter_turnout_pct":63.2,"party_diversity_index":0.699,"broadband_coverage_pct":64,"ev_charging_density":0,"tree_canopy_pct":40.8,"transit_reachability_score":null,"sports_facility_density":1.5,"water_proximity_m":0,"avg_construction_year":1981,"income_history":[[2021,22837],[2022,23112],[2023,23754],[2024,24581],[2025,26042],[2026,27287]],"population_history":[[2021,2478],[2022,2458],[2023,2409],[2024,2369],[2025,2310],[2026,2299]],"unemployment_history":[[2021,5.4],[2022,6.1],[2023,5.8],[2024,4.2],[2025,6.6],[2026,6.7]],"income_change_pct":19.5,"population_change_pct":-7.2,"unemployment_change_pct":24.1,"schools":null,"property_price_history":[[2020,1153],[2024,1171]],"crime_index_history":[[2020,113.2],[2021,123.5],[2022,126.1],[2023,111.1],[2024,102.6],[2025,108.5]],"crime_index_change_pct":-4.2,"health_index":115.2,"radon":139,"municipality":"Äänekoski","lon":25.72163,"lat":62.61742,"flood_risk_pct":null,"population_projection_pct":-12.6,"construction_activity":4.7,"active_plan_count":0,"political_lean_index":53.8,"party_vote_kok_pct":8.4,"party_vote_sdp_pct":26.7,"party_vote_ps_pct":22.1,"party_vote_kesk_pct":20.3,"party_vote_vihr_pct":4.5,"party_vote_vas_pct":10.3,"party_vote_rkp_pct":0.2,"foreign_language_municipal_pct":3.4}},{"type":"MultiPolygon","arcs":[[[11,12,13,-10,-7,14,15,16]]],"properties":{"id":1310,"postinumeroalue":"44150","nimi":"Likolahti-Karhunlähde","namn":"Likolahti-Karhunlähde","euref_x":432698,"euref_y":6950389,"pinta_ala":149257587,"vuosi":2026,"kunta":"992","he_vakiy":2930,"he_naiset":1466,"he_miehet":1464,"he_kika":46,"he_0_2":48,"he_3_6":95,"he_7_12":188,"he_13_15":124,"he_16_17":92,"he_18_19":69,"he_20_24":134,"he_25_29":130,"he_30_34":138,"he_35_39":153,"he_40_44":168,"he_45_49":199,"he_50_54":199,"he_55_59":211,"he_60_64":240,"he_65_69":231,"he_70_74":204,"he_75_79":156,"he_80_84":79,"he_85_":72,"ko_ika18y":2383,"ko_perus":580,"ko_koul":1803,"ko_yliop":56,"ko_ammat":1223,"ko_al_kork":410,"ko_yl_kork":114,"hr_tuy":2383,"hr_ktu":26119,"hr_mtu":24958,"hr_pi_tul":536,"hr_ke_tul":1544,"hr_hy_tul":303,"hr_ovy":62242308,"te_taly":1546,"te_takk":1.9,"te_as_valj":43,"te_yks":719,"te_nuor":152,"te_eil_np":49,"te_laps":292,"te_plap":43,"te_aklap":102,"te_klap":132,"te_teini":145,"te_yhlap":85,"te_aik":709,"te_elak":550,"te_omis_as":1041,"te_vuok_as":489,"te_muu_as":16,"tr_kuty":1546,"tr_ktu":40580,"tr_mtu":34456,"tr_pi_tul":477,"tr_ke_tul":912,"tr_hy_tul":157,"tr_ovy":62736492,"ra_ke":344,"ra_raky":1032,"ra_muut":150,"ra_asrak":882,"ra_asunn":1856,"ra_as_kpa":78,"ra_pt_as":1071,"ra_kt_as":769,"ra_muu_as":16,"tp_tyopy":498,"tp_alku_a":13,"tp_jalo_bf":256,"tp_palv_gu":229,"tp_a_maat":13,"tp_b_kaiv":0,"tp_c_teol":101,"tp_d_ener":0,"tp_e_vesi":53,"tp_f_rake":102,"tp_g_kaup":18,"tp_h_kulj":37,"tp_i_majo":6,"tp_j_info":0,"tp_k_raho":0,"tp_l_kiin":0,"tp_m_erik":9,"tp_n_hall":11,"tp_o_julk":0,"tp_p_koul":19,"tp_q_terv":99,"tp_r_taid":11,"tp_s_muup":19,"tp_t_koti":0,"tp_u_kans":0,"tp_x_tunt":0,"pt_vakiy":2930,"pt_tyoll":1077,"pt_tyott":264,"pt_0_14":416,"pt_opisk":214,"pt_elakel":837,"pt_muut":122,"city":"aanekoski","pno":"44150","unemployment_rate":9,"higher_education_rate":22,"pensioner_share":28.6,"ownership_rate":67.3,"rental_rate":31.6,"population_density":20,"child_ratio":4.9,"student_share":7.3,"detached_house_share":57.7,"youth_ratio_pct":11.4,"gender_ratio":1,"single_parent_hh_pct":3.2,"families_with_children_pct":18.9,"tech_sector_pct":0,"healthcare_workers_pct":19.9,"employment_rate":36.8,"elderly_ratio_pct":25.3,"avg_household_size":1.9,"manufacturing_jobs_pct":51.4,"public_sector_jobs_pct":0,"service_sector_jobs_pct":46,"new_construction_pct":55.6,"foreign_language_pct":2.4,"crime_index":87.8,"property_price_sqm":726,"transit_stop_density":0.2,"air_quality_index":24.3,"daycare_density":0,"school_density":0,"healthcare_density":0,"restaurant_density":0,"grocery_density":0,"cycling_density":0.3,"single_person_hh_pct":46.5,"rental_price_sqm":null,"price_to_rent_ratio":null,"walkability_index":79,"traffic_accident_rate":1.6,"property_price_change_pct":-1.2,"school_quality_score":null,"light_pollution":0.36,"noise_pollution":40,"voter_turnout_pct":63.2,"party_diversity_index":0.699,"broadband_coverage_pct":64,"ev_charging_density":0,"tree_canopy_pct":31.6,"transit_reachability_score":null,"sports_facility_density":0.1,"water_proximity_m":0,"avg_construction_year":1980,"income_history":[[2021,21171],[2022,21513],[2023,21846],[2024,22765],[2025,23935],[2026,24958]],"population_history":[[2021,3182],[2022,3060],[2023,3012],[2024,2964],[2025,2976],[2026,2930]],"unemployment_history":[[2021,8],[2022,9.4],[2023,6.7],[2024,6.1],[2025,8.2],[2026,9]],"income_change_pct":17.9,"population_change_pct":-7.9,"unemployment_change_pct":12.5,"schools":null,"property_price_history":[[2020,735],[2021,802],[2022,658],[2023,805],[2024,764],[2025,726]],"crime_index_history":[[2020,91.6],[2021,99.9],[2022,102],[2023,89.9],[2024,83],[2025,87.8]],"crime_index_change_pct":-4.1,"health_index":115.2,"radon":117,"municipality":"Äänekoski","lon":25.67415,"lat":62.64513,"flood_risk_pct":null,"population_projection_pct":-12.6,"construction_activity":4.7,"active_plan_count":2,"political_lean_index":53.8,"party_vote_kok_pct":8.4,"party_vote_sdp_pct":26.7,"party_vote_ps_pct":22.1,"party_vote_kesk_pct":20.3,"party_vote_vihr_pct":4.5,"party_vote_vas_pct":10.3,"party_vote_rkp_pct":0.2,"foreign_language_municipal_pct":3.4}},{"type":"MultiPolygon","arcs":[[[17,18,-5,19]]],"properties":{"id":1311,"postinumeroalue":"44160","nimi":"Huutomäki","namn":"Huutomäki","euref_x":429949,"euref_y":6937585,"pinta_ala":29879682,"vuosi":2026,"kunta":"992","he_vakiy":472,"he_naiset":215,"he_miehet":257,"he_kika":43,"he_0_2":12,"he_3_6":16,"he_7_12":51,"he_13_15":24,"he_16_17":11,"he_18_19":8,"he_20_24":11,"he_25_29":20,"he_30_34":21,"he_35_39":31,"he_40_44":27,"he_45_49":32,"he_50_54":30,"he_55_59":41,"he_60_64":40,"he_65_69":33,"he_70_74":26,"he_75_79":18,"he_80_84":11,"he_85_":9,"ko_ika18y":358,"ko_perus":59,"ko_koul":299,"ko_yliop":2,"ko_ammat":214,"ko_al_kork":57,"ko_yl_kork":26,"hr_tuy":358,"hr_ktu":30772,"hr_mtu":27830,"hr_pi_tul":60,"hr_ke_tul":231,"hr_hy_tul":67,"hr_ovy":11016398,"te_taly":195,"te_takk":2.4,"te_as_valj":47.1,"te_yks":56,"te_nuor":5,"te_eil_np":4,"te_laps":55,"te_plap":9,"te_aklap":17,"te_klap":32,"te_teini":26,"te_yhlap":6,"te_aik":77,"te_elak":65,"te_omis_as":179,"te_vuok_as":11,"te_muu_as":5,"tr_kuty":195,"tr_ktu":56761,"tr_mtu":49131,"tr_pi_tul":28,"tr_ke_tul":132,"tr_hy_tul":35,"tr_ovy":11068479,"ra_ke":37,"ra_raky":227,"ra_muut":8,"ra_asrak":219,"ra_asunn":225,"ra_as_kpa":111,"ra_pt_as":215,"ra_kt_as":8,"ra_muu_as":2,"tp_tyopy":49,"tp_alku_a":5,"tp_jalo_bf":22,"tp_palv_gu":22,"tp_a_maat":5,"tp_b_kaiv":0,"tp_c_teol":1,"tp_d_ener":0,"tp_e_vesi":0,"tp_f_rake":21,"tp_g_kaup":5,"tp_h_kulj":3,"tp_i_majo":0,"tp_j_info":1,"tp_k_raho":0,"tp_l_kiin":0,"tp_m_erik":1,"tp_n_hall":1,"tp_o_julk":0,"tp_p_koul":11,"tp_q_terv":0,"tp_r_taid":0,"tp_s_muup":0,"tp_t_koti":0,"tp_u_kans":0,"tp_x_tunt":0,"pt_vakiy":472,"pt_tyoll":205,"pt_tyott":29,"pt_0_14":96,"pt_opisk":22,"pt_elakel":107,"pt_muut":13,"city":"aanekoski","pno":"44160","unemployment_rate":6.1,"higher_education_rate":23.2,"pensioner_share":22.7,"ownership_rate":91.8,"rental_rate":5.6,"population_density":16,"child_ratio":5.9,"student_share":4.7,"detached_house_share":95.6,"youth_ratio_pct":8.3,"gender_ratio":0.84,"single_parent_hh_pct":2.1,"families_with_children_pct":28.2,"tech_sector_pct":2,"healthcare_workers_pct":0,"employment_rate":43.4,"elderly_ratio_pct":20.6,"avg_household_size":2.42,"manufacturing_jobs_pct":44.9,"public_sector_jobs_pct":0,"service_sector_jobs_pct":44.9,"new_construction_pct":100.9,"foreign_language_pct":0.8,"crime_index":67.8,"property_price_sqm":null,"transit_stop_density":0.6,"air_quality_index":23.9,"daycare_density":0,"school_density":0,"healthcare_density":0,"restaurant_density":0,"grocery_density":0,"cycling_density":0.5,"single_person_hh_pct":28.7,"rental_price_sqm":null,"price_to_rent_ratio":null,"walkability_index":80,"traffic_accident_rate":9.9,"property_price_change_pct":null,"school_quality_score":null,"light_pollution":0.74,"noise_pollution":42.9,"voter_turnout_pct":63.2,"party_diversity_index":0.699,"broadband_coverage_pct":64,"ev_charging_density":0,"tree_canopy_pct":66.6,"transit_reachability_score":null,"sports_facility_density":0.1,"water_proximity_m":0,"avg_construction_year":1982,"income_history":[[2021,24266],[2022,24523],[2023,25195],[2024,26378],[2025,28072],[2026,27830]],"population_history":[[2021,490],[2022,476],[2023,472],[2024,476],[2025,474],[2026,472]],"unemployment_history":[[2021,6.3],[2022,5.3],[2023,5.3],[2024,3.6],[2025,6.1],[2026,6.1]],"income_change_pct":14.7,"population_change_pct":-3.7,"unemployment_change_pct":-3.2,"schools":null,"crime_index_history":[[2020,70.8],[2021,77.2],[2022,78.8],[2023,69.4],[2024,64.1],[2025,67.8]],"crime_index_change_pct":-4.2,"health_index":115.2,"radon":null,"municipality":"Äänekoski","lon":25.64851,"lat":62.55933,"flood_risk_pct":null,"population_projection_pct":-12.6,"construction_activity":4.7,"active_plan_count":0,"political_lean_index":53.8,"party_vote_kok_pct":8.4,"party_vote_sdp_pct":26.7,"party_vote_ps_pct":22.1,"party_vote_kesk_pct":20.3,"party_vote_vihr_pct":4.5,"party_vote_vas_pct":10.3,"party_vote_rkp_pct":0.2,"foreign_language_municipal_pct":3.4}},{"type":"MultiPolygon","arcs":[[[-6,-19,20,21,-15]]],"properties":{"id":1312,"postinumeroalue":"44170","nimi":"Hietama","namn":"Hietama","euref_x":425462,"euref_y":6940914,"pinta_ala":62786091,"vuosi":2026,"kunta":"992","he_vakiy":484,"he_naiset":222,"he_miehet":262,"he_kika":40,"he_0_2":14,"he_3_6":30,"he_7_12":59,"he_13_15":26,"he_16_17":15,"he_18_19":15,"he_20_24":13,"he_25_29":13,"he_30_34":22,"he_35_39":25,"he_40_44":32,"he_45_49":21,"he_50_54":28,"he_55_59":32,"he_60_64":49,"he_65_69":37,"he_70_74":20,"he_75_79":16,"he_80_84":8,"he_85_":9,"ko_ika18y":340,"ko_perus":56,"ko_koul":284,"ko_yliop":9,"ko_ammat":184,"ko_al_kork":59,"ko_yl_kork":32,"hr_tuy":340,"hr_ktu":29422,"hr_mtu":28526,"hr_pi_tul":63,"hr_ke_tul":205,"hr_hy_tul":72,"hr_ovy":10003356,"te_taly":189,"te_takk":2.6,"te_as_valj":45.2,"te_yks":60,"te_nuor":3,"te_eil_np":0,"te_laps":51,"te_plap":13,"te_aklap":24,"te_klap":33,"te_teini":25,"te_yhlap":3,"te_aik":73,"te_elak":65,"te_omis_as":182,"te_vuok_as":4,"te_muu_as":3,"tr_kuty":189,"tr_ktu":53406,"tr_mtu":49493,"tr_pi_tul":31,"tr_ke_tul":127,"tr_hy_tul":31,"tr_ovy":10093741,"ra_ke":74,"ra_raky":262,"ra_muut":21,"ra_asrak":241,"ra_asunn":229,"ra_as_kpa":111.6,"ra_pt_as":228,"ra_kt_as":0,"ra_muu_as":1,"tp_tyopy":62,"tp_alku_a":23,"tp_jalo_bf":14,"tp_palv_gu":25,"tp_a_maat":23,"tp_b_kaiv":0,"tp_c_teol":4,"tp_d_ener":0,"tp_e_vesi":0,"tp_f_rake":10,"tp_g_kaup":1,"tp_h_kulj":0,"tp_i_majo":5,"tp_j_info":0,"tp_k_raho":1,"tp_l_kiin":0,"tp_m_erik":5,"tp_n_hall":1,"tp_o_julk":0,"tp_p_koul":9,"tp_q_terv":0,"tp_r_taid":0,"tp_s_muup":3,"tp_t_koti":0,"tp_u_kans":0,"tp_x_tunt":0,"pt_vakiy":484,"pt_tyoll":192,"pt_tyott":27,"pt_0_14":120,"pt_opisk":36,"pt_elakel":97,"pt_muut":12,"city":"aanekoski","pno":"44170","unemployment_rate":5.6,"higher_education_rate":26.8,"pensioner_share":20,"ownership_rate":96.3,"rental_rate":2.1,"population_density":8,"child_ratio":9.1,"student_share":7.4,"detached_house_share":99.6,"youth_ratio_pct":8.5,"gender_ratio":0.85,"single_parent_hh_pct":0,"families_with_children_pct":27,"tech_sector_pct":0,"healthcare_workers_pct":0,"employment_rate":39.7,"elderly_ratio_pct":18.6,"avg_household_size":2.56,"manufacturing_jobs_pct":22.6,"public_sector_jobs_pct":0,"service_sector_jobs_pct":40.3,"new_construction_pct":114.4,"foreign_language_pct":0.4,"crime_index":57,"property_price_sqm":null,"transit_stop_density":0.2,"air_quality_index":24.3,"daycare_density":0,"school_density":0,"healthcare_density":0,"restaurant_density":0,"grocery_density":0,"cycling_density":0.1,"single_person_hh_pct":31.7,"rental_price_sqm":null,"price_to_rent_ratio":null,"walkability_index":78,"traffic_accident_rate":3.4,"property_price_change_pct":null,"school_quality_score":null,"light_pollution":0.26,"noise_pollution":40,"voter_turnout_pct":63.2,"party_diversity_index":0.699,"broadband_coverage_pct":64,"ev_charging_density":0,"tree_canopy_pct":50.8,"transit_reachability_score":null,"sports_facility_density":0.1,"water_proximity_m":0,"avg_construction_year":1983,"income_history":[[2021,24808],[2022,25302],[2023,25185],[2024,26428],[2025,27042],[2026,28526]],"population_history":[[2021,498],[2022,489],[2023,490],[2024,492],[2025,490],[2026,484]],"unemployment_history":[[2021,6.2],[2022,5.1],[2023,5.1],[2024,4.7],[2025,5.1],[2026,5.6]],"income_change_pct":15,"population_change_pct":-2.8,"unemployment_change_pct":-9.7,"schools":null,"crime_index_history":[[2020,59.5],[2021,64.9],[2022,66.2],[2023,58.4],[2024,53.9],[2025,57]],"crime_index_change_pct":-4.2,"health_index":115.2,"radon":109,"municipality":"Äänekoski","lon":25.5719,"lat":62.60245,"flood_risk_pct":null,"population_projection_pct":-12.6,"construction_activity":4.7,"active_plan_count":1,"political_lean_index":53.8,"party_vote_kok_pct":8.4,"party_vote_sdp_pct":26.7,"party_vote_ps_pct":22.1,"party_vote_kesk_pct":20.3,"party_vote_vihr_pct":4.5,"party_vote_vas_pct":10.3,"party_vote_rkp_pct":0.2,"foreign_language_municipal_pct":3.4}},{"type":"MultiPolygon","arcs":[[[22,-16,-22]]],"properties":{"id":1313,"postinumeroalue":"44190","nimi":"Parantala","namn":"Parantala","euref_x":424614,"euref_y":6947898,"pinta_ala":30213140,"vuosi":2026,"kunta":"992","he_vakiy":226,"he_naiset":108,"he_miehet":118,"he_kika":46,"he_0_2":9,"he_3_6":10,"he_7_12":19,"he_13_15":6,"he_16_17":4,"he_18_19":4,"he_20_24":6,"he_25_29":8,"he_30_34":8,"he_35_39":15,"he_40_44":14,"he_45_49":9,"he_50_54":12,"he_55_59":15,"he_60_64":25,"he_65_69":22,"he_70_74":17,"he_75_79":16,"he_80_84":3,"he_85_":4,"ko_ika18y":178,"ko_perus":26,"ko_koul":152,"ko_yliop":2,"ko_ammat":95,"ko_al_kork":37,"ko_yl_kork":18,"hr_tuy":178,"hr_ktu":29006,"hr_mtu":28539,"hr_pi_tul":27,"hr_ke_tul":121,"hr_hy_tul":30,"hr_ovy":5163111,"te_taly":100,"te_takk":2.3,"te_as_valj":47.8,"te_yks":28,"te_nuor":4,"te_eil_np":1,"te_laps":22,"te_plap":9,"te_aklap":13,"te_klap":11,"te_teini":8,"te_yhlap":2,"te_aik":37,"te_elak":41,"te_omis_as":95,"te_vuok_as":4,"te_muu_as":1,"tr_kuty":100,"tr_ktu":52131,"tr_mtu":47876,"tr_pi_tul":18,"tr_ke_tul":66,"tr_hy_tul":16,"tr_ovy":5213065,"ra_ke":125,"ra_raky":131,"ra_muut":10,"ra_asrak":121,"ra_asunn":117,"ra_as_kpa":102.9,"ra_pt_as":113,"ra_kt_as":0,"ra_muu_as":4,"tp_tyopy":7,"tp_alku_a":-1,"tp_jalo_bf":-1,"tp_palv_gu":-1,"tp_a_maat":-1,"tp_b_kaiv":-1,"tp_c_teol":-1,"tp_d_ener":-1,"tp_e_vesi":-1,"tp_f_rake":-1,"tp_g_kaup":-1,"tp_h_kulj":-1,"tp_i_majo":-1,"tp_j_info":-1,"tp_k_raho":-1,"tp_l_kiin":-1,"tp_m_erik":-1,"tp_n_hall":-1,"tp_o_julk":-1,"tp_p_koul":-1,"tp_q_terv":-1,"tp_r_taid":-1,"tp_s_muup":-1,"tp_t_koti":-1,"tp_u_kans":-1,"tp_x_tunt":-1,"pt_vakiy":226,"pt_tyoll":90,"pt_tyott":10,"pt_0_14":43,"pt_opisk":9,"pt_elakel":72,"pt_muut":2,"city":"aanekoski","pno":"44190","unemployment_rate":4.4,"higher_education_rate":30.9,"pensioner_share":31.9,"ownership_rate":95,"rental_rate":4,"population_density":7,"child_ratio":8.4,"student_share":4,"detached_house_share":96.6,"youth_ratio_pct":8,"gender_ratio":0.92,"single_parent_hh_pct":1,"families_with_children_pct":22,"tech_sector_pct":null,"healthcare_workers_pct":null,"employment_rate":39.8,"elderly_ratio_pct":27.4,"avg_household_size":2.26,"manufacturing_jobs_pct":null,"public_sector_jobs_pct":null,"service_sector_jobs_pct":null,"new_construction_pct":112,"foreign_language_pct":1.8,"crime_index":52.5,"property_price_sqm":null,"transit_stop_density":0.6,"air_quality_index":24.3,"daycare_density":0,"school_density":0,"healthcare_density":0,"restaurant_density":0,"grocery_density":0,"cycling_density":0.4,"single_person_hh_pct":28,"rental_price_sqm":null,"price_to_rent_ratio":null,"walkability_index":80,"traffic_accident_rate":7.4,"property_price_change_pct":null,"school_quality_score":null,"light_pollution":0.08,"noise_pollution":40,"voter_turnout_pct":63.2,"party_diversity_index":0.699,"broadband_coverage_pct":64,"ev_charging_density":0,"tree_canopy_pct":25.6,"transit_reachability_score":null,"sports_facility_density":0,"water_proximity_m":0,"avg_construction_year":1983,"income_history":[[2021,22706],[2022,23385],[2023,25936],[2024,25063],[2025,26676],[2026,28539]],"population_history":[[2021,229],[2022,220],[2023,221],[2024,222],[2025,228],[2026,226]],"unemployment_history":[[2021,4.4],[2022,6.4],[2023,3.2],[2024,3.2],[2025,3.5],[2026,4.4]],"income_change_pct":25.7,"population_change_pct":-1.3,"unemployment_change_pct":0,"schools":null,"crime_index_history":[[2020,54.8],[2021,59.7],[2022,61],[2023,53.7],[2024,49.6],[2025,52.5]],"crime_index_change_pct":-4.2,"health_index":115.2,"radon":86,"municipality":"Äänekoski","lon":25.52023,"lat":62.6448,"flood_risk_pct":null,"population_projection_pct":-12.6,"construction_activity":4.7,"active_plan_count":0,"political_lean_index":53.8,"party_vote_kok_pct":8.4,"party_vote_sdp_pct":26.7,"party_vote_ps_pct":22.1,"party_vote_kesk_pct":20.3,"party_vote_vihr_pct":4.5,"party_vote_vas_pct":10.3,"party_vote_rkp_pct":0.2,"foreign_language_municipal_pct":3.4}},{"type":"MultiPolygon","arcs":[[[23,24,25,-9,-11,-14,26]]],"properties":{"id":1314,"postinumeroalue":"44200","nimi":"Suolahti Keskus","namn":"Suolahti centrum","euref_x":441658,"euref_y":6936783,"pinta_ala":85651907,"vuosi":2026,"kunta":"992","he_vakiy":3963,"he_naiset":1955,"he_miehet":2008,"he_kika":50,"he_0_2":60,"he_3_6":99,"he_7_12":221,"he_13_15":138,"he_16_17":72,"he_18_19":80,"he_20_24":136,"he_25_29":150,"he_30_34":169,"he_35_39":199,"he_40_44":203,"he_45_49":252,"he_50_54":221,"he_55_59":278,"he_60_64":329,"he_65_69":321,"he_70_74":345,"he_75_79":344,"he_80_84":175,"he_85_":171,"ko_ika18y":3373,"ko_perus":880,"ko_koul":2493,"ko_yliop":92,"ko_ammat":1754,"ko_al_kork":526,"ko_yl_kork":121,"hr_tuy":3373,"hr_ktu":25407,"hr_mtu":23196,"hr_pi_tul":708,"hr_ke_tul":2350,"hr_hy_tul":315,"hr_ovy":85697306,"te_taly":2211,"te_takk":1.8,"te_as_valj":44.7,"te_yks":1115,"te_nuor":159,"te_eil_np":42,"te_laps":337,"te_plap":55,"te_aklap":113,"te_klap":167,"te_teini":165,"te_yhlap":101,"te_aik":890,"te_elak":994,"te_omis_as":1472,"te_vuok_as":712,"te_muu_as":27,"tr_kuty":2211,"tr_ktu":38593,"tr_mtu":31627,"tr_pi_tul":723,"tr_ke_tul":1304,"tr_hy_tul":184,"tr_ovy":85330153,"ra_ke":153,"ra_raky":1586,"ra_muut":291,"ra_asrak":1295,"ra_asunn":2693,"ra_as_kpa":76,"ra_pt_as":1616,"ra_kt_as":1050,"ra_muu_as":27,"tp_tyopy":1971,"tp_alku_a":9,"tp_jalo_bf":1377,"tp_palv_gu":585,"tp_a_maat":9,"tp_b_kaiv":0,"tp_c_teol":1276,"tp_d_ener":14,"tp_e_vesi":0,"tp_f_rake":87,"tp_g_kaup":94,"tp_h_kulj":26,"tp_i_majo":62,"tp_j_info":0,"tp_k_raho":3,"tp_l_kiin":12,"tp_m_erik":19,"tp_n_hall":24,"tp_o_julk":11,"tp_p_koul":74,"tp_q_terv":211,"tp_r_taid":9,"tp_s_muup":40,"tp_t_koti":0,"tp_u_kans":0,"tp_x_tunt":0,"pt_vakiy":3963,"pt_tyoll":1334,"pt_tyott":347,"pt_0_14":476,"pt_opisk":212,"pt_elakel":1499,"pt_muut":95,"city":"aanekoski","pno":"44200","unemployment_rate":8.8,"higher_education_rate":19.2,"pensioner_share":37.8,"ownership_rate":66.6,"rental_rate":32.2,"population_density":46,"child_ratio":4,"student_share":5.3,"detached_house_share":60,"youth_ratio_pct":9.2,"gender_ratio":0.97,"single_parent_hh_pct":1.9,"families_with_children_pct":15.2,"tech_sector_pct":0,"healthcare_workers_pct":10.7,"employment_rate":33.7,"elderly_ratio_pct":34.2,"avg_household_size":1.79,"manufacturing_jobs_pct":69.9,"public_sector_jobs_pct":0.6,"service_sector_jobs_pct":29.7,"new_construction_pct":58.9,"foreign_language_pct":1.8,"crime_index":97.3,"property_price_sqm":817,"transit_stop_density":0.9,"air_quality_index":24.4,"daycare_density":0,"school_density":0,"healthcare_density":0,"restaurant_density":0,"grocery_density":0,"cycling_density":1.8,"single_person_hh_pct":50.4,"rental_price_sqm":null,"price_to_rent_ratio":null,"walkability_index":81,"traffic_accident_rate":1.1,"property_price_change_pct":61.5,"school_quality_score":null,"light_pollution":1.47,"noise_pollution":40,"voter_turnout_pct":63.2,"party_diversity_index":0.699,"broadband_coverage_pct":64,"ev_charging_density":0,"tree_canopy_pct":71,"transit_reachability_score":null,"sports_facility_density":0.3,"water_proximity_m":0,"avg_construction_year":1980,"income_history":[[2021,19580],[2022,19618],[2023,20056],[2024,21072],[2025,22156],[2026,23196]],"population_history":[[2021,4306],[2022,4246],[2023,4172],[2024,4105],[2025,4075],[2026,3963]],"unemployment_history":[[2021,6],[2022,9],[2023,6.4],[2024,5.3],[2025,8.4],[2026,8.8]],"income_change_pct":18.5,"population_change_pct":-8,"unemployment_change_pct":46.7,"schools":null,"property_price_history":[[2020,506],[2021,596],[2022,595],[2023,708],[2024,859],[2025,817]],"crime_index_history":[[2020,101.5],[2021,110.7],[2022,113.1],[2023,99.6],[2024,92],[2025,97.3]],"crime_index_change_pct":-4.1,"health_index":115.2,"radon":87,"municipality":"Äänekoski","lon":25.85228,"lat":62.58379,"flood_risk_pct":0.63,"population_projection_pct":-12.6,"construction_activity":4.7,"active_plan_count":1,"political_lean_index":53.8,"party_vote_kok_pct":8.4,"party_vote_sdp_pct":26.7,"party_vote_ps_pct":22.1,"party_vote_kesk_pct":20.3,"party_vote_vihr_pct":4.5,"party_vote_vas_pct":10.3,"party_vote_rkp_pct":0.2,"foreign_language_municipal_pct":3.4}},{"type":"MultiPolygon","arcs":[[[27,-27]]],"properties":{"id":1315,"postinumeroalue":"44220","nimi":"Sörkänmäki","namn":"Sörkänmäki","euref_x":440273,"euref_y":6946057,"pinta_ala":15545990,"vuosi":2026,"kunta":"992","he_vakiy":361,"he_naiset":159,"he_miehet":202,"he_kika":51,"he_0_2":8,"he_3_6":13,"he_7_12":19,"he_13_15":8,"he_16_17":11,"he_18_19":6,"he_20_24":4,"he_25_29":8,"he_30_34":13,"he_35_39":18,"he_40_44":15,"he_45_49":25,"he_50_54":24,"he_55_59":25,"he_60_64":32,"he_65_69":50,"he_70_74":30,"he_75_79":34,"he_80_84":9,"he_85_":9,"ko_ika18y":302,"ko_perus":66,"ko_koul":236,"ko_yliop":3,"ko_ammat":151,"ko_al_kork":62,"ko_yl_kork":20,"hr_tuy":302,"hr_ktu":26544,"hr_mtu":26214,"hr_pi_tul":55,"hr_ke_tul":208,"hr_hy_tul":39,"hr_ovy":8016318,"te_taly":178,"te_takk":2,"te_as_valj":46.6,"te_yks":62,"te_nuor":4,"te_eil_np":2,"te_laps":32,"te_plap":7,"te_aklap":13,"te_klap":16,"te_teini":14,"te_yhlap":6,"te_aik":57,"te_elak":89,"te_omis_as":169,"te_vuok_as":7,"te_muu_as":2,"tr_kuty":178,"tr_ktu":45205,"tr_mtu":42435,"tr_pi_tul":37,"tr_ke_tul":123,"tr_hy_tul":18,"tr_ovy":8046491,"ra_ke":53,"ra_raky":215,"ra_muut":11,"ra_asrak":204,"ra_asunn":212,"ra_as_kpa":91.6,"ra_pt_as":208,"ra_kt_as":2,"ra_muu_as":2,"tp_tyopy":7,"tp_alku_a":-1,"tp_jalo_bf":-1,"tp_palv_gu":-1,"tp_a_maat":-1,"tp_b_kaiv":-1,"tp_c_teol":-1,"tp_d_ener":-1,"tp_e_vesi":-1,"tp_f_rake":-1,"tp_g_kaup":-1,"tp_h_kulj":-1,"tp_i_majo":-1,"tp_j_info":-1,"tp_k_raho":-1,"tp_l_kiin":-1,"tp_m_erik":-1,"tp_n_hall":-1,"tp_o_julk":-1,"tp_p_koul":-1,"tp_q_terv":-1,"tp_r_taid":-1,"tp_s_muup":-1,"tp_t_koti":-1,"tp_u_kans":-1,"tp_x_tunt":-1,"pt_vakiy":361,"pt_tyoll":126,"pt_tyott":26,"pt_0_14":47,"pt_opisk":18,"pt_elakel":137,"pt_muut":7,"city":"aanekoski","pno":"44220","unemployment_rate":7.2,"higher_education_rate":27.2,"pensioner_share":38,"ownership_rate":94.9,"rental_rate":3.9,"population_density":23,"child_ratio":5.8,"student_share":5,"detached_house_share":98.1,"youth_ratio_pct":5,"gender_ratio":0.79,"single_parent_hh_pct":1.1,"families_with_children_pct":18,"tech_sector_pct":null,"healthcare_workers_pct":null,"employment_rate":34.9,"elderly_ratio_pct":36.6,"avg_household_size":2.03,"manufacturing_jobs_pct":null,"public_sector_jobs_pct":null,"service_sector_jobs_pct":null,"new_construction_pct":101.4,"foreign_language_pct":1.3,"crime_index":74.8,"property_price_sqm":null,"transit_stop_density":0.4,"air_quality_index":24.6,"daycare_density":0,"school_density":0,"healthcare_density":0,"restaurant_density":0,"grocery_density":0,"cycling_density":0.5,"single_person_hh_pct":34.8,"rental_price_sqm":null,"price_to_rent_ratio":null,"walkability_index":80,"traffic_accident_rate":null,"property_price_change_pct":null,"school_quality_score":null,"light_pollution":0.67,"noise_pollution":40,"voter_turnout_pct":63.2,"party_diversity_index":0.699,"broadband_coverage_pct":64,"ev_charging_density":0,"tree_canopy_pct":66.6,"transit_reachability_score":null,"sports_facility_density":0.2,"water_proximity_m":0,"avg_construction_year":1982,"income_history":[[2021,21659],[2022,22633],[2023,23338],[2024,24628],[2025,24835],[2026,26214]],"population_history":[[2021,380],[2022,383],[2023,378],[2024,376],[2025,358],[2026,361]],"unemployment_history":[[2021,6.3],[2022,7.8],[2023,6.3],[2024,5.1],[2025,7.5],[2026,7.2]],"income_change_pct":21,"population_change_pct":-5,"unemployment_change_pct":14.3,"schools":null,"crime_index_history":[[2020,78.1],[2021,85.1],[2022,86.9],[2023,76.6],[2024,70.7],[2025,74.8]],"crime_index_change_pct":-4.2,"health_index":115.2,"radon":null,"municipality":"Äänekoski","lon":25.83931,"lat":62.6043,"flood_risk_pct":null,"population_projection_pct":-12.6,"construction_activity":4.7,"active_plan_count":0,"political_lean_index":53.8,"party_vote_kok_pct":8.4,"party_vote_sdp_pct":26.7,"party_vote_ps_pct":22.1,"party_vote_kesk_pct":20.3,"party_vote_vihr_pct":4.5,"party_vote_vas_pct":10.3,"party_vote_rkp_pct":0.2,"foreign_language_municipal_pct":3.4}},{"type":"MultiPolygon","arcs":[[[-20,-4,-26,28]]],"properties":{"id":1316,"postinumeroalue":"44250","nimi":"Äänekoivisto","namn":"Äänekoivisto","euref_x":436459,"euref_y":6933266,"pinta_ala":43656491,"vuosi":2026,"kunta":"992","he_vakiy":563,"he_naiset":276,"he_miehet":287,"he_kika":40,"he_0_2":11,"he_3_6":40,"he_7_12":70,"he_13_15":34,"he_16_17":19,"he_18_19":10,"he_20_24":11,"he_25_29":16,"he_30_34":24,"he_35_39":34,"he_40_44":50,"he_45_49":43,"he_50_54":31,"he_55_59":27,"he_60_64":25,"he_65_69":33,"he_70_74":40,"he_75_79":27,"he_80_84":12,"he_85_":6,"ko_ika18y":389,"ko_perus":72,"ko_koul":317,"ko_yliop":13,"ko_ammat":198,"ko_al_kork":81,"ko_yl_kork":25,"hr_tuy":389,"hr_ktu":30217,"hr_mtu":28355,"hr_pi_tul":56,"hr_ke_tul":252,"hr_hy_tul":81,"hr_ovy":11754439,"te_taly":211,"te_takk":2.7,"te_as_valj":44.3,"te_yks":52,"te_nuor":8,"te_eil_np":2,"te_laps":71,"te_plap":11,"te_aklap":34,"te_klap":41,"te_teini":37,"te_yhlap":7,"te_aik":63,"te_elak":79,"te_omis_as":204,"te_vuok_as":3,"te_muu_as":4,"tr_kuty":211,"tr_ktu":56272,"tr_mtu":53559,"tr_pi_tul":27,"tr_ke_tul":154,"tr_hy_tul":30,"tr_ovy":11873354,"ra_ke":54,"ra_raky":268,"ra_muut":28,"ra_asrak":240,"ra_asunn":239,"ra_as_kpa":114.3,"ra_pt_as":239,"ra_kt_as":0,"ra_muu_as":0,"tp_tyopy":308,"tp_alku_a":8,"tp_jalo_bf":139,"tp_palv_gu":161,"tp_a_maat":8,"tp_b_kaiv":0,"tp_c_teol":97,"tp_d_ener":0,"tp_e_vesi":5,"tp_f_rake":37,"tp_g_kaup":86,"tp_h_kulj":23,"tp_i_majo":15,"tp_j_info":0,"tp_k_raho":0,"tp_l_kiin":0,"tp_m_erik":0,"tp_n_hall":1,"tp_o_julk":0,"tp_p_koul":11,"tp_q_terv":21,"tp_r_taid":0,"tp_s_muup":4,"tp_t_koti":0,"tp_u_kans":0,"tp_x_tunt":0,"pt_vakiy":563,"pt_tyoll":224,"pt_tyott":28,"pt_0_14":145,"pt_opisk":39,"pt_elakel":119,"pt_muut":8,"city":"aanekoski","pno":"44250","unemployment_rate":5,"higher_education_rate":27.2,"pensioner_share":21.1,"ownership_rate":96.7,"rental_rate":1.4,"population_density":13,"child_ratio":9.1,"student_share":6.9,"detached_house_share":100,"youth_ratio_pct":6.6,"gender_ratio":0.96,"single_parent_hh_pct":0.9,"families_with_children_pct":33.6,"tech_sector_pct":0,"healthcare_workers_pct":6.8,"employment_rate":39.8,"elderly_ratio_pct":21,"avg_household_size":2.67,"manufacturing_jobs_pct":45.1,"public_sector_jobs_pct":0,"service_sector_jobs_pct":52.3,"new_construction_pct":112.1,"foreign_language_pct":0.7,"crime_index":60.7,"property_price_sqm":null,"transit_stop_density":0.5,"air_quality_index":24.2,"daycare_density":0,"school_density":0,"healthcare_density":0,"restaurant_density":0.1,"grocery_density":0,"cycling_density":0.2,"single_person_hh_pct":24.6,"rental_price_sqm":null,"price_to_rent_ratio":null,"walkability_index":80,"traffic_accident_rate":4.7,"property_price_change_pct":null,"school_quality_score":null,"light_pollution":0.71,"noise_pollution":41,"voter_turnout_pct":63.2,"party_diversity_index":0.699,"broadband_coverage_pct":64,"ev_charging_density":0.1,"tree_canopy_pct":46.8,"transit_reachability_score":null,"sports_facility_density":0.2,"water_proximity_m":0,"avg_construction_year":1983,"income_history":[[2021,24173],[2022,24633],[2023,25738],[2024,26627],[2025,26749],[2026,28355]],"population_history":[[2021,566],[2022,579],[2023,573],[2024,571],[2025,557],[2026,563]],"unemployment_history":[[2021,3.9],[2022,3.3],[2023,3.7],[2024,2.8],[2025,5.6],[2026,5]],"income_change_pct":17.3,"population_change_pct":-0.5,"unemployment_change_pct":28.2,"schools":null,"crime_index_history":[[2020,63.3],[2021,69.1],[2022,70.5],[2023,62.1],[2024,57.4],[2025,60.7]],"crime_index_change_pct":-4.1,"health_index":115.2,"radon":149,"municipality":"Äänekoski","lon":25.77935,"lat":62.52999,"flood_risk_pct":null,"population_projection_pct":-12.6,"construction_activity":4.7,"active_plan_count":1,"political_lean_index":53.8,"party_vote_kok_pct":8.4,"party_vote_sdp_pct":26.7,"party_vote_ps_pct":22.1,"party_vote_kesk_pct":20.3,"party_vote_vihr_pct":4.5,"party_vote_vas_pct":10.3,"party_vote_rkp_pct":0.2,"foreign_language_municipal_pct":3.4}},{"type":"MultiPolygon","arcs":[[[29,30,-24,-28,-13,31,32]]],"properties":{"id":1317,"postinumeroalue":"44260","nimi":"Vihijärvi","namn":"Vihijärvi","euref_x":444710,"euref_y":6945013,"pinta_ala":82059621,"vuosi":2026,"kunta":"992","he_vakiy":247,"he_naiset":115,"he_miehet":132,"he_kika":47,"he_0_2":5,"he_3_6":8,"he_7_12":22,"he_13_15":12,"he_16_17":8,"he_18_19":7,"he_20_24":5,"he_25_29":4,"he_30_34":5,"he_35_39":10,"he_40_44":17,"he_45_49":19,"he_50_54":22,"he_55_59":14,"he_60_64":15,"he_65_69":17,"he_70_74":21,"he_75_79":19,"he_80_84":14,"he_85_":3,"ko_ika18y":192,"ko_perus":35,"ko_koul":157,"ko_yliop":6,"ko_ammat":97,"ko_al_kork":41,"ko_yl_kork":13,"hr_tuy":192,"hr_ktu":27766,"hr_mtu":25127,"hr_pi_tul":42,"hr_ke_tul":117,"hr_hy_tul":33,"hr_ovy":5331150,"te_taly":104,"te_takk":2.4,"te_as_valj":46.2,"te_yks":33,"te_nuor":2,"te_eil_np":0,"te_laps":23,"te_plap":5,"te_aklap":8,"te_klap":13,"te_teini":13,"te_yhlap":2,"te_aik":36,"te_elak":47,"te_omis_as":94,"te_vuok_as":5,"te_muu_as":5,"tr_kuty":104,"tr_ktu":51814,"tr_mtu":45030,"tr_pi_tul":24,"tr_ke_tul":63,"tr_hy_tul":17,"tr_ovy":5388684,"ra_ke":242,"ra_raky":152,"ra_muut":15,"ra_asrak":137,"ra_asunn":128,"ra_as_kpa":104.9,"ra_pt_as":128,"ra_kt_as":0,"ra_muu_as":0,"tp_tyopy":12,"tp_alku_a":7,"tp_jalo_bf":2,"tp_palv_gu":3,"tp_a_maat":7,"tp_b_kaiv":0,"tp_c_teol":0,"tp_d_ener":0,"tp_e_vesi":0,"tp_f_rake":2,"tp_g_kaup":2,"tp_h_kulj":0,"tp_i_majo":0,"tp_j_info":0,"tp_k_raho":0,"tp_l_kiin":0,"tp_m_erik":1,"tp_n_hall":0,"tp_o_julk":0,"tp_p_koul":0,"tp_q_terv":0,"tp_r_taid":0,"tp_s_muup":0,"tp_t_koti":0,"tp_u_kans":0,"tp_x_tunt":0,"pt_vakiy":247,"pt_tyoll":87,"pt_tyott":16,"pt_0_14":45,"pt_opisk":18,"pt_elakel":77,"pt_muut":4,"city":"aanekoski","pno":"44260","unemployment_rate":6.5,"higher_education_rate":28.1,"pensioner_share":31.2,"ownership_rate":90.4,"rental_rate":4.8,"population_density":3,"child_ratio":5.3,"student_share":7.3,"detached_house_share":100,"youth_ratio_pct":6.5,"gender_ratio":0.87,"single_parent_hh_pct":0,"families_with_children_pct":22.1,"tech_sector_pct":0,"healthcare_workers_pct":0,"employment_rate":35.2,"elderly_ratio_pct":30,"avg_household_size":2.38,"manufacturing_jobs_pct":16.7,"public_sector_jobs_pct":0,"service_sector_jobs_pct":25,"new_construction_pct":118.8,"foreign_language_pct":0.4,"crime_index":49,"property_price_sqm":null,"transit_stop_density":0,"air_quality_index":24.7,"daycare_density":0,"school_density":0,"healthcare_density":0,"restaurant_density":0,"grocery_density":0,"cycling_density":0,"single_person_hh_pct":31.7,"rental_price_sqm":null,"price_to_rent_ratio":null,"walkability_index":76,"traffic_accident_rate":null,"property_price_change_pct":null,"school_quality_score":null,"light_pollution":0.02,"noise_pollution":40,"voter_turnout_pct":63.2,"party_diversity_index":0.699,"broadband_coverage_pct":64,"ev_charging_density":0,"tree_canopy_pct":43.6,"transit_reachability_score":null,"sports_facility_density":0.1,"water_proximity_m":0,"avg_construction_year":1983,"income_history":[[2021,22537],[2022,20972],[2023,23199],[2024,23550],[2025,24076],[2026,25127]],"population_history":[[2021,271],[2022,270],[2023,269],[2024,261],[2025,253],[2026,247]],"unemployment_history":[[2021,5.2],[2022,5.6],[2023,3],[2024,2.3],[2025,7.1],[2026,6.5]],"income_change_pct":11.5,"population_change_pct":-8.9,"unemployment_change_pct":25,"schools":null,"crime_index_history":[[2020,51.1],[2021,55.8],[2022,56.9],[2023,50.2],[2024,46.3],[2025,49]],"crime_index_change_pct":-4.1,"health_index":115.2,"radon":null,"municipality":"Äänekoski","lon":25.93417,"lat":62.63891,"flood_risk_pct":null,"population_projection_pct":-12.6,"construction_activity":4.7,"active_plan_count":0,"political_lean_index":53.8,"party_vote_kok_pct":8.4,"party_vote_sdp_pct":26.7,"party_vote_ps_pct":22.1,"party_vote_kesk_pct":20.3,"party_vote_vihr_pct":4.5,"party_vote_vas_pct":10.3,"party_vote_rkp_pct":0.2,"foreign_language_municipal_pct":3.4}},{"type":"MultiPolygon","arcs":[[[33,34,35,-33,36,37,38]]],"properties":{"id":1318,"postinumeroalue":"44280","nimi":"Sumiainen Keskus","namn":"Sumiainen centrum","euref_x":450052,"euref_y":6952747,"pinta_ala":224104992,"vuosi":2026,"kunta":"992","he_vakiy":754,"he_naiset":369,"he_miehet":385,"he_kika":53,"he_0_2":12,"he_3_6":26,"he_7_12":42,"he_13_15":20,"he_16_17":13,"he_18_19":9,"he_20_24":14,"he_25_29":16,"he_30_34":27,"he_35_39":27,"he_40_44":39,"he_45_49":54,"he_50_54":45,"he_55_59":53,"he_60_64":62,"he_65_69":75,"he_70_74":74,"he_75_79":71,"he_80_84":36,"he_85_":39,"ko_ika18y":641,"ko_perus":148,"ko_koul":493,"ko_yliop":12,"ko_ammat":327,"ko_al_kork":113,"ko_yl_kork":41,"hr_tuy":641,"hr_ktu":26179,"hr_mtu":23479,"hr_pi_tul":144,"hr_ke_tul":411,"hr_hy_tul":86,"hr_ovy":16780790,"te_taly":407,"te_takk":1.8,"te_as_valj":52.5,"te_yks":197,"te_nuor":12,"te_eil_np":4,"te_laps":58,"te_plap":10,"te_aklap":26,"te_klap":31,"te_teini":26,"te_yhlap":9,"te_aik":131,"te_elak":219,"te_omis_as":335,"te_vuok_as":63,"te_muu_as":9,"tr_kuty":407,"tr_ktu":41119,"tr_mtu":34035,"tr_pi_tul":125,"tr_ke_tul":228,"tr_hy_tul":54,"tr_ovy":16735507,"ra_ke":582,"ra_raky":488,"ra_muut":49,"ra_asrak":439,"ra_asunn":512,"ra_as_kpa":91.1,"ra_pt_as":482,"ra_kt_as":0,"ra_muu_as":30,"tp_tyopy":70,"tp_alku_a":14,"tp_jalo_bf":4,"tp_palv_gu":52,"tp_a_maat":14,"tp_b_kaiv":0,"tp_c_teol":0,"tp_d_ener":0,"tp_e_vesi":0,"tp_f_rake":4,"tp_g_kaup":3,"tp_h_kulj":0,"tp_i_majo":0,"tp_j_info":0,"tp_k_raho":0,"tp_l_kiin":0,"tp_m_erik":4,"tp_n_hall":1,"tp_o_julk":0,"tp_p_koul":8,"tp_q_terv":28,"tp_r_taid":1,"tp_s_muup":7,"tp_t_koti":0,"tp_u_kans":0,"tp_x_tunt":0,"pt_vakiy":754,"pt_tyoll":233,"pt_tyott":60,"pt_0_14":94,"pt_opisk":31,"pt_elakel":324,"pt_muut":12,"city":"aanekoski","pno":"44280","unemployment_rate":8,"higher_education_rate":24,"pensioner_share":43,"ownership_rate":82.3,"rental_rate":15.5,"population_density":3,"child_ratio":5,"student_share":4.1,"detached_house_share":94.1,"youth_ratio_pct":5.2,"gender_ratio":0.96,"single_parent_hh_pct":1,"families_with_children_pct":14.3,"tech_sector_pct":0,"healthcare_workers_pct":40,"employment_rate":30.9,"elderly_ratio_pct":39.1,"avg_household_size":1.85,"manufacturing_jobs_pct":5.7,"public_sector_jobs_pct":0,"service_sector_jobs_pct":74.3,"new_construction_pct":95.3,"foreign_language_pct":1.6,"crime_index":57,"property_price_sqm":920,"transit_stop_density":0.1,"air_quality_index":24.8,"daycare_density":0,"school_density":0,"healthcare_density":0,"restaurant_density":0,"grocery_density":0,"cycling_density":0,"single_person_hh_pct":48.4,"rental_price_sqm":null,"price_to_rent_ratio":null,"walkability_index":76,"traffic_accident_rate":0.9,"property_price_change_pct":null,"school_quality_score":null,"light_pollution":0.02,"noise_pollution":40,"voter_turnout_pct":63.2,"party_diversity_index":0.699,"broadband_coverage_pct":64,"ev_charging_density":0,"tree_canopy_pct":48.7,"transit_reachability_score":null,"sports_facility_density":0.1,"water_proximity_m":0,"avg_construction_year":1982,"income_history":[[2021,19291],[2022,19247],[2023,20441],[2024,21436],[2025,22789],[2026,23479]],"population_history":[[2021,822],[2022,818],[2023,817],[2024,806],[2025,757],[2026,754]],"unemployment_history":[[2021,6.9],[2022,7.6],[2023,5.5],[2024,5.8],[2025,7.9],[2026,8]],"income_change_pct":21.7,"population_change_pct":-8.3,"unemployment_change_pct":15.9,"schools":null,"crime_index_history":[[2020,59.5],[2021,64.9],[2022,66.2],[2023,58.4],[2024,53.9],[2025,57]],"crime_index_change_pct":-4.2,"health_index":115.2,"radon":95,"municipality":"Äänekoski","lon":26.02538,"lat":62.69901,"flood_risk_pct":null,"population_projection_pct":-12.6,"construction_activity":4.7,"active_plan_count":0,"political_lean_index":53.8,"party_vote_kok_pct":8.4,"party_vote_sdp_pct":26.7,"party_vote_ps_pct":22.1,"party_vote_kesk_pct":20.3,"party_vote_vihr_pct":4.5,"party_vote_vas_pct":10.3,"party_vote_rkp_pct":0.2,"foreign_language_municipal_pct":3.4}},{"type":"MultiPolygon","arcs":[[[39,-30,-36,40]],[[-2,41,42,-34,43,44]]],"properties":{"id":1319,"postinumeroalue":"44300","nimi":"Konnevesi Keskus","namn":"Konnevesi centrum","euref_x":464024,"euref_y":6946404,"pinta_ala":245934621,"vuosi":2026,"kunta":"275","he_vakiy":1593,"he_naiset":814,"he_miehet":779,"he_kika":52,"he_0_2":34,"he_3_6":43,"he_7_12":75,"he_13_15":48,"he_16_17":40,"he_18_19":21,"he_20_24":55,"he_25_29":42,"he_30_34":60,"he_35_39":73,"he_40_44":72,"he_45_49":82,"he_50_54":96,"he_55_59":111,"he_60_64":135,"he_65_69":147,"he_70_74":144,"he_75_79":128,"he_80_84":84,"he_85_":103,"ko_ika18y":1353,"ko_perus":354,"ko_koul":999,"ko_yliop":30,"ko_ammat":659,"ko_al_kork":234,"ko_yl_kork":76,"hr_tuy":1353,"hr_ktu":26878,"hr_mtu":23438,"hr_pi_tul":292,"hr_ke_tul":888,"hr_hy_tul":173,"hr_ovy":36365910,"te_taly":872,"te_takk":1.8,"te_as_valj":48.6,"te_yks":427,"te_nuor":54,"te_eil_np":13,"te_laps":133,"te_plap":28,"te_aklap":54,"te_klap":50,"te_teini":58,"te_yhlap":35,"te_aik":310,"te_elak":431,"te_omis_as":610,"te_vuok_as":247,"te_muu_as":15,"tr_kuty":872,"tr_ktu":41226,"tr_mtu":33401,"tr_pi_tul":282,"tr_ke_tul":485,"tr_hy_tul":105,"tr_ovy":35949307,"ra_ke":393,"ra_raky":913,"ra_muut":146,"ra_asrak":767,"ra_asunn":1071,"ra_as_kpa":84.2,"ra_pt_as":956,"ra_kt_as":75,"ra_muu_as":40,"tp_tyopy":478,"tp_alku_a":72,"tp_jalo_bf":29,"tp_palv_gu":377,"tp_a_maat":72,"tp_b_kaiv":1,"tp_c_teol":11,"tp_d_ener":2,"tp_e_vesi":0,"tp_f_rake":15,"tp_g_kaup":35,"tp_h_kulj":17,"tp_i_majo":22,"tp_j_info":0,"tp_k_raho":13,"tp_l_kiin":7,"tp_m_erik":33,"tp_n_hall":17,"tp_o_julk":15,"tp_p_koul":45,"tp_q_terv":160,"tp_r_taid":3,"tp_s_muup":10,"tp_t_koti":0,"tp_u_kans":0,"tp_x_tunt":0,"pt_vakiy":1593,"pt_tyoll":546,"pt_tyott":111,"pt_0_14":185,"pt_opisk":77,"pt_elakel":646,"pt_muut":28,"city":"aanekoski","pno":"44300","unemployment_rate":7,"higher_education_rate":22.9,"pensioner_share":40.6,"ownership_rate":70,"rental_rate":28.3,"population_density":6,"child_ratio":4.8,"student_share":4.8,"detached_house_share":89.3,"youth_ratio_pct":7.4,"gender_ratio":1.04,"single_parent_hh_pct":1.5,"families_with_children_pct":15.3,"tech_sector_pct":0,"healthcare_workers_pct":33.5,"employment_rate":34.3,"elderly_ratio_pct":38,"avg_household_size":1.83,"manufacturing_jobs_pct":6.1,"public_sector_jobs_pct":3.1,"service_sector_jobs_pct":78.9,"new_construction_pct":85.2,"foreign_language_pct":1,"crime_index":63.9,"property_price_sqm":834,"transit_stop_density":0.2,"air_quality_index":24.8,"daycare_density":0,"school_density":0,"healthcare_density":0,"restaurant_density":0,"grocery_density":0,"cycling_density":0.1,"single_person_hh_pct":49,"rental_price_sqm":null,"price_to_rent_ratio":null,"walkability_index":78,"traffic_accident_rate":1.7,"property_price_change_pct":null,"school_quality_score":59.3,"light_pollution":0.06,"noise_pollution":40,"voter_turnout_pct":66.3,"party_diversity_index":0.664,"broadband_coverage_pct":69,"ev_charging_density":0,"tree_canopy_pct":64.7,"transit_reachability_score":null,"sports_facility_density":0.1,"water_proximity_m":0,"avg_construction_year":1976,"income_history":[[2021,18932],[2022,19388],[2023,19756],[2024,20536],[2025,22079],[2026,23438]],"population_history":[[2021,1725],[2022,1706],[2023,1689],[2024,1646],[2025,1633],[2026,1593]],"unemployment_history":[[2021,5.3],[2022,5.4],[2023,5.8],[2024,4.5],[2025,6.6],[2026,7]],"income_change_pct":23.8,"population_change_pct":-7.7,"unemployment_change_pct":32.1,"schools":[{"name":"Konneveden lukio","score":59.3}],"crime_index_history":[[2020,82.6],[2021,77.7],[2022,83.8],[2023,67.4],[2024,82.9],[2025,63.9]],"crime_index_change_pct":-22.6,"health_index":110.2,"radon":72,"municipality":"Konnevesi","lon":26.24358,"lat":62.62292,"flood_risk_pct":null,"population_projection_pct":-17.4,"construction_activity":10.7,"active_plan_count":1,"political_lean_index":60.1,"party_vote_kok_pct":11.3,"party_vote_sdp_pct":16.9,"party_vote_ps_pct":24.1,"party_vote_kesk_pct":31.9,"party_vote_vihr_pct":2.4,"party_vote_vas_pct":4.8,"party_vote_rkp_pct":0.1,"foreign_language_municipal_pct":2.4}},{"type":"MultiPolygon","arcs":[[[-41,-35,-43,45]]],"properties":{"id":1321,"postinumeroalue":"44330","nimi":"Hytölä","namn":"Hytölä","euref_x":456800,"euref_y":6937011,"pinta_ala":84288849,"vuosi":2026,"kunta":"275","he_vakiy":257,"he_naiset":130,"he_miehet":127,"he_kika":45,"he_0_2":7,"he_3_6":7,"he_7_12":16,"he_13_15":17,"he_16_17":6,"he_18_19":6,"he_20_24":11,"he_25_29":5,"he_30_34":9,"he_35_39":16,"he_40_44":16,"he_45_49":20,"he_50_54":18,"he_55_59":15,"he_60_64":26,"he_65_69":21,"he_70_74":25,"he_75_79":9,"he_80_84":2,"he_85_":5,"ko_ika18y":204,"ko_perus":39,"ko_koul":165,"ko_yliop":7,"ko_ammat":102,"ko_al_kork":44,"ko_yl_kork":12,"hr_tuy":204,"hr_ktu":28951,"hr_mtu":26862,"hr_pi_tul":35,"hr_ke_tul":132,"hr_hy_tul":37,"hr_ovy":5906009,"te_taly":115,"te_takk":2.2,"te_as_valj":49.1,"te_yks":41,"te_nuor":5,"te_eil_np":1,"te_laps":25,"te_plap":5,"te_aklap":10,"te_klap":11,"te_teini":17,"te_yhlap":2,"te_aik":47,"te_elak":43,"te_omis_as":99,"te_vuok_as":11,"te_muu_as":5,"tr_kuty":115,"tr_ktu":51664,"tr_mtu":47525,"tr_pi_tul":24,"tr_ke_tul":70,"tr_hy_tul":21,"tr_ovy":5941341,"ra_ke":173,"ra_raky":163,"ra_muut":22,"ra_asrak":141,"ra_asunn":147,"ra_as_kpa":102.8,"ra_pt_as":137,"ra_kt_as":3,"ra_muu_as":7,"tp_tyopy":165,"tp_alku_a":15,"tp_jalo_bf":21,"tp_palv_gu":129,"tp_a_maat":15,"tp_b_kaiv":0,"tp_c_teol":15,"tp_d_ener":0,"tp_e_vesi":0,"tp_f_rake":6,"tp_g_kaup":30,"tp_h_kulj":90,"tp_i_majo":0,"tp_j_info":0,"tp_k_raho":0,"tp_l_kiin":0,"tp_m_erik":4,"tp_n_hall":0,"tp_o_julk":0,"tp_p_koul":4,"tp_q_terv":0,"tp_r_taid":0,"tp_s_muup":1,"tp_t_koti":0,"tp_u_kans":0,"tp_x_tunt":0,"pt_vakiy":257,"pt_tyoll":120,"pt_tyott":20,"pt_0_14":42,"pt_opisk":16,"pt_elakel":54,"pt_muut":5,"city":"aanekoski","pno":"44330","unemployment_rate":7.8,"higher_education_rate":27.5,"pensioner_share":21,"ownership_rate":86.1,"rental_rate":9.6,"population_density":3,"child_ratio":5.4,"student_share":6.2,"detached_house_share":93.2,"youth_ratio_pct":8.6,"gender_ratio":1.02,"single_parent_hh_pct":0.9,"families_with_children_pct":21.7,"tech_sector_pct":0,"healthcare_workers_pct":0,"employment_rate":46.7,"elderly_ratio_pct":24.1,"avg_household_size":2.23,"manufacturing_jobs_pct":12.7,"public_sector_jobs_pct":0,"service_sector_jobs_pct":78.2,"new_construction_pct":110.9,"foreign_language_pct":1.1,"crime_index":52.2,"property_price_sqm":null,"transit_stop_density":0.2,"air_quality_index":24.7,"daycare_density":0,"school_density":0,"healthcare_density":0,"restaurant_density":0,"grocery_density":0,"cycling_density":0.1,"single_person_hh_pct":35.7,"rental_price_sqm":null,"price_to_rent_ratio":null,"walkability_index":78,"traffic_accident_rate":6.5,"property_price_change_pct":null,"school_quality_score":null,"light_pollution":0.03,"noise_pollution":40,"voter_turnout_pct":66.3,"party_diversity_index":0.664,"broadband_coverage_pct":69,"ev_charging_density":0,"tree_canopy_pct":34.6,"transit_reachability_score":null,"sports_facility_density":0,"water_proximity_m":0,"avg_construction_year":1977,"income_history":[[2021,22642],[2022,22523],[2023,23132],[2024,23639],[2025,24970],[2026,26862]],"population_history":[[2021,259],[2022,268],[2023,274],[2024,263],[2025,263],[2026,257]],"unemployment_history":[[2021,4.2],[2022,3],[2023,6.2],[2024,4.9],[2025,5.7],[2026,7.8]],"income_change_pct":18.6,"population_change_pct":-0.8,"unemployment_change_pct":85.7,"schools":null,"crime_index_history":[[2020,67.5],[2021,63.5],[2022,68.4],[2023,55],[2024,67.7],[2025,52.2]],"crime_index_change_pct":-22.7,"health_index":110.2,"radon":null,"municipality":"Konnevesi","lon":26.17508,"lat":62.56058,"flood_risk_pct":null,"population_projection_pct":-17.4,"construction_activity":10.7,"active_plan_count":0,"political_lean_index":60.1,"party_vote_kok_pct":11.3,"party_vote_sdp_pct":16.9,"party_vote_ps_pct":24.1,"party_vote_kesk_pct":31.9,"party_vote_vihr_pct":2.4,"party_vote_vas_pct":4.8,"party_vote_rkp_pct":0.1,"foreign_language_municipal_pct":2.4}},{"type":"MultiPolygon","arcs":[[[-45,46,47,-3]]],"properties":{"id":1322,"postinumeroalue":"44350","nimi":"Istunmäki","namn":"Istunmäki","euref_x":472523,"euref_y":6951655,"pinta_ala":162555183,"vuosi":2026,"kunta":"275","he_vakiy":327,"he_naiset":138,"he_miehet":189,"he_kika":51,"he_0_2":2,"he_3_6":8,"he_7_12":26,"he_13_15":16,"he_16_17":5,"he_18_19":6,"he_20_24":7,"he_25_29":3,"he_30_34":12,"he_35_39":15,"he_40_44":13,"he_45_49":18,"he_50_54":16,"he_55_59":29,"he_60_64":27,"he_65_69":37,"he_70_74":25,"he_75_79":42,"he_80_84":11,"he_85_":9,"ko_ika18y":270,"ko_perus":83,"ko_koul":187,"ko_yliop":10,"ko_ammat":136,"ko_al_kork":32,"ko_yl_kork":9,"hr_tuy":270,"hr_ktu":25748,"hr_mtu":21234,"hr_pi_tul":86,"hr_ke_tul":147,"hr_hy_tul":37,"hr_ovy":6951830,"te_taly":159,"te_takk":2.1,"te_as_valj":49,"te_yks":71,"te_nuor":2,"te_eil_np":0,"te_laps":22,"te_plap":2,"te_aklap":8,"te_klap":15,"te_teini":14,"te_yhlap":2,"te_aik":49,"te_elak":91,"te_omis_as":143,"te_vuok_as":11,"te_muu_as":5,"tr_kuty":159,"tr_ktu":44005,"tr_mtu":34921,"tr_pi_tul":60,"tr_ke_tul":77,"tr_hy_tul":22,"tr_ovy":6996797,"ra_ke":244,"ra_raky":238,"ra_muut":31,"ra_asrak":207,"ra_asunn":214,"ra_as_kpa":95.5,"ra_pt_as":206,"ra_kt_as":5,"ra_muu_as":3,"tp_tyopy":31,"tp_alku_a":10,"tp_jalo_bf":9,"tp_palv_gu":12,"tp_a_maat":10,"tp_b_kaiv":0,"tp_c_teol":3,"tp_d_ener":0,"tp_e_vesi":0,"tp_f_rake":6,"tp_g_kaup":1,"tp_h_kulj":5,"tp_i_majo":1,"tp_j_info":1,"tp_k_raho":0,"tp_l_kiin":0,"tp_m_erik":0,"tp_n_hall":0,"tp_o_julk":0,"tp_p_koul":4,"tp_q_terv":0,"tp_r_taid":0,"tp_s_muup":0,"tp_t_koti":0,"tp_u_kans":0,"tp_x_tunt":0,"pt_vakiy":327,"pt_tyoll":102,"pt_tyott":17,"pt_0_14":45,"pt_opisk":20,"pt_elakel":139,"pt_muut":4,"city":"aanekoski","pno":"44350","unemployment_rate":5.2,"higher_education_rate":15.2,"pensioner_share":42.5,"ownership_rate":89.9,"rental_rate":6.9,"population_density":2,"child_ratio":3.1,"student_share":6.1,"detached_house_share":96.3,"youth_ratio_pct":4.9,"gender_ratio":0.73,"single_parent_hh_pct":0,"families_with_children_pct":13.8,"tech_sector_pct":3.2,"healthcare_workers_pct":0,"employment_rate":31.2,"elderly_ratio_pct":37.9,"avg_household_size":2.06,"manufacturing_jobs_pct":29,"public_sector_jobs_pct":0,"service_sector_jobs_pct":38.7,"new_construction_pct":111.2,"foreign_language_pct":0.3,"crime_index":39.4,"property_price_sqm":null,"transit_stop_density":0.3,"air_quality_index":24.4,"daycare_density":0,"school_density":0,"healthcare_density":0,"restaurant_density":0,"grocery_density":0,"cycling_density":0,"single_person_hh_pct":44.7,"rental_price_sqm":null,"price_to_rent_ratio":null,"walkability_index":76,"traffic_accident_rate":2,"property_price_change_pct":null,"school_quality_score":null,"light_pollution":0.01,"noise_pollution":40,"voter_turnout_pct":66.3,"party_diversity_index":0.664,"broadband_coverage_pct":69,"ev_charging_density":0,"tree_canopy_pct":26.8,"transit_reachability_score":null,"sports_facility_density":0,"water_proximity_m":0,"avg_construction_year":1977,"income_history":[[2021,18156],[2022,18273],[2023,18188],[2024,19347],[2025,21617],[2026,21234]],"population_history":[[2021,351],[2022,350],[2023,361],[2024,352],[2025,344],[2026,327]],"unemployment_history":[[2021,4.6],[2022,6.9],[2023,6.4],[2024,7.4],[2025,4.9],[2026,5.2]],"income_change_pct":17,"population_change_pct":-6.8,"unemployment_change_pct":13,"schools":null,"crime_index_history":[[2020,50.9],[2021,47.9],[2022,51.7],[2023,41.5],[2024,51.1],[2025,39.4]],"crime_index_change_pct":-22.6,"health_index":110.2,"radon":null,"municipality":"Konnevesi","lon":26.45693,"lat":62.69297,"flood_risk_pct":null,"population_projection_pct":-17.4,"construction_activity":10.7,"active_plan_count":0,"political_lean_index":60.1,"party_vote_kok_pct":11.3,"party_vote_sdp_pct":16.9,"party_vote_ps_pct":24.1,"party_vote_kesk_pct":31.9,"party_vote_vihr_pct":2.4,"party_vote_vas_pct":4.8,"party_vote_rkp_pct":0.1,"foreign_language_municipal_pct":2.4}},{"type":"MultiPolygon","arcs":[[[-39,48,49,-47,-44]]],"properties":{"id":1323,"postinumeroalue":"44370","nimi":"Mäntymäki","namn":"Mäntymäki","euref_x":457632,"euref_y":6961805,"pinta_ala":155169407,"vuosi":2026,"kunta":"275","he_vakiy":140,"he_naiset":67,"he_miehet":73,"he_kika":59,"he_0_2":3,"he_3_6":1,"he_7_12":3,"he_13_15":3,"he_16_17":2,"he_18_19":1,"he_20_24":0,"he_25_29":1,"he_30_34":9,"he_35_39":4,"he_40_44":3,"he_45_49":4,"he_50_54":8,"he_55_59":15,"he_60_64":18,"he_65_69":16,"he_70_74":17,"he_75_79":16,"he_80_84":11,"he_85_":5,"ko_ika18y":128,"ko_perus":39,"ko_koul":89,"ko_yliop":5,"ko_ammat":47,"ko_al_kork":30,"ko_yl_kork":7,"hr_tuy":128,"hr_ktu":24527,"hr_mtu":21050,"hr_pi_tul":35,"hr_ke_tul":79,"hr_hy_tul":14,"hr_ovy":3139473,"te_taly":77,"te_takk":1.8,"te_as_valj":53.8,"te_yks":28,"te_nuor":0,"te_eil_np":3,"te_laps":5,"te_plap":2,"te_aklap":2,"te_klap":2,"te_teini":2,"te_yhlap":0,"te_aik":28,"te_elak":45,"te_omis_as":68,"te_vuok_as":7,"te_muu_as":2,"tr_kuty":77,"tr_ktu":40804,"tr_mtu":36335,"tr_pi_tul":24,"tr_ke_tul":41,"tr_hy_tul":12,"tr_ovy":3141914,"ra_ke":260,"ra_raky":125,"ra_muut":15,"ra_asrak":110,"ra_asunn":104,"ra_as_kpa":92.4,"ra_pt_as":103,"ra_kt_as":0,"ra_muu_as":1,"tp_tyopy":19,"tp_alku_a":15,"tp_jalo_bf":0,"tp_palv_gu":4,"tp_a_maat":15,"tp_b_kaiv":0,"tp_c_teol":0,"tp_d_ener":0,"tp_e_vesi":0,"tp_f_rake":0,"tp_g_kaup":1,"tp_h_kulj":0,"tp_i_majo":0,"tp_j_info":2,"tp_k_raho":0,"tp_l_kiin":0,"tp_m_erik":0,"tp_n_hall":1,"tp_o_julk":0,"tp_p_koul":0,"tp_q_terv":0,"tp_r_taid":0,"tp_s_muup":0,"tp_t_koti":0,"tp_u_kans":0,"tp_x_tunt":0,"pt_vakiy":140,"pt_tyoll":44,"pt_tyott":11,"pt_0_14":7,"pt_opisk":6,"pt_elakel":71,"pt_muut":1,"city":"aanekoski","pno":"44370","unemployment_rate":7.9,"higher_education_rate":28.9,"pensioner_share":50.7,"ownership_rate":88.3,"rental_rate":9.1,"population_density":1,"child_ratio":2.9,"student_share":4.3,"detached_house_share":99,"youth_ratio_pct":1.4,"gender_ratio":0.92,"single_parent_hh_pct":3.9,"families_with_children_pct":6.5,"tech_sector_pct":10.5,"healthcare_workers_pct":0,"employment_rate":31.4,"elderly_ratio_pct":46.4,"avg_household_size":1.82,"manufacturing_jobs_pct":0,"public_sector_jobs_pct":0,"service_sector_jobs_pct":21.1,"new_construction_pct":120.2,"foreign_language_pct":2.1,"crime_index":39.9,"property_price_sqm":null,"transit_stop_density":0,"air_quality_index":25.3,"daycare_density":0,"school_density":0,"healthcare_density":0,"restaurant_density":0,"grocery_density":0,"cycling_density":0,"single_person_hh_pct":36.4,"rental_price_sqm":null,"price_to_rent_ratio":null,"walkability_index":76,"traffic_accident_rate":null,"property_price_change_pct":null,"school_quality_score":null,"light_pollution":0,"noise_pollution":40,"voter_turnout_pct":66.3,"party_diversity_index":0.664,"broadband_coverage_pct":69,"ev_charging_density":0,"tree_canopy_pct":43.7,"transit_reachability_score":null,"sports_facility_density":0,"water_proximity_m":0,"avg_construction_year":1977,"income_history":[[2021,17684],[2022,17371],[2023,18047],[2024,19278],[2025,19862],[2026,21050]],"population_history":[[2021,151],[2022,140],[2023,139],[2024,138],[2025,128],[2026,140]],"unemployment_history":[[2021,5.3],[2022,7.9],[2023,2.2],[2024,3.6],[2025,3.1],[2026,7.9]],"income_change_pct":19,"population_change_pct":-7.3,"unemployment_change_pct":49.1,"schools":null,"crime_index_history":[[2020,51.6],[2021,48.5],[2022,52.3],[2023,42.1],[2024,51.8],[2025,39.9]],"crime_index_change_pct":-22.7,"health_index":110.2,"radon":null,"municipality":"Konnevesi","lon":26.15406,"lat":62.81271,"flood_risk_pct":null,"population_projection_pct":-17.4,"construction_activity":10.7,"active_plan_count":1,"political_lean_index":60.1,"party_vote_kok_pct":11.3,"party_vote_sdp_pct":16.9,"party_vote_ps_pct":24.1,"party_vote_kesk_pct":31.9,"party_vote_vihr_pct":2.4,"party_vote_vas_pct":4.8,"party_vote_rkp_pct":0.1,"foreign_language_municipal_pct":2.4}},{"type":"MultiPolygon","arcs":[[[50,51,52,53,-37]]],"properties":{"id":1324,"postinumeroalue":"44400","nimi":"Konginkangas Keskus","namn":"Konginkangas centrum","euref_x":441280,"euref_y":6959730,"pinta_ala":94348459,"vuosi":2026,"kunta":"992","he_vakiy":578,"he_naiset":278,"he_miehet":300,"he_kika":53,"he_0_2":8,"he_3_6":14,"he_7_12":26,"he_13_15":13,"he_16_17":13,"he_18_19":5,"he_20_24":17,"he_25_29":19,"he_30_34":23,"he_35_39":28,"he_40_44":35,"he_45_49":31,"he_50_54":32,"he_55_59":30,"he_60_64":51,"he_65_69":58,"he_70_74":57,"he_75_79":53,"he_80_84":33,"he_85_":32,"ko_ika18y":504,"ko_perus":159,"ko_koul":345,"ko_yliop":8,"ko_ammat":246,"ko_al_kork":71,"ko_yl_kork":20,"hr_tuy":504,"hr_ktu":25430,"hr_mtu":23125,"hr_pi_tul":117,"hr_ke_tul":330,"hr_hy_tul":57,"hr_ovy":12816481,"te_taly":312,"te_takk":1.8,"te_as_valj":50.3,"te_yks":149,"te_nuor":13,"te_eil_np":3,"te_laps":39,"te_plap":6,"te_aklap":14,"te_klap":18,"te_teini":19,"te_yhlap":8,"te_aik":111,"te_elak":162,"te_omis_as":244,"te_vuok_as":60,"te_muu_as":8,"tr_kuty":312,"tr_ktu":39806,"tr_mtu":32517,"tr_pi_tul":101,"tr_ke_tul":176,"tr_hy_tul":35,"tr_ovy":12419586,"ra_ke":290,"ra_raky":339,"ra_muut":52,"ra_asrak":287,"ra_asunn":415,"ra_as_kpa":84.4,"ra_pt_as":367,"ra_kt_as":24,"ra_muu_as":24,"tp_tyopy":108,"tp_alku_a":4,"tp_jalo_bf":6,"tp_palv_gu":98,"tp_a_maat":4,"tp_b_kaiv":0,"tp_c_teol":3,"tp_d_ener":0,"tp_e_vesi":0,"tp_f_rake":3,"tp_g_kaup":5,"tp_h_kulj":1,"tp_i_majo":6,"tp_j_info":0,"tp_k_raho":0,"tp_l_kiin":0,"tp_m_erik":0,"tp_n_hall":27,"tp_o_julk":2,"tp_p_koul":8,"tp_q_terv":42,"tp_r_taid":1,"tp_s_muup":6,"tp_t_koti":0,"tp_u_kans":0,"tp_x_tunt":0,"pt_vakiy":578,"pt_tyoll":181,"pt_tyott":47,"pt_0_14":58,"pt_opisk":27,"pt_elakel":249,"pt_muut":16,"city":"aanekoski","pno":"44400","unemployment_rate":8.1,"higher_education_rate":18.1,"pensioner_share":43.1,"ownership_rate":78.2,"rental_rate":19.2,"population_density":6,"child_ratio":3.8,"student_share":4.7,"detached_house_share":88.4,"youth_ratio_pct":7.1,"gender_ratio":0.93,"single_parent_hh_pct":1,"families_with_children_pct":12.5,"tech_sector_pct":0,"healthcare_workers_pct":38.9,"employment_rate":31.3,"elderly_ratio_pct":40.3,"avg_household_size":1.85,"manufacturing_jobs_pct":5.6,"public_sector_jobs_pct":1.9,"service_sector_jobs_pct":90.7,"new_construction_pct":81.7,"foreign_language_pct":1,"crime_index":66.8,"property_price_sqm":751,"transit_stop_density":0.3,"air_quality_index":24.3,"daycare_density":0,"school_density":0,"healthcare_density":0,"restaurant_density":0,"grocery_density":0,"cycling_density":0.1,"single_person_hh_pct":47.8,"rental_price_sqm":null,"price_to_rent_ratio":null,"walkability_index":78,"traffic_accident_rate":5.2,"property_price_change_pct":null,"school_quality_score":null,"light_pollution":0.11,"noise_pollution":40,"voter_turnout_pct":63.2,"party_diversity_index":0.699,"broadband_coverage_pct":64,"ev_charging_density":0,"tree_canopy_pct":23.4,"transit_reachability_score":null,"sports_facility_density":0.1,"water_proximity_m":0,"avg_construction_year":1981,"income_history":[[2021,18806],[2022,19130],[2023,20029],[2024,20670],[2025,22211],[2026,23125]],"population_history":[[2021,652],[2022,629],[2023,619],[2024,620],[2025,599],[2026,578]],"unemployment_history":[[2021,7.4],[2022,7.2],[2023,7.1],[2024,6.6],[2025,7.8],[2026,8.1]],"income_change_pct":23,"population_change_pct":-11.3,"unemployment_change_pct":9.5,"schools":null,"crime_index_history":[[2020,69.7],[2021,76],[2022,77.6],[2023,68.4],[2024,63.2],[2025,66.8]],"crime_index_change_pct":-4.2,"health_index":115.2,"radon":103,"municipality":"Äänekoski","lon":25.82768,"lat":62.75839,"flood_risk_pct":null,"population_projection_pct":-12.6,"construction_activity":4.7,"active_plan_count":1,"political_lean_index":53.8,"party_vote_kok_pct":8.4,"party_vote_sdp_pct":26.7,"party_vote_ps_pct":22.1,"party_vote_kesk_pct":20.3,"party_vote_vihr_pct":4.5,"party_vote_vas_pct":10.3,"party_vote_rkp_pct":0.2,"foreign_language_municipal_pct":3.4}},{"type":"MultiPolygon","arcs":[[[-12,54,-51,-32]]],"properties":{"id":1325,"postinumeroalue":"44420","nimi":"Liimattala","namn":"Liimattala","euref_x":437288,"euref_y":6955851,"pinta_ala":61820323,"vuosi":2026,"kunta":"992","he_vakiy":296,"he_naiset":133,"he_miehet":163,"he_kika":48,"he_0_2":5,"he_3_6":7,"he_7_12":20,"he_13_15":5,"he_16_17":4,"he_18_19":9,"he_20_24":12,"he_25_29":13,"he_30_34":15,"he_35_39":14,"he_40_44":12,"he_45_49":17,"he_50_54":20,"he_55_59":26,"he_60_64":43,"he_65_69":23,"he_70_74":13,"he_75_79":18,"he_80_84":13,"he_85_":7,"ko_ika18y":255,"ko_perus":53,"ko_koul":202,"ko_yliop":7,"ko_ammat":134,"ko_al_kork":47,"ko_yl_kork":14,"hr_tuy":255,"hr_ktu":27783,"hr_mtu":25808,"hr_pi_tul":56,"hr_ke_tul":158,"hr_hy_tul":41,"hr_ovy":7084712,"te_taly":137,"te_takk":2.2,"te_as_valj":49.5,"te_yks":45,"te_nuor":9,"te_eil_np":1,"te_laps":25,"te_plap":5,"te_aklap":8,"te_klap":15,"te_teini":6,"te_yhlap":5,"te_aik":62,"te_elak":52,"te_omis_as":119,"te_vuok_as":13,"te_muu_as":5,"tr_kuty":137,"tr_ktu":52056,"tr_mtu":43612,"tr_pi_tul":24,"tr_ke_tul":89,"tr_hy_tul":24,"tr_ovy":7131714,"ra_ke":111,"ra_raky":179,"ra_muut":16,"ra_asrak":163,"ra_asunn":162,"ra_as_kpa":105.5,"ra_pt_as":159,"ra_kt_as":0,"ra_muu_as":3,"tp_tyopy":43,"tp_alku_a":17,"tp_jalo_bf":11,"tp_palv_gu":15,"tp_a_maat":17,"tp_b_kaiv":0,"tp_c_teol":0,"tp_d_ener":0,"tp_e_vesi":0,"tp_f_rake":11,"tp_g_kaup":1,"tp_h_kulj":8,"tp_i_majo":0,"tp_j_info":0,"tp_k_raho":0,"tp_l_kiin":2,"tp_m_erik":1,"tp_n_hall":3,"tp_o_julk":0,"tp_p_koul":0,"tp_q_terv":0,"tp_r_taid":0,"tp_s_muup":0,"tp_t_koti":0,"tp_u_kans":0,"tp_x_tunt":0,"pt_vakiy":296,"pt_tyoll":126,"pt_tyott":21,"pt_0_14":36,"pt_opisk":16,"pt_elakel":86,"pt_muut":11,"city":"aanekoski","pno":"44420","unemployment_rate":7.1,"higher_education_rate":23.9,"pensioner_share":29.1,"ownership_rate":86.9,"rental_rate":9.5,"population_density":5,"child_ratio":4.1,"student_share":5.4,"detached_house_share":98.1,"youth_ratio_pct":11.5,"gender_ratio":0.82,"single_parent_hh_pct":0.7,"families_with_children_pct":18.2,"tech_sector_pct":0,"healthcare_workers_pct":0,"employment_rate":42.6,"elderly_ratio_pct":25,"avg_household_size":2.16,"manufacturing_jobs_pct":25.6,"public_sector_jobs_pct":0,"service_sector_jobs_pct":34.9,"new_construction_pct":110.5,"foreign_language_pct":0.6,"crime_index":58.4,"property_price_sqm":null,"transit_stop_density":0.3,"air_quality_index":24.3,"daycare_density":0,"school_density":0,"healthcare_density":0,"restaurant_density":0,"grocery_density":0,"cycling_density":0,"single_person_hh_pct":32.8,"rental_price_sqm":null,"price_to_rent_ratio":null,"walkability_index":76,"traffic_accident_rate":22.5,"property_price_change_pct":null,"school_quality_score":null,"light_pollution":0.08,"noise_pollution":40,"voter_turnout_pct":63.2,"party_diversity_index":0.699,"broadband_coverage_pct":64,"ev_charging_density":0,"tree_canopy_pct":56.8,"transit_reachability_score":null,"sports_facility_density":0,"water_proximity_m":0,"avg_construction_year":1982,"income_history":[[2021,21812],[2022,21886],[2023,22869],[2024,24026],[2025,25725],[2026,25808]],"population_history":[[2021,330],[2022,330],[2023,331],[2024,325],[2025,320],[2026,296]],"unemployment_history":[[2021,7.9],[2022,7.6],[2023,6.3],[2024,7.4],[2025,9.4],[2026,7.1]],"income_change_pct":18.3,"population_change_pct":-10.3,"unemployment_change_pct":-10.1,"schools":null,"crime_index_history":[[2020,60.9],[2021,66.5],[2022,67.9],[2023,59.8],[2024,55.2],[2025,58.4]],"crime_index_change_pct":-4.1,"health_index":115.2,"radon":null,"municipality":"Äänekoski","lon":25.78901,"lat":62.73338,"flood_risk_pct":null,"population_projection_pct":-12.6,"construction_activity":4.7,"active_plan_count":0,"political_lean_index":53.8,"party_vote_kok_pct":8.4,"party_vote_sdp_pct":26.7,"party_vote_ps_pct":22.1,"party_vote_kesk_pct":20.3,"party_vote_vihr_pct":4.5,"party_vote_vas_pct":10.3,"party_vote_rkp_pct":0.2,"foreign_language_municipal_pct":3.4}},{"type":"MultiPolygon","arcs":[[[55,56,-53]]],"properties":{"id":1326,"postinumeroalue":"44440","nimi":"Räihä","namn":"Räihä","euref_x":436141,"euref_y":6968992,"pinta_ala":85543115,"vuosi":2026,"kunta":"992","he_vakiy":100,"he_naiset":47,"he_miehet":53,"he_kika":49,"he_0_2":4,"he_3_6":2,"he_7_12":5,"he_13_15":4,"he_16_17":4,"he_18_19":2,"he_20_24":0,"he_25_29":4,"he_30_34":4,"he_35_39":5,"he_40_44":5,"he_45_49":6,"he_50_54":6,"he_55_59":8,"he_60_64":11,"he_65_69":8,"he_70_74":7,"he_75_79":8,"he_80_84":1,"he_85_":6,"ko_ika18y":81,"ko_perus":23,"ko_koul":58,"ko_yliop":0,"ko_ammat":45,"ko_al_kork":10,"ko_yl_kork":3,"hr_tuy":81,"hr_ktu":27563,"hr_mtu":24430,"hr_pi_tul":19,"hr_ke_tul":49,"hr_hy_tul":13,"hr_ovy":2232579,"te_taly":49,"te_takk":2,"te_as_valj":51.4,"te_yks":19,"te_nuor":1,"te_eil_np":0,"te_laps":13,"te_plap":3,"te_aklap":5,"te_klap":4,"te_teini":6,"te_yhlap":2,"te_aik":15,"te_elak":22,"te_omis_as":47,"te_vuok_as":2,"te_muu_as":0,"tr_kuty":49,"tr_ktu":45660,"tr_mtu":37807,"tr_pi_tul":14,"tr_ke_tul":28,"tr_hy_tul":7,"tr_ovy":2237320,"ra_ke":124,"ra_raky":71,"ra_muut":9,"ra_asrak":62,"ra_asunn":64,"ra_as_kpa":100.6,"ra_pt_as":59,"ra_kt_as":0,"ra_muu_as":5,"tp_tyopy":15,"tp_alku_a":3,"tp_jalo_bf":0,"tp_palv_gu":12,"tp_a_maat":3,"tp_b_kaiv":0,"tp_c_teol":0,"tp_d_ener":0,"tp_e_vesi":0,"tp_f_rake":0,"tp_g_kaup":0,"tp_h_kulj":0,"tp_i_majo":10,"tp_j_info":0,"tp_k_raho":0,"tp_l_kiin":2,"tp_m_erik":0,"tp_n_hall":0,"tp_o_julk":0,"tp_p_koul":0,"tp_q_terv":0,"tp_r_taid":0,"tp_s_muup":0,"tp_t_koti":0,"tp_u_kans":0,"tp_x_tunt":0,"pt_vakiy":100,"pt_tyoll":39,"pt_tyott":4,"pt_0_14":14,"pt_opisk":10,"pt_elakel":31,"pt_muut":2,"city":"aanekoski","pno":"44440","unemployment_rate":4,"higher_education_rate":16,"pensioner_share":31,"ownership_rate":95.9,"rental_rate":4.1,"population_density":1,"child_ratio":6,"student_share":10,"detached_house_share":92.2,"youth_ratio_pct":6,"gender_ratio":0.89,"single_parent_hh_pct":0,"families_with_children_pct":26.5,"tech_sector_pct":0,"healthcare_workers_pct":0,"employment_rate":39,"elderly_ratio_pct":30,"avg_household_size":2.04,"manufacturing_jobs_pct":0,"public_sector_jobs_pct":0,"service_sector_jobs_pct":80,"new_construction_pct":110.9,"foreign_language_pct":4.5,"crime_index":28.4,"property_price_sqm":null,"transit_stop_density":0.1,"air_quality_index":24.2,"daycare_density":0,"school_density":0,"healthcare_density":0,"restaurant_density":0,"grocery_density":0,"cycling_density":0,"single_person_hh_pct":38.8,"rental_price_sqm":null,"price_to_rent_ratio":null,"walkability_index":76,"traffic_accident_rate":6.7,"property_price_change_pct":null,"school_quality_score":null,"light_pollution":0.09,"noise_pollution":40,"voter_turnout_pct":63.2,"party_diversity_index":0.699,"broadband_coverage_pct":64,"ev_charging_density":0,"tree_canopy_pct":62.2,"transit_reachability_score":null,"sports_facility_density":0,"water_proximity_m":0,"avg_construction_year":1982,"income_history":[[2021,20197],[2022,21298],[2023,20910],[2024,21738],[2025,21477],[2026,24430]],"population_history":[[2021,109],[2022,111],[2023,106],[2024,104],[2025,111],[2026,100]],"unemployment_history":[[2021,7.3],[2022,8.1],[2023,6.6],[2024,6.7],[2025,8.1],[2026,4]],"income_change_pct":21,"population_change_pct":-8.3,"unemployment_change_pct":-45.2,"schools":null,"crime_index_history":[[2020,29.6],[2021,32.3],[2022,33],[2023,29.1],[2024,26.9],[2025,28.4]],"crime_index_change_pct":-4.1,"health_index":115.2,"radon":null,"municipality":"Äänekoski","lon":25.77507,"lat":62.84136,"flood_risk_pct":null,"population_projection_pct":-12.6,"construction_activity":4.7,"active_plan_count":2,"political_lean_index":53.8,"party_vote_kok_pct":8.4,"party_vote_sdp_pct":26.7,"party_vote_ps_pct":22.1,"party_vote_kesk_pct":20.3,"party_vote_vihr_pct":4.5,"party_vote_vas_pct":10.3,"party_vote_rkp_pct":0.2,"foreign_language_municipal_pct":3.4}},{"type":"MultiPolygon","arcs":[[[-57,57,-49,-38,-54]]],"properties":{"id":1327,"postinumeroalue":"44460","nimi":"Kalaniemi","namn":"Kalaniemi","euref_x":442299,"euref_y":6972516,"pinta_ala":113388060,"vuosi":2026,"kunta":"992","he_vakiy":118,"he_naiset":44,"he_miehet":74,"he_kika":51,"he_0_2":4,"he_3_6":6,"he_7_12":5,"he_13_15":2,"he_16_17":3,"he_18_19":2,"he_20_24":0,"he_25_29":3,"he_30_34":8,"he_35_39":4,"he_40_44":8,"he_45_49":4,"he_50_54":2,"he_55_59":10,"he_60_64":10,"he_65_69":19,"he_70_74":11,"he_75_79":10,"he_80_84":6,"he_85_":1,"ko_ika18y":98,"ko_perus":23,"ko_koul":75,"ko_yliop":2,"ko_ammat":54,"ko_al_kork":16,"ko_yl_kork":3,"hr_tuy":98,"hr_ktu":27357,"hr_mtu":24529,"hr_pi_tul":27,"hr_ke_tul":51,"hr_hy_tul":20,"hr_ovy":2680948,"te_taly":60,"te_takk":2,"te_as_valj":50.8,"te_yks":24,"te_nuor":2,"te_eil_np":0,"te_laps":9,"te_plap":3,"te_aklap":5,"te_klap":4,"te_teini":4,"te_yhlap":2,"te_aik":19,"te_elak":32,"te_omis_as":58,"te_vuok_as":0,"te_muu_as":2,"tr_kuty":60,"tr_ktu":45011,"tr_mtu":41422,"tr_pi_tul":19,"tr_ke_tul":30,"tr_hy_tul":11,"tr_ovy":2700642,"ra_ke":194,"ra_raky":104,"ra_muut":12,"ra_asrak":92,"ra_asunn":86,"ra_as_kpa":95.2,"ra_pt_as":84,"ra_kt_as":0,"ra_muu_as":2,"tp_tyopy":8,"tp_alku_a":-1,"tp_jalo_bf":-1,"tp_palv_gu":-1,"tp_a_maat":-1,"tp_b_kaiv":-1,"tp_c_teol":-1,"tp_d_ener":-1,"tp_e_vesi":-1,"tp_f_rake":-1,"tp_g_kaup":-1,"tp_h_kulj":-1,"tp_i_majo":-1,"tp_j_info":-1,"tp_k_raho":-1,"tp_l_kiin":-1,"tp_m_erik":-1,"tp_n_hall":-1,"tp_o_julk":-1,"tp_p_koul":-1,"tp_q_terv":-1,"tp_r_taid":-1,"tp_s_muup":-1,"tp_t_koti":-1,"tp_u_kans":-1,"tp_x_tunt":-1,"pt_vakiy":118,"pt_tyoll":32,"pt_tyott":11,"pt_0_14":15,"pt_opisk":8,"pt_elakel":49,"pt_muut":3,"city":"aanekoski","pno":"44460","unemployment_rate":9.3,"higher_education_rate":19.4,"pensioner_share":41.5,"ownership_rate":96.7,"rental_rate":0,"population_density":1,"child_ratio":8.5,"student_share":6.8,"detached_house_share":97.7,"youth_ratio_pct":4.2,"gender_ratio":0.59,"single_parent_hh_pct":0,"families_with_children_pct":15,"tech_sector_pct":null,"healthcare_workers_pct":null,"employment_rate":27.1,"elderly_ratio_pct":39.8,"avg_household_size":1.97,"manufacturing_jobs_pct":null,"public_sector_jobs_pct":null,"service_sector_jobs_pct":null,"new_construction_pct":120.9,"foreign_language_pct":0,"crime_index":54.5,"property_price_sqm":null,"transit_stop_density":0.1,"air_quality_index":24.4,"daycare_density":0,"school_density":0,"healthcare_density":0,"restaurant_density":0,"grocery_density":0,"cycling_density":0,"single_person_hh_pct":40,"rental_price_sqm":null,"price_to_rent_ratio":null,"walkability_index":76,"traffic_accident_rate":5.6,"property_price_change_pct":null,"school_quality_score":null,"light_pollution":0.03,"noise_pollution":40,"voter_turnout_pct":63.2,"party_diversity_index":0.699,"broadband_coverage_pct":64,"ev_charging_density":0,"tree_canopy_pct":23.2,"transit_reachability_score":null,"sports_facility_density":0,"water_proximity_m":0,"avg_construction_year":1983,"income_history":[[2021,22021],[2022,21501],[2023,22690],[2024,22400],[2025,22805],[2026,24529]],"population_history":[[2021,125],[2022,123],[2023,128],[2024,125],[2025,119],[2026,118]],"unemployment_history":[[2021,7.2],[2022,5.7],[2023,5.5],[2024,2.4],[2025,5],[2026,9.3]],"income_change_pct":11.4,"population_change_pct":-5.6,"unemployment_change_pct":29.2,"schools":null,"crime_index_history":[[2020,56.9],[2021,62],[2022,63.3],[2023,55.8],[2024,51.5],[2025,54.5]],"crime_index_change_pct":-4.2,"health_index":115.2,"radon":null,"municipality":"Äänekoski","lon":25.85842,"lat":62.87757,"flood_risk_pct":null,"population_projection_pct":-12.6,"construction_activity":4.7,"active_plan_count":1,"political_lean_index":53.8,"party_vote_kok_pct":8.4,"party_vote_sdp_pct":26.7,"party_vote_ps_pct":22.1,"party_vote_kesk_pct":20.3,"party_vote_vihr_pct":4.5,"party_vote_vas_pct":10.3,"party_vote_rkp_pct":0.2,"foreign_language_municipal_pct":3.4}}]}},"arcs":[[[99999,28023],[-397,-1821],[-63,-290],[-394,-848],[-111,-238],[-1786,-3671],[-957,-2013],[-1810,-8844],[-5153,572],[-1936,50],[-1222,-790],[-1829,-839],[-874,-1150],[-3102,3476]],[[80365,11617],[-1429,2281],[63,3195],[402,3873],[1559,6150],[1845,2366],[1086,58],[2540,1419]],[[86431,30959],[4705,-1952],[1496,-1146],[3172,-807],[2468,571],[1727,398]],[[25916,18774],[-2052,-296],[-1109,-452],[-471,-457],[-24,-9],[-1141,-889]],[[21119,16671],[-211,1312],[-784,1957],[-795,2695],[-568,2158],[-2183,1215],[-1090,-1049]],[[15488,24959],[-831,2993],[-254,1183],[-214,1195],[770,1140],[522,1010]],[[15481,32480],[927,-196],[2140,-2025],[1090,-456],[929,-439],[81,88],[199,-186],[245,-291],[353,-381],[54,-223],[141,-79],[152,-56],[165,6],[98,18],[206,21],[84,175],[-259,362],[302,146],[-55,87],[-33,158],[48,81],[47,56],[-40,69]],[[22355,29415],[185,125],[146,112],[120,-166],[73,-104],[-96,-94],[50,-75],[66,41],[37,55],[69,-85],[86,-123],[151,99],[132,40],[278,155],[155,468],[36,374],[410,778],[748,738],[973,1454],[561,974],[1,-1]],[[26536,34180],[1208,-1598],[1961,-3319],[-587,-5158],[-331,-467],[-721,-318],[-783,-357],[-736,-157],[-1091,-369],[-319,-1181],[555,-1623],[224,-859]],[[22355,29415],[-71,123],[50,39],[-84,222],[-21,50],[-17,53],[0,4],[-19,32],[-49,107],[185,330],[121,43],[-157,316],[-384,-163],[-76,92],[-35,34],[-89,120],[-15,16],[-4,5],[-24,31],[-15,17],[-65,105],[-167,431],[-128,405],[-56,346],[43,662],[209,417],[300,346],[361,866],[1320,907],[610,-433],[1869,822],[1161,22]],[[27108,35782],[-572,-1602]],[[17681,56319],[4197,-3762],[9323,-7257],[199,-295],[2,-16],[1719,-1698]],[[33121,43291],[-518,-358],[-707,-749],[-371,-396],[-688,-784]],[[30837,41004],[-2340,-857],[-1389,-4365]],[[15481,32480],[670,1221],[-11,799],[-86,454],[-775,468],[-1930,-284],[-587,333],[-1672,-601]],[[11090,34870],[-310,658],[-89,286],[-633,1288],[-915,3063],[-2269,5513],[-1299,1605],[-509,192]],[[5066,47475],[-1994,3039],[-193,295],[-955,1928],[-269,575],[-992,2410],[-36,1744],[1779,-630],[874,2504],[503,627],[2931,-50],[3826,-843],[4620,-2327],[2521,-428]],[[20057,12012],[-666,722],[-246,107],[-540,235],[-1831,629],[-3044,485],[-4693,2035]],[[9037,16225],[525,463],[354,839],[1295,3061],[709,1277],[1288,1161],[298,1046],[253,383],[1729,504]],[[21119,16671],[-144,-2147],[-114,-857],[-804,-1655]],[[9037,16225],[-3643,-1014],[-179,56],[-947,295],[-2393,3489],[-1772,5449],[-103,918],[825,5591],[456,2150],[1460,-100]],[[2741,33059],[1901,-1899],[681,-558],[1802,1021],[830,944],[683,639],[1144,386],[1308,1278]],[[2741,33059],[-1227,1680],[-91,244],[-119,319],[-131,350],[-13,114],[-7,69],[-184,1686],[-16,27],[648,1455],[1647,6748],[3,4],[1815,1720]],[[33668,33663],[2448,-30],[4777,-319],[874,-913],[429,-3197],[-941,-2316],[134,-1848],[972,-2111],[2621,-2639],[737,-1061]],[[45719,19229],[-795,-2236],[76,-1445],[-216,-3560],[-2627,-578],[-125,-28],[-384,75],[-660,1],[-1149,481],[-134,39],[-819,241],[-642,674],[-700,545],[-1193,714],[-211,127],[-157,146],[-354,209],[-764,25],[-381,-77],[-1672,-335]],[[32812,14247],[-729,235],[-2074,2063],[-1020,743],[-3073,1486]],[[30837,41004],[361,-2171],[-951,-1950],[-484,-2725],[468,-1328],[404,-1500],[-1,-1532],[300,-793],[584,-931],[191,8],[303,-469],[384,-356],[178,-1329],[473,-1280],[154,-116],[29,-1335],[24,-481],[774,-422],[359,-221],[73,-255],[273,-540],[319,-266],[389,-36],[291,260],[364,322],[25,323],[-173,572],[119,1680],[-79,696],[-283,2359],[-1359,1866],[-1462,722],[-363,360],[-605,660],[8,633],[339,323],[1405,1911]],[[30837,41004],[1278,-387],[961,-1689],[259,-1833],[333,-3432]],[[32812,14247],[-72,-782],[-4,-63],[109,-16],[380,-59],[101,-309],[246,-754],[-66,-637],[-22,-212],[15,-278],[-39,-150],[-217,-841],[-41,-101],[-174,-433],[-92,-568],[-3342,-1000],[-921,-244],[-2374,-1865],[-1885,-1994],[-675,-1418],[-3392,68],[-513,6184],[159,1281],[64,1956]],[[50200,22047],[-358,-1074],[-72,-118],[-310,-212]],[[49460,20643],[-221,-152],[-1709,-1171],[-147,-101],[-1664,10]],[[33121,43291],[2181,4309],[1879,1494]],[[37181,49094],[1405,-317],[2176,-474],[1211,601],[603,-792],[884,-1238],[653,-1021],[-37,-1230],[1084,-575],[843,-772],[-85,-1595],[341,-1416],[236,-2286],[65,-532],[1477,-6958],[2163,-8442]],[[61535,56397],[194,-3444],[-378,-3490],[2654,-3803],[-838,-1251],[-871,-2197],[-1425,-1310],[-187,-1314],[-185,-2130]],[[60499,37458],[-220,-342],[-57,-56],[-40,-556],[-556,-1877],[-44,-19],[-296,-676],[-861,-1825],[-3318,-4344],[-160,-855],[-32,-172],[-119,-629],[-52,-279]],[[54744,25828],[-2709,-910],[-1835,-2871]],[[37181,49094],[380,1703],[-424,2294],[-6,400],[-210,389],[-1501,1009],[-1,2],[-127,435],[-448,1339],[-217,2977],[1916,668],[1144,-456],[1694,714],[2019,1441],[2617,2237],[1233,8093],[-416,4034]],[[44834,76373],[1642,194]],[[46476,76567],[752,-110],[2475,-1874],[1614,-5045],[1285,-1866],[2164,-1758],[2495,-1831],[811,-449],[1646,-2599],[411,-1789],[1406,-2849]],[[57112,12189],[-704,1118],[-2079,558],[-200,-93],[-513,-238],[-49,1040],[-40,830],[-78,1632],[-662,311],[-693,325],[-2634,2971]],[[54744,25828],[3514,-3703],[474,-2145],[1328,-3250],[-1745,-2151],[-716,-1704],[-487,-686]],[[80365,11617],[-3565,-1800],[-2032,4049],[-2368,1678],[-1787,1416],[-270,1704],[-791,459],[-536,297],[-483,268],[-658,39],[-324,-69],[-671,-264]],[[66880,19394],[-1014,1883],[-69,545],[-192,1499],[-5,8],[267,3457],[332,468],[483,536],[253,696],[-426,2105],[-1567,3032],[77,290],[-715,434],[-552,112],[-1125,1383],[-350,284],[-57,96],[-210,95],[-535,698],[-625,445],[-351,-2]],[[61535,56397],[2970,-183],[4066,1152],[678,228],[2627,2453],[4078,229],[1287,1175],[541,493]],[[77782,61944],[301,-1769],[-811,-3323],[-315,-2780],[347,-583],[405,-616],[3846,-7067],[-56,-292],[372,-1658],[464,-204],[371,-1074],[1521,478],[70,-416],[424,-879],[-907,-889],[68,-331],[-628,-1652],[1739,67],[-65,-369],[-657,-804],[-309,-1841],[-222,-1674],[1459,-2210],[1232,-1099]],[[66880,19394],[-581,-1565],[-12,-31],[312,-728],[100,-232],[-5,-19],[-3,-9],[256,-867],[201,-680],[636,-108],[-41,-325],[-218,-1711],[-555,-81],[-840,7],[-685,5],[-25,0],[-370,-275],[-233,-174],[-72,-788],[51,-495],[-10,-47],[26,-218],[34,-76],[-21,-622],[-18,-528],[50,-848],[858,-1948],[76,-211],[964,-2657],[-31,-350],[-343,-110],[-1898,-609],[-1908,-2404],[-363,-458],[-1578,-232],[-1667,503],[-529,2555],[-275,1700],[-366,1120],[-266,510],[-160,616],[-53,205],[-35,1258],[-68,1275],[-233,2028],[130,419]],[[77782,61944],[-285,509],[-432,550],[-1257,3022],[-52,239]],[[75756,66264],[1723,922],[2469,517],[1997,458],[3036,-1167],[1365,1003],[179,-1229],[958,-1039],[358,-276],[287,-128],[976,-438],[2317,-3615],[316,-908],[876,-6294],[1110,-2649],[2671,-5934],[157,-1376],[97,-343],[269,-954],[69,-964],[84,-294],[256,-1461],[118,-670],[128,-1041],[195,-1586],[1650,-3397],[446,-919],[136,-4459]],[[46476,76567],[1428,3069],[287,1033],[-121,259],[-825,4254],[-58,321],[-36,2332],[108,434]],[[47259,88269],[9144,1075],[1222,143],[387,-163],[1099,-567],[507,-809],[526,-840],[1575,-947],[1168,-1394],[-1768,-2145],[-17,-831],[-7,-333],[-4,-183],[-12,-602],[-4,-8],[1603,-3072],[409,-991],[2972,-1478],[1393,-522],[2590,-2284],[5714,-6054]],[[37181,49094],[-570,561],[-485,1253],[-389,770],[-1817,1427],[-1386,867],[-653,280],[-602,525],[-594,909],[27,1123],[210,2045],[-627,2072],[-362,867],[-695,164],[-847,-139],[-47,-31],[-1254,550],[-1245,312],[-1836,867],[-169,337],[-58,301],[-959,1469],[-455,379],[-1211,843],[-1069,825]],[[20088,67670],[-790,4082],[-146,2859],[324,2037]],[[19476,76648],[4326,-1392],[4472,-3584],[2607,541],[1916,-490],[3873,-460],[526,598],[2756,900],[1961,3454]],[[41913,76215],[2921,158]],[[17681,56319],[790,5090],[1617,6261]],[[19476,76648],[-3529,2602],[-1044,676],[-707,1264],[-2184,4109],[420,1752],[905,3778]],[[13337,90829],[9253,-724],[1000,-562],[602,-4831],[-46,-184],[583,-998],[263,-679],[113,-205],[2795,-1042],[2805,-225],[1640,839],[107,-13],[379,48],[1701,161],[437,-395],[922,-1130],[4346,-3063],[1676,-1611]],[[13337,90829],[-617,1811],[-265,1906],[6377,5453],[1292,-430],[1274,-1158],[897,-816],[5032,-2348],[1533,-631],[45,13],[1117,-1239],[780,-53],[145,-10],[873,-412],[1778,24],[2875,107],[187,-81],[658,-464],[175,-135],[145,-77],[411,-499],[195,-288],[486,-816],[2372,-241],[330,271],[1453,821],[529,56],[1885,-357],[1125,-1211],[87,-137],[531,-1093],[104,-223],[17,-46],[96,-257]]],"bbox":[25.46096224605522,62.476222516125674,26.60098563775217,62.93172819288955],"transform":{"scale":[0.000011400347920448703,0.000004555102318661961],"translate":[25.46096224605522,62.476222516125674]}}
