{"type":"Topology","objects":{"neighborhoods":{"type":"GeometryCollection","geometries":[{"type":"MultiPolygon","arcs":[[[0,1,2,3]]],"properties":{"id":2509,"postinumeroalue":"86480","nimi":"Karhukangas","namn":"Karhukangas","euref_x":423517,"euref_y":7135220,"pinta_ala":47118102,"vuosi":2026,"kunta":"071","he_vakiy":43,"he_naiset":20,"he_miehet":23,"he_kika":53,"he_0_2":1,"he_3_6":0,"he_7_12":3,"he_13_15":1,"he_16_17":1,"he_18_19":0,"he_20_24":0,"he_25_29":2,"he_30_34":2,"he_35_39":0,"he_40_44":2,"he_45_49":4,"he_50_54":0,"he_55_59":6,"he_60_64":6,"he_65_69":6,"he_70_74":5,"he_75_79":2,"he_80_84":0,"he_85_":2,"ko_ika18y":37,"ko_perus":5,"ko_koul":32,"ko_yliop":1,"ko_ammat":26,"ko_al_kork":5,"ko_yl_kork":0,"hr_tuy":37,"hr_ktu":27212,"hr_mtu":27191,"hr_pi_tul":9,"hr_ke_tul":19,"hr_hy_tul":9,"hr_ovy":1006850,"te_taly":17,"te_takk":null,"te_as_valj":-1,"te_yks":-1,"te_nuor":-1,"te_eil_np":-1,"te_laps":-1,"te_plap":-1,"te_aklap":-1,"te_klap":-1,"te_teini":-1,"te_yhlap":-1,"te_aik":-1,"te_elak":-1,"te_omis_as":null,"te_vuok_as":null,"te_muu_as":-1,"tr_kuty":17,"tr_ktu":-1,"tr_mtu":-1,"tr_pi_tul":-1,"tr_ke_tul":-1,"tr_hy_tul":-1,"tr_ovy":-1,"ra_ke":2,"ra_raky":32,"ra_muut":7,"ra_asrak":25,"ra_asunn":25,"ra_as_kpa":116.6,"ra_pt_as":24,"ra_kt_as":0,"ra_muu_as":1,"tp_tyopy":8,"tp_alku_a":-1,"tp_jalo_bf":-1,"tp_palv_gu":-1,"tp_a_maat":-1,"tp_b_kaiv":-1,"tp_c_teol":-1,"tp_d_ener":-1,"tp_e_vesi":-1,"tp_f_rake":-1,"tp_g_kaup":-1,"tp_h_kulj":-1,"tp_i_majo":-1,"tp_j_info":-1,"tp_k_raho":-1,"tp_l_kiin":-1,"tp_m_erik":-1,"tp_n_hall":-1,"tp_o_julk":-1,"tp_p_koul":-1,"tp_q_terv":-1,"tp_r_taid":-1,"tp_s_muup":-1,"tp_t_koti":-1,"tp_u_kans":-1,"tp_x_tunt":-1,"pt_vakiy":43,"pt_tyoll":16,"pt_tyott":3,"pt_0_14":5,"pt_opisk":1,"pt_elakel":18,"pt_muut":0,"city":"haapavesi_siikalatva","pno":"86480","unemployment_rate":7,"higher_education_rate":13.5,"pensioner_share":41.9,"ownership_rate":null,"rental_rate":null,"population_density":1,"child_ratio":2.3,"student_share":2.3,"detached_house_share":96,"youth_ratio_pct":4.7,"gender_ratio":0.87,"single_parent_hh_pct":null,"families_with_children_pct":null,"tech_sector_pct":null,"healthcare_workers_pct":null,"employment_rate":37.2,"elderly_ratio_pct":34.9,"avg_household_size":2.53,"manufacturing_jobs_pct":null,"public_sector_jobs_pct":null,"service_sector_jobs_pct":null,"new_construction_pct":128,"foreign_language_pct":4.5,"crime_index":58.5,"property_price_sqm":null,"transit_stop_density":null,"air_quality_index":25.1,"green_space_pct":11.1,"daycare_density":0,"school_density":0,"healthcare_density":0,"restaurant_density":0,"grocery_density":0,"cycling_density":0,"single_person_hh_pct":null,"rental_price_sqm":null,"price_to_rent_ratio":null,"walkability_index":76,"traffic_accident_rate":null,"property_price_change_pct":null,"school_quality_score":null,"light_pollution":0,"noise_pollution":40,"voter_turnout_pct":57.4,"party_diversity_index":0.8,"broadband_coverage_pct":95,"ev_charging_density":0,"tree_canopy_pct":32.6,"transit_reachability_score":null,"sports_facility_density":0,"water_proximity_m":0,"avg_construction_year":1984,"income_history":[[2021,20005],[2022,23063],[2023,23064],[2024,24621],[2025,23329],[2026,27191]],"population_history":[[2021,47],[2022,44],[2023,45],[2024,45],[2025,45],[2026,43]],"unemployment_history":[[2021,4.3],[2022,6.8],[2023,2.2],[2024,4.4],[2025,4.4],[2026,7]],"income_change_pct":35.9,"population_change_pct":-8.5,"unemployment_change_pct":62.8,"schools":null}},{"type":"MultiPolygon","arcs":[[[4,5,6,7]]],"properties":{"id":2698,"postinumeroalue":"92610","nimi":"Vorna","namn":"Vorna","euref_x":448203,"euref_y":7137742,"pinta_ala":44736233,"vuosi":2026,"kunta":"791","he_vakiy":73,"he_naiset":38,"he_miehet":35,"he_kika":52,"he_0_2":2,"he_3_6":0,"he_7_12":4,"he_13_15":5,"he_16_17":1,"he_18_19":1,"he_20_24":1,"he_25_29":3,"he_30_34":0,"he_35_39":0,"he_40_44":5,"he_45_49":8,"he_50_54":3,"he_55_59":7,"he_60_64":7,"he_65_69":10,"he_70_74":4,"he_75_79":4,"he_80_84":4,"he_85_":4,"ko_ika18y":61,"ko_perus":18,"ko_koul":43,"ko_yliop":1,"ko_ammat":30,"ko_al_kork":11,"ko_yl_kork":1,"hr_tuy":61,"hr_ktu":24118,"hr_mtu":20966,"hr_pi_tul":18,"hr_ke_tul":38,"hr_hy_tul":5,"hr_ovy":1471221,"te_taly":36,"te_takk":2,"te_as_valj":51.3,"te_yks":16,"te_nuor":1,"te_eil_np":0,"te_laps":6,"te_plap":2,"te_aklap":2,"te_klap":3,"te_teini":4,"te_yhlap":0,"te_aik":11,"te_elak":19,"te_omis_as":34,"te_vuok_as":2,"te_muu_as":0,"tr_kuty":36,"tr_ktu":41296,"tr_mtu":35543,"tr_pi_tul":11,"tr_ke_tul":24,"tr_hy_tul":1,"tr_ovy":1486654,"ra_ke":32,"ra_raky":60,"ra_muut":9,"ra_asrak":51,"ra_asunn":46,"ra_as_kpa":97.6,"ra_pt_as":45,"ra_kt_as":0,"ra_muu_as":1,"tp_tyopy":29,"tp_alku_a":9,"tp_jalo_bf":19,"tp_palv_gu":1,"tp_a_maat":9,"tp_b_kaiv":17,"tp_c_teol":0,"tp_d_ener":0,"tp_e_vesi":0,"tp_f_rake":2,"tp_g_kaup":1,"tp_h_kulj":0,"tp_i_majo":0,"tp_j_info":0,"tp_k_raho":0,"tp_l_kiin":0,"tp_m_erik":0,"tp_n_hall":0,"tp_o_julk":0,"tp_p_koul":0,"tp_q_terv":0,"tp_r_taid":0,"tp_s_muup":0,"tp_t_koti":0,"tp_u_kans":0,"tp_x_tunt":0,"pt_vakiy":73,"pt_tyoll":29,"pt_tyott":6,"pt_0_14":9,"pt_opisk":3,"pt_elakel":24,"pt_muut":2,"city":"haapavesi_siikalatva","pno":"92610","unemployment_rate":8.2,"higher_education_rate":19.7,"pensioner_share":32.9,"ownership_rate":94.4,"rental_rate":5.6,"population_density":2,"child_ratio":2.7,"student_share":4.1,"detached_house_share":97.8,"youth_ratio_pct":6.8,"gender_ratio":1.09,"single_parent_hh_pct":0,"families_with_children_pct":16.7,"tech_sector_pct":0,"healthcare_workers_pct":0,"employment_rate":39.7,"elderly_ratio_pct":35.6,"avg_household_size":2.03,"manufacturing_jobs_pct":65.5,"public_sector_jobs_pct":0,"service_sector_jobs_pct":3.4,"new_construction_pct":130.4,"foreign_language_pct":2.4,"crime_index":131,"property_price_sqm":null,"transit_stop_density":null,"air_quality_index":24.3,"green_space_pct":11.2,"daycare_density":0,"school_density":0,"healthcare_density":0,"restaurant_density":0,"grocery_density":0,"cycling_density":0,"single_person_hh_pct":44.4,"rental_price_sqm":null,"price_to_rent_ratio":null,"walkability_index":76,"traffic_accident_rate":13.7,"property_price_change_pct":null,"school_quality_score":null,"light_pollution":0,"noise_pollution":40,"voter_turnout_pct":53.3,"party_diversity_index":0.673,"broadband_coverage_pct":88,"ev_charging_density":0,"tree_canopy_pct":33.2,"transit_reachability_score":null,"sports_facility_density":0,"water_proximity_m":0,"avg_construction_year":1980,"income_history":[[2021,19386],[2022,17809],[2023,17789],[2024,19003],[2025,21899],[2026,20966]],"population_history":[[2021,86],[2022,83],[2023,80],[2024,78],[2025,70],[2026,73]],"unemployment_history":[[2021,2.3],[2022,3.6],[2023,3.8],[2024,7.7],[2025,8.6],[2026,8.2]],"income_change_pct":8.2,"population_change_pct":-15.1,"unemployment_change_pct":256.5,"schools":null}},{"type":"MultiPolygon","arcs":[[[8,9,10,11]]],"properties":{"id":2511,"postinumeroalue":"86530","nimi":"Annonen","namn":"Annonen","euref_x":407129,"euref_y":7122619,"pinta_ala":80916966,"vuosi":2026,"kunta":"071","he_vakiy":164,"he_naiset":81,"he_miehet":83,"he_kika":45,"he_0_2":9,"he_3_6":5,"he_7_12":13,"he_13_15":5,"he_16_17":1,"he_18_19":4,"he_20_24":9,"he_25_29":8,"he_30_34":7,"he_35_39":8,"he_40_44":10,"he_45_49":7,"he_50_54":9,"he_55_59":9,"he_60_64":16,"he_65_69":15,"he_70_74":15,"he_75_79":6,"he_80_84":3,"he_85_":5,"ko_ika18y":131,"ko_perus":21,"ko_koul":110,"ko_yliop":3,"ko_ammat":79,"ko_al_kork":23,"ko_yl_kork":5,"hr_tuy":131,"hr_ktu":26814,"hr_mtu":21989,"hr_pi_tul":37,"hr_ke_tul":77,"hr_hy_tul":17,"hr_ovy":3512570,"te_taly":74,"te_takk":2.1,"te_as_valj":50.3,"te_yks":28,"te_nuor":1,"te_eil_np":5,"te_laps":15,"te_plap":6,"te_aklap":6,"te_klap":9,"te_teini":6,"te_yhlap":1,"te_aik":32,"te_elak":28,"te_omis_as":65,"te_vuok_as":3,"te_muu_as":6,"tr_kuty":74,"tr_ktu":46359,"tr_mtu":41077,"tr_pi_tul":25,"tr_ke_tul":41,"tr_hy_tul":8,"tr_ovy":3430596,"ra_ke":24,"ra_raky":113,"ra_muut":8,"ra_asrak":105,"ra_asunn":96,"ra_as_kpa":99.9,"ra_pt_as":95,"ra_kt_as":0,"ra_muu_as":1,"tp_tyopy":18,"tp_alku_a":8,"tp_jalo_bf":0,"tp_palv_gu":10,"tp_a_maat":8,"tp_b_kaiv":0,"tp_c_teol":0,"tp_d_ener":0,"tp_e_vesi":0,"tp_f_rake":0,"tp_g_kaup":0,"tp_h_kulj":4,"tp_i_majo":0,"tp_j_info":0,"tp_k_raho":0,"tp_l_kiin":0,"tp_m_erik":0,"tp_n_hall":0,"tp_o_julk":0,"tp_p_koul":0,"tp_q_terv":6,"tp_r_taid":0,"tp_s_muup":0,"tp_t_koti":0,"tp_u_kans":0,"tp_x_tunt":0,"pt_vakiy":164,"pt_tyoll":65,"pt_tyott":6,"pt_0_14":29,"pt_opisk":8,"pt_elakel":51,"pt_muut":5,"city":"haapavesi_siikalatva","pno":"86530","unemployment_rate":3.7,"higher_education_rate":21.4,"pensioner_share":31.1,"ownership_rate":87.8,"rental_rate":4.1,"population_density":2,"child_ratio":8.5,"student_share":4.9,"detached_house_share":99,"youth_ratio_pct":12.8,"gender_ratio":0.98,"single_parent_hh_pct":6.8,"families_with_children_pct":20.3,"tech_sector_pct":0,"healthcare_workers_pct":33.3,"employment_rate":39.6,"elderly_ratio_pct":26.8,"avg_household_size":2.22,"manufacturing_jobs_pct":0,"public_sector_jobs_pct":0,"service_sector_jobs_pct":55.6,"new_construction_pct":117.7,"foreign_language_pct":0,"crime_index":43.8,"property_price_sqm":null,"transit_stop_density":null,"air_quality_index":25.2,"green_space_pct":22.3,"daycare_density":0,"school_density":0,"healthcare_density":0,"restaurant_density":0,"grocery_density":0,"cycling_density":0,"single_person_hh_pct":37.8,"rental_price_sqm":null,"price_to_rent_ratio":null,"walkability_index":76,"traffic_accident_rate":4.1,"property_price_change_pct":null,"school_quality_score":null,"light_pollution":0,"noise_pollution":40,"voter_turnout_pct":57.4,"party_diversity_index":0.8,"broadband_coverage_pct":95,"ev_charging_density":0,"tree_canopy_pct":60.4,"transit_reachability_score":null,"sports_facility_density":0,"water_proximity_m":0,"avg_construction_year":1984,"income_history":[[2021,18688],[2022,18786],[2023,20442],[2024,20567],[2025,21820],[2026,21989]],"population_history":[[2021,175],[2022,164],[2023,170],[2024,165],[2025,165],[2026,164]],"unemployment_history":[[2021,3.4],[2022,4.3],[2023,0.6],[2024,2.4],[2025,2.4],[2026,3.7]],"income_change_pct":17.7,"population_change_pct":-6.3,"unemployment_change_pct":8.8,"schools":null}},{"type":"MultiPolygon","arcs":[[[-12,12]]],"properties":{"id":2512,"postinumeroalue":"86550","nimi":"Mieluskylä","namn":"Mieluskylä","euref_x":410382,"euref_y":7117153,"pinta_ala":63622424,"vuosi":2026,"kunta":"071","he_vakiy":345,"he_naiset":143,"he_miehet":202,"he_kika":42,"he_0_2":10,"he_3_6":15,"he_7_12":36,"he_13_15":16,"he_16_17":13,"he_18_19":16,"he_20_24":15,"he_25_29":6,"he_30_34":22,"he_35_39":16,"he_40_44":19,"he_45_49":16,"he_50_54":14,"he_55_59":18,"he_60_64":28,"he_65_69":26,"he_70_74":23,"he_75_79":15,"he_80_84":11,"he_85_":10,"ko_ika18y":255,"ko_perus":43,"ko_koul":212,"ko_yliop":6,"ko_ammat":165,"ko_al_kork":35,"ko_yl_kork":6,"hr_tuy":255,"hr_ktu":25245,"hr_mtu":23858,"hr_pi_tul":67,"hr_ke_tul":161,"hr_hy_tul":27,"hr_ovy":6437514,"te_taly":130,"te_takk":2.7,"te_as_valj":42.6,"te_yks":35,"te_nuor":4,"te_eil_np":3,"te_laps":33,"te_plap":8,"te_aklap":15,"te_klap":19,"te_teini":20,"te_yhlap":2,"te_aik":39,"te_elak":60,"te_omis_as":121,"te_vuok_as":5,"te_muu_as":4,"tr_kuty":130,"tr_ktu":50354,"tr_mtu":44728,"tr_pi_tul":35,"tr_ke_tul":85,"tr_hy_tul":10,"tr_ovy":6546006,"ra_ke":21,"ra_raky":198,"ra_muut":32,"ra_asrak":166,"ra_asunn":162,"ra_as_kpa":107.7,"ra_pt_as":152,"ra_kt_as":6,"ra_muu_as":4,"tp_tyopy":29,"tp_alku_a":20,"tp_jalo_bf":1,"tp_palv_gu":8,"tp_a_maat":20,"tp_b_kaiv":0,"tp_c_teol":0,"tp_d_ener":0,"tp_e_vesi":0,"tp_f_rake":1,"tp_g_kaup":1,"tp_h_kulj":0,"tp_i_majo":0,"tp_j_info":0,"tp_k_raho":0,"tp_l_kiin":0,"tp_m_erik":0,"tp_n_hall":0,"tp_o_julk":0,"tp_p_koul":5,"tp_q_terv":1,"tp_r_taid":0,"tp_s_muup":1,"tp_t_koti":0,"tp_u_kans":0,"tp_x_tunt":0,"pt_vakiy":345,"pt_tyoll":132,"pt_tyott":11,"pt_0_14":70,"pt_opisk":31,"pt_elakel":92,"pt_muut":9,"city":"haapavesi_siikalatva","pno":"86550","unemployment_rate":3.2,"higher_education_rate":16.1,"pensioner_share":26.7,"ownership_rate":93.1,"rental_rate":3.8,"population_density":5,"child_ratio":7.2,"student_share":9,"detached_house_share":93.8,"youth_ratio_pct":10.7,"gender_ratio":0.71,"single_parent_hh_pct":2.3,"families_with_children_pct":25.4,"tech_sector_pct":0,"healthcare_workers_pct":3.4,"employment_rate":38.3,"elderly_ratio_pct":24.6,"avg_household_size":2.65,"manufacturing_jobs_pct":3.4,"public_sector_jobs_pct":0,"service_sector_jobs_pct":27.6,"new_construction_pct":122.2,"foreign_language_pct":0,"crime_index":55.2,"property_price_sqm":null,"transit_stop_density":null,"air_quality_index":25.1,"green_space_pct":15,"daycare_density":0,"school_density":0,"healthcare_density":0,"restaurant_density":0,"grocery_density":0,"cycling_density":0,"single_person_hh_pct":26.9,"rental_price_sqm":null,"price_to_rent_ratio":null,"walkability_index":76,"traffic_accident_rate":null,"property_price_change_pct":null,"school_quality_score":null,"light_pollution":0,"noise_pollution":40,"voter_turnout_pct":57.4,"party_diversity_index":0.8,"broadband_coverage_pct":95,"ev_charging_density":0,"tree_canopy_pct":45,"transit_reachability_score":null,"sports_facility_density":0.1,"water_proximity_m":0,"avg_construction_year":1984,"income_history":[[2021,21073],[2022,21400],[2023,21493],[2024,22546],[2025,23332],[2026,23858]],"population_history":[[2021,378],[2022,377],[2023,368],[2024,367],[2025,351],[2026,345]],"unemployment_history":[[2021,3.2],[2022,3.4],[2023,3],[2024,3.8],[2025,3.4],[2026,3.2]],"income_change_pct":13.2,"population_change_pct":-8.7,"unemployment_change_pct":0,"schools":null}},{"type":"MultiPolygon","arcs":[[[13,14,15,-9,-13,-11,16,-1,17,18,19,20,21]]],"properties":{"id":2513,"postinumeroalue":"86600","nimi":"Haapavesi Keskus","namn":"Haapavesi centrum","euref_x":417140,"euref_y":7121274,"pinta_ala":546587540,"vuosi":2026,"kunta":"071","he_vakiy":4875,"he_naiset":2423,"he_miehet":2452,"he_kika":44,"he_0_2":120,"he_3_6":202,"he_7_12":425,"he_13_15":222,"he_16_17":145,"he_18_19":135,"he_20_24":192,"he_25_29":194,"he_30_34":248,"he_35_39":290,"he_40_44":318,"he_45_49":292,"he_50_54":240,"he_55_59":282,"he_60_64":283,"he_65_69":347,"he_70_74":330,"he_75_79":305,"he_80_84":149,"he_85_":156,"ko_ika18y":3761,"ko_perus":887,"ko_koul":2874,"ko_yliop":80,"ko_ammat":2012,"ko_al_kork":600,"ko_yl_kork":182,"hr_tuy":3761,"hr_ktu":26574,"hr_mtu":24791,"hr_pi_tul":812,"hr_ke_tul":2411,"hr_hy_tul":538,"hr_ovy":99943652,"te_taly":2260,"te_takk":2.1,"te_as_valj":45,"te_yks":1004,"te_nuor":177,"te_eil_np":50,"te_laps":505,"te_plap":100,"te_aklap":199,"te_klap":262,"te_teini":243,"te_yhlap":90,"te_aik":874,"te_elak":893,"te_omis_as":1641,"te_vuok_as":582,"te_muu_as":37,"tr_kuty":2260,"tr_ktu":44050,"tr_mtu":36888,"tr_pi_tul":622,"tr_ke_tul":1404,"tr_hy_tul":234,"tr_ovy":99552004,"ra_ke":264,"ra_raky":2524,"ra_muut":602,"ra_asrak":1922,"ra_asunn":2808,"ra_as_kpa":90.7,"ra_pt_as":2447,"ra_kt_as":274,"ra_muu_as":87,"tp_tyopy":2174,"tp_alku_a":133,"tp_jalo_bf":800,"tp_palv_gu":1241,"tp_a_maat":133,"tp_b_kaiv":5,"tp_c_teol":594,"tp_d_ener":20,"tp_e_vesi":8,"tp_f_rake":173,"tp_g_kaup":135,"tp_h_kulj":80,"tp_i_majo":41,"tp_j_info":4,"tp_k_raho":10,"tp_l_kiin":6,"tp_m_erik":48,"tp_n_hall":70,"tp_o_julk":61,"tp_p_koul":259,"tp_q_terv":456,"tp_r_taid":24,"tp_s_muup":47,"tp_t_koti":0,"tp_u_kans":0,"tp_x_tunt":0,"pt_vakiy":4875,"pt_tyoll":1864,"pt_tyott":226,"pt_0_14":902,"pt_opisk":330,"pt_elakel":1435,"pt_muut":118,"city":"haapavesi_siikalatva","pno":"86600","unemployment_rate":4.6,"higher_education_rate":20.8,"pensioner_share":29.4,"ownership_rate":72.6,"rental_rate":25.8,"population_density":9,"child_ratio":6.6,"student_share":6.8,"detached_house_share":87.1,"youth_ratio_pct":10.7,"gender_ratio":0.99,"single_parent_hh_pct":2.2,"families_with_children_pct":22.3,"tech_sector_pct":0.2,"healthcare_workers_pct":21,"employment_rate":38.2,"elderly_ratio_pct":26.4,"avg_household_size":2.16,"manufacturing_jobs_pct":36.8,"public_sector_jobs_pct":2.8,"service_sector_jobs_pct":57.1,"new_construction_pct":89.9,"foreign_language_pct":1.9,"crime_index":77.9,"property_price_sqm":null,"transit_stop_density":null,"air_quality_index":25.1,"green_space_pct":29.4,"daycare_density":0,"school_density":0,"healthcare_density":0,"restaurant_density":0,"grocery_density":0,"cycling_density":0.2,"single_person_hh_pct":44.4,"rental_price_sqm":9.09,"price_to_rent_ratio":null,"walkability_index":78,"traffic_accident_rate":1.8,"property_price_change_pct":-27.1,"school_quality_score":60.5,"light_pollution":0,"noise_pollution":40,"voter_turnout_pct":57.4,"party_diversity_index":0.8,"broadband_coverage_pct":95,"ev_charging_density":0,"tree_canopy_pct":39.6,"transit_reachability_score":null,"sports_facility_density":0.1,"water_proximity_m":0,"avg_construction_year":1983,"income_history":[[2021,20934],[2022,21094],[2023,21680],[2024,22606],[2025,23543],[2026,24791]],"population_history":[[2021,5175],[2022,5080],[2023,5066],[2024,5053],[2025,4975],[2026,4875]],"unemployment_history":[[2021,3.8],[2022,3.8],[2023,3.2],[2024,3.3],[2025,4.7],[2026,4.6]],"income_change_pct":18.4,"population_change_pct":-5.8,"unemployment_change_pct":21.1,"schools":[{"name":"Haapaveden lukio","score":60.5}]}},{"type":"MultiPolygon","arcs":[[[-21,22,23,24]]],"properties":{"id":2514,"postinumeroalue":"86650","nimi":"Kytökylä-Joutenniva","namn":"Kytökylä-Joutenniva","euref_x":432933,"euref_y":7109252,"pinta_ala":128681281,"vuosi":2026,"kunta":"071","he_vakiy":461,"he_naiset":218,"he_miehet":243,"he_kika":43,"he_0_2":17,"he_3_6":20,"he_7_12":42,"he_13_15":16,"he_16_17":13,"he_18_19":5,"he_20_24":21,"he_25_29":25,"he_30_34":25,"he_35_39":24,"he_40_44":29,"he_45_49":33,"he_50_54":20,"he_55_59":30,"he_60_64":27,"he_65_69":29,"he_70_74":36,"he_75_79":24,"he_80_84":14,"he_85_":11,"ko_ika18y":353,"ko_perus":86,"ko_koul":267,"ko_yliop":5,"ko_ammat":218,"ko_al_kork":41,"ko_yl_kork":3,"hr_tuy":353,"hr_ktu":26549,"hr_mtu":23324,"hr_pi_tul":83,"hr_ke_tul":228,"hr_hy_tul":42,"hr_ovy":9371889,"te_taly":194,"te_takk":2.4,"te_as_valj":43.6,"te_yks":66,"te_nuor":11,"te_eil_np":4,"te_laps":48,"te_plap":13,"te_aklap":21,"te_klap":28,"te_teini":20,"te_yhlap":5,"te_aik":71,"te_elak":79,"te_omis_as":176,"te_vuok_as":13,"te_muu_as":5,"tr_kuty":194,"tr_ktu":48964,"tr_mtu":39019,"tr_pi_tul":50,"tr_ke_tul":122,"tr_hy_tul":22,"tr_ovy":9499063,"ra_ke":28,"ra_raky":288,"ra_muut":62,"ra_asrak":226,"ra_asunn":230,"ra_as_kpa":101.3,"ra_pt_as":218,"ra_kt_as":6,"ra_muu_as":6,"tp_tyopy":107,"tp_alku_a":50,"tp_jalo_bf":14,"tp_palv_gu":43,"tp_a_maat":50,"tp_b_kaiv":0,"tp_c_teol":0,"tp_d_ener":0,"tp_e_vesi":0,"tp_f_rake":14,"tp_g_kaup":12,"tp_h_kulj":6,"tp_i_majo":0,"tp_j_info":0,"tp_k_raho":0,"tp_l_kiin":0,"tp_m_erik":1,"tp_n_hall":1,"tp_o_julk":0,"tp_p_koul":0,"tp_q_terv":22,"tp_r_taid":0,"tp_s_muup":1,"tp_t_koti":0,"tp_u_kans":0,"tp_x_tunt":0,"pt_vakiy":461,"pt_tyoll":184,"pt_tyott":24,"pt_0_14":93,"pt_opisk":23,"pt_elakel":124,"pt_muut":13,"city":"haapavesi_siikalatva","pno":"86650","unemployment_rate":5.2,"higher_education_rate":12.5,"pensioner_share":26.9,"ownership_rate":90.7,"rental_rate":6.7,"population_density":4,"child_ratio":8,"student_share":5,"detached_house_share":94.8,"youth_ratio_pct":11.1,"gender_ratio":0.9,"single_parent_hh_pct":2.1,"families_with_children_pct":24.7,"tech_sector_pct":0,"healthcare_workers_pct":20.6,"employment_rate":39.9,"elderly_ratio_pct":24.7,"avg_household_size":2.38,"manufacturing_jobs_pct":13.1,"public_sector_jobs_pct":0,"service_sector_jobs_pct":40.2,"new_construction_pct":125.2,"foreign_language_pct":1.3,"crime_index":60.4,"property_price_sqm":null,"transit_stop_density":null,"air_quality_index":25.2,"green_space_pct":14.4,"daycare_density":0,"school_density":0,"healthcare_density":0,"restaurant_density":0,"grocery_density":0,"cycling_density":0,"single_person_hh_pct":34,"rental_price_sqm":null,"price_to_rent_ratio":null,"walkability_index":76,"traffic_accident_rate":2.2,"property_price_change_pct":null,"school_quality_score":null,"light_pollution":0,"noise_pollution":40,"voter_turnout_pct":57.4,"party_diversity_index":0.8,"broadband_coverage_pct":95,"ev_charging_density":0,"tree_canopy_pct":42.2,"transit_reachability_score":null,"sports_facility_density":0,"water_proximity_m":0,"avg_construction_year":1984,"income_history":[[2021,19570],[2022,19472],[2023,21200],[2024,20901],[2025,22253],[2026,23324]],"population_history":[[2021,462],[2022,474],[2023,471],[2024,457],[2025,449],[2026,461]],"unemployment_history":[[2021,2.6],[2022,4],[2023,3.8],[2024,4.2],[2025,5.3],[2026,5.2]],"income_change_pct":19.2,"population_change_pct":-0.2,"unemployment_change_pct":100,"schools":null}},{"type":"MultiPolygon","arcs":[[[25,26,-15]]],"properties":{"id":2515,"postinumeroalue":"86680","nimi":"Vatjusjärvi","namn":"Vatjusjärvi","euref_x":418483,"euref_y":7105954,"pinta_ala":64981838,"vuosi":2026,"kunta":"071","he_vakiy":361,"he_naiset":173,"he_miehet":188,"he_kika":48,"he_0_2":3,"he_3_6":3,"he_7_12":27,"he_13_15":24,"he_16_17":13,"he_18_19":7,"he_20_24":16,"he_25_29":9,"he_30_34":5,"he_35_39":17,"he_40_44":21,"he_45_49":29,"he_50_54":27,"he_55_59":22,"he_60_64":27,"he_65_69":43,"he_70_74":29,"he_75_79":19,"he_80_84":11,"he_85_":9,"ko_ika18y":291,"ko_perus":68,"ko_koul":223,"ko_yliop":2,"ko_ammat":169,"ko_al_kork":40,"ko_yl_kork":12,"hr_tuy":291,"hr_ktu":26237,"hr_mtu":25260,"hr_pi_tul":61,"hr_ke_tul":186,"hr_hy_tul":44,"hr_ovy":7634956,"te_taly":167,"te_takk":2.2,"te_as_valj":50.4,"te_yks":51,"te_nuor":4,"te_eil_np":4,"te_laps":38,"te_plap":3,"te_aklap":6,"te_klap":17,"te_teini":24,"te_yhlap":10,"te_aik":51,"te_elak":79,"te_omis_as":161,"te_vuok_as":1,"te_muu_as":5,"tr_kuty":167,"tr_ktu":46102,"tr_mtu":41197,"tr_pi_tul":43,"tr_ke_tul":105,"tr_hy_tul":19,"tr_ovy":7698968,"ra_ke":106,"ra_raky":264,"ra_muut":48,"ra_asrak":216,"ra_asunn":209,"ra_as_kpa":106.3,"ra_pt_as":208,"ra_kt_as":0,"ra_muu_as":1,"tp_tyopy":28,"tp_alku_a":11,"tp_jalo_bf":11,"tp_palv_gu":6,"tp_a_maat":11,"tp_b_kaiv":1,"tp_c_teol":0,"tp_d_ener":0,"tp_e_vesi":0,"tp_f_rake":10,"tp_g_kaup":0,"tp_h_kulj":6,"tp_i_majo":0,"tp_j_info":0,"tp_k_raho":0,"tp_l_kiin":0,"tp_m_erik":0,"tp_n_hall":0,"tp_o_julk":0,"tp_p_koul":0,"tp_q_terv":0,"tp_r_taid":0,"tp_s_muup":0,"tp_t_koti":0,"tp_u_kans":0,"tp_x_tunt":0,"pt_vakiy":361,"pt_tyoll":139,"pt_tyott":15,"pt_0_14":47,"pt_opisk":32,"pt_elakel":122,"pt_muut":6,"city":"haapavesi_siikalatva","pno":"86680","unemployment_rate":4.2,"higher_education_rate":17.9,"pensioner_share":33.8,"ownership_rate":96.4,"rental_rate":0.6,"population_density":6,"child_ratio":1.7,"student_share":8.9,"detached_house_share":99.5,"youth_ratio_pct":8.9,"gender_ratio":0.92,"single_parent_hh_pct":2.4,"families_with_children_pct":22.8,"tech_sector_pct":0,"healthcare_workers_pct":0,"employment_rate":38.5,"elderly_ratio_pct":30.7,"avg_household_size":2.16,"manufacturing_jobs_pct":39.3,"public_sector_jobs_pct":0,"service_sector_jobs_pct":21.4,"new_construction_pct":126.3,"foreign_language_pct":0.2,"crime_index":60.1,"property_price_sqm":null,"transit_stop_density":null,"air_quality_index":25.2,"green_space_pct":16.7,"daycare_density":0,"school_density":0,"healthcare_density":0,"restaurant_density":0,"grocery_density":0,"cycling_density":0.1,"single_person_hh_pct":30.5,"rental_price_sqm":null,"price_to_rent_ratio":null,"walkability_index":78,"traffic_accident_rate":null,"property_price_change_pct":null,"school_quality_score":null,"light_pollution":0,"noise_pollution":40,"voter_turnout_pct":57.4,"party_diversity_index":0.8,"broadband_coverage_pct":95,"ev_charging_density":0,"tree_canopy_pct":67.2,"transit_reachability_score":null,"sports_facility_density":0,"water_proximity_m":0,"avg_construction_year":1984,"income_history":[[2021,21230],[2022,21467],[2023,22232],[2024,23578],[2025,24479],[2026,25260]],"population_history":[[2021,422],[2022,408],[2023,393],[2024,396],[2025,373],[2026,361]],"unemployment_history":[[2021,6.2],[2022,5.9],[2023,4.8],[2024,4.3],[2025,4],[2026,4.2]],"income_change_pct":19,"population_change_pct":-14.5,"unemployment_change_pct":-32.3,"schools":null}},{"type":"MultiPolygon","arcs":[[[-26,-14,27]]],"properties":{"id":2516,"postinumeroalue":"86690","nimi":"Karsikas","namn":"Karsikas","euref_x":419298,"euref_y":7096014,"pinta_ala":113838107,"vuosi":2026,"kunta":"071","he_vakiy":150,"he_naiset":59,"he_miehet":91,"he_kika":51,"he_0_2":1,"he_3_6":6,"he_7_12":10,"he_13_15":3,"he_16_17":3,"he_18_19":1,"he_20_24":5,"he_25_29":4,"he_30_34":5,"he_35_39":10,"he_40_44":12,"he_45_49":5,"he_50_54":12,"he_55_59":10,"he_60_64":14,"he_65_69":8,"he_70_74":16,"he_75_79":11,"he_80_84":6,"he_85_":8,"ko_ika18y":127,"ko_perus":47,"ko_koul":80,"ko_yliop":2,"ko_ammat":66,"ko_al_kork":9,"ko_yl_kork":3,"hr_tuy":127,"hr_ktu":26482,"hr_mtu":22062,"hr_pi_tul":39,"hr_ke_tul":69,"hr_hy_tul":19,"hr_ovy":3363275,"te_taly":74,"te_takk":2,"te_as_valj":51.9,"te_yks":34,"te_nuor":2,"te_eil_np":1,"te_laps":8,"te_plap":1,"te_aklap":4,"te_klap":4,"te_teini":5,"te_yhlap":1,"te_aik":32,"te_elak":36,"te_omis_as":67,"te_vuok_as":2,"te_muu_as":5,"tr_kuty":74,"tr_ktu":45650,"tr_mtu":35327,"tr_pi_tul":29,"tr_ke_tul":34,"tr_hy_tul":11,"tr_ovy":3378074,"ra_ke":12,"ra_raky":126,"ra_muut":19,"ra_asrak":107,"ra_asunn":103,"ra_as_kpa":99.8,"ra_pt_as":102,"ra_kt_as":0,"ra_muu_as":1,"tp_tyopy":30,"tp_alku_a":27,"tp_jalo_bf":2,"tp_palv_gu":1,"tp_a_maat":27,"tp_b_kaiv":1,"tp_c_teol":0,"tp_d_ener":1,"tp_e_vesi":0,"tp_f_rake":0,"tp_g_kaup":0,"tp_h_kulj":0,"tp_i_majo":0,"tp_j_info":0,"tp_k_raho":0,"tp_l_kiin":1,"tp_m_erik":0,"tp_n_hall":0,"tp_o_julk":0,"tp_p_koul":0,"tp_q_terv":0,"tp_r_taid":0,"tp_s_muup":0,"tp_t_koti":0,"tp_u_kans":0,"tp_x_tunt":0,"pt_vakiy":150,"pt_tyoll":54,"pt_tyott":7,"pt_0_14":20,"pt_opisk":3,"pt_elakel":61,"pt_muut":5,"city":"haapavesi_siikalatva","pno":"86690","unemployment_rate":4.7,"higher_education_rate":9.4,"pensioner_share":40.7,"ownership_rate":90.5,"rental_rate":2.7,"population_density":1,"child_ratio":4.7,"student_share":2,"detached_house_share":99,"youth_ratio_pct":6.7,"gender_ratio":0.65,"single_parent_hh_pct":1.4,"families_with_children_pct":10.8,"tech_sector_pct":0,"healthcare_workers_pct":0,"employment_rate":36,"elderly_ratio_pct":32.7,"avg_household_size":2.03,"manufacturing_jobs_pct":6.7,"public_sector_jobs_pct":0,"service_sector_jobs_pct":3.3,"new_construction_pct":122.3,"foreign_language_pct":1.2,"crime_index":36.8,"property_price_sqm":null,"transit_stop_density":null,"air_quality_index":25.2,"green_space_pct":35.4,"daycare_density":0,"school_density":0,"healthcare_density":0,"restaurant_density":0,"grocery_density":0,"cycling_density":0,"single_person_hh_pct":45.9,"rental_price_sqm":null,"price_to_rent_ratio":null,"walkability_index":76,"traffic_accident_rate":22.2,"property_price_change_pct":null,"school_quality_score":null,"light_pollution":0,"noise_pollution":40,"voter_turnout_pct":57.4,"party_diversity_index":0.8,"broadband_coverage_pct":95,"ev_charging_density":0,"tree_canopy_pct":78.2,"transit_reachability_score":null,"sports_facility_density":0,"water_proximity_m":0,"avg_construction_year":1984,"income_history":[[2021,16816],[2022,16394],[2023,17030],[2024,19120],[2025,19865],[2026,22062]],"population_history":[[2021,157],[2022,165],[2023,158],[2024,155],[2025,154],[2026,150]],"unemployment_history":[[2021,1.9],[2022,2.4],[2023,3.8],[2024,2.6],[2025,3.9],[2026,4.7]],"income_change_pct":31.2,"population_change_pct":-4.5,"unemployment_change_pct":147.4,"schools":null}},{"type":"MultiPolygon","arcs":[[[-3,28,29,30,31,32,-6,33]]],"properties":{"id":2694,"postinumeroalue":"92500","nimi":"Rantsila Keskus","namn":"Rantsila centrum","euref_x":441078,"euref_y":7150245,"pinta_ala":630781134,"vuosi":2026,"kunta":"791","he_vakiy":1377,"he_naiset":638,"he_miehet":739,"he_kika":47,"he_0_2":34,"he_3_6":42,"he_7_12":93,"he_13_15":68,"he_16_17":42,"he_18_19":30,"he_20_24":48,"he_25_29":45,"he_30_34":53,"he_35_39":68,"he_40_44":98,"he_45_49":72,"he_50_54":64,"he_55_59":92,"he_60_64":117,"he_65_69":109,"he_70_74":100,"he_75_79":77,"he_80_84":49,"he_85_":76,"ko_ika18y":1098,"ko_perus":284,"ko_koul":814,"ko_yliop":33,"ko_ammat":589,"ko_al_kork":160,"ko_yl_kork":32,"hr_tuy":1098,"hr_ktu":26517,"hr_mtu":23575,"hr_pi_tul":248,"hr_ke_tul":693,"hr_hy_tul":157,"hr_ovy":29115268,"te_taly":651,"te_takk":2.1,"te_as_valj":45.4,"te_yks":289,"te_nuor":29,"te_eil_np":13,"te_laps":117,"te_plap":22,"te_aklap":46,"te_klap":60,"te_teini":68,"te_yhlap":18,"te_aik":242,"te_elak":296,"te_omis_as":506,"te_vuok_as":130,"te_muu_as":15,"tr_kuty":651,"tr_ktu":44197,"tr_mtu":36826,"tr_pi_tul":196,"tr_ke_tul":381,"tr_hy_tul":74,"tr_ovy":28772005,"ra_ke":190,"ra_raky":833,"ra_muut":128,"ra_asrak":705,"ra_asunn":854,"ra_as_kpa":89.5,"ra_pt_as":828,"ra_kt_as":0,"ra_muu_as":26,"tp_tyopy":413,"tp_alku_a":93,"tp_jalo_bf":33,"tp_palv_gu":287,"tp_a_maat":93,"tp_b_kaiv":7,"tp_c_teol":10,"tp_d_ener":1,"tp_e_vesi":8,"tp_f_rake":7,"tp_g_kaup":27,"tp_h_kulj":57,"tp_i_majo":2,"tp_j_info":3,"tp_k_raho":7,"tp_l_kiin":0,"tp_m_erik":5,"tp_n_hall":9,"tp_o_julk":7,"tp_p_koul":48,"tp_q_terv":113,"tp_r_taid":3,"tp_s_muup":5,"tp_t_koti":1,"tp_u_kans":0,"tp_x_tunt":0,"pt_vakiy":1377,"pt_tyoll":505,"pt_tyott":68,"pt_0_14":222,"pt_opisk":79,"pt_elakel":473,"pt_muut":30,"city":"haapavesi_siikalatva","pno":"92500","unemployment_rate":4.9,"higher_education_rate":17.5,"pensioner_share":34.4,"ownership_rate":77.7,"rental_rate":20,"population_density":2,"child_ratio":5.5,"student_share":5.7,"detached_house_share":97,"youth_ratio_pct":8.9,"gender_ratio":0.86,"single_parent_hh_pct":2,"families_with_children_pct":18,"tech_sector_pct":0.7,"healthcare_workers_pct":27.4,"employment_rate":36.7,"elderly_ratio_pct":29.8,"avg_household_size":2.12,"manufacturing_jobs_pct":8,"public_sector_jobs_pct":1.7,"service_sector_jobs_pct":69.5,"new_construction_pct":97.5,"foreign_language_pct":1.3,"crime_index":118,"property_price_sqm":null,"transit_stop_density":null,"air_quality_index":24.7,"green_space_pct":16.9,"daycare_density":0,"school_density":0,"healthcare_density":0,"restaurant_density":0,"grocery_density":0,"cycling_density":0,"single_person_hh_pct":44.4,"rental_price_sqm":null,"price_to_rent_ratio":null,"walkability_index":76,"traffic_accident_rate":5.6,"property_price_change_pct":null,"school_quality_score":null,"light_pollution":0,"noise_pollution":40,"voter_turnout_pct":53.3,"party_diversity_index":0.673,"broadband_coverage_pct":88,"ev_charging_density":0,"tree_canopy_pct":51.4,"transit_reachability_score":null,"sports_facility_density":0,"water_proximity_m":0,"avg_construction_year":1979,"income_history":[[2021,18655],[2022,19141],[2023,19404],[2024,20082],[2025,21421],[2026,23575]],"population_history":[[2021,1429],[2022,1417],[2023,1407],[2024,1381],[2025,1362],[2026,1377]],"unemployment_history":[[2021,4.3],[2022,3.8],[2023,4.1],[2024,4.4],[2025,5.1],[2026,4.9]],"income_change_pct":26.4,"population_change_pct":-3.6,"unemployment_change_pct":14,"schools":null}},{"type":"MultiPolygon","arcs":[[[-33,34,-7]]],"properties":{"id":2695,"postinumeroalue":"92520","nimi":"Sipola","namn":"Sipola","euref_x":446487,"euref_y":7144044,"pinta_ala":54923323,"vuosi":2026,"kunta":"791","he_vakiy":62,"he_naiset":27,"he_miehet":35,"he_kika":56,"he_0_2":1,"he_3_6":1,"he_7_12":0,"he_13_15":4,"he_16_17":2,"he_18_19":1,"he_20_24":0,"he_25_29":2,"he_30_34":2,"he_35_39":1,"he_40_44":2,"he_45_49":3,"he_50_54":4,"he_55_59":8,"he_60_64":6,"he_65_69":4,"he_70_74":7,"he_75_79":6,"he_80_84":5,"he_85_":3,"ko_ika18y":54,"ko_perus":13,"ko_koul":41,"ko_yliop":2,"ko_ammat":30,"ko_al_kork":8,"ko_yl_kork":1,"hr_tuy":54,"hr_ktu":22864,"hr_mtu":21815,"hr_pi_tul":13,"hr_ke_tul":39,"hr_hy_tul":2,"hr_ovy":1234661,"te_taly":32,"te_takk":1.9,"te_as_valj":47.4,"te_yks":11,"te_nuor":1,"te_eil_np":0,"te_laps":5,"te_plap":1,"te_aklap":1,"te_klap":0,"te_teini":4,"te_yhlap":1,"te_aik":10,"te_elak":18,"te_omis_as":27,"te_vuok_as":3,"te_muu_as":2,"tr_kuty":32,"tr_ktu":38773,"tr_mtu":37215,"tr_pi_tul":12,"tr_ke_tul":19,"tr_hy_tul":1,"tr_ovy":1240747,"ra_ke":39,"ra_raky":57,"ra_muut":8,"ra_asrak":49,"ra_asunn":45,"ra_as_kpa":88.5,"ra_pt_as":44,"ra_kt_as":0,"ra_muu_as":1,"tp_tyopy":9,"tp_alku_a":-1,"tp_jalo_bf":-1,"tp_palv_gu":-1,"tp_a_maat":-1,"tp_b_kaiv":-1,"tp_c_teol":-1,"tp_d_ener":-1,"tp_e_vesi":-1,"tp_f_rake":-1,"tp_g_kaup":-1,"tp_h_kulj":-1,"tp_i_majo":-1,"tp_j_info":-1,"tp_k_raho":-1,"tp_l_kiin":-1,"tp_m_erik":-1,"tp_n_hall":-1,"tp_o_julk":-1,"tp_p_koul":-1,"tp_q_terv":-1,"tp_r_taid":-1,"tp_s_muup":-1,"tp_t_koti":-1,"tp_u_kans":-1,"tp_x_tunt":-1,"pt_vakiy":62,"pt_tyoll":24,"pt_tyott":3,"pt_0_14":4,"pt_opisk":5,"pt_elakel":26,"pt_muut":0,"city":"haapavesi_siikalatva","pno":"92520","unemployment_rate":4.8,"higher_education_rate":16.7,"pensioner_share":41.9,"ownership_rate":84.4,"rental_rate":9.4,"population_density":1,"child_ratio":3.2,"student_share":8.1,"detached_house_share":97.8,"youth_ratio_pct":4.8,"gender_ratio":0.77,"single_parent_hh_pct":0,"families_with_children_pct":15.6,"tech_sector_pct":null,"healthcare_workers_pct":null,"employment_rate":38.7,"elderly_ratio_pct":40.3,"avg_household_size":1.94,"manufacturing_jobs_pct":null,"public_sector_jobs_pct":null,"service_sector_jobs_pct":null,"new_construction_pct":126.7,"foreign_language_pct":0,"crime_index":86.1,"property_price_sqm":null,"transit_stop_density":null,"air_quality_index":24.5,"green_space_pct":25.2,"daycare_density":0,"school_density":0,"healthcare_density":0,"restaurant_density":0,"grocery_density":0,"cycling_density":0,"single_person_hh_pct":34.4,"rental_price_sqm":null,"price_to_rent_ratio":null,"walkability_index":76,"traffic_accident_rate":37.6,"property_price_change_pct":null,"school_quality_score":null,"light_pollution":0,"noise_pollution":40,"voter_turnout_pct":53.3,"party_diversity_index":0.673,"broadband_coverage_pct":88,"ev_charging_density":0,"tree_canopy_pct":56.4,"transit_reachability_score":null,"sports_facility_density":0,"water_proximity_m":0,"avg_construction_year":1980,"income_history":[[2021,19147],[2022,18008],[2023,19226],[2024,19234],[2025,20647],[2026,21815]],"population_history":[[2021,67],[2022,71],[2023,68],[2024,67],[2025,63],[2026,62]],"unemployment_history":[[2021,7.5],[2022,8.5],[2023,8.8],[2024,3],[2025,3.2],[2026,4.8]],"income_change_pct":13.9,"population_change_pct":-7.5,"unemployment_change_pct":-36,"schools":null}},{"type":"MultiPolygon","arcs":[[[-30,35]]],"properties":{"id":2696,"postinumeroalue":"92530","nimi":"Mankila","namn":"Mankila","euref_x":426975,"euref_y":7162451,"pinta_ala":46409448,"vuosi":2026,"kunta":"791","he_vakiy":152,"he_naiset":69,"he_miehet":83,"he_kika":46,"he_0_2":4,"he_3_6":5,"he_7_12":11,"he_13_15":7,"he_16_17":3,"he_18_19":2,"he_20_24":6,"he_25_29":5,"he_30_34":13,"he_35_39":3,"he_40_44":7,"he_45_49":6,"he_50_54":13,"he_55_59":15,"he_60_64":11,"he_65_69":13,"he_70_74":14,"he_75_79":5,"he_80_84":5,"he_85_":4,"ko_ika18y":122,"ko_perus":20,"ko_koul":102,"ko_yliop":3,"ko_ammat":68,"ko_al_kork":27,"ko_yl_kork":4,"hr_tuy":122,"hr_ktu":28235,"hr_mtu":25529,"hr_pi_tul":23,"hr_ke_tul":74,"hr_hy_tul":25,"hr_ovy":3444640,"te_taly":64,"te_takk":2.4,"te_as_valj":43.5,"te_yks":19,"te_nuor":2,"te_eil_np":1,"te_laps":14,"te_plap":3,"te_aklap":5,"te_klap":7,"te_teini":7,"te_yhlap":1,"te_aik":23,"te_elak":28,"te_omis_as":59,"te_vuok_as":2,"te_muu_as":3,"tr_kuty":64,"tr_ktu":54127,"tr_mtu":46100,"tr_pi_tul":10,"tr_ke_tul":41,"tr_hy_tul":13,"tr_ovy":3464130,"ra_ke":114,"ra_raky":114,"ra_muut":9,"ra_asrak":105,"ra_asunn":89,"ra_as_kpa":99.3,"ra_pt_as":87,"ra_kt_as":0,"ra_muu_as":2,"tp_tyopy":36,"tp_alku_a":18,"tp_jalo_bf":16,"tp_palv_gu":2,"tp_a_maat":18,"tp_b_kaiv":0,"tp_c_teol":3,"tp_d_ener":0,"tp_e_vesi":0,"tp_f_rake":13,"tp_g_kaup":0,"tp_h_kulj":0,"tp_i_majo":0,"tp_j_info":0,"tp_k_raho":0,"tp_l_kiin":0,"tp_m_erik":0,"tp_n_hall":0,"tp_o_julk":0,"tp_p_koul":2,"tp_q_terv":0,"tp_r_taid":0,"tp_s_muup":0,"tp_t_koti":0,"tp_u_kans":0,"tp_x_tunt":0,"pt_vakiy":152,"pt_tyoll":73,"pt_tyott":5,"pt_0_14":26,"pt_opisk":5,"pt_elakel":42,"pt_muut":1,"city":"haapavesi_siikalatva","pno":"92530","unemployment_rate":3.3,"higher_education_rate":25.4,"pensioner_share":27.6,"ownership_rate":92.2,"rental_rate":3.1,"population_density":3,"child_ratio":5.9,"student_share":3.3,"detached_house_share":97.8,"youth_ratio_pct":8.6,"gender_ratio":0.83,"single_parent_hh_pct":1.6,"families_with_children_pct":21.9,"tech_sector_pct":0,"healthcare_workers_pct":0,"employment_rate":48,"elderly_ratio_pct":27,"avg_household_size":2.38,"manufacturing_jobs_pct":44.4,"public_sector_jobs_pct":0,"service_sector_jobs_pct":5.6,"new_construction_pct":128.1,"foreign_language_pct":0.6,"crime_index":103.1,"property_price_sqm":null,"transit_stop_density":null,"air_quality_index":25.2,"green_space_pct":23.7,"daycare_density":0,"school_density":0,"healthcare_density":0,"restaurant_density":0,"grocery_density":0,"cycling_density":0,"single_person_hh_pct":29.7,"rental_price_sqm":null,"price_to_rent_ratio":null,"walkability_index":76,"traffic_accident_rate":null,"property_price_change_pct":null,"school_quality_score":null,"light_pollution":0,"noise_pollution":40,"voter_turnout_pct":53.3,"party_diversity_index":0.673,"broadband_coverage_pct":88,"ev_charging_density":0,"tree_canopy_pct":38.2,"transit_reachability_score":null,"sports_facility_density":0,"water_proximity_m":0,"avg_construction_year":1980,"income_history":[[2021,20490],[2022,20374],[2023,21409],[2024,24844],[2025,24273],[2026,25529]],"population_history":[[2021,160],[2022,162],[2023,158],[2024,158],[2025,156],[2026,152]],"unemployment_history":[[2021,3.1],[2022,5.6],[2023,2.5],[2024,2.5],[2025,1.9],[2026,3.3]],"income_change_pct":24.6,"population_change_pct":-5,"unemployment_change_pct":6.5,"schools":null}},{"type":"MultiPolygon","arcs":[[[36,37,-18,-4,-34,-5,38,39]]],"properties":{"id":2697,"postinumeroalue":"92600","nimi":"Pulkkila Keskus","namn":"Pulkkila centrum","euref_x":438786,"euref_y":7129622,"pinta_ala":292858657,"vuosi":2026,"kunta":"791","he_vakiy":1040,"he_naiset":516,"he_miehet":524,"he_kika":50,"he_0_2":23,"he_3_6":38,"he_7_12":70,"he_13_15":36,"he_16_17":26,"he_18_19":20,"he_20_24":27,"he_25_29":29,"he_30_34":37,"he_35_39":62,"he_40_44":52,"he_45_49":53,"he_50_54":65,"he_55_59":71,"he_60_64":65,"he_65_69":76,"he_70_74":94,"he_75_79":96,"he_80_84":38,"he_85_":62,"ko_ika18y":847,"ko_perus":225,"ko_koul":622,"ko_yliop":21,"ko_ammat":437,"ko_al_kork":130,"ko_yl_kork":34,"hr_tuy":847,"hr_ktu":25782,"hr_mtu":24195,"hr_pi_tul":167,"hr_ke_tul":583,"hr_hy_tul":97,"hr_ovy":21837702,"te_taly":522,"te_takk":2,"te_as_valj":47.7,"te_yks":243,"te_nuor":25,"te_eil_np":8,"te_laps":84,"te_plap":21,"te_aklap":37,"te_klap":41,"te_teini":41,"te_yhlap":12,"te_aik":178,"te_elak":264,"te_omis_as":396,"te_vuok_as":114,"te_muu_as":12,"tr_kuty":522,"tr_ktu":41873,"tr_mtu":35943,"tr_pi_tul":137,"tr_ke_tul":343,"tr_hy_tul":42,"tr_ovy":21857661,"ra_ke":101,"ra_raky":626,"ra_muut":131,"ra_asrak":495,"ra_asunn":718,"ra_as_kpa":88,"ra_pt_as":685,"ra_kt_as":8,"ra_muu_as":25,"tp_tyopy":535,"tp_alku_a":45,"tp_jalo_bf":83,"tp_palv_gu":407,"tp_a_maat":45,"tp_b_kaiv":21,"tp_c_teol":48,"tp_d_ener":5,"tp_e_vesi":0,"tp_f_rake":9,"tp_g_kaup":77,"tp_h_kulj":33,"tp_i_majo":11,"tp_j_info":0,"tp_k_raho":5,"tp_l_kiin":2,"tp_m_erik":9,"tp_n_hall":25,"tp_o_julk":53,"tp_p_koul":24,"tp_q_terv":142,"tp_r_taid":1,"tp_s_muup":25,"tp_t_koti":0,"tp_u_kans":0,"tp_x_tunt":0,"pt_vakiy":1040,"pt_tyoll":378,"pt_tyott":31,"pt_0_14":156,"pt_opisk":56,"pt_elakel":398,"pt_muut":21,"city":"haapavesi_siikalatva","pno":"92600","unemployment_rate":3,"higher_education_rate":19.4,"pensioner_share":38.3,"ownership_rate":75.9,"rental_rate":21.8,"population_density":4,"child_ratio":5.9,"student_share":5.4,"detached_house_share":95.4,"youth_ratio_pct":7.3,"gender_ratio":0.98,"single_parent_hh_pct":1.5,"families_with_children_pct":16.1,"tech_sector_pct":0,"healthcare_workers_pct":26.5,"employment_rate":36.3,"elderly_ratio_pct":35.2,"avg_household_size":1.99,"manufacturing_jobs_pct":15.5,"public_sector_jobs_pct":9.9,"service_sector_jobs_pct":76.1,"new_construction_pct":87.2,"foreign_language_pct":0.2,"crime_index":126.5,"property_price_sqm":null,"transit_stop_density":null,"air_quality_index":24.6,"green_space_pct":30.1,"daycare_density":0,"school_density":0,"healthcare_density":0,"restaurant_density":0,"grocery_density":0,"cycling_density":0.2,"single_person_hh_pct":46.6,"rental_price_sqm":null,"price_to_rent_ratio":null,"walkability_index":78,"traffic_accident_rate":6.1,"property_price_change_pct":null,"school_quality_score":null,"light_pollution":0,"noise_pollution":40,"voter_turnout_pct":53.3,"party_diversity_index":0.673,"broadband_coverage_pct":88,"ev_charging_density":0,"tree_canopy_pct":31.4,"transit_reachability_score":null,"sports_facility_density":0.1,"water_proximity_m":0,"avg_construction_year":1978,"income_history":[[2021,19286],[2022,19404],[2023,20421],[2024,21469],[2025,22299],[2026,24195]],"population_history":[[2021,1127],[2022,1091],[2023,1085],[2024,1056],[2025,1046],[2026,1040]],"unemployment_history":[[2021,3.6],[2022,4.2],[2023,2.9],[2024,3.2],[2025,6.2],[2026,3]],"income_change_pct":25.5,"population_change_pct":-7.7,"unemployment_change_pct":-16.7,"schools":null}},{"type":"MultiPolygon","arcs":[[[40,41,42,43,-24,44,-40]]],"properties":{"id":2699,"postinumeroalue":"92620","nimi":"Piippola Keskus","namn":"Piippola centrum","euref_x":452192,"euref_y":7114528,"pinta_ala":335297766,"vuosi":2026,"kunta":"791","he_vakiy":825,"he_naiset":402,"he_miehet":423,"he_kika":47,"he_0_2":25,"he_3_6":29,"he_7_12":54,"he_13_15":29,"he_16_17":19,"he_18_19":10,"he_20_24":21,"he_25_29":32,"he_30_34":49,"he_35_39":55,"he_40_44":48,"he_45_49":38,"he_50_54":41,"he_55_59":60,"he_60_64":60,"he_65_69":77,"he_70_74":58,"he_75_79":48,"he_80_84":43,"he_85_":29,"ko_ika18y":669,"ko_perus":142,"ko_koul":527,"ko_yliop":13,"ko_ammat":384,"ko_al_kork":110,"ko_yl_kork":20,"hr_tuy":669,"hr_ktu":25897,"hr_mtu":23768,"hr_pi_tul":135,"hr_ke_tul":453,"hr_hy_tul":81,"hr_ovy":17325396,"te_taly":416,"te_takk":2,"te_as_valj":49,"te_yks":188,"te_nuor":27,"te_eil_np":6,"te_laps":71,"te_plap":24,"te_aklap":33,"te_klap":36,"te_teini":32,"te_yhlap":10,"te_aik":164,"te_elak":182,"te_omis_as":320,"te_vuok_as":85,"te_muu_as":11,"tr_kuty":416,"tr_ktu":41820,"tr_mtu":36626,"tr_pi_tul":123,"tr_ke_tul":254,"tr_hy_tul":39,"tr_ovy":17397186,"ra_ke":53,"ra_raky":464,"ra_muut":82,"ra_asrak":382,"ra_asunn":539,"ra_as_kpa":89.1,"ra_pt_as":509,"ra_kt_as":8,"ra_muu_as":22,"tp_tyopy":193,"tp_alku_a":37,"tp_jalo_bf":25,"tp_palv_gu":131,"tp_a_maat":37,"tp_b_kaiv":5,"tp_c_teol":6,"tp_d_ener":0,"tp_e_vesi":0,"tp_f_rake":14,"tp_g_kaup":16,"tp_h_kulj":17,"tp_i_majo":4,"tp_j_info":0,"tp_k_raho":0,"tp_l_kiin":0,"tp_m_erik":0,"tp_n_hall":8,"tp_o_julk":1,"tp_p_koul":41,"tp_q_terv":36,"tp_r_taid":1,"tp_s_muup":7,"tp_t_koti":0,"tp_u_kans":0,"tp_x_tunt":0,"pt_vakiy":825,"pt_tyoll":323,"pt_tyott":38,"pt_0_14":126,"pt_opisk":42,"pt_elakel":270,"pt_muut":26,"city":"haapavesi_siikalatva","pno":"92620","unemployment_rate":4.6,"higher_education_rate":19.4,"pensioner_share":32.7,"ownership_rate":76.9,"rental_rate":20.4,"population_density":2,"child_ratio":6.5,"student_share":5.1,"detached_house_share":94.4,"youth_ratio_pct":7.6,"gender_ratio":0.95,"single_parent_hh_pct":1.4,"families_with_children_pct":17.1,"tech_sector_pct":0,"healthcare_workers_pct":18.7,"employment_rate":39.2,"elderly_ratio_pct":30.9,"avg_household_size":1.98,"manufacturing_jobs_pct":13,"public_sector_jobs_pct":0.5,"service_sector_jobs_pct":67.9,"new_construction_pct":86.1,"foreign_language_pct":1.1,"crime_index":116,"property_price_sqm":null,"transit_stop_density":null,"air_quality_index":23.9,"green_space_pct":61.5,"daycare_density":0,"school_density":0,"healthcare_density":0,"restaurant_density":0,"grocery_density":0,"cycling_density":0.1,"single_person_hh_pct":45.2,"rental_price_sqm":null,"price_to_rent_ratio":null,"walkability_index":78,"traffic_accident_rate":5.7,"property_price_change_pct":null,"school_quality_score":64.5,"light_pollution":0,"noise_pollution":40,"voter_turnout_pct":53.3,"party_diversity_index":0.673,"broadband_coverage_pct":88,"ev_charging_density":0,"tree_canopy_pct":43.8,"transit_reachability_score":null,"sports_facility_density":0.1,"water_proximity_m":0,"avg_construction_year":1978,"income_history":[[2021,21120],[2022,20896],[2023,21337],[2024,21980],[2025,22890],[2026,23768]],"population_history":[[2021,826],[2022,844],[2023,856],[2024,841],[2025,818],[2026,825]],"unemployment_history":[[2021,5.3],[2022,4.3],[2023,3.2],[2024,4.2],[2025,5.1],[2026,4.6]],"income_change_pct":12.5,"population_change_pct":-0.1,"unemployment_change_pct":-13.2,"schools":[{"name":"Siikalatvan lukio","score":64.5}]}},{"type":"MultiPolygon","arcs":[[[-23,-20,45,-37,-45]]],"properties":{"id":2700,"postinumeroalue":"92640","nimi":"Leskelä","namn":"Leskelä","euref_x":439489,"euref_y":7115912,"pinta_ala":79196445,"vuosi":2026,"kunta":"791","he_vakiy":167,"he_naiset":67,"he_miehet":100,"he_kika":52,"he_0_2":1,"he_3_6":5,"he_7_12":9,"he_13_15":3,"he_16_17":3,"he_18_19":0,"he_20_24":2,"he_25_29":8,"he_30_34":7,"he_35_39":4,"he_40_44":13,"he_45_49":11,"he_50_54":15,"he_55_59":17,"he_60_64":18,"he_65_69":9,"he_70_74":18,"he_75_79":12,"he_80_84":5,"he_85_":7,"ko_ika18y":146,"ko_perus":47,"ko_koul":99,"ko_yliop":3,"ko_ammat":76,"ko_al_kork":15,"ko_yl_kork":5,"hr_tuy":146,"hr_ktu":26363,"hr_mtu":24302,"hr_pi_tul":29,"hr_ke_tul":95,"hr_hy_tul":22,"hr_ovy":3848940,"te_taly":83,"te_takk":2,"te_as_valj":53.3,"te_yks":27,"te_nuor":4,"te_eil_np":2,"te_laps":11,"te_plap":1,"te_aklap":4,"te_klap":7,"te_teini":4,"te_yhlap":4,"te_aik":37,"te_elak":35,"te_omis_as":75,"te_vuok_as":4,"te_muu_as":4,"tr_kuty":83,"tr_ktu":46969,"tr_mtu":39360,"tr_pi_tul":19,"tr_ke_tul":54,"tr_hy_tul":10,"tr_ovy":3898443,"ra_ke":37,"ra_raky":113,"ra_muut":11,"ra_asrak":102,"ra_asunn":105,"ra_as_kpa":98.1,"ra_pt_as":102,"ra_kt_as":0,"ra_muu_as":3,"tp_tyopy":18,"tp_alku_a":9,"tp_jalo_bf":9,"tp_palv_gu":0,"tp_a_maat":9,"tp_b_kaiv":0,"tp_c_teol":0,"tp_d_ener":0,"tp_e_vesi":0,"tp_f_rake":9,"tp_g_kaup":0,"tp_h_kulj":0,"tp_i_majo":0,"tp_j_info":0,"tp_k_raho":0,"tp_l_kiin":0,"tp_m_erik":0,"tp_n_hall":0,"tp_o_julk":0,"tp_p_koul":0,"tp_q_terv":0,"tp_r_taid":0,"tp_s_muup":0,"tp_t_koti":0,"tp_u_kans":0,"tp_x_tunt":0,"pt_vakiy":167,"pt_tyoll":75,"pt_tyott":9,"pt_0_14":18,"pt_opisk":4,"pt_elakel":58,"pt_muut":3,"city":"haapavesi_siikalatva","pno":"92640","unemployment_rate":5.4,"higher_education_rate":13.7,"pensioner_share":34.7,"ownership_rate":90.4,"rental_rate":4.8,"population_density":2,"child_ratio":3.6,"student_share":2.4,"detached_house_share":97.1,"youth_ratio_pct":6,"gender_ratio":0.67,"single_parent_hh_pct":2.4,"families_with_children_pct":13.3,"tech_sector_pct":0,"healthcare_workers_pct":0,"employment_rate":44.9,"elderly_ratio_pct":30.5,"avg_household_size":2.01,"manufacturing_jobs_pct":50,"public_sector_jobs_pct":0,"service_sector_jobs_pct":0,"new_construction_pct":107.6,"foreign_language_pct":1.1,"crime_index":108.4,"property_price_sqm":null,"transit_stop_density":null,"air_quality_index":24.8,"green_space_pct":66.9,"daycare_density":0,"school_density":0,"healthcare_density":0,"restaurant_density":0,"grocery_density":0,"cycling_density":0,"single_person_hh_pct":32.5,"rental_price_sqm":null,"price_to_rent_ratio":null,"walkability_index":76,"traffic_accident_rate":18,"property_price_change_pct":null,"school_quality_score":null,"light_pollution":0,"noise_pollution":40,"voter_turnout_pct":53.3,"party_diversity_index":0.673,"broadband_coverage_pct":88,"ev_charging_density":0,"tree_canopy_pct":38.8,"transit_reachability_score":null,"sports_facility_density":0,"water_proximity_m":0,"avg_construction_year":1979,"income_history":[[2021,17925],[2022,18584],[2023,19829],[2024,21547],[2025,23647],[2026,24302]],"population_history":[[2021,192],[2022,186],[2023,177],[2024,180],[2025,172],[2026,167]],"unemployment_history":[[2021,5.7],[2022,8.1],[2023,7.3],[2024,5],[2025,4.7],[2026,5.4]],"income_change_pct":35.6,"population_change_pct":-13,"unemployment_change_pct":-5.3,"schools":null}},{"type":"MultiPolygon","arcs":[[[-19,-38,-46]]],"properties":{"id":2701,"postinumeroalue":"92650","nimi":"Laakkola","namn":"Laakkola","euref_x":436854,"euref_y":7122642,"pinta_ala":65221564,"vuosi":2026,"kunta":"791","he_vakiy":174,"he_naiset":77,"he_miehet":97,"he_kika":45,"he_0_2":9,"he_3_6":8,"he_7_12":13,"he_13_15":1,"he_16_17":4,"he_18_19":7,"he_20_24":6,"he_25_29":8,"he_30_34":7,"he_35_39":10,"he_40_44":7,"he_45_49":10,"he_50_54":5,"he_55_59":14,"he_60_64":11,"he_65_69":25,"he_70_74":13,"he_75_79":8,"he_80_84":5,"he_85_":3,"ko_ika18y":139,"ko_perus":32,"ko_koul":107,"ko_yliop":4,"ko_ammat":77,"ko_al_kork":22,"ko_yl_kork":4,"hr_tuy":139,"hr_ktu":24672,"hr_mtu":21484,"hr_pi_tul":44,"hr_ke_tul":77,"hr_hy_tul":18,"hr_ovy":3429375,"te_taly":73,"te_takk":2.4,"te_as_valj":42,"te_yks":26,"te_nuor":0,"te_eil_np":3,"te_laps":12,"te_plap":7,"te_aklap":9,"te_klap":6,"te_teini":4,"te_yhlap":2,"te_aik":24,"te_elak":38,"te_omis_as":57,"te_vuok_as":11,"te_muu_as":5,"tr_kuty":73,"tr_ktu":47198,"tr_mtu":37892,"tr_pi_tul":24,"tr_ke_tul":45,"tr_hy_tul":4,"tr_ovy":3445443,"ra_ke":26,"ra_raky":94,"ra_muut":6,"ra_asrak":88,"ra_asunn":89,"ra_as_kpa":96.5,"ra_pt_as":89,"ra_kt_as":0,"ra_muu_as":0,"tp_tyopy":22,"tp_alku_a":15,"tp_jalo_bf":7,"tp_palv_gu":0,"tp_a_maat":15,"tp_b_kaiv":0,"tp_c_teol":0,"tp_d_ener":0,"tp_e_vesi":0,"tp_f_rake":7,"tp_g_kaup":0,"tp_h_kulj":0,"tp_i_majo":0,"tp_j_info":0,"tp_k_raho":0,"tp_l_kiin":0,"tp_m_erik":0,"tp_n_hall":0,"tp_o_julk":0,"tp_p_koul":0,"tp_q_terv":0,"tp_r_taid":0,"tp_s_muup":0,"tp_t_koti":0,"tp_u_kans":0,"tp_x_tunt":0,"pt_vakiy":174,"pt_tyoll":61,"pt_tyott":5,"pt_0_14":31,"pt_opisk":9,"pt_elakel":59,"pt_muut":9,"city":"haapavesi_siikalatva","pno":"92650","unemployment_rate":2.9,"higher_education_rate":18.7,"pensioner_share":33.9,"ownership_rate":78.1,"rental_rate":15.1,"population_density":3,"child_ratio":9.8,"student_share":5.2,"detached_house_share":100,"youth_ratio_pct":12.1,"gender_ratio":0.79,"single_parent_hh_pct":4.1,"families_with_children_pct":16.4,"tech_sector_pct":0,"healthcare_workers_pct":0,"employment_rate":35.1,"elderly_ratio_pct":31,"avg_household_size":2.38,"manufacturing_jobs_pct":31.8,"public_sector_jobs_pct":0,"service_sector_jobs_pct":0,"new_construction_pct":105.6,"foreign_language_pct":0,"crime_index":110.7,"property_price_sqm":null,"transit_stop_density":null,"air_quality_index":24.8,"green_space_pct":4.4,"daycare_density":0,"school_density":0,"healthcare_density":0,"restaurant_density":0,"grocery_density":0,"cycling_density":0,"single_person_hh_pct":35.6,"rental_price_sqm":null,"price_to_rent_ratio":null,"walkability_index":76,"traffic_accident_rate":3.8,"property_price_change_pct":null,"school_quality_score":null,"light_pollution":0,"noise_pollution":40,"voter_turnout_pct":53.3,"party_diversity_index":0.673,"broadband_coverage_pct":88,"ev_charging_density":0,"tree_canopy_pct":36.4,"transit_reachability_score":null,"sports_facility_density":0,"water_proximity_m":1050,"avg_construction_year":1979,"income_history":[[2021,17126],[2022,18815],[2023,19370],[2024,21978],[2025,23220],[2026,21484]],"population_history":[[2021,173],[2022,174],[2023,168],[2024,167],[2025,165],[2026,174]],"unemployment_history":[[2021,4],[2022,3.4],[2023,5.4],[2024,1.8],[2025,5.5],[2026,2.9]],"income_change_pct":25.4,"population_change_pct":0.6,"unemployment_change_pct":-27.5,"schools":null}},{"type":"MultiPolygon","arcs":[[[46,-41,-39,-8,-35,-32,47]]],"properties":{"id":2702,"postinumeroalue":"92700","nimi":"Kestilä","namn":"Kestilä","euref_x":469263,"euref_y":7133171,"pinta_ala":733868831,"vuosi":2026,"kunta":"791","he_vakiy":1028,"he_naiset":482,"he_miehet":546,"he_kika":54,"he_0_2":15,"he_3_6":21,"he_7_12":49,"he_13_15":26,"he_16_17":10,"he_18_19":28,"he_20_24":26,"he_25_29":26,"he_30_34":41,"he_35_39":35,"he_40_44":49,"he_45_49":50,"he_50_54":51,"he_55_59":88,"he_60_64":97,"he_65_69":105,"he_70_74":103,"he_75_79":86,"he_80_84":55,"he_85_":67,"ko_ika18y":907,"ko_perus":240,"ko_koul":667,"ko_yliop":15,"ko_ammat":507,"ko_al_kork":125,"ko_yl_kork":20,"hr_tuy":907,"hr_ktu":24706,"hr_mtu":21714,"hr_pi_tul":240,"hr_ke_tul":578,"hr_hy_tul":89,"hr_ovy":22407889,"te_taly":562,"te_takk":1.8,"te_as_valj":53.2,"te_yks":280,"te_nuor":32,"te_eil_np":4,"te_laps":57,"te_plap":14,"te_aklap":24,"te_klap":29,"te_teini":23,"te_yhlap":9,"te_aik":214,"te_elak":297,"te_omis_as":465,"te_vuok_as":82,"te_muu_as":15,"tr_kuty":562,"tr_ktu":39626,"tr_mtu":31689,"tr_pi_tul":186,"tr_ke_tul":326,"tr_hy_tul":50,"tr_ovy":22270044,"ra_ke":197,"ra_raky":836,"ra_muut":152,"ra_asrak":684,"ra_asunn":772,"ra_as_kpa":90.5,"ra_pt_as":744,"ra_kt_as":18,"ra_muu_as":10,"tp_tyopy":251,"tp_alku_a":93,"tp_jalo_bf":14,"tp_palv_gu":144,"tp_a_maat":93,"tp_b_kaiv":0,"tp_c_teol":7,"tp_d_ener":0,"tp_e_vesi":0,"tp_f_rake":7,"tp_g_kaup":34,"tp_h_kulj":7,"tp_i_majo":2,"tp_j_info":0,"tp_k_raho":0,"tp_l_kiin":2,"tp_m_erik":3,"tp_n_hall":0,"tp_o_julk":35,"tp_p_koul":7,"tp_q_terv":48,"tp_r_taid":1,"tp_s_muup":5,"tp_t_koti":0,"tp_u_kans":0,"tp_x_tunt":0,"pt_vakiy":1028,"pt_tyoll":381,"pt_tyott":41,"pt_0_14":101,"pt_opisk":32,"pt_elakel":447,"pt_muut":26,"city":"haapavesi_siikalatva","pno":"92700","unemployment_rate":4,"higher_education_rate":16,"pensioner_share":43.5,"ownership_rate":82.7,"rental_rate":14.6,"population_density":1,"child_ratio":3.5,"student_share":3.1,"detached_house_share":96.4,"youth_ratio_pct":7.8,"gender_ratio":0.88,"single_parent_hh_pct":0.7,"families_with_children_pct":10.1,"tech_sector_pct":0,"healthcare_workers_pct":19.1,"employment_rate":37.1,"elderly_ratio_pct":40.5,"avg_household_size":1.83,"manufacturing_jobs_pct":5.6,"public_sector_jobs_pct":13.9,"service_sector_jobs_pct":57.4,"new_construction_pct":108.3,"foreign_language_pct":0.4,"crime_index":84.5,"property_price_sqm":null,"transit_stop_density":null,"air_quality_index":23.6,"green_space_pct":14,"daycare_density":0,"school_density":0,"healthcare_density":0,"restaurant_density":0,"grocery_density":0,"cycling_density":0,"single_person_hh_pct":49.8,"rental_price_sqm":null,"price_to_rent_ratio":null,"walkability_index":76,"traffic_accident_rate":3.6,"property_price_change_pct":null,"school_quality_score":null,"light_pollution":0,"noise_pollution":40,"voter_turnout_pct":53.3,"party_diversity_index":0.673,"broadband_coverage_pct":88,"ev_charging_density":0,"tree_canopy_pct":32.9,"transit_reachability_score":null,"sports_facility_density":0,"water_proximity_m":0,"avg_construction_year":1979,"income_history":[[2021,18294],[2022,18102],[2023,19466],[2024,20364],[2025,21125],[2026,21714]],"population_history":[[2021,1137],[2022,1133],[2023,1094],[2024,1058],[2025,1044],[2026,1028]],"unemployment_history":[[2021,5.1],[2022,4.5],[2023,3.5],[2024,4.3],[2025,4.8],[2026,4]],"income_change_pct":18.7,"population_change_pct":-9.6,"unemployment_change_pct":-21.6,"schools":null}},{"type":"MultiPolygon","arcs":[[[48,49,50,-42,-47]]],"properties":{"id":2705,"postinumeroalue":"92910","nimi":"Tavastkenkä","namn":"Tavastkenkä","euref_x":475464,"euref_y":7113806,"pinta_ala":252759890,"vuosi":2026,"kunta":"630","he_vakiy":279,"he_naiset":125,"he_miehet":154,"he_kika":44,"he_0_2":9,"he_3_6":11,"he_7_12":16,"he_13_15":12,"he_16_17":5,"he_18_19":8,"he_20_24":13,"he_25_29":16,"he_30_34":10,"he_35_39":22,"he_40_44":14,"he_45_49":21,"he_50_54":10,"he_55_59":18,"he_60_64":25,"he_65_69":21,"he_70_74":21,"he_75_79":18,"he_80_84":2,"he_85_":7,"ko_ika18y":226,"ko_perus":65,"ko_koul":161,"ko_yliop":8,"ko_ammat":118,"ko_al_kork":26,"ko_yl_kork":9,"hr_tuy":226,"hr_ktu":24272,"hr_mtu":22825,"hr_pi_tul":56,"hr_ke_tul":143,"hr_hy_tul":27,"hr_ovy":5485573,"te_taly":122,"te_takk":2.2,"te_as_valj":48.3,"te_yks":40,"te_nuor":2,"te_eil_np":5,"te_laps":31,"te_plap":8,"te_aklap":14,"te_klap":13,"te_teini":12,"te_yhlap":6,"te_aik":41,"te_elak":50,"te_omis_as":105,"te_vuok_as":11,"te_muu_as":6,"tr_kuty":122,"tr_ktu":44351,"tr_mtu":38711,"tr_pi_tul":35,"tr_ke_tul":74,"tr_hy_tul":13,"tr_ovy":5410766,"ra_ke":51,"ra_raky":159,"ra_muut":15,"ra_asrak":144,"ra_asunn":151,"ra_as_kpa":104.8,"ra_pt_as":143,"ra_kt_as":0,"ra_muu_as":8,"tp_tyopy":75,"tp_alku_a":73,"tp_jalo_bf":0,"tp_palv_gu":2,"tp_a_maat":73,"tp_b_kaiv":0,"tp_c_teol":0,"tp_d_ener":0,"tp_e_vesi":0,"tp_f_rake":0,"tp_g_kaup":0,"tp_h_kulj":1,"tp_i_majo":0,"tp_j_info":0,"tp_k_raho":0,"tp_l_kiin":0,"tp_m_erik":0,"tp_n_hall":0,"tp_o_julk":0,"tp_p_koul":0,"tp_q_terv":0,"tp_r_taid":0,"tp_s_muup":1,"tp_t_koti":0,"tp_u_kans":0,"tp_x_tunt":0,"pt_vakiy":279,"pt_tyoll":122,"pt_tyott":8,"pt_0_14":41,"pt_opisk":16,"pt_elakel":78,"pt_muut":14,"city":"haapavesi_siikalatva","pno":"92910","unemployment_rate":2.9,"higher_education_rate":15.5,"pensioner_share":28,"ownership_rate":86.1,"rental_rate":9,"population_density":1,"child_ratio":7.2,"student_share":5.7,"detached_house_share":94.7,"youth_ratio_pct":13.3,"gender_ratio":0.81,"single_parent_hh_pct":4.1,"families_with_children_pct":25.4,"tech_sector_pct":0,"healthcare_workers_pct":0,"employment_rate":43.7,"elderly_ratio_pct":24.7,"avg_household_size":2.29,"manufacturing_jobs_pct":0,"public_sector_jobs_pct":0,"service_sector_jobs_pct":2.7,"new_construction_pct":105.3,"foreign_language_pct":5,"crime_index":24.4,"property_price_sqm":null,"transit_stop_density":null,"air_quality_index":23.1,"green_space_pct":26.8,"daycare_density":0,"school_density":0,"healthcare_density":0,"restaurant_density":0,"grocery_density":0,"cycling_density":0,"single_person_hh_pct":32.8,"rental_price_sqm":null,"price_to_rent_ratio":null,"walkability_index":76,"traffic_accident_rate":4.8,"property_price_change_pct":null,"school_quality_score":null,"light_pollution":0,"noise_pollution":40,"voter_turnout_pct":56.8,"party_diversity_index":0.623,"broadband_coverage_pct":95,"ev_charging_density":0,"tree_canopy_pct":64,"transit_reachability_score":null,"sports_facility_density":0,"water_proximity_m":0,"avg_construction_year":1982,"income_history":[[2021,20572],[2022,21030],[2023,20624],[2024,23250],[2025,21232],[2026,22825]],"population_history":[[2021,266],[2022,280],[2023,289],[2024,272],[2025,272],[2026,279]],"unemployment_history":[[2021,6],[2022,6.1],[2023,3.5],[2024,3.7],[2025,6.6],[2026,2.9]],"income_change_pct":11,"population_change_pct":4.9,"unemployment_change_pct":-51.7,"schools":null}},{"type":"MultiPolygon","arcs":[[[51,-50,52]]],"properties":{"id":2706,"postinumeroalue":"92920","nimi":"Ahokylä","namn":"Ahokylä","euref_x":478625,"euref_y":7099843,"pinta_ala":191261516,"vuosi":2026,"kunta":"630","he_vakiy":72,"he_naiset":23,"he_miehet":49,"he_kika":46,"he_0_2":2,"he_3_6":6,"he_7_12":3,"he_13_15":2,"he_16_17":0,"he_18_19":3,"he_20_24":2,"he_25_29":1,"he_30_34":4,"he_35_39":3,"he_40_44":8,"he_45_49":2,"he_50_54":3,"he_55_59":4,"he_60_64":5,"he_65_69":14,"he_70_74":7,"he_75_79":3,"he_80_84":0,"he_85_":0,"ko_ika18y":59,"ko_perus":17,"ko_koul":42,"ko_yliop":0,"ko_ammat":37,"ko_al_kork":3,"ko_yl_kork":2,"hr_tuy":59,"hr_ktu":22667,"hr_mtu":22843,"hr_pi_tul":15,"hr_ke_tul":42,"hr_hy_tul":2,"hr_ovy":1337374,"te_taly":31,"te_takk":2.3,"te_as_valj":43.1,"te_yks":10,"te_nuor":1,"te_eil_np":1,"te_laps":7,"te_plap":2,"te_aklap":6,"te_klap":2,"te_teini":2,"te_yhlap":0,"te_aik":8,"te_elak":16,"te_omis_as":30,"te_vuok_as":0,"te_muu_as":1,"tr_kuty":31,"tr_ktu":43283,"tr_mtu":44498,"tr_pi_tul":10,"tr_ke_tul":20,"tr_hy_tul":1,"tr_ovy":1341772,"ra_ke":21,"ra_raky":55,"ra_muut":10,"ra_asrak":45,"ra_asunn":38,"ra_as_kpa":95.9,"ra_pt_as":36,"ra_kt_as":0,"ra_muu_as":2,"tp_tyopy":5,"tp_alku_a":-1,"tp_jalo_bf":-1,"tp_palv_gu":-1,"tp_a_maat":-1,"tp_b_kaiv":-1,"tp_c_teol":-1,"tp_d_ener":-1,"tp_e_vesi":-1,"tp_f_rake":-1,"tp_g_kaup":-1,"tp_h_kulj":-1,"tp_i_majo":-1,"tp_j_info":-1,"tp_k_raho":-1,"tp_l_kiin":-1,"tp_m_erik":-1,"tp_n_hall":-1,"tp_o_julk":-1,"tp_p_koul":-1,"tp_q_terv":-1,"tp_r_taid":-1,"tp_s_muup":-1,"tp_t_koti":-1,"tp_u_kans":-1,"tp_x_tunt":-1,"pt_vakiy":72,"pt_tyoll":26,"pt_tyott":7,"pt_0_14":13,"pt_opisk":2,"pt_elakel":23,"pt_muut":1,"city":"haapavesi_siikalatva","pno":"92920","unemployment_rate":9.7,"higher_education_rate":8.5,"pensioner_share":31.9,"ownership_rate":96.8,"rental_rate":0,"population_density":0,"child_ratio":11.1,"student_share":2.8,"detached_house_share":94.7,"youth_ratio_pct":8.3,"gender_ratio":0.47,"single_parent_hh_pct":3.2,"families_with_children_pct":22.6,"tech_sector_pct":null,"healthcare_workers_pct":null,"employment_rate":36.1,"elderly_ratio_pct":33.3,"avg_household_size":2.32,"manufacturing_jobs_pct":null,"public_sector_jobs_pct":null,"service_sector_jobs_pct":null,"new_construction_pct":144.7,"foreign_language_pct":4.1,"crime_index":117.3,"property_price_sqm":null,"transit_stop_density":null,"air_quality_index":22.6,"green_space_pct":29.4,"daycare_density":0,"school_density":0,"healthcare_density":0,"restaurant_density":0,"grocery_density":0,"cycling_density":0,"single_person_hh_pct":32.3,"rental_price_sqm":null,"price_to_rent_ratio":null,"walkability_index":76,"traffic_accident_rate":37,"property_price_change_pct":null,"school_quality_score":null,"light_pollution":0,"noise_pollution":40,"voter_turnout_pct":56.8,"party_diversity_index":0.623,"broadband_coverage_pct":95,"ev_charging_density":0,"tree_canopy_pct":45.2,"transit_reachability_score":null,"sports_facility_density":0,"water_proximity_m":0,"avg_construction_year":1984,"income_history":[[2021,21402],[2022,19868],[2023,19426],[2024,20493],[2025,20589],[2026,22843]],"population_history":[[2021,74],[2022,74],[2023,73],[2024,71],[2025,73],[2026,72]],"unemployment_history":[[2021,4.1],[2022,6.8],[2023,4.1],[2024,7],[2025,15.1],[2026,9.7]],"income_change_pct":6.7,"population_change_pct":-2.7,"unemployment_change_pct":136.6,"schools":null}},{"type":"MultiPolygon","arcs":[[[-43,-51,-52,53]]],"properties":{"id":2707,"postinumeroalue":"92930","nimi":"Pyhäntä","namn":"Pyhäntä","euref_x":466796,"euref_y":7102459,"pinta_ala":309318481,"vuosi":2026,"kunta":"630","he_vakiy":1275,"he_naiset":618,"he_miehet":657,"he_kika":41,"he_0_2":59,"he_3_6":68,"he_7_12":118,"he_13_15":63,"he_16_17":45,"he_18_19":31,"he_20_24":39,"he_25_29":76,"he_30_34":61,"he_35_39":75,"he_40_44":64,"he_45_49":65,"he_50_54":59,"he_55_59":60,"he_60_64":76,"he_65_69":83,"he_70_74":105,"he_75_79":58,"he_80_84":39,"he_85_":31,"ko_ika18y":922,"ko_perus":268,"ko_koul":654,"ko_yliop":42,"ko_ammat":416,"ko_al_kork":147,"ko_yl_kork":49,"hr_tuy":922,"hr_ktu":29117,"hr_mtu":24084,"hr_pi_tul":180,"hr_ke_tul":629,"hr_hy_tul":113,"hr_ovy":26845806,"te_taly":521,"te_takk":2.4,"te_as_valj":36.5,"te_yks":186,"te_nuor":36,"te_eil_np":15,"te_laps":119,"te_plap":44,"te_aklap":62,"te_klap":58,"te_teini":58,"te_yhlap":13,"te_aik":192,"te_elak":213,"te_omis_as":350,"te_vuok_as":162,"te_muu_as":9,"tr_kuty":521,"tr_ktu":51705,"tr_mtu":41186,"tr_pi_tul":117,"tr_ke_tul":350,"tr_hy_tul":54,"tr_ovy":26938256,"ra_ke":277,"ra_raky":530,"ra_muut":124,"ra_asrak":406,"ra_asunn":640,"ra_as_kpa":84.6,"ra_pt_as":628,"ra_kt_as":0,"ra_muu_as":12,"tp_tyopy":652,"tp_alku_a":22,"tp_jalo_bf":454,"tp_palv_gu":176,"tp_a_maat":22,"tp_b_kaiv":0,"tp_c_teol":415,"tp_d_ener":7,"tp_e_vesi":0,"tp_f_rake":32,"tp_g_kaup":21,"tp_h_kulj":17,"tp_i_majo":8,"tp_j_info":2,"tp_k_raho":4,"tp_l_kiin":1,"tp_m_erik":3,"tp_n_hall":4,"tp_o_julk":8,"tp_p_koul":44,"tp_q_terv":49,"tp_r_taid":3,"tp_s_muup":12,"tp_t_koti":0,"tp_u_kans":0,"tp_x_tunt":0,"pt_vakiy":1275,"pt_tyoll":467,"pt_tyott":42,"pt_0_14":291,"pt_opisk":91,"pt_elakel":343,"pt_muut":41,"city":"haapavesi_siikalatva","pno":"92930","unemployment_rate":3.3,"higher_education_rate":21.3,"pensioner_share":26.9,"ownership_rate":67.2,"rental_rate":31.1,"population_density":4,"child_ratio":10,"student_share":7.1,"detached_house_share":98.1,"youth_ratio_pct":11.5,"gender_ratio":0.94,"single_parent_hh_pct":2.9,"families_with_children_pct":22.8,"tech_sector_pct":0.3,"healthcare_workers_pct":7.5,"employment_rate":36.6,"elderly_ratio_pct":24.8,"avg_household_size":2.45,"manufacturing_jobs_pct":69.6,"public_sector_jobs_pct":1.2,"service_sector_jobs_pct":27,"new_construction_pct":82.8,"foreign_language_pct":1.8,"crime_index":47.1,"property_price_sqm":null,"transit_stop_density":null,"air_quality_index":23.4,"green_space_pct":35.2,"daycare_density":0,"school_density":0,"healthcare_density":0,"restaurant_density":0,"grocery_density":0,"cycling_density":0.1,"single_person_hh_pct":35.7,"rental_price_sqm":null,"price_to_rent_ratio":null,"walkability_index":78,"traffic_accident_rate":1.8,"property_price_change_pct":null,"school_quality_score":null,"light_pollution":0,"noise_pollution":40,"voter_turnout_pct":56.8,"party_diversity_index":0.623,"broadband_coverage_pct":95,"ev_charging_density":0,"tree_canopy_pct":30,"transit_reachability_score":null,"sports_facility_density":0.1,"water_proximity_m":0,"avg_construction_year":1981,"income_history":[[2021,21247],[2022,22041],[2023,22090],[2024,22765],[2025,23136],[2026,24084]],"population_history":[[2021,1216],[2022,1215],[2023,1248],[2024,1274],[2025,1289],[2026,1275]],"unemployment_history":[[2021,4],[2022,3.5],[2023,2.1],[2024,2.5],[2025,5.4],[2026,3.3]],"income_change_pct":13.4,"population_change_pct":4.9,"unemployment_change_pct":-17.5,"schools":null}}]}},"arcs":[[[25.451652745058997,64.28849316781998],[25.37991043249204,64.3040714790824],[25.32255770270398,64.31391045249109]],[[25.32255770270398,64.31391045249109],[25.322100810880716,64.3210891115604],[25.332823730036143,64.33787789230125],[25.34755948818025,64.34551304613947],[25.372161490893962,64.35514575574565],[25.390678506909797,64.36125214111253],[25.39440107114074,64.36306761476555],[25.39536169967076,64.36353605336465],[25.410429283158766,64.37088068236399],[25.41953627921795,64.37531720594266],[25.426402411805757,64.37828436457714]],[[25.426402411805757,64.37828436457714],[25.430460107242485,64.37305883137563],[25.453105473193332,64.34385698000649],[25.463165405255875,64.33942619619974],[25.470408203247104,64.33835019457494],[25.48946692570729,64.33551668418126],[25.51328556292851,64.33317055049399]],[[25.51328556292851,64.33317055049399],[25.497482414840785,64.3193309817589],[25.479252905166906,64.30707466668058],[25.451652745058997,64.28849316781998]],[[25.9888231331562,64.29337917814784],[25.949727838468515,64.31958038262474],[25.918671602323364,64.33462326844993],[25.8921617598265,64.34659832888988],[25.879885158526157,64.35747622063604],[25.879553418800434,64.35762865636853],[25.858446043855036,64.36599418120387]],[[25.858446043855036,64.36599418120387],[25.845542596201142,64.36777007356494],[25.850821112953152,64.37026760194215],[25.848567499892862,64.37375063476091],[25.846472593193667,64.3775021003897]],[[25.846472593193667,64.3775021003897],[25.856682909643666,64.37603955149244],[25.862225063156426,64.37443740530367],[25.879820342280205,64.37839771542826],[25.930361622068943,64.39460923732766],[25.98831421835365,64.40621600586479],[25.988701272992333,64.40629693195014],[25.989102259244323,64.40639960452054]],[[25.989102259244323,64.40639960452054],[26.008014591645704,64.37139200836108],[25.982943875704038,64.33227992067566],[25.982868023412344,64.32896920195486],[25.983046804465683,64.32844956290785],[25.9888231331562,64.29337917814784]],[[25.09212401950505,64.11619112850315],[25.04891392266971,64.11772376744045],[25.001225288141956,64.13044182119428],[24.983487714241026,64.13478851493574],[24.959714773718215,64.13863127169301],[24.955369246797254,64.13933316563144]],[[24.955369246797254,64.13933316563144],[25.00904270045229,64.204069509583],[25.012573123924586,64.20467856207331],[25.01427094442027,64.20516237579687],[25.01289166299865,64.20718692842522],[25.011975729334356,64.20864980743364],[25.0106492323718,64.20993726996464],[25.0103922100311,64.20997370183174],[25.003486970160534,64.21170777249075],[24.995201091729967,64.21458069792507],[25.000856669895605,64.22128692773367],[25.022183170712896,64.22226152009358],[25.029305255888435,64.22456239966745],[25.034125113778536,64.22562111041238],[25.08966671901745,64.23678728284003],[25.164598073591026,64.25475268687853]],[[25.164598073591026,64.25475268687853],[25.172378793442963,64.25054253619705],[25.19635192174774,64.23755993020356],[25.19731410108938,64.23696558848003],[25.210487492555863,64.22858308265378],[25.211472849913115,64.22706828954345],[25.21316799883548,64.22475172358881],[25.22320409596631,64.20994470192403]],[[25.22320409596631,64.20994470192403],[25.11315837604528,64.21007639310731],[25.09665360394363,64.1987855841094],[25.0738526239416,64.19843273172833],[25.069480486467636,64.18840360294463],[25.078619773513136,64.17814212987061],[25.09383928501977,64.1470223533369],[25.0939358421994,64.14687833264526],[25.09212401950505,64.11619112850315]],[[25.22320409596631,64.20994470192403],[25.240369262569885,64.16049347693233],[25.242903416272735,64.15516355937864],[25.23673921620322,64.14785644804908],[25.199332324673836,64.140455616112],[25.16929514843108,64.1310539942312],[25.123316953374093,64.11774743256522],[25.09212401950505,64.11619112850315]],[[25.491045208511988,63.963655356722654],[25.482500624315357,63.98552147250123],[25.47132696414402,64.00473544266686],[25.46641904766238,64.00788755230107],[25.44718569838372,64.01857834244426],[25.43118354412738,64.02550681226882],[25.427878258147643,64.02649470934671],[25.420553345302757,64.0284633112121]],[[25.420553345302757,64.0284633112121],[25.430032720198728,64.04031024503105],[25.432271522064536,64.04907088993265],[25.432502555531094,64.04937895206119],[25.428554290174336,64.0684729477295],[25.417105470164103,64.08567072658704],[25.417016376313548,64.08579426408825],[25.381900161764204,64.09759926089163],[25.35914349125543,64.09761688987942],[25.349544319580552,64.09472139377141],[25.346741017744694,64.09462933009394],[25.342644098442836,64.09438864325922],[25.34099007329914,64.09460968807835],[25.332216637885228,64.09728623637103],[25.331235616188607,64.09802704992967],[25.3271221812136,64.09897408014716],[25.318875052655223,64.10817753372802],[25.320407193466817,64.11329928141146],[25.307314675043386,64.11356876065106],[25.232075340386725,64.07556952767273],[25.231067816854424,64.06007797425355]],[[25.231067816854424,64.06007797425355],[25.19811054662889,64.06191167066262],[25.168912612813674,64.0493435345348],[25.168496431696454,64.04916426792235],[25.159085191735667,64.04752086198222],[25.156501993129897,64.04706963902122],[25.14959199057901,64.04761658258802],[25.145176810285523,64.04691379013511],[25.14118516241286,64.04284774016142],[25.141182012771395,64.04284686952049],[25.108213606650047,64.03905242198579],[25.104363242815804,64.03833136557421],[25.09961133266989,64.03744128494695],[25.096203003768156,64.04108742915341],[25.091585821903227,64.04602510745839],[25.09142907585771,64.0463667093039],[25.07333648764695,64.04880090611812],[25.063122579206293,64.05017391197883],[25.04154336637403,64.04676198556548],[25.035768324147494,64.04628040578471],[25.022427009718633,64.04366197406512],[25.01843606939831,64.04323500342053],[24.99570541439367,64.04801228885485],[24.978181397875392,64.05169174472212],[24.97757454367815,64.05222684172685],[24.97628755537545,64.05336157436751],[24.96532811782258,64.06302022613524],[24.96617871278609,64.06413561766992],[24.939143255728748,64.09681091848057],[24.936074681466323,64.1005144039029],[24.93550164683891,64.1074395525579],[24.948201658646113,64.13824991707196],[24.94932200269687,64.13841926498682],[24.955369246797254,64.13933316563144]],[[25.164598073591026,64.25475268687853],[25.1724494085059,64.27970915157884],[25.180733407141638,64.28148776591823],[25.186904660324952,64.28281231134653],[25.18903215065648,64.28326884878358],[25.189186375583812,64.28330194170012],[25.206665115896286,64.2878194759794],[25.22351952319254,64.29217227800098],[25.31442457696715,64.31198195931847],[25.32255770270398,64.31391045249109]],[[25.451652745058997,64.28849316781998],[25.540048589148714,64.23655408495901]],[[25.540048589148714,64.23655408495901],[25.543258282089884,64.23377723610332],[25.54790377122049,64.23207623696636],[25.615530280523043,64.21835115229933],[25.65918950710016,64.18587699031914]],[[25.65918950710016,64.18587699031914],[25.652229192398902,64.17003228751241],[25.657603339082492,64.14551183350305]],[[25.657603339082492,64.14551183350305],[25.603023671046817,64.15658879183259],[25.53786335506862,64.15458742444677],[25.524426084042986,64.1522309817235],[25.461092576632794,64.14451807101086],[25.464352900002385,64.1298628412526],[25.458332912802398,64.12558288465385],[25.458319237945954,64.12555112422332],[25.455290410139824,64.12340116967056],[25.4982099024723,64.09188781834405],[25.508097184183136,64.07080747977834],[25.50685185399062,64.06174009963807],[25.499040286548894,64.05189699455538],[25.505865396429876,64.04479146249504],[25.53895389742594,64.03601395482904],[25.53510665104813,64.02956662709249],[25.532984278383097,64.02205442957141],[25.541897477671515,64.01649544979418],[25.543588128596493,64.01185484169899],[25.543598461026587,64.01181467630485],[25.56537652100867,64.0047747592935]],[[25.56537652100867,64.0047747592935],[25.58488915952068,64.00149856841749],[25.59476308843422,63.99280583549474],[25.594827957472592,63.991110052018136],[25.596150937944632,63.98810143377528],[25.59622743005485,63.98717052603798],[25.586487126244613,63.98067562065509],[25.547703912902808,63.9708679764246],[25.491045208511988,63.963655356722654]],[[25.657603339082492,64.14551183350305],[25.738257390419534,64.12090386815782],[25.775306635074156,64.11190915501093],[25.780952672706228,64.11053708358733]],[[25.780952672706228,64.11053708358733],[25.790845545988038,64.10508731884458]],[[25.790845545988038,64.10508731884458],[25.641072513624575,64.08217354674824],[25.639172797057896,64.06237148048001],[25.606063489554263,64.04044597302581],[25.577527999700216,64.01542779690642],[25.561357020369528,64.0106776823821],[25.565399904346812,64.0047990372235],[25.56537652100867,64.0047747592935]],[[25.420553345302757,64.0284633112121],[25.388203323414032,64.0291694885872],[25.342546054361147,64.0326034066835],[25.278223786737932,64.03507177340177],[25.265003569305772,64.03549834147825]],[[25.265003569305772,64.03549834147825],[25.231067816854424,64.06007797425355]],[[25.491045208511988,63.963655356722654],[25.488526355566446,63.95213104288179],[25.48464898759731,63.94107147847225],[25.46840530565833,63.936955978388426],[25.454859753355976,63.93247460279551],[25.440815683278135,63.926231123040715],[25.428183854792078,63.92061194650991],[25.413811408871535,63.92011922143567],[25.365868440982148,63.917511625226325],[25.359194971958935,63.92531436675544],[25.3463358120431,63.939583363591886],[25.33461328484959,63.945907407903455],[25.303571503587442,63.96137925068594],[25.280436099789835,63.9756304714101],[25.234996557660857,64.00359761054018],[25.219366146260732,64.01216429309476],[25.209216785901514,64.02384740219385],[25.263877018509255,64.0350388454222],[25.265003569305772,64.03549834147825]],[[25.426402411805757,64.37828436457714],[25.42757243159645,64.42820420630976],[25.436761842989547,64.464011574234],[25.421278110498356,64.48880639686718],[25.449332080571846,64.51127436349499],[25.462280590036894,64.52163043479297],[25.47924057815724,64.53479645261515]],[[25.47924057815724,64.53479645261515],[25.534302050044342,64.54872333143254],[25.52965959426264,64.55819815401271],[25.51875329840304,64.56403386259053],[25.511742296855815,64.56399012099136],[25.509568586767525,64.56857124764626],[25.50953797309927,64.5685860167453],[25.515611141941672,64.57221069325828],[25.524690352905207,64.57186172653755],[25.53332385733978,64.56941741456025],[25.535195726415196,64.57198099659354],[25.53353820356388,64.57420984617497],[25.530571372351044,64.57958738935822],[25.527607149290557,64.58568086703117],[25.526325381003357,64.58697008853262],[25.528051741945774,64.58826559843033],[25.523680088474624,64.59123608978426],[25.521632747411417,64.59300403450125],[25.52107434163094,64.59333070067798],[25.520170927379517,64.59724321590082],[25.51790588121106,64.60358055456133],[25.520092747794795,64.60447774981759],[25.52346699891009,64.60726434694887],[25.530344919198356,64.60688684521624],[25.532174705488313,64.60378230488456],[25.544383234940987,64.59707947719755],[25.579082452569597,64.5888060374116],[25.588268838349588,64.58832336365882]],[[25.588268838349588,64.58832336365882],[25.700572374142492,64.57738086589463],[25.83487362384757,64.58448608480457],[25.835718747144732,64.58426691011417],[25.842780353257023,64.58139210613605],[25.86603743726653,64.57366169173042],[25.86858123676375,64.57254874579203],[25.89364220538607,64.56313452652307],[25.923489981804423,64.55525242405554],[25.925880010386354,64.55462081400319],[25.927014036505238,64.55447499410481],[25.962026827682486,64.54304586486921],[25.979756859174028,64.5361997816806],[25.99053544722386,64.53272915106628],[25.998174733343177,64.52918853916616],[25.999157501321953,64.52872246127589],[26.00321770821327,64.52785929991029],[26.012952319715705,64.52595115245309],[26.03234259906207,64.52250194769894],[26.033646773099466,64.52225334883363],[26.051398982585958,64.51886786140292],[26.065856630290313,64.51486746219362],[26.170123541735556,64.50741757885352],[26.175348633240695,64.50432559069247]],[[26.175348633240695,64.50432559069247],[26.140888787035475,64.48739485612386],[26.07413758731125,64.4545162131095],[25.97188791705891,64.42566520543492]],[[25.97188791705891,64.42566520543492],[25.971078825949565,64.42627856957937],[25.855414318200452,64.46077268283183],[25.772679013406805,64.43644269818074],[25.771724369145414,64.42953936093728],[25.775210761372588,64.42786472868083],[25.78858802216641,64.4258049316956],[25.791150195693447,64.42421409098836],[25.795387608543844,64.42048812619647],[25.7954484449823,64.42046416343923],[25.798535108028197,64.41831329466322],[25.80039329612321,64.41591566098826],[25.804695552536664,64.41356427123979],[25.802447804913125,64.41004143070401],[25.80831516107273,64.40969976201436],[25.819052973148988,64.40427011772553],[25.824421676592166,64.40152255943921],[25.82333055350998,64.39943787040163],[25.824135559329495,64.39769125476896],[25.830836670255408,64.39360638978225],[25.834724015149952,64.39165494081934],[25.834825523095102,64.38974610988198],[25.833189745502903,64.38482118999623],[25.833148071125926,64.38472357910231],[25.837716827766,64.38182149508194],[25.840643638215603,64.38170491758561],[25.84436347561732,64.38086617141647],[25.846518082020452,64.37753669821932],[25.846472593193667,64.3775021003897]],[[25.858446043855036,64.36599418120387],[25.857434140133716,64.36536910237048],[25.857247839220705,64.36363044168259],[25.857031561800113,64.36335008622709],[25.856683549457674,64.36242549031724],[25.851819807782714,64.35953022312836],[25.818757893457626,64.35502321612259],[25.818565387627174,64.35515611016797],[25.651215842484138,64.34500548505092],[25.51328556292851,64.33317055049399]],[[25.97188791705891,64.42566520543492],[25.984794759232884,64.41281929136571],[25.989102259244323,64.40639960452054]],[[25.47924057815724,64.53479645261515],[25.4764472885792,64.53960514833777],[25.47515968317356,64.5412213492758],[25.466901876578365,64.54808883087254],[25.416056162409987,64.58138086800602],[25.412249553449893,64.5866995339952],[25.409550015379914,64.59047004837132],[25.42120229300287,64.60055153774994],[25.4291412669183,64.60311730885539],[25.478522389111504,64.61905625091569],[25.494173922092845,64.62410083814378],[25.500019111044313,64.62294218978809],[25.513756080684377,64.6198165352968],[25.5453883464626,64.61523756138781],[25.563270071117017,64.6142573512929],[25.636794537563887,64.60282863908137],[25.615603946770378,64.59024380289564],[25.588268838349588,64.58832336365882]],[[25.868403852199076,64.21042026272112],[25.83757729195815,64.21340315555702],[25.8054095036267,64.21865418596032]],[[25.8054095036267,64.21865418596032],[25.805081714955552,64.23292700687536],[25.793663264561474,64.23905228732063],[25.777709052061073,64.24773575271588],[25.716762797958353,64.26314640606856],[25.704066749152236,64.26571708499613],[25.701703520536412,64.26626899591407],[25.696722663837875,64.26644118623835],[25.694112977447105,64.26634361463337],[25.69379860334296,64.26609914569853],[25.687721022305897,64.26014075823606],[25.705044188800844,64.25282762963741],[25.69834885735069,64.24686167060831],[25.69316078722263,64.24843339751821],[25.672869890208517,64.25588477660837],[25.620473763598195,64.24820652205655],[25.565418581097557,64.2418596011778],[25.56458837931601,64.24174373183318],[25.54061064126258,64.23673476094325],[25.540048589148714,64.23655408495901]],[[25.9888231331562,64.29337917814784],[26.016946999528088,64.28851254938112],[26.09193523902529,64.26363518357516],[26.093199360128096,64.24744683501909]],[[26.093199360128096,64.24744683501909],[26.026690260113067,64.24606686743645],[25.974044403673407,64.2464589592532],[25.927553899323733,64.23598567205154],[25.88539738415675,64.22117469802816],[25.868403852199076,64.21042026272112]],[[26.093199360128096,64.24744683501909],[26.23375526549223,64.19514866506854]],[[26.23375526549223,64.19514866506854],[26.25149672597485,64.17932711640753],[26.25321460282401,64.17749369605424],[26.254633278656076,64.17596104703698]],[[26.254633278656076,64.17596104703698],[26.24866046561569,64.17285626883279],[26.205572055974617,64.15212439843864],[26.19268184961014,64.14591382447685],[26.1580534868995,64.1304311573909],[26.148068951929663,64.11961238885212],[26.160617177570714,64.11205572529386],[26.166224256359822,64.11219114059969],[26.170080685414177,64.11235469468453],[26.172674590839087,64.11156568084512],[26.17392242053904,64.11118608366824],[26.174981412636516,64.11086391549071],[26.17937050186089,64.1026625726323],[26.196614256412058,64.08477874269929],[26.197132199885587,64.08016538755994],[26.197471023816146,64.07051179858215],[26.16011819025418,64.02586724412285],[26.15860249174898,64.02514136920912]],[[26.15860249174898,64.02514136920912],[26.129445778840307,64.02808744171632],[26.070075015255583,64.04393443421948],[26.000118330587473,64.06873099543031],[25.93354788821235,64.08256719478965],[25.790845545988038,64.10508731884458]],[[25.780952672706228,64.11053708358733],[25.848397961678817,64.14537118591329],[25.859718715577767,64.17046773392792],[25.869616808898517,64.18256778082576],[25.868403852199076,64.21042026272112]],[[25.65918950710016,64.18587699031914],[25.698928549942334,64.18190941603805],[25.71273571594325,64.18623133760227],[25.759471287147512,64.19847079237957],[25.777519970859363,64.20205849628239],[25.789553190662,64.21170321703279],[25.8054095036267,64.21865418596032]],[[26.63431467475835,64.2050093655123],[26.514494198126464,64.22894149686581],[26.480138439136056,64.23769805028353],[26.478402034387408,64.23788306313585],[26.43321036142023,64.22975696409635],[26.4303948840962,64.22768615261579],[26.416250296471247,64.22112733860311],[26.41011233175974,64.20640820123003],[26.39606505067964,64.19853931911979],[26.385851039269955,64.19240383357429],[26.376458321307858,64.19004796452661],[26.3624036100078,64.19496181476701],[26.345451072362938,64.2006570667192],[26.32670525472192,64.20526124229437],[26.23375526549223,64.19514866506854]],[[26.175348633240695,64.50432559069247],[26.191480527498467,64.49635538005909],[26.347218591858677,64.4563951369144],[26.422423725424043,64.43749617807617],[26.432079057889183,64.4216601461921],[26.430632746604402,64.42053006816316],[26.43185828257851,64.3863643061826],[26.456396905238638,64.34854422164359],[26.527069518164897,64.32678619490393],[26.527328003760815,64.3267727237018],[26.66450016536115,64.31658838331055],[26.683193125161107,64.31479380012134],[26.68898052659712,64.31423765974117],[26.75306625913164,64.28584301848787],[26.724428670553003,64.25968131751492],[26.672547721172265,64.21485397565131],[26.63431467475835,64.2050093655123]],[[26.63431467475835,64.2050093655123],[26.756408599149918,64.14006196575197],[26.72858990553106,64.09720746966352]],[[26.72858990553106,64.09720746966352],[26.479624329220307,64.06308351181715]],[[26.479624329220307,64.06308351181715],[26.45288313040538,64.11220926711508],[26.388113074625306,64.14420233112344],[26.35025542810648,64.1567765356544],[26.32742679484038,64.16718425239252],[26.254633278656076,64.17596104703698]],[[26.49139881984002,63.95485976234197],[26.48402117220469,63.95953681073925],[26.474892147686308,63.96493926911891],[26.461674164946523,63.969841478728185],[26.40025473678326,63.98087830294818],[26.38843771648222,63.98933184828237],[26.383899041336452,63.994153163841744],[26.38773637758236,64.01717861759991],[26.417149289847114,64.0507623538414],[26.47451725893339,64.06097217126455],[26.475072788480784,64.06127483885659],[26.479624329220307,64.06308351181715]],[[26.72858990553106,64.09720746966352],[26.744674904543167,64.0775678542619],[26.76998075849394,64.05123799279069],[26.684074284349148,63.993045416329274],[26.63020011940496,63.98117974077806],[26.603282005182464,63.952764983132866],[26.588467605807324,63.95466374257368],[26.546876288303828,63.95489126330187],[26.52263468012285,63.95448977206034],[26.49139881984002,63.95485976234197]],[[26.49139881984002,63.95485976234197],[26.48888324313575,63.94966189640018],[26.48556420517356,63.941344232392446],[26.48439169413044,63.936204086704144],[26.48367065899568,63.93252369564468],[26.47725737442652,63.91342973847676],[26.432497068300965,63.91141437747035],[26.431536061101095,63.911370952854],[26.425412139004088,63.9113974018493],[26.394265170731533,63.910836154214124],[26.349691712029014,63.92119585510547],[26.292939723329006,63.931584103199185],[26.23155434497047,63.974428473735024],[26.228025162188793,63.97688690728671],[26.193873565055647,64.00065013209154],[26.15860249174898,64.02514136920912]]],"bbox":[24.93550164683891,63.910836154214124,26.76998075849394,64.62410083814378]}
