{"type":"Topology","objects":{"neighborhoods":{"type":"GeometryCollection","geometries":[{"type":"MultiPolygon","arcs":[[[0,1]]],"properties":{"i":0}},{"type":"MultiPolygon","arcs":[[[2,3,4,5]]],"properties":{"i":1}},{"type":"MultiPolygon","arcs":[[[6,7,8,9]]],"properties":{"i":2}},{"type":"MultiPolygon","arcs":[[[10,11,12,13]]],"properties":{"i":3}},{"type":"MultiPolygon","arcs":[[[14,15,16,17,-7]]],"properties":{"i":4}},{"type":"MultiPolygon","arcs":[[[18,-16,19]]],"properties":{"i":5}},{"type":"MultiPolygon","arcs":[[[20,21,22,23,-4,24,25,26]]],"properties":{"i":6}},{"type":"MultiPolygon","arcs":[[[-21,27,28,29,30,31]]],"properties":{"i":7}},{"type":"MultiPolygon","arcs":[[[-24,32,-1,33,34,35,-5]]],"properties":{"i":8}},{"type":"MultiPolygon","arcs":[[[36,-28,-27]]],"properties":{"i":9}},{"type":"MultiPolygon","arcs":[[[37,-29,-37,-26,38,39,40,41]]],"properties":{"i":10}},{"type":"MultiPolygon","arcs":[[[-25,-3,42,-39]]],"properties":{"i":11}},{"type":"MultiPolygon","arcs":[[[-30,-38,43,44]]],"properties":{"i":12}},{"type":"MultiPolygon","arcs":[[[45,-44,-42,46,47,48]]],"properties":{"i":13}},{"type":"MultiPolygon","arcs":[[[49,-31,-45,-46,50]]],"properties":{"i":14}},{"type":"MultiPolygon","arcs":[[[51,-51,-49,52]]],"properties":{"i":15}},{"type":"MultiPolygon","arcs":[[[53,-22,-32,-50,-52,54,55]]],"properties":{"i":16}},{"type":"MultiPolygon","arcs":[[[56,-34,-2,-33,-23,-54,57,58,-14,59,60,61]]],"properties":{"i":17}},{"type":"MultiPolygon","arcs":[[[62,-35,-57,63]]],"properties":{"i":18}},{"type":"MultiPolygon","arcs":[[[64,65,66,-64,-62,67,68,69,70,71,72]]],"properties":{"i":19}},{"type":"MultiPolygon","arcs":[[[73,74,75]],[[-6,-36,-63,-67,76]]],"properties":{"i":20}},{"type":"MultiPolygon","arcs":[[[-60,-13,77,78,79]]],"properties":{"i":21}},{"type":"MultiPolygon","arcs":[[[80,81,82,-65,83,84,-71,85,-75,86]]],"properties":{"i":22}},{"type":"MultiPolygon","arcs":[[[-43,-77,-66,-83,87,-40]]],"properties":{"i":23}},{"type":"MultiPolygon","arcs":[[[88,89]]],"properties":{"i":24}},{"type":"MultiPolygon","arcs":[[[-72,-85,90]]],"properties":{"i":25}},{"type":"MultiPolygon","arcs":[[[91,-90,92,-9,93,-55,-53,-48,94,95]]],"properties":{"i":26}},{"type":"MultiPolygon","arcs":[[[96,-58,-56,-94,-8,-18]]],"properties":{"i":27}},{"type":"MultiPolygon","arcs":[[[-97,-17,-19,97,-11,-59]]],"properties":{"i":28}},{"type":"MultiPolygon","arcs":[[[-69,98,-79,99]]],"properties":{"i":29}},{"type":"MultiPolygon","arcs":[[[-61,-80,-99,-68]]],"properties":{"i":30}},{"type":"MultiPolygon","arcs":[[[-84,-73,-91]]],"properties":{"i":31}},{"type":"MultiPolygon","arcs":[[[100,101,102]]],"properties":{"i":32}},{"type":"MultiPolygon","arcs":[[[103,-87,-74,104,105]]],"properties":{"i":33}},{"type":"MultiPolygon","arcs":[[[106,107,-106,108]]],"properties":{"i":34}},{"type":"MultiPolygon","arcs":[[[109,110,111,-81,-104,-108,112,113]]],"properties":{"i":35}},{"type":"MultiPolygon","arcs":[[[114,-95,-47,-41,-88,-82,-112]]],"properties":{"i":36}},{"type":"MultiPolygon","arcs":[[[-115,-111,115,-101,116]]],"properties":{"i":37}},{"type":"MultiPolygon","arcs":[[[-110,117,118,-102,-116]]],"properties":{"i":38}},{"type":"MultiPolygon","arcs":[[[-114,119,120,-118]]],"properties":{"i":39}},{"type":"MultiPolygon","arcs":[[[121,-120,-113,-107,122]]],"properties":{"i":40}},{"type":"MultiPolygon","arcs":[[[123,124,125,126,-96,-117,-103,-119,-121,-122,127]]],"properties":{"i":41}},{"type":"MultiPolygon","arcs":[[[128,-125]]],"properties":{"i":42}},{"type":"MultiPolygon","arcs":[[[129,-126,-129,-124]]],"properties":{"i":43}}]}},"arcs":[[[40387,42283],[451,-648]],[[40838,41635],[-27,-108],[-147,-201],[-123,-164],[-142,-195],[-157,115],[6,174],[92,302],[91,7],[70,5],[-87,59],[-27,654]],[[41750,49423],[270,-2103],[582,-510],[203,-430],[727,-1411]],[[43532,44969],[-352,-153],[-45,-583],[-231,-158]],[[42904,44075],[-831,328],[-757,-416],[-42,26],[-249,331],[159,732],[-682,780],[-229,692],[-418,751]],[[39855,47299],[-932,392],[600,1039],[1192,-318],[333,729],[702,282]],[[60172,13825],[-268,273],[-267,2346],[-1058,1099],[-2811,1815],[-107,86],[-114,82],[-250,227]],[[55297,19753],[1041,968],[1127,1697]],[[57465,22418],[1821,1324],[522,169],[1036,-190],[222,-31],[1146,-489],[1304,-1062],[555,-1023],[1090,-510],[460,-604],[542,-1424],[849,-1154]],[[67012,17424],[107,-1713],[-181,-612],[-550,-162],[-23,261],[-182,417],[-730,-95],[-2280,-202],[-1041,-683],[-239,-54],[-989,-73],[-732,-683]],[[25299,33395],[269,-627],[148,-1225],[-994,-1176],[-8,-6],[-1,-5],[-60,-413],[217,-1169],[-829,-27],[-3517,-118],[-3348,1036],[-3320,1035]],[[13856,30700],[-618,188],[-38,11],[-105,55],[-1022,536]],[[12073,31490],[-376,1640],[2175,-269],[3773,3908],[122,730],[248,2138],[1545,374],[734,653]],[[20294,40664],[1012,236],[1440,-1650],[2176,757],[1835,1750],[1143,-1414],[708,13],[1067,743],[136,-1165],[-979,-2119],[-1224,-62],[-2309,-4358]],[[60172,13825],[236,-1357],[93,-196],[100,-147],[390,-710],[42,-51],[647,-720],[-146,-1265],[-87,-1131],[-304,-202],[-104,-183],[-45,-109],[244,-939],[-7,-22],[-6,-668],[-572,-122],[-79,-1001],[-184,-172],[-279,-111],[-182,65],[-269,379],[121,2696],[-1050,920],[-669,-709],[-347,-858],[-77,-300],[-90,-817],[-293,-709],[-398,-912],[-1092,66],[-628,-177],[-212,-60],[-1459,-125],[-1863,1821]],[[51603,5999],[-301,338],[-1040,1988],[-705,2129],[-3517,2598]],[[46040,13052],[-1734,1923],[-7,30],[-541,2551],[79,725]],[[43837,18281],[27,6],[1660,370],[586,-238],[248,-178],[305,-184],[56,31],[1075,103],[351,193],[123,-47],[117,156],[3172,-363],[1925,1139],[1815,484]],[[41606,4864],[530,1344],[101,535],[221,1165],[1177,771],[1029,1524],[336,937],[206,575],[834,1337]],[[51603,5999],[-358,-1418],[-535,-425],[305,-780],[-160,-526],[-207,-85],[-262,-107],[-396,-407],[-114,-117],[-12,-12],[-33,-33],[-516,-530],[-17,-13],[-210,-162],[-1526,-1179],[-111,-86],[-342,529],[-272,422],[-164,-87],[-295,-636],[-1289,-347],[-854,388],[-146,-7],[-716,-33],[-426,984],[-149,345],[-478,1278],[-480,1283],[-234,626]],[[45479,42579],[21,-400],[-849,-22],[-88,-752],[260,-327],[840,-559],[-116,-1470]],[[45547,39049],[-613,-270],[-579,-154],[-1112,1064],[-530,18]],[[42713,39707],[-226,222],[-165,39],[-459,325],[-1,4]],[[41862,40297],[275,256],[115,189],[128,177],[-26,140],[-169,394],[175,43],[39,58],[-5,57],[-6,47],[15,70],[113,64],[53,27],[60,43],[53,26],[46,28],[55,2],[168,87],[107,29],[101,58],[-71,220],[317,192],[-501,1571]],[[43532,44969],[378,-560],[95,-275],[6,-2]],[[44011,44132],[449,-267]],[[44460,43865],[227,-734],[175,-353],[184,64],[290,-380],[143,117]],[[45479,42579],[-177,160],[183,180],[225,73]],[[45710,42992],[97,-114],[198,-507],[312,-277],[183,-56]],[[46500,42038],[274,-1047],[499,-1010],[1,-2]],[[47274,39979],[-6,-472],[21,-55],[227,-94],[72,-54],[49,-131],[-82,-396],[-153,-308]],[[47402,38469],[-471,-378],[-631,-99],[-8,-4],[-373,325],[-12,7],[-78,118],[-33,46],[-43,110],[-25,53],[-93,119],[-88,283]],[[41862,40297],[-101,345],[-33,91],[-139,233],[-43,122],[10,66],[54,80],[4,4],[61,19],[-122,201],[-715,177]],[[40387,42283],[-390,1327],[-566,622],[-303,275],[-85,131],[-29,104],[-106,35],[-176,-8],[-16,-10],[-1546,152],[-773,3]],[[36397,44914],[206,855],[723,1235],[652,119]],[[37978,47123],[1877,176]],[[44460,43865],[202,103],[221,107],[827,-1083]],[[47525,41969],[-1025,69]],[[44011,44132],[282,414],[97,119],[65,18],[34,0],[33,31],[18,53],[32,-3],[5,-43],[27,1],[53,3],[37,2],[118,14],[14,50],[68,74],[16,-29],[27,-23],[35,60],[34,47],[68,101],[50,-34],[31,48],[-22,18],[36,51],[41,37],[103,134],[33,43],[27,32],[87,90],[70,86],[75,131],[-530,1221],[-42,161]],[[45033,47039],[352,2310],[682,455],[6486,2694]],[[52553,52498],[3806,906],[3146,-2664]],[[59505,50740],[-1209,-2002],[-883,-349],[-594,-86],[-516,138],[-787,211],[-1248,310],[-2393,-538],[-1871,-275],[-1636,1063],[-1164,115],[63,-348],[370,-1088],[131,-82],[137,-99],[121,-126],[168,-261],[75,-247],[-53,-63],[-53,-35],[-29,34],[-29,40],[-37,21],[-41,-76],[-23,-54],[31,-32],[23,-14],[43,-34],[21,-356],[-17,-38],[-27,-86],[-12,-55],[-36,-27],[-86,-53],[-31,-7],[-27,-37],[-34,-95],[-9,-123],[2,-125],[21,-105],[1,-1],[29,-53],[27,-25],[28,9],[111,-67],[12,-11],[69,-34],[53,-80],[63,-260],[-655,-1816],[-74,-1411],[-5,-38]],[[41750,49423],[1003,160],[979,-1922],[473,-451],[157,-59],[101,-32],[198,-43],[46,-7],[180,-18],[146,-12]],[[47525,41969],[1183,-1516]],[[48708,40453],[-730,-203],[-38,-38],[215,-381],[-159,-215],[-291,-61],[-203,302],[-228,122]],[[49561,39850],[-853,603]],[[59505,50740],[670,-1083],[474,-684],[1379,-1987],[210,-462]],[[62238,46524],[-969,-883],[-3175,-1192]],[[58094,44449],[-361,-13],[-761,-27],[-6946,-3775],[-465,-784]],[[49844,34915],[-314,425],[-1515,2041],[-290,625],[-69,200],[-17,61],[-41,33],[-105,98],[-91,71]],[[49561,39850],[815,-576],[209,-241],[182,-285],[491,-828],[384,-411],[67,-12],[168,46],[70,-116],[-29,-147],[-87,-166],[-328,-183],[-430,-96],[-33,-140],[15,-154],[-128,-284],[-233,-459],[-207,-230],[-305,-340],[-12,-5],[-58,-32],[-51,-49],[-217,-227]],[[50104,33709],[-14,95],[-50,322],[-196,789]],[[58094,44449],[1200,-1538],[111,-1050],[426,-591],[348,-670],[395,-999],[-277,-951],[-1616,-766],[-156,-7],[-273,18],[-359,72],[-393,-320],[-765,-737],[-418,-227],[-230,-323],[-222,-356],[-2,-11],[177,-97],[-90,-74],[-149,86],[-270,-18],[-369,-387],[-119,-500],[32,-210],[-512,-523],[-1163,-664],[-72,-19],[-1665,11],[-276,379],[-668,405],[-531,-582],[-84,-91]],[[44460,30268],[-35,61],[-2069,3633],[-556,2041],[463,880],[603,382],[108,477],[-31,1249],[-230,716]],[[50104,33709],[43,-767],[71,-1262]],[[50218,31680],[-595,-680],[-279,-141],[-2499,-889],[-2385,298]],[[32884,46280],[69,-1844],[540,-3446],[1475,2257],[1429,1667]],[[44460,30268],[-495,-263],[-1309,-696],[-2897,-116]],[[39759,29193],[-1260,2310],[-1120,22],[-927,1815],[-712,-2150],[-2789,-2919],[-71,5998],[-5275,-2064],[-914,472],[-1392,718]],[[20294,40664],[492,849],[378,559],[350,311],[258,230],[1441,202],[574,1124],[-115,828]],[[23672,44767],[1068,541],[935,-617],[1490,-1465],[914,1288],[-593,1028],[104,1206]],[[27590,46748],[790,476],[1447,-598],[2143,-951],[914,605]],[[37934,49656],[217,-483],[-10,-161],[-5,-130],[-676,-344],[-26,-25],[-173,-116],[1,-12],[95,-256],[262,-424],[359,-582]],[[32884,46280],[742,1101],[640,833],[-3,1501],[-211,1559],[169,510],[787,1164],[430,280],[282,-328],[87,-498],[-1,-492],[1,-12],[9,-59],[-8,-98],[-38,-599],[-38,-293],[24,-19],[26,-27],[181,-238],[1,-1],[117,-213],[195,5],[100,8],[70,229],[140,19],[261,-82],[83,-76],[110,-186],[894,-612]],[[35801,60503],[117,-289],[83,-156],[277,-506],[253,-486],[233,-439],[318,-388],[816,-1781],[563,-1399],[188,-281],[164,-88],[89,-82],[6,-58],[12,-104],[98,90],[1008,-705],[125,-126]],[[40151,53705],[-231,-492],[82,-919]],[[40002,52294],[-112,-26],[-191,-141],[-104,-149],[-28,-28],[-36,-11],[-48,-1],[-124,-89],[-973,-1550],[-251,-417],[-201,-226]],[[27590,46748],[-282,2211],[534,510],[4,5],[1201,538],[139,38],[361,79],[594,284],[209,901],[789,2351],[-673,2421],[694,1122],[-200,771],[-484,1807],[-276,290],[-1612,1502]],[[28588,61578],[-109,150],[-140,284],[-177,358],[-103,302],[-1067,3961]],[[26992,66633],[1125,1615],[829,1189],[418,600]],[[29364,70037],[472,-162]],[[29836,69875],[606,-574],[467,-444]],[[30909,68857],[402,-1153],[143,-357],[838,-726],[1063,-921],[411,-847],[-362,-375],[164,-585],[110,-359],[369,89],[241,-292],[-125,-800],[245,-185],[677,-598],[143,-180],[18,-18],[76,-208],[479,-839]],[[35246,78971],[950,-874]],[[36196,78097],[-2386,19],[-805,117],[247,-680],[-509,-8],[-981,68]],[[31762,77613],[418,1375],[542,899],[2524,-916]],[[40002,52294],[9,-10],[58,-51],[3,-6],[27,-38],[87,-106],[560,-835],[759,-1083],[60,-147],[186,-592],[-1,-3]],[[12073,31490],[-496,21],[-6,9],[-388,52],[-300,100],[-248,65],[-1422,1013],[-1427,2006],[-1113,1740]],[[6673,36496],[-218,1219],[-285,1135],[333,1707],[398,1266],[2780,3476],[776,-292],[834,56],[559,-227],[-222,-672],[-159,-1651],[200,-333],[545,133],[296,617],[207,508],[-232,265],[559,662],[393,533],[-291,475],[-117,-113],[-125,-478],[-350,184],[1564,2712],[3413,-1545],[245,-2521],[728,-1660],[570,553],[124,724],[341,1580],[1464,1184],[48,-265],[1129,268],[2955,4387]],[[25135,50383],[1091,-680],[-62,-391],[-345,-147],[32,-884],[-1829,-1239],[-350,-2275]],[[43724,66841],[829,-1492],[9,-34],[1040,-1778],[1408,-5520]],[[47010,58017],[85,-483]],[[47095,57534],[-1283,-805],[-734,-352],[-699,-211],[-1222,-365],[-5,3],[-415,-210],[-961,-563],[-352,-765],[-209,47],[-210,3],[14,-136],[-47,-31],[-115,7],[-4,7],[-73,-18],[-13,118],[-319,-27],[-297,-531]],[[35801,60503],[180,74],[216,562],[428,136],[571,-788],[1340,798],[1071,1301],[323,160],[1742,1312],[-534,972],[-908,1311],[-785,-278],[-730,-437]],[[38715,65626],[-731,1418],[-405,1947],[-614,2887],[-8,-8],[-923,1175],[-558,-152],[-127,-747],[-32,-437],[-417,-186],[-170,64],[-161,289],[-296,303],[-215,412],[-337,78],[-121,10],[-1607,-1074],[-2157,-1730]],[[29364,70037],[603,4211],[1724,3130],[71,235]],[[36196,78097],[130,-121],[1793,-1175],[356,-2742],[1517,-1811],[1506,-2487],[1542,-1686],[544,-1119],[140,-115]],[[47095,57534],[5458,-5036]],[[77558,22969],[-2,-20],[465,-2401],[12,-112],[-211,-1366],[-430,-2083],[-61,-1376],[-1087,1026],[-720,-217],[-616,-610],[-396,-212],[-735,-23],[-508,1120],[-364,577],[-819,230],[-834,553],[-195,563],[-427,256]],[[70630,18874],[55,154],[-54,1033],[-477,1949],[-191,800],[-105,1315],[275,702],[76,68],[866,623],[583,-3],[1230,-27],[257,382],[0,6],[14,73],[82,405],[36,301],[248,154],[449,70],[933,-760],[872,-1371],[325,-741],[528,-669],[926,-369]],[[38715,65626],[24,-221],[190,-177],[107,-255],[-35,-190],[-16,-88],[-626,-170],[-203,233],[-13,62],[-376,541],[-82,65],[-78,53],[-216,34],[-70,-49],[-2,0],[-624,-420],[-953,-281],[-359,118],[-114,86],[39,431],[160,218],[-22,49],[-13,22],[-31,39],[-11,10],[-111,178],[-14,11],[-365,142],[-75,68],[-578,576],[-25,55],[-152,228],[-522,1014],[-1017,907],[-414,196],[-1209,-254]],[[79428,34166],[-112,-1413],[-8,-108],[85,-1805],[1034,-5943],[-304,-1785],[-214,-528],[-258,-220],[-2093,605]],[[70630,18874],[-271,323],[-1377,-672],[-700,12],[-338,-625],[-62,-93],[-30,-19],[-45,-38],[-795,-338]],[[57465,22418],[-916,2152],[-1404,1191],[-289,239],[-792,1357],[-223,283],[-3236,1471],[-387,2569]],[[62238,46524],[2677,899],[461,154]],[[65376,47577],[249,-337],[4534,-4833],[1139,-1672],[679,-882],[1123,-930],[1527,-1163],[2541,-2096],[2245,-1488],[15,-10]],[[43837,18281],[-252,333],[-1727,2284],[7,365],[-91,117],[-227,291],[-693,2755],[-387,1133],[-106,312],[-233,1284],[-369,2038]],[[41606,4864],[-212,-77],[-1945,-704],[-3,3],[-3970,3145],[-347,275],[-1456,243],[-306,165],[-168,90],[-638,344],[-178,95],[-76,-10],[-677,-90],[-159,-21],[-281,-37],[-16,-2],[-9,-13],[-321,-450],[-114,-160],[-208,-202],[-538,-520],[-246,-39],[-605,-97],[-167,-27],[-983,1507],[-542,1242],[-1211,255],[-2628,2627],[-86,86],[-113,-97],[-648,-559],[-2215,-44],[-386,-456],[-1315,-1558],[-1175,-2522],[-734,-86],[-555,-65],[-695,320],[-36,33],[-673,618],[-1147,999],[-448,3631],[877,1044],[464,1310],[-61,1055],[-14,572],[-2,98],[-674,2228],[-893,1755],[-547,880],[-270,551],[-151,307],[-350,712],[15,601],[-56,830],[109,589],[227,153],[203,-282],[631,276],[388,82],[273,326],[254,302],[450,540],[254,289],[-382,217],[-345,360],[-371,394],[245,407],[-28,836],[234,1562]],[[28588,61578],[232,-1235],[-312,-1780],[-472,-354],[-795,-1211],[-303,1],[-178,4],[-105,-52],[-167,-126],[-210,-258],[-7,-45],[471,-1534],[466,-1564],[1126,-1689],[-639,-263],[-920,345],[-308,46],[-542,-731],[-992,-624],[202,-125]],[[6673,36496],[-1069,1305],[-569,560],[-1256,458],[-318,2],[-232,0],[-300,2],[-274,0],[-2,0],[-215,-861],[-82,58],[-635,421],[-1477,4542],[-244,890],[0,1],[33,536],[8,139],[237,-28],[70,107],[136,206],[364,252],[406,283],[217,220],[1336,1452],[-281,1361],[-142,269],[-190,1172],[-256,-221],[-270,-16],[-480,-29],[196,629],[-233,493],[93,750],[-5,123],[172,151],[151,-250],[51,-332],[72,-454],[353,-45],[1770,3739],[126,510],[-818,370],[-665,730],[2588,1634],[1537,-1761],[1145,-180],[-167,3304],[869,98],[226,1969],[244,2858],[27,72],[35,82],[481,-78],[3243,302],[58,57],[199,-154],[1252,330],[1783,-682],[3774,3589],[1613,793],[3206,106],[2428,-1697]],[[71731,54439],[-190,404],[124,752],[22,1582],[247,1272],[-330,176],[-164,176],[-83,631],[-9,1500],[24,1082],[-210,1000],[-303,762],[-330,795],[-1068,964]],[[69461,65535],[358,1058],[1097,1121],[2395,2102]],[[73311,69816],[1342,-1990],[1020,-4674],[-157,-1044],[-101,-394],[-1270,-1442],[-438,-1552],[-355,-2121],[-597,-1074],[-420,-589],[-604,-497]],[[46805,82730],[14,-1107],[465,-1593],[82,-262],[228,-914],[1,-20],[-23,-48],[-8,-186],[-242,-148],[-268,15],[-157,-526],[-59,-374],[-32,-2092],[-440,-2633],[-201,-727],[86,-498],[51,-715],[-49,-450],[-328,-188],[-341,-1037],[-758,-1323],[-899,-489],[-203,-574]],[[35246,78971],[-38,769],[-108,759],[-121,597],[-40,134],[-141,147],[-203,79],[-1206,1408],[2,184],[55,625],[1439,828],[813,381],[2397,778],[1184,361],[176,147],[479,613],[750,790],[178,220],[92,114],[649,1023],[1237,453]],[[42840,89381],[1621,-5031],[1604,-1721],[740,101]],[[55059,91123],[-43,-754],[299,-1818],[724,-1709]],[[56039,86842],[-631,-83],[-839,-892],[110,-762],[124,-333],[-190,-374],[-171,-64],[-111,-19],[-405,-245],[-770,-1512],[-738,-932],[-1346,-142],[-1726,726],[-1058,1071],[16,393],[38,491],[-92,583],[-207,473],[-163,259],[-597,293],[-325,-696],[54,-485],[90,-785],[-297,-1077]],[[42840,89381],[3454,3197],[963,959],[1373,2242],[721,500],[2180,-267],[115,-149],[572,-664],[161,-644],[72,-370],[45,-63],[95,-133],[3,-16],[78,-336],[28,-357],[-152,-143],[24,-242],[112,-195],[88,-155],[130,63],[40,171],[12,24],[226,59],[-83,-448],[299,-573],[496,-641],[285,240],[42,-158],[-149,-237],[989,78]],[[62785,72332],[-219,-1282],[41,-101],[7,-301],[-225,-275],[-56,-759],[1859,-5986]],[[64192,63628],[-372,-1553]],[[63820,62075],[-2122,-164],[-414,228],[-952,775],[-1689,-752],[-5104,1008],[-1186,-843],[-4020,-2759],[-1323,-1551]],[[56039,86842],[1018,-645],[2234,-1004],[1863,-459],[4273,-17]],[[65427,84717],[-87,-888],[-334,-2037],[-722,-913],[-429,-1646],[-264,-1072],[-63,-567],[-135,-1107],[-681,-2028],[-324,-1097],[397,-1030]],[[63820,62075],[-1009,-2363],[437,-2875],[-18,-3415],[-640,-1642],[2786,-4203]],[[64192,63628],[3957,1851],[448,226],[405,82],[459,-252]],[[71731,54439],[-7,-176],[211,-927],[514,-1991],[-534,-1144],[-1398,-752],[-601,-518],[-644,-612],[-517,84],[-48,481],[-327,416],[-1053,-468],[-1951,-1255]],[[62785,72332],[604,-530],[9,-13],[77,-71],[14,-21],[92,-201],[177,-199],[187,-176],[29,-36],[312,-350],[197,-251],[657,141],[581,-299],[-30,-302],[32,-39],[184,-30],[110,39],[0,1],[214,28],[686,82],[755,306],[82,130],[449,574],[656,348],[2237,639]],[[71096,72102],[2215,-2286]],[[65427,84717],[911,1530]],[[66338,86247],[975,1016],[978,578],[-23,-936],[-3,-13],[439,-2094],[696,-4213],[-436,-1188],[-187,-1624],[232,-646],[346,-1068],[104,-281],[10,-755],[323,-612],[911,-1223],[393,-1086]],[[65405,94214],[-82,-4119],[1015,-3848]],[[55059,91123],[8,1],[600,2580],[2577,-960],[257,-883],[134,-370],[16,-18],[552,-70],[253,193],[71,31],[435,-283],[218,-142],[244,-408],[95,-112],[165,-149],[87,-56],[5,-2],[40,18],[409,183],[53,24],[133,351],[0,1],[54,292],[53,122],[188,555],[65,279],[6,83],[19,217],[19,15],[5,3],[26,25],[-23,141],[106,499],[-65,377],[31,655],[272,2021],[91,1383],[-329,1069],[501,793],[1629,418],[-61,-1896],[435,-1281],[0,-7],[100,-320],[265,-1157],[233,-790],[374,-334]],[[85136,89017],[-1544,-2819],[-298,-1344],[1306,-3035],[1838,-3342]],[[86438,78477],[-1827,-1283],[-1928,-1894],[-1412,-738],[106,-918],[850,-841],[577,-2274],[-987,-2300],[466,-87],[112,3],[16,20],[339,-52],[605,12],[1133,-172],[639,177],[1289,1022],[755,1428],[666,813]],[[87837,71393],[2124,1560],[1503,125],[1232,-615],[810,26],[3808,332],[384,55],[387,-32],[1361,176],[323,42]],[[99769,73062],[-225,-1092],[-4,-10],[-11,-147],[-114,-1577],[-56,-778],[-186,-2982],[-6,-634],[-3,-298],[-531,-844],[-34,-405],[-2,-28],[-9,-104],[-3,-769],[-3,-621],[-378,34],[-157,28],[-129,-34],[-443,-76],[-1115,-191],[-286,-705],[84,-1091],[-357,-2374],[-425,-1628],[0,-11],[-2,0],[-1973,-452],[-1255,-1969],[-10,-4],[-543,-180],[-866,-287],[-1665,-367],[-1201,-472],[-515,-240],[-1368,-519],[-314,-119],[-184,-52],[-151,-43],[-16,-155],[-26,-254],[-7,-68],[-417,-587],[-109,-617],[774,-2490],[120,-606],[-285,-498],[-368,-297],[-114,-809],[133,-215],[-198,-2707],[142,-1443],[-18,-23],[-178,-1546],[-170,-1203],[-18,-129],[-57,-54],[-1165,-1117],[-294,-1229],[18,-607],[9,-287],[58,-858],[-19,-57],[-70,-705],[-247,321],[-156,202],[-896,135],[-2327,48]],[[65405,94214],[1705,1016],[-36,179],[79,162],[228,-179],[210,126],[225,247],[163,341],[415,-303],[-82,-532],[600,65],[212,-421],[49,-843],[212,-519],[3290,963],[428,178],[176,73],[-53,-297],[791,-591],[-124,-404],[866,-1409],[542,-198],[1045,63],[352,-24],[221,155],[38,-299],[212,-140],[-56,-514],[-538,-14],[213,-507],[1369,548],[1775,-151],[974,420],[945,-462],[1667,-78],[449,-130],[519,-259],[82,-47],[269,-326],[77,-141],[222,-945]],[[86438,78477],[1163,-4318],[228,-2759],[8,-7]],[[85136,89017],[3320,-1874],[5431,450],[1191,-1190],[581,-1248],[-14,-136],[-431,-4279],[984,-1847],[1692,-708],[162,-68],[442,-81],[253,-795],[812,-2545],[440,-1381],[-230,-253]]],"bbox":[23.83399898092833,60.74842133448577,25.26461185889344,61.327685299474155],"transform":{"scale":[0.00001430627184236949,0.000005792697576859622],"translate":[23.83399898092833,60.74842133448577]},"propertiesColumnar":{"format":"columnar/1","keys":["id","postinumeroalue","nimi","namn","euref_x","euref_y","pinta_ala","vuosi","kunta","he_vakiy","he_naiset","he_miehet","he_kika","he_0_2","he_3_6","he_7_12","he_13_15","he_16_17","he_18_19","he_20_24","he_25_29","he_30_34","he_35_39","he_40_44","he_45_49","he_50_54","he_55_59","he_60_64","he_65_69","he_70_74","he_75_79","he_80_84","he_85_","ko_ika18y","ko_perus","ko_koul","ko_yliop","ko_ammat","ko_al_kork","ko_yl_kork","hr_tuy","hr_ktu","hr_mtu","hr_pi_tul","hr_ke_tul","hr_hy_tul","hr_ovy","te_taly","te_takk","te_as_valj","te_yks","te_nuor","te_eil_np","te_laps","te_plap","te_aklap","te_klap","te_teini","te_yhlap","te_aik","te_elak","te_omis_as","te_vuok_as","te_muu_as","tr_kuty","tr_ktu","tr_mtu","tr_pi_tul","tr_ke_tul","tr_hy_tul","tr_ovy","ra_ke","ra_raky","ra_muut","ra_asrak","ra_asunn","ra_as_kpa","ra_pt_as","ra_kt_as","ra_muu_as","tp_tyopy","tp_alku_a","tp_jalo_bf","tp_palv_gu","tp_a_maat","tp_b_kaiv","tp_c_teol","tp_d_ener","tp_e_vesi","tp_f_rake","tp_g_kaup","tp_h_kulj","tp_i_majo","tp_j_info","tp_k_raho","tp_l_kiin","tp_m_erik","tp_n_hall","tp_o_julk","tp_p_koul","tp_q_terv","tp_r_taid","tp_s_muup","tp_t_koti","tp_u_kans","tp_x_tunt","pt_vakiy","pt_tyoll","pt_tyott","pt_0_14","pt_opisk","pt_elakel","pt_muut","city","pno","unemployment_rate","higher_education_rate","pensioner_share","ownership_rate","rental_rate","population_density","child_ratio","student_share","detached_house_share","youth_ratio_pct","gender_ratio","single_parent_hh_pct","families_with_children_pct","tech_sector_pct","healthcare_workers_pct","employment_rate","elderly_ratio_pct","avg_household_size","manufacturing_jobs_pct","public_sector_jobs_pct","service_sector_jobs_pct","new_construction_pct","foreign_language_pct","crime_index","property_price_sqm","transit_stop_density","air_quality_index","daycare_density","school_density","healthcare_density","restaurant_density","grocery_density","cycling_density","single_person_hh_pct","rental_price_sqm","price_to_rent_ratio","walkability_index","traffic_accident_rate","property_price_change_pct","school_quality_score","light_pollution","noise_pollution","voter_turnout_pct","party_diversity_index","broadband_coverage_pct","ev_charging_density","tree_canopy_pct","transit_reachability_score","sports_facility_density","water_proximity_m","avg_construction_year","income_history","population_history","unemployment_history","income_change_pct","population_change_pct","unemployment_change_pct","schools","crime_index_history","crime_index_change_pct","health_index","radon","municipality","lon","lat","flood_risk_pct","population_projection_pct","construction_activity","active_plan_count","political_lean_index","party_vote_kok_pct","party_vote_sdp_pct","party_vote_ps_pct","party_vote_kesk_pct","party_vote_vihr_pct","party_vote_vas_pct","party_vote_rkp_pct","foreign_language_municipal_pct","foreign_language_history","foreign_language_est_pct","low_income_pct","job_self_sufficiency","violent_crime_rate","property_crime_rate","grocery_count","healthcare_count","school_count","daycare_count","restaurant_count","property_price_history"],"cols":[[427,428,402,438,403,404,415,416,417,418,419,420,421,422,423,424,425,426,429,430,431,439,432,433,434,443,435,436,437,440,441,442,448,444,445,446,447,449,450,451,452,516,517,518],["13530","13600","12380","14430","12400","12450","13100","13110","13130","13200","13210","13220","13250","13270","13300","13330","13430","13500","13700","13720","13800","14450","13880","13900","14140","14620","14200","14240","14300","14500","14530","14610","14810","14680","14690","14700","14770","14820","14840","14870","14930","16900","16960","16970"],["Hämeenlinna sairaala-alue","Ojoinen","Leppäkoski","Vuohiniemi","Tervakoski","Vähikkälä","Hämeenlinna Keskus","Kantola","Kauriala","Keinusaari","Hätilä","Sairio","Katuma","Ruununmylly","Käikälä","Harviala","Hattelmala","Jukola","Parolannummi","Parola","Katinala","Rimmilä","Rahkoila","Pekola","Jokimaa","Tyrväntö","Turenki","Väli-Janakkala","Renko kk","Iittala","Leteensuo","Lepaa","Pohjoinen","Alvettula","Torvoila","Hauho kk","Eteläinen","Syrjäntaka","Sairiala","Juttila","Sappee","Lammi kk","Iso-Evo","Evo"],["Tavastehus sjukhusområde","Ojoinen","Leppäkoski","Vuohiniemi","Tervakoski","Vähikkälä","Tavastehus centrum","Kantola","Kauriala","Keinusaari","Hätilä","Sairio","Katuma","Ruununmylly","Käikälä","Harviala","Hattelmala","Jukola","Parolannummi","Parola","Katinala","Rimmilä","Rahkoila","Pekola","Jokimaa","Tyrväntö","Turenki","Väli-Janakkala","Renko kb","Iittala","Leteensuo","Lepaa","Pohjoinen","Alvettula","Torvoila","Hauho kb","Eteläinen","Syrjäntaka","Sairiala","Juttila","Sappee","Lammi kb","Iso-Evo","Evo"],[360105,360764,375700,344802,369994,363913,362574,364380,360844,363673,368926,362687,365567,371108,367051,371700,364124,355916,356386,355098,359731,339153,358904,364870,385557,356071,378656,365760,350244,340666,350212,357474,385367,361077,367930,371760,372997,381200,381329,381062,376750,392967,394771,400346],[6764390,6767562,6749145,6760752,6744850,6741819,6764528,6763310,6765776,6765324,6769620,6767236,6763615,6766342,6761433,6762262,6759880,6762194,6769036,6774350,6769645,6764655,6783971,6771093,6750297,6782443,6757771,6753294,6750044,6772181,6773505,6778349,6776847,6788493,6794573,6784588,6772408,6773528,6780725,6787222,6793527,6770084,6783132,6787894],[181248,5664525,33296886,61906405,85574481,42130377,6101556,3751117,9050519,465679,30029748,4587054,1404691,40055838,6593359,34579199,27399137,110621766,15211853,71816819,8265176,77171264,77711212,32492215,31466656,18196930,239262723,80230443,329411669,243089943,26260904,17032040,23622951,81877104,59218710,195466160,77744907,65890296,25932798,42051065,45215896,500425918,21900178,84677760],[2026,2026,2026,2026,2026,2026,2026,2026,2026,2026,2026,2026,2026,2026,2026,2026,2026,2026,2026,2026,2026,2026,2026,2026,2026,2026,2026,2026,2026,2026,2026,2026,2026,2026,2026,2026,2026,2026,2026,2026,2026,2026,2026,2026],["109","109","165","082","165","165","109","109","109","109","109","109","109","109","109","165","109","109","082","082","082","109","082","082","165","082","165","165","109","109","082","082","109","109","109","109","109","109","109","109","109","109","109","109"],[0,3733,504,58,4277,251,11976,314,6209,2381,8033,1823,1027,1742,2669,1021,1121,11770,395,4498,1081,116,1325,871,185,161,8526,866,2078,3176,200,389,236,526,150,1777,882,779,188,210,88,4437,150,83],[0,1932,233,26,2116,114,6410,135,3257,1360,4172,906,502,871,1324,495,553,6128,194,2273,538,57,675,415,85,75,4315,402,1031,1593,89,194,114,261,63,907,436,388,93,101,42,2197,77,32],[0,1801,271,32,2161,137,5566,179,2952,1021,3861,917,525,871,1345,526,568,5642,201,2225,543,59,650,456,100,86,4211,464,1047,1583,111,195,122,265,87,870,446,391,95,109,46,2240,73,51],[0,46,44,62,47,45,48,37,46,50,47,47,44,39,39,36,42,43,46,46,46,53,45,44,49,53,47,46,48,47,50,43,54,49,58,53,42,50,52,49,63,50,51,37],[0,82,15,0,83,7,175,4,112,25,184,35,22,60,87,47,29,345,8,112,20,2,26,16,4,4,182,27,43,71,1,13,6,10,0,25,30,10,1,9,1,76,2,2],[0,121,30,0,120,10,287,1,160,24,262,57,40,97,129,85,41,507,8,169,50,3,46,34,5,1,307,34,74,120,3,12,5,14,1,47,48,20,2,5,0,136,4,2],[0,235,35,1,269,21,424,17,311,24,521,112,56,193,261,109,92,883,21,340,76,4,84,82,10,6,549,58,115,247,9,22,6,25,4,90,66,50,8,11,0,273,5,1],[0,103,19,0,168,13,242,11,206,18,241,62,23,90,115,45,50,499,18,170,24,3,74,48,8,6,308,27,64,128,3,12,6,23,4,47,32,24,9,13,2,157,7,1],[0,70,11,0,108,8,179,12,164,18,173,39,11,47,91,46,51,316,15,98,22,1,42,33,6,3,199,17,39,73,4,9,3,15,3,24,30,16,5,3,1,95,6,0],[0,71,6,0,98,4,321,14,158,62,159,38,16,40,72,16,33,272,17,95,17,2,38,29,1,5,181,15,33,55,2,6,0,11,1,29,22,15,5,2,1,71,1,4],[0,184,19,1,135,1,1080,47,371,307,369,47,58,38,69,19,27,393,8,118,39,3,46,19,4,3,255,16,67,84,7,31,8,12,5,43,26,36,9,11,0,145,5,24],[0,262,14,0,136,9,919,29,347,225,367,69,67,72,135,30,45,542,11,194,50,0,28,18,6,3,351,32,68,90,9,26,13,18,4,46,35,20,2,7,0,135,5,13],[0,235,25,1,215,10,716,33,413,185,437,110,77,103,173,88,66,729,22,270,75,6,64,38,4,5,499,43,91,148,14,27,9,25,2,74,47,34,4,7,3,177,7,7],[0,269,34,0,237,9,618,24,402,125,525,114,79,123,195,82,58,812,26,287,86,5,79,41,10,6,531,56,136,200,13,22,7,34,5,77,53,41,5,4,1,216,4,0],[0,232,34,7,265,18,604,25,356,102,504,124,89,157,211,103,81,802,27,316,56,7,95,63,13,7,503,58,127,226,13,23,8,24,6,95,62,46,10,8,5,236,13,1],[0,220,35,2,303,19,590,23,372,87,476,135,63,130,233,85,97,821,23,282,62,8,116,74,20,14,524,66,128,209,5,23,10,28,7,89,42,46,16,11,4,238,13,2],[0,214,32,4,322,18,569,12,351,90,441,109,59,110,158,61,82,664,32,252,73,5,96,56,10,8,521,62,147,191,19,21,17,33,8,95,67,45,19,12,2,240,6,1],[0,234,34,7,343,18,696,18,382,123,520,108,61,108,186,40,80,742,38,253,74,11,93,59,21,19,622,69,173,227,20,34,20,41,21,134,71,56,13,14,8,353,7,3],[0,216,56,9,303,28,774,13,416,136,582,140,77,111,165,44,91,809,36,331,75,14,97,54,17,17,605,76,186,224,30,26,23,50,10,144,66,61,17,21,13,353,11,7],[0,221,30,8,301,16,797,14,407,170,571,150,83,65,109,24,57,725,29,337,71,9,87,57,11,16,601,66,159,216,14,21,29,40,15,171,56,67,15,17,15,361,12,6],[0,214,21,5,286,17,869,10,422,182,592,133,62,89,119,32,55,652,20,289,73,16,73,64,11,11,579,47,143,221,11,22,28,42,20,188,56,71,11,20,8,391,16,7],[0,220,29,7,265,14,925,4,411,194,532,128,52,69,110,31,53,646,16,306,55,9,70,43,8,13,570,48,129,194,9,21,15,49,21,162,46,51,19,15,11,356,10,1],[0,141,19,4,178,6,595,0,225,139,295,62,16,22,30,22,14,336,11,149,31,5,40,22,9,6,306,26,76,134,9,11,10,23,8,96,11,44,14,8,7,203,9,1],[0,189,6,2,142,5,596,3,223,145,282,51,16,18,21,12,19,275,9,130,52,3,31,21,7,8,333,23,80,118,5,7,13,9,5,101,16,26,4,12,6,225,7,0],[0,3122,394,57,3529,192,10669,269,5256,2272,6652,1518,875,1255,1986,689,858,9220,325,3609,889,103,1053,658,152,141,6981,703,1743,2537,180,321,210,439,138,1544,676,659,163,169,84,3700,126,77],[0,792,88,12,765,43,2202,66,1090,456,1379,242,307,143,292,88,131,1786,55,701,169,23,154,107,33,33,1658,120,392,585,28,56,48,73,34,393,118,159,47,37,23,966,33,21],[0,2330,306,45,2764,149,8467,203,4166,1816,5273,1276,568,1112,1694,601,727,7434,270,2908,720,80,899,551,119,108,5323,583,1351,1952,152,265,162,366,104,1151,558,500,116,132,61,2734,93,56],[0,145,15,6,146,2,874,31,310,220,347,85,38,59,106,23,37,386,14,164,42,3,45,24,1,2,227,26,61,75,5,38,5,31,3,45,28,22,4,6,2,118,4,24],[0,1282,187,20,1580,101,3303,106,2004,745,2405,443,344,404,768,274,335,3617,122,1519,382,52,429,268,81,67,3172,345,847,1173,98,138,97,208,70,725,341,309,60,86,40,1686,62,22],[0,669,84,13,805,33,2821,47,1249,563,1587,425,131,401,577,197,232,2444,100,920,219,18,299,181,27,36,1457,160,333,513,40,68,45,94,21,302,141,133,32,31,16,715,21,7],[0,234,20,6,233,13,1469,19,603,288,934,323,55,248,243,107,123,987,34,305,77,7,126,78,10,3,467,52,110,191,9,21,15,33,10,79,48,36,20,9,3,215,6,3],[0,3122,394,57,3529,192,10669,269,5256,2272,6652,1518,875,1255,1986,689,858,9220,325,3609,889,103,1053,658,152,141,6981,703,1743,2537,180,321,210,439,138,1544,676,659,163,169,84,3700,126,77],[0,27036,29618,27610,29988,29641,28756,25664,28221,26913,29113,32785,23449,38537,33080,34657,32663,29647,32908,30031,32109,25436,32240,32577,29099,26463,28544,31756,28981,29144,32370,25936,28029,28882,27580,27268,28644,27785,27799,27240,25299,27058,28509,15211],[0,25178,27303,24212,27811,27260,25260,24624,25396,24391,26450,29807,21849,32244,31476,33058,30594,27482,29087,27909,28730,22876,29352,29291,27224,26212,26521,29623,26234,26971,28665,25364,24455,25617,23256,23558,28164,25503,25014,21153,21451,23929,25797,12481],[0,542,61,13,536,31,2143,72,949,422,1101,202,258,133,233,62,116,1423,47,484,116,31,163,111,26,34,1123,105,326,426,32,83,44,86,36,322,119,131,36,43,23,784,20,51],[0,2166,257,31,2289,129,6610,156,3442,1558,4305,919,528,679,1210,401,509,6034,195,2426,581,54,647,373,97,90,4665,434,1108,1624,116,194,121,261,82,997,423,419,98,98,48,2357,84,22],[0,414,76,13,704,32,1916,41,865,292,1246,397,89,443,543,226,233,1763,83,699,192,18,243,174,29,17,1193,164,309,487,32,44,45,92,20,225,134,109,29,28,13,559,22,4],[0,84405348,11669636,1573762,105827517,5691020,306799094,6903745,148329573,61146794,193661817,49768038,20517600,48364485,65696442,23878505,28025235,273342779,10695023,108382421,28544884,2619950,33948657,21435857,4423069,3731321,199262514,22324772,50513099,73938798,5826616,8325325,5886104,12679305,3805986,42101768,19363232,18310449,4531288,4603601,2125112,100114827,3592187,1171213],[0,1954,223,38,2173,108,7460,204,3699,1712,4314,879,620,704,1093,359,458,5565,188,2175,525,63,573,340,92,77,4379,382,1037,1524,101,197,119,238,85,958,368,403,99,105,50,2268,76,47],[0,1.8,2.3,1.5,2,2.3,1.6,1.5,1.7,1.4,1.8,2.1,1.7,2.5,2.4,2.8,2.4,2.1,2.1,2.1,2,1.8,2.3,2.6,2,2.1,1.9,2.3,2,2.1,2,2,2,2.2,1.8,1.8,2.4,1.9,1.9,2,1.8,1.9,1.9,1.6],[null,39.8,45,56.2,45.6,48.2,40.9,31.4,39.9,36.4,41.7,41.5,37,46.3,41.4,42.9,45.4,41.9,50.1,45,47.1,51,49.5,46.4,53.8,48.8,45.4,49.5,48.8,46.1,55.8,51.7,55.3,52.3,55.3,49.3,46.1,50.4,56.8,49.6,57,49.5,51.7,39.2],[0,965,78,21,935,31,4484,137,2159,1183,2112,306,367,187,278,58,123,2204,68,867,232,25,160,71,39,32,1976,113,415,611,37,82,41,77,40,461,106,178,40,44,24,1053,37,27],[0,229,7,0,127,2,1507,69,624,444,438,58,72,31,50,4,13,388,11,135,32,1,16,1,1,1,337,7,37,72,4,27,2,8,1,38,14,21,4,4,0,95,5,20],[0,90,4,0,49,0,279,11,104,108,124,28,23,24,45,15,15,188,7,55,18,3,12,10,1,1,102,10,13,25,5,6,2,3,1,13,8,8,1,0,0,31,1,2],[0,357,57,1,426,29,787,26,581,76,796,184,98,259,379,170,140,1394,41,500,103,6,158,105,16,12,842,82,189,338,13,38,15,50,8,127,105,63,16,18,3,375,13,3],[0,73,14,0,76,6,159,3,98,22,158,32,21,53,81,43,24,305,8,97,18,2,24,14,4,2,165,23,38,67,1,11,5,10,0,24,28,8,1,6,1,66,2,2],[0,151,27,0,151,11,340,3,194,38,308,69,45,111,157,89,48,596,12,199,49,3,55,34,7,3,343,38,82,138,3,17,7,18,1,54,47,22,2,7,1,138,4,2],[0,168,28,1,189,14,328,12,244,22,383,91,38,135,196,82,62,662,16,258,55,3,65,55,8,4,392,40,84,179,7,15,5,20,4,69,49,33,7,6,0,186,5,1],[0,136,23,0,210,14,317,14,273,25,319,76,22,103,160,69,72,620,24,206,37,3,84,58,10,6,375,33,81,147,6,16,7,28,6,52,43,31,10,10,2,181,8,1],[0,93,7,0,78,5,202,8,205,30,213,42,26,37,70,13,21,354,11,112,14,2,27,12,1,1,216,15,34,62,1,6,3,7,2,34,15,12,5,8,0,82,4,1],[0,961,92,18,894,37,3877,152,1862,1019,1887,346,337,261,455,113,187,2394,83,820,249,29,217,108,41,26,1849,163,430,566,55,100,39,82,30,315,148,161,40,36,15,796,25,34],[0,644,77,19,862,44,2814,26,1265,618,1643,349,187,188,263,79,132,1798,65,866,175,28,205,132,37,40,1712,141,422,632,34,60,66,112,49,519,121,182,43,53,33,1116,38,10],[0,1111,189,33,1746,102,3863,56,1975,510,2731,708,223,632,1009,348,423,3675,157,1659,415,60,532,323,83,66,3156,347,868,1189,93,145,101,207,78,695,322,308,88,84,49,1750,67,13],[0,834,29,3,409,4,3552,140,1706,1191,1566,163,390,65,78,9,32,1854,28,492,107,3,33,10,8,8,1182,28,146,310,4,47,16,19,5,239,37,87,11,16,0,481,7,33],[0,9,5,2,18,2,45,8,18,11,17,8,7,7,6,2,3,36,3,24,3,0,8,7,1,3,41,7,23,25,4,5,2,12,2,24,9,8,0,5,1,37,2,1],[0,1954,223,38,2173,108,7460,204,3699,1712,4314,879,620,704,1093,359,458,5565,188,2175,525,63,573,340,92,77,4379,382,1037,1524,101,197,119,238,85,958,368,403,99,105,50,2268,76,47],[null,41559,52639,41495,48956,53242,41044,34039,39894,35018,44722,56349,33229,69081,60347,66945,61066,48767,57178,49987,52493,41604,59602,63464,48307,47535,45292,58720,48757,48370,58271,42310,49063,53052,45113,43134,53071,45404,46154,44259,42587,43706,45477,24564],[null,33504,48542,36145,42305,47285,31281,27692,31065,29004,36371,49730,27062,59656,56832,65646,56763,41871,45750,43381,42819,35802,54025,59486,44780,40713,38027,52489,41470,41727,51460,37389,41587,45507,38178,34576,50132,40008,41132,34484,42297,36354,41961,18285],[0,522,38,10,409,19,2207,79,1094,494,1081,110,271,70,93,29,43,1210,29,358,91,20,79,33,17,18,1035,58,222,303,15,60,22,47,22,289,59,85,24,38,16,644,17,31],[0,1215,157,19,1405,69,4103,108,2149,1040,2549,543,295,419,741,233,293,3433,112,1467,330,30,356,216,59,50,2700,228,629,987,61,115,73,138,48,547,239,258,59,50,28,1339,49,14],[0,217,28,9,359,20,1150,17,456,178,684,226,54,215,259,97,122,922,47,350,104,13,138,91,16,9,644,96,186,234,25,22,24,53,15,122,70,60,16,17,6,285,10,2],[0,81206358,11738560,1576811,106381260,5750138,306185665,6943986,147569547,59950099,192932199,49530934,20602188,48632763,65959072,24033370,27968207,271390799,10749414,108721258,27558780,2621044,34152004,21577691,4444280,3660200,198333894,22431205,50560902,73716353,5885322,8335069,5838495,12626493,3834633,41322105,19530115,18297996,4569271,4647166,2129366,99125658,3456283,1154488],[0,9,37,308,279,374,1,83,2,0,46,30,3,157,10,74,60,674,89,232,31,323,359,62,227,243,492,243,981,762,66,92,76,578,485,1218,127,325,111,359,540,1870,65,52],[6,752,246,69,1551,152,1530,151,1195,94,1677,564,92,591,855,419,530,2823,203,1699,379,100,635,382,120,107,2868,492,1225,1490,133,209,153,371,117,951,423,402,139,128,111,2176,116,58],[6,51,27,12,169,15,201,101,246,33,90,30,13,22,58,41,99,177,27,239,26,10,78,32,10,15,435,63,156,157,16,40,20,43,11,112,29,52,14,14,12,339,7,22],[0,701,219,57,1382,137,1329,50,949,61,1587,534,79,569,797,378,431,2646,176,1460,353,90,557,350,110,92,2433,429,1069,1333,117,169,133,328,106,839,394,350,125,114,99,1837,109,36],[null,2149,267,46,2505,128,8487,246,4181,1979,4775,983,797,739,1154,400,505,5971,239,2422,576,75,652,373,108,109,4936,443,1254,1739,111,234,151,306,98,1205,416,455,131,126,70,2783,94,65],[null,72.5,97.3,89.6,87,107.7,64.3,46.8,64.9,49,75.6,83.7,61.2,113.7,99.7,119,106.6,86.6,100,90.9,92.4,92.4,111.7,117.8,105.4,89.3,85,108.3,93.7,94.5,108.9,104.5,104,108.4,98.8,86.5,108.2,94.8,100.9,100.2,97.8,91.6,99.2,60.9],[null,1014,229,43,1656,123,1758,86,1198,6,2140,617,156,699,1150,395,481,4161,171,1914,476,72,616,366,105,95,3316,414,1167,1417,110,182,141,290,93,993,405,423,106,121,69,2218,94,24],[null,1122,27,0,825,0,6505,150,2941,1873,2615,358,641,40,0,0,15,1768,62,446,96,0,34,5,0,11,1486,12,57,262,1,5,4,6,0,166,0,0,21,0,0,501,0,32],[null,13,11,3,24,5,224,10,42,100,20,8,0,0,4,5,9,42,6,62,4,3,2,2,3,3,134,17,30,60,0,47,6,10,5,46,11,32,4,5,1,64,0,9],[1904,1131,79,2,1106,39,7191,1279,3852,1789,1769,219,571,183,1195,153,1468,1663,813,1155,234,7,149,88,26,12,3057,134,378,702,21,87,153,74,24,408,76,180,19,21,13,955,24,36],[0,4,10,null,37,14,35,10,8,13,2,0,1,30,66,32,4,37,1,25,9,null,13,13,14,7,103,28,58,36,7,3,22,27,15,74,11,10,9,11,4,162,4,4],[0,156,24,null,589,13,364,394,572,3,478,10,498,33,956,10,651,365,113,307,25,null,13,17,8,1,794,15,143,296,11,8,32,11,7,49,15,89,2,0,8,202,2,0],[1904,971,45,null,480,12,6791,875,3272,1773,1288,209,72,120,173,111,813,1261,699,823,200,null,123,58,4,4,2160,91,177,370,3,76,99,36,2,285,50,81,8,10,1,591,18,32],[0,4,10,null,37,14,35,10,8,13,2,0,1,30,66,32,4,37,1,25,9,null,13,13,14,7,103,28,58,36,7,3,22,27,15,74,11,10,9,11,4,162,4,4],[0,1,0,null,7,0,0,0,0,0,0,0,0,0,0,0,7,0,0,0,0,null,0,0,0,0,0,0,7,1,0,0,0,0,0,1,0,0,0,0,0,9,0,0],[0,71,2,null,499,1,117,197,242,1,411,1,495,1,924,4,463,234,104,135,5,null,0,2,7,0,614,2,96,210,4,2,20,1,7,26,5,44,2,0,0,119,1,0],[0,0,0,null,0,0,26,71,0,0,0,0,0,0,0,0,0,0,0,19,0,null,0,0,0,0,0,0,0,0,0,0,0,0,0,0,0,0,0,0,0,0,0,0],[0,60,0,null,25,0,26,0,16,0,20,0,0,0,0,0,41,10,0,1,0,null,0,0,0,0,7,0,0,0,0,0,0,0,0,0,0,0,0,0,0,3,0,0],[0,24,22,null,58,12,195,126,314,2,47,9,3,32,32,6,140,121,9,152,20,null,13,15,1,1,173,13,40,85,7,6,12,10,0,22,10,45,0,0,8,71,1,0],[0,110,15,null,74,2,762,254,1072,40,225,8,0,8,21,6,297,156,0,202,7,null,8,26,0,0,489,9,22,66,1,10,59,3,0,49,6,7,2,1,0,100,0,0],[0,10,2,null,20,1,91,174,104,16,30,4,3,3,20,18,336,41,0,57,42,null,17,1,0,0,92,45,23,29,0,3,10,15,0,32,8,14,1,0,1,42,0,0],[0,52,0,null,43,0,379,27,213,56,30,49,8,7,7,38,0,54,37,23,13,null,3,1,3,2,100,0,18,46,0,0,20,2,0,26,2,3,0,0,0,17,0,0],[0,1,0,null,1,1,473,109,25,44,30,2,1,7,1,2,5,6,0,14,5,null,1,0,0,0,8,1,0,2,0,0,0,1,0,1,0,0,0,0,0,1,0,0],[0,0,0,null,7,0,210,0,38,183,2,0,1,3,0,0,0,2,0,6,1,null,0,0,0,0,29,0,0,1,0,0,1,0,0,0,0,0,0,0,0,8,0,0],[0,1,1,null,5,0,211,8,9,13,3,0,1,2,2,6,1,14,67,5,3,null,3,0,0,0,14,0,4,2,0,1,0,1,0,6,0,1,0,1,0,8,0,0],[0,70,2,null,54,3,662,77,93,43,58,15,36,6,14,5,21,40,1,37,9,null,13,0,1,0,47,10,10,19,1,0,0,2,1,3,0,3,1,8,0,41,1,0],[173,110,0,null,22,3,346,140,381,66,107,16,4,6,7,2,29,66,0,27,26,null,10,4,0,0,99,9,5,19,1,1,1,1,0,22,3,3,4,0,0,33,0,0],[0,26,0,null,1,0,1225,0,359,313,197,0,0,0,0,0,30,0,579,36,0,null,0,0,0,0,71,0,4,1,0,0,0,0,0,0,0,0,0,0,0,0,0,0],[0,2,20,null,82,2,954,1,417,74,108,21,1,27,37,10,10,157,5,135,1,null,3,13,0,0,411,9,9,33,0,60,0,4,0,29,5,10,0,0,0,68,0,32],[1729,370,0,null,128,0,1005,18,363,784,464,76,15,38,59,16,68,682,0,226,90,null,54,3,0,0,705,0,72,127,0,1,4,6,0,96,26,33,0,0,0,219,17,0],[0,17,2,null,32,0,125,31,88,130,4,13,0,6,1,7,5,16,10,16,2,null,1,9,0,2,41,1,5,6,0,0,0,0,0,5,0,0,0,0,0,16,0,0],[2,202,3,null,11,0,348,36,110,6,30,5,2,7,4,1,11,27,0,39,1,null,10,1,0,0,54,7,5,19,0,0,4,1,1,16,0,7,0,0,0,38,0,0],[0,0,0,null,0,0,0,0,0,5,0,0,0,0,0,0,0,0,0,0,0,null,0,0,0,0,0,0,0,0,0,0,0,0,0,0,0,0,0,0,0,0,0,0],[0,0,0,null,0,0,0,0,0,0,0,0,0,0,0,0,0,0,0,0,0,null,0,0,0,0,0,0,0,0,0,0,0,0,0,0,0,0,0,0,0,0,0,0],[0,0,0,null,0,0,1,0,0,0,1,0,0,0,0,0,0,0,0,0,0,null,0,0,0,0,0,0,0,0,0,0,0,0,0,0,0,0,0,0,0,0,0,0],[0,3733,504,58,4277,251,11976,314,6209,2381,8033,1823,1027,1742,2669,1021,1121,11770,395,4498,1081,116,1325,871,185,161,8526,866,2078,3176,200,389,236,526,150,1777,882,779,188,210,88,4437,150,83],[0,1499,235,23,1891,112,4750,153,2573,1000,3274,809,400,847,1391,499,551,5054,191,1988,502,42,615,384,93,65,3533,412,913,1308,106,165,92,214,54,596,378,314,72,73,32,1585,63,21],[0,234,20,3,176,6,683,41,347,154,433,82,114,62,62,30,39,590,14,154,41,6,51,26,5,10,360,31,109,155,13,18,11,22,10,111,49,44,11,14,3,244,6,3],[0,507,89,1,572,49,1054,28,723,85,1112,249,135,410,559,272,196,2055,46,748,168,12,204,164,23,15,1240,134,272,525,14,52,21,62,9,191,163,96,16,33,3,579,16,5],[0,244,30,0,280,16,1099,34,503,194,556,98,61,119,187,74,94,888,40,246,45,2,107,70,12,11,557,47,112,185,11,59,8,33,6,75,66,42,13,10,1,247,9,33],[0,1120,122,30,1261,65,4035,49,1890,891,2432,554,258,280,423,125,213,2896,97,1284,298,48,316,209,48,59,2607,226,620,938,52,88,100,174,66,763,206,269,73,76,49,1661,53,16],[0,129,8,1,97,3,355,9,173,57,226,31,59,24,47,21,28,287,7,78,27,6,32,18,4,1,229,16,52,65,4,7,4,21,5,41,20,14,3,4,0,121,3,5],["hameenlinna","hameenlinna","hameenlinna","hameenlinna","hameenlinna","hameenlinna","hameenlinna","hameenlinna","hameenlinna","hameenlinna","hameenlinna","hameenlinna","hameenlinna","hameenlinna","hameenlinna","hameenlinna","hameenlinna","hameenlinna","hameenlinna","hameenlinna","hameenlinna","hameenlinna","hameenlinna","hameenlinna","hameenlinna","hameenlinna","hameenlinna","hameenlinna","hameenlinna","hameenlinna","hameenlinna","hameenlinna","hameenlinna","hameenlinna","hameenlinna","hameenlinna","hameenlinna","hameenlinna","hameenlinna","hameenlinna","hameenlinna","hameenlinna","hameenlinna","hameenlinna"],["13530","13600","12380","14430","12400","12450","13100","13110","13130","13200","13210","13220","13250","13270","13300","13330","13430","13500","13700","13720","13800","14450","13880","13900","14140","14620","14200","14240","14300","14500","14530","14610","14810","14680","14690","14700","14770","14820","14840","14870","14930","16900","16960","16970"],[null,6.3,4,5.2,4.1,2.4,5.7,13.1,5.6,6.5,5.4,4.5,11.1,3.6,2.3,2.9,3.5,5,3.5,3.4,3.8,5.2,3.8,3,2.7,6.2,4.2,3.6,5.2,4.9,6.5,4.6,4.7,4.2,6.7,6.2,5.6,5.6,5.9,6.7,3.4,5.5,4,3.6],[null,28.9,26.4,33.3,29.4,24,40.2,24.5,35.2,37.5,37.9,49.3,21.3,51.7,41.3,44.1,41.4,37.2,41.2,33.9,33.3,24.3,40.4,39.4,24.3,27.7,27.6,30.2,25.4,27.7,27.2,27.7,28.6,28.9,22.5,24.7,28,25.6,31.9,23.7,22.6,25.1,21.4,13],[null,30,24.2,51.7,29.5,25.9,33.7,15.6,30.4,37.4,30.3,30.4,25.1,16.1,15.8,12.2,19,24.6,24.6,28.5,27.6,41.4,23.8,24,25.9,36.6,30.6,26.1,29.8,29.5,26,22.6,42.4,33.1,44,42.9,23.4,34.5,38.8,36.2,55.7,37.4,35.3,19.3],[null,56.9,84.8,86.8,80.3,94.4,51.8,27.5,53.4,29.8,63.3,80.5,36,89.8,92.3,96.9,92.4,66,83.5,76.3,79,95.2,92.8,95,90.2,85.7,72.1,90.8,83.7,78,92.1,73.6,84.9,87,91.8,72.5,87.5,76.4,88.9,80,98,77.2,88.2,27.7],[null,42.7,13,7.9,18.8,3.7,47.6,68.6,46.1,69.6,36.3,18.5,62.9,9.2,7.1,2.5,7,33.3,14.9,22.6,20.4,4.8,5.8,2.9,8.7,10.4,27,7.3,14.1,20.3,4,23.9,13.4,8,5.9,24.9,10.1,21.6,11.1,15.2,0,21.2,9.2,70.2],[0,659,15,1,50,6,1963,84,686,5113,268,397,731,43,405,30,41,106,26,63,131,2,17,27,6,9,36,11,6,13,8,23,10,6,3,9,11,12,7,5,2,9,7,1],[null,5.4,8.9,0,4.7,6.8,3.9,1.6,4.4,2.1,5.6,5,6,9,8.1,12.9,6.2,7.2,4.1,6.2,6.5,4.3,5.4,5.7,4.9,3.1,5.7,7,5.6,6,2,6.4,4.7,4.6,0.7,4.1,8.8,3.9,1.6,6.7,1.1,4.8,4,4.8],[null,6.5,6,0,6.5,6.4,9.2,10.8,8.1,8.1,6.9,5.4,5.9,6.8,7,7.2,8.4,7.5,10.1,5.5,4.2,1.7,8.1,8,6.5,6.8,6.5,5.4,5.4,5.8,5.5,15.2,3.4,6.3,4,4.2,7.5,5.4,6.9,4.8,1.1,5.6,6,39.8],[null,47.2,85.8,93.5,66.1,96.1,20.7,35,28.7,0.3,44.8,62.8,19.6,94.6,99.7,98.8,95.2,69.7,71.5,79,82.6,96,94.5,98.1,97.2,87.2,67.2,93.5,93.1,81.5,99.1,77.8,93.4,94.8,94.9,82.4,97.4,93,80.9,96,98.6,79.7,100,36.9],[null,13.8,7.7,1.7,8.6,5.6,19.4,28.7,14.1,24.9,11.1,8.4,13.7,8.6,10.3,6.4,9.4,10.3,9.1,9,9.8,4.3,8.5,7.6,5.9,6.8,9.2,7.3,8.1,7.2,9,16.2,8.9,7.8,6.7,6.6,9.4,9.1,8.5,9.5,1.1,7.9,7.3,49.4],[null,1.07,0.86,0.81,0.98,0.83,1.15,0.75,1.1,1.33,1.08,0.99,0.96,1,0.98,0.94,0.97,1.09,0.97,1.02,0.99,0.97,1.04,0.91,0.85,0.87,1.02,0.87,0.98,1.01,0.8,0.99,0.93,0.98,0.72,1.04,0.98,0.99,0.98,0.93,0.91,0.98,1.05,0.63],[null,4.6,1.8,0,2.3,0,3.7,5.4,2.8,6.3,2.9,3.2,3.7,3.4,4.1,4.2,3.3,3.4,3.7,2.5,3.4,4.8,2.1,2.9,1.1,1.3,2.3,2.6,1.3,1.6,5,3,1.7,1.3,1.2,1.4,2.2,2,1,0,0,1.4,1.3,4.3],[null,18.3,25.6,2.6,19.6,26.9,10.5,12.7,15.7,4.4,18.5,20.9,15.8,36.8,34.7,47.4,30.6,25,21.8,23,19.6,9.5,27.6,30.9,17.4,15.6,19.2,21.5,18.2,22.2,12.9,19.3,12.6,21,9.4,13.3,28.5,15.6,16.2,17.1,6,16.5,17.1,6.4],[0,0.1,0,null,0.1,2.6,6.6,8.5,0.6,2.5,1.7,0.9,0.2,3.8,0.1,1.3,0.3,0.4,0,1.2,2.1,null,0.7,0,0,0,0.3,0.7,0,0.3,0,0,0,1.4,0,0.2,0,0,0,0,0,0.1,0,0],[90.8,32.7,0,null,11.6,0,14,1.4,9.4,43.8,26.2,34.7,2.6,20.8,4.9,10.5,4.6,41,0,19.6,38.5,null,36.2,3.4,0,0,23.1,0,19,18.1,0,1.1,2.6,8.1,0,23.5,34.2,18.3,0,0,0,22.9,70.8,0],[null,40.2,46.6,39.7,44.2,44.6,39.7,48.7,41.4,42,40.8,44.4,38.9,48.6,52.1,48.9,49.2,42.9,48.4,44.2,46.4,36.2,46.4,44.1,50.3,40.4,41.4,47.6,43.9,41.2,53,42.4,39,40.7,36,33.5,42.9,40.3,38.3,34.8,36.4,35.7,42,25.3],[null,26.4,20.8,44.8,27.4,23.1,31.6,9.9,27.2,34.9,28.3,28.7,22.3,15.1,14.6,11.9,17.7,22.4,21.5,26.9,26.1,36.2,22.7,23.8,24.9,33.5,28,24.2,28.2,27.8,24,21.1,40.3,31,46,40.4,21,33.2,33.5,34.3,53.4,34.6,36,18.1],[null,1.91,2.26,1.53,1.97,2.32,1.61,1.54,1.68,1.39,1.86,2.07,1.66,2.47,2.44,2.84,2.45,2.12,2.1,2.07,2.06,1.84,2.31,2.56,2.01,2.09,1.95,2.27,2,2.08,1.98,1.97,1.98,2.21,1.76,1.85,2.4,1.93,1.9,2,1.76,1.96,1.97,1.77],[0,13.8,30.4,null,53.3,33.3,5.1,30.8,14.8,0.2,27,4.6,87.2,18,80,6.5,44.3,21.9,13.9,26.6,10.7,null,8.7,19.3,30.8,8.3,26,11.2,37.8,42.2,52.4,9.2,20.9,14.9,29.2,12,19.7,49.4,10.5,0,61.5,21.2,8.3,0],[0,2.3,0,null,0.1,0,17,0,9.3,17.5,11.1,0,0,0,0,0,2,0,71.2,3.1,0,null,0,0,0,0,2.3,0,1.1,0.1,0,0,0,0,0,0,0,0,0,0,0,0,0,0],[100,85.9,57,null,43.4,30.8,94.4,68.4,84.9,99.1,72.8,95.4,12.6,65.6,14.5,72.5,55.4,75.8,86,71.3,85.5,null,82.6,65.9,15.4,33.3,70.7,67.9,46.8,52.7,14.3,87.4,64.7,48.6,8.3,69.9,65.8,45,42.1,47.6,7.7,61.9,75,88.9],[null,35,92.1,150,61.9,118.8,18,61.4,28.6,4.7,35.1,57.4,11.5,80,74.1,104.8,105,47.3,84.9,70.1,65.8,133.3,97.4,102.4,111.1,98.2,58.1,111.1,97.7,85.7,119.8,89.3,101.3,121.2,119.4,78.9,101.7,88.4,106.1,101.6,158.6,78.2,123.4,89.2],[0,6.7,3,0,2.3,1.1,6.1,1.7,3.7,3.9,6.7,2.9,22.7,3.3,3.4,1.6,3.7,7.2,1.5,2.2,2.4,0.8,2,0.9,1.1,0.7,3.7,1.3,2.7,2.3,1.9,1.9,1.1,1.7,0.6,2.6,2.2,3.7,3.5,2.8,0,3.2,1.4,1.4],[110.8,110.8,98.1,71.8,98.1,98.1,110.8,110.8,110.8,110.8,110.8,110.8,110.8,110.8,110.8,98.1,110.8,110.8,71.8,71.8,71.8,110.8,71.8,71.8,98.1,71.8,98.1,98.1,110.8,110.8,71.8,71.8,110.8,110.8,110.8,110.8,110.8,110.8,110.8,110.8,110.8,110.8,110.8,110.8],[null,1313,null,null,1150,null,2164,null,1716,2090,1615,2641,985,2284,1864,null,1940,1260,965,1451,1645,null,1755,null,null,null,1267,null,1196,1123,null,null,null,null,null,743,null,797,null,null,null,909,null,null],[11,7.1,1,0,0.9,0.3,11.1,1.1,8.2,32.2,2.2,3.5,12.1,0.7,5.9,0.4,1.5,1.2,2,0.9,1.6,0.1,0.6,0.5,0.1,1,0.6,0.7,0.3,0.3,0.3,1.4,0.6,0.8,0,0.5,0.4,0.5,1.2,0.4,0.3,0.4,0.8,0.1],[23.7,24.4,23.7,23.5,23.5,23.5,23.7,23.7,23.7,23.7,24.6,24.4,23.7,24.6,23.7,23.9,23.7,23.5,24.3,24.3,24.3,23.5,25.4,24.4,23.9,25.4,24.1,23.5,23.5,23.6,23.9,25.4,24.7,25.2,25,25.5,24.6,24.7,25.1,25.1,24.8,24.6,24.3,23.9],[0,0.3531,0,0,0.0234,0,0.4917,0,0.1105,2.1474,0.0999,0.218,0.7119,0,0.3033,0,0.0365,0.0271,0,0.0139,0,0,0.0129,0,0,0,0.0167,0,0,0,0,0,0,0,0,0,0.0129,0,0,0,0,0,0,0],[5.5173,0.3531,0.0601,0,0.0467,0.0237,1.3111,0,0.6629,2.1474,0.1665,0.654,0,0.0749,0.1517,0.0578,0.0365,0.0723,0.0657,0.0696,0,0,0,0.0308,0,0,0.0376,0.0249,0.003,0.0041,0,0.0587,0,0.0122,0,0.0051,0.0129,0.0152,0,0,0,0.006,0,0.0118],[11.0346,0.1765,0,0,0.0351,0,1.9667,0,0.221,4.2948,0.1665,0,0,0,0,0,0,0.0181,0.0657,0.0557,0,0,0.0129,0,0,0,0.0125,0,0,0.0082,0,0,0.0423,0,0,0.0051,0,0,0,0,0,0.004,0,0],[0,0.7061,0,0,0.1285,0,12.2919,0.5332,2.0993,19.3266,0.333,1.308,1.4238,0.025,0,0,0.1095,0.0271,0.3287,0.1114,0,0,0,0.1231,0,0,0.0334,0,0.0091,0.0123,0,0.1761,0.1693,0.0122,0,0.0153,0.0129,0,0,0,0.0221,0.012,0,0.0236],[0,0.5296,0,0,0.0351,0,1.9667,0,0.3315,2.1474,0.1665,0,0,0,0.1517,0,0,0.009,0,0.0278,0,0,0,0,0,0,0.0167,0,0.003,0.0041,0,0.0587,0.0423,0.0122,0,0.0051,0.0129,0,0,0,0,0.004,0,0],[44.1384,20.3018,0.4805,0,1.2621,0,48.5122,7.1979,22.7611,163.2025,6.094,12.6443,22.7808,1.6227,15.0151,1.3592,2.9198,3.7967,0.4602,1.9355,0.484,0,0.3217,0.5232,0,0,1.1201,0.1371,0.0789,0.3209,0,0,0.508,0,0,0.1023,0.1544,0.2277,0.0386,0,0,0.1978,0,0],[null,49.4,35,55.3,43,28.7,60.1,67.2,58.4,69.1,49,34.8,59.2,26.6,25.4,16.2,26.9,39.6,36.2,39.9,44.2,39.7,27.9,20.9,42.4,41.6,45.1,29.6,40,40.1,36.6,41.6,34.5,32.4,47.1,48.1,28.8,44.2,40.4,41.9,48,46.4,48.7,57.4],[null,16.84,null,null,null,null,16.03,null,15.2,18.29,13.93,14.41,10.52,14.41,14.41,null,14.41,13.45,null,null,null,null,null,null,null,null,null,null,14.41,14.41,null,null,null,null,null,14.41,null,null,null,null,null,11.02,null,null],[null,6.5,null,null,null,null,11.2,null,9.4,9.5,9.7,15.3,7.8,13.2,10.8,null,11.2,7.8,null,null,null,null,null,null,null,null,null,null,6.9,6.5,null,null,null,null,null,4.3,null,null,null,null,null,6.9,null,null],[91,92,81,76,82,76,97,85,93,99,89,89,87,83,87,83,83,83,84,85,80,76,79,81,76,76,81,78,78,79,76,80,82,76,76,78,78,78,76,76,76,78,76,76],[null,0.4,2,null,1.9,null,0.4,4.2,0.5,null,0.2,null,1.9,0.6,0.2,0.3,4.2,0.3,null,1,null,null,2.8,null,3.6,null,0.7,8.9,4.3,2.1,6.7,0.9,null,5.7,null,0.9,1.5,4.3,5.3,null,null,2,4.4,16.1],[null,4.3,null,null,2.9,null,1.9,null,-0.3,-2.3,-4.2,-1.9,-31.3,15.9,1.8,null,null,-23.5,null,-4,4.8,null,-3.7,null,null,null,-4.4,null,5.7,-22.2,null,null,null,null,null,-14.7,null,null,null,null,null,-12.7,null,null],[null,null,null,null,null,null,54.6,null,66.4,null,null,null,null,null,null,null,null,null,null,60.6,null,null,null,null,null,null,55.3,null,null,null,null,null,null,null,null,null,null,null,null,null,null,57.5,null,null],[32.28,14.91,0.16,0.01,0.84,0.02,24.44,14.37,17.63,46.34,3.52,8.12,11.39,1.32,10.31,1.21,4.18,1,2.42,1.49,2.56,0,0.15,0.49,0.01,0,0.61,0.26,0.07,0.13,0,0.21,0.6,0.01,0,0.08,0.07,0.42,0.15,0.05,0,0.15,0.01,0.01],[40,50.1,40,40,43.6,40,51.3,51.3,44.1,40.9,40.1,40.4,47.4,40,42.4,40,47.5,40,40.8,41.9,44.7,40,40,40,40,40,40,43.3,40,41,43.5,40,40,40,40,40,40,40,40,40,40,40,40,40],[68.9,68.9,67.8,71.4,67.8,67.8,68.9,68.9,68.9,68.9,68.9,68.9,68.9,68.9,68.9,67.8,68.9,68.9,71.4,71.4,71.4,68.9,71.4,71.4,67.8,71.4,67.8,67.8,68.9,68.9,71.4,71.4,68.9,68.9,68.9,68.9,68.9,68.9,68.9,68.9,68.9,68.9,68.9,68.9],[0.687,0.687,0.696,0.675,0.696,0.696,0.687,0.687,0.687,0.687,0.687,0.687,0.687,0.687,0.687,0.696,0.687,0.687,0.675,0.675,0.675,0.687,0.675,0.675,0.696,0.675,0.696,0.696,0.687,0.687,0.675,0.675,0.687,0.687,0.687,0.687,0.687,0.687,0.687,0.687,0.687,0.687,0.687,0.687],[81,81,79,66,79,79,81,81,81,81,81,81,81,81,81,79,81,81,66,66,66,81,66,66,79,66,79,79,81,81,66,66,81,81,81,81,81,81,81,81,81,81,81,81],[0,0.2,0,0,0,0,0.8,0,0.2,2.1,0,0,0,0,0,0,0,0,0,0,0,0,0,0,0,0,0,0,0,0,0,0,0,0,0,0,0,0,0,0,0,0,0,0],[33.4,22.1,65.6,54.8,30.4,30.2,45.2,32.2,40.8,12.4,57.6,56.4,9.6,52.8,31.4,60.8,36,75.2,30.6,25.5,33.3,66.2,45,40.6,26,26.2,28.8,53.8,62.2,54.3,48.6,31.1,82,12.6,29.2,8.8,62.6,31.2,62,40.6,57.2,32.8,61,71],[null,null,null,null,null,null,null,null,null,null,null,null,null,null,null,null,null,null,null,null,null,null,null,null,null,null,null,null,null,null,null,null,null,null,null,null,null,null,null,null,null,null,null,null],[0,1.4,0.2,0,0.3,0.1,4.4,1.6,4.8,0,0.8,3.5,1.4,0.1,0.8,0.3,0.2,0.3,0.8,0.5,0.5,0,0.1,0.6,0.1,0.3,0.2,0.1,0,0.1,0.1,0.8,0.1,0,0,0.1,0.1,0.1,0.1,0,0.1,0.1,0,0.1],[420,460,720,330,1070,910,330,20,860,60,700,400,400,570,350,750,520,1140,160,920,460,500,900,980,1770,390,990,950,790,860,1210,700,920,410,230,560,960,740,390,410,200,990,1690,180],[1979,1981,1978,1985,1977,1980,1977,1981,1979,1974,1981,1982,1977,1984,1983,1979,1985,1982,1981,1981,1980,1987,1982,1982,1979,1982,1977,1979,1985,1984,1983,1982,1985,1986,1986,1984,1985,1984,1985,1985,1988,1984,1986,1983],[[[2023,0],[2024,0],[2025,0],[2026,0]],[[2021,21114],[2022,21387],[2023,22022],[2024,22887],[2025,24163],[2026,25178]],[[2021,22975],[2022,22868],[2023,23916],[2024,25544],[2025,26174],[2026,27303]],[[2021,22649],[2022,21523],[2023,23137],[2024,23248],[2025,23082],[2026,24212]],[[2021,23972],[2022,23922],[2023,24645],[2024,25617],[2025,26909],[2026,27811]],[[2021,23943],[2022,24229],[2023,24616],[2024,25255],[2025,27068],[2026,27260]],[[2021,21340],[2022,21358],[2023,21960],[2024,22947],[2025,24365],[2026,25260]],[[2021,22713],[2022,23109],[2023,23440],[2024,24905],[2025,23854],[2026,24624]],[[2021,20958],[2022,21353],[2023,21595],[2024,22718],[2025,24186],[2026,25396]],[[2021,20802],[2022,20869],[2023,21665],[2024,22089],[2025,23391],[2026,24391]],[[2021,22580],[2022,22713],[2023,23274],[2024,23957],[2025,25348],[2026,26450]],[[2021,25030],[2022,24705],[2023,25792],[2024,26872],[2025,28467],[2026,29807]],[[2021,18723],[2022,18927],[2023,19568],[2024,20600],[2025,20977],[2026,21849]],[[2021,27926],[2022,28565],[2023,29216],[2024,30810],[2025,31680],[2026,32244]],[[2021,26682],[2022,26701],[2023,27605],[2024,28902],[2025,30309],[2026,31476]],[[2021,27435],[2022,27451],[2023,29257],[2024,29700],[2025,31041],[2026,33058]],[[2021,25972],[2022,26319],[2023,27126],[2024,28081],[2025,29613],[2026,30594]],[[2021,23578],[2022,23760],[2023,24192],[2024,25079],[2025,26402],[2026,27482]],[[2021,25726],[2022,25165],[2023,25766],[2024,26834],[2025,28672],[2026,29087]],[[2021,23454],[2022,23607],[2023,24264],[2024,25415],[2025,26723],[2026,27909]],[[2021,23146],[2022,23376],[2023,23911],[2024,25133],[2025,27004],[2026,28730]],[[2021,19909],[2022,18413],[2023,22769],[2024,20232],[2025,21540],[2026,22876]],[[2021,25458],[2022,25667],[2023,26730],[2024,27586],[2025,28508],[2026,29352]],[[2021,25088],[2022,25997],[2023,26538],[2024,27139],[2025,28158],[2026,29291]],[[2021,22003],[2022,21557],[2023,23106],[2024,25192],[2025,27129],[2026,27224]],[[2021,20868],[2022,20820],[2023,23501],[2024,24390],[2025,25923],[2026,26212]],[[2021,22215],[2022,22568],[2023,23197],[2024,24033],[2025,25456],[2026,26521]],[[2021,24481],[2022,24846],[2023,25515],[2024,26614],[2025,27696],[2026,29623]],[[2021,22595],[2022,22771],[2023,23532],[2024,24063],[2025,24991],[2026,26234]],[[2021,22653],[2022,22799],[2023,23854],[2024,24465],[2025,25596],[2026,26971]],[[2021,24841],[2022,24773],[2023,25832],[2024,26574],[2025,27240],[2026,28665]],[[2021,21181],[2022,21630],[2023,22296],[2024,22331],[2025,24232],[2026,25364]],[[2021,22168],[2022,20708],[2023,22452],[2024,21914],[2025,22282],[2026,24455]],[[2021,21262],[2022,21414],[2023,22517],[2024,23870],[2025,25001],[2026,25617]],[[2021,18993],[2022,18776],[2023,18938],[2024,19439],[2025,20255],[2026,23256]],[[2021,19166],[2022,19256],[2023,19655],[2024,20717],[2025,22659],[2026,23558]],[[2021,23710],[2022,23474],[2023,24718],[2024,25631],[2025,26897],[2026,28164]],[[2021,22054],[2022,22173],[2023,22479],[2024,23039],[2025,24775],[2026,25503]],[[2021,21017],[2022,21798],[2023,21968],[2024,21216],[2025,23117],[2026,25014]],[[2021,17369],[2022,17316],[2023,19342],[2024,20243],[2025,20570],[2026,21153]],[[2021,18570],[2022,17300],[2023,18141],[2024,18569],[2025,22656],[2026,21451]],[[2021,20197],[2022,20094],[2023,20673],[2024,21214],[2025,22712],[2026,23929]],[[2021,19112],[2022,20500],[2023,21277],[2024,22227],[2025,23724],[2026,25797]],[[2021,13255],[2022,13075],[2023,10875],[2024,13292],[2025,14462],[2026,12481]]],[[[2021,1],[2022,2],[2023,0],[2024,0],[2025,0],[2026,0]],[[2021,3642],[2022,3697],[2023,3699],[2024,3728],[2025,3667],[2026,3733]],[[2021,512],[2022,493],[2023,493],[2024,492],[2025,498],[2026,504]],[[2021,64],[2022,60],[2023,58],[2024,57],[2025,57],[2026,58]],[[2021,4567],[2022,4473],[2023,4515],[2024,4434],[2025,4339],[2026,4277]],[[2021,271],[2022,277],[2023,271],[2024,256],[2025,253],[2026,251]],[[2021,11495],[2022,11736],[2023,11746],[2024,11819],[2025,11933],[2026,11976]],[[2021,184],[2022,176],[2023,183],[2024,182],[2025,304],[2026,314]],[[2021,6114],[2022,6056],[2023,6109],[2024,6105],[2025,6200],[2026,6209]],[[2021,1836],[2022,1997],[2023,2105],[2024,2288],[2025,2321],[2026,2381]],[[2021,8035],[2022,8029],[2023,8013],[2024,7987],[2025,7977],[2026,8033]],[[2021,1806],[2022,1822],[2023,1841],[2024,1816],[2025,1803],[2026,1823]],[[2021,979],[2022,976],[2023,953],[2024,933],[2025,973],[2026,1027]],[[2021,1723],[2022,1741],[2023,1753],[2024,1750],[2025,1742],[2026,1742]],[[2021,2771],[2022,2780],[2023,2726],[2024,2722],[2025,2717],[2026,2669]],[[2021,875],[2022,902],[2023,936],[2024,987],[2025,1023],[2026,1021]],[[2021,1164],[2022,1159],[2023,1110],[2024,1133],[2025,1126],[2026,1121]],[[2021,11761],[2022,11723],[2023,11768],[2024,11781],[2025,11739],[2026,11770]],[[2021,395],[2022,397],[2023,389],[2024,401],[2025,397],[2026,395]],[[2021,4451],[2022,4485],[2023,4477],[2024,4510],[2025,4523],[2026,4498]],[[2021,1284],[2022,1268],[2023,1282],[2024,1251],[2025,1255],[2026,1081]],[[2021,128],[2022,128],[2023,126],[2024,120],[2025,125],[2026,116]],[[2021,1213],[2022,1209],[2023,1216],[2024,1200],[2025,1178],[2026,1325]],[[2021,881],[2022,885],[2023,882],[2024,854],[2025,861],[2026,871]],[[2021,183],[2022,187],[2023,191],[2024,188],[2025,188],[2026,185]],[[2021,150],[2022,152],[2023,156],[2024,160],[2025,159],[2026,161]],[[2021,8640],[2022,8588],[2023,8640],[2024,8616],[2025,8552],[2026,8526]],[[2021,866],[2022,868],[2023,867],[2024,877],[2025,876],[2026,866]],[[2021,2141],[2022,2140],[2023,2155],[2024,2120],[2025,2115],[2026,2078]],[[2021,3224],[2022,3196],[2023,3186],[2024,3151],[2025,3184],[2026,3176]],[[2021,202],[2022,208],[2023,207],[2024,202],[2025,199],[2026,200]],[[2021,387],[2022,373],[2023,371],[2024,368],[2025,378],[2026,389]],[[2021,281],[2022,269],[2023,271],[2024,253],[2025,252],[2026,236]],[[2021,581],[2022,580],[2023,570],[2024,546],[2025,534],[2026,526]],[[2021,158],[2022,163],[2023,158],[2024,158],[2025,158],[2026,150]],[[2021,1863],[2022,1861],[2023,1867],[2024,1845],[2025,1776],[2026,1777]],[[2021,911],[2022,898],[2023,880],[2024,865],[2025,884],[2026,882]],[[2021,849],[2022,830],[2023,828],[2024,793],[2025,785],[2026,779]],[[2021,212],[2022,198],[2023,203],[2024,199],[2025,197],[2026,188]],[[2021,215],[2022,211],[2023,214],[2024,223],[2025,218],[2026,210]],[[2021,94],[2022,93],[2023,91],[2024,96],[2025,96],[2026,88]],[[2021,4607],[2022,4549],[2023,4536],[2024,4486],[2025,4427],[2026,4437]],[[2021,156],[2022,147],[2023,149],[2024,141],[2025,149],[2026,150]],[[2021,61],[2022,71],[2023,79],[2024,79],[2025,82],[2026,83]]],[null,[[2021,5.8],[2022,4.6],[2023,5.6],[2024,5.4],[2025,6.1],[2026,6.3]],[[2021,4.3],[2022,4.9],[2023,5.3],[2024,4.9],[2025,4.2],[2026,4]],[[2021,7.8],[2022,6.7],[2023,5.2],[2024,5.3],[2025,5.3],[2026,5.2]],[[2021,3.3],[2022,3.7],[2023,4.1],[2024,3.6],[2025,3.8],[2026,4.1]],[[2021,4.4],[2022,4.7],[2023,5.9],[2024,3.1],[2025,1.6],[2026,2.4]],[[2021,4.9],[2022,4.6],[2023,5],[2024,4.7],[2025,5.4],[2026,5.7]],[[2021,3.8],[2022,6.2],[2023,9.8],[2024,7.1],[2025,9.9],[2026,13.1]],[[2021,5.4],[2022,4.8],[2023,5.9],[2024,4.9],[2025,5.9],[2026,5.6]],[[2021,4.9],[2022,5.7],[2023,6.3],[2024,5.6],[2025,5.9],[2026,6.5]],[[2021,5.1],[2022,5],[2023,5.8],[2024,4.9],[2025,5.2],[2026,5.4]],[[2021,4],[2022,4],[2023,4],[2024,3.1],[2025,4],[2026,4.5]],[[2021,11],[2022,11.9],[2023,10.1],[2024,9.2],[2025,10.8],[2026,11.1]],[[2021,2.6],[2022,2.4],[2023,2.3],[2024,2.7],[2025,2.9],[2026,3.6]],[[2021,2.9],[2022,3.2],[2023,3],[2024,2.1],[2025,3.5],[2026,2.3]],[[2021,2.4],[2022,2.9],[2023,3],[2024,2.5],[2025,3.5],[2026,2.9]],[[2021,3.1],[2022,3.5],[2023,2.7],[2024,2.9],[2025,4.4],[2026,3.5]],[[2021,4.7],[2022,4.7],[2023,5.1],[2024,4.5],[2025,5.1],[2026,5]],[[2021,2.5],[2022,2.5],[2023,4.1],[2024,1.7],[2025,3],[2026,3.5]],[[2021,3.5],[2022,3.6],[2023,3.5],[2024,2.9],[2025,3.3],[2026,3.4]],[[2021,3.5],[2022,4],[2023,3.8],[2024,3.4],[2025,3.9],[2026,3.8]],[[2021,7],[2022,3.9],[2023,5.6],[2024,5],[2025,6.4],[2026,5.2]],[[2021,2.2],[2022,1.4],[2023,2.5],[2024,2.1],[2025,3.7],[2026,3.8]],[[2021,1.7],[2022,1.7],[2023,1.7],[2024,1.8],[2025,3.1],[2026,3]],[[2021,2.7],[2022,2.1],[2023,5.8],[2024,3.2],[2025,4.3],[2026,2.7]],[[2021,6],[2022,3.9],[2023,5.8],[2024,3.1],[2025,6.9],[2026,6.2]],[[2021,3.9],[2022,4.2],[2023,4.5],[2024,3.9],[2025,4.7],[2026,4.2]],[[2021,4],[2022,3.6],[2023,3.9],[2024,2.9],[2025,4.3],[2026,3.6]],[[2021,5.2],[2022,3.9],[2023,5.4],[2024,4.4],[2025,5.3],[2026,5.2]],[[2021,4.2],[2022,3.6],[2023,4.6],[2024,4.1],[2025,5.4],[2026,4.9]],[[2021,4.5],[2022,5.8],[2023,3.9],[2024,5],[2025,5.5],[2026,6.5]],[[2021,2.8],[2022,3.8],[2023,3.5],[2024,3.3],[2025,4.2],[2026,4.6]],[[2021,8.2],[2022,7.8],[2023,5.5],[2024,7.9],[2025,4.8],[2026,4.7]],[[2021,4],[2022,3.6],[2023,3.7],[2024,4.2],[2025,4.5],[2026,4.2]],[[2021,3.2],[2022,4.3],[2023,6.3],[2024,8.9],[2025,8.9],[2026,6.7]],[[2021,4.8],[2022,4.5],[2023,5.2],[2024,5],[2025,5.6],[2026,6.2]],[[2021,3.7],[2022,4.7],[2023,3.8],[2024,4.4],[2025,4],[2026,5.6]],[[2021,5.4],[2022,4.8],[2023,5.7],[2024,4.7],[2025,5.7],[2026,5.6]],[[2021,5.7],[2022,4.5],[2023,5.4],[2024,9],[2025,6.6],[2026,5.9]],[[2021,7.4],[2022,4.7],[2023,6.5],[2024,6.7],[2025,5],[2026,6.7]],[[2021,3.2],[2022,5.4],[2023,4.4],[2024,4.2],[2025,7.3],[2026,3.4]],[[2021,4.8],[2022,4.7],[2023,4.8],[2024,4],[2025,4.8],[2026,5.5]],[[2021,4.5],[2022,4.8],[2023,3.4],[2024,2.8],[2025,4.7],[2026,4]],[[2021,1.6],[2022,2.8],[2023,3.8],[2024,2.5],[2025,7.3],[2026,3.6]]],[null,19.2,18.8,6.9,16,13.9,18.4,8.4,21.2,17.3,17.1,19.1,16.7,15.5,18,20.5,17.8,16.6,13.1,19,24.1,14.9,15.3,16.8,23.7,25.6,19.4,21,16.1,19.1,15.4,19.7,10.3,20.5,22.4,22.9,18.8,15.6,19,21.8,15.5,18.5,35,-5.8],[-100,2.5,-1.6,-9.4,-6.3,-7.4,4.2,70.7,1.6,29.7,0,0.9,4.9,1.1,-3.7,16.7,-3.7,0.1,0,1.1,-15.8,-9.4,9.2,-1.1,1.1,7.3,-1.3,0,-2.9,-1.5,-1,0.5,-16,-9.5,-5.1,-4.6,-3.2,-8.2,-11.3,-2.3,-6.4,-3.7,-3.8,36.1],[null,8.6,-7,-33.3,24.2,-45.5,16.3,244.7,3.7,32.7,5.9,12.5,0.9,38.5,-20.7,20.8,12.9,6.4,40,-2.9,8.6,-25.7,72.7,76.5,0,3.3,7.7,-10,0,16.7,44.4,64.3,-42.7,5,109.4,29.2,51.4,3.7,3.5,-9.5,6.2,14.6,-11.1,125],[null,null,null,null,null,null,[{"name":"Hämeenlinnan lyseon lukio","score":56},{"name":"Hämeenlinnan lyseon lukion aikuislinja","score":53.2}],null,[{"name":"Kaurialan lukio","score":66.4}],null,null,null,null,null,null,null,null,null,null,[{"name":"Parolan lukio","score":60.6}],null,null,null,null,null,null,[{"name":"Janakkalan lukio","score":55.3}],null,null,null,null,null,null,null,null,null,null,null,null,null,null,[{"name":"Lammin lukio","score":57.5}],null,null],[[[2020,115.4],[2021,92.6],[2022,82.8],[2023,95.7],[2024,100.6],[2025,110.8]],[[2020,115.4],[2021,92.6],[2022,82.8],[2023,95.7],[2024,100.6],[2025,110.8]],[[2020,103.5],[2021,88],[2022,89.7],[2023,79.9],[2024,94.9],[2025,98.1]],[[2020,69.2],[2021,52.3],[2022,53.6],[2023,55.2],[2024,71.2],[2025,71.8]],[[2020,103.5],[2021,88],[2022,89.7],[2023,79.9],[2024,94.9],[2025,98.1]],[[2020,103.5],[2021,88],[2022,89.7],[2023,79.9],[2024,94.9],[2025,98.1]],[[2020,115.4],[2021,92.6],[2022,82.8],[2023,95.7],[2024,100.6],[2025,110.8]],[[2020,115.4],[2021,92.6],[2022,82.8],[2023,95.7],[2024,100.6],[2025,110.8]],[[2020,115.4],[2021,92.6],[2022,82.8],[2023,95.7],[2024,100.6],[2025,110.8]],[[2020,115.4],[2021,92.6],[2022,82.8],[2023,95.7],[2024,100.6],[2025,110.8]],[[2020,115.4],[2021,92.6],[2022,82.8],[2023,95.7],[2024,100.6],[2025,110.8]],[[2020,115.4],[2021,92.6],[2022,82.8],[2023,95.7],[2024,100.6],[2025,110.8]],[[2020,115.4],[2021,92.6],[2022,82.8],[2023,95.7],[2024,100.6],[2025,110.8]],[[2020,115.4],[2021,92.6],[2022,82.8],[2023,95.7],[2024,100.6],[2025,110.8]],[[2020,115.4],[2021,92.6],[2022,82.8],[2023,95.7],[2024,100.6],[2025,110.8]],[[2020,103.5],[2021,88],[2022,89.7],[2023,79.9],[2024,94.9],[2025,98.1]],[[2020,115.4],[2021,92.6],[2022,82.8],[2023,95.7],[2024,100.6],[2025,110.8]],[[2020,115.4],[2021,92.6],[2022,82.8],[2023,95.7],[2024,100.6],[2025,110.8]],[[2020,69.2],[2021,52.3],[2022,53.6],[2023,55.2],[2024,71.2],[2025,71.8]],[[2020,69.2],[2021,52.3],[2022,53.6],[2023,55.2],[2024,71.2],[2025,71.8]],[[2020,69.2],[2021,52.3],[2022,53.6],[2023,55.2],[2024,71.2],[2025,71.8]],[[2020,115.4],[2021,92.6],[2022,82.8],[2023,95.7],[2024,100.6],[2025,110.8]],[[2020,69.2],[2021,52.3],[2022,53.6],[2023,55.2],[2024,71.2],[2025,71.8]],[[2020,69.2],[2021,52.3],[2022,53.6],[2023,55.2],[2024,71.2],[2025,71.8]],[[2020,103.5],[2021,88],[2022,89.7],[2023,79.9],[2024,94.9],[2025,98.1]],[[2020,69.2],[2021,52.3],[2022,53.6],[2023,55.2],[2024,71.2],[2025,71.8]],[[2020,103.5],[2021,88],[2022,89.7],[2023,79.9],[2024,94.9],[2025,98.1]],[[2020,103.5],[2021,88],[2022,89.7],[2023,79.9],[2024,94.9],[2025,98.1]],[[2020,115.4],[2021,92.6],[2022,82.8],[2023,95.7],[2024,100.6],[2025,110.8]],[[2020,115.4],[2021,92.6],[2022,82.8],[2023,95.7],[2024,100.6],[2025,110.8]],[[2020,69.2],[2021,52.3],[2022,53.6],[2023,55.2],[2024,71.2],[2025,71.8]],[[2020,69.2],[2021,52.3],[2022,53.6],[2023,55.2],[2024,71.2],[2025,71.8]],[[2020,115.4],[2021,92.6],[2022,82.8],[2023,95.7],[2024,100.6],[2025,110.8]],[[2020,115.4],[2021,92.6],[2022,82.8],[2023,95.7],[2024,100.6],[2025,110.8]],[[2020,115.4],[2021,92.6],[2022,82.8],[2023,95.7],[2024,100.6],[2025,110.8]],[[2020,115.4],[2021,92.6],[2022,82.8],[2023,95.7],[2024,100.6],[2025,110.8]],[[2020,115.4],[2021,92.6],[2022,82.8],[2023,95.7],[2024,100.6],[2025,110.8]],[[2020,115.4],[2021,92.6],[2022,82.8],[2023,95.7],[2024,100.6],[2025,110.8]],[[2020,115.4],[2021,92.6],[2022,82.8],[2023,95.7],[2024,100.6],[2025,110.8]],[[2020,115.4],[2021,92.6],[2022,82.8],[2023,95.7],[2024,100.6],[2025,110.8]],[[2020,115.4],[2021,92.6],[2022,82.8],[2023,95.7],[2024,100.6],[2025,110.8]],[[2020,115.4],[2021,92.6],[2022,82.8],[2023,95.7],[2024,100.6],[2025,110.8]],[[2020,115.4],[2021,92.6],[2022,82.8],[2023,95.7],[2024,100.6],[2025,110.8]],[[2020,115.4],[2021,92.6],[2022,82.8],[2023,95.7],[2024,100.6],[2025,110.8]]],[-4,-4,-5.2,3.8,-5.2,-5.2,-4,-4,-4,-4,-4,-4,-4,-4,-4,-5.2,-4,-4,3.8,3.8,3.8,-4,3.8,3.8,-5.2,3.8,-5.2,-5.2,-4,-4,3.8,3.8,-4,-4,-4,-4,-4,-4,-4,-4,-4,-4,-4,-4],[107.6,107.6,106.3,93.4,106.3,106.3,107.6,107.6,107.6,107.6,107.6,107.6,107.6,107.6,107.6,106.3,107.6,107.6,93.4,93.4,93.4,107.6,93.4,93.4,106.3,93.4,106.3,106.3,107.6,107.6,93.4,93.4,107.6,107.6,107.6,107.6,107.6,107.6,107.6,107.6,107.6,107.6,107.6,107.6],[null,100,129,255,142,157,184,null,103,null,170,95,145,121,209,153,199,155,155,151,149,66,168,140,127,116,184,186,185,121,102,108,122,86,147,209,198,115,162,75,102,138,null,null],["Hämeenlinna","Hämeenlinna","Janakkala","Hattula","Janakkala","Janakkala","Hämeenlinna","Hämeenlinna","Hämeenlinna","Hämeenlinna","Hämeenlinna","Hämeenlinna","Hämeenlinna","Hämeenlinna","Hämeenlinna","Janakkala","Hämeenlinna","Hämeenlinna","Hattula","Hattula","Hattula","Hämeenlinna","Hattula","Hattula","Janakkala","Hattula","Janakkala","Janakkala","Hämeenlinna","Hämeenlinna","Hattula","Hattula","Hämeenlinna","Hämeenlinna","Hämeenlinna","Hämeenlinna","Hämeenlinna","Hämeenlinna","Hämeenlinna","Hämeenlinna","Hämeenlinna","Hämeenlinna","Hämeenlinna","Hämeenlinna"],[24.41309,24.42763,24.72045,24.14637,24.62163,24.50591,24.45547,24.49508,24.42223,24.47927,24.51371,24.47086,24.51524,24.55806,24.54049,24.60539,24.49737,24.33498,24.34984,24.32448,24.37963,24.06048,24.38294,24.44468,24.8887,24.34454,24.76047,24.51417,24.22119,24.00649,24.22943,24.3488,24.86777,24.43237,24.56986,24.59616,24.67051,24.82356,24.77589,24.7814,24.70802,24.99618,25.03934,25.16507],[60.98838,61.0168,60.85488,60.9511,60.81605,60.77119,60.99079,60.98073,60.99723,60.9979,61.01509,61.01263,60.98204,61.01683,60.9678,60.96359,60.95841,60.98163,61.03453,61.07224,61.07363,60.99084,61.12018,61.04956,60.87421,61.14026,60.9238,60.88302,60.85235,61.03973,61.05211,61.12357,61.09955,61.20463,61.26451,61.1909,61.07197,61.07505,61.15224,61.18493,61.28232,61.13724,61.16035,61.20296],[null,12.75,null,null,null,null,21.68,15.91,0.01,9.68,0.12,24.88,0,null,null,null,0.31,null,null,null,0.47,null,null,0.15,null,null,null,null,null,null,null,null,null,null,null,null,null,null,null,null,null,null,null,null],[3.3,3.3,-3.7,-2.6,-3.7,-3.7,3.3,3.3,3.3,3.3,3.3,3.3,3.3,3.3,3.3,-3.7,3.3,3.3,-2.6,-2.6,-2.6,3.3,-2.6,-2.6,-3.7,-2.6,-3.7,-3.7,3.3,3.3,-2.6,-2.6,3.3,3.3,3.3,3.3,3.3,3.3,3.3,3.3,3.3,3.3,3.3,3.3],[17,17,6.2,12.8,6.2,6.2,17,17,17,17,17,17,17,17,17,6.2,17,17,12.8,12.8,12.8,17,12.8,12.8,6.2,12.8,6.2,6.2,17,17,12.8,12.8,17,17,17,17,17,17,17,17,17,17,17,17],[null,1,null,null,null,null,null,1,null,null,null,null,null,null,null,null,1,null,null,null,null,null,null,null,null,null,3,1,null,null,null,null,null,null,null,null,null,null,null,null,null,1,null,null],[58.8,58.8,59,61.2,59,59,58.8,58.8,58.8,58.8,58.8,58.8,58.8,58.8,58.8,59,58.8,58.8,61.2,61.2,61.2,58.8,61.2,61.2,59,61.2,59,59,58.8,58.8,61.2,61.2,58.8,58.8,58.8,58.8,58.8,58.8,58.8,58.8,58.8,58.8,58.8,58.8],[23.3,23.3,18.3,23.2,18.3,18.3,23.3,23.3,23.3,23.3,23.3,23.3,23.3,23.3,23.3,18.3,23.3,23.3,23.2,23.2,23.2,23.3,23.2,23.2,18.3,23.2,18.3,18.3,23.3,23.3,23.2,23.2,23.3,23.3,23.3,23.3,23.3,23.3,23.3,23.3,23.3,23.3,23.3,23.3],[24.4,24.4,24.6,21.9,24.6,24.6,24.4,24.4,24.4,24.4,24.4,24.4,24.4,24.4,24.4,24.6,24.4,24.4,21.9,21.9,21.9,24.4,21.9,21.9,24.6,21.9,24.6,24.6,24.4,24.4,21.9,21.9,24.4,24.4,24.4,24.4,24.4,24.4,24.4,24.4,24.4,24.4,24.4,24.4],[22.5,22.5,25,26.3,25,25,22.5,22.5,22.5,22.5,22.5,22.5,22.5,22.5,22.5,25,22.5,22.5,26.3,26.3,26.3,22.5,26.3,26.3,25,26.3,25,25,22.5,22.5,26.3,26.3,22.5,22.5,22.5,22.5,22.5,22.5,22.5,22.5,22.5,22.5,22.5,22.5],[6.4,6.4,10.1,8.4,10.1,10.1,6.4,6.4,6.4,6.4,6.4,6.4,6.4,6.4,6.4,10.1,6.4,6.4,8.4,8.4,8.4,6.4,8.4,8.4,10.1,8.4,10.1,10.1,6.4,6.4,8.4,8.4,6.4,6.4,6.4,6.4,6.4,6.4,6.4,6.4,6.4,6.4,6.4,6.4],[6.3,6.3,4.8,4.6,4.8,4.8,6.3,6.3,6.3,6.3,6.3,6.3,6.3,6.3,6.3,4.8,6.3,6.3,4.6,4.6,4.6,6.3,4.6,4.6,4.8,4.6,4.8,4.8,6.3,6.3,4.6,4.6,6.3,6.3,6.3,6.3,6.3,6.3,6.3,6.3,6.3,6.3,6.3,6.3],[5.7,5.7,5.5,4.6,5.5,5.5,5.7,5.7,5.7,5.7,5.7,5.7,5.7,5.7,5.7,5.5,5.7,5.7,4.6,4.6,4.6,5.7,4.6,4.6,5.5,4.6,5.5,5.5,5.7,5.7,4.6,4.6,5.7,5.7,5.7,5.7,5.7,5.7,5.7,5.7,5.7,5.7,5.7,5.7],[0.3,0.3,0.2,0.2,0.2,0.2,0.3,0.3,0.3,0.3,0.3,0.3,0.3,0.3,0.3,0.2,0.3,0.3,0.2,0.2,0.2,0.3,0.2,0.2,0.2,0.2,0.2,0.2,0.3,0.3,0.2,0.2,0.3,0.3,0.3,0.3,0.3,0.3,0.3,0.3,0.3,0.3,0.3,0.3],[8.3,8.3,4.2,2.6,4.2,4.2,8.3,8.3,8.3,8.3,8.3,8.3,8.3,8.3,8.3,4.2,8.3,8.3,2.6,2.6,2.6,8.3,2.6,2.6,4.2,2.6,4.2,4.2,8.3,8.3,2.6,2.6,8.3,8.3,8.3,8.3,8.3,8.3,8.3,8.3,8.3,8.3,8.3,8.3],[[[2020,0],[2021,0],[2022,0],[2023,0],[2024,0],[2025,0]],[[2020,6.7],[2021,6.8],[2022,7.5],[2023,8.6],[2024,9.7],[2025,10.5]],[[2020,3],[2021,3.3],[2022,3.4],[2023,3.8],[2024,4.2],[2025,4.2]],[[2020,0],[2021,0],[2022,0],[2023,0],[2024,0],[2025,0]],[[2020,2.3],[2021,2.5],[2022,2.6],[2023,2.9],[2024,3.2],[2025,3.2]],[[2020,1.1],[2021,1.2],[2022,1.2],[2023,1.4],[2024,1.5],[2025,1.5]],[[2020,6.1],[2021,6.2],[2022,6.8],[2023,7.8],[2024,8.9],[2025,9.6]],[[2020,1.7],[2021,1.7],[2022,1.9],[2023,2.2],[2024,2.5],[2025,2.7]],[[2020,3.7],[2021,3.8],[2022,4.1],[2023,4.7],[2024,5.4],[2025,5.8]],[[2020,3.9],[2021,4],[2022,4.3],[2023,5],[2024,5.7],[2025,6.1]],[[2020,6.7],[2021,6.8],[2022,7.5],[2023,8.6],[2024,9.7],[2025,10.5]],[[2020,2.9],[2021,3],[2022,3.2],[2023,3.7],[2024,4.2],[2025,4.5]],[[2020,22.7],[2021,23.1],[2022,25.3],[2023,29.1],[2024,33],[2025,35.5]],[[2020,3.3],[2021,3.4],[2022,3.7],[2023,4.2],[2024,4.8],[2025,5.2]],[[2020,3.4],[2021,3.5],[2022,3.8],[2023,4.4],[2024,4.9],[2025,5.3]],[[2020,1.6],[2021,1.8],[2022,1.8],[2023,2],[2024,2.2],[2025,2.2]],[[2020,3.7],[2021,3.8],[2022,4.1],[2023,4.7],[2024,5.4],[2025,5.8]],[[2020,7.2],[2021,7.3],[2022,8],[2023,9.2],[2024,10.5],[2025,11.3]],[[2020,1.5],[2021,1.5],[2022,1.6],[2023,1.9],[2024,2],[2025,2]],[[2020,2.2],[2021,2.2],[2022,2.3],[2023,2.8],[2024,3],[2025,2.9]],[[2020,2.4],[2021,2.4],[2022,2.5],[2023,3],[2024,3.2],[2025,3.1]],[[2020,0.8],[2021,0.8],[2022,0.9],[2023,1],[2024,1.2],[2025,1.3]],[[2020,2],[2021,2],[2022,2.1],[2023,2.5],[2024,2.7],[2025,2.6]],[[2020,0.9],[2021,0.9],[2022,0.9],[2023,1.1],[2024,1.2],[2025,1.2]],[[2020,1.1],[2021,1.2],[2022,1.2],[2023,1.4],[2024,1.5],[2025,1.5]],[[2020,0.7],[2021,0.7],[2022,0.7],[2023,0.9],[2024,0.9],[2025,0.9]],[[2020,3.7],[2021,4.1],[2022,4.2],[2023,4.7],[2024,5.2],[2025,5.2]],[[2020,1.3],[2021,1.4],[2022,1.5],[2023,1.6],[2024,1.8],[2025,1.8]],[[2020,2.7],[2021,2.8],[2022,3],[2023,3.5],[2024,3.9],[2025,4.2]],[[2020,2.3],[2021,2.3],[2022,2.6],[2023,3],[2024,3.3],[2025,3.6]],[[2020,1.9],[2021,1.9],[2022,2],[2023,2.4],[2024,2.6],[2025,2.5]],[[2020,1.9],[2021,1.9],[2022,2],[2023,2.4],[2024,2.6],[2025,2.5]],[[2020,1.1],[2021,1.1],[2022,1.2],[2023,1.4],[2024,1.6],[2025,1.7]],[[2020,1.7],[2021,1.7],[2022,1.9],[2023,2.2],[2024,2.5],[2025,2.7]],[[2020,0.6],[2021,0.6],[2022,0.7],[2023,0.8],[2024,0.9],[2025,0.9]],[[2020,2.6],[2021,2.6],[2022,2.9],[2023,3.3],[2024,3.8],[2025,4.1]],[[2020,2.2],[2021,2.2],[2022,2.4],[2023,2.8],[2024,3.2],[2025,3.4]],[[2020,3.7],[2021,3.8],[2022,4.1],[2023,4.7],[2024,5.4],[2025,5.8]],[[2020,3.5],[2021,3.6],[2022,3.9],[2023,4.5],[2024,5.1],[2025,5.5]],[[2020,2.8],[2021,2.9],[2022,3.1],[2023,3.6],[2024,4.1],[2025,4.4]],[[2020,0],[2021,0],[2022,0],[2023,0],[2024,0],[2025,0]],[[2020,3.2],[2021,3.3],[2022,3.6],[2023,4.1],[2024,4.6],[2025,5]],[[2020,1.4],[2021,1.4],[2022,1.6],[2023,1.8],[2024,2],[2025,2.2]],[[2020,1.4],[2021,1.4],[2022,1.6],[2023,1.8],[2024,2],[2025,2.2]]],[0,10.5,4.2,0,3.2,1.5,9.6,2.7,5.8,6.1,10.5,4.5,35.5,5.2,5.3,2.2,5.8,11.3,2,2.9,3.1,1.3,2.6,1.2,1.5,0.9,5.2,1.8,4.2,3.6,2.5,2.5,1.7,2.7,0.9,4.1,3.4,5.8,5.5,4.4,0,5,2.2,2.2],[null,17.4,15.5,22.8,15.2,16.1,20.1,26.8,18.1,18.6,16.6,13.3,29.5,10.6,11.7,9,13.5,15.4,14.5,13.4,13,30.1,15.5,16.9,17.1,24.1,16.1,14.9,18.7,16.8,17.8,25.9,21,19.6,26.1,20.9,17.6,19.9,22.1,25.4,27.4,21.2,15.9,66.2],[null,75.5,33.6,8.7,58.5,34.8,151.4,835.9,149.7,178.9,54,27.1,142.8,21.6,85.9,30.7,266.4,32.9,425.7,58.1,46.6,16.7,24.2,22.9,28,18.5,86.5,32.5,41.4,53.7,19.8,52.7,166.3,34.6,44.4,68.5,20.1,57.3,26.4,28.8,40.6,60.3,38.1,171.4],[6.9,6.9,7.5,3.9,7.5,7.5,6.9,6.9,6.9,6.9,6.9,6.9,6.9,6.9,6.9,7.5,6.9,6.9,3.9,3.9,3.9,6.9,3.9,3.9,7.5,3.9,7.5,7.5,6.9,6.9,3.9,3.9,6.9,6.9,6.9,6.9,6.9,6.9,6.9,6.9,6.9,6.9,6.9,6.9],[43.4,43.4,31.8,16.6,31.8,31.8,43.4,43.4,43.4,43.4,43.4,43.4,43.4,43.4,43.4,31.8,43.4,43.4,16.6,16.6,16.6,43.4,16.6,16.6,31.8,16.6,31.8,31.8,43.4,43.4,16.6,16.6,43.4,43.4,43.4,43.4,43.4,43.4,43.4,43.4,43.4,43.4,43.4,43.4],[0,3,0,0,3,0,12,0,3,1,5,0,0,0,1,0,0,1,0,2,0,0,0,0,0,0,4,0,1,1,0,1,1,1,0,1,1,0,0,0,0,2,0,0],[2,1,0,0,3,0,12,0,2,2,5,0,0,0,0,0,0,2,1,4,0,0,1,0,0,0,3,0,0,2,0,0,1,0,0,1,0,0,0,0,0,2,0,0],[1,2,2,0,4,1,8,0,6,1,5,3,0,3,1,2,1,8,1,5,0,0,0,1,0,0,9,2,1,1,0,1,0,1,0,1,1,1,0,0,0,3,0,1],[0,2,0,0,2,0,3,0,1,1,3,1,1,0,2,0,1,3,0,1,0,0,1,0,0,0,4,0,0,0,0,0,0,0,0,0,1,0,0,0,0,0,0,0],[0,4,0,0,11,0,75,2,19,9,10,6,2,1,0,0,3,3,5,8,0,0,0,4,0,0,8,0,3,3,0,3,4,1,0,3,1,0,0,0,1,6,0,2],[null,[[2020,1259],[2021,1481],[2022,1548],[2023,1133],[2024,1356],[2025,1313]],null,null,[[2020,1118],[2021,1212],[2022,1181],[2023,1464],[2024,1330],[2025,1150]],null,[[2020,2123],[2021,2227],[2022,2243],[2023,2225],[2024,2135],[2025,2164]],null,[[2020,1721],[2021,1886],[2022,1916],[2023,1843],[2024,1743],[2025,1716]],[[2020,2139],[2021,2153],[2022,2574],[2023,2231],[2024,2121],[2025,2090]],[[2020,1686],[2021,1777],[2022,1764],[2023,1714],[2024,1665],[2025,1615]],[[2020,2692],[2021,2615],[2022,2675],[2023,2376],[2024,1657],[2025,2641]],[[2021,1433],[2022,1599],[2025,985]],[[2020,1970],[2021,2319],[2022,2302],[2023,2109],[2024,2276],[2025,2284]],[[2020,1831],[2021,1772],[2022,2000],[2023,1780],[2024,1835],[2025,1864]],null,null,[[2020,1646],[2021,1659],[2022,1748],[2023,1753],[2024,1871],[2025,1260]],null,[[2020,1512],[2021,1689],[2022,1688],[2023,1795],[2024,1566],[2025,1451]],[[2022,1569],[2023,1681],[2024,1645]],null,[[2020,1822],[2021,1806],[2022,1526],[2024,1737],[2025,1755]],null,null,null,[[2020,1326],[2021,1376],[2022,1330],[2023,1417],[2024,1260],[2025,1267]],null,[[2020,1131],[2021,1196]],[[2021,1444],[2022,1592],[2023,1447],[2024,952],[2025,1123]],null,null,null,null,null,[[2020,871],[2021,936],[2022,875],[2023,1011],[2025,743]],null,null,null,null,null,[[2020,1041],[2021,1096],[2022,932],[2023,1155],[2024,883],[2025,909]],null,null]]}}