{"type":"Topology","objects":{"neighborhoods":{"type":"GeometryCollection","geometries":[{"type":"MultiPolygon","arcs":[[[0,1,2]]],"properties":{"i":0}},{"type":"MultiPolygon","arcs":[[[3,4]]],"properties":{"i":1}},{"type":"MultiPolygon","arcs":[[[5,6]]],"properties":{"i":2}},{"type":"MultiPolygon","arcs":[[[-6,7,8,-3,9,-5,10]]],"properties":{"i":3}},{"type":"MultiPolygon","arcs":[[[11,12,13,-1,-9,14,15],[16]]],"properties":{"i":4}},{"type":"MultiPolygon","arcs":[[[17,18,19,20,-13]]],"properties":{"i":5}},{"type":"MultiPolygon","arcs":[[[-17]]],"properties":{"i":6}},{"type":"MultiPolygon","arcs":[[[21,-18,-12]]],"properties":{"i":7}},{"type":"MultiPolygon","arcs":[[[-19,-22,-16,22,23]]],"properties":{"i":8}},{"type":"MultiPolygon","arcs":[[[-20,-24,24]]],"properties":{"i":9}}]}},"arcs":[[[29521,30989],[1578,-460],[4224,-2724],[1152,-799],[1190,-1276],[5890,-3498],[1516,-3804]],[[45071,18428],[-1072,-761],[-1187,-2434],[-74,-562],[912,-1552],[-894,61],[-2292,255],[-1866,284],[-1163,-53],[-3383,1132],[-775,-875],[-1284,-2383],[1201,-2305],[385,-798],[1284,-1026],[1580,-1727],[298,-326],[-122,-68],[-1125,-633],[-3459,-1084],[-7324,-597],[330,-668],[-363,-71],[-1443,5],[-2026,-900],[-1088,-247],[-815,-185],[-2855,308],[-250,-1018],[-322,-200],[-600,1555],[-439,2070],[-862,343],[162,534],[693,412],[183,297],[7,168],[-120,2230],[268,1815],[299,217],[1873,1366],[769,2519],[-841,716],[23,395],[-257,358],[-400,343],[-429,171],[-70,-31],[-933,202],[-1226,-426],[-2325,-1301],[-688,-986],[0,2],[-436,460],[-311,370],[-304,341],[204,1915],[180,2601],[-560,3864],[2951,4480],[931,3641]],[[13621,30641],[6072,1795],[1005,-259],[556,-342],[2318,-721],[958,-684],[3301,-362],[1690,921]],[[8651,37117],[-4872,4801],[-1730,1488],[-238,940],[1479,2119],[1931,2140]],[[5221,48605],[2826,-471],[1640,-886],[1725,-736],[3808,-2239],[1609,-1107],[97,-987],[-475,-1963],[-2217,-992],[-4913,-380],[-670,-1727]],[[28962,50409],[-2198,-3920],[-819,-3050],[-2680,-1252],[-2566,1104],[-2238,253],[-1208,2778],[-121,250],[-859,455],[-1040,629],[-1231,1174],[-440,237],[-589,295],[21,442],[408,174],[-3,657],[-69,215],[-713,917],[-1668,2888]],[[10949,54655],[782,-1],[1412,-136],[961,182],[5191,-255],[5612,-1713],[4055,-2323]],[[28962,50409],[1380,-8],[4091,-1858]],[[34433,48543],[163,-1513],[-201,-2700],[127,-4014],[-674,-800],[495,-3454],[-191,-2048],[124,-1040],[-594,-27],[-986,-161],[-772,-198],[-1286,-762],[-1117,-837]],[[13621,30641],[-32,32],[-3177,4140],[-1761,2304]],[[5221,48605],[-3,90],[-1051,3632],[107,584],[-58,309],[-495,678],[-275,787],[-280,530],[-1444,516],[-1722,2057],[308,-3],[938,-10],[1398,12],[413,50],[414,22],[527,-31],[1437,-609],[1046,-7],[578,-99],[925,-475],[1546,-619],[600,-319],[819,-1045]],[[53780,61633],[-1546,-399],[-1989,-1733],[-1654,-1643],[1008,-1123],[1061,-1929],[823,-2684],[1905,-2696],[614,-800],[1205,-3574],[1223,-134],[719,-1366],[471,-308],[496,-284],[323,-227],[152,4],[679,182],[57,16],[94,38],[81,49],[124,138],[400,806],[50,663],[63,414],[309,263],[6,218],[-338,74],[16,355],[-32,294],[-37,158],[-53,206],[-232,417],[185,265],[128,153],[41,53],[859,664],[140,169],[129,122],[473,266],[1099,1125],[852,957],[1283,-221],[1769,416],[472,-479],[929,440],[1957,670]],[[70094,51628],[-162,-821],[816,-2538],[1194,-1282],[1388,685],[2021,1663],[1314,1047],[601,571],[220,575],[382,518],[3084,-839],[485,-422],[497,-100],[865,62]],[[82799,50747],[30,-8],[401,-107],[1254,87],[134,24],[65,11],[111,-9],[39,0],[273,32],[723,-146],[640,-129],[50,-10],[1661,-3035],[2989,-1281],[5940,-2354],[1323,-5583],[758,-3203],[809,-2706],[-160,-1874],[-1951,-4468],[-111,-255],[-5396,-5081],[-470,-444],[-1064,-1531],[-676,-1381],[-4979,846],[-1347,-662],[-1434,-467],[-702,-229],[-812,-481],[-2957,-2268],[-482,-136],[-1224,-415],[-2317,-1810],[-2905,3321],[-368,326],[-175,155],[-735,192],[-820,-111],[-271,-119],[-97,-43],[-1063,-475],[-755,-895],[-451,-1447],[-370,-651],[-1651,-297],[-1469,201],[-681,158],[-815,156],[-746,789],[-2617,1629],[-664,239],[-223,-187],[-200,273],[-248,678],[246,184],[-126,369],[6,956],[-1042,263],[-691,-1186],[-2837,-1213],[-2471,-256],[-1917,258],[-1778,-207],[-1377,411],[322,622],[1599,791],[115,979],[-1571,891]],[[34433,48543],[786,1158],[-2587,5332],[174,2438],[-1093,1494],[-2298,6071],[367,2054],[-794,3109],[-1557,2369],[-139,210],[600,663],[1220,1349]],[[29112,74790],[2205,-1838],[6015,-3080],[1053,-88],[727,-214],[2037,-118],[1515,-1025],[1782,-919],[1128,-1172],[1518,-846],[492,-381],[469,147],[164,-110],[90,-78],[901,-533],[1120,-190],[1342,-1134],[1136,-638],[974,-940]],[[65985,27610],[2032,-1466],[654,205],[459,1507],[-1142,1483],[-273,512],[1,2],[-354,1131],[-159,383],[-477,508],[-35,96],[-928,1257],[-723,799],[-776,234],[-610,291],[-201,285],[-9,7],[-254,145],[-1439,175],[-1698,-1643],[28,-515],[-86,-835],[-45,-1332],[138,-399],[1607,-952],[3362,-1341],[928,-537]],[[70094,51628],[0,1],[-742,918],[-655,1445],[41,1536],[-88,776],[-1497,908]],[[67153,57212],[-166,1150],[-458,1553],[-697,1918],[-255,1447],[-823,773],[-2219,1285]],[[62535,65338],[2229,260],[1347,264],[-261,971],[646,939],[2044,1197],[849,887]],[[69389,69856],[1026,-1049],[2600,-1305],[1020,-706],[91,-99],[143,-222],[139,-112],[1274,-218],[392,-726],[351,-519],[132,-319],[239,-1310],[69,-738],[-620,-640],[-254,-262],[-406,-164],[-1400,-565],[24,-317],[4,-61],[260,-3506],[309,-2065],[-1,-41],[374,-1063],[701,-302],[517,168],[54,18],[1032,533],[510,175],[535,183],[310,194],[85,53],[174,106],[43,26],[454,170],[8,-3],[247,-1161],[38,-178],[273,-447],[524,-388],[111,-40],[704,-277],[437,-172],[806,-186],[959,-83],[339,-476],[-775,-480],[-421,-509],[-21,-26]],[[53780,61633],[694,-1587],[-16,-1140],[2055,-895],[719,-190],[58,-182],[146,-204],[437,-627],[140,-223],[191,-177],[429,-261],[184,-25],[1869,-184],[627,19],[915,245],[2289,1315],[1547,-63],[936,-242],[153,0]],[[29112,74790],[1826,999]],[[30938,75789],[4429,284],[3440,318],[1041,-493],[770,-1575],[1212,-540],[1049,-545],[8422,-5547],[2999,-1493],[4062,-740],[3185,634],[498,-76],[490,-678]],[[30938,75789],[-1639,1044],[-1863,2305],[-1818,798],[2394,3473],[1212,4352],[426,921],[1818,957],[287,1284],[36,1809],[315,740],[723,641],[41,797],[89,1724],[1639,-18],[447,-5],[5104,-872],[3365,-87],[3328,-175],[1708,849],[4146,3673],[3742,-219],[411,-1393],[1986,-2546],[1449,-1568],[254,-515],[169,-920],[293,-155],[281,-1555],[461,-893],[108,-211],[2548,-168],[605,-40],[205,-77],[1208,-452],[2201,-33],[1750,-28],[25,0],[-54,-380],[5,-64],[57,-744],[79,-299],[321,-605],[403,-551],[446,-182],[231,-195],[493,-416],[375,-1048],[491,-1375],[-681,-1023],[-515,-996],[-576,-734],[-2266,-2502],[-1559,-1341],[1580,-1698],[262,-451],[-9,-6],[64,-354],[293,-1623],[-443,-2783]]],"bbox":[24.604439664872075,61.63732437959408,25.574347967931278,62.215766406933355],"transform":{"scale":[0.000009699180022392252,0.000005784478118173964],"translate":[24.604439664872075,61.63732437959408]},"propertiesColumnar":{"format":"columnar/1","keys":["id","postinumeroalue","nimi","namn","euref_x","euref_y","pinta_ala","vuosi","kunta","he_vakiy","he_naiset","he_miehet","he_kika","he_0_2","he_3_6","he_7_12","he_13_15","he_16_17","he_18_19","he_20_24","he_25_29","he_30_34","he_35_39","he_40_44","he_45_49","he_50_54","he_55_59","he_60_64","he_65_69","he_70_74","he_75_79","he_80_84","he_85_","ko_ika18y","ko_perus","ko_koul","ko_yliop","ko_ammat","ko_al_kork","ko_yl_kork","hr_tuy","hr_ktu","hr_mtu","hr_pi_tul","hr_ke_tul","hr_hy_tul","hr_ovy","te_taly","te_takk","te_as_valj","te_yks","te_nuor","te_eil_np","te_laps","te_plap","te_aklap","te_klap","te_teini","te_yhlap","te_aik","te_elak","te_omis_as","te_vuok_as","te_muu_as","tr_kuty","tr_ktu","tr_mtu","tr_pi_tul","tr_ke_tul","tr_hy_tul","tr_ovy","ra_ke","ra_raky","ra_muut","ra_asrak","ra_asunn","ra_as_kpa","ra_pt_as","ra_kt_as","ra_muu_as","tp_tyopy","tp_alku_a","tp_jalo_bf","tp_palv_gu","tp_a_maat","tp_b_kaiv","tp_c_teol","tp_d_ener","tp_e_vesi","tp_f_rake","tp_g_kaup","tp_h_kulj","tp_i_majo","tp_j_info","tp_k_raho","tp_l_kiin","tp_m_erik","tp_n_hall","tp_o_julk","tp_p_koul","tp_q_terv","tp_r_taid","tp_s_muup","tp_t_koti","tp_u_kans","tp_x_tunt","pt_vakiy","pt_tyoll","pt_tyott","pt_0_14","pt_opisk","pt_elakel","pt_muut","city","pno","unemployment_rate","higher_education_rate","pensioner_share","ownership_rate","rental_rate","population_density","child_ratio","student_share","detached_house_share","youth_ratio_pct","gender_ratio","single_parent_hh_pct","families_with_children_pct","tech_sector_pct","healthcare_workers_pct","employment_rate","elderly_ratio_pct","avg_household_size","manufacturing_jobs_pct","public_sector_jobs_pct","service_sector_jobs_pct","new_construction_pct","foreign_language_pct","crime_index","property_price_sqm","transit_stop_density","air_quality_index","daycare_density","school_density","healthcare_density","restaurant_density","grocery_density","cycling_density","single_person_hh_pct","rental_price_sqm","price_to_rent_ratio","walkability_index","traffic_accident_rate","property_price_change_pct","school_quality_score","light_pollution","noise_pollution","voter_turnout_pct","party_diversity_index","broadband_coverage_pct","ev_charging_density","tree_canopy_pct","transit_reachability_score","sports_facility_density","water_proximity_m","avg_construction_year","income_history","population_history","unemployment_history","income_change_pct","population_change_pct","unemployment_change_pct","schools","crime_index_history","crime_index_change_pct","health_index","radon","municipality","lon","lat","flood_risk_pct","population_projection_pct","construction_activity","active_plan_count","political_lean_index","party_vote_kok_pct","party_vote_sdp_pct","party_vote_ps_pct","party_vote_kesk_pct","party_vote_vihr_pct","party_vote_vas_pct","party_vote_rkp_pct","foreign_language_municipal_pct","foreign_language_history","foreign_language_est_pct","low_income_pct","job_self_sufficiency","violent_crime_rate","property_crime_rate","grocery_count","healthcare_count","school_count","daycare_count","restaurant_count","property_price_history"],"cols":[[1038,1047,1048,1046,1260,1261,1262,1263,1264,1265],["35400","35610","35630","35600","42100","42140","42220","42300","42330","42440"],["Länkipohja","Pihlaisto","Suinula-Valkamanperä","Halli","Jämsä Keskus","Juokslahti","Kaipola","Jämsänkoski Keskus","Haavisto","Koskenpää"],["Länkipohja","Pihlaisto","Suinula-Valkamanperä","Halli","Jämsä centrum","Juokslahti","Kaipola","Jämsänkoski centrum","Haavisto","Koskenpää"],[387525,379086,384460,383113,413848,411697,406738,405065,400049,400310],[6846386,6863591,6867181,6860741,6863109,6872118,6855207,6868790,6877895,6888408],[232898412,33007361,43895998,131720168,773203399,58453393,14348463,58583063,70350932,331081423],[2026,2026,2026,2026,2026,2026,2026,2026,2026,2026],["182","182","182","182","182","182","182","182","182","182"],[781,67,143,1177,9428,275,865,4859,345,555],[364,32,67,578,4786,126,409,2435,170,240],[417,35,76,599,4642,149,456,2424,175,315],[56,52,55,56,51,45,50,52,48,54],[8,0,1,25,135,9,12,56,3,9],[13,0,6,17,227,13,26,101,8,13],[28,5,4,39,472,26,51,241,32,29],[22,3,5,32,319,9,44,162,8,12],[12,2,1,18,207,6,21,105,10,13],[11,1,6,16,183,2,12,98,6,6],[17,4,1,23,330,0,20,160,7,13],[18,0,3,34,413,7,31,164,6,12],[28,2,2,30,421,16,19,198,11,21],[28,0,2,41,422,16,28,202,16,17],[47,4,11,57,465,21,65,264,22,30],[33,4,10,64,554,23,71,289,23,27],[46,6,7,71,510,16,50,319,33,35],[69,5,13,70,708,17,72,361,45,45],[69,7,13,113,781,18,68,401,43,50],[78,4,8,129,842,25,71,435,22,59],[87,11,15,132,750,20,69,409,21,52],[81,4,17,143,780,15,63,423,18,51],[47,4,7,70,450,9,31,232,6,34],[39,1,11,53,459,7,41,239,5,27],[698,57,126,1046,8068,212,711,4194,284,479],[197,17,39,246,1877,32,171,1055,34,106],[501,40,87,800,6191,180,540,3139,250,373],[10,2,5,25,217,8,15,90,12,15],[341,30,54,480,3766,106,376,2127,144,249],[105,6,19,232,1710,45,116,725,75,91],[45,2,9,63,498,21,33,197,19,18],[698,57,126,1046,8068,212,711,4194,284,479],[26442,27753,28149,27497,27320,32146,26525,25888,31684,25873],[21989,23823,22842,23841,24835,29092,25597,24548,29371,22596],[175,11,28,203,1632,34,150,870,43,135],[434,36,81,715,5248,131,473,2840,177,276],[89,10,17,128,1188,47,88,484,64,68],[18456685,1581910,3546792,28761906,220419821,6814864,18859170,108573400,8998150,12393395],[452,35,76,688,5226,121,443,2655,153,300],[1.7,1.9,1.9,1.7,1.8,2.3,2,1.8,2.3,1.9],[53.2,52.5,52.6,52.1,47.4,49.5,44.1,46.5,54.6,51.2],[233,15,27,356,2625,38,185,1321,36,147],[24,2,1,40,437,3,18,183,2,10],[6,0,0,4,120,2,3,40,1,0],[48,6,12,70,753,34,79,378,33,39],[8,0,1,20,124,8,11,49,3,8],[15,0,5,29,270,14,29,113,9,16],[21,5,3,32,334,17,41,181,23,22],[25,4,6,36,372,13,49,196,15,19],[9,3,4,17,198,6,25,102,4,9],[162,13,26,250,2083,34,168,1064,69,98],[243,16,39,371,2413,55,200,1222,51,166],[344,30,68,546,3674,114,356,1961,152,242],[100,3,6,137,1480,4,81,661,0,50],[8,2,2,5,72,3,6,33,1,8],[452,35,76,688,5226,121,443,2655,153,300],[40428,45516,46954,41465,42157,56572,43038,40114,59587,41548],[31387,36840,38508,34995,34328,50665,37345,34082,55366,33074],[153,11,19,184,1467,17,103,748,21,98],[248,19,45,427,3105,81,292,1647,93,167],[51,5,12,77,654,23,48,260,39,35],[18273279,1593064,3568522,28528253,220313790,6845183,19065945,106503529,9116872,12464470],[663,49,100,271,2091,151,3,110,159,509],[567,64,127,677,3746,177,432,2070,225,429],[78,2,21,136,587,25,72,254,32,51],[489,62,106,541,3159,152,360,1816,193,378],[635,47,100,883,6090,151,630,3213,185,422],[85,98.1,96.2,84,82.7,108,79.9,79.7,119,88.6],[508,47,94,743,3791,143,382,2250,181,387],[84,0,0,110,2200,3,242,933,2,15],[43,0,6,30,99,5,6,30,2,20],[197,12,14,928,3503,47,95,1464,9,58],[27,1,5,9,135,6,7,12,null,18],[93,3,3,788,518,3,30,691,null,14],[77,8,6,131,2850,38,58,761,null,26],[27,1,5,9,135,6,7,12,null,18],[0,0,0,0,2,0,0,6,null,0],[84,0,0,765,255,1,13,597,null,6],[0,0,0,9,7,0,0,1,null,1],[0,0,0,2,12,0,0,27,null,1],[9,3,3,12,242,2,17,60,null,6],[16,0,1,18,485,13,2,140,null,7],[11,8,0,9,135,0,9,89,null,4],[8,0,0,7,186,9,1,18,null,2],[7,0,0,4,14,0,0,0,null,0],[0,0,0,0,34,0,0,0,null,0],[0,0,1,0,69,3,1,2,null,0],[7,0,1,8,164,0,4,20,null,0],[0,0,0,3,212,3,8,11,null,1],[0,0,0,2,184,0,0,4,null,3],[4,0,2,20,220,7,10,155,null,7],[20,0,0,51,924,1,19,281,null,0],[1,0,0,1,110,0,0,18,null,1],[3,0,1,8,113,2,4,21,null,1],[0,0,0,0,0,0,0,2,null,0],[0,0,0,0,0,0,0,0,null,0],[0,0,0,0,0,0,0,0,null,0],[781,67,143,1177,9428,275,865,4859,345,555],[265,26,52,385,3503,109,324,1689,170,178],[38,2,6,57,562,10,55,328,16,33],[63,7,14,104,1042,55,117,497,50,58],[32,5,6,50,497,12,50,276,20,31],[355,26,63,557,3531,81,294,1895,84,234],[28,1,2,24,293,8,25,174,5,21],["jamsa","jamsa","jamsa","jamsa","jamsa","jamsa","jamsa","jamsa","jamsa","jamsa"],["35400","35610","35630","35600","42100","42140","42220","42300","42330","42440"],[4.9,3,4.2,4.8,6,3.6,6.4,6.8,4.6,5.9],[21.5,14,22.2,28.2,27.4,31.1,21,22,33.1,22.8],[45.5,38.8,44.1,47.3,37.5,29.5,34,39,24.3,42.2],[76.1,85.7,89.5,79.4,70.3,94.2,80.4,73.9,99.3,80.7],[22.1,8.6,7.9,19.9,28.3,3.3,18.3,24.9,0,16.7],[3,2,3,9,12,5,60,83,5,2],[2.7,0,4.9,3.6,3.8,8,4.4,3.2,3.2,4],[4.1,7.5,4.2,4.2,5.3,4.4,5.8,5.7,5.8,5.6],[80,100,94,84.1,62.2,94.7,60.6,70,97.8,91.7],[5.9,7.5,7,6.2,9.8,3.3,7.3,8.7,5.5,5.6],[0.87,0.91,0.88,0.96,1.03,0.85,0.9,1,0.97,0.76],[1.3,0,0,0.6,2.3,1.7,0.7,1.5,0.7,0],[10.6,17.1,15.8,10.2,14.4,28.1,17.8,14.2,21.6,13],[3.6,0,0,0.4,0.4,0,0,0,null,0],[10.2,0,0,5.5,26.4,2.1,20,19.2,null,0],[33.9,38.8,36.4,32.7,37.2,39.6,37.5,34.8,49.3,32.1],[42.5,35.8,40.6,44.8,34.8,27.6,31.8,35.8,20.9,40.2],[1.73,1.91,1.88,1.71,1.8,2.27,1.95,1.83,2.25,1.85],[47.2,25,21.4,84.9,14.8,6.4,31.6,47.2,null,24.1],[0,0,0,0.2,5.3,0,0,0.3,null,5.2],[39.1,66.7,42.9,14.1,81.4,80.9,61.1,52,null,44.8],[89.3,136.2,127,76.7,61.5,117.2,68.6,64.4,121.6,101.7],[1.1,1.3,0.6,2,2.7,2.8,1.7,2.1,0.3,1.8],[113.3,113.3,113.3,113.3,113.3,113.3,113.3,113.3,113.3,113.3],[null,null,null,711,857,null,615,654,null,null],[0.2,0,0.5,0.4,0.3,0.3,1.6,1.4,0.2,0.3],[23.5,23.1,23.5,23.5,23.2,23.6,23.2,23.5,23.6,23.6],[0,0,0,0.0076,0.0026,0,0.0697,0.0341,0,0],[0.0043,0,0,0.0076,0.0091,0.0171,0.0697,0.0512,0,0.003],[0.0043,0,0,0.0228,0.0078,0,0,0.0341,0,0],[0.0086,0,0.0228,0.0076,0.0285,0.0171,0,0.0171,0,0.0091],[0.0043,0,0,0.0076,0.0078,0,0,0.0171,0,0.003],[0.073,0,0,0.4783,0.4591,0,1.1151,2.6287,0.0284,0.003],[51.5,42.9,35.5,51.7,50.2,31.4,41.8,49.8,23.5,49],[null,null,null,null,null,null,null,null,null,null],[null,null,null,null,null,null,null,null,null,null],[78,76,76,80,80,76,82,83,76,76],[6.4,5,null,1.4,2.3,3.6,null,0.6,2.9,4.8],[null,null,null,null,-16.2,null,null,40.3,null,null],[null,null,null,null,59.4,null,null,null,null,null],[0.16,0.06,0.01,0.25,0.56,0.08,1.09,2.52,0.02,0.01],[40,40,40,40,40,40,40,40,40,40],[66.6,66.6,66.6,66.6,66.6,66.6,66.6,66.6,66.6,66.6],[0.651,0.651,0.651,0.651,0.651,0.651,0.651,0.651,0.651,0.651],[58,58,58,58,58,58,58,58,58,58],[0,0,0,0,0,0,0,0,0,0],[53.9,60.4,54.9,49.8,45.1,64,12.6,56,54.6,61.6],[null,null,null,null,null,null,null,null,null,null],[0.1,0,0.1,0.1,0.1,0.1,0.6,0.7,0,0],[360,640,320,560,440,410,450,420,150,410],[1978,1981,1980,1978,1977,1980,1977,1977,1980,1979],[[[2021,19150],[2022,18770],[2023,19743],[2024,19821],[2025,21222],[2026,21989]],[[2021,19373],[2022,18510],[2023,19528],[2024,17754],[2025,21243],[2026,23823]],[[2021,20036],[2022,20196],[2023,20182],[2024,20058],[2025,21966],[2026,22842]],[[2021,20417],[2022,20760],[2023,21146],[2024,22276],[2025,22691],[2026,23841]],[[2021,21401],[2022,21305],[2023,22075],[2024,22959],[2025,24306],[2026,24835]],[[2021,24309],[2022,24821],[2023,25560],[2024,26201],[2025,27547],[2026,29092]],[[2021,22312],[2022,22399],[2023,22948],[2024,23028],[2025,24185],[2026,25597]],[[2021,20773],[2022,20961],[2023,21773],[2024,22472],[2025,23708],[2026,24548]],[[2021,24757],[2022,25577],[2023,26614],[2024,26949],[2025,28277],[2026,29371]],[[2021,18636],[2022,18957],[2023,18686],[2024,20130],[2025,20945],[2026,22596]]],[[[2021,855],[2022,840],[2023,825],[2024,787],[2025,773],[2026,781]],[[2021,76],[2022,77],[2023,78],[2024,72],[2025,70],[2026,67]],[[2021,159],[2022,160],[2023,160],[2024,153],[2025,152],[2026,143]],[[2021,1241],[2022,1233],[2023,1217],[2024,1203],[2025,1183],[2026,1177]],[[2021,9754],[2022,9644],[2023,9625],[2024,9407],[2025,9393],[2026,9428]],[[2021,287],[2022,285],[2023,285],[2024,286],[2025,285],[2026,275]],[[2021,1006],[2022,957],[2023,955],[2024,947],[2025,899],[2026,865]],[[2021,5204],[2022,5130],[2023,5059],[2024,4941],[2025,4869],[2026,4859]],[[2021,389],[2022,372],[2023,370],[2024,373],[2025,364],[2026,345]],[[2021,609],[2022,608],[2023,597],[2024,585],[2025,570],[2026,555]]],[[[2021,4.2],[2022,5.1],[2023,5.7],[2024,5.5],[2025,4.4],[2026,4.9]],[[2021,1.3],[2022,2.6],[2023,9],[2024,8.3],[2025,5.7],[2026,3]],[[2021,5],[2022,4.4],[2023,3.1],[2024,2],[2025,2],[2026,4.2]],[[2021,4.7],[2022,4.7],[2023,5],[2024,5],[2025,5.5],[2026,4.8]],[[2021,5.8],[2022,5.6],[2023,5.8],[2024,5.8],[2025,5.6],[2026,6]],[[2021,4.2],[2022,4.2],[2023,4.6],[2024,2.4],[2025,4.2],[2026,3.6]],[[2021,6.4],[2022,6.6],[2023,7.1],[2024,6.5],[2025,7.3],[2026,6.4]],[[2021,7.5],[2022,6.2],[2023,6.4],[2024,7],[2025,6.2],[2026,6.8]],[[2021,3.3],[2022,4.8],[2023,4.3],[2024,2.9],[2025,5.2],[2026,4.6]],[[2021,6.6],[2022,7.6],[2023,6.7],[2024,6.3],[2025,5.8],[2026,5.9]]],[14.8,23,14,16.8,16,19.7,14.7,18.2,18.6,21.2],[-8.7,-11.8,-10.1,-5.2,-3.3,-4.2,-14,-6.6,-11.3,-8.9],[16.7,130.8,-16,2.1,3.4,-14.3,0,-9.3,39.4,-10.6],[null,null,null,null,[{"name":"Jämsän lukio","score":59.4}],null,null,null,null,null],[[[2020,113.6],[2021,101.4],[2022,101.4],[2023,103.9],[2024,102.2],[2025,113.3]],[[2020,113.6],[2021,101.4],[2022,101.4],[2023,103.9],[2024,102.2],[2025,113.3]],[[2020,113.6],[2021,101.4],[2022,101.4],[2023,103.9],[2024,102.2],[2025,113.3]],[[2020,113.6],[2021,101.4],[2022,101.4],[2023,103.9],[2024,102.2],[2025,113.3]],[[2020,113.6],[2021,101.4],[2022,101.4],[2023,103.9],[2024,102.2],[2025,113.3]],[[2020,113.6],[2021,101.4],[2022,101.4],[2023,103.9],[2024,102.2],[2025,113.3]],[[2020,113.6],[2021,101.4],[2022,101.4],[2023,103.9],[2024,102.2],[2025,113.3]],[[2020,113.6],[2021,101.4],[2022,101.4],[2023,103.9],[2024,102.2],[2025,113.3]],[[2020,113.6],[2021,101.4],[2022,101.4],[2023,103.9],[2024,102.2],[2025,113.3]],[[2020,113.6],[2021,101.4],[2022,101.4],[2023,103.9],[2024,102.2],[2025,113.3]]],[-0.3,-0.3,-0.3,-0.3,-0.3,-0.3,-0.3,-0.3,-0.3,-0.3],[95,95,95,95,95,95,95,95,95,95],[108,null,null,86,93,null,131,99,101,93],["Jämsä","Jämsä","Jämsä","Jämsä","Jämsä","Jämsä","Jämsä","Jämsä","Jämsä","Jämsä"],[24.83683,24.69673,24.76821,24.75837,25.19123,25.33038,25.23262,25.18568,25.10952,25.14127],[61.7169,61.88696,61.92368,61.90225,61.86369,61.96808,61.8179,61.93133,62.01,62.12153],[0,null,null,null,15.4,3.48,30.32,0.51,null,null],[-16.5,-16.5,-16.5,-16.5,-16.5,-16.5,-16.5,-16.5,-16.5,-16.5],[1.4,1.4,1.4,1.4,1.4,1.4,1.4,1.4,1.4,1.4],[1,null,null,null,null,null,null,null,null,null],[58.1,58.1,58.1,58.1,58.1,58.1,58.1,58.1,58.1,58.1],[14.7,14.7,14.7,14.7,14.7,14.7,14.7,14.7,14.7,14.7],[31.7,31.7,31.7,31.7,31.7,31.7,31.7,31.7,31.7,31.7],[27.8,27.8,27.8,27.8,27.8,27.8,27.8,27.8,27.8,27.8],[12.3,12.3,12.3,12.3,12.3,12.3,12.3,12.3,12.3,12.3],[2.8,2.8,2.8,2.8,2.8,2.8,2.8,2.8,2.8,2.8],[4.1,4.1,4.1,4.1,4.1,4.1,4.1,4.1,4.1,4.1],[0.1,0.1,0.1,0.1,0.1,0.1,0.1,0.1,0.1,0.1],[4.9,4.9,4.9,4.9,4.9,4.9,4.9,4.9,4.9,4.9],["[[2020, 1.1], [2021, 1.2], [2022, 1.2], [2023, 1.6], [2024, 2.0], [2025, 2.3]]","[[2020, 1.3], [2021, 1.4], [2022, 1.4], [2023, 1.9], [2024, 2.3], [2025, 2.8]]","[[2020, 0.6], [2021, 0.7], [2022, 0.7], [2023, 0.9], [2024, 1.1], [2025, 1.3]]","[[2020, 2.0], [2021, 2.2], [2022, 2.2], [2023, 2.9], [2024, 3.6], [2025, 4.3]]","[[2020, 2.7], [2021, 2.9], [2022, 2.9], [2023, 3.9], [2024, 4.8], [2025, 5.8]]","[[2020, 2.8], [2021, 3.0], [2022, 3.0], [2023, 4.0], [2024, 5.0], [2025, 6.0]]","[[2020, 1.7], [2021, 1.8], [2022, 1.8], [2023, 2.4], [2024, 3.0], [2025, 3.6]]","[[2020, 2.1], [2021, 2.3], [2022, 2.3], [2023, 3.0], [2024, 3.7], [2025, 4.5]]","[[2020, 0.3], [2021, 0.3], [2022, 0.3], [2023, 0.4], [2024, 0.5], [2025, 0.6]]","[[2020, 1.8], [2021, 2.0], [2022, 2.0], [2023, 2.6], [2024, 3.2], [2025, 3.8]]"],[2.3,2.8,1.3,4.3,5.8,6,3.6,4.5,0.6,3.8],[25.1,19.3,22.2,19.4,20.2,16,21.1,20.7,15.1,28.2],[74.3,46.2,26.9,241,100,43.1,29.3,86.7,5.3,32.6],[10,10,10,10,10,10,10,10,10,10],[30,30,30,30,30,30,30,30,30,30],[1,0,0,1,6,0,0,1,0,1],[1,0,0,3,6,0,0,2,0,0],[1,0,0,1,7,1,1,3,0,1],[0,0,0,1,2,0,1,2,0,0],[2,0,1,1,22,1,0,1,0,3],[null,null,null,null,[[2020,1023],[2021,979],[2022,947],[2023,865],[2024,844],[2025,857]],null,null,[[2020,466],[2021,653],[2022,695],[2023,649],[2024,558],[2025,654]],null,null]]}}