{"type":"Topology","objects":{"neighborhoods":{"type":"GeometryCollection","geometries":[{"type":"MultiPolygon","arcs":[[[0,1,2,3,4,5]]],"properties":{"i":0}},{"type":"MultiPolygon","arcs":[[[6,7,8,9]]],"properties":{"i":1}},{"type":"MultiPolygon","arcs":[[[10,-8,11,12,13]]],"properties":{"i":2}},{"type":"MultiPolygon","arcs":[[[14,15]]],"properties":{"i":3}},{"type":"MultiPolygon","arcs":[[[16,17,18,19,20,21,-16,22]]],"properties":{"i":4}},{"type":"MultiPolygon","arcs":[[[23,-20]]],"properties":{"i":5}},{"type":"MultiPolygon","arcs":[[[-24,-19,24,25,-21]]],"properties":{"i":6}},{"type":"MultiPolygon","arcs":[[[26,-17,27,28]]],"properties":{"i":7}},{"type":"MultiPolygon","arcs":[[[29,30,31,32,-25,-18,-27,33,34,35,36,37]]],"properties":{"i":8}},{"type":"MultiPolygon","arcs":[[[-32,38,39]]],"properties":{"i":9}},{"type":"MultiPolygon","arcs":[[[40,-39,-31,41]]],"properties":{"i":10}},{"type":"MultiPolygon","arcs":[[[42,-42,-30,43,-2]]],"properties":{"i":11}},{"type":"MultiPolygon","arcs":[[[44,-34,-29,45,46,47,48]]],"properties":{"i":12}},{"type":"MultiPolygon","arcs":[[[49,50,51,52,53,-4,54,55]]],"properties":{"i":13}},{"type":"MultiPolygon","arcs":[[[56,57,-6,58,-53]]],"properties":{"i":14}},{"type":"MultiPolygon","arcs":[[[-59,-5,-54]]],"properties":{"i":15}},{"type":"MultiPolygon","arcs":[[[59,60,61]]],"properties":{"i":16}},{"type":"MultiPolygon","arcs":[[[62,-50,63]]],"properties":{"i":17}},{"type":"MultiPolygon","arcs":[[[64,65,66,67,68,-51,-63]]],"properties":{"i":18}},{"type":"MultiPolygon","arcs":[[[-57,-52,-69,69]]],"properties":{"i":19}},{"type":"MultiPolygon","arcs":[[[-11,70,71,-55,-3,-44,-38,72,-36,73,-49,74,75,76,-9]]],"properties":{"i":20}},{"type":"MultiPolygon","arcs":[[[77,-71,-14,78]]],"properties":{"i":21}},{"type":"MultiPolygon","arcs":[[[-37,-73]]],"properties":{"i":22}},{"type":"MultiPolygon","arcs":[[[-74,-35,-45]]],"properties":{"i":23}},{"type":"MultiPolygon","arcs":[[[-75,-48,79]]],"properties":{"i":24}},{"type":"MultiPolygon","arcs":[[[-80,-47,80,-76]]],"properties":{"i":25}},{"type":"MultiPolygon","arcs":[[[-61,81,82,83,84,-65,-64,-56,-72,-78,85,-12,-7,86]]],"properties":{"i":26}},{"type":"MultiPolygon","arcs":[[[87,88,-84]]],"properties":{"i":27}},{"type":"MultiPolygon","arcs":[[[-86,-79,-13]]],"properties":{"i":28}},{"type":"MultiPolygon","arcs":[[[89,-67,90,91]]],"properties":{"i":29}},{"type":"MultiPolygon","arcs":[[[92]]],"properties":{"i":30}},{"type":"MultiPolygon","arcs":[[[93,-91,-66,-85,-89,94,95,96],[-93]]],"properties":{"i":31}},{"type":"MultiPolygon","arcs":[[[-92,-94,97]]],"properties":{"i":32}},{"type":"MultiPolygon","arcs":[[[98,99,100,-95,-88,-83,101]]],"properties":{"i":33}},{"type":"MultiPolygon","arcs":[[[-102,-82,-60,102]]],"properties":{"i":34}},{"type":"MultiPolygon","arcs":[[[-96,-101,103,104]]],"properties":{"i":35}},{"type":"MultiPolygon","arcs":[[[-104,-100,105]]],"properties":{"i":36}}]}},"arcs":[[[27531,43499],[-311,461],[-2581,1909],[-111,605]],[[24528,46474],[2009,2911],[4692,822],[690,325],[1212,757],[2083,517]],[[35214,51806],[571,-864]],[[35785,50942],[-40,-166],[-858,-3539],[64,-361],[20,-110]],[[34971,46766],[-91,-66],[-324,-235],[241,-1045],[40,-171]],[[34837,45249],[-154,-26],[-223,-37],[-373,-97],[-163,-56],[-569,-492],[-564,-609],[-360,-388],[-263,-23],[-519,-44],[-689,340],[-892,70],[-2537,-388]],[[77906,59704],[-5324,499],[-4632,-4948],[-209,-1905]],[[67741,53350],[-1883,-573],[-3043,281],[-3712,1228],[-563,186]],[[58540,54472],[-909,-242],[-976,1164],[3632,1119],[116,882],[2232,489],[1333,794],[6026,4635],[1433,-287],[1572,-199],[1635,-369],[578,544],[-1253,1041],[1084,638]],[[75043,64681],[843,-908],[2463,-354],[333,-48],[-52,-243],[-724,-3424]],[[53668,54463],[3959,-242],[913,251]],[[67741,53350],[310,-1942],[130,-151],[-384,-5],[-198,-72],[-673,-452],[0,-388],[-375,-588],[-1952,-330],[-1238,148],[-2806,-4850]],[[60555,44720],[-2862,-435],[-1827,281],[-1759,525],[-2082,3081]],[[52025,48172],[-15,62],[770,1315],[822,2501],[15,562],[51,1851]],[[4982,88489],[-3058,1742],[-520,154],[-473,139],[-381,521],[-384,967],[-166,849],[172,133],[2271,2983],[3422,3101],[1267,303],[897,-5],[285,-1],[3,0],[83,-1],[5,-3],[41,-28],[15,-10],[850,-573],[3382,-860]],[[12693,97900],[641,-548],[107,-117],[29,-26],[70,-108],[176,-178],[765,-909],[1131,-1811],[-32,-803],[1272,-984],[360,-1053],[-2034,63],[-298,108],[-529,504],[-459,66],[-100,-142],[-84,-27],[-67,52],[-97,-58],[-37,-181],[-78,-197],[-282,29],[-195,151],[-275,0],[-164,108],[-37,71],[-350,74],[-283,78],[-495,-268],[-8,-16],[-100,-357],[-190,-118],[-105,-207],[-64,-91],[-485,-581],[232,-312],[55,-189],[-83,-119],[-147,-26],[-132,59],[-60,-19],[-149,-61],[-47,-79],[73,-151],[208,23],[127,-18],[23,-13],[-394,-435],[3,-395],[-33,-156],[-865,-304],[-2275,335],[-1950,-75]],[[31683,90094],[-1349,-1211],[-118,-136],[530,-3254],[4,-14],[34,-90],[-15,-1084],[657,-959],[1932,-2211],[1241,-2370]],[[34599,78765],[-4059,158],[-436,-45],[-1756,-775],[-108,-24],[-137,48],[-256,89],[-1392,374],[-498,133],[-503,2]],[[25454,78725],[-583,936],[-24,24],[-1653,896],[-278,420],[-74,100]],[[22842,81101],[32,88],[-1178,2075],[212,154],[66,92],[-45,170],[184,213],[-802,1000],[-12,18],[-386,88],[-56,45],[-89,34],[-55,34],[-48,39],[-236,937],[-858,742],[-781,196],[134,-887],[289,-268],[56,-112],[330,108],[-96,-253],[40,-21],[8,-20],[-140,-136],[-98,5],[-26,-9],[-2,-16],[-139,-63],[-42,46],[-22,-9],[-41,1],[-308,-41],[676,-2088],[219,-185],[64,-517],[62,-62]],[[19754,82499],[-728,-90],[-166,96],[-16,3],[-104,81],[-76,-52],[-29,56],[55,46],[-14,64],[-174,-59],[-181,-20],[-1845,-400],[-3735,-2220],[-197,-505],[-294,-749]],[[12250,78750],[-5282,-300],[-540,357],[-921,735],[-350,298],[-655,665],[-473,542],[-952,811],[-481,1449],[-765,1255],[4,383],[2,5],[118,314],[6,24],[9,40],[0,3],[100,324],[13,29],[160,250],[375,587],[87,136],[252,396],[2025,1436]],[[12693,97900],[1556,1826],[2794,176],[426,27],[354,44],[155,14],[63,6],[69,6],[2581,-1239],[2267,-80],[2919,-627],[2280,-1115],[-9,-40],[141,-653],[-53,-150],[0,-58],[303,-1889],[171,-270],[1700,-1995],[1273,-1789]],[[22842,81101],[-260,88],[-2053,892],[-775,418]],[[25454,78725],[-461,-888],[-47,-90],[-190,-34],[-3256,-586],[-1488,-934]],[[20012,76193],[-549,252],[-1249,671],[-1244,529],[-2080,488],[-2640,617]],[[39401,75840],[-2003,228],[-1206,1006],[-473,334],[-222,291],[-622,737],[-276,329]],[[31683,90094],[5820,-843],[2724,-4373],[2135,-6157],[-269,-1602],[-63,-318]],[[42030,76801],[-2217,-864],[-412,-97]],[[35963,54148],[-213,54],[-3234,1639],[-158,150],[-346,447],[-378,421],[-613,641],[-189,238],[-28,70],[-102,534],[-83,317],[-2,14],[-270,553],[-225,662],[-365,536]],[[29757,60424],[-132,463],[57,106],[281,861],[-48,169],[-71,648],[-1004,125],[-214,159],[-53,12],[-53,46],[-37,51],[-2,8],[95,283]],[[28576,63355],[2365,141],[15,21],[332,711],[55,658],[-341,161],[-29,36],[-167,122],[-49,50],[-12,68],[-273,205],[89,253],[140,188],[-70,130],[-2,2],[-29,14],[-205,72],[-132,124],[-2,4],[-65,50],[-4,5],[-425,380],[-11,4],[-437,-295],[122,-307],[20,-80],[-9,-21],[-125,-5],[-559,29],[-2446,2276],[-3592,1899],[-199,430],[-2677,1152]],[[19854,71832],[-77,762],[437,780],[118,211],[22,39],[-213,1601],[-129,968]],[[39401,75840],[-101,-3961],[47,-63],[-2026,-1025],[-122,-845],[0,-10],[-768,-353],[256,-660],[1339,-552],[3274,-1795],[149,-42],[115,-54],[51,-92],[240,-2053]],[[41855,64335],[-317,-1055],[-979,-3268]],[[40559,60012],[-55,-953],[-6,-23],[9,-47],[-148,-468]],[[40359,58521],[-574,-1671],[-24,-273],[-12,-139],[-381,-1283]],[[39368,55155],[-70,-41],[-2322,-667],[-1013,-299]],[[28576,63355],[113,988],[-74,125],[-951,529],[-178,397],[-289,685],[-142,166],[-1437,366],[-4167,-82],[-986,0],[-452,0],[-547,0],[-860,-1129],[-40,-4182]],[[18566,61218],[-103,-15],[-2320,-100],[-902,-39],[-3052,2336],[125,285],[354,808],[478,5152],[1330,1392],[973,780],[49,37],[1245,-162],[2149,-279],[962,419]],[[20252,58878],[-1686,2340]],[[29757,60424],[-1301,-289],[-482,61],[-840,20],[-37,-8],[-463,2],[-5,3],[-907,406],[-1827,-617],[-130,-52],[-190,-40],[-3323,-1032]],[[24528,46474],[-2356,336],[-943,252],[-181,561],[-140,594],[-124,525],[-202,1023],[-9,1700],[-1001,2179],[-2416,154],[-201,78],[-22,108],[699,1976],[1288,1554],[685,827],[647,537]],[[35963,54148],[-749,-2342]],[[49606,64341],[-2159,740],[-96,33],[-1465,-238],[-1270,-207],[-1114,-135],[-1647,-199]],[[42030,76801],[69,-26],[3482,-2394],[452,-159],[817,60],[1211,514],[1016,219],[99,21],[391,84],[249,-70],[178,-53],[337,-111],[174,-88],[76,-40],[6336,-589],[850,-1551]],[[57767,72618],[-4204,-2388],[-60,-646],[-132,-593],[-70,-146]],[[53301,68845],[-2317,-3511]],[[50984,65334],[-1378,-993]],[[41759,37987],[122,-304],[8,-149],[-405,-192],[-214,-328]],[[41270,37014],[-4930,-1059]],[[36340,35955],[-387,1003],[-489,867],[-190,180],[-69,73],[-1134,1033]],[[34071,39111],[36,145],[102,451],[72,84],[176,432],[365,503],[775,991],[219,159],[256,10],[14,-104],[186,30],[170,-12],[293,-71],[401,74],[90,67],[-213,174],[-266,169],[-52,341],[145,479]],[[36840,43033],[593,-71],[173,9],[333,35],[245,-46],[494,-23],[228,34],[824,388],[188,1295],[-3475,269],[-260,446],[-309,194],[-593,856],[-219,245],[-91,102]],[[35785,50942],[1864,206],[3385,375],[98,-3138]],[[41132,48385],[3058,-2380],[-365,-2877],[-825,-1814],[214,-1743],[-61,-329],[-190,-147],[-400,-142],[-406,-43],[-325,52],[-315,112],[-161,-154],[403,-933]],[[34071,39111],[-8006,624]],[[26065,39735],[1523,2803],[-57,961]],[[34837,45249],[183,-233],[-61,-444],[123,-290],[-5,-288],[247,-428],[712,-443],[508,-99],[296,9]],[[84708,40361],[-5166,113],[-2564,233],[-661,-126],[-869,-166],[-618,-118],[-968,-184]],[[73862,40113],[-7,6],[307,834],[2928,2246],[-146,8072],[1800,4675]],[[78744,55946],[730,35],[2243,105],[747,35],[2382,112],[571,-150],[2326,-639],[59,-357],[-1513,-6041],[-488,-990],[-493,-1003],[-753,-1678],[75,-1243],[42,-29],[165,-3686],[-49,-19],[-80,-37]],[[42532,35070],[-638,-441],[-332,193],[-36,338],[-81,235],[-7,321],[22,194],[0,413],[-190,691]],[[41759,37987],[816,97],[8,5],[274,193],[379,98],[281,355],[360,122],[983,215],[846,25],[165,69],[-5,37],[-108,35],[20,85],[17,14],[33,-4],[83,-47],[13,2],[113,-16],[25,-100],[-3,0],[298,-791],[149,-743],[-1402,-1901],[-1393,969],[-478,393],[-375,240],[-162,-155],[47,-120],[-112,-212],[-171,133],[-189,-174],[239,-1327],[22,-414]],[[42532,35070],[255,-60],[2332,-1410],[3814,-1965]],[[48933,31635],[-1238,-5094]],[[47695,26541],[-7610,-457]],[[40085,26084],[-926,539],[-4061,2188]],[[35098,28811],[2768,3136],[-1526,4008]],[[35098,28811],[-2749,-1228],[-1392,-452],[-3695,894],[-244,2208],[-588,206],[-596,112],[-1024,159],[-14,-3],[-1600,-34],[-2201,727],[-416,452],[-188,154],[1114,1323],[168,219],[327,429],[23,207],[6,6],[-608,3293],[882,1002],[347,172],[1176,414],[148,44],[2091,620]],[[53668,54463],[-2363,-54],[-1692,-1362],[-1128,-962],[-1279,-1092]],[[47206,50993],[-216,-84],[-640,-297],[-417,-387],[-552,-456],[-749,-189],[-1196,-104],[-531,-46],[-10,-5],[-1274,-721],[-489,-319]],[[39368,55155],[405,-102],[312,-54],[3628,-1303],[338,-48],[1231,-84],[280,13],[350,-312],[69,6],[14,0],[776,-129],[122,69],[58,147],[-203,321],[-240,-206],[-234,81],[-34,42],[-73,178],[179,186],[161,-40],[-2,68],[-84,138],[-14,254],[202,24],[553,-10],[-15,303],[-281,-57],[46,-64],[87,5],[-3,-43],[-88,-11],[-311,-16],[-68,60],[-13,76],[17,78],[88,45],[-104,121],[92,55],[39,19],[37,3],[121,61],[79,40],[92,47],[-311,234],[-386,-12],[-10,2],[-278,626],[-1091,161],[-370,58],[195,293],[-384,95],[-153,352],[138,106],[123,286],[-83,15],[-20,84],[43,40],[-2291,614],[-1740,451]],[[40559,60012],[3533,493],[146,99],[165,112],[212,225],[384,143],[168,3],[4439,3254]],[[50984,65334],[2306,-1754],[4361,-1049]],[[57651,62531],[1385,-2461],[13839,6944]],[[72875,67014],[2168,-2333]],[[49925,45300],[-3041,1298],[-428,183],[-149,163],[-169,228],[-4,30],[93,622],[7,6],[135,285],[693,375],[104,-3],[-30,670],[100,531],[3,318],[-33,987]],[[52025,48172],[-82,-2],[-899,115],[-356,6],[-128,45],[-121,20],[-10,-4],[205,-180],[55,-82],[-533,-73],[-109,-326],[-126,-608],[95,-1178],[-91,-605]],[[53301,68845],[3130,-1325],[1111,-455],[397,47],[126,19],[245,-5],[248,5],[119,-266],[2,-12],[39,-249],[-12,-140],[-84,-126],[-284,-125],[-110,-123],[-40,-752],[-537,-2807]],[[57767,72618],[614,-144],[2535,-543],[3699,516],[555,-265],[756,-45],[184,-11],[302,-214],[357,-253],[1352,-1369],[1781,-600],[38,-4],[369,24],[645,-205],[145,-110],[111,-342],[724,-856],[941,-1183]],[[73862,40113],[620,-968]],[[74482,39145],[-3697,-2412],[-528,-342],[-1065,-669],[-2,1],[-1165,326],[-1415,443],[-2111,-84],[-500,-1873],[-169,-1982]],[[63830,32553],[-2091,1536],[-235,1774],[-333,802],[-2205,915],[-910,818],[-619,532],[-357,232],[-434,183],[-8,4],[-344,-339],[369,-440],[267,-136],[551,-523],[159,-424],[68,-108],[69,-150],[135,-16],[496,-360],[191,-72],[103,-98],[90,-54],[28,-132],[71,-97],[-127,-67],[-274,95],[-119,95],[-23,30],[-243,212],[-245,58],[-355,3],[-212,-382],[-1596,-1945],[-2466,-2605]],[[53231,31894],[-4298,-259]],[[49925,45300],[155,-207],[79,-75],[181,-102],[601,-504],[-55,-441],[0,-4],[-7,-16],[-840,-289],[222,-513],[-139,-355],[-20,-48],[-115,-51],[58,-70],[127,-120],[51,-100],[1347,-1254],[1054,-1066],[8,-27],[1662,-787],[957,-25],[962,336],[1295,176],[553,-897],[349,85],[716,667],[756,1397],[673,3710]],[[77906,59704],[838,-3758]],[[63830,32553],[165,-190]],[[63995,32363],[-606,-231],[-2309,-879],[-934,-235],[-227,-8],[-1118,-301],[-675,-199],[-5,-15],[-2968,-327],[-1922,1726]],[[46573,12272],[-240,56],[-4475,1029],[-786,-12],[-495,439],[-1800,2912],[-166,381],[-168,386],[-220,810],[-711,856],[-2235,2569],[1908,2386],[2900,2000]],[[47695,26541],[3599,-2317],[1075,-3055],[146,-3152],[-890,-876]],[[51625,17141],[-3050,1069],[-995,-188],[-486,-259],[-591,-1211],[-441,-325],[-302,-403],[-32,-237],[556,-2181],[236,-924],[53,-210]],[[58460,18325],[-232,82],[-8,153],[-500,-126],[-374,393],[-233,-12],[-118,7],[-853,511],[-401,1049],[440,675],[1183,-711],[1265,571],[1206,2438],[2023,-268],[1144,-160],[2578,-1753],[524,-832],[-2061,-115],[-1345,-890],[-937,-252],[-1317,303],[-438,-74],[-558,-592],[-412,-219],[-230,-116],[-118,-21],[-94,30],[-44,-15],[-70,-53],[-20,-3]],[[64887,9842],[-983,1238],[-167,187],[-99,270],[-59,226],[-509,376],[-515,19],[-957,129],[-362,1962],[278,464],[-398,868],[-1066,614],[-5,0],[-645,-214],[-172,-96],[-967,-744],[-883,-156],[50,542],[-211,133],[282,109],[-5,4],[-285,304],[-2180,-151],[-671,118],[-2733,1097]],[[63995,32363],[-829,-5455],[323,-2769],[1834,-1079],[2601,-849],[1820,-857],[982,-649],[2437,-1770],[-218,-1149]],[[72945,17786],[-958,49],[-1624,-51],[-511,-15],[-899,-28],[-372,-12],[-402,-2760],[162,-894],[-1,0],[-384,-388],[-175,-480],[-231,-68],[-1010,-782],[-554,-467],[-496,-991]],[[65490,10899],[259,-514],[-862,-543]],[[64887,9842],[816,-1222],[-32,-991],[-137,-72],[-145,-184],[-169,-216],[-36,-44],[-1,-33],[-2,-36],[-31,-79],[-130,20],[-33,32],[-99,96],[-78,50],[-61,-23],[-110,-238],[-3035,797],[-2523,1380],[-1500,177],[-2802,742],[-1153,-379],[-440,-885],[-1112,-440],[-1315,1410],[-645,625],[-655,633],[-237,108],[-75,35],[-1042,476],[-1532,691]],[[88932,34712],[3550,-3963],[3428,-2805],[107,-3398],[-877,-4717],[124,-1184],[1306,-1401],[2183,-1642],[-1726,-3000],[1809,-3116],[1163,-4720],[-3186,653],[-3,-57],[-991,-607],[-741,-234],[-1841,-969],[-1794,-3552],[-4344,3930],[-563,139],[-2613,1],[-1693,-827],[-337,-165],[-183,-428],[-261,-614],[-372,-1242],[-1943,477],[-1651,-192]],[[77483,1079],[-158,1905],[-7,84],[-160,1923],[4148,3438],[-4109,4498]],[[77197,12927],[-4252,4859]],[[74482,39145],[724,-686],[1410,-3100],[519,-1199],[873,119],[-498,1003],[506,313],[587,47],[3728,-1429],[6601,499]],[[84708,40361],[616,-1890],[3551,-3285],[57,-474]],[[77197,12927],[-1946,-1864],[376,-555],[-30,-38],[-580,-346],[-46,-314],[-1947,-113],[-20,11],[-862,-1181],[196,-392],[-904,-207],[-517,-218],[-171,-229],[-522,-1183],[242,-2383]],[[70466,3915],[-25,-2],[-1427,374],[-386,532],[-92,128],[-11,6],[-135,1569],[-56,209],[-373,1784],[144,987],[-515,1261],[-639,356],[-222,141],[-985,-359],[-208,-1],[-46,-1]],[[77483,1079],[-598,-356],[-3222,591],[-1600,123],[-1420,1364],[27,51],[-204,1063]]],"bbox":[23.19584541605931,62.67776544243055,24.48434507093851,63.48500966914148],"transform":{"scale":[0.000012885125400045997,0.000008072522992339275],"translate":[23.19584541605931,62.67776544243055]},"propertiesColumnar":{"format":"columnar/1","keys":["id","postinumeroalue","nimi","namn","euref_x","euref_y","pinta_ala","vuosi","kunta","he_vakiy","he_naiset","he_miehet","he_kika","he_0_2","he_3_6","he_7_12","he_13_15","he_16_17","he_18_19","he_20_24","he_25_29","he_30_34","he_35_39","he_40_44","he_45_49","he_50_54","he_55_59","he_60_64","he_65_69","he_70_74","he_75_79","he_80_84","he_85_","ko_ika18y","ko_perus","ko_koul","ko_yliop","ko_ammat","ko_al_kork","ko_yl_kork","hr_tuy","hr_ktu","hr_mtu","hr_pi_tul","hr_ke_tul","hr_hy_tul","hr_ovy","te_taly","te_takk","te_as_valj","te_yks","te_nuor","te_eil_np","te_laps","te_plap","te_aklap","te_klap","te_teini","te_yhlap","te_aik","te_elak","te_omis_as","te_vuok_as","te_muu_as","tr_kuty","tr_ktu","tr_mtu","tr_pi_tul","tr_ke_tul","tr_hy_tul","tr_ovy","ra_ke","ra_raky","ra_muut","ra_asrak","ra_asunn","ra_as_kpa","ra_pt_as","ra_kt_as","ra_muu_as","tp_tyopy","tp_alku_a","tp_jalo_bf","tp_palv_gu","tp_a_maat","tp_b_kaiv","tp_c_teol","tp_d_ener","tp_e_vesi","tp_f_rake","tp_g_kaup","tp_h_kulj","tp_i_majo","tp_j_info","tp_k_raho","tp_l_kiin","tp_m_erik","tp_n_hall","tp_o_julk","tp_p_koul","tp_q_terv","tp_r_taid","tp_s_muup","tp_t_koti","tp_u_kans","tp_x_tunt","pt_vakiy","pt_tyoll","pt_tyott","pt_0_14","pt_opisk","pt_elakel","pt_muut","city","pno","unemployment_rate","higher_education_rate","pensioner_share","ownership_rate","rental_rate","population_density","child_ratio","student_share","detached_house_share","youth_ratio_pct","gender_ratio","single_parent_hh_pct","families_with_children_pct","tech_sector_pct","healthcare_workers_pct","employment_rate","elderly_ratio_pct","avg_household_size","manufacturing_jobs_pct","public_sector_jobs_pct","service_sector_jobs_pct","new_construction_pct","foreign_language_pct","crime_index","property_price_sqm","transit_stop_density","air_quality_index","daycare_density","school_density","healthcare_density","restaurant_density","grocery_density","cycling_density","single_person_hh_pct","rental_price_sqm","price_to_rent_ratio","walkability_index","traffic_accident_rate","property_price_change_pct","school_quality_score","light_pollution","noise_pollution","voter_turnout_pct","party_diversity_index","broadband_coverage_pct","ev_charging_density","tree_canopy_pct","transit_reachability_score","sports_facility_density","water_proximity_m","avg_construction_year","income_history","population_history","unemployment_history","income_change_pct","population_change_pct","unemployment_change_pct","schools","crime_index_history","crime_index_change_pct","health_index","radon","municipality","lon","lat","flood_risk_pct","population_projection_pct","construction_activity","active_plan_count","political_lean_index","party_vote_kok_pct","party_vote_sdp_pct","party_vote_ps_pct","party_vote_kesk_pct","party_vote_vihr_pct","party_vote_vas_pct","party_vote_rkp_pct","foreign_language_municipal_pct","foreign_language_history","foreign_language_est_pct","low_income_pct","job_self_sufficiency","violent_crime_rate","property_crime_rate","grocery_count","healthcare_count","school_count","daycare_count","restaurant_count","property_price_history"],"cols":[[1807,1816,1825,1801,1798,1799,1800,1802,1803,1804,1805,1806,1808,1809,1810,1811,1826,1812,1813,1814,1815,1817,1818,1819,1820,1821,1822,1823,1824,1849,1850,1847,1848,1859,1860,1861,1862],["62640","62810","62950","62540","62500","62510","62520","62570","62600","62610","62620","62630","62660","62710","62720","62730","62990","62740","62750","62760","62800","62830","62840","62860","62870","62880","62900","62920","62940","63530","63540","63500","63510","63800","63830","63880","63890"],["Savonkylä","Savonjoki","Paalijärvi","Vasikka-aho","Evijärvi Keskus","Kuoppa-aho","Kautiainen","Särkilä","Lappajärvi Keskus","Tarvola","Ala-Seppä","Karvala","Itäkylä","Kurejoki","Sissala","Haukkala","Möksy","Koskenvarsi","Saukonkylä","Menkijärvi","Vimpeli Keskus","Luoma-Aho","Lakaniemi-Pokela","Sahi","Vinni","Sääksvesi-Vinni","Alajärvi Keskus","Levijoki","Hoisko","Länsikylä","Hernesmaa","Lehtimäki Keskus","Lehtimäki Kirkonkylä","Soini Keskus","Keisala","Kukonkylä","Hautakylä"],["Savonkylä","Savonjoki","Paalijärvi","Vasikka-aho","Evijärvi centrum","Kuoppa-aho","Kautiainen","Särkilä","Lappajärvi centrum","Tarvola","Ala-Seppä","Karvala","Itäkylä","Kurejoki","Sissala","Haukkala","Möksy","Koskenvarsi","Saukonkylä","Menkijärvi","Vimpeli centrum","Luoma-aho","Lakaniemi-Pokela","Sahi","Vinni","Sääksvesi-Vinni","Alajärvi centrum","Levijoki","Hoisko","Länsikylä","Hernesmaa","Lehtimäki centrum","Lehtimäki kb","Soini centrum","Keisala","Kukonkylä","Hautakylä"],[327349,352304,346628,315706,321364,323103,321516,333104,328853,321974,323862,326184,338749,333022,328351,331932,360384,335888,334341,326001,343080,340407,335998,337313,344149,351236,352734,345275,343581,335126,347036,346074,341483,359698,360087,352780,355506],[6997012,7005443,6997840,7039393,7036741,7029715,7026082,7028700,7018936,7014556,7011020,7002606,7017203,6997141,6992069,6993526,6996067,6987715,6981303,6984474,7005298,6999033,7004031,7010068,7012507,7013006,6994588,6983602,6992705,6971398,6972090,6977723,6964729,6969877,6986420,6964572,6957945],[35402167,55240421,60296349,67573179,231786285,6161661,28997706,63096121,178172240,56597893,38730398,90263168,90508628,57668100,22954478,5816474,81870187,6862578,56875669,90269953,137119780,22504093,13300133,14817752,17177007,76560502,264965347,26933273,33202826,91204901,15853475,145341423,71393652,482250952,37612531,45834350,43736697],[2026,2026,2026,2026,2026,2026,2026,2026,2026,2026,2026,2026,2026,2026,2026,2026,2026,2026,2026,2026,2026,2026,2026,2026,2026,2026,2026,2026,2026,2026,2026,2026,2026,2026,2026,2026,2026],["403","934","005","052","052","052","052","052","403","403","403","403","403","005","005","005","005","005","005","005","934","005","934","934","934","934","005","005","005","005","005","005","005","759","759","759","759"],[99,100,383,251,1390,299,123,166,1664,116,141,268,458,753,294,193,104,191,175,198,2023,285,44,169,36,238,4447,83,517,127,177,805,226,1461,51,140,92],[47,46,182,116,680,155,55,77,843,54,66,132,215,348,151,90,50,93,89,92,1001,137,21,84,17,94,2272,35,254,64,87,407,103,720,23,67,38],[52,54,201,135,710,144,68,89,821,62,75,136,243,405,143,103,54,98,86,106,1022,148,23,85,19,144,2175,48,263,63,90,398,123,741,28,73,54],[52,51,46,49,48,45,51,51,49,53,58,56,54,44,42,39,53,45,52,48,50,45,54,48,55,51,47,47,47,51,56,52,59,49,57,55,50],[2,3,10,4,20,6,2,0,28,4,1,7,10,17,9,9,2,2,3,6,19,7,0,3,0,9,98,7,11,3,0,13,3,27,1,2,2],[0,1,11,14,53,11,3,1,59,3,0,9,4,21,19,15,2,6,2,11,35,12,0,10,0,4,171,4,20,4,1,21,4,50,2,3,3],[6,8,32,11,98,30,5,6,128,7,6,11,25,53,30,29,8,17,9,16,138,21,3,9,1,6,316,3,35,4,10,51,9,112,3,12,5],[4,3,17,12,64,11,6,7,61,2,5,5,10,34,11,11,3,11,9,10,81,20,1,8,1,7,192,1,22,7,6,26,3,56,1,5,2],[2,0,7,5,29,7,2,5,51,3,2,4,5,31,10,5,2,7,6,6,36,14,0,3,0,9,136,0,12,6,5,19,3,21,0,0,3],[2,2,10,5,29,5,1,5,34,1,3,4,13,41,9,2,1,5,4,3,65,1,2,5,1,7,108,1,14,2,2,11,3,21,0,0,2],[3,2,12,7,39,4,3,6,42,0,6,7,8,40,9,5,0,8,3,5,64,4,1,6,2,5,173,2,19,2,5,17,1,54,0,1,1],[2,2,6,6,39,11,7,7,47,1,1,4,9,35,6,3,1,5,6,4,55,9,2,2,0,8,188,3,12,1,2,26,4,43,1,3,7],[8,1,26,9,56,22,5,3,66,5,2,5,17,25,16,9,2,4,2,2,71,18,1,8,1,13,183,8,29,2,2,33,8,61,1,2,5],[8,8,23,10,97,17,6,5,93,10,0,11,27,36,18,14,6,8,5,9,85,11,0,5,3,8,205,5,18,6,2,37,3,83,1,5,4],[2,7,19,12,99,26,3,10,85,6,5,12,14,49,18,10,2,10,9,9,129,17,3,7,2,12,225,3,31,9,9,32,11,72,2,9,4],[2,4,29,17,78,12,8,14,75,3,6,9,19,46,15,4,11,18,14,7,127,23,2,15,2,15,236,3,33,11,17,36,12,56,1,7,3],[3,4,18,8,75,14,8,10,90,4,9,9,27,45,11,5,6,11,6,9,115,12,1,7,2,9,230,3,26,3,12,52,12,63,0,4,4],[5,10,34,19,89,21,10,22,86,6,10,14,33,54,18,13,9,6,9,5,149,12,2,17,2,17,281,10,32,7,16,55,16,105,7,8,7],[14,9,27,25,93,24,13,15,107,12,26,27,44,53,23,18,10,17,15,20,158,20,11,13,4,21,334,4,40,11,11,74,22,147,12,16,8],[9,15,30,33,95,24,10,15,145,19,18,40,52,42,23,13,12,18,27,26,180,22,8,11,8,31,318,6,44,13,22,81,23,123,6,15,8],[8,9,30,25,100,19,6,15,152,6,11,30,47,38,27,12,10,19,14,19,189,28,3,15,3,19,368,9,48,16,21,69,28,119,5,19,9],[5,7,20,10,100,16,14,9,149,9,11,32,46,40,14,7,10,12,13,21,156,19,2,11,0,17,289,3,37,17,16,66,32,115,2,15,5],[9,2,10,10,72,12,7,7,73,8,12,13,22,16,2,7,4,5,11,3,81,5,1,4,3,6,179,3,15,1,8,43,14,63,3,7,4],[5,3,12,9,65,7,4,4,93,7,7,15,26,37,6,2,3,2,8,7,90,10,1,10,1,15,217,5,19,2,10,43,15,70,3,7,6],[85,85,306,205,1126,234,105,147,1337,97,127,232,404,597,215,124,87,148,146,149,1714,211,40,136,34,203,3534,68,417,103,155,675,204,1195,44,118,77],[17,25,73,57,334,52,34,39,351,17,22,64,98,184,49,19,39,28,44,58,454,39,6,23,6,43,919,15,98,26,35,206,50,371,21,35,25],[68,60,233,148,792,182,71,108,986,80,105,168,306,413,166,105,48,120,102,91,1260,172,34,113,28,160,2615,53,319,77,120,469,154,824,23,83,52],[2,1,6,4,23,6,2,6,35,0,7,8,17,16,10,3,0,3,1,3,62,5,2,7,1,14,99,2,14,1,2,11,5,30,0,2,2],[42,44,151,105,541,112,59,76,609,52,65,104,208,268,105,77,37,61,68,66,764,99,19,62,22,107,1583,38,179,50,85,333,100,542,15,62,38],[20,13,63,33,175,49,10,20,256,24,24,45,61,101,44,20,10,40,23,20,326,51,11,29,5,30,719,11,97,20,24,96,36,196,8,15,8],[4,2,13,6,53,15,0,6,86,4,9,11,20,28,7,5,1,16,10,2,108,17,2,15,0,9,214,2,29,6,9,29,13,56,0,4,4],[85,85,306,205,1126,234,105,147,1337,97,127,232,404,597,215,124,87,148,146,149,1714,211,40,136,34,203,3534,68,417,103,155,675,204,1195,44,118,77],[26709,22988,28364,26551,26710,28628,35878,26054,25461,27271,26846,25331,24609,23246,26488,31351,21924,28304,26062,24354,26295,33934,23783,28704,24095,25394,26176,24611,26396,26320,24268,25504,24740,25807,21240,23674,25528],[23944,20904,25731,22918,24261,27075,24645,24323,22353,24222,22227,20384,19856,21009,24605,27301,17974,26546,21063,19990,23640,27941,22926,25859,25934,21876,23539,22647,23849,22208,22337,21802,21786,23578,19690,21287,21492],[21,28,60,50,225,39,25,39,332,15,36,62,121,218,54,24,36,30,41,46,366,25,10,31,8,62,778,19,99,37,43,192,60,292,12,33,20],[46,51,196,124,741,152,62,92,867,66,72,137,237,300,129,79,44,89,90,86,1120,136,28,78,25,109,2344,39,254,55,97,398,123,766,28,73,47],[18,6,50,31,160,43,18,16,138,16,19,33,46,79,32,21,7,29,15,17,228,50,2,27,1,32,412,10,64,11,15,85,21,137,4,12,10],[2270237,1953996,8679496,5442937,30075673,6698949,3767209,3829921,34041214,2645321,3409429,5876877,9942161,13877863,5694915,3887584,1907388,4188967,3804997,3628774,45069239,7160005,951325,3903679,819216,5154991,92505716,1673576,11007264,2710977,3761509,17215315,5047058,30839450,934544,2793553,1965656],[47,48,170,118,660,133,58,84,802,61,72,140,216,271,104,69,48,78,86,87,996,122,21,76,19,116,2036,38,210,56,92,427,111,711,24,73,40],[2.1,2.1,2.3,2.1,2.1,2.2,2.1,2,2,1.9,2,1.9,2.1,2.4,2.8,2.8,2.2,2.4,2,2.3,2,2.3,null,2.2,null,2.1,2.1,2.2,2.5,2.3,1.9,1.9,1.9,2,null,1.9,2.3],[55.3,49.4,52.2,51.8,49,49.9,56.5,54.6,48.5,61.2,58.5,63.2,51.5,45.7,43.5,43.7,48.2,50.3,52.5,47.6,50.1,48.8,null,51.8,null,50,45.3,54.1,48.6,49.1,55,48.2,54.7,46.7,null,55.4,50.6],[16,16,55,42,279,41,18,34,343,27,24,54,73,94,24,20,15,21,35,39,420,37,null,27,null,43,789,13,51,15,33,214,38,303,null,30,16],[1,0,7,5,29,10,1,6,42,0,2,4,4,12,2,1,0,2,1,1,45,6,null,1,null,1,131,0,4,0,1,16,0,32,null,2,0],[1,0,2,2,11,2,2,0,7,0,0,1,2,2,0,1,0,1,1,0,17,2,null,0,null,2,47,1,1,2,1,4,1,9,null,1,1],[6,10,35,19,140,33,10,12,150,10,7,17,30,58,25,20,7,21,10,15,162,34,null,18,null,23,408,6,50,13,12,65,11,125,null,10,6],[1,2,9,3,19,5,2,0,25,3,1,7,9,13,8,7,2,2,3,4,19,6,null,3,null,8,89,4,9,2,0,12,3,24,null,2,2],[1,3,14,10,49,14,3,1,63,5,1,11,11,23,15,11,3,6,4,7,42,11,null,10,null,11,186,5,18,4,1,23,3,54,null,4,3],[4,6,23,9,68,19,4,5,84,5,4,7,18,25,17,14,5,12,5,8,94,15,null,7,null,5,210,3,26,3,6,36,6,71,null,10,5],[3,3,17,10,72,12,5,9,69,3,3,6,12,34,15,9,4,13,8,10,88,22,null,8,null,13,211,1,25,9,8,29,5,58,null,4,3],[1,5,5,1,19,4,1,0,32,0,1,3,3,4,0,4,2,3,2,4,29,7,null,1,null,4,66,0,7,1,3,13,2,20,null,1,0],[15,14,63,40,215,50,21,37,227,15,26,35,56,89,34,20,14,20,23,19,363,31,null,21,null,30,700,15,59,12,29,136,31,235,null,20,12],[27,25,74,60,311,51,28,36,432,36,40,89,132,125,46,29,27,37,53,53,478,57,null,38,null,66,941,17,104,32,51,228,69,355,null,44,22],[45,44,148,105,516,106,55,75,578,55,70,131,207,222,99,66,46,76,76,78,765,100,null,72,null,108,1483,36,194,55,87,303,103,551,null,68,40],[0,3,15,10,130,26,0,8,207,3,2,3,6,35,3,3,0,1,4,6,222,17,null,2,null,5,516,1,5,1,3,111,7,151,null,3,0],[2,1,7,3,14,1,3,1,17,3,0,6,3,14,2,0,2,1,6,3,9,5,null,2,null,3,37,1,11,0,2,13,1,9,null,2,0],[47,48,170,118,660,133,58,84,802,61,72,140,216,271,104,69,48,78,86,87,996,122,21,76,19,116,2036,38,210,56,92,427,111,711,24,73,40],[48737,40812,51579,46453,45371,50495,65186,45847,42140,43842,47404,42112,46289,50249,54891,56637,39861,54030,44574,42194,44646,59170,null,51667,null,44648,45147,44078,52648,48465,41024,39947,43523,43057,null,38437,49273],[42203,33785,47237,39178,37024,47674,49345,39329,34994,38677,40228,35257,38429,43076,55115,45983,35449,52747,34332,36300,37603,50962,null,41741,null,38585,37467,39263,46607,40010,37234,30429,35689,34793,null,31484,35527],[14,15,45,29,187,22,13,19,226,12,14,45,62,76,28,17,17,15,31,36,268,25,null,16,null,34,591,12,52,23,29,178,34,210,null,24,11],[25,31,93,77,388,87,32,50,499,43,49,77,127,161,59,41,29,50,46,47,603,73,null,51,null,64,1230,21,123,24,55,200,68,425,null,43,22],[8,2,32,12,85,24,13,15,77,6,9,18,27,34,17,11,2,13,9,4,125,24,null,9,null,18,215,5,35,9,8,49,9,76,null,6,7],[2290654,1958989,8768460,5481448,29944730,6715821,3780772,3851143,33796442,2674375,3413081,5895736,9998400,13617578,5708626,3907968,1913343,4214331,3833385,3670844,44467467,7218725,null,3926690,null,5179212,91918706,1674967,11056088,2714046,3774190,17057189,4831011,30613742,null,2805898,1970905],[117,20,18,89,537,8,37,15,611,85,67,188,122,130,24,23,19,15,22,96,236,86,17,67,13,71,277,11,103,199,26,198,61,442,12,42,27],[82,80,216,178,752,172,94,106,875,101,103,238,306,338,139,107,99,116,112,148,1165,164,29,113,34,162,1907,54,297,105,144,462,188,936,56,106,63],[14,12,21,34,122,35,15,10,172,12,7,39,30,41,11,24,25,23,11,32,214,23,2,14,3,12,340,8,52,16,23,76,40,216,14,13,6],[68,68,195,144,630,137,79,96,703,89,96,199,276,297,128,83,74,93,101,116,951,141,27,99,31,150,1567,46,245,89,121,386,148,720,42,93,57],[65,63,209,160,813,171,83,101,1080,84,98,200,288,333,131,92,69,99,108,117,1201,147,28,103,29,159,2430,48,259,82,114,559,150,963,38,108,64],[108.3,102.4,110.2,103.2,98.2,104,102.4,102.5,91.4,108.6,108.1,110.6,102.2,105.7,115.1,113.5,97.7,117.4,101.4,100.8,97.5,109.2,102.8,108.4,88,100.1,94,109.9,113.1,109.2,98.5,84.9,100.1,86.6,82.2,98.3,104.7],[64,63,205,159,767,160,82,100,852,82,97,192,276,310,131,91,65,95,105,112,1111,147,28,98,29,157,2052,45,246,78,111,534,138,923,38,107,63],[0,0,0,0,28,10,0,0,173,0,0,0,9,5,0,0,2,0,0,0,41,0,0,4,0,0,273,0,5,0,0,8,0,0,0,0,0],[1,0,4,1,18,1,1,1,55,2,1,8,3,18,0,1,2,4,3,5,49,0,0,1,0,2,105,3,8,4,3,17,12,40,0,1,1],[11,12,84,54,449,230,31,34,591,0,12,59,88,94,36,114,19,54,15,25,804,380,5,19,24,30,1821,16,93,31,18,234,66,560,8,27,13],[9,9,45,10,81,12,28,10,43,0,6,10,51,14,6,7,3,9,7,2,44,1,null,8,0,16,69,2,15,13,2,40,8,70,null,17,8],[2,0,23,26,70,126,3,11,82,0,3,38,26,26,5,81,12,20,2,17,325,352,null,3,0,3,326,0,29,9,3,31,15,141,null,8,0],[0,3,16,18,298,92,0,13,466,0,3,11,11,54,25,26,4,25,6,6,435,27,null,8,24,11,1426,14,49,9,13,163,43,349,null,2,5],[9,9,45,10,81,12,28,10,43,0,6,10,51,14,6,7,3,9,7,2,44,1,null,8,0,16,69,2,15,13,2,40,8,70,null,17,8],[0,0,0,1,0,0,0,0,0,0,0,0,1,0,0,0,4,0,0,0,6,0,null,0,0,0,2,0,0,6,0,1,0,9,null,0,0],[2,0,7,15,33,124,2,0,35,0,1,32,18,7,0,71,2,19,0,8,235,351,null,0,0,1,218,0,1,0,3,14,15,96,null,7,0],[0,0,0,0,3,0,0,0,0,0,0,0,0,0,0,0,0,0,0,0,11,0,null,0,0,0,18,0,0,0,0,7,0,2,null,0,0],[0,0,0,0,0,0,0,0,2,0,0,0,1,2,0,0,4,0,0,0,6,0,null,0,0,0,12,0,0,0,0,1,0,3,null,0,0],[0,0,16,10,34,2,1,11,45,0,2,6,6,17,5,10,2,1,2,9,67,1,null,3,0,2,76,0,28,3,0,8,0,31,null,1,0],[0,0,1,1,34,19,0,0,44,0,1,2,2,6,2,0,0,2,1,0,53,0,null,2,0,1,222,0,6,9,3,14,2,50,null,0,0],[0,1,1,11,47,4,0,0,15,0,0,1,6,7,1,17,4,9,0,6,35,0,null,3,4,3,65,0,6,0,0,1,19,64,null,0,5],[0,0,0,0,5,0,0,0,33,0,0,0,0,1,7,1,0,0,0,0,17,0,null,0,0,0,79,0,0,0,0,4,2,10,null,0,0],[0,0,0,0,0,0,0,0,13,0,0,1,0,0,0,0,0,0,0,0,7,0,null,1,0,0,48,0,1,0,0,1,0,0,null,0,0],[0,0,0,0,0,0,0,0,8,0,1,0,0,0,0,0,0,0,0,0,11,0,null,0,0,0,34,0,0,0,0,7,0,2,null,0,0],[0,0,0,0,2,0,0,0,1,0,0,0,0,0,0,1,0,0,0,0,3,0,null,1,0,0,22,0,0,0,1,1,1,2,null,0,0],[0,1,0,4,10,7,0,3,23,0,0,0,0,0,1,0,0,0,4,0,7,1,null,0,0,0,55,2,0,0,5,3,0,13,null,0,0],[0,1,2,0,14,1,0,1,22,0,1,0,1,1,0,0,0,0,1,0,30,2,null,0,0,5,90,0,0,0,0,0,0,19,null,1,0],[0,0,0,0,30,0,0,0,36,0,0,0,0,0,0,0,0,0,0,0,17,0,null,0,0,0,51,12,0,0,4,0,0,17,null,0,0],[0,0,9,0,0,55,0,9,90,0,0,3,0,28,9,7,0,0,0,0,52,0,null,0,0,0,177,0,15,0,0,86,0,36,null,0,0],[0,0,3,0,128,0,0,0,156,0,0,4,1,6,5,0,0,13,0,0,177,19,null,0,19,1,511,0,21,0,0,37,19,115,null,1,0],[0,0,0,0,5,3,0,0,3,0,0,0,0,4,0,0,0,0,0,0,10,0,null,0,0,0,27,0,0,0,0,0,0,5,null,0,0],[0,0,0,2,23,3,0,0,22,0,0,0,1,1,0,0,0,1,0,0,16,5,null,1,1,1,45,0,0,0,0,9,0,16,null,0,0],[0,0,0,0,0,0,0,0,0,0,0,0,0,0,0,0,0,0,0,0,0,0,null,0,0,0,0,0,0,0,0,0,0,0,null,0,0],[0,0,0,0,0,0,0,0,0,0,0,0,0,0,0,0,0,0,0,0,0,0,null,0,0,0,0,0,0,0,0,0,0,0,null,0,0],[0,0,0,0,0,0,0,0,0,0,0,0,0,0,0,0,0,0,0,0,0,0,null,0,0,0,0,0,0,0,0,0,0,0,null,0,0],[99,100,383,251,1390,299,123,166,1664,116,141,268,458,753,294,193,104,191,175,198,2023,285,44,169,36,238,4447,83,517,127,177,805,226,1461,51,140,92],[36,35,160,97,564,131,54,80,538,44,54,77,160,261,116,67,30,80,56,56,777,107,17,71,19,89,1666,33,196,45,62,285,71,538,17,49,32],[5,5,13,5,33,8,3,5,53,1,4,5,12,30,8,5,6,1,3,8,60,9,5,4,1,11,128,2,20,4,6,32,6,52,2,2,4],[12,15,64,37,216,56,14,13,250,15,10,29,44,109,68,60,15,32,20,40,247,52,4,27,1,25,721,15,78,16,16,103,17,229,6,21,11],[5,2,23,15,68,15,4,11,136,4,8,8,18,108,19,11,4,15,14,13,121,24,1,12,2,15,313,1,37,10,8,40,7,59,1,1,7],[39,39,115,93,469,86,44,56,647,50,64,141,212,197,78,45,46,60,75,74,765,88,17,54,13,88,1506,30,171,51,83,317,117,544,22,64,37],[2,4,8,4,40,3,4,1,40,2,1,8,12,48,5,5,3,3,7,7,53,5,0,1,0,10,113,2,15,1,2,28,8,39,3,3,1],["jarviseutu","jarviseutu","jarviseutu","jarviseutu","jarviseutu","jarviseutu","jarviseutu","jarviseutu","jarviseutu","jarviseutu","jarviseutu","jarviseutu","jarviseutu","jarviseutu","jarviseutu","jarviseutu","jarviseutu","jarviseutu","jarviseutu","jarviseutu","jarviseutu","jarviseutu","jarviseutu","jarviseutu","jarviseutu","jarviseutu","jarviseutu","jarviseutu","jarviseutu","jarviseutu","jarviseutu","jarviseutu","jarviseutu","jarviseutu","jarviseutu","jarviseutu","jarviseutu"],["62640","62810","62950","62540","62500","62510","62520","62570","62600","62610","62620","62630","62660","62710","62720","62730","62990","62740","62750","62760","62800","62830","62840","62860","62870","62880","62900","62920","62940","63530","63540","63500","63510","63800","63830","63880","63890"],[5.1,5,3.4,2,2.4,2.7,2.4,3,3.2,0.9,2.8,1.9,2.6,4,2.7,2.6,5.8,0.5,1.7,4,3,3.2,11.4,2.4,2.8,4.6,2.9,2.4,3.9,3.1,3.4,4,2.7,3.6,3.9,1.4,4.3],[28.2,17.6,24.8,19,20.2,27.4,9.5,17.7,25.6,28.9,26,24.1,20,21.6,23.7,20.2,12.6,37.8,22.6,14.8,25.3,32.2,32.5,32.4,14.7,19.2,26.4,19.1,30.2,25.2,21.3,18.5,24,21.1,18.2,16.1,15.6],[39.4,39,30,37.1,33.7,28.8,35.8,33.7,38.9,43.1,45.4,52.6,46.3,26.2,26.5,23.3,44.2,31.4,42.9,37.4,37.8,30.9,38.6,32,36.1,37,33.9,36.1,33.1,40.2,46.9,39.4,51.8,37.2,43.1,45.7,40.2],[95.7,91.7,87.1,89,78.2,79.7,94.8,89.3,72.1,90.2,97.2,93.6,95.8,81.9,95.2,95.7,95.8,97.4,88.4,89.7,76.8,82,null,94.7,null,93.1,72.8,94.7,92.4,98.2,94.6,71,92.8,77.5,null,93.2,100],[0,6.2,8.8,8.5,19.7,19.5,0,9.5,25.8,4.9,2.8,2.1,2.8,12.9,2.9,4.3,0,1.3,4.7,6.9,22.3,13.9,null,2.6,null,4.3,25.3,2.6,2.4,1.8,3.3,26,6.3,21.2,null,4.1,0],[2.8,1.81,6.35,3.71,6,48.53,4.24,2.63,9.34,2.05,3.64,2.97,5.06,13.06,12.81,33.18,1.27,27.83,3.08,2.19,14.75,12.66,3.31,11.41,2.1,3.11,16.78,3.08,15.57,1.39,11.16,5.54,3.17,3.03,1.36,3.05,2.1],[2,4,5.5,7.2,5.3,5.7,4.1,0.6,5.2,6,0.7,6,3.1,5,9.5,12.4,3.8,4.2,2.9,8.6,2.7,6.7,0,7.7,0,5.5,6,13.3,6,5.5,0.6,4.2,3.1,5.3,5.9,3.6,5.4],[5.1,2,6,6,4.9,5,3.3,6.6,8.2,3.4,5.7,3,3.9,14.3,6.5,5.7,3.8,7.9,8,6.6,6,8.4,2.3,7.1,5.6,6.3,7,1.2,7.2,7.9,4.5,5,3.1,4,2,0.7,7.6],[98.5,100,98.1,99.4,94.3,93.6,98.8,99,78.9,97.6,99,96,95.8,93.1,100,98.9,94.2,96,97.2,95.7,92.5,100,100,95.1,100,98.7,84.4,93.8,95,95.1,97.4,95.5,92,95.8,100,99.1,98.4],[7.1,6,7.3,7.2,7.7,6.7,8.9,10.8,7.4,1.7,7.1,5.6,6.6,15.4,8.2,5.2,1.9,9.4,7.4,6.1,9.1,4.9,11.4,7.7,8.3,8.4,10.5,7.2,8.7,3.9,5.1,6.7,3.5,8.1,2,2.9,10.9],[0.9,0.85,0.91,0.86,0.96,1.08,0.81,0.87,1.03,0.87,0.88,0.97,0.88,0.86,1.06,0.87,0.93,0.95,1.03,0.87,0.98,0.93,0.91,0.99,0.89,0.65,1.04,0.73,0.97,1.02,0.97,1.02,0.84,0.97,0.82,0.92,0.7],[2.1,0,1.2,1.7,1.7,1.5,3.4,0,0.9,0,0,0.7,0.9,0.7,0,1.4,0,1.3,1.2,0,1.7,1.6,null,0,null,1.7,2.3,2.6,0.5,3.6,1.1,0.9,0.9,1.3,null,1.4,2.5],[12.8,20.8,20.6,16.1,21.2,24.8,17.2,14.3,18.7,16.4,9.7,12.1,13.9,21.4,24,29,14.6,26.9,11.6,17.2,16.3,27.9,null,23.7,null,19.8,20,15.8,23.8,23.2,13,15.2,9.9,17.6,null,13.7,15],[0,0,0,0,0,0,0,0,2.2,null,0,1.7,0,0,0,0,0,0,0,0,0.9,0,null,5.3,0,0,2.6,0,1.1,0,0,0.4,0,0,null,0,0],[0,0,3.6,0,28.5,0,0,0,26.4,null,0,6.8,1.1,6.4,13.9,0,0,24.1,0,0,22,5,null,0,79.2,3.3,28.1,0,22.6,0,0,15.8,28.8,20.5,null,3.7,0],[36.4,35,41.8,38.6,40.6,43.8,43.9,48.2,32.3,37.9,38.3,28.7,34.9,34.7,39.5,34.7,28.8,41.9,32,28.3,38.4,37.5,38.6,42,52.8,37.4,37.5,39.8,37.9,35.4,35,35.4,31.4,36.8,33.3,35,34.8],[36.4,36,26.6,34.7,31.1,26.1,33.3,30.1,36.8,42.2,41.8,48.5,42.1,23,24.5,21.2,37.5,29.3,41.7,38.4,34.4,29.5,34.1,30.2,41.7,37,30.8,31.3,31.5,38.6,43.5,37.5,49.6,33.5,37.3,45,34.8],[2.11,2.08,2.25,2.13,2.11,2.25,2.12,1.98,2.07,1.9,1.96,1.91,2.12,2.78,2.83,2.8,2.17,2.45,2.03,2.28,2.03,2.34,2.1,2.22,1.89,2.05,2.18,2.18,2.46,2.27,1.92,1.89,2.04,2.05,2.12,1.92,2.3],[18.2,0,27.4,48.1,15.6,54.8,9.7,32.4,13.9,null,25,64.4,29.5,27.7,13.9,71.1,63.2,37,13.3,68,40.4,92.6,null,15.8,0,10,17.9,0,31.2,29,16.7,13.2,22.7,25.2,null,29.6,0],[0,0,0,0,6.7,0,0,0,6.1,null,0,0,0,0,0,0,0,0,0,0,2.1,0,null,0,0,0,2.8,75,0,0,22.2,0,0,3,null,0,0],[0,25,19,33.3,66.4,40,0,38.2,78.8,null,25,18.6,12.5,57.4,69.4,22.8,21.1,46.3,40,24,54.1,7.1,null,42.1,100,36.7,78.3,87.5,52.7,29,72.2,69.7,65.2,62.3,null,7.4,38.5],[126.2,127,103.3,111.2,92.5,100.6,113.3,105,81,120.2,105.1,119,106.2,101.5,106.1,116.3,143.5,117.2,103.7,126.5,97,111.6,103.6,109.7,117.2,101.9,78.5,112.5,114.7,128,126.3,82.6,125.3,97.2,147.4,98.1,98.4],[0,0.9,2.2,0,4.6,1.3,0.8,2.7,6.9,0,0.6,0,1.9,11.1,1,1.4,1.7,1.5,1.7,1.4,1.5,0.3,2.3,0,0,0.4,2.6,0,2,1.4,1.1,3.1,1.2,1.4,0,1.3,0],[43.3,42.7,54.7,94.4,94.4,94.4,94.4,94.4,43.3,43.3,43.3,43.3,43.3,54.7,54.7,54.7,54.7,54.7,54.7,54.7,42.7,54.7,42.7,42.7,42.7,42.7,54.7,54.7,54.7,54.7,54.7,54.7,54.7,38.9,38.9,38.9,38.9],[null,null,null,null,null,null,null,null,1182,null,null,null,null,null,null,null,null,null,null,null,1174,null,null,null,null,null,1571,null,null,null,null,553,null,713,null,null,null],[0.5,0.2,0.3,0.2,0.2,2.3,0.1,0.1,0.3,0.1,0.4,0.3,0.3,0.5,0.7,0.9,0,2.3,0.2,0.2,0.2,0.5,0.1,0.3,0.3,0.2,0.2,0.7,0.9,0,0.7,0.2,0.3,0.2,0,0.2,0.1],[24,24.8,24.7,23.5,23.9,23.9,23.9,24.3,24.5,24.3,24.3,24.3,25.1,24,24,24,23.8,23.6,23.6,23.5,25,24.6,25.2,25.2,24.5,24.5,24.6,23.7,24.6,23.2,23.1,23.1,23.5,23.2,23.2,23.5,23.6],[0,0,0,0,0,0,0,0,0.0056,0,0,0,0,0,0,0,0,0,0,0,0,0,0,0,0,0,0.0075,0,0,0,0,0.0069,0,0,0,0,0],[0,0,0.0166,0,0,0.4869,0,0.0158,0.0112,0,0,0,0,0.0173,0.0436,0,0,0,0,0,0.0365,0.0444,0,0,0,0,0.0189,0,0.0301,0,0,0.0069,0,0.0021,0,0,0],[0,0,0,0,0.0043,0,0,0,0.0112,0,0,0,0,0,0,0,0,0,0,0,0.0292,0,0,0,0,0,0.0226,0,0,0,0,0.0206,0,0.0062,0,0,0],[0,0,0,0,0,0.3246,0,0,0.0281,0,0,0.0111,0,0,0.0871,0,0,0.1457,0,0,0.0219,0,0,0,0,0,0.0566,0,0.0301,0,0,0.0344,0.014,0.0041,0,0,0],[0,0,0,0,0.0043,0,0,0,0.0056,0,0,0,0,0,0,0,0,0,0,0,0.0146,0,0,0,0,0,0.0264,0,0,0,0,0.0069,0,0.0021,0,0,0],[0,0,0,0,0.0906,1.2984,0,0,0.2638,0,0,0,0.011,0.1214,0.2614,0,0,0.2914,0,0,0.4667,0.3111,0,0,0,0,0.4416,0,0.3614,0,0.1892,0.1514,0.1261,0.0456,0,0,0],[34,33.3,32.4,35.6,42.3,30.8,31,40.5,42.8,44.3,33.3,38.6,33.8,34.7,23.1,29,31.2,26.9,40.7,44.8,42.2,30.3,null,35.5,null,37.1,38.8,34.2,24.3,26.8,35.9,50.1,34.2,42.6,null,41.1,40],[null,null,null,null,null,null,null,null,null,null,null,null,null,null,null,null,null,null,null,null,null,null,null,null,null,null,null,null,null,null,null,null,null,null,null,null,null],[null,null,null,null,null,null,null,null,null,null,null,null,null,null,null,null,null,null,null,null,null,null,null,null,null,null,null,null,null,null,null,null,null,null,null,null,null],[33,29,38,29,47,68,26,33,65,26,32,37,35,46,60,35,24,54,29,29,68,50,26,31,31,29,68,35,59,24,41,62,43,55,24,29,26],[13.5,3.3,null,1.3,2.2,7.8,2.7,null,1,null,9.5,5,2.2,2.7,9.1,null,9.6,3.5,1.9,5.1,0.8,2.3,null,null,null,1.4,0.7,8,2.6,7.9,1.9,0.8,4.4,0.9,null,null,3.6],[null,null,null,null,null,null,null,null,null,null,null,null,null,null,null,null,null,null,null,null,null,null,null,null,null,null,2.9,null,null,null,null,null,null,-9.2,null,null,null],[null,null,null,null,null,55.6,null,null,null,null,null,null,null,null,null,null,null,null,null,null,59.7,null,null,null,null,null,59.5,null,null,null,null,null,null,null,null,null,null],[0.03,0.05,0.08,0.19,0.13,0.88,0.03,0.11,0.22,0.04,0.04,0.03,0.16,0.23,0.28,4.69,0.08,0.27,0.01,0.01,0.2,0.43,0.16,0.35,0,0.02,0.23,0,0.25,0,0.03,0.03,0.02,0.02,0.01,0,0],[40,40,40,40,40,40,40,40,40,40,40,40,40,40,40,40,40,40,40,40,40,40,40,40,40,40,40,40,40,40,40,40,40,40,40,40,40],[69.3,69.8,68.2,69.7,69.7,69.7,69.7,69.7,69.3,69.3,69.3,69.3,69.3,68.2,68.2,68.2,68.2,68.2,68.2,68.2,69.8,68.2,69.8,69.8,69.8,69.8,68.2,68.2,68.2,68.2,68.2,68.2,68.2,65.4,65.4,65.4,65.4],[0.633,0.666,0.653,0.666,0.666,0.666,0.666,0.666,0.633,0.633,0.633,0.633,0.633,0.653,0.653,0.653,0.653,0.653,0.653,0.653,0.666,0.653,0.666,0.666,0.666,0.666,0.653,0.653,0.653,0.653,0.653,0.653,0.653,0.649,0.649,0.649,0.649],[82,85,87,96,96,96,96,96,82,82,82,82,82,87,87,87,87,87,87,87,85,87,85,85,85,85,87,87,87,87,87,87,87,73,73,73,73],[0,0,0,0,0,0,0,0,0,0,0,0,0,0,0,0,0,0,0,0,0,0,0,0,0,0,0,0,0,0,0,0,0,0,0,0,0],[41.2,50,54.4,50.2,36,49.6,42.2,54.4,53.6,10.8,68.8,39.8,55.8,41,12,38.4,39.4,35.4,50.4,38.8,29.7,48,0.8,5.3,49,54.4,32.6,60.6,38.2,49,45,42.7,37.4,38.3,45.8,57.8,32.6],[null,null,null,null,null,null,null,null,null,null,null,null,null,null,null,null,null,null,null,null,null,null,null,null,null,null,null,null,null,null,null,null,null,null,null,null,null],[0,0,0,0,0.1,0.8,0,0,0.2,0.1,0,0,0.1,0.1,0.1,0,0,0,0,0,0.2,0.1,0,0.2,0.1,0,0.1,0.1,0.2,0,0,0.1,0.2,0,0,0,0],[800,2710,1270,450,370,650,500,1190,390,210,750,480,1910,1670,1110,1470,2140,660,3420,1000,760,730,0,410,570,590,560,400,610,890,1020,600,1330,1080,1660,550,730],[1982,1981,1983,1984,1983,1984,1984,1984,1980,1982,1981,1982,1981,1982,1983,1983,1984,1983,1983,1984,1979,1983,1980,1980,1980,1980,1981,1983,1983,1984,1984,1982,1983,1977,1979,1977,1977],[[[2021,18928],[2022,18250],[2023,20044],[2024,20105],[2025,21701],[2026,23944]],[[2021,17505],[2022,19127],[2023,18871],[2024,20238],[2025,19920],[2026,20904]],[[2021,21108],[2022,20208],[2023,23162],[2024,23249],[2025,23823],[2026,25731]],[[2021,21190],[2022,20422],[2023,21278],[2024,20114],[2025,21365],[2026,22918]],[[2021,20324],[2022,20806],[2023,20938],[2024,22267],[2025,23762],[2026,24261]],[[2021,23802],[2022,23211],[2023,23714],[2024,25140],[2025,26152],[2026,27075]],[[2021,21910],[2022,20057],[2023,21616],[2024,23091],[2025,23688],[2026,24645]],[[2021,19475],[2022,18799],[2023,20864],[2024,20514],[2025,23400],[2026,24323]],[[2021,19429],[2022,19351],[2023,19862],[2024,20554],[2025,21615],[2026,22353]],[[2021,20963],[2022,20760],[2023,20616],[2024,22072],[2025,23736],[2026,24222]],[[2021,16914],[2022,18482],[2023,17519],[2024,19934],[2025,21585],[2026,22227]],[[2021,17951],[2022,17381],[2023,18750],[2024,19397],[2025,19423],[2026,20384]],[[2021,18639],[2022,18461],[2023,18458],[2024,18826],[2025,19863],[2026,19856]],[[2021,18266],[2022,18525],[2023,19166],[2024,20090],[2025,20087],[2026,21009]],[[2021,21965],[2022,21824],[2023,22025],[2024,22197],[2025,23717],[2026,24605]],[[2021,20120],[2022,20354],[2023,22936],[2024,22894],[2025,24715],[2026,27301]],[[2021,17136],[2022,15113],[2023,16777],[2024,16582],[2025,18952],[2026,17974]],[[2021,23187],[2022,22570],[2023,22663],[2024,24184],[2025,26119],[2026,26546]],[[2021,17296],[2022,17404],[2023,18024],[2024,18298],[2025,20522],[2026,21063]],[[2021,17211],[2022,17061],[2023,19564],[2024,18257],[2025,19589],[2026,19990]],[[2021,20480],[2022,20495],[2023,20781],[2024,21674],[2025,22722],[2026,23640]],[[2021,23626],[2022,22111],[2023,23481],[2024,24444],[2025,26915],[2026,27941]],[[2021,21584],[2022,22544],[2023,23126],[2024,24591],[2025,25332],[2026,22926]],[[2021,20121],[2022,19302],[2023,20454],[2024,22252],[2025,24398],[2026,25859]],[[2021,19003],[2022,23277],[2023,24059],[2024,21161],[2025,24475],[2026,25934]],[[2021,19605],[2022,18656],[2023,23195],[2024,21673],[2025,21780],[2026,21876]],[[2021,19938],[2022,20088],[2023,20677],[2024,21735],[2025,22784],[2026,23539]],[[2021,21015],[2022,17299],[2023,19596],[2024,21389],[2025,24594],[2026,22647]],[[2021,20064],[2022,20352],[2023,21260],[2024,21523],[2025,23168],[2026,23849]],[[2021,17909],[2022,19994],[2023,18723],[2024,18652],[2025,22211],[2026,22208]],[[2021,18613],[2022,18476],[2023,18514],[2024,19833],[2025,20233],[2026,22337]],[[2021,17779],[2022,17206],[2023,18258],[2024,18618],[2025,19713],[2026,21802]],[[2021,17578],[2022,19303],[2023,18697],[2024,19628],[2025,19633],[2026,21786]],[[2021,19088],[2022,19212],[2023,20394],[2024,20989],[2025,22395],[2026,23578]],[[2021,13847],[2022,15812],[2023,15266],[2024,17328],[2025,20853],[2026,19690]],[[2021,16560],[2022,16090],[2023,17736],[2024,20294],[2025,19710],[2026,21287]],[[2021,17770],[2022,17108],[2023,18023],[2024,20194],[2025,19321],[2026,21492]]],[[[2021,114],[2022,108],[2023,101],[2024,100],[2025,98],[2026,99]],[[2021,109],[2022,108],[2023,106],[2024,105],[2025,100],[2026,100]],[[2021,414],[2022,410],[2023,385],[2024,388],[2025,386],[2026,383]],[[2021,263],[2022,263],[2023,263],[2024,256],[2025,255],[2026,251]],[[2021,1477],[2022,1486],[2023,1480],[2024,1451],[2025,1403],[2026,1390]],[[2021,317],[2022,301],[2023,299],[2024,288],[2025,293],[2026,299]],[[2021,137],[2022,133],[2023,128],[2024,126],[2025,125],[2026,123]],[[2021,195],[2022,188],[2023,187],[2024,178],[2025,174],[2026,166]],[[2021,1762],[2022,1739],[2023,1699],[2024,1683],[2025,1670],[2026,1664]],[[2021,120],[2022,126],[2023,124],[2024,122],[2025,113],[2026,116]],[[2021,174],[2022,159],[2023,155],[2024,154],[2025,154],[2026,141]],[[2021,294],[2022,287],[2023,277],[2024,271],[2025,270],[2026,268]],[[2021,535],[2022,515],[2023,508],[2024,485],[2025,475],[2026,458]],[[2021,770],[2022,749],[2023,734],[2024,727],[2025,744],[2026,753]],[[2021,300],[2022,307],[2023,304],[2024,296],[2025,299],[2026,294]],[[2021,217],[2022,211],[2023,213],[2024,205],[2025,201],[2026,193]],[[2021,126],[2022,116],[2023,119],[2024,112],[2025,114],[2026,104]],[[2021,201],[2022,195],[2023,203],[2024,201],[2025,205],[2026,191]],[[2021,188],[2022,179],[2023,179],[2024,173],[2025,175],[2026,175]],[[2021,221],[2022,208],[2023,208],[2024,200],[2025,198],[2026,198]],[[2021,2186],[2022,2157],[2023,2155],[2024,2072],[2025,2072],[2026,2023]],[[2021,324],[2022,308],[2023,309],[2024,301],[2025,292],[2026,285]],[[2021,47],[2022,44],[2023,41],[2024,42],[2025,42],[2026,44]],[[2021,192],[2022,195],[2023,182],[2024,175],[2025,173],[2026,169]],[[2021,45],[2022,41],[2023,36],[2024,40],[2025,32],[2026,36]],[[2021,258],[2022,252],[2023,248],[2024,245],[2025,244],[2026,238]],[[2021,4602],[2022,4569],[2023,4517],[2024,4456],[2025,4403],[2026,4447]],[[2021,84],[2022,88],[2023,88],[2024,88],[2025,82],[2026,83]],[[2021,550],[2022,541],[2023,539],[2024,540],[2025,531],[2026,517]],[[2021,146],[2022,145],[2023,132],[2024,126],[2025,126],[2026,127]],[[2021,191],[2022,188],[2023,181],[2024,179],[2025,176],[2026,177]],[[2021,862],[2022,840],[2023,834],[2024,823],[2025,821],[2026,805]],[[2021,260],[2022,257],[2023,240],[2024,237],[2025,235],[2026,226]],[[2021,1666],[2022,1640],[2023,1627],[2024,1574],[2025,1513],[2026,1461]],[[2021,62],[2022,56],[2023,55],[2024,55],[2025,54],[2026,51]],[[2021,157],[2022,157],[2023,153],[2024,153],[2025,149],[2026,140]],[[2021,110],[2022,99],[2023,100],[2024,97],[2025,96],[2026,92]]],[[[2021,5.3],[2022,4.6],[2023,2],[2024,6],[2025,3.1],[2026,5.1]],[[2021,2.8],[2022,3.7],[2023,3.8],[2024,0],[2025,5],[2026,5]],[[2021,4.8],[2022,2.4],[2023,4.9],[2024,6.2],[2025,3.4],[2026,3.4]],[[2021,2.3],[2022,2.3],[2023,2.3],[2024,1.2],[2025,2.7],[2026,2]],[[2021,2.6],[2022,2.3],[2023,1.8],[2024,3.1],[2025,3.4],[2026,2.4]],[[2021,3.5],[2022,3.3],[2023,3.7],[2024,3.5],[2025,3.8],[2026,2.7]],[[2021,1.5],[2022,2.3],[2023,1.6],[2024,0],[2025,3.2],[2026,2.4]],[[2021,6.2],[2022,3.7],[2023,4.3],[2024,5.6],[2025,5.7],[2026,3]],[[2021,2.6],[2022,2.9],[2023,2.8],[2024,3.1],[2025,2.8],[2026,3.2]],[[2021,5],[2022,5.6],[2023,5.6],[2024,3.3],[2025,0],[2026,0.9]],[[2021,3.4],[2022,5],[2023,3.9],[2024,3.2],[2025,3.9],[2026,2.8]],[[2021,3.1],[2022,2.4],[2023,2.5],[2024,2.2],[2025,3.3],[2026,1.9]],[[2021,3.2],[2022,2.7],[2023,2.6],[2024,2.1],[2025,1.7],[2026,2.6]],[[2021,4.2],[2022,4.4],[2023,3.1],[2024,2.9],[2025,3.5],[2026,4]],[[2021,4.3],[2022,2.9],[2023,2],[2024,3],[2025,2.7],[2026,2.7]],[[2021,3.7],[2022,2.4],[2023,3.8],[2024,3.4],[2025,2],[2026,2.6]],[[2021,4],[2022,3.4],[2023,6.7],[2024,2.7],[2025,3.5],[2026,5.8]],[[2021,3.5],[2022,2.1],[2023,1],[2024,1],[2025,1.5],[2026,0.5]],[[2021,1.6],[2022,2.8],[2023,2.8],[2024,2.3],[2025,3.4],[2026,1.7]],[[2021,4.1],[2022,4.3],[2023,3.8],[2024,3],[2025,1.5],[2026,4]],[[2021,2.6],[2022,2.4],[2023,3.2],[2024,2.9],[2025,3.4],[2026,3]],[[2021,1.2],[2022,2.6],[2023,1.3],[2024,1],[2025,2.7],[2026,3.2]],[[2021,2.1],[2022,4.5],[2023,4.9],[2024,7.1],[2025,4.8],[2026,11.4]],[[2021,5.2],[2022,4.6],[2023,3.8],[2024,3.4],[2025,2.3],[2026,2.4]],[[2021,6.7],[2022,4.9],[2023,5.6],[2024,0],[2025,9.4],[2026,2.8]],[[2021,4.3],[2022,3.2],[2023,2.4],[2024,1.6],[2025,1.6],[2026,4.6]],[[2021,4],[2022,3.9],[2023,3.2],[2024,3.4],[2025,3.3],[2026,2.9]],[[2021,1.2],[2022,2.3],[2023,4.5],[2024,0],[2025,2.4],[2026,2.4]],[[2021,6],[2022,4.1],[2023,5],[2024,3.1],[2025,2.8],[2026,3.9]],[[2021,5.5],[2022,4.1],[2023,2.3],[2024,1.6],[2025,0.8],[2026,3.1]],[[2021,6.3],[2022,4.3],[2023,6.1],[2024,7.3],[2025,3.4],[2026,3.4]],[[2021,4.6],[2022,4.4],[2023,2.8],[2024,2.8],[2025,4.9],[2026,4]],[[2021,2.7],[2022,3.5],[2023,2.5],[2024,2.5],[2025,3],[2026,2.7]],[[2021,4.6],[2022,5.3],[2023,4.1],[2024,4.1],[2025,4.9],[2026,3.6]],[[2021,8.1],[2022,10.7],[2023,5.5],[2024,5.5],[2025,5.6],[2026,3.9]],[[2021,3.2],[2022,4.5],[2023,1.3],[2024,0.7],[2025,2],[2026,1.4]],[[2021,2.7],[2022,2],[2023,1],[2024,3.1],[2025,0],[2026,4.3]]],[26.5,19.4,21.9,8.2,19.4,13.8,12.5,24.9,15,15.5,31.4,13.6,6.5,15,12,35.7,4.9,14.5,21.8,16.1,15.4,18.3,6.2,28.5,36.5,11.6,18.1,7.8,18.9,24,20,22.6,23.9,23.5,42.2,28.5,20.9],[-13.2,-8.3,-7.5,-4.6,-5.9,-5.7,-10.2,-14.9,-5.6,-3.3,-19,-8.8,-14.4,-2.2,-2,-11.1,-17.5,-5,-6.9,-10.4,-7.5,-12,-6.4,-12,-20,-7.8,-3.4,-1.2,-6,-13,-7.3,-6.6,-13.1,-12.3,-17.7,-10.8,-16.4],[-3.8,78.6,-29.2,-13,-7.7,-22.9,60,-51.6,23.1,-82,-17.6,-38.7,-18.8,-4.8,-37.2,-29.7,45,-85.7,6.2,-2.4,15.4,166.7,442.9,-53.8,-58.2,7,-27.5,100,-35,-43.6,-46,-13,0,-21.7,-51.9,-56.2,59.3],[null,null,null,null,null,[{"name":"Evijärven lukio","score":55.6}],null,null,null,null,null,null,null,null,null,null,null,null,null,null,[{"name":"Vimpelin lukio","score":59.7}],null,null,null,null,null,[{"name":"Alajärven lukio","score":59.5}],null,null,null,null,null,null,null,null,null,null],[[[2020,41.4],[2021,31.8],[2022,26.3],[2023,37.3],[2024,43.9],[2025,43.3]],[[2020,60.4],[2021,37],[2022,28.5],[2023,22.2],[2024,34.2],[2025,42.7]],[[2020,55.1],[2021,46.6],[2022,46.4],[2023,47.2],[2024,51.4],[2025,54.7]],[[2020,81.8],[2021,83.6],[2022,89.9],[2023,91.2],[2024,86.7],[2025,94.4]],[[2020,81.8],[2021,83.6],[2022,89.9],[2023,91.2],[2024,86.7],[2025,94.4]],[[2020,81.8],[2021,83.6],[2022,89.9],[2023,91.2],[2024,86.7],[2025,94.4]],[[2020,81.8],[2021,83.6],[2022,89.9],[2023,91.2],[2024,86.7],[2025,94.4]],[[2020,81.8],[2021,83.6],[2022,89.9],[2023,91.2],[2024,86.7],[2025,94.4]],[[2020,41.4],[2021,31.8],[2022,26.3],[2023,37.3],[2024,43.9],[2025,43.3]],[[2020,41.4],[2021,31.8],[2022,26.3],[2023,37.3],[2024,43.9],[2025,43.3]],[[2020,41.4],[2021,31.8],[2022,26.3],[2023,37.3],[2024,43.9],[2025,43.3]],[[2020,41.4],[2021,31.8],[2022,26.3],[2023,37.3],[2024,43.9],[2025,43.3]],[[2020,41.4],[2021,31.8],[2022,26.3],[2023,37.3],[2024,43.9],[2025,43.3]],[[2020,55.1],[2021,46.6],[2022,46.4],[2023,47.2],[2024,51.4],[2025,54.7]],[[2020,55.1],[2021,46.6],[2022,46.4],[2023,47.2],[2024,51.4],[2025,54.7]],[[2020,55.1],[2021,46.6],[2022,46.4],[2023,47.2],[2024,51.4],[2025,54.7]],[[2020,55.1],[2021,46.6],[2022,46.4],[2023,47.2],[2024,51.4],[2025,54.7]],[[2020,55.1],[2021,46.6],[2022,46.4],[2023,47.2],[2024,51.4],[2025,54.7]],[[2020,55.1],[2021,46.6],[2022,46.4],[2023,47.2],[2024,51.4],[2025,54.7]],[[2020,55.1],[2021,46.6],[2022,46.4],[2023,47.2],[2024,51.4],[2025,54.7]],[[2020,60.4],[2021,37],[2022,28.5],[2023,22.2],[2024,34.2],[2025,42.7]],[[2020,55.1],[2021,46.6],[2022,46.4],[2023,47.2],[2024,51.4],[2025,54.7]],[[2020,60.4],[2021,37],[2022,28.5],[2023,22.2],[2024,34.2],[2025,42.7]],[[2020,60.4],[2021,37],[2022,28.5],[2023,22.2],[2024,34.2],[2025,42.7]],[[2020,60.4],[2021,37],[2022,28.5],[2023,22.2],[2024,34.2],[2025,42.7]],[[2020,60.4],[2021,37],[2022,28.5],[2023,22.2],[2024,34.2],[2025,42.7]],[[2020,55.1],[2021,46.6],[2022,46.4],[2023,47.2],[2024,51.4],[2025,54.7]],[[2020,55.1],[2021,46.6],[2022,46.4],[2023,47.2],[2024,51.4],[2025,54.7]],[[2020,55.1],[2021,46.6],[2022,46.4],[2023,47.2],[2024,51.4],[2025,54.7]],[[2020,55.1],[2021,46.6],[2022,46.4],[2023,47.2],[2024,51.4],[2025,54.7]],[[2020,55.1],[2021,46.6],[2022,46.4],[2023,47.2],[2024,51.4],[2025,54.7]],[[2020,55.1],[2021,46.6],[2022,46.4],[2023,47.2],[2024,51.4],[2025,54.7]],[[2020,55.1],[2021,46.6],[2022,46.4],[2023,47.2],[2024,51.4],[2025,54.7]],[[2020,37.3],[2021,33],[2022,40.6],[2023,32.5],[2024,33.3],[2025,38.9]],[[2020,37.3],[2021,33],[2022,40.6],[2023,32.5],[2024,33.3],[2025,38.9]],[[2020,37.3],[2021,33],[2022,40.6],[2023,32.5],[2024,33.3],[2025,38.9]],[[2020,37.3],[2021,33],[2022,40.6],[2023,32.5],[2024,33.3],[2025,38.9]]],[4.6,-29.3,-0.7,15.4,15.4,15.4,15.4,15.4,4.6,4.6,4.6,4.6,4.6,-0.7,-0.7,-0.7,-0.7,-0.7,-0.7,-0.7,-29.3,-0.7,-29.3,-29.3,-29.3,-29.3,-0.7,-0.7,-0.7,-0.7,-0.7,-0.7,-0.7,4.3,4.3,4.3,4.3],[108.3,112.4,111.6,126,126,126,126,126,108.3,108.3,108.3,108.3,108.3,111.6,111.6,111.6,111.6,111.6,111.6,111.6,112.4,111.6,112.4,112.4,112.4,112.4,111.6,111.6,111.6,111.6,111.6,111.6,111.6,101.6,101.6,101.6,101.6],[null,null,null,null,null,null,null,null,62,null,null,44,64,null,null,null,null,null,null,null,53,null,null,null,null,77,55,null,null,null,null,64,null,56,null,null,null],["Lappajärvi","Vimpeli","Alajärvi","Evijärvi","Evijärvi","Evijärvi","Evijärvi","Evijärvi","Lappajärvi","Lappajärvi","Lappajärvi","Lappajärvi","Lappajärvi","Alajärvi","Alajärvi","Alajärvi","Alajärvi","Alajärvi","Alajärvi","Alajärvi","Vimpeli","Alajärvi","Vimpeli","Vimpeli","Vimpeli","Vimpeli","Alajärvi","Alajärvi","Alajärvi","Alajärvi","Alajärvi","Alajärvi","Alajärvi","Soini","Soini","Soini","Soini"],[23.61229,24.08666,23.97454,23.32933,23.41235,23.45699,23.45056,23.65365,23.60336,23.51827,23.53193,23.53506,23.78485,23.68717,23.63742,23.66584,24.24391,23.75838,23.73171,23.54629,23.82068,23.8322,23.77962,23.77526,23.93361,23.99303,23.88339,23.95058,23.87187,23.76772,23.96188,23.98463,23.93884,24.23244,24.21896,24.09715,24.152],[63.05184,63.15695,63.08613,63.42679,63.38475,63.3609,63.32633,63.33505,63.21404,63.21115,63.18344,63.12351,63.24791,63.01812,63.02179,63.03622,63.05491,62.98158,62.94664,62.94943,63.12864,63.07163,63.12145,63.18508,63.21169,63.22964,63.01364,62.96589,63.03326,62.81875,62.83595,62.83083,62.77343,62.83747,62.98126,62.76249,62.7289],[null,null,null,null,null,null,null,null,null,null,null,null,null,null,null,null,null,null,null,null,null,null,null,null,null,null,null,null,null,null,null,null,null,null,null,null,null],[-20.7,-18.6,-15.2,-17.4,-17.4,-17.4,-17.4,-17.4,-20.7,-20.7,-20.7,-20.7,-20.7,-15.2,-15.2,-15.2,-15.2,-15.2,-15.2,-15.2,-18.6,-15.2,-18.6,-18.6,-18.6,-18.6,-15.2,-15.2,-15.2,-15.2,-15.2,-15.2,-15.2,-25,-25,-25,-25],[4,5,7.5,4.9,4.9,4.9,4.9,4.9,4,4,4,4,4,7.5,7.5,7.5,7.5,7.5,7.5,7.5,5,7.5,5,5,5,5,7.5,7.5,7.5,7.5,7.5,7.5,7.5,6.3,6.3,6.3,6.3],[null,null,null,null,null,null,null,null,null,null,null,null,null,null,null,null,null,null,null,null,null,null,null,null,null,null,1,null,null,null,null,null,null,null,null,null,null],[64.8,64.6,65.9,65.4,65.4,65.4,65.4,65.4,64.8,64.8,64.8,64.8,64.8,65.9,65.9,65.9,65.9,65.9,65.9,65.9,64.6,65.9,64.6,64.6,64.6,64.6,65.9,65.9,65.9,65.9,65.9,65.9,65.9,65.8,65.8,65.8,65.8],[16.8,34.6,17.6,11.8,11.8,11.8,11.8,11.8,16.8,16.8,16.8,16.8,16.8,17.6,17.6,17.6,17.6,17.6,17.6,17.6,34.6,17.6,34.6,34.6,34.6,34.6,17.6,17.6,17.6,17.6,17.6,17.6,17.6,9.2,9.2,9.2,9.2],[6.5,6.9,4.5,6,6,6,6,6,6.5,6.5,6.5,6.5,6.5,4.5,4.5,4.5,4.5,4.5,4.5,4.5,6.9,4.5,6.9,6.9,6.9,6.9,4.5,4.5,4.5,4.5,4.5,4.5,4.5,4.9,4.9,4.9,4.9],[23.8,19.4,23.8,28.3,28.3,28.3,28.3,28.3,23.8,23.8,23.8,23.8,23.8,23.8,23.8,23.8,23.8,23.8,23.8,23.8,19.4,23.8,19.4,19.4,19.4,19.4,23.8,23.8,23.8,23.8,23.8,23.8,23.8,28.5,28.5,28.5,28.5],[41.2,21.8,37.2,40.9,40.9,40.9,40.9,40.9,41.2,41.2,41.2,41.2,41.2,37.2,37.2,37.2,37.2,37.2,37.2,37.2,21.8,37.2,21.8,21.8,21.8,21.8,37.2,37.2,37.2,37.2,37.2,37.2,37.2,39.3,39.3,39.3,39.3],[1.7,1.3,2.3,1,1,1,1,1,1.7,1.7,1.7,1.7,1.7,2.3,2.3,2.3,2.3,2.3,2.3,2.3,1.3,2.3,1.3,1.3,1.3,1.3,2.3,2.3,2.3,2.3,2.3,2.3,2.3,1.6,1.6,1.6,1.6],[1.3,6.3,0.9,1.7,1.7,1.7,1.7,1.7,1.3,1.3,1.3,1.3,1.3,0.9,0.9,0.9,0.9,0.9,0.9,0.9,6.3,0.9,6.3,6.3,6.3,6.3,0.9,0.9,0.9,0.9,0.9,0.9,0.9,1.4,1.4,1.4,1.4],[0.4,0.7,0.4,0.7,0.7,0.7,0.7,0.7,0.4,0.4,0.4,0.4,0.4,0.4,0.4,0.4,0.4,0.4,0.4,0.4,0.7,0.4,0.7,0.7,0.7,0.7,0.4,0.4,0.4,0.4,0.4,0.4,0.4,0.2,0.2,0.2,0.2],[7.1,2.8,5.2,5.2,5.2,5.2,5.2,5.2,7.1,7.1,7.1,7.1,7.1,5.2,5.2,5.2,5.2,5.2,5.2,5.2,2.8,5.2,2.8,2.8,2.8,2.8,5.2,5.2,5.2,5.2,5.2,5.2,5.2,1.8,1.8,1.8,1.8],[[[2020,0],[2021,0],[2022,0],[2023,0],[2024,0],[2025,0]],[[2020,0.9],[2021,1.2],[2022,1.3],[2023,1.8],[2024,2],[2025,1.9]],[[2020,2.2],[2021,2.2],[2022,2.5],[2023,3.3],[2024,3.7],[2025,3.8]],[[2020,0],[2021,0],[2022,0],[2023,0],[2024,0],[2025,0]],[[2020,4.6],[2021,5.3],[2022,5.8],[2023,6.2],[2024,6.9],[2025,7.5]],[[2020,1.3],[2021,1.5],[2022,1.6],[2023,1.7],[2024,1.9],[2025,2.1]],[[2020,0.8],[2021,0.9],[2022,1],[2023,1.1],[2024,1.2],[2025,1.3]],[[2020,2.7],[2021,3.1],[2022,3.4],[2023,3.6],[2024,4],[2025,4.4]],[[2020,6.9],[2021,7.2],[2022,7.7],[2023,9.2],[2024,10.3],[2025,10.9]],[[2020,0],[2021,0],[2022,0],[2023,0],[2024,0],[2025,0]],[[2020,0.6],[2021,0.6],[2022,0.7],[2023,0.8],[2024,0.9],[2025,0.9]],[[2020,0],[2021,0],[2022,0],[2023,0],[2024,0],[2025,0]],[[2020,1.9],[2021,2],[2022,2.1],[2023,2.5],[2024,2.8],[2025,3]],[[2020,11.1],[2021,11.1],[2022,12.6],[2023,16.6],[2024,18.5],[2025,19.2]],[[2020,1],[2021,1],[2022,1.1],[2023,1.5],[2024,1.7],[2025,1.7]],[[2020,1.4],[2021,1.4],[2022,1.6],[2023,2.1],[2024,2.3],[2025,2.4]],[[2020,1.7],[2021,1.7],[2022,1.9],[2023,2.5],[2024,2.8],[2025,2.9]],[[2020,1.5],[2021,1.5],[2022,1.7],[2023,2.2],[2024,2.5],[2025,2.6]],[[2020,1.7],[2021,1.7],[2022,1.9],[2023,2.5],[2024,2.8],[2025,2.9]],[[2020,1.4],[2021,1.4],[2022,1.6],[2023,2.1],[2024,2.3],[2025,2.4]],[[2020,1.5],[2021,2],[2022,2.2],[2023,3],[2024,3.3],[2025,3.2]],[[2020,0.3],[2021,0.3],[2022,0.3],[2023,0.4],[2024,0.5],[2025,0.5]],[[2020,2.3],[2021,3],[2022,3.4],[2023,4.6],[2024,5.1],[2025,5]],[[2020,0],[2021,0],[2022,0],[2023,0],[2024,0],[2025,0]],[[2020,0],[2021,0],[2022,0],[2023,0],[2024,0],[2025,0]],[[2020,0.4],[2021,0.5],[2022,0.6],[2023,0.8],[2024,0.9],[2025,0.9]],[[2020,2.6],[2021,2.6],[2022,2.9],[2023,3.9],[2024,4.3],[2025,4.5]],[[2020,0],[2021,0],[2022,0],[2023,0],[2024,0],[2025,0]],[[2020,2],[2021,2],[2022,2.3],[2023,3],[2024,3.3],[2025,3.5]],[[2020,1.4],[2021,1.4],[2022,1.6],[2023,2.1],[2024,2.3],[2025,2.4]],[[2020,1.1],[2021,1.1],[2022,1.2],[2023,1.7],[2024,1.8],[2025,1.9]],[[2020,3.1],[2021,3.1],[2022,3.5],[2023,4.7],[2024,5.2],[2025,5.4]],[[2020,1.2],[2021,1.2],[2022,1.4],[2023,1.8],[2024,2],[2025,2.1]],[[2020,1.4],[2021,1.6],[2022,1.6],[2023,1.6],[2024,1.6],[2025,2.1]],[[2020,0],[2021,0],[2022,0],[2023,0],[2024,0],[2025,0]],[[2020,1.3],[2021,1.5],[2022,1.5],[2023,1.5],[2024,1.5],[2025,2]],[[2020,0],[2021,0],[2022,0],[2023,0],[2024,0],[2025,0]]],[0,1.9,3.8,0,7.5,2.1,1.3,4.4,10.9,0,0.9,0,3,19.2,1.7,2.4,2.9,2.6,2.9,2.4,3.2,0.5,5,0,0,0.9,4.5,0,3.5,2.4,1.9,5.4,2.1,2.1,0,2,0],[24.7,32.9,19.6,24.4,20,16.7,23.8,26.5,24.8,15.5,28.3,26.7,30,36.5,25.1,19.4,41.4,20.3,28.1,30.9,21.4,11.8,25,22.8,23.5,30.5,22,27.9,23.7,35.9,27.7,28.4,29.4,24.4,27.3,28,26],[30.6,34.3,52.5,55.7,79.6,175.6,57.4,42.5,109.9,0,22.2,76.6,55,36,31,170.1,63.3,67.5,26.8,44.6,103.5,355.1,29.4,26.8,126.3,33.7,109.3,48.5,47.4,68.9,29,82.1,93,104.1,47.1,55.1,40.6],[3.1,3.2,4.7,4,4,4,4,4,3.1,3.1,3.1,3.1,3.1,4.7,4.7,4.7,4.7,4.7,4.7,4.7,3.2,4.7,3.2,3.2,3.2,3.2,4.7,4.7,4.7,4.7,4.7,4.7,4.7,null,null,null,null],[14.8,13.3,15.1,17.2,17.2,17.2,17.2,17.2,14.8,14.8,14.8,14.8,14.8,15.1,15.1,15.1,15.1,15.1,15.1,15.1,13.3,15.1,13.3,13.3,13.3,13.3,15.1,15.1,15.1,15.1,15.1,15.1,15.1,null,null,null,null],[0,0,0,0,1,0,0,0,1,0,0,0,0,0,0,0,0,0,0,0,2,0,0,0,0,0,7,0,0,0,0,1,0,1,0,0,0],[0,0,0,0,1,0,0,0,2,0,0,0,0,0,0,0,0,0,0,0,4,0,0,0,0,0,6,0,0,0,0,3,0,3,0,0,0],[0,0,1,0,0,3,0,1,2,0,0,0,0,1,1,0,0,0,0,0,5,1,0,0,0,0,5,0,1,0,0,1,0,1,0,0,0],[0,0,0,0,0,0,0,0,1,0,0,0,0,0,0,0,0,0,0,0,0,0,0,0,0,0,2,0,0,0,0,1,0,0,0,0,0],[0,0,0,0,0,2,0,0,5,0,0,1,0,0,2,0,0,1,0,0,3,0,0,0,0,0,15,0,1,0,0,5,1,2,0,0,0],[null,null,null,null,null,null,null,null,null,null,null,null,null,null,null,null,null,null,null,null,null,null,null,null,null,null,[[2020,1527],[2021,1374],[2022,1176],[2023,1133],[2024,1234],[2025,1571]],null,null,null,null,null,null,[[2020,785],[2024,713]],null,null,null]]}}