{"type":"Topology","objects":{"neighborhoods":{"type":"GeometryCollection","geometries":[{"type":"MultiPolygon","arcs":[[[0,1,2,3]]],"properties":{"id":576,"postinumeroalue":"19650","nimi":"Joutsa Keskus","namn":"Joutsa centrum","euref_x":458873,"euref_y":6846590,"pinta_ala":520697486,"vuosi":2026,"kunta":"172","he_vakiy":2983,"he_naiset":1511,"he_miehet":1472,"he_kika":56,"he_0_2":39,"he_3_6":64,"he_7_12":120,"he_13_15":71,"he_16_17":54,"he_18_19":45,"he_20_24":55,"he_25_29":77,"he_30_34":96,"he_35_39":136,"he_40_44":129,"he_45_49":129,"he_50_54":158,"he_55_59":236,"he_60_64":260,"he_65_69":309,"he_70_74":322,"he_75_79":316,"he_80_84":187,"he_85_":180,"ko_ika18y":2635,"ko_perus":806,"ko_koul":1829,"ko_yliop":76,"ko_ammat":1168,"ko_al_kork":458,"ko_yl_kork":127,"hr_tuy":2635,"hr_ktu":25446,"hr_mtu":21876,"hr_pi_tul":660,"hr_ke_tul":1654,"hr_hy_tul":321,"hr_ovy":67050400,"te_taly":1729,"te_takk":1.7,"te_as_valj":49.2,"te_yks":927,"te_nuor":63,"te_eil_np":21,"te_laps":204,"te_plap":31,"te_aklap":70,"te_klap":85,"te_teini":92,"te_yhlap":48,"te_aik":564,"te_elak":968,"te_omis_as":1289,"te_vuok_as":417,"te_muu_as":23,"tr_kuty":1729,"tr_ktu":38221,"tr_mtu":30425,"tr_pi_tul":597,"tr_ke_tul":942,"tr_hy_tul":190,"tr_ovy":66083293,"ra_ke":1699,"ra_raky":1672,"ra_muut":223,"ra_asrak":1449,"ra_asunn":2212,"ra_as_kpa":79.1,"ra_pt_as":1753,"ra_kt_as":382,"ra_muu_as":77,"tp_tyopy":1010,"tp_alku_a":88,"tp_jalo_bf":208,"tp_palv_gu":714,"tp_a_maat":88,"tp_b_kaiv":1,"tp_c_teol":101,"tp_d_ener":1,"tp_e_vesi":4,"tp_f_rake":101,"tp_g_kaup":128,"tp_h_kulj":15,"tp_i_majo":43,"tp_j_info":8,"tp_k_raho":4,"tp_l_kiin":8,"tp_m_erik":23,"tp_n_hall":39,"tp_o_julk":53,"tp_p_koul":89,"tp_q_terv":268,"tp_r_taid":6,"tp_s_muup":30,"tp_t_koti":0,"tp_u_kans":0,"tp_x_tunt":0,"pt_vakiy":2983,"pt_tyoll":958,"pt_tyott":148,"pt_0_14":270,"pt_opisk":123,"pt_elakel":1387,"pt_muut":97,"city":"joutsa","pno":"19650","unemployment_rate":5,"higher_education_rate":22.2,"pensioner_share":46.5,"ownership_rate":74.6,"rental_rate":24.1,"population_density":6,"child_ratio":3.5,"student_share":4.1,"detached_house_share":79.2,"youth_ratio_pct":5.9,"gender_ratio":1.03,"single_parent_hh_pct":1.2,"families_with_children_pct":11.8,"tech_sector_pct":0.8,"healthcare_workers_pct":26.5,"employment_rate":32.1,"elderly_ratio_pct":44,"avg_household_size":1.73,"manufacturing_jobs_pct":20.6,"public_sector_jobs_pct":5.2,"service_sector_jobs_pct":70.7,"new_construction_pct":75.6,"foreign_language_pct":1.7,"crime_index":104.8,"property_price_sqm":708,"transit_stop_density":0.3,"air_quality_index":24.4,"daycare_density":0,"school_density":0,"healthcare_density":0,"restaurant_density":0,"grocery_density":0,"cycling_density":0.2,"single_person_hh_pct":53.6,"rental_price_sqm":null,"price_to_rent_ratio":null,"walkability_index":78,"traffic_accident_rate":2.1,"property_price_change_pct":-12.8,"school_quality_score":60.2,"light_pollution":0.11,"noise_pollution":40,"voter_turnout_pct":67.4,"party_diversity_index":0.662,"broadband_coverage_pct":20,"ev_charging_density":0,"tree_canopy_pct":48.9,"transit_reachability_score":null,"sports_facility_density":0.1,"water_proximity_m":0,"avg_construction_year":1978,"income_history":[[2021,18782],[2022,18775],[2023,19431],[2024,20077],[2025,21280],[2026,21876]],"population_history":[[2021,3195],[2022,3128],[2023,3108],[2024,3052],[2025,2976],[2026,2983]],"unemployment_history":[[2021,4.2],[2022,4.2],[2023,3.4],[2024,4.7],[2025,4.6],[2026,5]],"income_change_pct":16.5,"population_change_pct":-6.6,"unemployment_change_pct":19,"schools":[{"name":"Joutsan lukio","score":60.2}],"property_price_history":[[2020,812],[2021,765],[2022,872],[2023,675],[2024,828],[2025,708]],"crime_index_history":[[2020,192.4],[2021,157.1],[2022,101.1],[2023,111.2],[2024,114.3],[2025,104.8]],"crime_index_change_pct":-45.5,"health_index":119.8,"radon":107,"municipality":"Joutsa","lon":26.23475,"lat":61.71805,"flood_risk_pct":null,"population_projection_pct":-19.2,"construction_activity":2.8,"active_plan_count":3,"political_lean_index":63.1,"party_vote_kok_pct":13.4,"party_vote_sdp_pct":15.9,"party_vote_ps_pct":30.2,"party_vote_kesk_pct":24.8,"party_vote_vihr_pct":3.6,"party_vote_vas_pct":2,"party_vote_rkp_pct":0.2}},{"type":"MultiPolygon","arcs":[[[-4,4,5,6]]],"properties":{"id":577,"postinumeroalue":"19670","nimi":"Mieskonmäki","namn":"Mieskonmäki","euref_x":463251,"euref_y":6860631,"pinta_ala":95481101,"vuosi":2026,"kunta":"172","he_vakiy":119,"he_naiset":45,"he_miehet":74,"he_kika":50,"he_0_2":2,"he_3_6":1,"he_7_12":6,"he_13_15":3,"he_16_17":4,"he_18_19":4,"he_20_24":2,"he_25_29":2,"he_30_34":5,"he_35_39":4,"he_40_44":6,"he_45_49":9,"he_50_54":10,"he_55_59":17,"he_60_64":10,"he_65_69":12,"he_70_74":14,"he_75_79":5,"he_80_84":2,"he_85_":1,"ko_ika18y":103,"ko_perus":21,"ko_koul":82,"ko_yliop":3,"ko_ammat":56,"ko_al_kork":21,"ko_yl_kork":2,"hr_tuy":103,"hr_ktu":26754,"hr_mtu":23199,"hr_pi_tul":32,"hr_ke_tul":46,"hr_hy_tul":25,"hr_ovy":2755638,"te_taly":55,"te_takk":2.2,"te_as_valj":47,"te_yks":19,"te_nuor":0,"te_eil_np":0,"te_laps":8,"te_plap":1,"te_aklap":2,"te_klap":4,"te_teini":6,"te_yhlap":1,"te_aik":22,"te_elak":26,"te_omis_as":50,"te_vuok_as":3,"te_muu_as":2,"tr_kuty":55,"tr_ktu":50649,"tr_mtu":40924,"tr_pi_tul":12,"tr_ke_tul":35,"tr_hy_tul":8,"tr_ovy":2785674,"ra_ke":172,"ra_raky":123,"ra_muut":6,"ra_asrak":117,"ra_asunn":91,"ra_as_kpa":94.5,"ra_pt_as":89,"ra_kt_as":0,"ra_muu_as":2,"tp_tyopy":31,"tp_alku_a":16,"tp_jalo_bf":1,"tp_palv_gu":14,"tp_a_maat":16,"tp_b_kaiv":0,"tp_c_teol":0,"tp_d_ener":0,"tp_e_vesi":0,"tp_f_rake":1,"tp_g_kaup":1,"tp_h_kulj":2,"tp_i_majo":0,"tp_j_info":0,"tp_k_raho":0,"tp_l_kiin":0,"tp_m_erik":0,"tp_n_hall":1,"tp_o_julk":0,"tp_p_koul":0,"tp_q_terv":10,"tp_r_taid":0,"tp_s_muup":0,"tp_t_koti":0,"tp_u_kans":0,"tp_x_tunt":0,"pt_vakiy":119,"pt_tyoll":50,"pt_tyott":9,"pt_0_14":10,"pt_opisk":10,"pt_elakel":36,"pt_muut":4,"city":"joutsa","pno":"19670","unemployment_rate":7.6,"higher_education_rate":22.3,"pensioner_share":30.3,"ownership_rate":90.9,"rental_rate":5.5,"population_density":1,"child_ratio":2.5,"student_share":8.4,"detached_house_share":97.8,"youth_ratio_pct":6.7,"gender_ratio":0.61,"single_parent_hh_pct":0,"families_with_children_pct":14.5,"tech_sector_pct":0,"healthcare_workers_pct":32.3,"employment_rate":42,"elderly_ratio_pct":28.6,"avg_household_size":2.16,"manufacturing_jobs_pct":3.2,"public_sector_jobs_pct":0,"service_sector_jobs_pct":45.2,"new_construction_pct":135.2,"foreign_language_pct":0.7,"crime_index":69.8,"property_price_sqm":null,"transit_stop_density":0.2,"air_quality_index":24.5,"daycare_density":0,"school_density":0,"healthcare_density":0,"restaurant_density":0,"grocery_density":0,"cycling_density":0,"single_person_hh_pct":34.5,"rental_price_sqm":null,"price_to_rent_ratio":null,"walkability_index":76,"traffic_accident_rate":5.6,"property_price_change_pct":null,"school_quality_score":null,"light_pollution":0,"noise_pollution":40,"voter_turnout_pct":67.4,"party_diversity_index":0.662,"broadband_coverage_pct":20,"ev_charging_density":0,"tree_canopy_pct":42.2,"transit_reachability_score":null,"sports_facility_density":0,"water_proximity_m":0,"avg_construction_year":1980,"income_history":[[2021,20007],[2022,21167],[2023,22319],[2024,21468],[2025,22653],[2026,23199]],"population_history":[[2021,134],[2022,139],[2023,132],[2024,129],[2025,123],[2026,119]],"unemployment_history":[[2021,6],[2022,4.3],[2023,7.6],[2024,7],[2025,4.1],[2026,7.6]],"income_change_pct":16,"population_change_pct":-11.2,"unemployment_change_pct":26.7,"schools":null,"crime_index_history":[[2020,128.1],[2021,104.6],[2022,67.4],[2023,74.1],[2024,76.1],[2025,69.8]],"crime_index_change_pct":-45.5,"health_index":119.8,"radon":null,"municipality":"Joutsa","lon":26.33211,"lat":61.87631,"flood_risk_pct":7.53,"population_projection_pct":-19.2,"construction_activity":2.8,"active_plan_count":0,"political_lean_index":63.1,"party_vote_kok_pct":13.4,"party_vote_sdp_pct":15.9,"party_vote_ps_pct":30.2,"party_vote_kesk_pct":24.8,"party_vote_vihr_pct":3.6,"party_vote_vas_pct":2,"party_vote_rkp_pct":0.2}},{"type":"MultiPolygon","arcs":[[[7,8,9,10,11]]],"properties":{"id":583,"postinumeroalue":"19910","nimi":"Tammijärvi","namn":"Tammijärvi","euref_x":436850,"euref_y":6854199,"pinta_ala":137430024,"vuosi":2026,"kunta":"435","he_vakiy":422,"he_naiset":195,"he_miehet":227,"he_kika":54,"he_0_2":14,"he_3_6":4,"he_7_12":23,"he_13_15":17,"he_16_17":3,"he_18_19":2,"he_20_24":6,"he_25_29":12,"he_30_34":19,"he_35_39":10,"he_40_44":18,"he_45_49":16,"he_50_54":25,"he_55_59":31,"he_60_64":45,"he_65_69":52,"he_70_74":52,"he_75_79":33,"he_80_84":21,"he_85_":19,"ko_ika18y":361,"ko_perus":109,"ko_koul":252,"ko_yliop":7,"ko_ammat":152,"ko_al_kork":64,"ko_yl_kork":29,"hr_tuy":361,"hr_ktu":29831,"hr_mtu":24338,"hr_pi_tul":82,"hr_ke_tul":197,"hr_hy_tul":82,"hr_ovy":10769087,"te_taly":227,"te_takk":1.9,"te_as_valj":52.5,"te_yks":110,"te_nuor":7,"te_eil_np":0,"te_laps":31,"te_plap":12,"te_aklap":14,"te_klap":15,"te_teini":16,"te_yhlap":9,"te_aik":66,"te_elak":133,"te_omis_as":201,"te_vuok_as":23,"te_muu_as":3,"tr_kuty":227,"tr_ktu":47597,"tr_mtu":37653,"tr_pi_tul":56,"tr_ke_tul":129,"tr_hy_tul":42,"tr_ovy":10804433,"ra_ke":257,"ra_raky":308,"ra_muut":39,"ra_asrak":269,"ra_asunn":285,"ra_as_kpa":92.3,"ra_pt_as":273,"ra_kt_as":3,"ra_muu_as":9,"tp_tyopy":58,"tp_alku_a":23,"tp_jalo_bf":7,"tp_palv_gu":28,"tp_a_maat":23,"tp_b_kaiv":0,"tp_c_teol":1,"tp_d_ener":0,"tp_e_vesi":0,"tp_f_rake":6,"tp_g_kaup":2,"tp_h_kulj":9,"tp_i_majo":0,"tp_j_info":0,"tp_k_raho":0,"tp_l_kiin":0,"tp_m_erik":1,"tp_n_hall":2,"tp_o_julk":0,"tp_p_koul":9,"tp_q_terv":2,"tp_r_taid":0,"tp_s_muup":3,"tp_t_koti":0,"tp_u_kans":0,"tp_x_tunt":0,"pt_vakiy":422,"pt_tyoll":151,"pt_tyott":18,"pt_0_14":51,"pt_opisk":13,"pt_elakel":177,"pt_muut":12,"city":"joutsa","pno":"19910","unemployment_rate":4.3,"higher_education_rate":25.8,"pensioner_share":41.9,"ownership_rate":88.5,"rental_rate":10.1,"population_density":3,"child_ratio":4.3,"student_share":3.1,"detached_house_share":95.8,"youth_ratio_pct":4.7,"gender_ratio":0.86,"single_parent_hh_pct":0,"families_with_children_pct":13.7,"tech_sector_pct":0,"healthcare_workers_pct":3.4,"employment_rate":35.8,"elderly_ratio_pct":41.9,"avg_household_size":1.86,"manufacturing_jobs_pct":12.1,"public_sector_jobs_pct":0,"service_sector_jobs_pct":48.3,"new_construction_pct":108.1,"foreign_language_pct":1.7,"crime_index":39.4,"property_price_sqm":null,"transit_stop_density":0.3,"air_quality_index":24.3,"daycare_density":0,"school_density":0,"healthcare_density":0,"restaurant_density":0,"grocery_density":0,"cycling_density":0,"single_person_hh_pct":48.5,"rental_price_sqm":null,"price_to_rent_ratio":null,"walkability_index":76,"traffic_accident_rate":1.6,"property_price_change_pct":null,"school_quality_score":null,"light_pollution":0.01,"noise_pollution":40,"voter_turnout_pct":71.9,"party_diversity_index":0.724,"broadband_coverage_pct":60,"ev_charging_density":0,"tree_canopy_pct":36,"transit_reachability_score":null,"sports_facility_density":0.1,"water_proximity_m":0,"avg_construction_year":1974,"income_history":[[2021,19516],[2022,19581],[2023,21138],[2024,22659],[2025,22071],[2026,24338]],"population_history":[[2021,401],[2022,407],[2023,411],[2024,399],[2025,411],[2026,422]],"unemployment_history":[[2021,2.7],[2022,4.4],[2023,4.6],[2024,5.3],[2025,5.4],[2026,4.3]],"income_change_pct":24.7,"population_change_pct":5.2,"unemployment_change_pct":59.3,"schools":null,"crime_index_history":[[2020,31.3],[2021,31.2],[2022,32.6],[2023,29.3],[2024,27],[2025,39.4]],"crime_index_change_pct":25.9,"health_index":96.3,"radon":214,"municipality":"Luhanka","lon":25.7709,"lat":61.81856,"flood_risk_pct":11.65,"population_projection_pct":2.3,"construction_activity":2.9,"active_plan_count":0,"political_lean_index":64.1,"party_vote_kok_pct":17.5,"party_vote_sdp_pct":14.3,"party_vote_ps_pct":28.1,"party_vote_kesk_pct":29.4,"party_vote_vihr_pct":0.9,"party_vote_vas_pct":2.2,"party_vote_rkp_pct":null}},{"type":"MultiPolygon","arcs":[[[-9,12,13,-2,14]]],"properties":{"id":584,"postinumeroalue":"19920","nimi":"Pappinen","namn":"Pappinen","euref_x":444150,"euref_y":6854331,"pinta_ala":67497428,"vuosi":2026,"kunta":"172","he_vakiy":135,"he_naiset":54,"he_miehet":81,"he_kika":52,"he_0_2":1,"he_3_6":3,"he_7_12":9,"he_13_15":5,"he_16_17":3,"he_18_19":3,"he_20_24":3,"he_25_29":3,"he_30_34":2,"he_35_39":2,"he_40_44":8,"he_45_49":10,"he_50_54":6,"he_55_59":13,"he_60_64":11,"he_65_69":20,"he_70_74":14,"he_75_79":11,"he_80_84":5,"he_85_":3,"ko_ika18y":114,"ko_perus":35,"ko_koul":79,"ko_yliop":0,"ko_ammat":56,"ko_al_kork":18,"ko_yl_kork":5,"hr_tuy":114,"hr_ktu":27308,"hr_mtu":25139,"hr_pi_tul":28,"hr_ke_tul":70,"hr_hy_tul":16,"hr_ovy":3113085,"te_taly":67,"te_takk":2,"te_as_valj":50.6,"te_yks":31,"te_nuor":0,"te_eil_np":0,"te_laps":11,"te_plap":1,"te_aklap":3,"te_klap":7,"te_teini":6,"te_yhlap":1,"te_aik":20,"te_elak":39,"te_omis_as":65,"te_vuok_as":1,"te_muu_as":1,"tr_kuty":67,"tr_ktu":46603,"tr_mtu":35761,"tr_pi_tul":19,"tr_ke_tul":40,"tr_hy_tul":8,"tr_ovy":3122383,"ra_ke":114,"ra_raky":112,"ra_muut":8,"ra_asrak":104,"ra_asunn":88,"ra_as_kpa":99.5,"ra_pt_as":86,"ra_kt_as":0,"ra_muu_as":2,"tp_tyopy":20,"tp_alku_a":13,"tp_jalo_bf":6,"tp_palv_gu":1,"tp_a_maat":13,"tp_b_kaiv":0,"tp_c_teol":0,"tp_d_ener":0,"tp_e_vesi":0,"tp_f_rake":6,"tp_g_kaup":0,"tp_h_kulj":1,"tp_i_majo":0,"tp_j_info":0,"tp_k_raho":0,"tp_l_kiin":0,"tp_m_erik":0,"tp_n_hall":0,"tp_o_julk":0,"tp_p_koul":0,"tp_q_terv":0,"tp_r_taid":0,"tp_s_muup":0,"tp_t_koti":0,"tp_u_kans":0,"tp_x_tunt":0,"pt_vakiy":135,"pt_tyoll":53,"pt_tyott":3,"pt_0_14":16,"pt_opisk":6,"pt_elakel":52,"pt_muut":5,"city":"joutsa","pno":"19920","unemployment_rate":2.2,"higher_education_rate":20.2,"pensioner_share":38.5,"ownership_rate":97,"rental_rate":1.5,"population_density":2,"child_ratio":3,"student_share":4.4,"detached_house_share":97.7,"youth_ratio_pct":6.7,"gender_ratio":0.67,"single_parent_hh_pct":0,"families_with_children_pct":16.4,"tech_sector_pct":0,"healthcare_workers_pct":0,"employment_rate":39.3,"elderly_ratio_pct":39.3,"avg_household_size":2.01,"manufacturing_jobs_pct":30,"public_sector_jobs_pct":0,"service_sector_jobs_pct":5,"new_construction_pct":127.3,"foreign_language_pct":2,"crime_index":53.7,"property_price_sqm":null,"transit_stop_density":0.3,"air_quality_index":24.1,"daycare_density":0,"school_density":0,"healthcare_density":0,"restaurant_density":0,"grocery_density":0,"cycling_density":0,"single_person_hh_pct":46.3,"rental_price_sqm":null,"price_to_rent_ratio":null,"walkability_index":76,"traffic_accident_rate":2.5,"property_price_change_pct":null,"school_quality_score":null,"light_pollution":0.01,"noise_pollution":40,"voter_turnout_pct":67.4,"party_diversity_index":0.662,"broadband_coverage_pct":20,"ev_charging_density":0,"tree_canopy_pct":63,"transit_reachability_score":null,"sports_facility_density":0,"water_proximity_m":0,"avg_construction_year":1980,"income_history":[[2021,22695],[2022,21499],[2023,21974],[2024,22093],[2025,24616],[2026,25139]],"population_history":[[2021,150],[2022,151],[2023,145],[2024,143],[2025,146],[2026,135]],"unemployment_history":[[2021,4.7],[2022,5.3],[2023,4.8],[2024,7],[2025,5.5],[2026,2.2]],"income_change_pct":10.8,"population_change_pct":-10,"unemployment_change_pct":-53.2,"schools":null,"crime_index_history":[[2020,98.6],[2021,80.5],[2022,51.8],[2023,57],[2024,58.6],[2025,53.7]],"crime_index_change_pct":-45.5,"health_index":119.8,"radon":null,"municipality":"Joutsa","lon":25.95444,"lat":61.81096,"flood_risk_pct":null,"population_projection_pct":-19.2,"construction_activity":2.8,"active_plan_count":0,"political_lean_index":63.1,"party_vote_kok_pct":13.4,"party_vote_sdp_pct":15.9,"party_vote_ps_pct":30.2,"party_vote_kesk_pct":24.8,"party_vote_vihr_pct":3.6,"party_vote_vas_pct":2,"party_vote_rkp_pct":0.2}},{"type":"MultiPolygon","arcs":[[[15,-11]]],"properties":{"id":585,"postinumeroalue":"19950","nimi":"Luhanka","namn":"Luhanka","euref_x":426851,"euref_y":6849388,"pinta_ala":174109098,"vuosi":2026,"kunta":"435","he_vakiy":275,"he_naiset":118,"he_miehet":157,"he_kika":62,"he_0_2":1,"he_3_6":1,"he_7_12":9,"he_13_15":4,"he_16_17":0,"he_18_19":3,"he_20_24":4,"he_25_29":7,"he_30_34":5,"he_35_39":7,"he_40_44":8,"he_45_49":9,"he_50_54":17,"he_55_59":28,"he_60_64":32,"he_65_69":23,"he_70_74":28,"he_75_79":44,"he_80_84":16,"he_85_":29,"ko_ika18y":260,"ko_perus":76,"ko_koul":184,"ko_yliop":3,"ko_ammat":106,"ko_al_kork":50,"ko_yl_kork":25,"hr_tuy":260,"hr_ktu":30152,"hr_mtu":24047,"hr_pi_tul":67,"hr_ke_tul":135,"hr_hy_tul":58,"hr_ovy":7839469,"te_taly":161,"te_takk":1.7,"te_as_valj":56.5,"te_yks":80,"te_nuor":1,"te_eil_np":1,"te_laps":8,"te_plap":1,"te_aklap":1,"te_klap":7,"te_teini":4,"te_yhlap":3,"te_aik":51,"te_elak":103,"te_omis_as":125,"te_vuok_as":33,"te_muu_as":3,"tr_kuty":161,"tr_ktu":48300,"tr_mtu":38629,"tr_pi_tul":49,"tr_ke_tul":79,"tr_hy_tul":33,"tr_ovy":7776323,"ra_ke":580,"ra_raky":231,"ra_muut":35,"ra_asrak":196,"ra_asunn":228,"ra_as_kpa":90.8,"ra_pt_as":221,"ra_kt_as":0,"ra_muu_as":7,"tp_tyopy":66,"tp_alku_a":9,"tp_jalo_bf":13,"tp_palv_gu":44,"tp_a_maat":9,"tp_b_kaiv":0,"tp_c_teol":1,"tp_d_ener":0,"tp_e_vesi":0,"tp_f_rake":12,"tp_g_kaup":3,"tp_h_kulj":2,"tp_i_majo":0,"tp_j_info":1,"tp_k_raho":0,"tp_l_kiin":0,"tp_m_erik":3,"tp_n_hall":6,"tp_o_julk":6,"tp_p_koul":0,"tp_q_terv":21,"tp_r_taid":1,"tp_s_muup":1,"tp_t_koti":0,"tp_u_kans":0,"tp_x_tunt":0,"pt_vakiy":275,"pt_tyoll":99,"pt_tyott":13,"pt_0_14":14,"pt_opisk":6,"pt_elakel":137,"pt_muut":6,"city":"joutsa","pno":"19950","unemployment_rate":4.7,"higher_education_rate":28.8,"pensioner_share":49.8,"ownership_rate":77.6,"rental_rate":20.5,"population_density":2,"child_ratio":0.7,"student_share":2.2,"detached_house_share":96.9,"youth_ratio_pct":5.1,"gender_ratio":0.75,"single_parent_hh_pct":0.6,"families_with_children_pct":5,"tech_sector_pct":1.5,"healthcare_workers_pct":31.8,"employment_rate":36,"elderly_ratio_pct":50.9,"avg_household_size":1.71,"manufacturing_jobs_pct":19.7,"public_sector_jobs_pct":9.1,"service_sector_jobs_pct":66.7,"new_construction_pct":101.3,"foreign_language_pct":0.7,"crime_index":39.3,"property_price_sqm":null,"transit_stop_density":0.2,"air_quality_index":24.2,"daycare_density":0,"school_density":0,"healthcare_density":0,"restaurant_density":0,"grocery_density":0,"cycling_density":0,"single_person_hh_pct":49.7,"rental_price_sqm":null,"price_to_rent_ratio":null,"walkability_index":76,"traffic_accident_rate":1.2,"property_price_change_pct":null,"school_quality_score":null,"light_pollution":0.01,"noise_pollution":40,"voter_turnout_pct":71.9,"party_diversity_index":0.724,"broadband_coverage_pct":60,"ev_charging_density":0,"tree_canopy_pct":34.4,"transit_reachability_score":null,"sports_facility_density":0,"water_proximity_m":0,"avg_construction_year":1974,"income_history":[[2021,19575],[2022,19407],[2023,21305],[2024,22270],[2025,22753],[2026,24047]],"population_history":[[2021,282],[2022,281],[2023,280],[2024,279],[2025,276],[2026,275]],"unemployment_history":[[2021,3.5],[2022,3.2],[2023,4.6],[2024,5.4],[2025,4],[2026,4.7]],"income_change_pct":22.8,"population_change_pct":-2.5,"unemployment_change_pct":34.3,"schools":null,"crime_index_history":[[2020,31.3],[2021,31.1],[2022,32.6],[2023,29.2],[2024,26.9],[2025,39.3]],"crime_index_change_pct":25.6,"health_index":96.3,"radon":164,"municipality":"Luhanka","lon":25.64347,"lat":61.77673,"flood_risk_pct":46.39,"population_projection_pct":2.3,"construction_activity":2.9,"active_plan_count":0,"political_lean_index":64.1,"party_vote_kok_pct":17.5,"party_vote_sdp_pct":14.3,"party_vote_ps_pct":28.1,"party_vote_kesk_pct":29.4,"party_vote_vihr_pct":0.9,"party_vote_vas_pct":2.2,"party_vote_rkp_pct":null}},{"type":"MultiPolygon","arcs":[[[-13,-8,16,17]]],"properties":{"id":1244,"postinumeroalue":"41730","nimi":"Kivisuo","namn":"Kivisuo","euref_x":445046,"euref_y":6862114,"pinta_ala":55563300,"vuosi":2026,"kunta":"172","he_vakiy":21,"he_naiset":-1,"he_miehet":-1,"he_kika":null,"he_0_2":null,"he_3_6":null,"he_7_12":-1,"he_13_15":-1,"he_16_17":-1,"he_18_19":-1,"he_20_24":-1,"he_25_29":-1,"he_30_34":-1,"he_35_39":-1,"he_40_44":-1,"he_45_49":-1,"he_50_54":-1,"he_55_59":-1,"he_60_64":-1,"he_65_69":-1,"he_70_74":-1,"he_75_79":-1,"he_80_84":-1,"he_85_":-1,"ko_ika18y":19,"ko_perus":null,"ko_koul":-1,"ko_yliop":-1,"ko_ammat":null,"ko_al_kork":null,"ko_yl_kork":null,"hr_tuy":19,"hr_ktu":null,"hr_mtu":null,"hr_pi_tul":-1,"hr_ke_tul":-1,"hr_hy_tul":-1,"hr_ovy":-1,"te_taly":13,"te_takk":null,"te_as_valj":null,"te_yks":-1,"te_nuor":-1,"te_eil_np":-1,"te_laps":-1,"te_plap":-1,"te_aklap":-1,"te_klap":-1,"te_teini":-1,"te_yhlap":-1,"te_aik":-1,"te_elak":-1,"te_omis_as":null,"te_vuok_as":null,"te_muu_as":-1,"tr_kuty":13,"tr_ktu":null,"tr_mtu":null,"tr_pi_tul":-1,"tr_ke_tul":-1,"tr_hy_tul":-1,"tr_ovy":-1,"ra_ke":27,"ra_raky":33,"ra_muut":2,"ra_asrak":31,"ra_asunn":22,"ra_as_kpa":86.1,"ra_pt_as":22,"ra_kt_as":0,"ra_muu_as":0,"tp_tyopy":1,"tp_alku_a":-1,"tp_jalo_bf":-1,"tp_palv_gu":-1,"tp_a_maat":-1,"tp_b_kaiv":-1,"tp_c_teol":-1,"tp_d_ener":-1,"tp_e_vesi":-1,"tp_f_rake":-1,"tp_g_kaup":-1,"tp_h_kulj":-1,"tp_i_majo":-1,"tp_j_info":-1,"tp_k_raho":-1,"tp_l_kiin":-1,"tp_m_erik":-1,"tp_n_hall":-1,"tp_o_julk":-1,"tp_p_koul":-1,"tp_q_terv":-1,"tp_r_taid":-1,"tp_s_muup":-1,"tp_t_koti":-1,"tp_u_kans":-1,"tp_x_tunt":-1,"pt_vakiy":21,"pt_tyoll":null,"pt_tyott":null,"pt_0_14":-1,"pt_opisk":null,"pt_elakel":null,"pt_muut":-1,"city":"joutsa","pno":"41730","unemployment_rate":null,"higher_education_rate":null,"pensioner_share":null,"ownership_rate":null,"rental_rate":null,"population_density":0,"child_ratio":null,"student_share":null,"detached_house_share":100,"youth_ratio_pct":null,"gender_ratio":null,"single_parent_hh_pct":null,"families_with_children_pct":null,"tech_sector_pct":null,"healthcare_workers_pct":null,"employment_rate":null,"elderly_ratio_pct":null,"avg_household_size":1.62,"manufacturing_jobs_pct":null,"public_sector_jobs_pct":null,"service_sector_jobs_pct":null,"new_construction_pct":150,"foreign_language_pct":3.8,"crime_index":208.9,"property_price_sqm":null,"transit_stop_density":0.1,"air_quality_index":24.2,"daycare_density":0,"school_density":0,"healthcare_density":0,"restaurant_density":0,"grocery_density":0,"cycling_density":0,"single_person_hh_pct":null,"rental_price_sqm":null,"price_to_rent_ratio":null,"walkability_index":76,"traffic_accident_rate":null,"property_price_change_pct":null,"school_quality_score":null,"light_pollution":0,"noise_pollution":40,"voter_turnout_pct":67.4,"party_diversity_index":0.662,"broadband_coverage_pct":20,"ev_charging_density":0,"tree_canopy_pct":21.8,"transit_reachability_score":null,"sports_facility_density":0.1,"water_proximity_m":0,"avg_construction_year":1981,"income_history":null,"population_history":[[2021,28],[2022,26],[2023,25],[2024,23],[2025,21],[2026,21]],"unemployment_history":null,"income_change_pct":null,"population_change_pct":-25,"unemployment_change_pct":null,"schools":null,"crime_index_history":[[2020,383.4],[2021,313.1],[2022,201.6],[2023,221.7],[2024,227.8],[2025,208.9]],"crime_index_change_pct":-45.5,"health_index":119.8,"radon":null,"municipality":"Joutsa","lon":25.97426,"lat":61.90565,"flood_risk_pct":null,"population_projection_pct":-19.2,"construction_activity":2.8,"active_plan_count":0,"political_lean_index":63.1,"party_vote_kok_pct":13.4,"party_vote_sdp_pct":15.9,"party_vote_ps_pct":30.2,"party_vote_kesk_pct":24.8,"party_vote_vihr_pct":3.6,"party_vote_vas_pct":2,"party_vote_rkp_pct":0.2}},{"type":"MultiPolygon","arcs":[[[-6,18,19]]],"properties":{"id":1245,"postinumeroalue":"41750","nimi":"Havumäki","namn":"Havumäki","euref_x":462314,"euref_y":6873607,"pinta_ala":86488455,"vuosi":2026,"kunta":"172","he_vakiy":80,"he_naiset":32,"he_miehet":48,"he_kika":52,"he_0_2":4,"he_3_6":2,"he_7_12":1,"he_13_15":1,"he_16_17":1,"he_18_19":1,"he_20_24":1,"he_25_29":3,"he_30_34":6,"he_35_39":1,"he_40_44":2,"he_45_49":7,"he_50_54":9,"he_55_59":9,"he_60_64":5,"he_65_69":8,"he_70_74":10,"he_75_79":3,"he_80_84":3,"he_85_":3,"ko_ika18y":71,"ko_perus":15,"ko_koul":56,"ko_yliop":2,"ko_ammat":39,"ko_al_kork":10,"ko_yl_kork":5,"hr_tuy":71,"hr_ktu":28100,"hr_mtu":27122,"hr_pi_tul":18,"hr_ke_tul":44,"hr_hy_tul":9,"hr_ovy":1995124,"te_taly":43,"te_takk":1.9,"te_as_valj":56.5,"te_yks":18,"te_nuor":1,"te_eil_np":1,"te_laps":5,"te_plap":3,"te_aklap":3,"te_klap":1,"te_teini":2,"te_yhlap":0,"te_aik":19,"te_elak":19,"te_omis_as":41,"te_vuok_as":0,"te_muu_as":2,"tr_kuty":43,"tr_ktu":46468,"tr_mtu":46111,"tr_pi_tul":12,"tr_ke_tul":23,"tr_hy_tul":8,"tr_ovy":1998105,"ra_ke":31,"ra_raky":91,"ra_muut":8,"ra_asrak":83,"ra_asunn":59,"ra_as_kpa":96.5,"ra_pt_as":59,"ra_kt_as":0,"ra_muu_as":0,"tp_tyopy":11,"tp_alku_a":3,"tp_jalo_bf":7,"tp_palv_gu":1,"tp_a_maat":3,"tp_b_kaiv":1,"tp_c_teol":2,"tp_d_ener":0,"tp_e_vesi":0,"tp_f_rake":4,"tp_g_kaup":1,"tp_h_kulj":0,"tp_i_majo":0,"tp_j_info":0,"tp_k_raho":0,"tp_l_kiin":0,"tp_m_erik":0,"tp_n_hall":0,"tp_o_julk":0,"tp_p_koul":0,"tp_q_terv":0,"tp_r_taid":0,"tp_s_muup":0,"tp_t_koti":0,"tp_u_kans":0,"tp_x_tunt":0,"pt_vakiy":80,"pt_tyoll":34,"pt_tyott":5,"pt_0_14":8,"pt_opisk":2,"pt_elakel":28,"pt_muut":3,"city":"joutsa","pno":"41750","unemployment_rate":6.2,"higher_education_rate":21.1,"pensioner_share":35,"ownership_rate":95.3,"rental_rate":0,"population_density":1,"child_ratio":7.5,"student_share":2.5,"detached_house_share":100,"youth_ratio_pct":6.2,"gender_ratio":0.67,"single_parent_hh_pct":2.3,"families_with_children_pct":11.6,"tech_sector_pct":0,"healthcare_workers_pct":0,"employment_rate":42.5,"elderly_ratio_pct":33.8,"avg_household_size":1.86,"manufacturing_jobs_pct":63.6,"public_sector_jobs_pct":0,"service_sector_jobs_pct":9.1,"new_construction_pct":154.2,"foreign_language_pct":1.3,"crime_index":80.1,"property_price_sqm":null,"transit_stop_density":0,"air_quality_index":24.6,"daycare_density":0,"school_density":0,"healthcare_density":0,"restaurant_density":0,"grocery_density":0,"cycling_density":0,"single_person_hh_pct":41.9,"rental_price_sqm":null,"price_to_rent_ratio":null,"walkability_index":76,"traffic_accident_rate":null,"property_price_change_pct":null,"school_quality_score":null,"light_pollution":0,"noise_pollution":40,"voter_turnout_pct":67.4,"party_diversity_index":0.662,"broadband_coverage_pct":20,"ev_charging_density":0,"tree_canopy_pct":43.8,"transit_reachability_score":null,"sports_facility_density":0,"water_proximity_m":0,"avg_construction_year":1981,"income_history":[[2021,20564],[2022,20177],[2023,21121],[2024,21594],[2025,25779],[2026,27122]],"population_history":[[2021,84],[2022,78],[2023,84],[2024,83],[2025,76],[2026,80]],"unemployment_history":[[2021,8.3],[2022,1.3],[2023,8.3],[2024,4.8],[2025,3.9],[2026,6.2]],"income_change_pct":31.9,"population_change_pct":-4.8,"unemployment_change_pct":-25.3,"schools":null,"crime_index_history":[[2020,147],[2021,120.1],[2022,77.3],[2023,85],[2024,87.3],[2025,80.1]],"crime_index_change_pct":-45.5,"health_index":119.8,"radon":null,"municipality":"Joutsa","lon":26.29046,"lat":62.00152,"flood_risk_pct":0.01,"population_projection_pct":-19.2,"construction_activity":2.8,"active_plan_count":0,"political_lean_index":63.1,"party_vote_kok_pct":13.4,"party_vote_sdp_pct":15.9,"party_vote_ps_pct":30.2,"party_vote_kesk_pct":24.8,"party_vote_vihr_pct":3.6,"party_vote_vas_pct":2,"party_vote_rkp_pct":0.2}},{"type":"MultiPolygon","arcs":[[[-14,-18,20,-19,-5,-3]]],"properties":{"id":1246,"postinumeroalue":"41770","nimi":"Leivonmäki","namn":"Leivonmäki","euref_x":454460,"euref_y":6865653,"pinta_ala":173640640,"vuosi":2026,"kunta":"172","he_vakiy":548,"he_naiset":263,"he_miehet":285,"he_kika":55,"he_0_2":6,"he_3_6":13,"he_7_12":28,"he_13_15":14,"he_16_17":6,"he_18_19":5,"he_20_24":10,"he_25_29":9,"he_30_34":22,"he_35_39":24,"he_40_44":39,"he_45_49":29,"he_50_54":24,"he_55_59":41,"he_60_64":70,"he_65_69":38,"he_70_74":48,"he_75_79":56,"he_80_84":31,"he_85_":35,"ko_ika18y":481,"ko_perus":165,"ko_koul":316,"ko_yliop":14,"ko_ammat":212,"ko_al_kork":72,"ko_yl_kork":18,"hr_tuy":481,"hr_ktu":25507,"hr_mtu":22680,"hr_pi_tul":119,"hr_ke_tul":296,"hr_hy_tul":66,"hr_ovy":12268709,"te_taly":313,"te_takk":1.7,"te_as_valj":51.9,"te_yks":177,"te_nuor":12,"te_eil_np":1,"te_laps":33,"te_plap":6,"te_aklap":13,"te_klap":21,"te_teini":16,"te_yhlap":9,"te_aik":131,"te_elak":150,"te_omis_as":225,"te_vuok_as":82,"te_muu_as":6,"tr_kuty":313,"tr_ktu":37619,"tr_mtu":30270,"tr_pi_tul":110,"tr_ke_tul":165,"tr_hy_tul":38,"tr_ovy":11774711,"ra_ke":267,"ra_raky":379,"ra_muut":64,"ra_asrak":315,"ra_asunn":426,"ra_as_kpa":84,"ra_pt_as":414,"ra_kt_as":0,"ra_muu_as":12,"tp_tyopy":109,"tp_alku_a":28,"tp_jalo_bf":18,"tp_palv_gu":63,"tp_a_maat":28,"tp_b_kaiv":0,"tp_c_teol":10,"tp_d_ener":0,"tp_e_vesi":0,"tp_f_rake":8,"tp_g_kaup":4,"tp_h_kulj":10,"tp_i_majo":10,"tp_j_info":0,"tp_k_raho":0,"tp_l_kiin":1,"tp_m_erik":0,"tp_n_hall":1,"tp_o_julk":0,"tp_p_koul":6,"tp_q_terv":27,"tp_r_taid":2,"tp_s_muup":2,"tp_t_koti":0,"tp_u_kans":0,"tp_x_tunt":0,"pt_vakiy":548,"pt_tyoll":190,"pt_tyott":30,"pt_0_14":55,"pt_opisk":16,"pt_elakel":234,"pt_muut":23,"city":"joutsa","pno":"41770","unemployment_rate":5.5,"higher_education_rate":18.7,"pensioner_share":42.7,"ownership_rate":71.9,"rental_rate":26.2,"population_density":3,"child_ratio":3.5,"student_share":2.9,"detached_house_share":97.2,"youth_ratio_pct":4.4,"gender_ratio":0.92,"single_parent_hh_pct":0.3,"families_with_children_pct":10.5,"tech_sector_pct":0,"healthcare_workers_pct":24.8,"employment_rate":34.7,"elderly_ratio_pct":38,"avg_household_size":1.75,"manufacturing_jobs_pct":16.5,"public_sector_jobs_pct":0,"service_sector_jobs_pct":57.8,"new_construction_pct":89,"foreign_language_pct":3.4,"crime_index":94.2,"property_price_sqm":650,"transit_stop_density":0.2,"air_quality_index":24.3,"daycare_density":0,"school_density":0,"healthcare_density":0,"restaurant_density":0,"grocery_density":0,"cycling_density":0.2,"single_person_hh_pct":56.5,"rental_price_sqm":null,"price_to_rent_ratio":null,"walkability_index":78,"traffic_accident_rate":6.7,"property_price_change_pct":null,"school_quality_score":null,"light_pollution":0.06,"noise_pollution":40,"voter_turnout_pct":67.4,"party_diversity_index":0.662,"broadband_coverage_pct":20,"ev_charging_density":0,"tree_canopy_pct":56.6,"transit_reachability_score":null,"sports_facility_density":0.1,"water_proximity_m":0,"avg_construction_year":1978,"income_history":[[2021,17826],[2022,18350],[2023,18972],[2024,19167],[2025,20641],[2026,22680]],"population_history":[[2021,588],[2022,582],[2023,581],[2024,558],[2025,548],[2026,548]],"unemployment_history":[[2021,6.8],[2022,5],[2023,5.5],[2024,7],[2025,5.8],[2026,5.5]],"income_change_pct":27.2,"population_change_pct":-6.8,"unemployment_change_pct":-19.1,"schools":null,"crime_index_history":[[2020,172.9],[2021,141.2],[2022,90.9],[2023,100],[2024,102.7],[2025,94.2]],"crime_index_change_pct":-45.5,"health_index":119.8,"radon":121,"municipality":"Joutsa","lon":26.09868,"lat":61.90934,"flood_risk_pct":null,"population_projection_pct":-19.2,"construction_activity":2.8,"active_plan_count":0,"political_lean_index":63.1,"party_vote_kok_pct":13.4,"party_vote_sdp_pct":15.9,"party_vote_ps_pct":30.2,"party_vote_kesk_pct":24.8,"party_vote_vihr_pct":3.6,"party_vote_vas_pct":2,"party_vote_rkp_pct":0.2}}]}},"arcs":[[[84075,45329],[1168,-530],[500,-146],[1215,-356],[20,-6],[2594,-1767],[1162,-2709],[2560,-5198],[1163,-3716],[600,-421],[1175,-1928],[283,-1108],[-77,-1149],[-86,-1069],[717,-1997],[338,97],[529,1559],[477,-1268],[476,-1820],[250,-2781],[457,-1103],[76,-626],[326,-966],[1,-3],[-514,-2273],[-449,-999],[-214,-476],[-462,-1031],[-479,-1069],[-129,-4912],[310,-499],[6,-225],[-16,-973],[-889,-447],[-4913,5050],[-1075,-209],[-1451,1447],[-589,2447],[-550,-474],[-3187,-1367],[-328,-1212],[-767,-301],[70,-712],[-166,-816],[-139,-432],[16,-140],[-17,-46],[-3,-7],[-92,-242],[-719,-1209],[-1401,-2176],[-397,-1284],[-749,-537],[-416,-299],[-1086,-895],[-1026,2292],[-164,982],[116,1224],[-1,3195],[-638,2334],[-990,-153],[-1238,-797],[-6,-4],[-675,-934],[-499,-660],[-1232,102],[-2,-1],[-849,-113],[-2566,417],[-1438,1009],[-890,1609],[-458,-2620],[-361,-1553],[-345,-1488],[-127,-175],[-283,-331],[-1297,-1518],[-1571,1111],[-299,431],[-4037,4324],[-116,24],[-678,1661],[-276,587],[-1328,2976],[-14,849],[-16,258],[59,233],[42,52],[639,798],[49,174],[78,174],[133,382],[211,161],[166,1242],[-632,-132],[98,916],[345,461],[-230,674],[-1100,-1247],[-756,-284],[-490,-329],[-1723,-216],[-704,768],[-567,249],[-2172,1050],[-1016,707],[-335,721],[885,1907],[130,603],[1,1385],[981,717],[-9,14],[-818,1108],[-406,1667],[-243,935],[-214,108],[-350,175],[-1014,-248],[-1552,669],[1750,1776],[353,2387],[-1353,2586]],[[46136,37381],[-24,174],[153,722],[672,1629],[1022,331],[2015,-92],[877,268],[489,3099],[594,4336],[556,2143],[-60,1300]],[[52430,51291],[738,640],[2289,611],[859,-218],[2943,-1328],[4015,-1063],[1819,306],[154,-38],[728,743],[195,264],[1217,910],[823,1545],[320,1967],[647,1224],[-177,1580],[-497,1508],[-1698,2922],[-292,1307]],[[66513,64171],[4928,-3904],[1095,-1574],[2403,-1320],[-262,-1956],[-88,-1896],[-1912,-604],[-261,-1287],[517,-1530],[3103,-4613],[4075,1666],[1859,-314],[1013,-679],[1092,-831]],[[66513,64171],[5688,6515],[1891,1432],[1739,2029],[121,1228]],[[75952,75375],[3633,-363]],[[79585,75012],[893,-209],[147,-360],[823,-2009],[19,-46],[77,-419],[51,-274],[83,-445],[49,-266],[12,-67],[-14,-133],[-288,-2769],[-15,-147],[274,-1646],[20,-83],[281,-1147],[1428,-2178],[1570,-776],[-410,-2211],[189,-723],[1238,-2680],[852,-1194],[140,-144],[794,-814],[1210,-831],[86,-2192],[-1516,-462],[-243,-1130],[-634,-265],[-1653,-2723],[-973,-1340]],[[33668,68391],[3298,-6852],[49,17],[2758,-3500],[1872,-2984]],[[41645,55072],[-2652,-5138],[-1041,-1945],[-2251,-3075],[-928,-2319]],[[34773,42595],[0,-1],[-1017,-6143],[-1831,-5520],[-976,-2411],[-3287,-3127],[-2473,-2734],[-1821,475],[-75,-123],[-230,-546],[-212,-886],[-1747,787],[-1459,2760]],[[19645,25126],[324,3164],[2537,5772],[692,5294],[196,576],[80,659],[15,234],[-57,1592],[1360,4930],[34,73],[622,1254],[-1136,681],[-82,53],[-1026,-597],[-818,690],[-515,1907],[-909,2331],[-11,51]],[[20951,53790],[1222,639],[434,121],[1219,546],[21,9],[1107,-164],[1479,2346],[129,128],[212,300],[448,323],[587,519],[1107,1776],[638,1100],[-461,1060],[-22,19],[2687,6640],[313,-95],[1494,-658],[103,-8]],[[41645,55072],[2426,2993],[2206,1011],[5792,1428]],[[52069,60504],[-897,-2982],[-169,-529],[-387,-2804],[449,-1273],[1204,-1469],[161,-156]],[[46136,37381],[-1232,-358],[-528,227],[-3131,991],[-994,1117],[-1419,1902],[-973,1518],[-1504,7],[-640,2],[-912,-186],[-30,-6]],[[19645,25126],[-53,-408],[-1154,-882],[-618,518],[-955,-1047],[-606,-941],[-248,-501],[-189,-543],[-24,-43],[-74,-134],[2,-25],[-106,-185],[-47,-113],[-79,-191],[-224,-2224],[-6501,-2325],[-6340,-413],[-1323,11206],[-1106,2289],[621,1811],[976,2009],[431,582],[4952,6664],[102,334],[1790,5860],[147,2459],[-743,3548],[2086,731],[60,20],[1225,1982],[335,278],[257,213],[581,143],[1343,979],[711,518],[5521,-2504],[556,-1001]],[[33668,68391],[1503,1162],[1484,30],[3564,1326],[616,215],[64,22],[1940,-54],[1294,-743],[-6,-25],[2041,-3],[2609,81]],[[48777,70402],[-1013,-2154],[-13,-885],[189,-739],[903,259],[571,891],[1195,437],[202,-1269],[825,521],[311,902],[183,854],[-231,1174],[-9,689],[594,420],[1170,-327],[188,-1238],[302,-1139],[738,-344],[883,-1648],[-3696,-6302]],[[75952,75375],[-3742,1294],[-1528,1690],[-870,6405],[-4467,6394]],[[65345,91158],[4807,5523],[904,642],[3707,2676],[1912,-2260],[2593,-363],[984,1648],[1409,-2831],[889,-1720],[1019,-2678],[2742,-7216],[-3941,-4051],[-2639,-3271],[-146,-2245]],[[48777,70402],[16,34],[611,3427],[4287,1206],[1054,2915],[804,2330],[-335,1144],[-420,762],[2378,2075],[1590,2398],[786,2154],[-574,1469],[1191,560],[753,121],[652,-99],[64,555],[3675,-305],[36,10]]],"bbox":[25.479021315234398,61.60873952552038,26.535991436184766,62.04979049788985],"transform":{"scale":[0.000010569806907572753,0.000004410553829233036],"translate":[25.479021315234398,61.60873952552038]}}
