{"type":"Topology","objects":{"neighborhoods":{"type":"GeometryCollection","geometries":[{"type":"MultiPolygon","arcs":[[[0,1,2,3]]],"properties":{"id":2038,"postinumeroalue":"69340","nimi":"Purontaka","namn":"Purontaka","euref_x":369900,"euref_y":7063729,"pinta_ala":64417598,"vuosi":2026,"kunta":"849","he_vakiy":115,"he_naiset":53,"he_miehet":62,"he_kika":48,"he_0_2":3,"he_3_6":2,"he_7_12":5,"he_13_15":4,"he_16_17":5,"he_18_19":3,"he_20_24":7,"he_25_29":3,"he_30_34":4,"he_35_39":3,"he_40_44":2,"he_45_49":12,"he_50_54":9,"he_55_59":8,"he_60_64":12,"he_65_69":9,"he_70_74":5,"he_75_79":13,"he_80_84":4,"he_85_":2,"ko_ika18y":96,"ko_perus":24,"ko_koul":72,"ko_yliop":1,"ko_ammat":50,"ko_al_kork":16,"ko_yl_kork":5,"hr_tuy":96,"hr_ktu":33036,"hr_mtu":31677,"hr_pi_tul":15,"hr_ke_tul":57,"hr_hy_tul":24,"hr_ovy":3171467,"te_taly":51,"te_takk":2.3,"te_as_valj":58.6,"te_yks":12,"te_nuor":2,"te_eil_np":0,"te_laps":9,"te_plap":3,"te_aklap":4,"te_klap":3,"te_teini":6,"te_yhlap":2,"te_aik":20,"te_elak":22,"te_omis_as":50,"te_vuok_as":1,"te_muu_as":0,"tr_kuty":51,"tr_ktu":62655,"tr_mtu":55134,"tr_pi_tul":5,"tr_ke_tul":30,"tr_hy_tul":16,"tr_ovy":3195382,"ra_ke":25,"ra_raky":84,"ra_muut":8,"ra_asrak":76,"ra_asunn":69,"ra_as_kpa":121.4,"ra_pt_as":68,"ra_kt_as":0,"ra_muu_as":1,"tp_tyopy":20,"tp_alku_a":16,"tp_jalo_bf":1,"tp_palv_gu":3,"tp_a_maat":16,"tp_b_kaiv":0,"tp_c_teol":0,"tp_d_ener":0,"tp_e_vesi":0,"tp_f_rake":1,"tp_g_kaup":0,"tp_h_kulj":3,"tp_i_majo":0,"tp_j_info":0,"tp_k_raho":0,"tp_l_kiin":0,"tp_m_erik":0,"tp_n_hall":0,"tp_o_julk":0,"tp_p_koul":0,"tp_q_terv":0,"tp_r_taid":0,"tp_s_muup":0,"tp_t_koti":0,"tp_u_kans":0,"tp_x_tunt":0,"pt_vakiy":115,"pt_tyoll":59,"pt_tyott":3,"pt_0_14":12,"pt_opisk":9,"pt_elakel":32,"pt_muut":0,"city":"kaustinen","pno":"69340","unemployment_rate":2.6,"higher_education_rate":21.9,"pensioner_share":27.8,"ownership_rate":98,"rental_rate":2,"population_density":2,"child_ratio":4.3,"student_share":7.8,"detached_house_share":98.6,"youth_ratio_pct":11.3,"gender_ratio":0.85,"single_parent_hh_pct":0,"families_with_children_pct":17.6,"tech_sector_pct":0,"healthcare_workers_pct":0,"employment_rate":51.3,"elderly_ratio_pct":28.7,"avg_household_size":2.25,"manufacturing_jobs_pct":5,"public_sector_jobs_pct":0,"service_sector_jobs_pct":15,"new_construction_pct":121.7,"foreign_language_pct":0,"crime_index":48.9,"property_price_sqm":null,"transit_stop_density":0.4,"air_quality_index":24,"green_space_pct":20.3,"daycare_density":0,"school_density":0,"healthcare_density":0,"restaurant_density":0,"grocery_density":0,"cycling_density":0,"single_person_hh_pct":23.5,"rental_price_sqm":null,"price_to_rent_ratio":null,"walkability_index":76,"traffic_accident_rate":2.9,"property_price_change_pct":null,"school_quality_score":null,"light_pollution":0.18,"noise_pollution":40,"voter_turnout_pct":59,"party_diversity_index":0.655,"broadband_coverage_pct":42,"ev_charging_density":0,"tree_canopy_pct":29.2,"transit_reachability_score":null,"sports_facility_density":0,"water_proximity_m":0,"avg_construction_year":1984,"income_history":[[2021,25043],[2022,26659],[2023,25878],[2024,28881],[2025,29843],[2026,31677]],"population_history":[[2021,141],[2022,133],[2023,135],[2024,116],[2025,114],[2026,115]],"unemployment_history":[[2021,0],[2022,0],[2023,1.5],[2024,0.9],[2025,0],[2026,2.6]],"income_change_pct":26.5,"population_change_pct":-18.4,"unemployment_change_pct":null,"schools":null,"crime_index_history":[[2020,48.4],[2021,44.2],[2022,52],[2023,44.5],[2024,40.5],[2025,48.9]],"crime_index_change_pct":1,"health_index":86.6,"radon":null}},{"type":"MultiPolygon","arcs":[[[-2,4,5,6]]],"properties":{"id":2035,"postinumeroalue":"69300","nimi":"Toholampi Keskus","namn":"Toholampi centrum","euref_x":369107,"euref_y":7075035,"pinta_ala":212463250,"vuosi":2026,"kunta":"849","he_vakiy":1888,"he_naiset":930,"he_miehet":958,"he_kika":46,"he_0_2":42,"he_3_6":69,"he_7_12":166,"he_13_15":95,"he_16_17":61,"he_18_19":38,"he_20_24":51,"he_25_29":54,"he_30_34":93,"he_35_39":90,"he_40_44":106,"he_45_49":99,"he_50_54":99,"he_55_59":133,"he_60_64":134,"he_65_69":133,"he_70_74":110,"he_75_79":144,"he_80_84":89,"he_85_":82,"ko_ika18y":1455,"ko_perus":369,"ko_koul":1086,"ko_yliop":63,"ko_ammat":688,"ko_al_kork":245,"ko_yl_kork":90,"hr_tuy":1455,"hr_ktu":26840,"hr_mtu":24598,"hr_pi_tul":288,"hr_ke_tul":953,"hr_hy_tul":214,"hr_ovy":39052248,"te_taly":878,"te_takk":2.1,"te_as_valj":48.4,"te_yks":370,"te_nuor":60,"te_eil_np":14,"te_laps":184,"te_plap":38,"te_aklap":70,"te_klap":108,"te_teini":106,"te_yhlap":41,"te_aik":314,"te_elak":386,"te_omis_as":668,"te_vuok_as":191,"te_muu_as":19,"tr_kuty":878,"tr_ktu":44466,"tr_mtu":38192,"tr_pi_tul":251,"tr_ke_tul":526,"tr_hy_tul":101,"tr_ovy":39041007,"ra_ke":42,"ra_raky":920,"ra_muut":146,"ra_asrak":774,"ra_asunn":1135,"ra_as_kpa":95.5,"ra_pt_as":1058,"ra_kt_as":43,"ra_muu_as":34,"tp_tyopy":618,"tp_alku_a":61,"tp_jalo_bf":145,"tp_palv_gu":412,"tp_a_maat":61,"tp_b_kaiv":0,"tp_c_teol":101,"tp_d_ener":4,"tp_e_vesi":4,"tp_f_rake":36,"tp_g_kaup":44,"tp_h_kulj":64,"tp_i_majo":16,"tp_j_info":0,"tp_k_raho":12,"tp_l_kiin":2,"tp_m_erik":16,"tp_n_hall":13,"tp_o_julk":21,"tp_p_koul":63,"tp_q_terv":137,"tp_r_taid":6,"tp_s_muup":18,"tp_t_koti":0,"tp_u_kans":0,"tp_x_tunt":0,"pt_vakiy":1888,"pt_tyoll":690,"pt_tyott":68,"pt_0_14":346,"pt_opisk":132,"pt_elakel":608,"pt_muut":44,"city":"kaustinen","pno":"69300","unemployment_rate":3.6,"higher_education_rate":23,"pensioner_share":32.2,"ownership_rate":76.1,"rental_rate":21.8,"population_density":9,"child_ratio":5.9,"student_share":7,"detached_house_share":93.2,"youth_ratio_pct":7.6,"gender_ratio":0.97,"single_parent_hh_pct":1.6,"families_with_children_pct":21,"tech_sector_pct":0,"healthcare_workers_pct":22.2,"employment_rate":36.5,"elderly_ratio_pct":29.6,"avg_household_size":2.15,"manufacturing_jobs_pct":23.5,"public_sector_jobs_pct":3.4,"service_sector_jobs_pct":66.7,"new_construction_pct":81.1,"foreign_language_pct":2,"crime_index":91.1,"property_price_sqm":1059,"transit_stop_density":0.3,"air_quality_index":23.9,"green_space_pct":11.1,"daycare_density":0,"school_density":0,"healthcare_density":0,"restaurant_density":0,"grocery_density":0,"cycling_density":0.4,"single_person_hh_pct":42.1,"rental_price_sqm":null,"price_to_rent_ratio":null,"walkability_index":80,"traffic_accident_rate":0.9,"property_price_change_pct":null,"school_quality_score":59.8,"light_pollution":0.43,"noise_pollution":40,"voter_turnout_pct":59,"party_diversity_index":0.655,"broadband_coverage_pct":42,"ev_charging_density":0,"tree_canopy_pct":46.3,"transit_reachability_score":null,"sports_facility_density":0.1,"water_proximity_m":0,"avg_construction_year":1982,"income_history":[[2021,20344],[2022,20354],[2023,21316],[2024,22085],[2025,23357],[2026,24598]],"population_history":[[2021,2025],[2022,1997],[2023,1973],[2024,1962],[2025,1929],[2026,1888]],"unemployment_history":[[2021,3.4],[2022,2.6],[2023,3],[2024,2.2],[2025,3.1],[2026,3.6]],"income_change_pct":20.9,"population_change_pct":-6.8,"unemployment_change_pct":5.9,"schools":[{"name":"Toholammin lukio","score":59.8}],"crime_index_history":[[2020,90.2],[2021,82.4],[2022,97],[2023,83],[2024,75.4],[2025,91.1]],"crime_index_change_pct":1,"health_index":86.6,"radon":null}},{"type":"MultiPolygon","arcs":[[[7,-6,8]]],"properties":{"id":2036,"postinumeroalue":"69310","nimi":"Laitala","namn":"Laitala","euref_x":359556,"euref_y":7078241,"pinta_ala":112483558,"vuosi":2026,"kunta":"849","he_vakiy":296,"he_naiset":139,"he_miehet":157,"he_kika":44,"he_0_2":10,"he_3_6":11,"he_7_12":26,"he_13_15":16,"he_16_17":11,"he_18_19":9,"he_20_24":13,"he_25_29":6,"he_30_34":11,"he_35_39":9,"he_40_44":14,"he_45_49":19,"he_50_54":14,"he_55_59":22,"he_60_64":23,"he_65_69":21,"he_70_74":32,"he_75_79":10,"he_80_84":9,"he_85_":10,"ko_ika18y":222,"ko_perus":53,"ko_koul":169,"ko_yliop":10,"ko_ammat":110,"ko_al_kork":35,"ko_yl_kork":14,"hr_tuy":222,"hr_ktu":26352,"hr_mtu":24908,"hr_pi_tul":48,"hr_ke_tul":140,"hr_hy_tul":34,"hr_ovy":5850210,"te_taly":120,"te_takk":2.5,"te_as_valj":48.8,"te_yks":33,"te_nuor":3,"te_eil_np":1,"te_laps":26,"te_plap":7,"te_aklap":11,"te_klap":16,"te_teini":15,"te_yhlap":3,"te_aik":35,"te_elak":61,"te_omis_as":115,"te_vuok_as":3,"te_muu_as":2,"tr_kuty":120,"tr_ktu":49110,"tr_mtu":45432,"tr_pi_tul":31,"tr_ke_tul":73,"tr_hy_tul":16,"tr_ovy":5893237,"ra_ke":24,"ra_raky":165,"ra_muut":22,"ra_asrak":143,"ra_asunn":147,"ra_as_kpa":117.8,"ra_pt_as":142,"ra_kt_as":0,"ra_muu_as":5,"tp_tyopy":38,"tp_alku_a":26,"tp_jalo_bf":4,"tp_palv_gu":8,"tp_a_maat":26,"tp_b_kaiv":0,"tp_c_teol":1,"tp_d_ener":0,"tp_e_vesi":0,"tp_f_rake":3,"tp_g_kaup":0,"tp_h_kulj":1,"tp_i_majo":0,"tp_j_info":0,"tp_k_raho":0,"tp_l_kiin":0,"tp_m_erik":1,"tp_n_hall":0,"tp_o_julk":0,"tp_p_koul":6,"tp_q_terv":0,"tp_r_taid":0,"tp_s_muup":0,"tp_t_koti":0,"tp_u_kans":0,"tp_x_tunt":0,"pt_vakiy":296,"pt_tyoll":109,"pt_tyott":12,"pt_0_14":59,"pt_opisk":23,"pt_elakel":87,"pt_muut":6,"city":"kaustinen","pno":"69310","unemployment_rate":4.1,"higher_education_rate":22.1,"pensioner_share":29.4,"ownership_rate":95.8,"rental_rate":2.5,"population_density":3,"child_ratio":7.1,"student_share":7.8,"detached_house_share":96.6,"youth_ratio_pct":9.5,"gender_ratio":0.89,"single_parent_hh_pct":0.8,"families_with_children_pct":21.7,"tech_sector_pct":0,"healthcare_workers_pct":0,"employment_rate":36.8,"elderly_ratio_pct":27.7,"avg_household_size":2.47,"manufacturing_jobs_pct":10.5,"public_sector_jobs_pct":0,"service_sector_jobs_pct":21.1,"new_construction_pct":112.2,"foreign_language_pct":0.3,"crime_index":63.3,"property_price_sqm":null,"transit_stop_density":0.2,"air_quality_index":24.3,"green_space_pct":4.8,"daycare_density":0,"school_density":0,"healthcare_density":0,"restaurant_density":0,"grocery_density":0,"cycling_density":0,"single_person_hh_pct":27.5,"rental_price_sqm":null,"price_to_rent_ratio":null,"walkability_index":76,"traffic_accident_rate":1.1,"property_price_change_pct":null,"school_quality_score":null,"light_pollution":0.41,"noise_pollution":40,"voter_turnout_pct":59,"party_diversity_index":0.655,"broadband_coverage_pct":42,"ev_charging_density":0,"tree_canopy_pct":21.6,"transit_reachability_score":null,"sports_facility_density":0.1,"water_proximity_m":0,"avg_construction_year":1983,"income_history":[[2021,21166],[2022,21742],[2023,22906],[2024,22628],[2025,23980],[2026,24908]],"population_history":[[2021,325],[2022,310],[2023,308],[2024,305],[2025,295],[2026,296]],"unemployment_history":[[2021,3.1],[2022,3.2],[2023,3.6],[2024,3.3],[2025,4.7],[2026,4.1]],"income_change_pct":17.7,"population_change_pct":-8.9,"unemployment_change_pct":32.3,"schools":null,"crime_index_history":[[2020,62.6],[2021,57.2],[2022,67.4],[2023,57.7],[2024,52.4],[2025,63.3]],"crime_index_change_pct":1.1,"health_index":86.6,"radon":null}},{"type":"MultiPolygon","arcs":[[[9,10,-9,-5,-1]]],"properties":{"id":2037,"postinumeroalue":"69330","nimi":"Määttälä","namn":"Määttälä","euref_x":363844,"euref_y":7067244,"pinta_ala":39708322,"vuosi":2026,"kunta":"849","he_vakiy":115,"he_naiset":54,"he_miehet":61,"he_kika":52,"he_0_2":3,"he_3_6":2,"he_7_12":4,"he_13_15":8,"he_16_17":4,"he_18_19":1,"he_20_24":4,"he_25_29":2,"he_30_34":4,"he_35_39":3,"he_40_44":5,"he_45_49":10,"he_50_54":7,"he_55_59":7,"he_60_64":7,"he_65_69":6,"he_70_74":11,"he_75_79":15,"he_80_84":7,"he_85_":5,"ko_ika18y":94,"ko_perus":32,"ko_koul":62,"ko_yliop":3,"ko_ammat":39,"ko_al_kork":16,"ko_yl_kork":4,"hr_tuy":94,"hr_ktu":26230,"hr_mtu":22317,"hr_pi_tul":18,"hr_ke_tul":62,"hr_hy_tul":14,"hr_ovy":2465590,"te_taly":55,"te_takk":2.1,"te_as_valj":57.4,"te_yks":19,"te_nuor":1,"te_eil_np":0,"te_laps":12,"te_plap":2,"te_aklap":4,"te_klap":3,"te_teini":9,"te_yhlap":1,"te_aik":13,"te_elak":30,"te_omis_as":47,"te_vuok_as":8,"te_muu_as":0,"tr_kuty":55,"tr_ktu":45142,"tr_mtu":38684,"tr_pi_tul":16,"tr_ke_tul":33,"tr_hy_tul":6,"tr_ovy":2482812,"ra_ke":16,"ra_raky":69,"ra_muut":5,"ra_asrak":64,"ra_asunn":72,"ra_as_kpa":116.2,"ra_pt_as":72,"ra_kt_as":0,"ra_muu_as":0,"tp_tyopy":30,"tp_alku_a":8,"tp_jalo_bf":2,"tp_palv_gu":20,"tp_a_maat":8,"tp_b_kaiv":0,"tp_c_teol":2,"tp_d_ener":0,"tp_e_vesi":0,"tp_f_rake":0,"tp_g_kaup":0,"tp_h_kulj":12,"tp_i_majo":0,"tp_j_info":0,"tp_k_raho":0,"tp_l_kiin":0,"tp_m_erik":0,"tp_n_hall":0,"tp_o_julk":0,"tp_p_koul":0,"tp_q_terv":0,"tp_r_taid":0,"tp_s_muup":8,"tp_t_koti":0,"tp_u_kans":0,"tp_x_tunt":0,"pt_vakiy":115,"pt_tyoll":39,"pt_tyott":7,"pt_0_14":12,"pt_opisk":10,"pt_elakel":47,"pt_muut":0,"city":"kaustinen","pno":"69330","unemployment_rate":6.1,"higher_education_rate":21.3,"pensioner_share":40.9,"ownership_rate":85.5,"rental_rate":14.5,"population_density":3,"child_ratio":4.3,"student_share":8.7,"detached_house_share":100,"youth_ratio_pct":6.1,"gender_ratio":0.89,"single_parent_hh_pct":0,"families_with_children_pct":21.8,"tech_sector_pct":0,"healthcare_workers_pct":0,"employment_rate":33.9,"elderly_ratio_pct":38.3,"avg_household_size":2.09,"manufacturing_jobs_pct":6.7,"public_sector_jobs_pct":0,"service_sector_jobs_pct":66.7,"new_construction_pct":95.8,"foreign_language_pct":0.8,"crime_index":78.7,"property_price_sqm":null,"transit_stop_density":0.3,"air_quality_index":23.9,"green_space_pct":40.7,"daycare_density":0,"school_density":0,"healthcare_density":0,"restaurant_density":0,"grocery_density":0,"cycling_density":0,"single_person_hh_pct":34.5,"rental_price_sqm":null,"price_to_rent_ratio":null,"walkability_index":76,"traffic_accident_rate":null,"property_price_change_pct":null,"school_quality_score":null,"light_pollution":0.23,"noise_pollution":40,"voter_turnout_pct":59,"party_diversity_index":0.655,"broadband_coverage_pct":42,"ev_charging_density":0,"tree_canopy_pct":29.2,"transit_reachability_score":null,"sports_facility_density":0,"water_proximity_m":0,"avg_construction_year":1983,"income_history":[[2021,19041],[2022,19875],[2023,22215],[2024,18953],[2025,20899],[2026,22317]],"population_history":[[2021,137],[2022,131],[2023,123],[2024,121],[2025,115],[2026,115]],"unemployment_history":[[2021,1.5],[2022,3.1],[2023,0.8],[2024,1.7],[2025,1.7],[2026,6.1]],"income_change_pct":17.2,"population_change_pct":-16.1,"unemployment_change_pct":306.7,"schools":null,"crime_index_history":[[2020,77.9],[2021,71.2],[2022,83.8],[2023,71.7],[2024,65.2],[2025,78.7]],"crime_index_change_pct":1,"health_index":86.6,"radon":null}},{"type":"MultiPolygon","arcs":[[[11,12,-10,-4,13,14,15]]],"properties":{"id":2039,"postinumeroalue":"69410","nimi":"Sykäräinen","namn":"Sykäräinen","euref_x":372293,"euref_y":7056823,"pinta_ala":191624104,"vuosi":2026,"kunta":"849","he_vakiy":378,"he_naiset":179,"he_miehet":199,"he_kika":51,"he_0_2":10,"he_3_6":15,"he_7_12":16,"he_13_15":13,"he_16_17":9,"he_18_19":7,"he_20_24":9,"he_25_29":11,"he_30_34":14,"he_35_39":21,"he_40_44":12,"he_45_49":17,"he_50_54":20,"he_55_59":30,"he_60_64":31,"he_65_69":51,"he_70_74":31,"he_75_79":35,"he_80_84":9,"he_85_":17,"ko_ika18y":315,"ko_perus":95,"ko_koul":220,"ko_yliop":11,"ko_ammat":155,"ko_al_kork":47,"ko_yl_kork":7,"hr_tuy":315,"hr_ktu":26257,"hr_mtu":21390,"hr_pi_tul":83,"hr_ke_tul":192,"hr_hy_tul":40,"hr_ovy":8271085,"te_taly":177,"te_takk":2.1,"te_as_valj":50.8,"te_yks":66,"te_nuor":5,"te_eil_np":2,"te_laps":21,"te_plap":6,"te_aklap":11,"te_klap":9,"te_teini":11,"te_yhlap":2,"te_aik":56,"te_elak":100,"te_omis_as":158,"te_vuok_as":17,"te_muu_as":2,"tr_kuty":177,"tr_ktu":46963,"tr_mtu":37677,"tr_pi_tul":58,"tr_ke_tul":99,"tr_hy_tul":20,"tr_ovy":8312536,"ra_ke":29,"ra_raky":260,"ra_muut":35,"ra_asrak":225,"ra_asunn":247,"ra_as_kpa":102.1,"ra_pt_as":241,"ra_kt_as":2,"ra_muu_as":4,"tp_tyopy":178,"tp_alku_a":43,"tp_jalo_bf":76,"tp_palv_gu":59,"tp_a_maat":43,"tp_b_kaiv":0,"tp_c_teol":71,"tp_d_ener":0,"tp_e_vesi":0,"tp_f_rake":5,"tp_g_kaup":6,"tp_h_kulj":18,"tp_i_majo":12,"tp_j_info":0,"tp_k_raho":0,"tp_l_kiin":0,"tp_m_erik":3,"tp_n_hall":12,"tp_o_julk":0,"tp_p_koul":6,"tp_q_terv":0,"tp_r_taid":1,"tp_s_muup":1,"tp_t_koti":0,"tp_u_kans":0,"tp_x_tunt":0,"pt_vakiy":378,"pt_tyoll":140,"pt_tyott":8,"pt_0_14":51,"pt_opisk":14,"pt_elakel":147,"pt_muut":18,"city":"kaustinen","pno":"69410","unemployment_rate":2.1,"higher_education_rate":17.1,"pensioner_share":38.9,"ownership_rate":89.3,"rental_rate":9.6,"population_density":2,"child_ratio":6.6,"student_share":3.7,"detached_house_share":97.6,"youth_ratio_pct":7.1,"gender_ratio":0.9,"single_parent_hh_pct":1.1,"families_with_children_pct":11.9,"tech_sector_pct":0,"healthcare_workers_pct":0,"employment_rate":37,"elderly_ratio_pct":37.8,"avg_household_size":2.14,"manufacturing_jobs_pct":42.7,"public_sector_jobs_pct":0,"service_sector_jobs_pct":33.1,"new_construction_pct":105.3,"foreign_language_pct":1.5,"crime_index":50.5,"property_price_sqm":null,"transit_stop_density":0.2,"air_quality_index":24.1,"green_space_pct":9.4,"daycare_density":0,"school_density":0,"healthcare_density":0,"restaurant_density":0,"grocery_density":0,"cycling_density":0,"single_person_hh_pct":37.3,"rental_price_sqm":null,"price_to_rent_ratio":null,"walkability_index":76,"traffic_accident_rate":0.9,"property_price_change_pct":null,"school_quality_score":null,"light_pollution":0.15,"noise_pollution":40,"voter_turnout_pct":59,"party_diversity_index":0.655,"broadband_coverage_pct":42,"ev_charging_density":0,"tree_canopy_pct":22.4,"transit_reachability_score":null,"sports_facility_density":0,"water_proximity_m":0,"avg_construction_year":1983,"income_history":[[2021,18777],[2022,18750],[2023,18708],[2024,20325],[2025,20583],[2026,21390]],"population_history":[[2021,406],[2022,396],[2023,393],[2024,393],[2025,392],[2026,378]],"unemployment_history":[[2021,3.4],[2022,3.3],[2023,1.8],[2024,2.8],[2025,3.3],[2026,2.1]],"income_change_pct":13.9,"population_change_pct":-6.9,"unemployment_change_pct":-38.2,"schools":null,"crime_index_history":[[2020,50],[2021,45.7],[2022,53.8],[2023,46],[2024,41.8],[2025,50.5]],"crime_index_change_pct":1,"health_index":86.6,"radon":null}},{"type":"MultiPolygon","arcs":[[[16,17,-16,18]]],"properties":{"id":2040,"postinumeroalue":"69420","nimi":"Syri","namn":"Syri","euref_x":374034,"euref_y":7050671,"pinta_ala":63292090,"vuosi":2026,"kunta":"421","he_vakiy":51,"he_naiset":26,"he_miehet":25,"he_kika":43,"he_0_2":2,"he_3_6":2,"he_7_12":5,"he_13_15":3,"he_16_17":2,"he_18_19":3,"he_20_24":1,"he_25_29":0,"he_30_34":1,"he_35_39":5,"he_40_44":3,"he_45_49":2,"he_50_54":0,"he_55_59":0,"he_60_64":4,"he_65_69":11,"he_70_74":3,"he_75_79":3,"he_80_84":1,"he_85_":0,"ko_ika18y":37,"ko_perus":15,"ko_koul":22,"ko_yliop":1,"ko_ammat":17,"ko_al_kork":4,"ko_yl_kork":0,"hr_tuy":37,"hr_ktu":26878,"hr_mtu":27525,"hr_pi_tul":12,"hr_ke_tul":16,"hr_hy_tul":9,"hr_ovy":994494,"te_taly":19,"te_takk":null,"te_as_valj":-1,"te_yks":-1,"te_nuor":-1,"te_eil_np":-1,"te_laps":-1,"te_plap":-1,"te_aklap":-1,"te_klap":-1,"te_teini":-1,"te_yhlap":-1,"te_aik":-1,"te_elak":-1,"te_omis_as":null,"te_vuok_as":null,"te_muu_as":-1,"tr_kuty":19,"tr_ktu":-1,"tr_mtu":-1,"tr_pi_tul":-1,"tr_ke_tul":-1,"tr_hy_tul":-1,"tr_ovy":-1,"ra_ke":7,"ra_raky":31,"ra_muut":7,"ra_asrak":24,"ra_asunn":28,"ra_as_kpa":125.7,"ra_pt_as":24,"ra_kt_as":3,"ra_muu_as":1,"tp_tyopy":6,"tp_alku_a":-1,"tp_jalo_bf":-1,"tp_palv_gu":-1,"tp_a_maat":-1,"tp_b_kaiv":-1,"tp_c_teol":-1,"tp_d_ener":-1,"tp_e_vesi":-1,"tp_f_rake":-1,"tp_g_kaup":-1,"tp_h_kulj":-1,"tp_i_majo":-1,"tp_j_info":-1,"tp_k_raho":-1,"tp_l_kiin":-1,"tp_m_erik":-1,"tp_n_hall":-1,"tp_o_julk":-1,"tp_p_koul":-1,"tp_q_terv":-1,"tp_r_taid":-1,"tp_s_muup":-1,"tp_t_koti":-1,"tp_u_kans":-1,"tp_x_tunt":-1,"pt_vakiy":51,"pt_tyoll":14,"pt_tyott":1,"pt_0_14":11,"pt_opisk":5,"pt_elakel":18,"pt_muut":2,"city":"kaustinen","pno":"69420","unemployment_rate":2,"higher_education_rate":10.8,"pensioner_share":35.3,"ownership_rate":null,"rental_rate":null,"population_density":1,"child_ratio":7.8,"student_share":9.8,"detached_house_share":85.7,"youth_ratio_pct":7.8,"gender_ratio":1.04,"single_parent_hh_pct":null,"families_with_children_pct":null,"tech_sector_pct":null,"healthcare_workers_pct":null,"employment_rate":27.5,"elderly_ratio_pct":35.3,"avg_household_size":2.68,"manufacturing_jobs_pct":null,"public_sector_jobs_pct":null,"service_sector_jobs_pct":null,"new_construction_pct":110.7,"foreign_language_pct":0,"crime_index":48.1,"property_price_sqm":null,"transit_stop_density":0.1,"air_quality_index":23.9,"green_space_pct":0,"daycare_density":0,"school_density":0,"healthcare_density":0,"restaurant_density":0,"grocery_density":0,"cycling_density":0,"single_person_hh_pct":null,"rental_price_sqm":null,"price_to_rent_ratio":null,"walkability_index":76,"traffic_accident_rate":null,"property_price_change_pct":null,"school_quality_score":null,"light_pollution":0.03,"noise_pollution":40,"voter_turnout_pct":69.9,"party_diversity_index":0.696,"broadband_coverage_pct":30,"ev_charging_density":0,"tree_canopy_pct":20.8,"transit_reachability_score":null,"sports_facility_density":0,"water_proximity_m":0,"avg_construction_year":1982,"income_history":[[2021,20686],[2022,19457],[2023,18074],[2024,19600],[2025,20204],[2026,27525]],"population_history":[[2021,52],[2022,56],[2023,53],[2024,51],[2025,51],[2026,51]],"unemployment_history":[[2021,1.9],[2022,0],[2023,1.9],[2024,2],[2025,0],[2026,2]],"income_change_pct":33.1,"population_change_pct":-1.9,"unemployment_change_pct":5.3,"schools":null,"crime_index_history":[[2020,37.9],[2021,50.3],[2022,48.7],[2023,34.7],[2024,23.7],[2025,48.1]],"crime_index_change_pct":26.9,"health_index":118.3,"radon":null}},{"type":"MultiPolygon","arcs":[[[19,-19,-15,20,21]]],"properties":{"id":2041,"postinumeroalue":"69440","nimi":"Lestijärvi Keskus","namn":"Lestijärvi centrum","euref_x":385809,"euref_y":7047518,"pinta_ala":224109757,"vuosi":2026,"kunta":"421","he_vakiy":373,"he_naiset":177,"he_miehet":196,"he_kika":52,"he_0_2":11,"he_3_6":13,"he_7_12":16,"he_13_15":10,"he_16_17":7,"he_18_19":4,"he_20_24":17,"he_25_29":13,"he_30_34":8,"he_35_39":17,"he_40_44":17,"he_45_49":14,"he_50_54":20,"he_55_59":21,"he_60_64":42,"he_65_69":34,"he_70_74":34,"he_75_79":36,"he_80_84":21,"he_85_":18,"ko_ika18y":316,"ko_perus":82,"ko_koul":234,"ko_yliop":16,"ko_ammat":127,"ko_al_kork":66,"ko_yl_kork":25,"hr_tuy":316,"hr_ktu":28259,"hr_mtu":23766,"hr_pi_tul":56,"hr_ke_tul":213,"hr_hy_tul":47,"hr_ovy":8929750,"te_taly":188,"te_takk":1.9,"te_as_valj":51.6,"te_yks":81,"te_nuor":6,"te_eil_np":3,"te_laps":30,"te_plap":9,"te_aklap":15,"te_klap":13,"te_teini":14,"te_yhlap":7,"te_aik":64,"te_elak":97,"te_omis_as":136,"te_vuok_as":49,"te_muu_as":3,"tr_kuty":188,"tr_ktu":46692,"tr_mtu":37091,"tr_pi_tul":51,"tr_ke_tul":106,"tr_hy_tul":31,"tr_ovy":8778149,"ra_ke":315,"ra_raky":272,"ra_muut":52,"ra_asrak":220,"ra_asunn":262,"ra_as_kpa":93.1,"ra_pt_as":256,"ra_kt_as":0,"ra_muu_as":6,"tp_tyopy":155,"tp_alku_a":21,"tp_jalo_bf":27,"tp_palv_gu":107,"tp_a_maat":21,"tp_b_kaiv":2,"tp_c_teol":25,"tp_d_ener":0,"tp_e_vesi":0,"tp_f_rake":0,"tp_g_kaup":7,"tp_h_kulj":4,"tp_i_majo":4,"tp_j_info":11,"tp_k_raho":0,"tp_l_kiin":0,"tp_m_erik":5,"tp_n_hall":6,"tp_o_julk":17,"tp_p_koul":17,"tp_q_terv":33,"tp_r_taid":1,"tp_s_muup":2,"tp_t_koti":0,"tp_u_kans":0,"tp_x_tunt":0,"pt_vakiy":373,"pt_tyoll":133,"pt_tyott":13,"pt_0_14":45,"pt_opisk":22,"pt_elakel":155,"pt_muut":5,"city":"kaustinen","pno":"69440","unemployment_rate":3.5,"higher_education_rate":28.8,"pensioner_share":41.6,"ownership_rate":72.3,"rental_rate":26.1,"population_density":2,"child_ratio":6.4,"student_share":5.9,"detached_house_share":97.7,"youth_ratio_pct":9.1,"gender_ratio":0.9,"single_parent_hh_pct":1.6,"families_with_children_pct":16,"tech_sector_pct":7.1,"healthcare_workers_pct":21.3,"employment_rate":35.7,"elderly_ratio_pct":38.3,"avg_household_size":1.98,"manufacturing_jobs_pct":17.4,"public_sector_jobs_pct":11,"service_sector_jobs_pct":69,"new_construction_pct":103.8,"foreign_language_pct":1.9,"crime_index":62.1,"property_price_sqm":null,"transit_stop_density":0.1,"air_quality_index":24.2,"green_space_pct":22,"daycare_density":0,"school_density":0,"healthcare_density":0,"restaurant_density":0,"grocery_density":0,"cycling_density":0,"single_person_hh_pct":43.1,"rental_price_sqm":null,"price_to_rent_ratio":null,"walkability_index":76,"traffic_accident_rate":2.7,"property_price_change_pct":null,"school_quality_score":null,"light_pollution":0.07,"noise_pollution":40,"voter_turnout_pct":69.9,"party_diversity_index":0.696,"broadband_coverage_pct":30,"ev_charging_density":0,"tree_canopy_pct":31.8,"transit_reachability_score":null,"sports_facility_density":0.1,"water_proximity_m":0,"avg_construction_year":1982,"income_history":[[2021,20436],[2022,20219],[2023,20710],[2024,21687],[2025,22998],[2026,23766]],"population_history":[[2021,432],[2022,421],[2023,410],[2024,392],[2025,378],[2026,373]],"unemployment_history":[[2021,3.5],[2022,4.3],[2023,3.2],[2024,2.8],[2025,1.9],[2026,3.5]],"income_change_pct":16.3,"population_change_pct":-13.7,"unemployment_change_pct":0,"schools":null,"crime_index_history":[[2020,49],[2021,65],[2022,62.9],[2023,44.8],[2024,30.6],[2025,62.1]],"crime_index_change_pct":26.7,"health_index":118.3,"radon":null}},{"type":"MultiPolygon","arcs":[[[22,23,-22,24]]],"properties":{"id":2042,"postinumeroalue":"69450","nimi":"Yli-Lesti","namn":"Yli-Lesti","euref_x":390376,"euref_y":7039369,"pinta_ala":177551113,"vuosi":2026,"kunta":"421","he_vakiy":195,"he_naiset":88,"he_miehet":107,"he_kika":50,"he_0_2":3,"he_3_6":6,"he_7_12":18,"he_13_15":3,"he_16_17":4,"he_18_19":2,"he_20_24":8,"he_25_29":5,"he_30_34":9,"he_35_39":4,"he_40_44":8,"he_45_49":7,"he_50_54":11,"he_55_59":15,"he_60_64":25,"he_65_69":20,"he_70_74":23,"he_75_79":14,"he_80_84":5,"he_85_":5,"ko_ika18y":161,"ko_perus":45,"ko_koul":116,"ko_yliop":4,"ko_ammat":85,"ko_al_kork":20,"ko_yl_kork":7,"hr_tuy":161,"hr_ktu":27313,"hr_mtu":22113,"hr_pi_tul":41,"hr_ke_tul":98,"hr_hy_tul":22,"hr_ovy":4397427,"te_taly":90,"te_takk":2.2,"te_as_valj":46.1,"te_yks":29,"te_nuor":1,"te_eil_np":1,"te_laps":19,"te_plap":3,"te_aklap":7,"te_klap":14,"te_teini":6,"te_yhlap":2,"te_aik":26,"te_elak":46,"te_omis_as":76,"te_vuok_as":12,"te_muu_as":2,"tr_kuty":90,"tr_ktu":49260,"tr_mtu":40772,"tr_pi_tul":25,"tr_ke_tul":54,"tr_hy_tul":11,"tr_ovy":4433419,"ra_ke":141,"ra_raky":155,"ra_muut":38,"ra_asrak":117,"ra_asunn":110,"ra_as_kpa":99.6,"ra_pt_as":105,"ra_kt_as":0,"ra_muu_as":5,"tp_tyopy":37,"tp_alku_a":24,"tp_jalo_bf":10,"tp_palv_gu":3,"tp_a_maat":24,"tp_b_kaiv":6,"tp_c_teol":1,"tp_d_ener":0,"tp_e_vesi":0,"tp_f_rake":3,"tp_g_kaup":1,"tp_h_kulj":0,"tp_i_majo":0,"tp_j_info":0,"tp_k_raho":0,"tp_l_kiin":0,"tp_m_erik":0,"tp_n_hall":1,"tp_o_julk":0,"tp_p_koul":0,"tp_q_terv":0,"tp_r_taid":1,"tp_s_muup":0,"tp_t_koti":0,"tp_u_kans":0,"tp_x_tunt":0,"pt_vakiy":195,"pt_tyoll":70,"pt_tyott":1,"pt_0_14":30,"pt_opisk":10,"pt_elakel":79,"pt_muut":5,"city":"kaustinen","pno":"69450","unemployment_rate":0.5,"higher_education_rate":16.8,"pensioner_share":40.5,"ownership_rate":84.4,"rental_rate":13.3,"population_density":1,"child_ratio":4.6,"student_share":5.1,"detached_house_share":95.5,"youth_ratio_pct":7.7,"gender_ratio":0.82,"single_parent_hh_pct":1.1,"families_with_children_pct":21.1,"tech_sector_pct":0,"healthcare_workers_pct":0,"employment_rate":35.9,"elderly_ratio_pct":34.4,"avg_household_size":2.17,"manufacturing_jobs_pct":27,"public_sector_jobs_pct":0,"service_sector_jobs_pct":8.1,"new_construction_pct":140.9,"foreign_language_pct":2.4,"crime_index":30.9,"property_price_sqm":null,"transit_stop_density":0.1,"air_quality_index":24.1,"green_space_pct":6.7,"daycare_density":0,"school_density":0,"healthcare_density":0,"restaurant_density":0,"grocery_density":0,"cycling_density":0,"single_person_hh_pct":32.2,"rental_price_sqm":null,"price_to_rent_ratio":null,"walkability_index":76,"traffic_accident_rate":1.7,"property_price_change_pct":null,"school_quality_score":null,"light_pollution":0.03,"noise_pollution":40,"voter_turnout_pct":69.9,"party_diversity_index":0.696,"broadband_coverage_pct":30,"ev_charging_density":0,"tree_canopy_pct":48.6,"transit_reachability_score":null,"sports_facility_density":0,"water_proximity_m":0,"avg_construction_year":1983,"income_history":[[2021,17823],[2022,17643],[2023,18020],[2024,19936],[2025,21178],[2026,22113]],"population_history":[[2021,198],[2022,207],[2023,216],[2024,210],[2025,209],[2026,195]],"unemployment_history":[[2021,5.1],[2022,4.8],[2023,2.8],[2024,2.4],[2025,2.9],[2026,0.5]],"income_change_pct":24.1,"population_change_pct":-1.5,"unemployment_change_pct":-90.2,"schools":null,"crime_index_history":[[2020,24.4],[2021,32.3],[2022,31.3],[2023,22.3],[2024,15.2],[2025,30.9]],"crime_index_change_pct":26.6,"health_index":118.3,"radon":null}},{"type":"MultiPolygon","arcs":[[[25,26,-12,-18,27,28,29]]],"properties":{"id":2043,"postinumeroalue":"69510","nimi":"Halsua Keskus-Marjusaari","namn":"Halsua centrum-Marjusaari","euref_x":359239,"euref_y":7042133,"pinta_ala":229855105,"vuosi":2026,"kunta":"074","he_vakiy":677,"he_naiset":327,"he_miehet":350,"he_kika":52,"he_0_2":9,"he_3_6":21,"he_7_12":42,"he_13_15":19,"he_16_17":13,"he_18_19":12,"he_20_24":21,"he_25_29":22,"he_30_34":24,"he_35_39":21,"he_40_44":35,"he_45_49":34,"he_50_54":46,"he_55_59":45,"he_60_64":54,"he_65_69":63,"he_70_74":68,"he_75_79":55,"he_80_84":27,"he_85_":46,"ko_ika18y":573,"ko_perus":187,"ko_koul":386,"ko_yliop":18,"ko_ammat":252,"ko_al_kork":95,"ko_yl_kork":21,"hr_tuy":573,"hr_ktu":26458,"hr_mtu":22398,"hr_pi_tul":138,"hr_ke_tul":373,"hr_hy_tul":62,"hr_ovy":15160701,"te_taly":333,"te_takk":2,"te_as_valj":52,"te_yks":142,"te_nuor":9,"te_eil_np":4,"te_laps":47,"te_plap":9,"te_aklap":20,"te_klap":26,"te_teini":24,"te_yhlap":12,"te_aik":106,"te_elak":180,"te_omis_as":249,"te_vuok_as":77,"te_muu_as":7,"tr_kuty":333,"tr_ktu":44628,"tr_mtu":35801,"tr_pi_tul":101,"tr_ke_tul":191,"tr_hy_tul":41,"tr_ovy":14861092,"ra_ke":135,"ra_raky":496,"ra_muut":120,"ra_asrak":376,"ra_asunn":455,"ra_as_kpa":95.9,"ra_pt_as":450,"ra_kt_as":0,"ra_muu_as":5,"tp_tyopy":253,"tp_alku_a":37,"tp_jalo_bf":79,"tp_palv_gu":137,"tp_a_maat":37,"tp_b_kaiv":0,"tp_c_teol":66,"tp_d_ener":0,"tp_e_vesi":0,"tp_f_rake":13,"tp_g_kaup":10,"tp_h_kulj":30,"tp_i_majo":0,"tp_j_info":1,"tp_k_raho":1,"tp_l_kiin":0,"tp_m_erik":4,"tp_n_hall":5,"tp_o_julk":15,"tp_p_koul":20,"tp_q_terv":43,"tp_r_taid":0,"tp_s_muup":8,"tp_t_koti":0,"tp_u_kans":0,"tp_x_tunt":0,"pt_vakiy":677,"pt_tyoll":261,"pt_tyott":23,"pt_0_14":83,"pt_opisk":34,"pt_elakel":268,"pt_muut":8,"city":"kaustinen","pno":"69510","unemployment_rate":3.4,"higher_education_rate":20.2,"pensioner_share":39.6,"ownership_rate":74.8,"rental_rate":23.1,"population_density":3,"child_ratio":4.4,"student_share":5,"detached_house_share":98.9,"youth_ratio_pct":8.1,"gender_ratio":0.93,"single_parent_hh_pct":1.2,"families_with_children_pct":14.1,"tech_sector_pct":0.4,"healthcare_workers_pct":17,"employment_rate":38.6,"elderly_ratio_pct":38.3,"avg_household_size":2.03,"manufacturing_jobs_pct":31.2,"public_sector_jobs_pct":5.9,"service_sector_jobs_pct":54.2,"new_construction_pct":109,"foreign_language_pct":4.2,"crime_index":44,"property_price_sqm":null,"transit_stop_density":0.2,"air_quality_index":23.9,"green_space_pct":2.9,"daycare_density":0,"school_density":0,"healthcare_density":0,"restaurant_density":0,"grocery_density":0,"cycling_density":0,"single_person_hh_pct":42.6,"rental_price_sqm":null,"price_to_rent_ratio":null,"walkability_index":76,"traffic_accident_rate":4.9,"property_price_change_pct":null,"school_quality_score":null,"light_pollution":0.07,"noise_pollution":40,"voter_turnout_pct":58,"party_diversity_index":0.533,"broadband_coverage_pct":31,"ev_charging_density":0,"tree_canopy_pct":30.2,"transit_reachability_score":null,"sports_facility_density":0.1,"water_proximity_m":0,"avg_construction_year":1983,"income_history":[[2021,18877],[2022,19006],[2023,19372],[2024,19999],[2025,20892],[2026,22398]],"population_history":[[2021,794],[2022,778],[2023,769],[2024,739],[2025,703],[2026,677]],"unemployment_history":[[2021,2.5],[2022,3.7],[2023,2.9],[2024,3.9],[2025,4.1],[2026,3.4]],"income_change_pct":18.7,"population_change_pct":-14.7,"unemployment_change_pct":36,"schools":null,"crime_index_history":[[2020,36.1],[2021,34.9],[2022,35.9],[2023,50.4],[2024,48.7],[2025,44]],"crime_index_change_pct":21.9,"health_index":99.5,"radon":79}},{"type":"MultiPolygon","arcs":[[[30,31,-28,-17,-20,-24,32]]],"properties":{"id":2044,"postinumeroalue":"69550","nimi":"Kanala","namn":"Kanala","euref_x":374083,"euref_y":7038182,"pinta_ala":143401687,"vuosi":2026,"kunta":"074","he_vakiy":68,"he_naiset":28,"he_miehet":40,"he_kika":57,"he_0_2":0,"he_3_6":3,"he_7_12":3,"he_13_15":4,"he_16_17":0,"he_18_19":0,"he_20_24":3,"he_25_29":0,"he_30_34":2,"he_35_39":1,"he_40_44":3,"he_45_49":1,"he_50_54":4,"he_55_59":6,"he_60_64":6,"he_65_69":5,"he_70_74":8,"he_75_79":6,"he_80_84":7,"he_85_":6,"ko_ika18y":58,"ko_perus":22,"ko_koul":36,"ko_yliop":0,"ko_ammat":26,"ko_al_kork":8,"ko_yl_kork":2,"hr_tuy":58,"hr_ktu":24519,"hr_mtu":20868,"hr_pi_tul":16,"hr_ke_tul":37,"hr_hy_tul":5,"hr_ovy":1422127,"te_taly":34,"te_takk":2,"te_as_valj":51.5,"te_yks":14,"te_nuor":0,"te_eil_np":0,"te_laps":4,"te_plap":0,"te_aklap":3,"te_klap":2,"te_teini":3,"te_yhlap":0,"te_aik":7,"te_elak":24,"te_omis_as":34,"te_vuok_as":0,"te_muu_as":0,"tr_kuty":34,"tr_ktu":42387,"tr_mtu":35579,"tr_pi_tul":12,"tr_ke_tul":20,"tr_hy_tul":2,"tr_ovy":1441146,"ra_ke":32,"ra_raky":59,"ra_muut":5,"ra_asrak":54,"ra_asunn":55,"ra_as_kpa":101.2,"ra_pt_as":53,"ra_kt_as":0,"ra_muu_as":2,"tp_tyopy":12,"tp_alku_a":12,"tp_jalo_bf":0,"tp_palv_gu":0,"tp_a_maat":12,"tp_b_kaiv":0,"tp_c_teol":0,"tp_d_ener":0,"tp_e_vesi":0,"tp_f_rake":0,"tp_g_kaup":0,"tp_h_kulj":0,"tp_i_majo":0,"tp_j_info":0,"tp_k_raho":0,"tp_l_kiin":0,"tp_m_erik":0,"tp_n_hall":0,"tp_o_julk":0,"tp_p_koul":0,"tp_q_terv":0,"tp_r_taid":0,"tp_s_muup":0,"tp_t_koti":0,"tp_u_kans":0,"tp_x_tunt":0,"pt_vakiy":68,"pt_tyoll":23,"pt_tyott":4,"pt_0_14":8,"pt_opisk":2,"pt_elakel":31,"pt_muut":0,"city":"kaustinen","pno":"69550","unemployment_rate":5.9,"higher_education_rate":17.2,"pensioner_share":45.6,"ownership_rate":100,"rental_rate":0,"population_density":0,"child_ratio":4.4,"student_share":2.9,"detached_house_share":96.4,"youth_ratio_pct":4.4,"gender_ratio":0.7,"single_parent_hh_pct":0,"families_with_children_pct":11.8,"tech_sector_pct":0,"healthcare_workers_pct":0,"employment_rate":33.8,"elderly_ratio_pct":47.1,"avg_household_size":2,"manufacturing_jobs_pct":0,"public_sector_jobs_pct":0,"service_sector_jobs_pct":0,"new_construction_pct":107.3,"foreign_language_pct":0,"crime_index":112.8,"property_price_sqm":null,"transit_stop_density":0.1,"air_quality_index":23.8,"green_space_pct":0,"daycare_density":0,"school_density":0,"healthcare_density":0,"restaurant_density":0,"grocery_density":0,"cycling_density":0,"single_person_hh_pct":41.2,"rental_price_sqm":null,"price_to_rent_ratio":null,"walkability_index":76,"traffic_accident_rate":14.7,"property_price_change_pct":null,"school_quality_score":null,"light_pollution":0.03,"noise_pollution":40,"voter_turnout_pct":58,"party_diversity_index":0.533,"broadband_coverage_pct":31,"ev_charging_density":0,"tree_canopy_pct":34.3,"transit_reachability_score":null,"sports_facility_density":0,"water_proximity_m":0,"avg_construction_year":1983,"income_history":[[2021,16949],[2022,15731],[2023,16356],[2024,19434],[2025,20207],[2026,20868]],"population_history":[[2021,79],[2022,81],[2023,75],[2024,72],[2025,68],[2026,68]],"unemployment_history":[[2021,6.3],[2022,6.2],[2023,5.3],[2024,5.6],[2025,4.4],[2026,5.9]],"income_change_pct":23.1,"population_change_pct":-13.9,"unemployment_change_pct":-6.3,"schools":null,"crime_index_history":[[2020,92.6],[2021,89.4],[2022,92.1],[2023,129.2],[2024,124.9],[2025,112.8]],"crime_index_change_pct":21.8,"health_index":99.5,"radon":null}},{"type":"MultiPolygon","arcs":[[[33,34,35,36,-29,-32,37]]],"properties":{"id":2045,"postinumeroalue":"69570","nimi":"Karvonen","namn":"Karvonen","euref_x":364487,"euref_y":7031102,"pinta_ala":142632574,"vuosi":2026,"kunta":"074","he_vakiy":235,"he_naiset":104,"he_miehet":131,"he_kika":49,"he_0_2":6,"he_3_6":5,"he_7_12":22,"he_13_15":10,"he_16_17":5,"he_18_19":2,"he_20_24":4,"he_25_29":7,"he_30_34":9,"he_35_39":11,"he_40_44":11,"he_45_49":20,"he_50_54":12,"he_55_59":15,"he_60_64":19,"he_65_69":17,"he_70_74":20,"he_75_79":20,"he_80_84":4,"he_85_":16,"ko_ika18y":187,"ko_perus":63,"ko_koul":124,"ko_yliop":7,"ko_ammat":80,"ko_al_kork":30,"ko_yl_kork":7,"hr_tuy":187,"hr_ktu":26269,"hr_mtu":23880,"hr_pi_tul":44,"hr_ke_tul":118,"hr_hy_tul":25,"hr_ovy":4912392,"te_taly":110,"te_takk":2.1,"te_as_valj":55.4,"te_yks":38,"te_nuor":3,"te_eil_np":0,"te_laps":23,"te_plap":5,"te_aklap":8,"te_klap":15,"te_teini":10,"te_yhlap":7,"te_aik":36,"te_elak":53,"te_omis_as":95,"te_vuok_as":13,"te_muu_as":2,"tr_kuty":110,"tr_ktu":45159,"tr_mtu":38268,"tr_pi_tul":29,"tr_ke_tul":68,"tr_hy_tul":13,"tr_ovy":4967436,"ra_ke":50,"ra_raky":153,"ra_muut":17,"ra_asrak":136,"ra_asunn":140,"ra_as_kpa":113.2,"ra_pt_as":136,"ra_kt_as":1,"ra_muu_as":3,"tp_tyopy":31,"tp_alku_a":17,"tp_jalo_bf":4,"tp_palv_gu":10,"tp_a_maat":17,"tp_b_kaiv":2,"tp_c_teol":0,"tp_d_ener":0,"tp_e_vesi":0,"tp_f_rake":2,"tp_g_kaup":0,"tp_h_kulj":8,"tp_i_majo":0,"tp_j_info":0,"tp_k_raho":0,"tp_l_kiin":0,"tp_m_erik":0,"tp_n_hall":0,"tp_o_julk":0,"tp_p_koul":0,"tp_q_terv":0,"tp_r_taid":0,"tp_s_muup":2,"tp_t_koti":0,"tp_u_kans":0,"tp_x_tunt":0,"pt_vakiy":235,"pt_tyoll":89,"pt_tyott":11,"pt_0_14":42,"pt_opisk":9,"pt_elakel":82,"pt_muut":2,"city":"kaustinen","pno":"69570","unemployment_rate":4.7,"higher_education_rate":19.8,"pensioner_share":34.9,"ownership_rate":86.4,"rental_rate":11.8,"population_density":2,"child_ratio":4.7,"student_share":3.8,"detached_house_share":97.1,"youth_ratio_pct":5.5,"gender_ratio":0.79,"single_parent_hh_pct":0,"families_with_children_pct":20.9,"tech_sector_pct":0,"healthcare_workers_pct":0,"employment_rate":37.9,"elderly_ratio_pct":32.8,"avg_household_size":2.14,"manufacturing_jobs_pct":12.9,"public_sector_jobs_pct":0,"service_sector_jobs_pct":32.3,"new_construction_pct":109.3,"foreign_language_pct":1.6,"crime_index":39.5,"property_price_sqm":null,"transit_stop_density":0.1,"air_quality_index":24,"green_space_pct":0,"daycare_density":0,"school_density":0,"healthcare_density":0,"restaurant_density":0,"grocery_density":0,"cycling_density":0,"single_person_hh_pct":34.5,"rental_price_sqm":null,"price_to_rent_ratio":null,"walkability_index":76,"traffic_accident_rate":1.4,"property_price_change_pct":null,"school_quality_score":null,"light_pollution":0.01,"noise_pollution":40,"voter_turnout_pct":58,"party_diversity_index":0.533,"broadband_coverage_pct":31,"ev_charging_density":0,"tree_canopy_pct":37.4,"transit_reachability_score":null,"sports_facility_density":0,"water_proximity_m":0,"avg_construction_year":1983,"income_history":[[2021,19973],[2022,19924],[2023,20227],[2024,21139],[2025,22436],[2026,23880]],"population_history":[[2021,254],[2022,243],[2023,238],[2024,233],[2025,234],[2026,235]],"unemployment_history":[[2021,2.4],[2022,2.9],[2023,2.5],[2024,3],[2025,3.8],[2026,4.7]],"income_change_pct":19.6,"population_change_pct":-7.5,"unemployment_change_pct":95.8,"schools":null,"crime_index_history":[[2020,32.4],[2021,31.3],[2022,32.2],[2023,45.3],[2024,43.8],[2025,39.5]],"crime_index_change_pct":21.9,"health_index":99.5,"radon":null}},{"type":"MultiPolygon","arcs":[[[38,39,40,41,-30,-37]]],"properties":{"id":2050,"postinumeroalue":"69750","nimi":"Sillanpää","namn":"Sillanpää","euref_x":349648,"euref_y":7038020,"pinta_ala":67105953,"vuosi":2026,"kunta":"924","he_vakiy":160,"he_naiset":80,"he_miehet":80,"he_kika":49,"he_0_2":5,"he_3_6":7,"he_7_12":4,"he_13_15":5,"he_16_17":2,"he_18_19":3,"he_20_24":4,"he_25_29":12,"he_30_34":9,"he_35_39":6,"he_40_44":7,"he_45_49":9,"he_50_54":9,"he_55_59":20,"he_60_64":14,"he_65_69":10,"he_70_74":14,"he_75_79":7,"he_80_84":4,"he_85_":9,"ko_ika18y":137,"ko_perus":29,"ko_koul":108,"ko_yliop":0,"ko_ammat":79,"ko_al_kork":22,"ko_yl_kork":7,"hr_tuy":137,"hr_ktu":25015,"hr_mtu":24122,"hr_pi_tul":36,"hr_ke_tul":89,"hr_hy_tul":12,"hr_ovy":3427123,"te_taly":74,"te_takk":2.2,"te_as_valj":49,"te_yks":22,"te_nuor":3,"te_eil_np":4,"te_laps":12,"te_plap":3,"te_aklap":5,"te_klap":4,"te_teini":5,"te_yhlap":1,"te_aik":33,"te_elak":29,"te_omis_as":67,"te_vuok_as":6,"te_muu_as":1,"tr_kuty":74,"tr_ktu":46452,"tr_mtu":43036,"tr_pi_tul":16,"tr_ke_tul":51,"tr_hy_tul":7,"tr_ovy":3437442,"ra_ke":72,"ra_raky":132,"ra_muut":38,"ra_asrak":94,"ra_asunn":102,"ra_as_kpa":102.8,"ra_pt_as":98,"ra_kt_as":0,"ra_muu_as":4,"tp_tyopy":35,"tp_alku_a":23,"tp_jalo_bf":3,"tp_palv_gu":9,"tp_a_maat":23,"tp_b_kaiv":0,"tp_c_teol":0,"tp_d_ener":0,"tp_e_vesi":0,"tp_f_rake":3,"tp_g_kaup":6,"tp_h_kulj":1,"tp_i_majo":0,"tp_j_info":0,"tp_k_raho":0,"tp_l_kiin":0,"tp_m_erik":0,"tp_n_hall":0,"tp_o_julk":0,"tp_p_koul":1,"tp_q_terv":0,"tp_r_taid":1,"tp_s_muup":0,"tp_t_koti":0,"tp_u_kans":0,"tp_x_tunt":0,"pt_vakiy":160,"pt_tyoll":82,"pt_tyott":5,"pt_0_14":17,"pt_opisk":9,"pt_elakel":43,"pt_muut":4,"city":"kaustinen","pno":"69750","unemployment_rate":3.1,"higher_education_rate":21.2,"pensioner_share":26.9,"ownership_rate":90.5,"rental_rate":8.1,"population_density":2,"child_ratio":7.5,"student_share":5.6,"detached_house_share":96.1,"youth_ratio_pct":11.9,"gender_ratio":1,"single_parent_hh_pct":5.4,"families_with_children_pct":16.2,"tech_sector_pct":0,"healthcare_workers_pct":0,"employment_rate":51.2,"elderly_ratio_pct":27.5,"avg_household_size":2.16,"manufacturing_jobs_pct":8.6,"public_sector_jobs_pct":0,"service_sector_jobs_pct":25.7,"new_construction_pct":129.4,"foreign_language_pct":0,"crime_index":45.6,"property_price_sqm":null,"transit_stop_density":0.5,"air_quality_index":24.1,"green_space_pct":24.7,"daycare_density":0,"school_density":0,"healthcare_density":0,"restaurant_density":0,"grocery_density":0,"cycling_density":0,"single_person_hh_pct":29.7,"rental_price_sqm":null,"price_to_rent_ratio":null,"walkability_index":76,"traffic_accident_rate":10.4,"property_price_change_pct":null,"school_quality_score":null,"light_pollution":0.05,"noise_pollution":40,"voter_turnout_pct":60,"party_diversity_index":0.706,"broadband_coverage_pct":36,"ev_charging_density":0,"tree_canopy_pct":39.6,"transit_reachability_score":null,"sports_facility_density":0,"water_proximity_m":0,"avg_construction_year":1981,"income_history":[[2021,21171],[2022,21532],[2023,21548],[2024,22938],[2025,24332],[2026,24122]],"population_history":[[2021,163],[2022,165],[2023,162],[2024,159],[2025,163],[2026,160]],"unemployment_history":[[2021,1.2],[2022,1.2],[2023,1.2],[2024,4.4],[2025,3.1],[2026,3.1]],"income_change_pct":13.9,"population_change_pct":-1.8,"unemployment_change_pct":158.3,"schools":null,"crime_index_history":[[2020,34.4],[2021,32.1],[2022,36.4],[2023,38.1],[2024,38.6],[2025,45.6]],"crime_index_change_pct":32.6,"health_index":95,"radon":null}},{"type":"MultiPolygon","arcs":[[[42,43,44,45,46]]],"properties":{"id":2046,"postinumeroalue":"69600","nimi":"Kaustinen Keskus","namn":"Kaustby centrum","euref_x":335670,"euref_y":7055522,"pinta_ala":331349971,"vuosi":2026,"kunta":"236","he_vakiy":3906,"he_naiset":1972,"he_miehet":1934,"he_kika":44,"he_0_2":96,"he_3_6":150,"he_7_12":322,"he_13_15":164,"he_16_17":119,"he_18_19":100,"he_20_24":148,"he_25_29":141,"he_30_34":199,"he_35_39":250,"he_40_44":299,"he_45_49":243,"he_50_54":189,"he_55_59":254,"he_60_64":226,"he_65_69":254,"he_70_74":237,"he_75_79":232,"he_80_84":139,"he_85_":144,"ko_ika18y":3055,"ko_perus":730,"ko_koul":2325,"ko_yliop":92,"ko_ammat":1427,"ko_al_kork":617,"ko_yl_kork":189,"hr_tuy":3055,"hr_ktu":27540,"hr_mtu":25980,"hr_pi_tul":577,"hr_ke_tul":2040,"hr_hy_tul":438,"hr_ovy":84136116,"te_taly":1789,"te_takk":2.2,"te_as_valj":47.1,"te_yks":664,"te_nuor":134,"te_eil_np":57,"te_laps":443,"te_plap":82,"te_aklap":174,"te_klap":222,"te_teini":186,"te_yhlap":59,"te_aik":658,"te_elak":702,"te_omis_as":1349,"te_vuok_as":418,"te_muu_as":22,"tr_kuty":1789,"tr_ktu":47260,"tr_mtu":41489,"tr_pi_tul":421,"tr_ke_tul":1128,"tr_hy_tul":240,"tr_ovy":84547464,"ra_ke":208,"ra_raky":1866,"ra_muut":299,"ra_asrak":1567,"ra_asunn":2129,"ra_as_kpa":98.5,"ra_pt_as":1930,"ra_kt_as":138,"ra_muu_as":61,"tp_tyopy":1398,"tp_alku_a":112,"tp_jalo_bf":319,"tp_palv_gu":967,"tp_a_maat":112,"tp_b_kaiv":27,"tp_c_teol":179,"tp_d_ener":5,"tp_e_vesi":9,"tp_f_rake":99,"tp_g_kaup":167,"tp_h_kulj":110,"tp_i_majo":37,"tp_j_info":20,"tp_k_raho":19,"tp_l_kiin":7,"tp_m_erik":117,"tp_n_hall":42,"tp_o_julk":51,"tp_p_koul":140,"tp_q_terv":182,"tp_r_taid":20,"tp_s_muup":55,"tp_t_koti":0,"tp_u_kans":0,"tp_x_tunt":0,"pt_vakiy":3906,"pt_tyoll":1682,"pt_tyott":149,"pt_0_14":681,"pt_opisk":244,"pt_elakel":1071,"pt_muut":79,"city":"kaustinen","pno":"69600","unemployment_rate":3.8,"higher_education_rate":26.4,"pensioner_share":27.4,"ownership_rate":75.4,"rental_rate":23.4,"population_density":12,"child_ratio":6.3,"student_share":6.2,"detached_house_share":90.7,"youth_ratio_pct":10,"gender_ratio":1.02,"single_parent_hh_pct":3.2,"families_with_children_pct":24.8,"tech_sector_pct":1.4,"healthcare_workers_pct":13,"employment_rate":43.1,"elderly_ratio_pct":25.8,"avg_household_size":2.18,"manufacturing_jobs_pct":22.8,"public_sector_jobs_pct":3.6,"service_sector_jobs_pct":69.2,"new_construction_pct":87.6,"foreign_language_pct":2.3,"crime_index":80.1,"property_price_sqm":921,"transit_stop_density":0.3,"air_quality_index":24.2,"green_space_pct":2.5,"daycare_density":0,"school_density":0,"healthcare_density":0,"restaurant_density":0,"grocery_density":0,"cycling_density":0.2,"single_person_hh_pct":37.1,"rental_price_sqm":null,"price_to_rent_ratio":null,"walkability_index":78,"traffic_accident_rate":2.2,"property_price_change_pct":-18.9,"school_quality_score":56.4,"light_pollution":0.43,"noise_pollution":40,"voter_turnout_pct":58.1,"party_diversity_index":0.655,"broadband_coverage_pct":36,"ev_charging_density":0,"tree_canopy_pct":45.1,"transit_reachability_score":null,"sports_facility_density":0.1,"water_proximity_m":0,"avg_construction_year":1982,"income_history":[[2021,22175],[2022,22216],[2023,23330],[2024,23659],[2025,24889],[2026,25980]],"population_history":[[2021,4032],[2022,3993],[2023,3974],[2024,3973],[2025,3920],[2026,3906]],"unemployment_history":[[2021,3.3],[2022,2.8],[2023,3.5],[2024,4],[2025,4.9],[2026,3.8]],"income_change_pct":17.2,"population_change_pct":-3.1,"unemployment_change_pct":15.2,"schools":[{"name":"Kaustisen musiikkilukio","score":56.4}],"property_price_history":[[2020,1135],[2021,1160],[2022,972],[2023,1412],[2024,1078],[2025,921]],"crime_index_history":[[2020,78.2],[2021,64.8],[2022,65.5],[2023,65.2],[2024,80.2],[2025,80.1]],"crime_index_change_pct":2.4,"health_index":97.3,"radon":67}},{"type":"MultiPolygon","arcs":[[[-26,-42,47,-43,48]]],"properties":{"id":2047,"postinumeroalue":"69660","nimi":"Köyhäjoki","namn":"Köyhäjoki","euref_x":350138,"euref_y":7046716,"pinta_ala":59336198,"vuosi":2026,"kunta":"236","he_vakiy":189,"he_naiset":89,"he_miehet":100,"he_kika":51,"he_0_2":2,"he_3_6":1,"he_7_12":12,"he_13_15":8,"he_16_17":8,"he_18_19":4,"he_20_24":4,"he_25_29":6,"he_30_34":5,"he_35_39":9,"he_40_44":13,"he_45_49":9,"he_50_54":17,"he_55_59":9,"he_60_64":15,"he_65_69":14,"he_70_74":24,"he_75_79":12,"he_80_84":6,"he_85_":11,"ko_ika18y":158,"ko_perus":55,"ko_koul":103,"ko_yliop":8,"ko_ammat":68,"ko_al_kork":23,"ko_yl_kork":4,"hr_tuy":158,"hr_ktu":25860,"hr_mtu":24023,"hr_pi_tul":43,"hr_ke_tul":94,"hr_hy_tul":21,"hr_ovy":4085848,"te_taly":79,"te_takk":2.4,"te_as_valj":49.5,"te_yks":19,"te_nuor":0,"te_eil_np":0,"te_laps":18,"te_plap":2,"te_aklap":3,"te_klap":8,"te_teini":13,"te_yhlap":2,"te_aik":21,"te_elak":41,"te_omis_as":78,"te_vuok_as":1,"te_muu_as":0,"tr_kuty":79,"tr_ktu":52304,"tr_mtu":44578,"tr_pi_tul":16,"tr_ke_tul":54,"tr_hy_tul":9,"tr_ovy":4131987,"ra_ke":10,"ra_raky":112,"ra_muut":13,"ra_asrak":99,"ra_asunn":103,"ra_as_kpa":111.5,"ra_pt_as":103,"ra_kt_as":0,"ra_muu_as":0,"tp_tyopy":36,"tp_alku_a":30,"tp_jalo_bf":4,"tp_palv_gu":2,"tp_a_maat":30,"tp_b_kaiv":0,"tp_c_teol":3,"tp_d_ener":0,"tp_e_vesi":0,"tp_f_rake":1,"tp_g_kaup":1,"tp_h_kulj":1,"tp_i_majo":0,"tp_j_info":0,"tp_k_raho":0,"tp_l_kiin":0,"tp_m_erik":0,"tp_n_hall":0,"tp_o_julk":0,"tp_p_koul":0,"tp_q_terv":0,"tp_r_taid":0,"tp_s_muup":0,"tp_t_koti":0,"tp_u_kans":0,"tp_x_tunt":0,"pt_vakiy":189,"pt_tyoll":82,"pt_tyott":1,"pt_0_14":21,"pt_opisk":14,"pt_elakel":69,"pt_muut":2,"city":"kaustinen","pno":"69660","unemployment_rate":0.5,"higher_education_rate":17.1,"pensioner_share":36.5,"ownership_rate":98.7,"rental_rate":1.3,"population_density":3,"child_ratio":1.6,"student_share":7.4,"detached_house_share":100,"youth_ratio_pct":7.4,"gender_ratio":0.89,"single_parent_hh_pct":0,"families_with_children_pct":22.8,"tech_sector_pct":0,"healthcare_workers_pct":0,"employment_rate":43.4,"elderly_ratio_pct":35.4,"avg_household_size":2.39,"manufacturing_jobs_pct":11.1,"public_sector_jobs_pct":0,"service_sector_jobs_pct":5.6,"new_construction_pct":108.7,"foreign_language_pct":0.5,"crime_index":37.9,"property_price_sqm":null,"transit_stop_density":0.4,"air_quality_index":24.1,"green_space_pct":18,"daycare_density":0,"school_density":0,"healthcare_density":0,"restaurant_density":0,"grocery_density":0,"cycling_density":0,"single_person_hh_pct":24.1,"rental_price_sqm":null,"price_to_rent_ratio":null,"walkability_index":76,"traffic_accident_rate":3.5,"property_price_change_pct":null,"school_quality_score":null,"light_pollution":0.11,"noise_pollution":40,"voter_turnout_pct":58.1,"party_diversity_index":0.655,"broadband_coverage_pct":36,"ev_charging_density":0,"tree_canopy_pct":38,"transit_reachability_score":null,"sports_facility_density":0.1,"water_proximity_m":0,"avg_construction_year":1983,"income_history":[[2021,19455],[2022,18441],[2023,18715],[2024,21034],[2025,21174],[2026,24023]],"population_history":[[2021,214],[2022,217],[2023,207],[2024,205],[2025,195],[2026,189]],"unemployment_history":[[2021,2.8],[2022,1.4],[2023,2.4],[2024,3.4],[2025,3.1],[2026,0.5]],"income_change_pct":23.5,"population_change_pct":-11.7,"unemployment_change_pct":-82.1,"schools":null,"crime_index_history":[[2020,37],[2021,30.7],[2022,31],[2023,30.9],[2024,38],[2025,37.9]],"crime_index_change_pct":2.4,"health_index":97.3,"radon":null}},{"type":"MultiPolygon","arcs":[[[-41,49,50,-46,51,-44,-48]]],"properties":{"id":2048,"postinumeroalue":"69700","nimi":"Veteli Keskus","namn":"Vetil centrum","euref_x":341042,"euref_y":7042553,"pinta_ala":132712755,"vuosi":2026,"kunta":"924","he_vakiy":1336,"he_naiset":657,"he_miehet":679,"he_kika":49,"he_0_2":31,"he_3_6":37,"he_7_12":81,"he_13_15":64,"he_16_17":30,"he_18_19":28,"he_20_24":43,"he_25_29":51,"he_30_34":73,"he_35_39":63,"he_40_44":79,"he_45_49":77,"he_50_54":63,"he_55_59":60,"he_60_64":95,"he_65_69":116,"he_70_74":121,"he_75_79":95,"he_80_84":58,"he_85_":71,"ko_ika18y":1093,"ko_perus":288,"ko_koul":805,"ko_yliop":27,"ko_ammat":502,"ko_al_kork":220,"ko_yl_kork":56,"hr_tuy":1093,"hr_ktu":25807,"hr_mtu":23240,"hr_pi_tul":239,"hr_ke_tul":739,"hr_hy_tul":115,"hr_ovy":28207211,"te_taly":634,"te_takk":2,"te_as_valj":48,"te_yks":259,"te_nuor":43,"te_eil_np":14,"te_laps":121,"te_plap":26,"te_aklap":49,"te_klap":53,"te_teini":62,"te_yhlap":18,"te_aik":209,"te_elak":307,"te_omis_as":449,"te_vuok_as":176,"te_muu_as":9,"tr_kuty":634,"tr_ktu":43488,"tr_mtu":36482,"tr_pi_tul":176,"tr_ke_tul":408,"tr_hy_tul":50,"tr_ovy":27571128,"ra_ke":73,"ra_raky":732,"ra_muut":178,"ra_asrak":554,"ra_asunn":768,"ra_as_kpa":96,"ra_pt_as":722,"ra_kt_as":18,"ra_muu_as":28,"tp_tyopy":454,"tp_alku_a":34,"tp_jalo_bf":112,"tp_palv_gu":308,"tp_a_maat":34,"tp_b_kaiv":5,"tp_c_teol":34,"tp_d_ener":11,"tp_e_vesi":3,"tp_f_rake":59,"tp_g_kaup":37,"tp_h_kulj":18,"tp_i_majo":4,"tp_j_info":7,"tp_k_raho":4,"tp_l_kiin":5,"tp_m_erik":15,"tp_n_hall":23,"tp_o_julk":28,"tp_p_koul":66,"tp_q_terv":83,"tp_r_taid":12,"tp_s_muup":6,"tp_t_koti":0,"tp_u_kans":0,"tp_x_tunt":0,"pt_vakiy":1336,"pt_tyoll":499,"pt_tyott":38,"pt_0_14":187,"pt_opisk":85,"pt_elakel":493,"pt_muut":34,"city":"kaustinen","pno":"69700","unemployment_rate":2.8,"higher_education_rate":25.3,"pensioner_share":36.9,"ownership_rate":70.8,"rental_rate":27.8,"population_density":10,"child_ratio":5.1,"student_share":6.4,"detached_house_share":94,"youth_ratio_pct":9.1,"gender_ratio":0.97,"single_parent_hh_pct":2.2,"families_with_children_pct":19.1,"tech_sector_pct":1.5,"healthcare_workers_pct":18.3,"employment_rate":37.4,"elderly_ratio_pct":34.5,"avg_household_size":2.11,"manufacturing_jobs_pct":24.7,"public_sector_jobs_pct":6.2,"service_sector_jobs_pct":67.8,"new_construction_pct":95.3,"foreign_language_pct":2.8,"crime_index":77.7,"property_price_sqm":991,"transit_stop_density":0.3,"air_quality_index":24.2,"green_space_pct":4.5,"daycare_density":0,"school_density":0,"healthcare_density":0,"restaurant_density":0,"grocery_density":0,"cycling_density":0.3,"single_person_hh_pct":40.9,"rental_price_sqm":null,"price_to_rent_ratio":null,"walkability_index":79,"traffic_accident_rate":1.5,"property_price_change_pct":null,"school_quality_score":61,"light_pollution":0.23,"noise_pollution":40,"voter_turnout_pct":60,"party_diversity_index":0.706,"broadband_coverage_pct":36,"ev_charging_density":0,"tree_canopy_pct":54.2,"transit_reachability_score":null,"sports_facility_density":0.1,"water_proximity_m":0,"avg_construction_year":1980,"income_history":[[2021,19882],[2022,19955],[2023,20602],[2024,20702],[2025,21996],[2026,23240]],"population_history":[[2021,1388],[2022,1343],[2023,1325],[2024,1297],[2025,1312],[2026,1336]],"unemployment_history":[[2021,3.3],[2022,3.1],[2023,3.2],[2024,2.9],[2025,3.6],[2026,2.8]],"income_change_pct":16.9,"population_change_pct":-3.7,"unemployment_change_pct":-15.2,"schools":[{"name":"Vetelin lukio","score":61}],"crime_index_history":[[2020,58.7],[2021,54.7],[2022,62],[2023,65],[2024,65.7],[2025,77.7]],"crime_index_change_pct":32.4,"health_index":95,"radon":90}},{"type":"MultiPolygon","arcs":[[[-45,-52]]],"properties":{"id":2049,"postinumeroalue":"69730","nimi":"Tunkkari","namn":"Tunkkari","euref_x":337722,"euref_y":7045853,"pinta_ala":4873928,"vuosi":2026,"kunta":"924","he_vakiy":478,"he_naiset":234,"he_miehet":244,"he_kika":44,"he_0_2":11,"he_3_6":17,"he_7_12":45,"he_13_15":24,"he_16_17":13,"he_18_19":14,"he_20_24":11,"he_25_29":11,"he_30_34":26,"he_35_39":19,"he_40_44":37,"he_45_49":39,"he_50_54":34,"he_55_59":29,"he_60_64":30,"he_65_69":32,"he_70_74":33,"he_75_79":28,"he_80_84":12,"he_85_":13,"ko_ika18y":368,"ko_perus":53,"ko_koul":315,"ko_yliop":5,"ko_ammat":190,"ko_al_kork":81,"ko_yl_kork":39,"hr_tuy":368,"hr_ktu":27688,"hr_mtu":27609,"hr_pi_tul":63,"hr_ke_tul":251,"hr_hy_tul":54,"hr_ovy":10189262,"te_taly":204,"te_takk":2.3,"te_as_valj":48.7,"te_yks":61,"te_nuor":8,"te_eil_np":5,"te_laps":53,"te_plap":10,"te_aklap":16,"te_klap":32,"te_teini":30,"te_yhlap":6,"te_aik":72,"te_elak":79,"te_omis_as":178,"te_vuok_as":23,"te_muu_as":3,"tr_kuty":204,"tr_ktu":49997,"tr_mtu":48179,"tr_pi_tul":26,"tr_ke_tul":152,"tr_hy_tul":26,"tr_ovy":10199475,"ra_ke":5,"ra_raky":240,"ra_muut":37,"ra_asrak":203,"ra_asunn":238,"ra_as_kpa":109.5,"ra_pt_as":230,"ra_kt_as":0,"ra_muu_as":8,"tp_tyopy":152,"tp_alku_a":4,"tp_jalo_bf":8,"tp_palv_gu":140,"tp_a_maat":4,"tp_b_kaiv":0,"tp_c_teol":0,"tp_d_ener":0,"tp_e_vesi":0,"tp_f_rake":8,"tp_g_kaup":0,"tp_h_kulj":2,"tp_i_majo":24,"tp_j_info":0,"tp_k_raho":0,"tp_l_kiin":0,"tp_m_erik":1,"tp_n_hall":1,"tp_o_julk":0,"tp_p_koul":6,"tp_q_terv":88,"tp_r_taid":0,"tp_s_muup":18,"tp_t_koti":0,"tp_u_kans":0,"tp_x_tunt":0,"pt_vakiy":478,"pt_tyoll":216,"pt_tyott":11,"pt_0_14":89,"pt_opisk":35,"pt_elakel":121,"pt_muut":6,"city":"kaustinen","pno":"69730","unemployment_rate":2.3,"higher_education_rate":32.6,"pensioner_share":25.3,"ownership_rate":87.3,"rental_rate":11.3,"population_density":98,"child_ratio":5.9,"student_share":7.3,"detached_house_share":96.6,"youth_ratio_pct":7.5,"gender_ratio":0.96,"single_parent_hh_pct":2.5,"families_with_children_pct":26,"tech_sector_pct":0,"healthcare_workers_pct":57.9,"employment_rate":45.2,"elderly_ratio_pct":24.7,"avg_household_size":2.34,"manufacturing_jobs_pct":5.3,"public_sector_jobs_pct":0,"service_sector_jobs_pct":92.1,"new_construction_pct":100.8,"foreign_language_pct":1,"crime_index":103.4,"property_price_sqm":null,"transit_stop_density":4.1,"air_quality_index":24.2,"green_space_pct":0.2,"daycare_density":0,"school_density":0.2,"healthcare_density":0.2,"restaurant_density":0,"grocery_density":0,"cycling_density":1.6,"single_person_hh_pct":29.9,"rental_price_sqm":null,"price_to_rent_ratio":null,"walkability_index":84,"traffic_accident_rate":0.7,"property_price_change_pct":null,"school_quality_score":null,"light_pollution":1.09,"noise_pollution":40,"voter_turnout_pct":60,"party_diversity_index":0.706,"broadband_coverage_pct":36,"ev_charging_density":0,"tree_canopy_pct":23.7,"transit_reachability_score":null,"sports_facility_density":0.4,"water_proximity_m":0,"avg_construction_year":1980,"income_history":[[2021,22813],[2022,22643],[2023,23785],[2024,25163],[2025,26122],[2026,27609]],"population_history":[[2021,489],[2022,498],[2023,487],[2024,492],[2025,481],[2026,478]],"unemployment_history":[[2021,2.2],[2022,2.8],[2023,2.5],[2024,2.8],[2025,3.1],[2026,2.3]],"income_change_pct":21,"population_change_pct":-2.2,"unemployment_change_pct":4.5,"schools":null,"crime_index_history":[[2020,78.1],[2021,72.9],[2022,82.5],[2023,86.5],[2024,87.5],[2025,103.4]],"crime_index_change_pct":32.4,"health_index":95,"radon":null}},{"type":"MultiPolygon","arcs":[[[-50,-40,52,53,54]]],"properties":{"id":2051,"postinumeroalue":"69820","nimi":"Räyrinki","namn":"Räyrinki","euref_x":341234,"euref_y":7029392,"pinta_ala":143951231,"vuosi":2026,"kunta":"924","he_vakiy":527,"he_naiset":258,"he_miehet":269,"he_kika":51,"he_0_2":9,"he_3_6":12,"he_7_12":26,"he_13_15":15,"he_16_17":12,"he_18_19":7,"he_20_24":16,"he_25_29":25,"he_30_34":19,"he_35_39":25,"he_40_44":28,"he_45_49":29,"he_50_54":32,"he_55_59":36,"he_60_64":37,"he_65_69":61,"he_70_74":53,"he_75_79":40,"he_80_84":24,"he_85_":21,"ko_ika18y":453,"ko_perus":145,"ko_koul":308,"ko_yliop":13,"ko_ammat":192,"ko_al_kork":85,"ko_yl_kork":18,"hr_tuy":453,"hr_ktu":27408,"hr_mtu":23117,"hr_pi_tul":104,"hr_ke_tul":296,"hr_hy_tul":53,"hr_ovy":12415606,"te_taly":260,"te_takk":2,"te_as_valj":50.8,"te_yks":98,"te_nuor":11,"te_eil_np":8,"te_laps":40,"te_plap":9,"te_aklap":17,"te_klap":14,"te_teini":19,"te_yhlap":7,"te_aik":85,"te_elak":138,"te_omis_as":228,"te_vuok_as":26,"te_muu_as":6,"tr_kuty":260,"tr_ktu":48360,"tr_mtu":37102,"tr_pi_tul":78,"tr_ke_tul":152,"tr_hy_tul":30,"tr_ovy":12573551,"ra_ke":130,"ra_raky":426,"ra_muut":76,"ra_asrak":350,"ra_asunn":398,"ra_as_kpa":96.2,"ra_pt_as":371,"ra_kt_as":15,"ra_muu_as":12,"tp_tyopy":160,"tp_alku_a":42,"tp_jalo_bf":84,"tp_palv_gu":34,"tp_a_maat":42,"tp_b_kaiv":2,"tp_c_teol":48,"tp_d_ener":0,"tp_e_vesi":0,"tp_f_rake":34,"tp_g_kaup":9,"tp_h_kulj":17,"tp_i_majo":0,"tp_j_info":0,"tp_k_raho":2,"tp_l_kiin":0,"tp_m_erik":0,"tp_n_hall":1,"tp_o_julk":0,"tp_p_koul":0,"tp_q_terv":3,"tp_r_taid":1,"tp_s_muup":1,"tp_t_koti":0,"tp_u_kans":0,"tp_x_tunt":0,"pt_vakiy":527,"pt_tyoll":204,"pt_tyott":18,"pt_0_14":59,"pt_opisk":24,"pt_elakel":212,"pt_muut":10,"city":"kaustinen","pno":"69820","unemployment_rate":3.4,"higher_education_rate":22.7,"pensioner_share":40.2,"ownership_rate":87.7,"rental_rate":10,"population_density":4,"child_ratio":4,"student_share":4.6,"detached_house_share":93.2,"youth_ratio_pct":9.1,"gender_ratio":0.96,"single_parent_hh_pct":3.1,"families_with_children_pct":15.4,"tech_sector_pct":0,"healthcare_workers_pct":1.9,"employment_rate":38.7,"elderly_ratio_pct":37.8,"avg_household_size":2.03,"manufacturing_jobs_pct":52.5,"public_sector_jobs_pct":0,"service_sector_jobs_pct":21.2,"new_construction_pct":107,"foreign_language_pct":2.4,"crime_index":58.2,"property_price_sqm":null,"transit_stop_density":0.4,"air_quality_index":24.3,"green_space_pct":5.2,"daycare_density":0,"school_density":0,"healthcare_density":0,"restaurant_density":0,"grocery_density":0,"cycling_density":0,"single_person_hh_pct":37.7,"rental_price_sqm":null,"price_to_rent_ratio":null,"walkability_index":76,"traffic_accident_rate":3.8,"property_price_change_pct":null,"school_quality_score":null,"light_pollution":0.06,"noise_pollution":40,"voter_turnout_pct":60,"party_diversity_index":0.706,"broadband_coverage_pct":36,"ev_charging_density":0,"tree_canopy_pct":54.3,"transit_reachability_score":null,"sports_facility_density":0,"water_proximity_m":0,"avg_construction_year":1981,"income_history":[[2021,19132],[2022,18832],[2023,20455],[2024,20173],[2025,21770],[2026,23117]],"population_history":[[2021,600],[2022,584],[2023,573],[2024,554],[2025,543],[2026,527]],"unemployment_history":[[2021,2.7],[2022,2.1],[2023,1.9],[2024,2.7],[2025,2.9],[2026,3.4]],"income_change_pct":20.8,"population_change_pct":-12.2,"unemployment_change_pct":25.9,"schools":null,"crime_index_history":[[2020,44],[2021,41],[2022,46.4],[2023,48.7],[2024,49.2],[2025,58.2]],"crime_index_change_pct":32.3,"health_index":95,"radon":null}},{"type":"MultiPolygon","arcs":[[[55,56,-53,-39,-36,57,58]]],"properties":{"id":2052,"postinumeroalue":"69830","nimi":"Pulkkinen","namn":"Pulkkinen","euref_x":351224,"euref_y":7025308,"pinta_ala":100201215,"vuosi":2026,"kunta":"924","he_vakiy":214,"he_naiset":97,"he_miehet":117,"he_kika":53,"he_0_2":2,"he_3_6":5,"he_7_12":11,"he_13_15":6,"he_16_17":5,"he_18_19":2,"he_20_24":10,"he_25_29":10,"he_30_34":3,"he_35_39":12,"he_40_44":10,"he_45_49":7,"he_50_54":13,"he_55_59":20,"he_60_64":19,"he_65_69":13,"he_70_74":25,"he_75_79":18,"he_80_84":9,"he_85_":14,"ko_ika18y":185,"ko_perus":54,"ko_koul":131,"ko_yliop":2,"ko_ammat":102,"ko_al_kork":23,"ko_yl_kork":4,"hr_tuy":185,"hr_ktu":24495,"hr_mtu":21302,"hr_pi_tul":49,"hr_ke_tul":114,"hr_hy_tul":22,"hr_ovy":4531495,"te_taly":102,"te_takk":2.1,"te_as_valj":55.4,"te_yks":38,"te_nuor":1,"te_eil_np":2,"te_laps":15,"te_plap":2,"te_aklap":6,"te_klap":6,"te_teini":8,"te_yhlap":1,"te_aik":35,"te_elak":57,"te_omis_as":93,"te_vuok_as":6,"te_muu_as":3,"tr_kuty":102,"tr_ktu":44560,"tr_mtu":39465,"tr_pi_tul":29,"tr_ke_tul":58,"tr_hy_tul":15,"tr_ovy":4545117,"ra_ke":34,"ra_raky":171,"ra_muut":30,"ra_asrak":141,"ra_asunn":145,"ra_as_kpa":109.1,"ra_pt_as":143,"ra_kt_as":0,"ra_muu_as":2,"tp_tyopy":36,"tp_alku_a":24,"tp_jalo_bf":6,"tp_palv_gu":6,"tp_a_maat":24,"tp_b_kaiv":3,"tp_c_teol":2,"tp_d_ener":0,"tp_e_vesi":0,"tp_f_rake":1,"tp_g_kaup":0,"tp_h_kulj":6,"tp_i_majo":0,"tp_j_info":0,"tp_k_raho":0,"tp_l_kiin":0,"tp_m_erik":0,"tp_n_hall":0,"tp_o_julk":0,"tp_p_koul":0,"tp_q_terv":0,"tp_r_taid":0,"tp_s_muup":0,"tp_t_koti":0,"tp_u_kans":0,"tp_x_tunt":0,"pt_vakiy":214,"pt_tyoll":86,"pt_tyott":4,"pt_0_14":22,"pt_opisk":12,"pt_elakel":84,"pt_muut":6,"city":"kaustinen","pno":"69830","unemployment_rate":1.9,"higher_education_rate":14.6,"pensioner_share":39.3,"ownership_rate":91.2,"rental_rate":5.9,"population_density":2,"child_ratio":3.3,"student_share":5.6,"detached_house_share":98.6,"youth_ratio_pct":10.3,"gender_ratio":0.83,"single_parent_hh_pct":2,"families_with_children_pct":14.7,"tech_sector_pct":0,"healthcare_workers_pct":0,"employment_rate":40.2,"elderly_ratio_pct":36.9,"avg_household_size":2.1,"manufacturing_jobs_pct":16.7,"public_sector_jobs_pct":0,"service_sector_jobs_pct":16.7,"new_construction_pct":117.9,"foreign_language_pct":3.4,"crime_index":40.1,"property_price_sqm":null,"transit_stop_density":0.2,"air_quality_index":24.2,"green_space_pct":0,"daycare_density":0,"school_density":0,"healthcare_density":0,"restaurant_density":0,"grocery_density":0,"cycling_density":0,"single_person_hh_pct":37.3,"rental_price_sqm":null,"price_to_rent_ratio":null,"walkability_index":76,"traffic_accident_rate":1.6,"property_price_change_pct":null,"school_quality_score":null,"light_pollution":0.01,"noise_pollution":40,"voter_turnout_pct":60,"party_diversity_index":0.706,"broadband_coverage_pct":36,"ev_charging_density":0,"tree_canopy_pct":33.8,"transit_reachability_score":null,"sports_facility_density":0,"water_proximity_m":0,"avg_construction_year":1981,"income_history":[[2021,18207],[2022,18418],[2023,18795],[2024,18489],[2025,20750],[2026,21302]],"population_history":[[2021,242],[2022,234],[2023,226],[2024,217],[2025,220],[2026,214]],"unemployment_history":[[2021,0.8],[2022,0.9],[2023,1.8],[2024,4.1],[2025,2.7],[2026,1.9]],"income_change_pct":17,"population_change_pct":-11.6,"unemployment_change_pct":137.5,"schools":null,"crime_index_history":[[2020,30.3],[2021,28.3],[2022,32],[2023,33.5],[2024,33.9],[2025,40.1]],"crime_index_change_pct":32.3,"health_index":95,"radon":null}},{"type":"MultiPolygon","arcs":[[[-54,-57,59]]],"properties":{"id":2053,"postinumeroalue":"69850","nimi":"Patana","namn":"Patana","euref_x":346072,"euref_y":7023772,"pinta_ala":60230131,"vuosi":2026,"kunta":"924","he_vakiy":175,"he_naiset":80,"he_miehet":95,"he_kika":50,"he_0_2":2,"he_3_6":4,"he_7_12":5,"he_13_15":5,"he_16_17":5,"he_18_19":8,"he_20_24":10,"he_25_29":3,"he_30_34":10,"he_35_39":5,"he_40_44":11,"he_45_49":9,"he_50_54":12,"he_55_59":13,"he_60_64":10,"he_65_69":19,"he_70_74":18,"he_75_79":12,"he_80_84":9,"he_85_":5,"ko_ika18y":154,"ko_perus":42,"ko_koul":112,"ko_yliop":6,"ko_ammat":81,"ko_al_kork":22,"ko_yl_kork":3,"hr_tuy":154,"hr_ktu":25975,"hr_mtu":24979,"hr_pi_tul":39,"hr_ke_tul":95,"hr_hy_tul":20,"hr_ovy":4000089,"te_taly":85,"te_takk":2.1,"te_as_valj":51.8,"te_yks":28,"te_nuor":6,"te_eil_np":2,"te_laps":11,"te_plap":2,"te_aklap":4,"te_klap":4,"te_teini":7,"te_yhlap":0,"te_aik":33,"te_elak":41,"te_omis_as":74,"te_vuok_as":11,"te_muu_as":0,"tr_kuty":85,"tr_ktu":47275,"tr_mtu":42947,"tr_pi_tul":23,"tr_ke_tul":49,"tr_hy_tul":13,"tr_ovy":4018364,"ra_ke":61,"ra_raky":136,"ra_muut":30,"ra_asrak":106,"ra_asunn":108,"ra_as_kpa":101.1,"ra_pt_as":103,"ra_kt_as":1,"ra_muu_as":4,"tp_tyopy":38,"tp_alku_a":23,"tp_jalo_bf":8,"tp_palv_gu":7,"tp_a_maat":23,"tp_b_kaiv":1,"tp_c_teol":4,"tp_d_ener":0,"tp_e_vesi":0,"tp_f_rake":3,"tp_g_kaup":0,"tp_h_kulj":0,"tp_i_majo":0,"tp_j_info":0,"tp_k_raho":0,"tp_l_kiin":0,"tp_m_erik":0,"tp_n_hall":0,"tp_o_julk":0,"tp_p_koul":2,"tp_q_terv":5,"tp_r_taid":0,"tp_s_muup":0,"tp_t_koti":0,"tp_u_kans":0,"tp_x_tunt":0,"pt_vakiy":175,"pt_tyoll":79,"pt_tyott":5,"pt_0_14":12,"pt_opisk":14,"pt_elakel":62,"pt_muut":3,"city":"kaustinen","pno":"69850","unemployment_rate":2.9,"higher_education_rate":16.2,"pensioner_share":35.4,"ownership_rate":87.1,"rental_rate":12.9,"population_density":3,"child_ratio":3.4,"student_share":8,"detached_house_share":95.4,"youth_ratio_pct":12,"gender_ratio":0.84,"single_parent_hh_pct":2.4,"families_with_children_pct":12.9,"tech_sector_pct":0,"healthcare_workers_pct":13.2,"employment_rate":45.1,"elderly_ratio_pct":36,"avg_household_size":2.06,"manufacturing_jobs_pct":21.1,"public_sector_jobs_pct":0,"service_sector_jobs_pct":18.4,"new_construction_pct":125.9,"foreign_language_pct":2,"crime_index":53.1,"property_price_sqm":null,"transit_stop_density":0.2,"air_quality_index":24.3,"green_space_pct":0,"daycare_density":0,"school_density":0,"healthcare_density":0,"restaurant_density":0,"grocery_density":0,"cycling_density":0,"single_person_hh_pct":32.9,"rental_price_sqm":null,"price_to_rent_ratio":null,"walkability_index":76,"traffic_accident_rate":5.7,"property_price_change_pct":null,"school_quality_score":null,"light_pollution":0.04,"noise_pollution":40,"voter_turnout_pct":60,"party_diversity_index":0.706,"broadband_coverage_pct":36,"ev_charging_density":0,"tree_canopy_pct":14.4,"transit_reachability_score":null,"sports_facility_density":0,"water_proximity_m":0,"avg_construction_year":1981,"income_history":[[2021,20569],[2022,20371],[2023,22188],[2024,22986],[2025,24355],[2026,24979]],"population_history":[[2021,192],[2022,199],[2023,193],[2024,182],[2025,177],[2026,175]],"unemployment_history":[[2021,5.2],[2022,4],[2023,2.6],[2024,3.3],[2025,5.1],[2026,2.9]],"income_change_pct":21.4,"population_change_pct":-8.9,"unemployment_change_pct":-44.2,"schools":null,"crime_index_history":[[2020,40.1],[2021,37.4],[2022,42.4],[2023,44.4],[2024,44.9],[2025,53.1]],"crime_index_change_pct":32.4,"health_index":95,"radon":null}},{"type":"MultiPolygon","arcs":[[[-58,-35,60]]],"properties":{"id":2054,"postinumeroalue":"69910","nimi":"Kivikangas","namn":"Kivikangas","euref_x":358554,"euref_y":7024034,"pinta_ala":40869875,"vuosi":2026,"kunta":"584","he_vakiy":45,"he_naiset":21,"he_miehet":24,"he_kika":62,"he_0_2":0,"he_3_6":0,"he_7_12":1,"he_13_15":1,"he_16_17":1,"he_18_19":0,"he_20_24":1,"he_25_29":0,"he_30_34":0,"he_35_39":3,"he_40_44":1,"he_45_49":3,"he_50_54":4,"he_55_59":4,"he_60_64":2,"he_65_69":5,"he_70_74":5,"he_75_79":5,"he_80_84":3,"he_85_":6,"ko_ika18y":42,"ko_perus":19,"ko_koul":23,"ko_yliop":0,"ko_ammat":19,"ko_al_kork":4,"ko_yl_kork":0,"hr_tuy":42,"hr_ktu":18246,"hr_mtu":16869,"hr_pi_tul":20,"hr_ke_tul":19,"hr_hy_tul":3,"hr_ovy":766350,"te_taly":22,"te_takk":null,"te_as_valj":-1,"te_yks":-1,"te_nuor":-1,"te_eil_np":-1,"te_laps":-1,"te_plap":-1,"te_aklap":-1,"te_klap":-1,"te_teini":-1,"te_yhlap":-1,"te_aik":-1,"te_elak":-1,"te_omis_as":null,"te_vuok_as":null,"te_muu_as":-1,"tr_kuty":22,"tr_ktu":-1,"tr_mtu":-1,"tr_pi_tul":-1,"tr_ke_tul":-1,"tr_hy_tul":-1,"tr_ovy":-1,"ra_ke":15,"ra_raky":42,"ra_muut":7,"ra_asrak":35,"ra_asunn":32,"ra_as_kpa":88,"ra_pt_as":32,"ra_kt_as":0,"ra_muu_as":0,"tp_tyopy":6,"tp_alku_a":-1,"tp_jalo_bf":-1,"tp_palv_gu":-1,"tp_a_maat":-1,"tp_b_kaiv":-1,"tp_c_teol":-1,"tp_d_ener":-1,"tp_e_vesi":-1,"tp_f_rake":-1,"tp_g_kaup":-1,"tp_h_kulj":-1,"tp_i_majo":-1,"tp_j_info":-1,"tp_k_raho":-1,"tp_l_kiin":-1,"tp_m_erik":-1,"tp_n_hall":-1,"tp_o_julk":-1,"tp_p_koul":-1,"tp_q_terv":-1,"tp_r_taid":-1,"tp_s_muup":-1,"tp_t_koti":-1,"tp_u_kans":-1,"tp_x_tunt":-1,"pt_vakiy":45,"pt_tyoll":12,"pt_tyott":3,"pt_0_14":2,"pt_opisk":1,"pt_elakel":25,"pt_muut":2,"city":"kaustinen","pno":"69910","unemployment_rate":6.7,"higher_education_rate":9.5,"pensioner_share":55.6,"ownership_rate":null,"rental_rate":null,"population_density":1,"child_ratio":0,"student_share":2.2,"detached_house_share":100,"youth_ratio_pct":2.2,"gender_ratio":0.88,"single_parent_hh_pct":null,"families_with_children_pct":null,"tech_sector_pct":null,"healthcare_workers_pct":null,"employment_rate":26.7,"elderly_ratio_pct":53.3,"avg_household_size":2.05,"manufacturing_jobs_pct":null,"public_sector_jobs_pct":null,"service_sector_jobs_pct":null,"new_construction_pct":131.2,"foreign_language_pct":0,"crime_index":69.4,"property_price_sqm":null,"transit_stop_density":0.3,"air_quality_index":24,"green_space_pct":16.8,"daycare_density":0,"school_density":0,"healthcare_density":0,"restaurant_density":0,"grocery_density":0,"cycling_density":0,"single_person_hh_pct":null,"rental_price_sqm":null,"price_to_rent_ratio":null,"walkability_index":76,"traffic_accident_rate":null,"property_price_change_pct":null,"school_quality_score":null,"light_pollution":0,"noise_pollution":40,"voter_turnout_pct":62.8,"party_diversity_index":0.664,"broadband_coverage_pct":32,"ev_charging_density":0,"tree_canopy_pct":46.4,"transit_reachability_score":null,"sports_facility_density":0,"water_proximity_m":0,"avg_construction_year":1985,"income_history":[[2021,14409],[2022,14220],[2023,14139],[2024,14204],[2025,15070],[2026,16869]],"population_history":[[2021,49],[2022,48],[2023,45],[2024,49],[2025,47],[2026,45]],"unemployment_history":[[2021,6.1],[2022,6.2],[2023,4.4],[2024,6.1],[2025,4.3],[2026,6.7]],"income_change_pct":17.1,"population_change_pct":-8.2,"unemployment_change_pct":9.8,"schools":null,"crime_index_history":[[2020,70.9],[2021,54],[2022,66.2],[2023,73.5],[2024,87.3],[2025,69.4]],"crime_index_change_pct":-2.1,"health_index":109.6,"radon":null}},{"type":"MultiPolygon","arcs":[[[61,-59,-61,-34,62]]],"properties":{"id":2055,"postinumeroalue":"69920","nimi":"Oksakoski-Kivikangas","namn":"Oksakoski-Kivikangas","euref_x":360195,"euref_y":7017265,"pinta_ala":143421784,"vuosi":2026,"kunta":"584","he_vakiy":442,"he_naiset":211,"he_miehet":231,"he_kika":45,"he_0_2":6,"he_3_6":10,"he_7_12":35,"he_13_15":24,"he_16_17":17,"he_18_19":16,"he_20_24":27,"he_25_29":14,"he_30_34":10,"he_35_39":28,"he_40_44":32,"he_45_49":27,"he_50_54":13,"he_55_59":24,"he_60_64":27,"he_65_69":31,"he_70_74":40,"he_75_79":32,"he_80_84":17,"he_85_":12,"ko_ika18y":350,"ko_perus":114,"ko_koul":236,"ko_yliop":13,"ko_ammat":164,"ko_al_kork":44,"ko_yl_kork":15,"hr_tuy":350,"hr_ktu":24993,"hr_mtu":22582,"hr_pi_tul":99,"hr_ke_tul":211,"hr_hy_tul":40,"hr_ovy":8747528,"te_taly":190,"te_takk":2.3,"te_as_valj":48.1,"te_yks":59,"te_nuor":6,"te_eil_np":6,"te_laps":40,"te_plap":5,"te_aklap":12,"te_klap":21,"te_teini":27,"te_yhlap":6,"te_aik":64,"te_elak":90,"te_omis_as":168,"te_vuok_as":18,"te_muu_as":4,"tr_kuty":190,"tr_ktu":46690,"tr_mtu":41794,"tr_pi_tul":47,"tr_ke_tul":125,"tr_hy_tul":18,"tr_ovy":8871099,"ra_ke":27,"ra_raky":255,"ra_muut":33,"ra_asrak":222,"ra_asunn":245,"ra_as_kpa":107.3,"ra_pt_as":239,"ra_kt_as":0,"ra_muu_as":6,"tp_tyopy":74,"tp_alku_a":35,"tp_jalo_bf":31,"tp_palv_gu":8,"tp_a_maat":35,"tp_b_kaiv":4,"tp_c_teol":11,"tp_d_ener":0,"tp_e_vesi":0,"tp_f_rake":16,"tp_g_kaup":2,"tp_h_kulj":1,"tp_i_majo":0,"tp_j_info":0,"tp_k_raho":0,"tp_l_kiin":0,"tp_m_erik":0,"tp_n_hall":1,"tp_o_julk":0,"tp_p_koul":0,"tp_q_terv":0,"tp_r_taid":2,"tp_s_muup":2,"tp_t_koti":0,"tp_u_kans":0,"tp_x_tunt":0,"pt_vakiy":442,"pt_tyoll":168,"pt_tyott":17,"pt_0_14":65,"pt_opisk":41,"pt_elakel":144,"pt_muut":7,"city":"kaustinen","pno":"69920","unemployment_rate":3.8,"higher_education_rate":16.9,"pensioner_share":32.6,"ownership_rate":88.4,"rental_rate":9.5,"population_density":3,"child_ratio":3.6,"student_share":9.3,"detached_house_share":97.6,"youth_ratio_pct":12.9,"gender_ratio":0.91,"single_parent_hh_pct":3.2,"families_with_children_pct":21.1,"tech_sector_pct":0,"healthcare_workers_pct":0,"employment_rate":38,"elderly_ratio_pct":29.9,"avg_household_size":2.33,"manufacturing_jobs_pct":41.9,"public_sector_jobs_pct":0,"service_sector_jobs_pct":10.8,"new_construction_pct":104.1,"foreign_language_pct":0.8,"crime_index":63.2,"property_price_sqm":null,"transit_stop_density":0.3,"air_quality_index":24.2,"green_space_pct":5.9,"daycare_density":0,"school_density":0,"healthcare_density":0,"restaurant_density":0,"grocery_density":0,"cycling_density":0,"single_person_hh_pct":31.1,"rental_price_sqm":null,"price_to_rent_ratio":null,"walkability_index":76,"traffic_accident_rate":1.5,"property_price_change_pct":null,"school_quality_score":null,"light_pollution":0.04,"noise_pollution":40,"voter_turnout_pct":62.8,"party_diversity_index":0.664,"broadband_coverage_pct":32,"ev_charging_density":0,"tree_canopy_pct":33.1,"transit_reachability_score":null,"sports_facility_density":0,"water_proximity_m":0,"avg_construction_year":1984,"income_history":[[2021,19278],[2022,19118],[2023,20862],[2024,21348],[2025,22182],[2026,22582]],"population_history":[[2021,484],[2022,485],[2023,493],[2024,459],[2025,454],[2026,442]],"unemployment_history":[[2021,3.7],[2022,1.4],[2023,2.4],[2024,2.4],[2025,2.6],[2026,3.8]],"income_change_pct":17.1,"population_change_pct":-8.7,"unemployment_change_pct":2.7,"schools":null,"crime_index_history":[[2020,64.5],[2021,49.1],[2022,60.3],[2023,66.9],[2024,79.5],[2025,63.2]],"crime_index_change_pct":-2,"health_index":109.6,"radon":null}},{"type":"MultiPolygon","arcs":[[[63,-63,-38,-31,64,65]]],"properties":{"id":2056,"postinumeroalue":"69950","nimi":"Perho Keskus-Salamajärvi","namn":"Perho centrum-Salamajärvi","euref_x":371262,"euref_y":7018910,"pinta_ala":290709506,"vuosi":2026,"kunta":"584","he_vakiy":1202,"he_naiset":609,"he_miehet":593,"he_kika":42,"he_0_2":37,"he_3_6":63,"he_7_12":126,"he_13_15":72,"he_16_17":37,"he_18_19":35,"he_20_24":63,"he_25_29":53,"he_30_34":55,"he_35_39":50,"he_40_44":75,"he_45_49":52,"he_50_54":41,"he_55_59":54,"he_60_64":69,"he_65_69":82,"he_70_74":85,"he_75_79":66,"he_80_84":43,"he_85_":44,"ko_ika18y":867,"ko_perus":283,"ko_koul":584,"ko_yliop":28,"ko_ammat":411,"ko_al_kork":113,"ko_yl_kork":32,"hr_tuy":867,"hr_ktu":25731,"hr_mtu":23163,"hr_pi_tul":205,"hr_ke_tul":551,"hr_hy_tul":111,"hr_ovy":22308795,"te_taly":508,"te_takk":2.3,"te_as_valj":41.5,"te_yks":224,"te_nuor":45,"te_eil_np":14,"te_laps":113,"te_plap":28,"te_aklap":55,"te_klap":67,"te_teini":66,"te_yhlap":17,"te_aik":172,"te_elak":224,"te_omis_as":348,"te_vuok_as":137,"te_muu_as":23,"tr_kuty":508,"tr_ktu":44026,"tr_mtu":37125,"tr_pi_tul":171,"tr_ke_tul":289,"tr_hy_tul":48,"tr_ovy":22365172,"ra_ke":97,"ra_raky":554,"ra_muut":106,"ra_asrak":448,"ra_asunn":641,"ra_as_kpa":90.1,"ra_pt_as":622,"ra_kt_as":0,"ra_muu_as":19,"tp_tyopy":438,"tp_alku_a":32,"tp_jalo_bf":91,"tp_palv_gu":315,"tp_a_maat":32,"tp_b_kaiv":2,"tp_c_teol":64,"tp_d_ener":0,"tp_e_vesi":4,"tp_f_rake":21,"tp_g_kaup":36,"tp_h_kulj":7,"tp_i_majo":10,"tp_j_info":0,"tp_k_raho":8,"tp_l_kiin":1,"tp_m_erik":4,"tp_n_hall":16,"tp_o_julk":20,"tp_p_koul":62,"tp_q_terv":130,"tp_r_taid":2,"tp_s_muup":19,"tp_t_koti":0,"tp_u_kans":0,"tp_x_tunt":0,"pt_vakiy":1202,"pt_tyoll":403,"pt_tyott":58,"pt_0_14":275,"pt_opisk":84,"pt_elakel":348,"pt_muut":34,"city":"kaustinen","pno":"69950","unemployment_rate":4.8,"higher_education_rate":16.7,"pensioner_share":29,"ownership_rate":68.5,"rental_rate":27,"population_density":4,"child_ratio":8.3,"student_share":7,"detached_house_share":97,"youth_ratio_pct":12.6,"gender_ratio":1.03,"single_parent_hh_pct":2.8,"families_with_children_pct":22.2,"tech_sector_pct":0,"healthcare_workers_pct":29.7,"employment_rate":33.5,"elderly_ratio_pct":26.6,"avg_household_size":2.37,"manufacturing_jobs_pct":20.8,"public_sector_jobs_pct":4.6,"service_sector_jobs_pct":71.9,"new_construction_pct":86.4,"foreign_language_pct":1.2,"crime_index":81.3,"property_price_sqm":1074,"transit_stop_density":0.1,"air_quality_index":24.1,"green_space_pct":26.2,"daycare_density":0,"school_density":0,"healthcare_density":0,"restaurant_density":0,"grocery_density":0,"cycling_density":0.2,"single_person_hh_pct":44.1,"rental_price_sqm":null,"price_to_rent_ratio":null,"walkability_index":78,"traffic_accident_rate":1.1,"property_price_change_pct":null,"school_quality_score":58.9,"light_pollution":0.1,"noise_pollution":40,"voter_turnout_pct":62.8,"party_diversity_index":0.664,"broadband_coverage_pct":32,"ev_charging_density":0,"tree_canopy_pct":49.8,"transit_reachability_score":null,"sports_facility_density":0.1,"water_proximity_m":0,"avg_construction_year":1983,"income_history":[[2021,20227],[2022,20150],[2023,21005],[2024,21596],[2025,22360],[2026,23163]],"population_history":[[2021,1239],[2022,1235],[2023,1222],[2024,1231],[2025,1187],[2026,1202]],"unemployment_history":[[2021,4],[2022,4.1],[2023,4.1],[2024,5],[2025,4.8],[2026,4.8]],"income_change_pct":14.5,"population_change_pct":-3,"unemployment_change_pct":20,"schools":[{"name":"Perhon lukio","score":58.9}],"crime_index_history":[[2020,83],[2021,63.2],[2022,77.5],[2023,86.1],[2024,102.3],[2025,81.3]],"crime_index_change_pct":-2,"health_index":109.6,"radon":null}},{"type":"MultiPolygon","arcs":[[[66,-65,-33,-23,67]]],"properties":{"id":2057,"postinumeroalue":"69970","nimi":"Salamajärvi","namn":"Salamajärvi","euref_x":383320,"euref_y":7025794,"pinta_ala":148765071,"vuosi":2026,"kunta":"584","he_vakiy":24,"he_naiset":-1,"he_miehet":-1,"he_kika":null,"he_0_2":null,"he_3_6":null,"he_7_12":-1,"he_13_15":-1,"he_16_17":-1,"he_18_19":-1,"he_20_24":-1,"he_25_29":-1,"he_30_34":-1,"he_35_39":-1,"he_40_44":-1,"he_45_49":-1,"he_50_54":-1,"he_55_59":-1,"he_60_64":-1,"he_65_69":-1,"he_70_74":-1,"he_75_79":-1,"he_80_84":-1,"he_85_":-1,"ko_ika18y":20,"ko_perus":null,"ko_koul":-1,"ko_yliop":-1,"ko_ammat":null,"ko_al_kork":null,"ko_yl_kork":null,"hr_tuy":20,"hr_ktu":null,"hr_mtu":null,"hr_pi_tul":-1,"hr_ke_tul":-1,"hr_hy_tul":-1,"hr_ovy":-1,"te_taly":12,"te_takk":null,"te_as_valj":-1,"te_yks":-1,"te_nuor":-1,"te_eil_np":-1,"te_laps":-1,"te_plap":-1,"te_aklap":-1,"te_klap":-1,"te_teini":-1,"te_yhlap":-1,"te_aik":-1,"te_elak":-1,"te_omis_as":null,"te_vuok_as":null,"te_muu_as":-1,"tr_kuty":12,"tr_ktu":-1,"tr_mtu":-1,"tr_pi_tul":-1,"tr_ke_tul":-1,"tr_hy_tul":-1,"tr_ovy":-1,"ra_ke":45,"ra_raky":23,"ra_muut":2,"ra_asrak":21,"ra_asunn":19,"ra_as_kpa":98.5,"ra_pt_as":19,"ra_kt_as":0,"ra_muu_as":0,"tp_tyopy":1,"tp_alku_a":-1,"tp_jalo_bf":-1,"tp_palv_gu":-1,"tp_a_maat":-1,"tp_b_kaiv":-1,"tp_c_teol":-1,"tp_d_ener":-1,"tp_e_vesi":-1,"tp_f_rake":-1,"tp_g_kaup":-1,"tp_h_kulj":-1,"tp_i_majo":-1,"tp_j_info":-1,"tp_k_raho":-1,"tp_l_kiin":-1,"tp_m_erik":-1,"tp_n_hall":-1,"tp_o_julk":-1,"tp_p_koul":-1,"tp_q_terv":-1,"tp_r_taid":-1,"tp_s_muup":-1,"tp_t_koti":-1,"tp_u_kans":-1,"tp_x_tunt":-1,"pt_vakiy":24,"pt_tyoll":null,"pt_tyott":null,"pt_0_14":-1,"pt_opisk":null,"pt_elakel":null,"pt_muut":-1,"city":"kaustinen","pno":"69970","unemployment_rate":null,"higher_education_rate":null,"pensioner_share":null,"ownership_rate":null,"rental_rate":null,"population_density":0,"child_ratio":null,"student_share":null,"detached_house_share":100,"youth_ratio_pct":null,"gender_ratio":null,"single_parent_hh_pct":null,"families_with_children_pct":null,"tech_sector_pct":null,"healthcare_workers_pct":null,"employment_rate":null,"elderly_ratio_pct":null,"avg_household_size":2,"manufacturing_jobs_pct":null,"public_sector_jobs_pct":null,"service_sector_jobs_pct":null,"new_construction_pct":121.1,"foreign_language_pct":0,"crime_index":175.2,"property_price_sqm":null,"transit_stop_density":0,"air_quality_index":23.5,"green_space_pct":20.1,"daycare_density":0,"school_density":0,"healthcare_density":0,"restaurant_density":0,"grocery_density":0,"cycling_density":0,"single_person_hh_pct":null,"rental_price_sqm":null,"price_to_rent_ratio":null,"walkability_index":76,"traffic_accident_rate":null,"property_price_change_pct":null,"school_quality_score":null,"light_pollution":0.02,"noise_pollution":40,"voter_turnout_pct":62.8,"party_diversity_index":0.664,"broadband_coverage_pct":32,"ev_charging_density":0,"tree_canopy_pct":25,"transit_reachability_score":null,"sports_facility_density":0,"water_proximity_m":0,"avg_construction_year":1984,"income_history":null,"population_history":[[2021,29],[2022,27],[2023,26],[2024,25],[2025,25],[2026,24]],"unemployment_history":null,"income_change_pct":null,"population_change_pct":-17.2,"unemployment_change_pct":null,"schools":null,"crime_index_history":[[2020,178.9],[2021,136.2],[2022,167.1],[2023,185.6],[2024,220.4],[2025,175.2]],"crime_index_change_pct":-2.1,"health_index":109.6,"radon":null}},{"type":"MultiPolygon","arcs":[[[-66,-67,68]]],"properties":{"id":2058,"postinumeroalue":"69980","nimi":"Möttönen","namn":"Möttönen","euref_x":379627,"euref_y":7010573,"pinta_ala":193203238,"vuosi":2026,"kunta":"584","he_vakiy":881,"he_naiset":421,"he_miehet":460,"he_kika":37,"he_0_2":43,"he_3_6":58,"he_7_12":116,"he_13_15":62,"he_16_17":35,"he_18_19":24,"he_20_24":36,"he_25_29":33,"he_30_34":36,"he_35_39":49,"he_40_44":47,"he_45_49":41,"he_50_54":33,"he_55_59":32,"he_60_64":45,"he_65_69":51,"he_70_74":38,"he_75_79":53,"he_80_84":27,"he_85_":22,"ko_ika18y":567,"ko_perus":148,"ko_koul":419,"ko_yliop":17,"ko_ammat":324,"ko_al_kork":60,"ko_yl_kork":18,"hr_tuy":567,"hr_ktu":27090,"hr_mtu":25086,"hr_pi_tul":103,"hr_ke_tul":392,"hr_hy_tul":72,"hr_ovy":15359848,"te_taly":291,"te_takk":3,"te_as_valj":38.4,"te_yks":75,"te_nuor":9,"te_eil_np":6,"te_laps":93,"te_plap":33,"te_aklap":51,"te_klap":57,"te_teini":54,"te_yhlap":6,"te_aik":71,"te_elak":131,"te_omis_as":266,"te_vuok_as":19,"te_muu_as":6,"tr_kuty":291,"tr_ktu":53485,"tr_mtu":46875,"tr_pi_tul":70,"tr_ke_tul":191,"tr_hy_tul":30,"tr_ovy":15564189,"ra_ke":89,"ra_raky":405,"ra_muut":68,"ra_asrak":337,"ra_asunn":364,"ra_as_kpa":110,"ra_pt_as":356,"ra_kt_as":0,"ra_muu_as":8,"tp_tyopy":209,"tp_alku_a":32,"tp_jalo_bf":84,"tp_palv_gu":93,"tp_a_maat":32,"tp_b_kaiv":0,"tp_c_teol":63,"tp_d_ener":0,"tp_e_vesi":0,"tp_f_rake":21,"tp_g_kaup":17,"tp_h_kulj":53,"tp_i_majo":0,"tp_j_info":0,"tp_k_raho":0,"tp_l_kiin":1,"tp_m_erik":3,"tp_n_hall":0,"tp_o_julk":0,"tp_p_koul":15,"tp_q_terv":0,"tp_r_taid":0,"tp_s_muup":4,"tp_t_koti":0,"tp_u_kans":0,"tp_x_tunt":0,"pt_vakiy":881,"pt_tyoll":300,"pt_tyott":35,"pt_0_14":257,"pt_opisk":70,"pt_elakel":200,"pt_muut":19,"city":"kaustinen","pno":"69980","unemployment_rate":4,"higher_education_rate":13.8,"pensioner_share":22.7,"ownership_rate":91.4,"rental_rate":6.5,"population_density":5,"child_ratio":11.5,"student_share":7.9,"detached_house_share":97.8,"youth_ratio_pct":10.6,"gender_ratio":0.92,"single_parent_hh_pct":2.1,"families_with_children_pct":32,"tech_sector_pct":0,"healthcare_workers_pct":0,"employment_rate":34.1,"elderly_ratio_pct":21.7,"avg_household_size":3.03,"manufacturing_jobs_pct":40.2,"public_sector_jobs_pct":0,"service_sector_jobs_pct":44.5,"new_construction_pct":111.3,"foreign_language_pct":0.3,"crime_index":71.5,"property_price_sqm":null,"transit_stop_density":0.2,"air_quality_index":23.5,"green_space_pct":13.8,"daycare_density":0,"school_density":0,"healthcare_density":0,"restaurant_density":0,"grocery_density":0,"cycling_density":0.1,"single_person_hh_pct":25.8,"rental_price_sqm":null,"price_to_rent_ratio":null,"walkability_index":78,"traffic_accident_rate":2.6,"property_price_change_pct":null,"school_quality_score":null,"light_pollution":0.16,"noise_pollution":40,"voter_turnout_pct":62.8,"party_diversity_index":0.664,"broadband_coverage_pct":32,"ev_charging_density":0,"tree_canopy_pct":46.9,"transit_reachability_score":null,"sports_facility_density":0.1,"water_proximity_m":0,"avg_construction_year":1984,"income_history":[[2021,20511],[2022,21243],[2023,22546],[2024,24077],[2025,24714],[2026,25086]],"population_history":[[2021,949],[2022,916],[2023,895],[2024,889],[2025,866],[2026,881]],"unemployment_history":[[2021,1.7],[2022,2.9],[2023,2.1],[2024,2.2],[2025,3.2],[2026,4]],"income_change_pct":22.3,"population_change_pct":-7.2,"unemployment_change_pct":135.3,"schools":null,"crime_index_history":[[2020,73],[2021,55.6],[2022,68.2],[2023,75.7],[2024,89.9],[2025,71.5]],"crime_index_change_pct":-2.1,"health_index":109.6,"radon":92}}]}},"arcs":[[[50704,72566],[239,297],[877,1042],[1899,3104],[181,508],[1480,257],[26,-2],[192,-84],[646,210],[7,360],[18,216]],[[56269,78474],[1032,-448],[282,119],[35,4],[25,16],[470,-188],[53,-39],[8,-28],[47,-562],[23,-38],[-231,-206],[458,-824],[243,-114],[1149,390],[732,756],[260,562],[1736,480],[784,-84],[5943,-827],[571,-80],[345,-48]],[[70234,77315],[-22,-185],[-43,-375],[-166,-1452]],[[70003,75303],[-1053,-668],[-4041,-820],[-2470,36],[-247,-272],[-708,-1128],[-208,-645],[-11,-164],[-94,-408],[-1047,-60],[-17,-64],[111,-206],[54,-127],[-478,-223],[-3,-227],[-55,-36],[-368,-375],[-370,-213],[-2538,-543],[-237,138],[-429,496],[-622,750],[-1843,708],[-76,45],[-2160,1120],[-389,149]],[[56269,78474],[-21,58],[-23,272],[-1,51],[-24,34],[-57,177],[-383,590],[19,97],[-53,376],[-39,138],[-91,253],[-771,112],[-98,398],[-3,281],[25,124],[76,167],[-11,286],[75,307],[37,51],[-489,795],[-173,58],[-39,-8],[-30,3],[-328,53],[-91,2],[-149,-128],[-113,-183],[-146,-18],[-26,-191],[90,33],[53,-35],[50,6],[44,-27],[-67,-178],[-26,-79],[56,-136],[22,-240],[4,-132],[-29,-120],[-278,-10],[-373,87],[-1239,-329],[-1850,-592],[-2170,304],[-2946,-610]],[[44683,80571],[1603,2512],[416,661],[773,3085],[50,55],[214,387],[288,927],[-11,153],[-396,185],[8,22],[2,199],[-4,7],[-308,4],[-53,95],[-49,28],[-5,56],[218,181],[-45,123],[-25,662],[622,-82],[92,990],[-434,200],[-24,4],[158,527],[215,47],[187,110],[293,302],[747,519],[232,84],[703,308],[336,94],[313,174],[2975,1359],[129,1528],[-92,1137]],[[53811,97214],[201,129],[8705,-1490],[3490,-5513],[1086,-4582],[3946,-6005],[-905,-2195],[-100,-243]],[[44574,80508],[-2648,511],[-1069,1798],[-534,475],[-65,72],[-3802,8353],[3066,2299],[3717,2825],[693,523],[-157,810],[15,48],[268,511],[781,474],[1268,769],[918,23],[319,-135],[39,-17],[39,-16],[308,-48],[31,-3],[266,-24],[4022,-1791],[672,-178],[120,-77],[970,-496]],[[44683,80571],[-109,-63]],[[50704,72566],[-200,1]],[[50504,72567],[-1202,970],[-132,149],[-4596,6822]],[[56868,56339],[-735,287],[-642,19],[-1761,-200],[-1674,815]],[[52056,57260],[-509,5122],[-3194,5303],[-48,52],[539,1270],[758,1627],[902,1933]],[[70003,75303],[3552,-4612],[236,-382],[1584,-2568],[194,-1248]],[[75569,66493],[-598,-1226],[-98,-337],[-980,-799]],[[73893,64131],[-5144,354],[-2332,-501],[457,-812],[-91,-100],[-958,-290],[-3,-1],[-150,114],[-357,-107],[-160,-205],[-52,-40],[-139,-105],[15,-62],[361,-457],[138,-66],[594,-20],[126,-38],[240,3],[161,-110],[102,-59],[71,-33],[-713,-669],[-147,-309],[-37,-17],[-215,133],[-44,-21],[-250,-141],[364,-471],[117,54],[271,-74],[195,-381],[-75,-330],[-299,-365],[-626,-23],[-80,465],[24,250],[-494,820],[-347,258],[-1062,-252],[-344,6],[-356,6],[-823,-391],[-694,-532],[-4269,-3273]],[[65389,52718],[-45,11],[-474,183],[-210,33],[-320,51],[-411,124],[-1405,602],[-1505,645],[-3486,1490]],[[57533,55857],[-665,482]],[[73893,64131],[-2349,-2702],[-403,-1362],[-224,-806],[-147,-882],[-1528,-3234],[-3268,-2058],[-585,-369]],[[73407,43701],[-1543,1496],[-1554,762],[-835,615],[-479,714],[-596,891],[-3011,4539]],[[75569,66493],[770,-70],[6768,-1330],[1333,-1484],[3574,-3423],[634,-495],[415,-326],[134,-38],[1488,-2338],[113,-385],[181,-361],[861,-1128],[404,-172],[209,-36],[390,-68]],[[92843,54839],[-202,-194],[-2022,-1936],[-4177,-2017],[-3153,-426],[-893,-261],[-506,-183],[-886,-1321],[-2829,-1785],[-4083,-2481],[-685,-534]],[[82742,36751],[-793,397],[-7272,916]],[[74677,38064],[-655,3612],[-615,2025]],[[92843,54839],[630,-35],[1601,-463],[299,-356],[1152,-690],[2658,-3453],[816,-1268],[-1410,-1000],[-2104,-1492],[-3664,-4319],[-162,-613],[-213,-805],[-1179,-1048],[-225,-67],[-8159,-2450],[-141,-29]],[[35654,48203],[3080,4299],[164,354],[2065,4457]],[[40963,57313],[3399,735],[1070,21],[146,66],[135,62],[6343,-937]],[[57533,55857],[-63,-2714],[-90,-967],[-1,-9],[-118,-1270],[-176,-1892],[-109,-806],[975,-1103],[88,-214],[169,-583],[54,-276],[38,-113],[490,-477],[275,-302],[97,-312],[257,-343],[46,-91],[1323,-1493],[20,-50],[376,-2706]],[[61184,40136],[-3004,453],[-2780,-1946],[-3160,-1195],[-351,204],[-18,10],[-351,327],[-135,251],[-282,1174],[20,568],[-387,430],[-43,81],[-760,715],[-33,9],[-104,-32],[-486,-116],[-993,-49],[-378,138],[-383,94],[-213,-265],[-314,322],[-98,36],[-388,391],[399,286],[-13,222],[-67,221],[-15,36],[-33,67],[-14,20],[-43,50],[-202,203],[-1960,-882],[-897,-2330],[-507,-860],[-387,-571],[-557,-823],[-196,-290]],[[42051,37085],[-60,-37],[-586,-356],[-273,230],[-507,426],[-430,458],[-214,228],[371,1692],[28,128],[189,932],[-119,212],[-138,246],[198,554],[155,433],[-102,270],[-186,494],[-291,995],[-4432,4213]],[[69902,34254],[-367,33],[-3333,298],[-1150,103]],[[65052,34688],[-2344,3202],[-89,97],[-224,557],[-1211,1592]],[[74677,38064],[-2001,-2369],[-404,-477],[-1831,-800],[-539,-164]],[[56161,26296],[-2060,161],[-1405,226],[-559,371]],[[52137,27054],[-1060,842],[-1100,275],[-769,393],[-811,427],[-867,456],[-157,100],[-368,234],[-14,10],[-830,764],[-116,16]],[[46045,30571],[-1696,2414],[-522,741],[-51,44]],[[43776,33770],[-1714,3309],[-11,6]],[[65052,34688],[-1468,-1238],[-806,-680],[-2029,-1018],[-2600,-1306],[-773,-1611],[-1215,-2539]],[[43776,33770],[-6732,2083],[-3280,623]],[[33764,36476],[-1769,785],[-438,267],[-136,89],[-1188,763],[-188,398],[-701,116],[-57,310],[-2264,564],[2,37],[53,285]],[[27078,40090],[1955,559],[1130,-606],[418,137],[593,678],[284,436],[600,1005],[176,1403],[-40,657],[195,472],[1447,1618],[713,1682]],[[34549,48131],[1105,72]],[[30754,65700],[253,-3179],[-523,-724],[-817,-611],[-94,-75],[-726,60],[802,-629],[1085,-1460],[1577,-1668],[790,257],[739,-556],[748,363],[599,-295],[-3858,-5647]],[[31329,51536],[-182,37],[-477,99],[-665,385],[-649,377],[-464,672],[-968,1399],[-456,660],[-4780,-2935],[-885,-372],[-210,-150]],[[21593,51708],[-309,-54],[-474,32],[-418,-74],[-397,-128],[-518,84],[-53,-79],[-27,-1],[-1185,-26],[-532,-283]],[[17680,51179],[-1654,-194],[-97,-25]],[[15929,50960],[-74,1430],[-1017,1340],[-85,1243],[0,136],[-980,1274],[-669,-625],[-568,-251],[-1711,475],[-334,875],[-299,781],[-559,693],[-197,364],[-22,41],[-219,404],[-322,346],[-454,487],[-24,3],[-210,72],[-1834,776],[-2899,454],[-836,-62],[-791,326],[-1804,3611],[-21,354],[6,90],[1,12],[65,234],[80,290],[1093,2504],[368,384],[1593,940],[423,896],[245,787],[815,92],[132,-1816],[686,-458],[484,-437],[16,-23],[540,-561],[1873,-29],[1035,1396],[-5,27],[498,376],[485,809],[145,468],[540,228],[3231,1242],[5768,843],[2946,92],[7734,-3185],[420,-687],[-33,-1571],[-26,-1255],[-404,-1495]],[[34549,48131],[-1813,2046],[-649,731],[-340,289],[-418,339]],[[30754,65700],[3032,-2920],[2259,-1876],[3658,-2670],[1260,-921]],[[27078,40090],[-2897,1293],[-4185,341],[-2655,414],[-858,-115],[55,-2102],[-417,-1172]],[[16121,38749],[-784,1434],[-150,335],[7,69],[1,13],[-21,29],[-24,35],[-224,68],[-76,104],[-79,137],[-173,159],[-328,1235],[-478,4162],[242,499],[12,42],[391,411],[144,281],[221,429],[551,1075],[415,493],[111,1106],[50,95]],[[17680,51179],[2060,-1120],[374,-372],[1,-2],[56,-184],[-114,-182],[-58,-30],[-497,-305],[-40,-778],[593,68],[190,-135],[-67,-201],[199,-329],[66,-2],[336,79],[-143,670],[-32,355],[-20,249],[-13,196],[39,80],[387,-158],[251,-60],[107,-131],[307,232],[-196,852],[107,517],[20,1220]],[[33764,36476],[-441,-820],[-834,-553],[-2016,-1140],[-139,-339],[-1016,-2815]],[[29318,30809],[-1543,-1606],[-134,-3537],[-440,-662],[-1262,-1099],[-239,-568],[5,-340],[-30,-1184],[-6,-264]],[[25669,21549],[-317,-90],[-80,-23],[-821,-235],[-978,-553],[-660,-65],[-366,171],[-2814,2575],[-55,28],[51,343],[217,1723],[-1725,6623],[-2202,4704],[604,900],[84,126],[-486,973]],[[39037,18328],[-149,12],[-611,49],[-448,285]],[[37829,18674],[-247,4005],[-2178,2054],[-1290,2820],[-1168,1571],[-902,272],[-972,363],[-27,-4],[-797,189],[-467,399],[-463,466]],[[46045,30571],[-2250,-946],[-1256,-2010],[13,-104],[-118,-1251],[-83,-1187],[-27,-387],[-327,-2708],[50,-939]],[[42047,21039],[-1285,-1401],[-1409,-1169],[-10,-8],[-306,-133]],[[37829,18674],[-2989,-556],[-2049,585],[-496,155],[-687,1668],[-5120,634],[-62,42],[-140,96],[-273,119],[-143,57],[-201,75]],[[52137,27054],[-580,-1571],[-752,-1098],[-6330,-3153],[-2428,-193]],[[49197,8911],[-269,51],[-1990,382],[-682,976],[-1752,2510],[-761,1273],[-584,920],[-90,368],[-117,118],[-522,221],[-298,-26],[-30,4],[-1440,645],[-1092,1473],[-289,272],[-244,230]],[[56161,26296],[1558,-2442],[2107,-7675],[-833,-862],[-20,-565],[-584,127],[325,-498],[-369,-161],[-90,-206],[-162,-80],[-109,292],[-234,76],[-60,-9],[-167,-52],[-233,-207],[463,-340],[121,5],[249,-231],[449,332],[120,-132],[-269,-335],[-107,15],[-186,113],[-214,-432],[-170,-190],[-665,-394],[-73,-86],[-50,-28],[-1451,-30],[-1600,-91],[-4710,-3299]],[[59764,1548],[-2202,-1355],[-995,-193],[-48,385],[-1879,686],[-462,161],[-1925,-119],[-604,-38],[-1812,-113],[-590,-38],[-677,4043],[585,3683],[42,261]],[[69902,34254],[-241,-6723],[7905,-6401],[1051,-513]],[[78617,20617],[-395,-270],[-2293,-1451],[-8282,-4547],[-744,-412],[-1133,-793],[-1198,-2757],[-62,-108],[-18,-556],[-226,-213],[-476,-1321],[-1958,-1738],[-416,-185],[-208,-1018],[443,-377],[-142,-1115],[-1194,-1306],[-551,-902]],[[81443,19933],[-1605,969],[-1221,-285]],[[82742,36751],[2571,-4326],[1023,-1725],[-850,-2622],[-195,-397],[-57,-103],[-37,-15],[-90,-34],[-150,-459],[429,-615],[818,-1173],[-361,-1487],[-760,-3131],[-3640,-731]],[[81443,19933],[1617,-5174],[4,-9],[473,-2821],[-33,-2354],[-1275,-4798],[36,-102],[-131,-153],[-43,-21],[-3000,-1482],[-545,-199],[-264,-103],[-283,-111],[-1171,-1454],[-2167,90],[-2443,950],[-1972,1487],[-1159,167],[-448,-107],[-989,-284],[-2236,-1020],[-3593,-1562],[-2057,675]]],"bbox":[23.42525001645945,63.12245591261002,25.01968975545278,63.8729063410373],"transform":{"scale":[0.000015944556835501657,0.000007504579330066085],"translate":[23.42525001645945,63.12245591261002]}}
