{"type":"Topology","objects":{"neighborhoods":{"type":"GeometryCollection","geometries":[{"type":"MultiPolygon","arcs":[[[0,1,2]]],"properties":{"i":0}},{"type":"MultiPolygon","arcs":[[[3,4,5,6,7]]],"properties":{"i":1}},{"type":"MultiPolygon","arcs":[[[8,9,-4,10,11,12]]],"properties":{"i":2}},{"type":"MultiPolygon","arcs":[[[13,-5,-10,14]]],"properties":{"i":3}},{"type":"MultiPolygon","arcs":[[[-15,-9,15,16]]],"properties":{"i":4}},{"type":"MultiPolygon","arcs":[[[-16,-13,17,18,19,20,21,22]]],"properties":{"i":5}},{"type":"MultiPolygon","arcs":[[[23,-20]]],"properties":{"i":6}},{"type":"MultiPolygon","arcs":[[[24,25,26,-2]]],"properties":{"i":7}},{"type":"MultiPolygon","arcs":[[[27,28,29,-25,-1,30,31,32,33]]],"properties":{"i":8}},{"type":"MultiPolygon","arcs":[[[-32,34]]],"properties":{"i":9}},{"type":"MultiPolygon","arcs":[[[35,36,37,-28]]],"properties":{"i":10}},{"type":"MultiPolygon","arcs":[[[-34,38,39,40,-36]]],"properties":{"i":11}},{"type":"MultiPolygon","arcs":[[[41,42,43,-7,44,-26,-30,45,46,47]]],"properties":{"i":12}},{"type":"MultiPolygon","arcs":[[[48,49,-48]]],"properties":{"i":13}},{"type":"MultiPolygon","arcs":[[[-49,-47,50]]],"properties":{"i":14}},{"type":"MultiPolygon","arcs":[[[51,-43,52,-18,-12]]],"properties":{"i":15}},{"type":"MultiPolygon","arcs":[[[-44,-52,-11,-8]]],"properties":{"i":16}},{"type":"MultiPolygon","arcs":[[[53,54,-21,-24,-19,-53,-42,-50,-51,-46,-29,-38,55,56,57,58,59,60,61],[62]]],"properties":{"i":17}},{"type":"MultiPolygon","arcs":[[[-63]]],"properties":{"i":18}},{"type":"MultiPolygon","arcs":[[[-58,63]]],"properties":{"i":19}},{"type":"MultiPolygon","arcs":[[[-59,-64,-57,64,65,66]]],"properties":{"i":20}},{"type":"MultiPolygon","arcs":[[[67,68,-66,69,-40,70,71]]],"properties":{"i":21}},{"type":"MultiPolygon","arcs":[[[-56,-37,-41,-70,-65]]],"properties":{"i":22}},{"type":"MultiPolygon","arcs":[[[-67,-69,72,73,-60]]],"properties":{"i":23}},{"type":"MultiPolygon","arcs":[[[-61,-74,74,75]]],"properties":{"i":24}},{"type":"MultiPolygon","arcs":[[[76,77,-75,-73,-68,78,79]]],"properties":{"i":25}},{"type":"MultiPolygon","arcs":[[[-80,80,81,82]]],"properties":{"i":26}},{"type":"MultiPolygon","arcs":[[[-79,-72,83,-81]]],"properties":{"i":27}},{"type":"MultiPolygon","arcs":[[[84,85,86,-62,-76,-78,87]]],"properties":{"i":28}},{"type":"MultiPolygon","arcs":[[[-54,-87,88]]],"properties":{"i":29}},{"type":"MultiPolygon","arcs":[[[-22,-55,-89,-86,89]]],"properties":{"i":30}},{"type":"MultiPolygon","arcs":[[[-88,-77,-83,90]]],"properties":{"i":31}}]}},"arcs":[[[14581,45155],[240,686],[327,722],[-274,14],[-417,-53],[-453,498],[27,557],[-7,635],[203,1396],[250,26],[89,367],[339,-101],[822,832],[1657,516],[1142,95],[1316,665]],[[19842,52010],[952,-676],[1717,161],[277,61]],[[22788,51556],[-44,-2316],[18,-1799],[-3064,-1695],[-2297,-1103],[-1696,308],[-1124,204]],[[63232,43627],[907,-2746],[448,-156],[6,-184],[-8,-54],[-305,-2534],[-124,-122]],[[64156,37831],[-1052,1322],[-968,353],[-1280,-1690],[-4599,-55],[-3892,-365]],[[52365,37396],[-1562,1898],[-727,2809],[-132,1501],[-49,551]],[[49895,44155],[289,133],[674,311]],[[50858,44599],[301,-222],[1464,-861],[110,-57],[601,-374],[1996,-1035],[1320,-475],[918,-13],[119,-29],[993,102],[920,100],[1160,510],[639,375],[681,360],[1152,647]],[[72930,35031],[-2283,743],[-2748,257],[-1661,192]],[[66238,36223],[-97,55],[-1339,788],[-463,541],[-183,224]],[[63232,43627],[-87,246]],[[63145,43873],[2748,899],[787,394],[252,1037],[121,765]],[[67053,46968],[2755,-2032],[1422,-1387],[662,-1750],[1355,-2504],[39,-167],[517,-2147],[-873,-1950]],[[51032,32068],[-40,2667],[1373,2661]],[[66238,36223],[-638,-1148],[-1277,-775],[-1732,-88],[-2601,-1639],[-785,-308],[-592,-217],[-1128,560],[-1071,-1082],[-400,-434],[-62,-246],[-251,-620],[-160,-447],[-399,-295],[-203,-1],[-166,42],[-1030,686],[-479,713],[-2232,1144]],[[72930,35031],[1206,415],[2362,-999],[1623,-323],[1368,-47],[520,-314],[1013,-297],[1032,-25],[1125,159],[4546,736],[2554,1532],[1,1]],[[90280,35869],[1302,-683],[662,-348],[14,-16],[467,-537],[1146,-684],[96,-57],[623,-372],[10,-6],[-175,-1002],[-3,-16],[269,-230],[526,-449],[16,-3],[463,-63],[356,-49],[128,-17],[453,-62],[0,-1],[760,-104],[191,-26],[5,-1],[15,-2],[20,-2],[6,-1],[24,-4],[3,0],[137,-19],[147,-20],[10,-28],[776,-2225],[-773,-590],[-478,-367],[1372,-2629],[0,-1],[61,-113],[30,-41],[985,-1137],[71,-81],[4,-1695],[-181,-710],[-558,-2218],[-160,-264],[-415,-698],[-380,-652],[-91,-156],[-133,-194],[-494,-720],[-39,-57],[-329,-483],[-1,0],[-1,-2],[-300,-439],[-1812,-1881],[-1,-1],[-891,-928],[-916,-1217],[-29,-34],[-2,-6],[-21,-61],[-3,-7],[-1724,-4778],[-222,-81],[-1535,-560],[-1429,-522],[-493,-220],[-982,-477],[-2795,-1309],[-441,-211],[-450,-215],[0,-1],[115,-116],[-981,-74],[-619,-214],[-582,-49],[-133,91],[-502,15],[-414,-363],[-148,-130],[-1118,-543],[-379,-785],[-557,-918],[-1323,1800],[-590,913],[-137,853],[-1192,5936],[-584,98],[-3654,-370],[-3368,-583],[-890,-158],[-1916,-300],[-1447,-155],[-2808,-99],[-2550,50],[-598,1540],[872,197],[1514,1378],[199,950],[-150,796],[-1046,932],[-325,270],[445,1378],[328,293],[508,454],[-5,32],[-782,432],[-1513,725],[-2776,2109],[-1012,1623],[-20,48],[-777,904],[-138,605],[379,618],[335,899],[-175,620],[-29,63],[-227,78],[-558,-277],[-156,412],[-127,466],[-51,212],[-192,571],[-501,1403],[47,1147],[220,470],[-51,2735]],[[67053,46968],[-523,1302]],[[66530,48270],[2780,1332]],[[69310,49602],[1796,-1707],[1825,-1471],[1219,-638],[1051,-251],[135,504],[67,1588],[726,708],[199,493],[-3334,2643]],[[72994,51471],[133,289],[99,213]],[[73226,51973],[1574,303],[1470,-266],[5243,-2357],[2316,-896]],[[83829,48757],[80,-198],[-24,-206],[-4,-25],[-102,-802],[0,-2],[-2,-16],[-35,-277],[-50,-408],[-2,-14],[-3,-19],[-3,-23],[-3,-26],[-71,-562],[-4,-27],[4,-8],[203,-407],[72,-156],[94,-193],[427,-874],[437,-207],[-61,-392],[-93,-585],[624,-604],[359,-1177],[-59,-121],[-181,-392],[39,-77],[168,-333],[-166,-834],[-10,-53],[-134,-672],[-24,-126],[-23,-98],[0,-2],[1600,-1743],[282,-309],[49,-27],[411,-204],[31,-14],[189,-92],[67,-34],[42,-21],[4,-1],[1917,-377],[190,-37],[216,-113]],[[69310,49602],[1099,1032],[343,141],[487,201],[607,171],[1148,324]],[[19842,52010],[760,637],[511,346],[944,253],[320,427],[216,318],[-306,562],[523,788],[565,519],[320,222],[260,288],[850,386],[952,125],[951,-32]],[[26708,56849],[373,-1095],[736,-1043],[1646,-1168]],[[29463,53543],[-950,-442],[-457,-164],[-1570,-456],[-934,-558],[-752,-156],[-1064,53],[-948,-264]],[[24083,77568],[-721,-864],[-1210,-1975],[1138,-2010],[722,-394],[1161,-446],[2605,-408],[1480,55],[1728,269],[1570,1218]],[[32556,73013],[707,-1523],[921,-2278],[-301,-1435],[626,-2364]],[[34509,65413],[-756,-97],[-670,-546],[-1318,-1888],[-609,-1144],[-1824,-162],[-648,-185],[-61,-15],[-2,-1],[-536,-581],[-282,-511],[-1171,-1580],[76,-1854]],[[14581,45155],[-100,52],[-177,39],[-75,17],[-208,46],[-704,-96],[-1142,34],[-792,940],[-222,264],[-41,447],[-40,427],[1346,422],[113,372],[-568,390],[11,117],[119,9],[-7,203],[-706,260],[-211,-54],[-1,-1],[-481,162]],[[10695,49205],[-228,364],[228,925],[-19,3651],[-1316,7579],[-372,1268]],[[8988,62992],[-282,746],[-704,1856],[14,37],[491,1309],[114,279],[143,350],[75,42],[54,30],[-33,88],[-842,1879],[-474,371],[-1372,1313],[-1015,741],[-1799,991],[1798,4905],[2455,471],[1647,-61],[2873,-679],[2196,-382],[1596,876],[2248,-183],[1886,-148],[3450,835],[33,2]],[[23540,78660],[352,-700],[191,-392]],[[10695,49205],[-7,2],[-1772,-164],[-685,-16],[-1074,-26],[-3094,2996],[1751,3234],[2,419],[110,293],[-1051,940],[-112,-23],[-1673,775],[-3090,2593],[1006,1146],[137,155],[15,17],[805,915],[3093,-452],[2669,80],[1263,903]],[[24083,77568],[2681,-784],[2563,17],[945,482]],[[30272,77283],[2566,-3219]],[[32838,74064],[-178,-663],[-104,-388]],[[23540,78660],[475,5049],[2065,1360]],[[26080,85069],[4411,-1276],[486,-164],[221,-128],[213,-123],[496,-196],[211,-83],[449,-428]],[[32567,82671],[-355,-777],[-216,-475],[-1724,-4136]],[[48784,56129],[546,-465],[2333,202],[1940,-646],[4,-2],[881,-481],[1473,-802],[126,-8]],[[56087,53927],[-565,-2040],[-499,-1113],[-141,-426],[-454,-569],[-254,-1070],[86,-505]],[[54260,48204],[-196,101],[-223,-506],[-174,-254],[-11,-71],[-791,-451],[-485,-112],[-1522,-2312]],[[49895,44155],[-6294,1239],[-5258,2037],[-1702,972],[-1421,139],[200,465],[-163,164],[-516,13],[-405,553],[-148,1158],[-1732,1698],[-2993,950]],[[34509,65413],[5052,-2521],[2089,-639],[1,0],[1902,-1420]],[[43553,60833],[901,-1963]],[[44454,58870],[-969,-1061],[-220,-755],[375,-440],[89,-215],[254,-271],[57,-73],[130,-16],[83,-141],[-20,-95],[-404,-63],[-2,-1],[-41,-27],[-819,-123],[107,-615],[1744,464],[1322,693],[2644,-2]],[[44454,58870],[1131,-666],[842,-527]],[[46427,57677],[2357,-1548]],[[43553,60833],[2646,602],[3019,1035],[935,103],[985,-863],[352,-519],[-157,-322],[-313,-143],[-468,-162],[-132,-617],[-733,-112],[-960,-12],[37,-738],[-865,300],[-844,-432],[309,-373],[945,408],[273,-408],[-943,-380],[-1212,-523]],[[63145,43873],[-2486,343],[-1584,1454],[-280,332],[-243,162],[-659,986],[-466,308],[-1024,64],[-1674,340],[-44,50],[-425,292]],[[56087,53927],[120,55],[80,65],[165,89],[315,89],[182,52],[804,-169],[988,-410],[155,-104],[1185,-710],[907,-513],[2156,-1438],[3386,-2663]],[[69968,60260],[-3095,-1168],[-692,-265],[800,-259],[-183,-497],[454,-97],[1049,-468],[1085,-684],[337,-1199],[1402,-39],[366,-215],[1226,-4]],[[72717,55365],[3,-508],[276,-1864],[230,-1020]],[[32838,74064],[3095,725]],[[35933,74789],[-124,-1048],[3487,606],[1550,-1244],[790,-470]],[[41636,72633],[-1053,-1071],[451,-1898],[785,-647],[249,-291],[-375,-117],[-41,-147],[92,-235],[284,-110],[126,-119],[345,-362],[377,45],[221,231],[229,224],[330,157],[686,-157],[711,454],[865,981],[804,562],[155,226],[-587,641],[-1063,579]],[[45227,71579],[1063,663],[1220,520],[156,510],[-2045,300],[-584,1162],[3334,2365],[2332,2078]],[[50703,79177],[411,1140],[1603,213]],[[52717,80530],[1418,-466],[656,-1300],[-16,-1306]],[[54775,77458],[-1808,-755],[-35,-706],[-805,-608],[806,-1308],[-76,-662],[-476,-533],[-620,-127],[-273,-442],[-195,-683],[417,-1267],[-815,-1269],[588,-2246],[705,-453],[674,-329],[79,-55],[67,-34],[339,-153],[7,-1],[250,-107],[1674,-664],[84,-81],[95,-36],[286,-114],[455,-186],[514,-77],[333,-237],[495,-193],[531,-57],[551,-167],[557,364],[345,400],[299,79],[73,753],[-93,815],[1116,549],[1853,939],[259,259],[931,375],[1007,-132],[-49,-146],[-1043,-365],[-234,-115],[-83,-189],[-62,-233],[-255,-1121],[-251,-802],[-172,-1244],[44,-257],[435,223],[178,-259],[1081,-44],[-72,-896],[361,-740],[834,-634],[4287,-1227]],[[60253,56060],[98,-436],[477,-254],[260,-44],[293,-21],[143,-35],[48,-13],[124,-40],[308,-113],[30,6],[1466,-184],[1095,158],[476,246],[126,455],[-200,301],[-261,253],[-635,357],[-954,332],[-758,0],[-520,28],[-288,52],[-576,67],[-346,-108],[-122,-120],[13,-151],[207,-66],[165,-90],[25,-134],[-213,-190],[-481,-256]],[[41636,72633],[2207,-860],[169,-79],[322,-117],[622,-90],[271,92]],[[35933,74789],[1094,211],[262,255],[181,1034],[1138,2217]],[[38608,78506],[2449,-472],[1642,207],[508,293],[246,2550],[3240,-485]],[[46693,80599],[42,-39],[3968,-1383]],[[48579,87394],[175,-951]],[[48754,86443],[-203,-190],[-519,-1068],[-168,-1044],[317,-2764],[-1488,-778]],[[38608,78506],[149,1795],[-1049,1302],[-2777,644],[-2364,424]],[[26080,85069],[1786,1134],[266,808],[127,156],[3011,-461],[1846,-421],[1344,371],[1998,688],[11,-17],[1548,-275],[2570,819],[1390,767],[1632,1000]],[[43609,89638],[2192,-886],[2778,-1358]],[[48754,86443],[1385,-956],[2323,-1109],[1956,-1198],[295,-255]],[[54713,82925],[-736,-697],[-36,-351],[-448,-1017],[-776,-330]],[[54713,82925],[696,1676],[1923,438],[2568,-14],[684,-1091]],[[60584,83934],[-631,-1076],[-188,-956],[-814,-855],[-403,-1151],[-56,-765],[71,-514],[-403,-714],[-1978,-606],[-1407,161]],[[57997,92496],[2888,-2478],[1681,-3279],[161,-1597]],[[62727,85142],[-1100,-447],[-1043,-761]],[[48579,87394],[216,1594],[3,520],[44,155],[566,1143],[803,995],[259,530]],[[50470,92331],[1165,-347],[3179,515],[3183,-3]],[[50470,92331],[-1049,-730],[-608,1104],[771,2190]],[[49584,94895],[475,579],[2844,1018],[2860,-483],[197,109],[51,-18],[393,115],[66,-28],[13,-12],[276,153],[503,-97],[1089,563],[105,54],[93,48],[71,37],[741,382],[310,222],[238,171],[3204,2291],[3571,-388]],[[66684,99611],[-340,-1218],[-4485,-2927],[-2001,-81],[-1460,-1299],[-401,-1590]],[[43609,89638],[384,1887],[1027,253],[-166,1747],[-358,690],[373,904],[869,367],[1797,487],[842,-673],[619,-207],[588,-198]],[[76135,76981],[-507,-335],[-803,-425],[-82,-44],[-84,-44],[-79,-42],[-1388,-736],[-363,-2651],[-437,-983],[142,-483],[432,-1480],[-133,-1005],[-104,-788],[123,-547],[350,-1150],[235,-774],[274,-901],[1058,-966],[139,-174],[62,-76],[326,-407],[-353,-1021],[7,-8],[1,-1],[3,-3],[265,-284],[225,-242],[93,-99],[138,-148],[135,-144],[641,-681],[53,0],[1097,1]],[[77601,60340],[-4596,-1424]],[[73005,58916],[-37,593],[-3000,751]],[[62727,85142],[1663,-1418],[2312,939],[909,866],[361,-570],[207,-312],[-517,-1967],[-434,-2124],[530,-1443],[857,-513],[1108,-320],[10,-3],[6380,-1295],[22,-1]],[[73005,58916],[-1710,-766],[-1062,-176],[-32,-353],[165,-248],[388,-153],[1421,-326],[791,-3],[866,-101],[151,-494],[-275,-98],[-314,-81],[-677,-752]],[[77601,60340],[199,0],[2388,0],[300,136],[354,48],[180,24],[2840,68],[60,-33],[68,-37],[201,-111],[1035,76],[11,-9],[34,-29],[378,-313],[368,-306],[167,-139],[303,-251],[130,-497],[2,-4],[-155,-34],[-4,-1],[-96,-95],[-121,-122],[-9,-9],[-147,-148],[-59,-59],[-212,-212],[-240,-242],[-382,-383],[-12,-13],[294,-1298],[60,-263],[116,-172],[106,-158],[645,-957],[92,-136],[517,-769],[24,-42],[79,-117],[185,-279],[150,-226],[1,-2],[3,-5],[460,-687],[-3,-15],[-163,-777],[-307,-466],[-15,-22],[-517,-165],[-1353,-426],[-948,-772],[-327,-268],[-1,-1],[-44,-34],[-3,-3],[-348,-285],[-208,-169],[12,-30],[140,-344]],[[66684,99611],[1447,-37],[677,-18],[1273,66],[187,11],[536,30],[3600,-232],[2434,-102],[-117,-577],[-160,-194],[-297,-361],[-3,-5],[-7,-156],[0,-5],[-5,-122],[-97,-2360],[-16,-409],[0,-2],[-24,-567],[-15,-380],[92,-1169],[23,-291],[333,-1117],[1,-3],[106,-354],[0,-1],[-2,-2],[-299,-332],[-352,-390],[-488,-542],[-3,-4],[-344,-382],[-4,-4],[-112,-125],[-1,-1],[-1303,-1452],[-1064,-736],[-217,-879],[148,-250],[784,-1322],[1,0],[256,-5],[321,-7],[392,-8],[1,0],[9,0],[948,-21],[795,-176],[464,-104],[483,144],[92,27],[2,1],[257,-57],[282,-63],[629,-137],[352,-78],[1219,-420],[20,-7],[358,-228],[175,-115],[225,-148],[11,-36],[106,-329],[112,-374],[-110,-142],[-1070,-1344],[-270,-337],[-450,-563],[-248,-314],[3,-3],[153,-149],[2,-2],[3,-3],[56,-54],[331,-324],[6,-5],[-5,2],[138,-132],[5,-6],[36,-35],[1,0],[163,-159],[3,-4],[12,8],[14,12],[1,1],[19,11],[4,7],[11,2],[15,15],[1,1],[21,9],[4,0],[15,7],[11,3],[23,-1],[14,9],[21,2],[32,14],[18,15],[35,44],[4,7],[13,9],[18,-1],[53,-2],[37,7],[13,-6],[5,-18],[4,-19],[-16,-15],[-42,-14],[-29,-15],[-32,-20],[-12,-9],[-13,-24],[-10,-7],[-27,-14],[-38,-12],[-31,-9],[-21,-16],[-18,-9],[-21,-19],[-6,-5],[-28,-19],[338,-326],[260,-250],[480,-463],[66,-62],[130,-124],[-282,-30],[-442,-47],[-19,-10],[-546,-303],[-618,-343],[-6,0],[-234,-3],[-689,-8],[-434,-5],[-941,-12],[-534,-6],[-5,0],[-115,-76]]],"bbox":[27.097132723062657,63.70149894453271,30.553557219524546,65.50508539161464],"transform":{"scale":[0.000034564590610524994,0.000018036044831267647],"translate":[27.097132723062657,63.70149894453271]},"propertiesColumnar":{"format":"columnar/1","keys":["id","postinumeroalue","nimi","namn","euref_x","euref_y","pinta_ala","vuosi","kunta","he_vakiy","he_naiset","he_miehet","he_kika","he_0_2","he_3_6","he_7_12","he_13_15","he_16_17","he_18_19","he_20_24","he_25_29","he_30_34","he_35_39","he_40_44","he_45_49","he_50_54","he_55_59","he_60_64","he_65_69","he_70_74","he_75_79","he_80_84","he_85_","ko_ika18y","ko_perus","ko_koul","ko_yliop","ko_ammat","ko_al_kork","ko_yl_kork","hr_tuy","hr_ktu","hr_mtu","hr_pi_tul","hr_ke_tul","hr_hy_tul","hr_ovy","te_taly","te_takk","te_as_valj","te_yks","te_nuor","te_eil_np","te_laps","te_plap","te_aklap","te_klap","te_teini","te_yhlap","te_aik","te_elak","te_omis_as","te_vuok_as","te_muu_as","tr_kuty","tr_ktu","tr_mtu","tr_pi_tul","tr_ke_tul","tr_hy_tul","tr_ovy","ra_ke","ra_raky","ra_muut","ra_asrak","ra_asunn","ra_as_kpa","ra_pt_as","ra_kt_as","ra_muu_as","tp_tyopy","tp_alku_a","tp_jalo_bf","tp_palv_gu","tp_a_maat","tp_b_kaiv","tp_c_teol","tp_d_ener","tp_e_vesi","tp_f_rake","tp_g_kaup","tp_h_kulj","tp_i_majo","tp_j_info","tp_k_raho","tp_l_kiin","tp_m_erik","tp_n_hall","tp_o_julk","tp_p_koul","tp_q_terv","tp_r_taid","tp_s_muup","tp_t_koti","tp_u_kans","tp_x_tunt","pt_vakiy","pt_tyoll","pt_tyott","pt_0_14","pt_opisk","pt_elakel","pt_muut","city","pno","unemployment_rate","higher_education_rate","pensioner_share","ownership_rate","rental_rate","population_density","child_ratio","student_share","detached_house_share","youth_ratio_pct","gender_ratio","single_parent_hh_pct","families_with_children_pct","tech_sector_pct","healthcare_workers_pct","employment_rate","elderly_ratio_pct","avg_household_size","manufacturing_jobs_pct","public_sector_jobs_pct","service_sector_jobs_pct","new_construction_pct","foreign_language_pct","crime_index","property_price_sqm","transit_stop_density","air_quality_index","daycare_density","school_density","healthcare_density","restaurant_density","grocery_density","cycling_density","single_person_hh_pct","rental_price_sqm","price_to_rent_ratio","walkability_index","traffic_accident_rate","property_price_change_pct","school_quality_score","light_pollution","noise_pollution","voter_turnout_pct","party_diversity_index","broadband_coverage_pct","ev_charging_density","tree_canopy_pct","transit_reachability_score","sports_facility_density","water_proximity_m","avg_construction_year","income_history","population_history","unemployment_history","income_change_pct","population_change_pct","unemployment_change_pct","schools","crime_index_history","crime_index_change_pct","health_index","radon","municipality","lon","lat","flood_risk_pct","population_projection_pct","construction_activity","active_plan_count","political_lean_index","party_vote_kok_pct","party_vote_sdp_pct","party_vote_ps_pct","party_vote_kesk_pct","party_vote_vihr_pct","party_vote_vas_pct","party_vote_rkp_pct","foreign_language_municipal_pct","foreign_language_history","foreign_language_est_pct","low_income_pct","job_self_sufficiency","property_price_history"],"cols":[[2568,2563,2564,2562,2565,2566,2567,2569,2570,2571,2572,2573,2574,2575,2576,2577,2578,2579,2580,2581,2582,2583,2584,2585,2586,2587,2588,2589,2590,2591,2592,2593],["89110","88740","88760","88730","88900","88930","88940","89140","89200","89210","89320","89330","89400","89430","89440","89540","89560","89600","89610","89640","89660","89670","89680","89730","89740","89760","89770","89780","89800","89830","89840","89920"],["Törmänmäki","Härmänkylä-Iivantiira","Iivantiira","Ylä-Vieksi","Kuhmo Keskus","Lentiira-Kuumu","Kuumu","Kotila-Törmänmäki","Puolanka Keskus","Puokiovaara","Joukokylä","Suolijärvi","Hyrynsalmi Keskus","Hoikka","Sakara","Moisiovaara","Karhuvaara","Ämmänsaari","Jumaliskylä","Pesiökylä","Takalo","Näljänkä","Vaaranniva","Ahjola","Kianta","Piispajärvi-Peranka-Kaikkoinen","Peranka","Kaikkonen","Suomussalmi Keskus","Ala-Vuokki","Yli-Vuokki","Ruhtinansalmi"],["Törmänmäki","Härmänkylä-Iivantiira","Iivantiira","Ylä-Vieksi","Kuhmo centrum","Lentiira-Kuumu","Kuumu","Kotila-Törmänmäki","Puolanka centrum","Puokiovaara","Joukokylä","Suolijärvi","Hyrynsalmi centrum","Hoikka","Sakara","Moisiovaara","Karhuvaara","Ämmänsaari","Jumaliskylä","Pesiökylä","Takalo","Näljänkä","Vaaranniva","Ahjola","Kianta","Piispajärvi-Peranka-Kaikkoinen","Peranka","Kaikkonen","Suomussalmi centrum","Ala-Vuokki","Yli-Vuokki","Ruhtinansalmi"],[535121,600303,618653,601068,633862,635086,625136,546939,535571,513484,549153,550000,572640,579602,582059,603956,596898,580143,607921,575987,574831,567197,560548,586635,596228,593858,595489,580197,605865,619946,635898,616879],[7161089,7147492,7148180,7134794,7103267,7152121,7164885,7172809,7193942,7182821,7213899,7226245,7174800,7179132,7185768,7164171,7155590,7194958,7178309,7205615,7217585,7233160,7221884,7230209,7228410,7241593,7257861,7249845,7211299,7182524,7177041,7245020],[156288051,212458208,257181440,266173720,3941487323,728534132,75618822,91116641,1779412407,279846124,154428137,181233877,1106006822,32404725,67343937,258640031,149579310,1467112078,26433591,60166055,221133737,422294695,167150490,99064664,117331367,303459932,184175011,109566933,1217180387,60069078,430132965,936853515],[2026,2026,2026,2026,2026,2026,2026,2026,2026,2026,2026,2026,2026,2026,2026,2026,2026,2026,2026,2026,2026,2026,2026,2026,2026,2026,2026,2026,2026,2026,2026,2026],["620","290","290","290","290","290","290","620","620","620","620","620","105","105","777","105","105","777","777","777","777","777","777","777","777","777","777","777","777","777","777","777"],[52,60,120,104,6869,225,21,79,1928,64,94,62,1729,42,91,161,65,4557,57,95,88,150,83,26,44,69,37,44,1280,44,47,251],[23,28,51,44,3361,91,null,30,942,30,38,32,824,17,35,64,30,2351,24,42,40,60,33,null,21,27,17,18,576,19,18,109],[29,32,69,60,3508,134,null,49,986,34,56,30,905,25,56,97,35,2206,33,53,48,90,50,null,23,42,20,26,704,25,29,142],[56,59,63,63,54,59,null,53,57,42,52,54,56,51,46,64,55,55,61,54,57,64,65,null,63,61,63,63,52,62,69,62],[0,0,0,0,118,1,null,0,15,3,2,0,24,1,1,0,1,61,0,0,1,0,0,null,0,0,0,0,19,0,0,2],[0,0,1,0,135,1,null,1,30,5,3,3,42,1,4,2,2,104,0,1,1,0,0,null,0,0,0,0,30,0,0,1],[4,2,3,3,310,2,null,2,63,5,10,5,71,1,8,2,3,228,2,4,4,3,1,null,0,0,0,1,69,1,0,3],[1,3,0,1,211,5,null,1,46,5,3,2,33,3,4,1,3,106,1,4,2,0,1,null,1,2,1,1,41,0,0,3],[1,0,0,0,128,2,null,0,30,1,0,1,19,1,2,0,0,64,0,1,2,0,0,null,0,2,0,0,23,0,0,3],[0,2,1,1,108,2,null,0,29,1,0,1,18,0,0,2,0,69,0,2,0,0,1,null,0,1,0,0,19,0,0,1],[0,1,0,2,158,2,null,3,40,1,1,1,28,3,4,2,2,102,2,1,2,1,1,null,0,1,0,0,35,1,0,1],[0,0,1,2,173,2,null,5,50,0,3,2,44,1,3,5,2,109,0,1,0,2,1,null,1,2,1,0,35,2,0,5],[1,0,2,0,274,6,null,3,62,5,2,1,78,2,5,0,1,138,1,1,0,2,4,null,0,2,1,0,51,1,1,7],[0,0,4,2,289,2,null,3,60,7,4,2,66,0,3,2,1,168,0,6,5,5,3,null,3,2,0,2,56,1,0,5],[2,2,4,2,330,11,null,3,83,4,3,1,61,2,7,5,3,228,2,8,4,6,1,null,0,3,2,0,63,0,2,7],[4,3,4,5,335,15,null,9,80,0,3,1,63,1,3,8,0,219,4,4,6,3,2,null,0,1,0,2,63,4,2,12],[4,4,7,9,377,25,null,7,103,0,4,1,81,3,8,3,4,241,5,6,4,10,5,null,3,4,3,0,67,2,2,13],[8,8,11,10,506,23,null,12,151,4,10,5,132,5,8,9,8,347,7,8,6,17,5,null,8,4,5,12,94,4,3,32],[9,6,17,13,632,28,null,6,200,5,9,4,184,2,3,20,6,439,10,16,9,22,7,null,11,7,7,4,122,5,4,29],[6,11,26,11,702,38,null,8,236,10,14,11,196,5,11,31,11,514,4,10,13,14,12,null,3,6,3,8,154,6,9,27],[8,7,14,16,747,22,null,9,204,1,7,14,204,4,7,26,8,485,5,13,16,25,13,null,3,16,5,4,144,2,6,38],[2,9,12,15,624,27,null,4,212,1,8,5,177,5,6,24,5,400,7,5,7,23,10,null,7,6,4,6,105,10,11,34],[1,2,6,7,336,8,null,3,127,3,3,0,110,1,1,10,4,228,4,3,2,8,7,null,2,7,4,1,44,4,4,18],[1,0,7,5,376,3,null,0,107,3,5,2,98,1,3,9,1,307,3,1,4,9,9,null,2,3,1,3,46,1,3,10],[46,55,116,100,5967,214,16,75,1744,45,76,51,1540,35,72,156,56,3994,54,85,78,147,81,26,43,65,36,42,1098,43,47,239],[11,23,34,30,1411,72,null,20,542,9,22,13,449,5,10,57,26,952,22,24,22,57,31,null,9,24,13,7,233,16,19,72],[35,32,82,70,4556,142,null,55,1202,36,54,38,1091,30,62,99,30,3042,32,61,56,90,50,null,34,41,23,35,865,27,28,167],[1,1,3,3,119,3,null,1,28,1,0,1,18,1,3,1,1,90,2,0,1,1,0,null,1,2,0,0,22,0,1,3],[28,25,59,56,3188,99,null,39,808,24,42,23,784,21,45,83,27,2119,23,49,52,76,45,null,24,34,20,29,584,20,21,136],[5,6,17,9,960,32,null,14,290,11,11,7,234,7,10,11,2,674,6,9,3,12,4,null,6,4,3,6,192,4,6,23],[1,0,3,2,289,8,null,1,76,0,1,7,55,1,4,4,0,159,1,3,0,1,1,null,3,1,0,0,67,3,0,5],[46,55,116,100,5967,214,16,75,1744,45,76,51,1540,35,72,156,56,3994,54,85,78,147,81,26,43,65,36,42,1098,43,47,239],[29953,23058,25007,24383,25119,23159,null,22117,23801,27694,25606,23816,24911,29232,25491,21037,24835,24896,22604,26433,21005,21083,21199,null,23371,21272,30692,21559,25233,22503,19830,24231],[23536,17934,21108,20632,22433,20872,null,21498,21362,21566,20764,19702,21809,26342,22214,17180,22947,22331,21135,25234,18016,17701,18250,null,23893,16399,17657,18593,22920,18777,16878,20964],[12,22,33,33,1343,70,null,27,442,7,26,15,386,6,21,68,16,853,16,17,30,57,30,null,10,32,15,14,270,13,23,62],[27,28,66,55,4057,128,null,40,1138,30,40,31,1001,21,39,76,36,2775,36,56,45,80,45,null,31,28,19,27,702,23,23,157],[7,5,17,12,567,16,null,8,164,8,10,5,153,8,12,12,4,366,2,12,3,10,6,null,2,5,2,1,126,7,1,20],[1377823,1268211,2900757,2438310,149884907,4955968,null,1658742,41508768,1246215,1946086,1214594,38363454,1023107,1835334,3281748,1390757,99433959,1220628,2246816,1638382,3099264,1717144,null,1004943,1382705,1104929,905458,27705636,967621,932002,5791263],[28,29,66,64,3850,124,10,42,1105,25,53,29,953,21,43,93,35,2575,29,52,46,91,49,15,23,34,22,26,641,22,28,140],[null,null,1.8,1.6,1.8,1.8,null,1.9,1.7,null,1.8,null,1.8,null,2.1,1.7,1.9,1.7,null,1.8,1.9,1.6,1.7,null,null,2,null,null,2,null,null,1.8],[null,null,59.7,61.7,49.3,59.7,null,54.4,48.7,null,52.4,null,50.9,null,48.5,64.6,53.9,47.9,null,50,53.1,56.5,56.6,null,null,47.9,null,null,47.9,null,null,58.9],[null,null,25,32,1938,59,null,21,551,null,26,null,453,null,15,42,15,1308,null,22,19,44,26,null,null,13,null,null,261,null,null,58],[null,null,1,0,205,2,null,4,50,null,2,null,30,null,3,1,0,116,null,0,1,3,2,null,null,1,null,null,14,null,null,3],[null,null,0,0,57,0,null,1,12,null,0,null,7,null,1,0,0,19,null,0,0,0,0,null,null,0,null,null,7,null,null,1],[null,null,2,3,481,6,null,3,112,null,7,null,100,null,9,1,4,296,null,5,6,2,2,null,null,3,null,null,97,null,null,6],[null,null,0,0,104,1,null,0,15,null,2,null,24,null,1,0,1,54,null,0,1,0,0,null,null,0,null,null,17,null,null,2],[null,null,1,0,178,1,null,1,36,null,4,null,47,null,4,1,1,122,null,1,1,0,0,null,null,0,null,null,37,null,null,3],[null,null,2,2,231,2,null,2,49,null,6,null,50,null,4,1,1,162,null,3,2,2,1,null,null,0,null,null,47,null,null,3],[null,null,0,1,252,4,null,1,53,null,2,null,42,null,5,1,3,131,null,4,3,0,1,null,null,2,null,null,51,null,null,4],[null,null,0,2,97,0,null,0,26,null,5,null,15,null,1,0,0,72,null,1,0,0,0,null,null,0,null,null,11,null,null,0],[null,null,16,20,1363,41,null,20,361,null,18,null,301,null,13,19,10,868,null,22,12,30,9,null,null,7,null,null,199,null,null,50],[null,null,48,41,2023,77,null,20,636,null,28,null,555,null,21,73,21,1414,null,25,28,59,39,null,null,25,null,null,350,null,null,84],[null,null,63,57,2777,106,null,34,775,null,47,null,757,null,41,89,35,1786,null,47,41,86,43,null,null,28,null,null,523,null,null,128],[null,null,2,4,999,13,null,5,307,null,5,null,178,null,2,2,0,752,null,5,5,2,6,null,null,5,null,null,107,null,null,10],[null,null,1,3,74,5,null,3,23,null,1,null,18,null,0,2,0,37,null,0,0,3,0,null,null,1,null,null,11,null,null,2],[28,29,66,64,3850,124,10,42,1105,25,53,29,953,21,43,93,35,2575,29,52,46,91,49,15,23,34,22,26,641,22,28,140],[null,null,44175,38138,38655,39697,null,39497,37092,null,36799,null,39431,null,43439,35288,39911,38107,null,43560,35625,33093,35044,null,null,40104,null,null,43412,null,null,41418],[null,null,40692,30220,32401,32703,null,36046,30543,null,29670,null,33343,null,34159,32131,38483,32033,null,36315,30620,28679,26082,null,null,35063,null,null,35806,null,null,34333],[null,null,20,27,1273,38,null,14,387,null,22,null,309,null,13,41,9,838,null,13,21,46,27,null,null,14,null,null,182,null,null,43],[null,null,34,31,2254,74,null,23,627,null,23,null,550,null,23,48,24,1520,null,33,23,41,18,null,null,15,null,null,386,null,null,84],[null,null,12,6,323,12,null,5,91,null,8,null,94,null,7,4,2,217,null,6,2,4,4,null,null,5,null,null,73,null,null,13],[null,null,2915523,2440821,148822345,4922445,null,1658874,40986852,null,1950333,null,37577763,null,1867895,3281748,1396898,98125207,null,2265133,1638749,3011506,1717144,null,null,1363544,null,null,27827333,null,null,5798481],[144,36,119,96,1625,246,54,126,806,198,36,75,585,23,20,94,26,540,55,68,53,59,67,2,78,87,56,100,498,44,88,327],[63,74,116,110,3622,267,34,85,1228,65,92,62,1239,30,60,147,62,2073,32,69,90,173,76,33,46,77,40,53,738,41,90,318],[2,13,10,11,536,43,4,22,199,8,7,11,253,1,3,11,4,327,3,9,11,18,8,5,8,10,7,10,58,5,14,63],[61,61,106,99,3086,224,30,63,1029,57,85,51,986,29,57,136,58,1746,29,60,79,155,68,28,38,67,33,43,680,36,76,255],[38,58,87,92,4709,202,16,59,1469,39,76,38,1367,25,52,127,52,3121,33,61,65,137,68,19,33,57,24,37,799,36,52,234],[90.5,90.7,101.4,96.5,83.6,97.8,99.2,113.4,79.5,99.7,91.8,102.7,84.4,107,102.8,105.4,95.6,80.4,90.2,87.5,97.7,87,92.3,88.9,95.4,88,96.6,102.9,92.1,82.4,92.9,99.4],[37,54,84,87,3488,194,15,56,1280,39,75,38,1189,24,52,124,48,2127,32,59,64,137,67,19,31,56,23,37,771,35,52,228],[0,0,0,0,1120,2,0,0,140,0,0,0,140,0,0,0,0,766,0,0,0,0,0,0,0,0,0,0,10,0,0,0],[1,4,3,5,101,6,1,3,49,0,1,0,38,1,0,3,4,228,1,2,1,0,1,0,2,1,1,0,18,1,0,6],[1,18,11,7,2268,102,0,15,489,15,21,11,453,5,0,8,2,1740,0,1,1,14,3,0,3,4,2,4,97,3,3,62],[null,3,10,null,267,4,0,5,74,12,20,6,30,null,0,null,null,134,0,null,null,9,null,0,null,null,null,null,26,null,null,14],[null,0,0,null,480,3,0,1,42,2,0,0,54,null,0,null,null,388,0,null,null,0,null,0,null,null,null,null,4,null,null,32],[null,15,1,null,1521,95,0,9,373,1,1,5,369,null,0,null,null,1218,0,null,null,5,null,0,null,null,null,null,67,null,null,16],[null,3,10,null,267,4,0,5,74,12,20,6,30,null,0,null,null,134,0,null,null,9,null,0,null,null,null,null,26,null,null,14],[null,0,0,null,9,0,0,0,0,0,0,0,3,null,0,null,null,0,0,null,null,0,null,0,null,null,null,null,0,null,null,0],[null,0,0,null,298,0,0,0,10,0,0,0,5,null,0,null,null,307,0,null,null,0,null,0,null,null,null,null,1,null,null,31],[null,0,0,null,27,0,0,0,0,0,0,0,2,null,0,null,null,5,0,null,null,0,null,0,null,null,null,null,0,null,null,0],[null,0,0,null,7,0,0,0,4,0,0,0,2,null,0,null,null,13,0,null,null,0,null,0,null,null,null,null,0,null,null,0],[null,0,0,null,139,3,0,1,28,2,0,0,42,null,0,null,null,63,0,null,null,0,null,0,null,null,null,null,3,null,null,1],[null,0,0,null,210,1,0,1,30,0,1,0,55,null,0,null,null,185,0,null,null,0,null,0,null,null,null,null,7,null,null,0],[null,15,0,null,117,2,0,0,28,1,0,1,53,null,0,null,null,58,0,null,null,5,null,0,null,null,null,null,10,null,null,1],[null,0,0,null,74,5,0,5,1,0,0,0,17,null,0,null,null,68,0,null,null,0,null,0,null,null,null,null,3,null,null,8],[null,0,0,null,3,0,0,0,7,0,0,0,1,null,0,null,null,5,0,null,null,0,null,0,null,null,null,null,0,null,null,1],[null,0,0,null,15,0,0,0,7,0,0,0,1,null,0,null,null,15,0,null,null,0,null,0,null,null,null,null,0,null,null,0],[null,0,0,null,21,0,0,0,0,0,0,0,7,null,0,null,null,9,0,null,null,0,null,0,null,null,null,null,0,null,null,0],[null,0,1,null,38,0,0,0,4,0,0,0,16,null,0,null,null,33,0,null,null,0,null,0,null,null,null,null,2,null,null,0],[null,0,0,null,117,2,0,2,25,0,0,0,21,null,0,null,null,120,0,null,null,0,null,0,null,null,null,null,0,null,null,4],[null,0,0,null,165,85,0,0,36,0,0,0,29,null,0,null,null,132,0,null,null,0,null,0,null,null,null,null,0,null,null,0],[null,0,0,null,122,0,0,0,43,0,0,0,29,null,0,null,null,84,0,null,null,0,null,0,null,null,null,null,19,null,null,0],[null,0,0,null,532,0,0,0,166,0,0,4,120,null,0,null,null,440,0,null,null,0,null,0,null,null,null,null,8,null,null,0],[null,0,0,null,44,0,0,1,2,0,0,0,9,null,0,null,null,22,0,null,null,0,null,0,null,null,null,null,1,null,null,2],[null,0,0,null,63,0,0,0,24,0,0,0,11,null,0,null,null,47,0,null,null,0,null,0,null,null,null,null,17,null,null,0],[null,0,0,null,0,0,0,0,0,0,0,0,0,null,0,null,null,0,0,null,null,0,null,0,null,null,null,null,0,null,null,0],[null,0,0,null,0,0,0,0,0,0,0,0,0,null,0,null,null,0,0,null,null,0,null,0,null,null,null,null,0,null,null,0],[null,0,0,null,0,0,0,0,0,0,0,0,0,null,0,null,null,0,0,null,null,0,null,0,null,null,null,null,0,null,null,0],[52,60,120,104,6869,225,21,79,1928,64,94,62,1729,42,91,161,65,4557,57,95,88,150,83,26,44,69,37,44,1280,44,47,251],[20,14,41,30,2322,70,null,31,546,24,30,15,546,13,34,37,17,1459,22,41,23,36,20,null,17,21,12,15,430,11,7,77],[4,5,3,5,374,12,null,9,152,0,4,4,81,4,10,8,4,248,3,6,3,21,8,null,6,3,3,5,80,4,3,19],[4,3,4,4,686,7,null,4,142,16,17,9,153,4,14,5,9,466,3,9,7,3,2,null,1,1,1,2,137,1,0,9],[3,4,0,0,306,7,null,1,61,3,1,2,58,3,5,2,0,157,1,2,5,0,1,null,1,4,0,0,67,1,0,5],[20,34,68,65,3049,107,null,22,975,21,40,31,857,17,26,105,35,2133,27,36,47,89,51,null,17,40,21,22,541,25,37,136],[1,0,4,0,132,22,null,12,52,0,2,1,34,1,2,4,0,94,1,1,3,1,1,null,2,0,0,0,25,2,0,5],["kehys_kainuu","kehys_kainuu","kehys_kainuu","kehys_kainuu","kehys_kainuu","kehys_kainuu","kehys_kainuu","kehys_kainuu","kehys_kainuu","kehys_kainuu","kehys_kainuu","kehys_kainuu","kehys_kainuu","kehys_kainuu","kehys_kainuu","kehys_kainuu","kehys_kainuu","kehys_kainuu","kehys_kainuu","kehys_kainuu","kehys_kainuu","kehys_kainuu","kehys_kainuu","kehys_kainuu","kehys_kainuu","kehys_kainuu","kehys_kainuu","kehys_kainuu","kehys_kainuu","kehys_kainuu","kehys_kainuu","kehys_kainuu"],["89110","88740","88760","88730","88900","88930","88940","89140","89200","89210","89320","89330","89400","89430","89440","89540","89560","89600","89610","89640","89660","89670","89680","89730","89740","89760","89770","89780","89800","89830","89840","89920"],[7.7,8.3,2.5,4.8,5.4,5.3,null,11.4,7.9,0,4.3,6.5,4.7,9.5,11,5,6.2,5.4,5.3,6.3,3.4,14,9.6,null,13.6,4.3,8.1,11.4,6.2,9.1,6.4,7.6],[13,10.9,17.2,11,20.9,18.7,null,20,21,24.4,15.8,27.5,18.8,22.9,19.4,9.6,3.6,20.9,13,14.1,3.8,8.8,6.2,null,20.9,7.7,8.3,14.3,23.6,16.3,12.8,11.7],[38.5,56.7,56.7,62.5,44.4,47.6,null,27.8,50.6,32.8,42.6,50,49.6,40.5,28.6,65.2,53.8,46.8,47.4,37.9,53.4,59.3,61.4,null,38.6,58,56.8,50,42.3,56.8,78.7,54.2],[null,null,95.5,89.1,72.1,85.5,null,81,70.1,null,88.7,null,79.4,null,95.3,95.7,100,69.4,null,90.4,89.1,94.5,87.8,null,null,82.4,null,null,81.6,null,null,91.4],[null,null,3,6.2,25.9,10.5,null,11.9,27.8,null,9.4,null,18.7,null,4.7,2.2,0,29.2,null,9.6,10.9,2.2,12.2,null,null,14.7,null,null,16.7,null,null,7.1],[0,0,0,0,2,0,0,1,1,0,1,0,2,1,1,1,0,3,2,2,0,0,0,0,0,0,0,0,1,1,0,0],[0,0,0.8,0,3.7,0.9,null,1.3,2.3,12.5,5.3,4.8,3.8,4.8,5.5,1.2,4.6,3.6,0,1.1,2.3,0,0,null,0,0,0,0,3.8,0,0,1.2],[5.8,6.7,0,0,4.5,3.1,null,1.3,3.2,4.7,1.1,3.2,3.4,7.1,5.5,1.2,0,3.4,1.8,2.1,5.7,0,1.2,null,2.3,5.8,0,0,5.2,2.3,0,2],[97.4,93.1,96.6,94.6,74.1,96,93.8,94.9,87.1,100,98.7,100,87,96,100,97.6,92.3,68.2,97,96.7,98.5,100,98.5,100,93.9,98.2,95.8,100,96.5,97.2,100,97.4],[0,5,1.7,4.8,6.4,2.7,null,10.1,6.2,3.1,4.3,6.5,5.2,9.5,7.7,5.6,6.2,6.1,3.5,4.2,2.3,2,3.6,null,2.3,5.8,2.7,0,7,6.8,0,2.8],[0.79,0.88,0.74,0.73,0.96,0.68,null,0.61,0.96,0.88,0.68,1.07,0.91,0.68,0.62,0.66,0.86,1.07,0.73,0.79,0.83,0.67,0.66,null,0.91,0.64,0.85,0.69,0.82,0.76,0.62,0.77],[null,null,0,0,1.5,0,null,2.4,1.1,null,0,null,0.7,null,2.3,0,0,0.7,null,0,0,0,0,null,null,0,null,null,1.1,null,null,0.7],[null,null,3,4.7,12.5,4.8,null,7.1,10.1,null,13.2,null,10.5,null,20.9,1.1,11.4,11.5,null,9.6,13,2.2,4.1,null,null,8.8,null,null,15.1,null,null,4.3],[null,0,0,null,0.1,0,null,0,1.4,0,0,0,0.2,null,null,null,null,0.3,null,null,null,0,null,null,null,null,null,null,0,null,null,1.6],[null,0,0,null,23.5,0,null,0,33.9,0,0,36.4,26.5,null,null,null,null,25.3,null,null,null,0,null,null,null,null,null,null,8.2,null,null,0],[38.5,23.3,34.2,28.8,33.8,31.1,null,39.2,28.3,37.5,31.9,24.2,31.6,31,37.4,23,26.2,32,38.6,43.2,26.1,24,24.1,null,38.6,30.4,32.4,34.1,33.6,25,14.9,30.7],[34.6,48.3,54.2,51.9,40.5,43.6,null,30.4,46,28.1,39.4,51.6,45.4,38.1,30.8,62.1,44.6,42.4,40.4,33.7,47.7,52.7,61.4,null,38.6,55.1,45.9,50,38.5,52.3,70.2,50.6],[1.86,2.07,1.82,1.62,1.78,1.81,2.1,1.88,1.74,2.56,1.77,2.14,1.81,2,2.12,1.73,1.86,1.77,1.97,1.83,1.91,1.65,1.69,1.73,1.91,2.03,1.68,1.69,2,2,1.68,1.79],[null,0,0,null,21.2,2.9,null,6.7,8.6,13.3,0,0,11.9,null,null,null,null,22.3,null,null,null,0,null,null,null,null,null,null,4.1,null,null,51.6],[null,0,0,null,7.3,83.3,null,0,7.4,0,0,0,6.4,null,null,null,null,7.6,null,null,null,0,null,null,null,null,null,null,0,null,null,0],[null,83.3,9.1,null,67.1,93.1,null,60,76.3,6.7,4.8,45.5,81.5,null,null,null,null,70,null,null,null,35.7,null,null,null,null,null,null,69.1,null,null,25.8],[165.8,127.6,133.3,119.6,76.9,132.2,212.5,144.1,83.6,166.7,121.1,163.2,90.6,120,115.4,115.7,119.2,66.4,97,113.1,138.5,126.3,111.8,173.7,139.4,135.1,166.7,143.2,92.4,113.9,173.1,135.9],[0,1.4,1.5,0.9,2,11.8,0,17.5,1.2,0,1,0,1.7,4.2,2.1,0.6,0,3.4,0,0,0,0.6,1.1,3.3,2.2,0,0,0,3,2.4,0,1.4],[78.8,66.2,66.2,66.2,66.2,66.2,66.2,78.8,78.8,78.8,78.8,78.8,73.6,73.6,68.1,73.6,73.6,68.1,68.1,68.1,68.1,68.1,68.1,68.1,68.1,68.1,68.1,68.1,68.1,68.1,68.1,68.1],[null,null,null,null,592,null,null,null,485,null,null,null,1338,null,null,null,null,451,null,null,null,null,null,null,null,null,null,null,522,null,null,null],[0.1,0,0.1,0,0.1,0.1,0,0.1,0.1,0,0.1,0,0.1,0.5,0.3,0,0.1,0.1,0,0.1,0,0,0,0,0.1,0.1,0.1,0.1,0,0,0,0.1],[21.8,17.4,17.2,17.4,16.5,16.6,17.1,20,22.6,23.7,21.3,22.4,17.2,17.1,17.1,17.4,17.4,17.2,17.4,17.3,17.4,18.7,18.9,17.2,17.1,17.1,17.2,17.4,17.2,17.4,17,17],[0,0,0,0,0,0,0,0,0,0,0,0,0,0,0,0,0,0,0,0,0,0,0,0,0,0,0,0,0,0,0,0],[0,0,0,0,0,0,0,0,0,0,0,0,0,0,0,0,0,0,0,0,0,0,0,0,0,0,0,0,0,0,0,0],[0,0,0,0,0,0,0,0,0,0,0,0,0,0,0,0,0,0,0,0,0,0,0,0,0,0,0,0,0,0,0,0],[0,0,0,0,0,0,0,0,0,0,0,0,0,0,0,0,0,0,0,0,0,0,0,0,0,0,0,0,0,0,0,0],[0,0,0,0,0,0,0,0,0,0,0,0,0,0,0,0,0,0,0,0,0,0,0,0,0,0,0,0,0,0,0,0],[0,0,0,0,0.1,0,0,0,0,0,0,0,0.1,0,0,0,0,0.1,0,0,0,0,0,0,0,0,0,0,0,0,0,0],[null,null,37.9,50,50.3,47.6,null,50,49.9,null,49.1,null,47.5,null,34.9,45.2,42.9,50.8,null,42.3,41.3,48.4,53.1,null,null,38.2,null,null,40.7,null,null,41.4],[null,null,null,null,null,null,null,null,null,null,null,null,null,null,null,null,null,null,null,null,null,null,null,null,null,null,null,null,null,null,null,null],[null,null,null,null,null,null,null,null,null,null,null,null,null,null,null,null,null,null,null,null,null,null,null,null,null,null,null,null,null,null,null,null],[76,76,76,76,78,76,76,76,76,76,76,76,78,76,76,76,76,78,76,76,76,76,76,76,76,76,76,76,76,76,76,76],[12.8,11.1,null,3.2,0.7,4.4,null,4.2,3.1,10.4,7.1,null,1.9,null,14.7,null,5.1,2.1,null,7,3.8,4.4,4,null,null,24.2,null,null,3.4,null,null,6.6],[null,null,null,null,-26.2,null,null,null,null,null,null,null,37.7,null,null,null,null,-15.5,null,null,null,null,null,null,null,null,null,null,null,null,null,null],[null,null,null,null,61.2,null,null,null,57.3,null,null,null,null,null,null,null,null,58.9,null,null,null,null,null,null,null,null,null,null,null,null,null,null],[0.12,0.04,0.02,0.03,0.13,0.13,0.11,0.42,0.25,0.07,0.24,0.19,0.18,0.11,0.1,0.04,0.01,0.24,0.38,0.23,0.14,0.2,0.06,0.1,0.09,0.06,0.13,0.09,0.13,0.27,0.23,0.09],[40,40,40,40,40,40,40,40,40,40,40,40,40,40,40,40,40,40,40,40,40,40,40,40,40,40,40,40,40,40,40,40],[59.4,64.3,64.3,64.3,64.3,64.3,64.3,59.4,59.4,59.4,59.4,59.4,56.6,56.6,58.4,56.6,56.6,58.4,58.4,58.4,58.4,58.4,58.4,58.4,58.4,58.4,58.4,58.4,58.4,58.4,58.4,58.4],[0.646,0.576,0.576,0.576,0.576,0.576,0.576,0.646,0.646,0.646,0.646,0.646,0.665,0.665,0.63,0.665,0.665,0.63,0.63,0.63,0.63,0.63,0.63,0.63,0.63,0.63,0.63,0.63,0.63,0.63,0.63,0.63],[70,41,41,41,41,41,41,70,70,70,70,70,43,43,74,43,43,74,74,74,74,74,74,74,74,74,74,74,74,74,74,74],[0,0,0,0,0,0,0,0,0,0,0,0,0,0,0,0,0,0,0,0,0,0,0,0,0,0,0,0,0,0,0,0],[34,44.3,57,23.4,23.8,49,43.8,47.4,35.5,52.7,53.7,34.4,51.9,36.6,64.8,54.5,61,30.5,24.2,56.2,35.1,49.2,48.2,51.8,42.6,44.5,44.2,36.8,51,19,43.8,37],[null,null,null,null,null,null,null,null,null,null,null,null,null,null,null,null,null,null,null,null,null,null,null,null,null,null,null,null,null,null,null,null],[0,0,0,0,0,0,0,0.1,0,0,0,0,0.1,0,0,0,0,0,0.2,0,0,0,0,0,0,0,0,0,0,0,0,0],[0,0,0,0,0,0,0,0,0,0,0,0,0,0,0,0,0,0,0,0,0,0,0,0,0,0,0,0,0,0,0,0],[1981,1981,1981,1981,1979,1981,1984,1980,1979,1981,1980,1981,1979,1980,1981,1980,1980,1979,1981,1981,1982,1982,1981,1983,1982,1982,1983,1982,1980,1981,1983,1982],[[[2021,22865],[2022,23186],[2023,23101],[2024,24435],[2025,25187],[2026,23536]],[[2021,18640],[2022,17618],[2023,19117],[2024,17700],[2025,17248],[2026,17934]],[[2021,17073],[2022,16049],[2023,17769],[2024,17898],[2025,20297],[2026,21108]],[[2021,18016],[2022,18045],[2023,18235],[2024,20231],[2025,21913],[2026,20632]],[[2021,18938],[2022,18988],[2023,19675],[2024,20286],[2025,21685],[2026,22433]],[[2021,18681],[2022,18566],[2023,17604],[2024,19201],[2025,20554],[2026,20872]],null,[[2021,15805],[2022,17597],[2023,18704],[2024,18620],[2025,18536],[2026,21498]],[[2021,17811],[2022,18299],[2023,18707],[2024,19278],[2025,20459],[2026,21362]],[[2021,17612],[2022,18104],[2023,18759],[2024,20065],[2025,20646],[2026,21566]],[[2021,15322],[2022,15488],[2023,16018],[2024,16865],[2025,19456],[2026,20764]],[[2021,18744],[2022,18962],[2023,20395],[2024,21063],[2025,21255],[2026,19702]],[[2021,17903],[2022,17803],[2023,18506],[2024,18996],[2025,20637],[2026,21809]],[[2021,20266],[2022,20848],[2023,20638],[2024,25276],[2025,23677],[2026,26342]],[[2021,19701],[2022,20582],[2023,19670],[2024,20749],[2025,24078],[2026,22214]],[[2021,15939],[2022,16054],[2023,15769],[2024,16239],[2025,17154],[2026,17180]],[[2021,14604],[2022,17930],[2023,19494],[2024,19220],[2025,21614],[2026,22947]],[[2021,19267],[2022,19233],[2023,19519],[2024,20192],[2025,21627],[2026,22331]],[[2021,17925],[2022,18235],[2023,19984],[2024,20972],[2025,21251],[2026,21135]],[[2021,21143],[2022,22405],[2023,21534],[2024,22103],[2025,24529],[2026,25234]],[[2021,17395],[2022,16821],[2023,17380],[2024,17181],[2025,17948],[2026,18016]],[[2021,14684],[2022,15217],[2023,15880],[2024,15849],[2025,18193],[2026,17701]],[[2021,15058],[2022,15231],[2023,15270],[2024,15947],[2025,16969],[2026,18250]],null,[[2021,17091],[2022,20951],[2023,18627],[2024,21000],[2025,19775],[2026,23893]],[[2021,14787],[2022,15623],[2023,15374],[2024,16304],[2025,15713],[2026,16399]],[[2021,15077],[2022,15141],[2023,15098],[2024,14851],[2025,16521],[2026,17657]],[[2021,16720],[2022,17473],[2023,20367],[2024,19802],[2025,19969],[2026,18593]],[[2021,19523],[2022,19132],[2023,19817],[2024,20452],[2025,22015],[2026,22920]],[[2021,15702],[2022,16735],[2023,17310],[2024,15495],[2025,19500],[2026,18777]],[[2021,14288],[2022,14709],[2023,14094],[2024,14009],[2025,16053],[2026,16878]],[[2021,16621],[2022,17027],[2023,17430],[2024,18667],[2025,19181],[2026,20964]]],[[[2021,50],[2022,48],[2023,49],[2024,48],[2025,52],[2026,52]],[[2021,70],[2022,71],[2023,62],[2024,63],[2025,61],[2026,60]],[[2021,137],[2022,131],[2023,132],[2024,125],[2025,125],[2026,120]],[[2021,116],[2022,112],[2023,112],[2024,110],[2025,102],[2026,104]],[[2021,7474],[2022,7351],[2023,7250],[2024,7108],[2025,6956],[2026,6869]],[[2021,289],[2022,272],[2023,266],[2024,246],[2025,230],[2026,225]],[[2021,24],[2022,26],[2023,24],[2024,22],[2025,21],[2026,21]],[[2021,84],[2022,80],[2023,84],[2024,80],[2025,79],[2026,79]],[[2021,2100],[2022,2071],[2023,2029],[2024,1969],[2025,1938],[2026,1928]],[[2021,68],[2022,73],[2023,68],[2024,68],[2025,65],[2026,64]],[[2021,103],[2022,104],[2023,105],[2024,104],[2025,98],[2026,94]],[[2021,62],[2022,55],[2023,51],[2024,57],[2025,67],[2026,62]],[[2021,1965],[2022,1900],[2023,1842],[2024,1815],[2025,1784],[2026,1729]],[[2021,43],[2022,48],[2023,47],[2024,43],[2025,41],[2026,42]],[[2021,98],[2022,97],[2023,96],[2024,89],[2025,90],[2026,91]],[[2021,183],[2022,174],[2023,177],[2024,170],[2025,168],[2026,161]],[[2021,69],[2022,64],[2023,63],[2024,61],[2025,67],[2026,65]],[[2021,4988],[2022,4914],[2023,4887],[2024,4804],[2025,4651],[2026,4557]],[[2021,53],[2022,58],[2023,53],[2024,55],[2025,56],[2026,57]],[[2021,98],[2022,101],[2023,103],[2024,100],[2025,100],[2026,95]],[[2021,103],[2022,100],[2023,91],[2024,93],[2025,88],[2026,88]],[[2021,193],[2022,180],[2023,176],[2024,161],[2025,163],[2026,150]],[[2021,91],[2022,92],[2023,90],[2024,88],[2025,86],[2026,83]],[[2021,28],[2022,30],[2023,28],[2024,27],[2025,25],[2026,26]],[[2021,50],[2022,46],[2023,47],[2024,44],[2025,41],[2026,44]],[[2021,79],[2022,73],[2023,72],[2024,68],[2025,67],[2026,69]],[[2021,39],[2022,39],[2023,38],[2024,42],[2025,41],[2026,37]],[[2021,60],[2022,55],[2023,51],[2024,50],[2025,48],[2026,44]],[[2021,1346],[2022,1322],[2023,1310],[2024,1300],[2025,1295],[2026,1280]],[[2021,43],[2022,41],[2023,44],[2024,42],[2025,42],[2026,44]],[[2021,55],[2022,54],[2023,53],[2024,55],[2025,50],[2026,47]],[[2021,305],[2022,295],[2023,278],[2024,267],[2025,252],[2026,251]]],[[[2021,8],[2022,2.1],[2023,8.2],[2024,8.3],[2025,15.4],[2026,7.7]],[[2021,8.6],[2022,4.2],[2023,4.8],[2024,6.3],[2025,3.3],[2026,8.3]],[[2021,8.8],[2022,7.6],[2023,9.8],[2024,8],[2025,3.2],[2026,2.5]],[[2021,6.9],[2022,3.6],[2023,6.2],[2024,4.5],[2025,3.9],[2026,4.8]],[[2021,5.9],[2022,5.3],[2023,4.7],[2024,4.7],[2025,4.7],[2026,5.4]],[[2021,8.7],[2022,8.5],[2023,8.3],[2024,6.9],[2025,9.6],[2026,5.3]],null,[[2021,8.3],[2022,3.8],[2023,7.1],[2024,12.5],[2025,12.7],[2026,11.4]],[[2021,7],[2022,6.2],[2023,5.9],[2024,7.1],[2025,7.2],[2026,7.9]],[[2021,4.4],[2022,5.5],[2023,4.4],[2024,4.4],[2025,1.5],[2026,0]],[[2021,5.8],[2022,3.8],[2023,5.7],[2024,5.8],[2025,4.1],[2026,4.3]],[[2021,8.1],[2022,9.1],[2023,2],[2024,7],[2025,7.5],[2026,6.5]],[[2021,4.7],[2022,4.7],[2023,4.6],[2024,4.8],[2025,4.7],[2026,4.7]],[[2021,2.3],[2022,2.1],[2023,2.1],[2024,4.7],[2025,0],[2026,9.5]],[[2021,9.2],[2022,9.3],[2023,5.2],[2024,3.4],[2025,6.7],[2026,11]],[[2021,8.7],[2022,4.6],[2023,5.6],[2024,7.6],[2025,5.4],[2026,5]],[[2021,2.9],[2022,4.7],[2023,6.3],[2024,8.2],[2025,6],[2026,6.2]],[[2021,6.2],[2022,6.1],[2023,5],[2024,4.3],[2025,4.9],[2026,5.4]],[[2021,9.4],[2022,1.7],[2023,3.8],[2024,5.5],[2025,7.1],[2026,5.3]],[[2021,9.2],[2022,6.9],[2023,4.9],[2024,6],[2025,2],[2026,6.3]],[[2021,9.7],[2022,7],[2023,6.6],[2024,5.4],[2025,5.7],[2026,3.4]],[[2021,9.8],[2022,11.1],[2023,9.7],[2024,5.6],[2025,9.8],[2026,14]],[[2021,7.7],[2022,8.7],[2023,6.7],[2024,9.1],[2025,7],[2026,9.6]],null,[[2021,12],[2022,10.9],[2023,10.6],[2024,6.8],[2025,9.8],[2026,13.6]],[[2021,5.1],[2022,5.5],[2023,5.6],[2024,4.4],[2025,6],[2026,4.3]],[[2021,12.8],[2022,5.1],[2023,5.3],[2024,0],[2025,7.3],[2026,8.1]],[[2021,11.7],[2022,12.7],[2023,13.7],[2024,10],[2025,10.4],[2026,11.4]],[[2021,6.1],[2022,4.8],[2023,5],[2024,4.4],[2025,5.5],[2026,6.2]],[[2021,4.7],[2022,2.4],[2023,0],[2024,4.8],[2025,2.4],[2026,9.1]],[[2021,3.6],[2022,5.6],[2023,3.8],[2024,7.3],[2025,4],[2026,6.4]],[[2021,5.9],[2022,5.1],[2023,7.9],[2024,7.5],[2025,7.1],[2026,7.6]]],[2.9,-3.8,23.6,14.5,18.5,11.7,null,36,19.9,22.5,35.5,5.1,21.8,30,12.8,7.8,57.1,15.9,17.9,19.3,3.6,20.5,21.2,null,39.8,10.9,17.1,11.2,17.4,19.6,18.1,26.1],[4,-14.3,-12.4,-10.3,-8.1,-22.1,-12.5,-6,-8.2,-5.9,-8.7,0,-12,-2.3,-7.1,-12,-5.8,-8.6,7.5,-3.1,-14.6,-22.3,-8.8,-7.1,-12,-12.7,-5.1,-26.7,-4.9,2.3,-14.5,-17.7],[-3.7,-3.5,-71.6,-30.4,-8.5,-39.1,null,37.3,12.9,-100,-25.9,-19.8,0,313,19.6,-42.5,113.8,-12.9,-43.6,-31.5,-64.9,42.9,24.7,null,13.3,-15.7,-36.7,-2.6,1.6,93.6,77.8,28.8],[null,null,null,null,[{"name":"Kuhmon yhteislukio","score":61.2}],null,null,null,[{"name":"Puolangan lukio","score":57.3}],null,null,null,null,null,null,null,null,[{"name":"Suomussalmen lukio","score":58.9}],null,null,null,null,null,null,null,null,null,null,null,null,null,null],[[[2020,97.5],[2021,98.5],[2022,72.3],[2023,75.5],[2024,65.2],[2025,78.8]],[[2020,70.7],[2021,67.5],[2022,72.4],[2023,97.8],[2024,59],[2025,66.2]],[[2020,70.7],[2021,67.5],[2022,72.4],[2023,97.8],[2024,59],[2025,66.2]],[[2020,70.7],[2021,67.5],[2022,72.4],[2023,97.8],[2024,59],[2025,66.2]],[[2020,70.7],[2021,67.5],[2022,72.4],[2023,97.8],[2024,59],[2025,66.2]],[[2020,70.7],[2021,67.5],[2022,72.4],[2023,97.8],[2024,59],[2025,66.2]],[[2020,70.7],[2021,67.5],[2022,72.4],[2023,97.8],[2024,59],[2025,66.2]],[[2020,97.5],[2021,98.5],[2022,72.3],[2023,75.5],[2024,65.2],[2025,78.8]],[[2020,97.5],[2021,98.5],[2022,72.3],[2023,75.5],[2024,65.2],[2025,78.8]],[[2020,97.5],[2021,98.5],[2022,72.3],[2023,75.5],[2024,65.2],[2025,78.8]],[[2020,97.5],[2021,98.5],[2022,72.3],[2023,75.5],[2024,65.2],[2025,78.8]],[[2020,97.5],[2021,98.5],[2022,72.3],[2023,75.5],[2024,65.2],[2025,78.8]],[[2020,72.3],[2021,71.1],[2022,56.8],[2023,54.8],[2024,57.4],[2025,73.6]],[[2020,72.3],[2021,71.1],[2022,56.8],[2023,54.8],[2024,57.4],[2025,73.6]],[[2020,81.7],[2021,85.2],[2022,68.4],[2023,68.6],[2024,74.3],[2025,68.1]],[[2020,72.3],[2021,71.1],[2022,56.8],[2023,54.8],[2024,57.4],[2025,73.6]],[[2020,72.3],[2021,71.1],[2022,56.8],[2023,54.8],[2024,57.4],[2025,73.6]],[[2020,81.7],[2021,85.2],[2022,68.4],[2023,68.6],[2024,74.3],[2025,68.1]],[[2020,81.7],[2021,85.2],[2022,68.4],[2023,68.6],[2024,74.3],[2025,68.1]],[[2020,81.7],[2021,85.2],[2022,68.4],[2023,68.6],[2024,74.3],[2025,68.1]],[[2020,81.7],[2021,85.2],[2022,68.4],[2023,68.6],[2024,74.3],[2025,68.1]],[[2020,81.7],[2021,85.2],[2022,68.4],[2023,68.6],[2024,74.3],[2025,68.1]],[[2020,81.7],[2021,85.2],[2022,68.4],[2023,68.6],[2024,74.3],[2025,68.1]],[[2020,81.7],[2021,85.2],[2022,68.4],[2023,68.6],[2024,74.3],[2025,68.1]],[[2020,81.7],[2021,85.2],[2022,68.4],[2023,68.6],[2024,74.3],[2025,68.1]],[[2020,81.7],[2021,85.2],[2022,68.4],[2023,68.6],[2024,74.3],[2025,68.1]],[[2020,81.7],[2021,85.2],[2022,68.4],[2023,68.6],[2024,74.3],[2025,68.1]],[[2020,81.7],[2021,85.2],[2022,68.4],[2023,68.6],[2024,74.3],[2025,68.1]],[[2020,81.7],[2021,85.2],[2022,68.4],[2023,68.6],[2024,74.3],[2025,68.1]],[[2020,81.7],[2021,85.2],[2022,68.4],[2023,68.6],[2024,74.3],[2025,68.1]],[[2020,81.7],[2021,85.2],[2022,68.4],[2023,68.6],[2024,74.3],[2025,68.1]],[[2020,81.7],[2021,85.2],[2022,68.4],[2023,68.6],[2024,74.3],[2025,68.1]]],[-19.2,-6.4,-6.4,-6.4,-6.4,-6.4,-6.4,-19.2,-19.2,-19.2,-19.2,-19.2,1.8,1.8,-16.6,1.8,1.8,-16.6,-16.6,-16.6,-16.6,-16.6,-16.6,-16.6,-16.6,-16.6,-16.6,-16.6,-16.6,-16.6,-16.6,-16.6],[128.7,112.7,112.7,112.7,112.7,112.7,112.7,128.7,128.7,128.7,128.7,128.7,121.8,121.8,106.3,121.8,121.8,106.3,106.3,106.3,106.3,106.3,106.3,106.3,106.3,106.3,106.3,106.3,106.3,106.3,106.3,106.3],[null,null,null,null,71,null,null,null,70,null,null,null,77,null,null,null,null,89,null,null,null,null,null,null,null,null,null,null,75,null,null,106],["Puolanka","Kuhmo","Kuhmo","Kuhmo","Kuhmo","Kuhmo","Kuhmo","Puolanka","Puolanka","Puolanka","Puolanka","Puolanka","Hyrynsalmi","Hyrynsalmi","Suomussalmi","Hyrynsalmi","Hyrynsalmi","Suomussalmi","Suomussalmi","Suomussalmi","Suomussalmi","Suomussalmi","Suomussalmi","Suomussalmi","Suomussalmi","Suomussalmi","Suomussalmi","Suomussalmi","Suomussalmi","Suomussalmi","Suomussalmi","Suomussalmi"],[27.68805,29.08566,29.43601,29.12688,29.81302,29.91046,29.62804,27.92971,27.71392,27.31203,28.0526,28.09984,28.56385,28.63329,28.7717,29.13465,29.05419,29.00163,29.2442,28.59976,28.59333,28.42219,28.31564,28.85148,29.05998,28.98243,29.07325,28.73898,29.33112,29.5385,29.93936,29.73489],[64.57373,64.44895,64.4269,64.31003,64.0927,64.46644,64.57517,64.67078,64.78324,64.7078,65.03564,65.16161,64.68782,64.71791,64.78234,64.5932,64.51002,64.83676,64.71224,64.95744,65.0612,65.2235,65.1136,65.19031,65.16144,65.28534,65.43017,65.36475,64.95958,64.73665,64.71071,65.22577],[null,null,null,null,6.56,null,null,null,null,null,null,null,1.69,8.78,null,null,null,4.35,null,null,null,null,null,null,17.08,0.02,null,null,11.71,22.35,0.64,1.42],[-20.6,-22.7,-22.7,-22.7,-22.7,-22.7,-22.7,-20.6,-20.6,-20.6,-20.6,-20.6,-22.5,-22.5,-23.2,-22.5,-22.5,-23.2,-23.2,-23.2,-23.2,-23.2,-23.2,-23.2,-23.2,-23.2,-23.2,-23.2,-23.2,-23.2,-23.2,-23.2],[2.6,3.6,3.6,3.6,3.6,3.6,3.6,2.6,2.6,2.6,2.6,2.6,1,1,1.4,1,1,1.4,1.4,1.4,1.4,1.4,1.4,1.4,1.4,1.4,1.4,1.4,1.4,1.4,1.4,1.4],[null,null,null,null,null,null,null,null,null,null,null,null,null,null,null,null,null,null,null,null,null,null,null,null,null,null,null,null,null,null,null,null],[57.6,60.6,60.6,60.6,60.6,60.6,60.6,57.6,57.6,57.6,57.6,57.6,59.1,59.1,55.6,59.1,59.1,55.6,55.6,55.6,55.6,55.6,55.6,55.6,55.6,55.6,55.6,55.6,55.6,55.6,55.6,55.6],[5.4,3.7,3.7,3.7,3.7,3.7,3.7,5.4,5.4,5.4,5.4,5.4,4.9,4.9,7,4.9,4.9,7,7,7,7,7,7,7,7,7,7,7,7,7,7,7],[8.1,11.2,11.2,11.2,11.2,11.2,11.2,8.1,8.1,8.1,8.1,8.1,8.8,8.8,5.7,8.8,8.8,5.7,5.7,5.7,5.7,5.7,5.7,5.7,5.7,5.7,5.7,5.7,5.7,5.7,5.7,5.7],[25.6,28.8,28.8,28.8,28.8,28.8,28.8,25.6,25.6,25.6,25.6,25.6,30.6,30.6,24.5,30.6,30.6,24.5,24.5,24.5,24.5,24.5,24.5,24.5,24.5,24.5,24.5,24.5,24.5,24.5,24.5,24.5],[38,42.4,42.4,42.4,42.4,42.4,42.4,38,38,38,38,38,33.7,33.7,35.6,33.7,33.7,35.6,35.6,35.6,35.6,35.6,35.6,35.6,35.6,35.6,35.6,35.6,35.6,35.6,35.6,35.6],[1.9,1.7,1.7,1.7,1.7,1.7,1.7,1.9,1.9,1.9,1.9,1.9,1.2,1.2,1.4,1.2,1.2,1.4,1.4,1.4,1.4,1.4,1.4,1.4,1.4,1.4,1.4,1.4,1.4,1.4,1.4,1.4],[13.3,6.1,6.1,6.1,6.1,6.1,6.1,13.3,13.3,13.3,13.3,13.3,13.3,13.3,19.6,13.3,13.3,19.6,19.6,19.6,19.6,19.6,19.6,19.6,19.6,19.6,19.6,19.6,19.6,19.6,19.6,19.6],[0.2,null,null,null,null,null,null,0.2,0.2,0.2,0.2,0.2,0.1,0.1,0.1,0.1,0.1,0.1,0.1,0.1,0.1,0.1,0.1,0.1,0.1,0.1,0.1,0.1,0.1,0.1,0.1,0.1],[4,3.6,3.6,3.6,3.6,3.6,3.6,4,4,4,4,4,2.3,2.3,3.8,2.3,2.3,3.8,3.8,3.8,3.8,3.8,3.8,3.8,3.8,3.8,3.8,3.8,3.8,3.8,3.8,3.8],["[[2020, 0.0], [2021, 0.0], [2022, 0.0], [2023, 0.0], [2024, 0.0], [2025, 0.0]]","[[2020, 1.4], [2021, 1.5], [2022, 1.6], [2023, 1.7], [2024, 2.1], [2025, 2.2]]","[[2020, 1.5], [2021, 1.6], [2022, 1.7], [2023, 1.8], [2024, 2.2], [2025, 2.3]]","[[2020, 0.9], [2021, 1.0], [2022, 1.0], [2023, 1.1], [2024, 1.3], [2025, 1.4]]","[[2020, 2.0], [2021, 2.2], [2022, 2.3], [2023, 2.4], [2024, 3.0], [2025, 3.1]]","[[2020, 11.8], [2021, 12.8], [2022, 13.3], [2023, 14.4], [2024, 17.4], [2025, 18.5]]","[[2020, 0.0], [2021, 0.0], [2022, 0.0], [2023, 0.0], [2024, 0.0], [2025, 0.0]]","[[2020, 17.5], [2021, 17.5], [2022, 18.5], [2023, 25.7], [2024, 37.1], [2025, 41.2]]","[[2020, 1.2], [2021, 1.2], [2022, 1.3], [2023, 1.8], [2024, 2.5], [2025, 2.8]]","[[2020, 0.0], [2021, 0.0], [2022, 0.0], [2023, 0.0], [2024, 0.0], [2025, 0.0]]","[[2020, 1.0], [2021, 1.0], [2022, 1.1], [2023, 1.5], [2024, 2.1], [2025, 2.4]]","[[2020, 0.0], [2021, 0.0], [2022, 0.0], [2023, 0.0], [2024, 0.0], [2025, 0.0]]","[[2020, 1.7], [2021, 1.7], [2022, 2.0], [2023, 2.1], [2024, 2.1], [2025, 2.3]]","[[2020, 4.2], [2021, 4.2], [2022, 4.9], [2023, 5.2], [2024, 5.2], [2025, 5.7]]","[[2020, 2.1], [2021, 2.2], [2022, 2.4], [2023, 2.3], [2024, 2.5], [2025, 2.8]]","[[2020, 0.6], [2021, 0.6], [2022, 0.7], [2023, 0.7], [2024, 0.7], [2025, 0.8]]","[[2020, 0.0], [2021, 0.0], [2022, 0.0], [2023, 0.0], [2024, 0.0], [2025, 0.0]]","[[2020, 3.4], [2021, 3.6], [2022, 3.9], [2023, 3.8], [2024, 4.1], [2025, 4.5]]","[[2020, 0.0], [2021, 0.0], [2022, 0.0], [2023, 0.0], [2024, 0.0], [2025, 0.0]]","[[2020, 0.0], [2021, 0.0], [2022, 0.0], [2023, 0.0], [2024, 0.0], [2025, 0.0]]","[[2020, 0.0], [2021, 0.0], [2022, 0.0], [2023, 0.0], [2024, 0.0], [2025, 0.0]]","[[2020, 0.6], [2021, 0.6], [2022, 0.7], [2023, 0.7], [2024, 0.7], [2025, 0.8]]","[[2020, 1.1], [2021, 1.2], [2022, 1.3], [2023, 1.2], [2024, 1.3], [2025, 1.4]]","[[2020, 3.3], [2021, 3.5], [2022, 3.8], [2023, 3.6], [2024, 4.0], [2025, 4.3]]","[[2020, 2.2], [2021, 2.4], [2022, 2.5], [2023, 2.4], [2024, 2.7], [2025, 2.9]]","[[2020, 0.0], [2021, 0.0], [2022, 0.0], [2023, 0.0], [2024, 0.0], [2025, 0.0]]","[[2020, 0.0], [2021, 0.0], [2022, 0.0], [2023, 0.0], [2024, 0.0], [2025, 0.0]]","[[2020, 0.0], [2021, 0.0], [2022, 0.0], [2023, 0.0], [2024, 0.0], [2025, 0.0]]","[[2020, 3.0], [2021, 3.2], [2022, 3.4], [2023, 3.3], [2024, 3.6], [2025, 3.9]]","[[2020, 2.4], [2021, 2.6], [2022, 2.7], [2023, 2.6], [2024, 2.9], [2025, 3.1]]","[[2020, 0.0], [2021, 0.0], [2022, 0.0], [2023, 0.0], [2024, 0.0], [2025, 0.0]]","[[2020, 1.4], [2021, 1.5], [2022, 1.6], [2023, 1.5], [2024, 1.7], [2025, 1.8]]"],[0,2.2,2.3,1.4,3.1,18.5,0,41.2,2.8,0,2.4,0,2.3,5.7,2.8,0.8,0,4.5,0,0,0,0.8,1.4,4.3,2.9,0,0,0,3.9,3.1,0,1.8],[26.1,40,28.4,33,22.5,32.7,null,36,25.3,15.6,34.2,29.4,25.1,17.1,29.2,43.6,28.6,21.4,29.6,20,38.5,38.8,37,null,23.3,49.2,41.7,33.3,24.6,30.2,48.9,25.9],[5,128.6,26.8,23.3,97.7,145.7,null,48.4,89.6,62.5,70,73.3,83,38.5,0,21.6,11.8,119.3,0,2.4,4.3,38.9,15,null,17.6,19,16.7,26.7,22.6,27.3,42.9,80.5],[null,null,null,null,[[2020,802],[2021,696],[2022,837],[2023,803],[2024,590],[2025,592]],null,null,null,null,null,null,null,[[2020,972],[2021,1338]],null,null,null,null,[[2020,534],[2021,615],[2022,642],[2023,701],[2024,451]],null,null,null,null,null,null,null,null,null,null,null,null,null,null]]}}