{"type":"Topology","objects":{"neighborhoods":{"type":"GeometryCollection","geometries":[{"type":"MultiPolygon","arcs":[[[0,1,2]]],"properties":{"i":0}},{"type":"MultiPolygon","arcs":[[[3,4]]],"properties":{"i":1}},{"type":"MultiPolygon","arcs":[[[5,-4,6,7,8,9]]],"properties":{"i":2}},{"type":"MultiPolygon","arcs":[[[10,11,-8]]],"properties":{"i":3}},{"type":"MultiPolygon","arcs":[[[12,13,-10,14,15,16]]],"properties":{"i":4}},{"type":"MultiPolygon","arcs":[[[-13,17]]],"properties":{"i":5}},{"type":"MultiPolygon","arcs":[[[-9,-12,18,19,20,21,22,-15]]],"properties":{"i":6}},{"type":"MultiPolygon","arcs":[[[-20,23,24,25,-3,26]]],"properties":{"i":7}},{"type":"MultiPolygon","arcs":[[[27,-25]]],"properties":{"i":8}},{"type":"MultiPolygon","arcs":[[[-2,28,-21,-27]]],"properties":{"i":9}},{"type":"MultiPolygon","arcs":[[[-16,-23,29]]],"properties":{"i":10}}]}},"arcs":[[[18163,33766],[-4190,-868],[-5239,1104],[-3099,2839],[-1455,66],[-1374,1963],[46,56],[-512,1940],[1196,2296],[-1563,4569],[-1973,2506],[1703,8292],[1481,287],[2319,6],[2613,931]],[[8116,59753],[1449,-1293],[1956,-1859],[-135,-2170],[971,-775],[1244,-2136],[1029,-1721],[1225,-707],[1345,-2189],[452,-2589],[1013,-147],[736,-950],[-143,-147],[8,-470],[97,-457],[1015,-760],[666,-1549],[1039,-1731],[1103,-846],[1810,-92]],[[24996,37165],[-1403,-2224],[-168,-1952],[-446,-747],[-743,-336],[-1932,1165],[156,502],[-703,533],[-996,166],[-598,-506]],[[80288,26984],[-1973,2408],[-100,2521],[1755,4063],[1032,3368],[2034,2266]],[[83036,41610],[3964,-2349],[1650,-1291],[356,-946],[14,-508],[-557,-1547],[-1211,-1823],[33,-5358],[-1229,-726],[-4548,-1315],[-1220,1237]],[[80597,44951],[1128,-1304],[1051,-1215],[260,-822]],[[80288,26984],[-783,-378],[-1334,-2223],[-674,-769],[-681,-1044],[-367,4],[-1346,17]],[[75103,22591],[-3108,546],[664,1827]],[[72659,24964],[726,1839],[-74,834],[-343,138],[-824,-223],[-1746,493],[-1929,2005],[-1546,398],[-321,53],[-500,544],[-9,358],[199,705],[687,242],[333,147],[623,417],[1390,823],[34,70],[1287,1462],[1740,314],[1589,329],[203,901],[-696,1162],[-412,352],[-1671,722],[-611,1275],[815,1126],[1306,1343],[418,2381],[-6,307],[-88,385]],[[73233,45866],[-443,1487],[512,573],[880,-532],[1220,-976],[704,-386],[656,-45],[698,46],[2997,-986],[140,-96]],[[75103,22591],[-73,-1632],[-33,-755],[-594,-607],[-259,-701],[-29,-1713],[-236,-1216],[-1492,-906],[-350,-873],[-994,-4120],[-1966,-3290]],[[69077,6778],[-3816,1026],[-1774,-730],[-1606,370],[121,490],[573,92],[41,140],[548,44],[1274,-113],[23,381],[-1003,-30],[-148,3738],[-138,2691],[-874,2282],[-2539,1762],[688,2601],[823,-908],[2718,-1463],[249,-1564],[1907,-1636],[1567,-518],[-808,-785],[142,-659],[-882,-2464],[594,-1877],[1899,-118],[771,3079],[414,740],[1541,2750],[-1231,879],[1009,466],[1978,202],[820,2852],[-2270,1731],[-3900,-226],[-1030,201],[-98,-1054],[-3041,773],[-141,555],[-1288,1517],[498,483],[1069,-582],[475,139],[370,-1156],[1169,-219],[1173,2697],[754,472],[3271,-801],[1690,-64]],[[82394,76642],[3527,-1757],[255,-6134],[-3607,-1230],[775,-1329],[1386,-136],[1503,-761],[282,-371],[294,-951],[2176,-1090],[783,-849]],[[89768,62034],[-1480,-2445],[-1423,-2686],[-1047,-575],[-63,616],[-944,103],[-612,-216],[-580,-593],[-106,-304],[-951,-1615],[121,-1592],[544,-2143],[279,-770],[1248,-1038],[228,-189],[0,-1],[11,-35],[77,-231],[19,-57],[74,-225],[62,-185],[40,-121],[43,-131],[1,-4],[-113,-109],[-293,-285],[-1776,-1364],[-1595,71],[-935,-959]],[[73233,45866],[-561,400],[-2576,683],[-6,11],[-859,171],[-1303,178],[-2302,314],[-1631,377],[-2076,496],[-1285,315],[-1082,303],[-346,97],[-303,84],[-2902,3103],[-130,85],[-176,115],[-2798,2031],[-3629,4113],[-351,376],[-310,2299],[-150,336],[-2905,542],[-225,1136],[340,5129],[-707,6810],[1425,1109]],[[46385,76479],[1529,-153],[176,47],[349,-6],[3349,-304],[1655,937],[2028,1434],[194,169],[193,321],[168,923],[37,174],[75,352],[82,715],[11,20],[189,570]],[[56420,81678],[5644,1399],[2619,1637],[4419,278],[-78,2656],[13,-6],[2448,201],[2296,187],[2382,-2711],[7,-17],[-545,-1093],[795,-2216],[1856,-4291],[1322,-602],[2796,-458]],[[82394,76642],[621,3779],[880,1047],[297,596],[3805,1932],[2557,-175],[2103,425],[1412,1768],[3493,-2446],[3,-16],[1864,-1237],[346,-574],[224,-524],[-65,-1651],[-367,-269],[-1119,-819],[-655,-479],[-62,-887],[4,-3],[14,-248],[11,-82],[-741,-7819],[-6,-13],[-93,-1679],[-1949,-2715],[-952,-676],[-2017,-1270],[-601,-640],[-877,-18],[-756,85]],[[69077,6778],[1493,-755],[1529,-2183],[1345,-988],[-1499,-947],[-1001,-1277],[-492,-628],[-7552,4192],[-3662,1982],[-820,489],[-799,769],[-363,-89],[-1056,472],[-227,1295],[-1160,675],[-29,834],[-296,438],[-994,-590],[701,-2487],[1193,-221],[-9,-345],[-878,-323],[-576,-535],[-296,-236],[595,-660],[894,-179],[-383,-830],[-430,-669],[-1112,-775],[-276,4266],[-600,2869],[1173,1190],[601,2281],[-1033,1713],[-1283,590],[-3495,1055],[-2733,882],[-522,168],[-1587,1430],[-2048,2938],[-38,54]],[[41352,22643],[-485,1418],[-540,2010],[1075,663],[2216,-517],[1276,2863],[-984,1273],[-568,1629],[-94,1483],[-1453,2359],[-1532,2440],[63,1946]],[[40326,40210],[1270,980],[733,2928],[-609,10413],[-275,1908],[-2274,151],[1,2008],[-3964,-29],[-3104,462],[-2531,1596],[-2133,2911],[-508,1626],[-950,1313],[-1051,1451]],[[24931,67928],[2011,3462],[1147,756],[290,446],[943,-296],[-424,-398],[189,-587],[1475,93],[1941,-2054],[1829,488],[977,903],[78,406],[-242,438],[584,542],[606,564],[3243,3009],[5579,1587]],[[45157,77287],[1228,-808]],[[41352,22643],[-18,-21],[-2506,-2234],[-3915,-676]],[[34913,19712],[-168,185],[-662,727],[-1188,1362],[-523,542],[-216,713],[-1677,-687],[-639,1142],[1509,218],[549,937],[261,668],[-178,506],[-1051,83],[-3005,329],[-1208,344],[-1485,1514],[-83,404],[-16,721],[-687,423],[-799,-229],[-3441,-325],[-744,-71]],[[19462,29218],[-357,826],[-620,1990],[-401,1321],[79,411]],[[24996,37165],[930,1163],[1881,731],[1526,75],[1117,-83],[602,365],[2360,1196],[1730,204],[3222,-229],[1962,-377]],[[34913,19712],[-1343,-790],[-109,-64],[-252,-148],[-143,-92],[-1400,-905],[-281,-182],[-616,-398],[-272,-176],[-818,294],[-1054,171],[-1037,-188],[-2654,-597],[483,1293],[143,385],[-64,68],[-156,163],[-1149,1205],[-82,17],[-932,199],[-1809,-1751],[-903,567],[1365,653],[203,1459],[-92,554],[-66,804],[-103,1241],[-777,1797],[-47,108],[-1486,3819]],[[8116,59753],[592,2628],[1450,1627],[1588,-418],[1006,-3036],[1332,476],[-500,1233],[690,1994],[-356,2047],[-162,2797],[894,-47],[4166,-219],[-164,-1278],[4866,-337],[1323,664],[90,44]],[[45157,77287],[-8506,15813],[6569,6899],[2104,-172],[332,-27],[272,-360],[160,-212],[1099,-1457],[232,-308],[2271,-3822],[1334,293],[-212,-2183],[-72,-483],[5680,-9590]]],"bbox":[24.036738097805184,62.0583088543187,25.21826742249981,62.669124009869826],"transform":{"scale":[0.000011815411401060272,0.000006108212637637604],"translate":[24.036738097805184,62.0583088543187]},"propertiesColumnar":{"format":"columnar/1","keys":["id","postinumeroalue","nimi","namn","euref_x","euref_y","pinta_ala","vuosi","kunta","he_vakiy","he_naiset","he_miehet","he_kika","he_0_2","he_3_6","he_7_12","he_13_15","he_16_17","he_18_19","he_20_24","he_25_29","he_30_34","he_35_39","he_40_44","he_45_49","he_50_54","he_55_59","he_60_64","he_65_69","he_70_74","he_75_79","he_80_84","he_85_","ko_ika18y","ko_perus","ko_koul","ko_yliop","ko_ammat","ko_al_kork","ko_yl_kork","hr_tuy","hr_ktu","hr_mtu","hr_pi_tul","hr_ke_tul","hr_hy_tul","hr_ovy","te_taly","te_takk","te_as_valj","te_yks","te_nuor","te_eil_np","te_laps","te_plap","te_aklap","te_klap","te_teini","te_yhlap","te_aik","te_elak","te_omis_as","te_vuok_as","te_muu_as","tr_kuty","tr_ktu","tr_mtu","tr_pi_tul","tr_ke_tul","tr_hy_tul","tr_ovy","ra_ke","ra_raky","ra_muut","ra_asrak","ra_asunn","ra_as_kpa","ra_pt_as","ra_kt_as","ra_muu_as","tp_tyopy","tp_alku_a","tp_jalo_bf","tp_palv_gu","tp_a_maat","tp_b_kaiv","tp_c_teol","tp_d_ener","tp_e_vesi","tp_f_rake","tp_g_kaup","tp_h_kulj","tp_i_majo","tp_j_info","tp_k_raho","tp_l_kiin","tp_m_erik","tp_n_hall","tp_o_julk","tp_p_koul","tp_q_terv","tp_r_taid","tp_s_muup","tp_t_koti","tp_u_kans","tp_x_tunt","pt_vakiy","pt_tyoll","pt_tyott","pt_0_14","pt_opisk","pt_elakel","pt_muut","city","pno","unemployment_rate","higher_education_rate","pensioner_share","ownership_rate","rental_rate","population_density","child_ratio","student_share","detached_house_share","youth_ratio_pct","gender_ratio","single_parent_hh_pct","families_with_children_pct","tech_sector_pct","healthcare_workers_pct","employment_rate","elderly_ratio_pct","avg_household_size","manufacturing_jobs_pct","public_sector_jobs_pct","service_sector_jobs_pct","new_construction_pct","foreign_language_pct","crime_index","property_price_sqm","transit_stop_density","air_quality_index","daycare_density","school_density","healthcare_density","restaurant_density","grocery_density","cycling_density","single_person_hh_pct","rental_price_sqm","price_to_rent_ratio","walkability_index","traffic_accident_rate","property_price_change_pct","school_quality_score","light_pollution","noise_pollution","voter_turnout_pct","party_diversity_index","broadband_coverage_pct","ev_charging_density","tree_canopy_pct","transit_reachability_score","sports_facility_density","water_proximity_m","avg_construction_year","income_history","population_history","unemployment_history","income_change_pct","population_change_pct","unemployment_change_pct","schools","crime_index_history","crime_index_change_pct","health_index","radon","municipality","lon","lat","flood_risk_pct","population_projection_pct","construction_activity","active_plan_count","political_lean_index","party_vote_kok_pct","party_vote_sdp_pct","party_vote_ps_pct","party_vote_kesk_pct","party_vote_vihr_pct","party_vote_vas_pct","party_vote_rkp_pct","foreign_language_municipal_pct","foreign_language_history","foreign_language_est_pct","low_income_pct","job_self_sufficiency","violent_crime_rate","property_crime_rate","grocery_count","healthcare_count","school_count","daycare_count","restaurant_count","property_price_history"],"cols":[[1278,1258,1266,1267,1268,1269,1270,1271,1272,1277,1290],["42930","41970","42520","42560","42600","42660","42700","42800","42820","42910","43430"],["Katajamäki","Huttula","Asunta","Pohjoisjärvi","Multia Keskus-Väätäiskylä","Sahrajärvi","Keuruu Keskus","Haapamäki","Riiho","Pihlajavesi","Väätäiskylä"],["Katajamäki","Huttula","Asunta","Pohjoisjärvi","Multia centrum-Väätäiskylä","Sahrajärvi","Keuruu centrum","Haapamäki","Riiho","Pihlajavesi","Väätäiskylä"],[354145,397458,391951,387225,388257,402950,377075,365420,362593,362168,376080],[6913459,6905324,6906232,6898770,6927504,6931819,6908424,6903878,6898411,6919580,6942774],[156074227,47545828,83818461,43603744,514167394,111885295,609550768,131490024,46410285,273326485,110426790],[2026,2026,2026,2026,2026,2026,2026,2026,2026,2026,2026],["249","249","249","249","495","495","249","249","249","249","495"],[85,40,128,147,1191,82,7269,1029,65,238,28],[35,21,56,63,577,35,3757,494,28,108,null],[50,19,72,84,614,47,3512,535,37,130,null],[54,57,55,47,53,53,51,51,50,53,null],[2,0,2,2,19,2,106,19,1,4,null],[2,1,4,4,33,1,200,24,4,2,null],[5,0,7,13,60,4,404,60,2,16,null],[1,1,2,7,41,1,246,47,2,8,null],[1,2,3,7,27,1,131,21,0,8,null],[2,0,1,5,12,0,122,12,1,2,null],[1,1,0,3,35,1,236,20,2,7,null],[3,1,3,2,26,2,253,30,3,5,null],[0,1,7,3,33,3,322,36,3,1,null],[6,0,6,3,53,5,340,53,2,9,null],[5,0,6,12,50,2,365,57,2,16,null],[1,2,6,9,63,3,396,64,3,12,null],[2,4,5,19,77,6,417,42,6,12,null],[8,7,8,11,74,14,476,61,4,16,null],[9,7,10,11,93,14,562,91,12,21,null],[11,3,18,6,139,9,616,104,6,25,null],[15,3,11,5,136,8,672,118,4,30,null],[5,4,17,14,91,0,662,93,4,25,null],[3,3,5,4,53,3,353,39,0,12,null],[3,0,7,7,76,3,390,38,4,7,null],[74,36,110,114,1011,73,6182,858,56,200,25],[15,10,21,24,261,15,1557,196,9,46,null],[59,26,89,90,750,58,4625,662,47,154,null],[1,1,1,4,22,2,192,22,3,6,null],[41,13,57,42,508,39,2829,451,24,111,null],[13,11,20,30,169,16,1230,155,13,31,null],[4,1,11,14,51,1,374,34,7,6,null],[74,36,110,114,1011,73,6182,858,56,200,25],[29186,27886,30567,30737,26067,23539,26022,24716,28824,25527,null],[22722,22663,23000,29128,23218,22600,23445,21778,27745,21196,null],[20,8,17,14,244,23,1238,229,12,60,null],[45,21,72,74,647,43,4270,556,31,115,null],[9,7,21,26,120,7,674,73,13,25,null],[2159792,1003896,3362374,3504029,26353980,1718325,160865681,21205957,1614117,5105302,null],[45,22,68,59,630,47,3959,538,31,122,15],[1.9,null,1.9,2.5,1.9,1.7,1.8,1.9,2,1.9,null],[54.3,null,56.9,47,48.3,52.5,46.5,46.6,60.5,50.8,null],[21,null,27,10,296,26,1947,235,13,52,null],[1,null,0,0,22,2,320,17,0,2,null],[1,null,1,1,6,0,65,8,1,1,null],[6,null,11,19,88,5,607,90,5,17,null],[2,null,1,2,17,2,97,15,1,3,null],[3,null,4,4,34,2,218,31,3,4,null],[4,null,6,11,46,3,282,44,2,11,null],[2,null,4,12,45,1,277,51,2,12,null],[2,null,3,2,18,1,140,26,2,3,null],[15,null,20,18,198,23,1483,172,14,34,null],[25,null,40,22,347,19,1882,280,12,73,null],[42,null,60,59,498,43,2724,427,27,109,null],[1,null,6,0,123,3,1193,98,0,7,null],[2,null,2,0,9,1,42,13,4,6,null],[45,22,68,59,630,47,3959,538,31,122,15],[48004,null,49626,60286,41621,36569,40032,39536,51306,42031,null],[39321,null,38638,59564,34913,28150,32674,34423,47271,33107,null],[15,null,14,3,209,19,1216,185,5,35,null],[26,null,40,47,345,23,2384,317,21,76,null],[4,null,14,9,76,5,359,36,5,11,null],[2160162,null,3374595,3556888,26220966,1718725,158485342,21270287,1590484,5127726,null],[127,18,103,47,496,54,909,182,91,391,56],[100,42,128,99,803,92,2696,646,57,254,35],[13,5,12,17,127,16,454,86,9,26,9],[87,37,116,82,676,76,2242,560,48,228,26],[72,29,101,70,904,71,4698,759,43,206,24],[101.2,100,99.5,115.9,86.2,93,80.9,82.2,114.1,84.9,105.3],[70,28,94,70,837,69,2698,612,43,194,21],[0,0,0,0,36,0,1889,138,0,7,2],[2,1,7,0,31,2,111,9,0,5,1],[7,3,8,5,472,14,2620,302,9,33,2],[null,null,null,null,171,8,62,21,null,11,null],[null,null,null,null,101,4,714,164,null,5,null],[null,null,null,null,200,2,1844,117,null,17,null],[null,null,null,null,171,8,62,21,null,11,null],[null,null,null,null,0,0,0,0,null,0,null],[null,null,null,null,92,1,561,130,null,0,null],[null,null,null,null,0,0,23,0,null,0,null],[null,null,null,null,0,0,15,0,null,0,null],[null,null,null,null,9,3,115,34,null,5,null],[null,null,null,null,8,1,268,15,null,0,null],[null,null,null,null,21,0,143,6,null,2,null],[null,null,null,null,4,0,130,2,null,2,null],[null,null,null,null,0,0,25,1,null,0,null],[null,null,null,null,5,0,19,2,null,0,null],[null,null,null,null,2,0,19,1,null,1,null],[null,null,null,null,4,1,103,1,null,0,null],[null,null,null,null,13,0,90,1,null,0,null],[null,null,null,null,9,0,120,1,null,5,null],[null,null,null,null,22,0,208,20,null,0,null],[null,null,null,null,104,0,593,60,null,1,null],[null,null,null,null,2,0,47,2,null,1,null],[null,null,null,null,6,0,79,5,null,5,null],[null,null,null,null,0,0,0,0,null,0,null],[null,null,null,null,0,0,0,0,null,0,null],[null,null,null,null,0,0,0,0,null,0,null],[85,40,128,147,1191,82,7269,1029,65,238,28],[28,17,40,68,409,38,2557,337,26,74,null],[6,3,5,4,48,7,345,54,4,13,null],[10,2,14,25,143,8,878,133,7,28,null],[1,2,6,10,49,1,364,60,4,12,null],[40,15,61,40,506,28,2872,408,22,106,null],[0,1,2,0,36,0,253,37,2,5,null],["keuruu","keuruu","keuruu","keuruu","keuruu","keuruu","keuruu","keuruu","keuruu","keuruu","keuruu"],["42930","41970","42520","42560","42600","42660","42700","42800","42820","42910","43430"],[7.1,7.5,3.9,2.7,4,8.5,4.7,5.2,6.2,5.5,null],[23,33.3,28.2,38.6,21.8,23.3,25.9,22,35.7,18.5,null],[47.1,37.5,47.7,27.2,42.5,34.1,39.5,39.7,33.8,44.5,null],[93.3,null,88.2,100,79,91.5,68.8,79.4,87.1,89.3,null],[2.2,null,8.8,0,19.5,6.4,30.1,18.2,0,5.7,null],[1,1,2,3,2,1,12,8,1,1,0],[4.7,2.5,4.7,4.1,4.4,3.7,4.2,4.2,7.7,2.5,null],[1.2,5,4.7,6.8,4.1,1.2,5,5.8,6.2,5,null],[97.2,96.6,93.1,100,92.6,97.2,57.4,80.6,100,94.2,87.5],[7.1,5,3.1,6.8,6.1,3.7,8.4,6,9.2,5.9,null],[0.7,1.11,0.78,0.75,0.94,0.74,1.07,0.92,0.76,0.83,null],[2.2,null,1.5,1.7,1,0,1.6,1.5,3.2,0.8,null],[13.3,null,16.2,32.2,14,10.6,15.3,16.7,16.1,13.9,null],[null,null,null,null,0,0,1,0.3,null,0,null],[null,null,null,null,22,0,22.6,19.9,null,3,null],[32.9,42.5,31.2,46.3,34.3,46.3,35.2,32.8,40,31.1,null],[43.5,32.5,45.3,24.5,41.6,28,37,38.1,27.7,41.6,null],[1.89,1.82,1.88,2.49,1.89,1.74,1.84,1.91,2.1,1.95,1.87],[null,null,null,null,21.4,28.6,27.3,54.3,null,15.2,null],[null,null,null,null,1.9,0,4.6,0.3,null,15.2,null],[null,null,null,null,42.4,14.3,70.4,38.7,null,51.5,null],[138.9,144.8,126.7,141.4,88.8,129.6,57.4,85.1,132.6,123.3,145.8],[0,0,0.7,0.6,1.7,0,2,2.8,1.5,0.7,0],[59.6,59.6,59.6,59.6,52.7,52.7,59.6,59.6,59.6,59.6,52.7],[null,null,null,null,388,null,639,610,null,null,null],[0.1,0.3,0.1,0.3,0.2,0.1,0.3,0.3,0,0.1,0.1],[23.4,23.1,23,23.6,22.7,22.9,23,22.8,23.4,23,23],[0,0,0,0,0,0,0.0016,0,0,0,0],[0,0,0,0.0229,0.0019,0,0.0066,0.0076,0,0,0],[0,0,0,0,0.0039,0,0.0049,0.0076,0,0,0],[0.0064,0,0,0,0.0019,0,0.0246,0.0152,0,0.0037,0],[0,0,0,0,0.0019,0,0.0082,0,0,0.0037,0],[0,0,0,0,0.0545,0,0.3396,0.4031,0,0,0],[46.7,null,39.7,16.9,47,55.3,49.2,43.7,41.9,42.6,null],[null,null,null,null,null,null,null,null,null,null,null],[null,null,null,null,null,null,null,null,null,null,null],[76,76,76,76,78,76,79,80,76,76,76],[null,null,7.8,2.3,3.4,4.1,1.2,0.6,null,1.4,null],[null,null,null,null,-21.8,null,-19.9,null,null,null,null],[null,null,null,null,null,null,null,null,null,null,null],[0,0,0,0.02,0.02,0,0.15,0.12,0.01,0,0],[40,40,40,40,40,40,40,40,40,40,40],[64.1,64.1,64.1,64.1,63.5,63.5,64.1,64.1,64.1,64.1,63.5],[0.682,0.682,0.682,0.682,0.7,0.7,0.682,0.682,0.682,0.682,0.7],[61,61,61,61,77,77,61,61,61,61,77],[0,0,0,0,0,0,0,0,0,0,0],[34,52.6,42.8,67,62.5,60,48.2,33.8,56.8,38.2,40],[null,null,null,null,null,null,null,null,null,null,null],[0,0,0,0.1,0,0,0.2,0.1,0.1,0,0],[640,480,520,520,350,830,190,470,440,400,630],[1978,1978,1978,1978,1971,1973,1975,1976,1978,1978,1974],[[[2021,21501],[2022,19933],[2023,21032],[2024,23978],[2025,21598],[2026,22722]],[[2021,20043],[2022,19918],[2023,23652],[2024,22529],[2025,25877],[2026,22663]],[[2021,19749],[2022,19594],[2023,20568],[2024,21195],[2025,22705],[2026,23000]],[[2021,26037],[2022,27135],[2023,27687],[2024,27900],[2025,29821],[2026,29128]],[[2021,18621],[2022,18361],[2023,19019],[2024,20702],[2025,21938],[2026,23218]],[[2021,16330],[2022,16052],[2023,17778],[2024,18410],[2025,20714],[2026,22600]],[[2021,19980],[2022,20100],[2023,20762],[2024,21182],[2025,22501],[2026,23445]],[[2021,18775],[2022,18999],[2023,19424],[2024,19979],[2025,20755],[2026,21778]],[[2021,23162],[2022,22612],[2023,22894],[2024,24585],[2025,26133],[2026,27745]],[[2021,18421],[2022,18104],[2023,19476],[2024,20271],[2025,20668],[2026,21196]],null],[[[2021,100],[2022,96],[2023,96],[2024,91],[2025,85],[2026,85]],[[2021,48],[2022,46],[2023,45],[2024,43],[2025,41],[2026,40]],[[2021,155],[2022,151],[2023,139],[2024,137],[2025,130],[2026,128]],[[2021,173],[2022,166],[2023,160],[2024,160],[2025,157],[2026,147]],[[2021,1328],[2022,1321],[2023,1270],[2024,1262],[2025,1225],[2026,1191]],[[2021,111],[2022,110],[2023,95],[2024,94],[2025,86],[2026,82]],[[2021,7484],[2022,7428],[2023,7419],[2024,7259],[2025,7224],[2026,7269]],[[2021,1093],[2022,1090],[2023,1065],[2024,1044],[2025,1032],[2026,1029]],[[2021,62],[2022,65],[2023,67],[2024,69],[2025,65],[2026,65]],[[2021,286],[2022,277],[2023,262],[2024,256],[2025,248],[2026,238]],[[2021,37],[2022,33],[2023,32],[2024,30],[2025,28],[2026,28]]],[[[2021,3],[2022,4.2],[2023,4.2],[2024,2.2],[2025,4.7],[2026,7.1]],[[2021,12.5],[2022,15.2],[2023,8.9],[2024,4.7],[2025,7.3],[2026,7.5]],[[2021,3.2],[2022,4],[2023,1.4],[2024,2.9],[2025,3.1],[2026,3.9]],[[2021,3.5],[2022,3],[2023,1.2],[2024,2.5],[2025,3.2],[2026,2.7]],[[2021,3.5],[2022,3.9],[2023,4.7],[2024,4],[2025,5.1],[2026,4]],[[2021,5.4],[2022,6.4],[2023,9.5],[2024,11.7],[2025,8.1],[2026,8.5]],[[2021,4.4],[2022,4],[2023,4.1],[2024,3.9],[2025,5.1],[2026,4.7]],[[2021,5.7],[2022,4.8],[2023,4],[2024,4.1],[2025,4.9],[2026,5.2]],[[2021,8.1],[2022,10.8],[2023,3],[2024,8.7],[2025,6.2],[2026,6.2]],[[2021,4.9],[2022,4.7],[2023,5],[2024,5.9],[2025,6.5],[2026,5.5]],[[2021,2.7],[2022,6.1],[2023,3.1],[2024,0]]],[5.7,13.1,16.5,11.9,24.7,38.4,17.3,16,19.8,15.1,null],[-15,-16.7,-17.4,-15,-10.3,-26.1,-2.9,-5.9,4.8,-16.8,-24.3],[136.7,-40,21.9,-22.9,14.3,57.4,6.8,-8.8,-23.5,12.2,-100],[null,null,null,null,null,null,null,null,null,null,null],[[[2020,67.2],[2021,63],[2022,68.3],[2023,56.5],[2024,54.9],[2025,59.6]],[[2020,67.2],[2021,63],[2022,68.3],[2023,56.5],[2024,54.9],[2025,59.6]],[[2020,67.2],[2021,63],[2022,68.3],[2023,56.5],[2024,54.9],[2025,59.6]],[[2020,67.2],[2021,63],[2022,68.3],[2023,56.5],[2024,54.9],[2025,59.6]],[[2020,57.8],[2021,62.5],[2022,44.7],[2023,54.6],[2024,58.2],[2025,52.7]],[[2020,57.8],[2021,62.5],[2022,44.7],[2023,54.6],[2024,58.2],[2025,52.7]],[[2020,67.2],[2021,63],[2022,68.3],[2023,56.5],[2024,54.9],[2025,59.6]],[[2020,67.2],[2021,63],[2022,68.3],[2023,56.5],[2024,54.9],[2025,59.6]],[[2020,67.2],[2021,63],[2022,68.3],[2023,56.5],[2024,54.9],[2025,59.6]],[[2020,67.2],[2021,63],[2022,68.3],[2023,56.5],[2024,54.9],[2025,59.6]],[[2020,57.8],[2021,62.5],[2022,44.7],[2023,54.6],[2024,58.2],[2025,52.7]]],[-11.3,-11.3,-11.3,-11.3,-8.8,-8.8,-11.3,-11.3,-11.3,-11.3,-8.8],[109,109,109,109,95,95,109,109,109,109,95],[null,null,null,null,80,null,118,77,null,null,null],["Keuruu","Keuruu","Keuruu","Keuruu","Multia","Multia","Keuruu","Keuruu","Keuruu","Keuruu","Multia"],[24.20376,25.03449,24.90992,24.83321,24.87691,25.12636,24.7062,24.40045,24.36167,24.30982,24.62851],[62.32009,62.26132,62.27527,62.16144,62.43581,62.51076,62.25354,62.24333,62.19279,62.37922,62.58712],[null,null,null,null,null,null,3.65,null,null,null,null],[-15.5,-15.5,-15.5,-15.5,-17.9,-17.9,-15.5,-15.5,-15.5,-15.5,-17.9],[3.2,3.2,3.2,3.2,3.1,3.1,3.2,3.2,3.2,3.2,3.1],[null,null,null,null,null,null,null,null,null,null,null],[60.4,60.4,60.4,60.4,60,60,60.4,60.4,60.4,60.4,60],[15.8,15.8,15.8,15.8,8.3,8.3,15.8,15.8,15.8,15.8,8.3],[22,22,22,22,14.3,14.3,22,22,22,22,14.3],[24.2,24.2,24.2,24.2,24.4,24.4,24.2,24.2,24.2,24.2,24.4],[21.6,21.6,21.6,21.6,37.5,37.5,21.6,21.6,21.6,21.6,37.5],[3.7,3.7,3.7,3.7,2.7,2.7,3.7,3.7,3.7,3.7,2.7],[2.7,2.7,2.7,2.7,4.8,4.8,2.7,2.7,2.7,2.7,4.8],[0.1,0.1,0.1,0.1,1.4,1.4,0.1,0.1,0.1,0.1,1.4],[4.6,4.6,4.6,4.6,2.3,2.3,4.6,4.6,4.6,4.6,2.3],["[[2020, 0.0], [2021, 0.0], [2022, 0.0], [2023, 0.0], [2024, 0.0], [2025, 0.0]]","[[2020, 0.0], [2021, 0.0], [2022, 0.0], [2023, 0.0], [2024, 0.0], [2025, 0.0]]","[[2020, 0.7], [2021, 0.8], [2022, 0.9], [2023, 1.3], [2024, 1.4], [2025, 1.5]]","[[2020, 0.6], [2021, 0.7], [2022, 0.8], [2023, 1.1], [2024, 1.2], [2025, 1.3]]","[[2020, 1.7], [2021, 1.9], [2022, 2.4], [2023, 3.0], [2024, 2.9], [2025, 2.8]]","[[2020, 0.0], [2021, 0.0], [2022, 0.0], [2023, 0.0], [2024, 0.0], [2025, 0.0]]","[[2020, 2.0], [2021, 2.2], [2022, 2.7], [2023, 3.6], [2024, 4.1], [2025, 4.4]]","[[2020, 2.8], [2021, 3.1], [2022, 3.7], [2023, 5.1], [2024, 5.7], [2025, 6.1]]","[[2020, 1.5], [2021, 1.6], [2022, 2.0], [2023, 2.7], [2024, 3.1], [2025, 3.3]]","[[2020, 0.7], [2021, 0.8], [2022, 0.9], [2023, 1.3], [2024, 1.4], [2025, 1.5]]","[[2020, 0.0], [2021, 0.0], [2022, 0.0], [2023, 0.0], [2024, 0.0], [2025, 0.0]]"],[0,0,1.5,1.3,2.8,0,4.4,6.1,3.3,1.5,0],[27,22.2,15.5,12.3,24.1,31.5,20,26.7,21.4,30,null],[25,17.6,20,7.4,115.4,36.8,102.5,89.6,34.6,44.6,null],[6.7,6.7,6.7,6.7,null,null,6.7,6.7,6.7,6.7,null],[26.7,26.7,26.7,26.7,null,null,26.7,26.7,26.7,26.7,null],[0,0,0,0,1,0,5,0,0,1,0],[0,0,0,0,2,0,3,1,0,0,0],[0,0,0,1,1,0,4,1,0,0,0],[0,0,0,0,0,0,1,0,0,0,0],[1,0,0,0,1,0,15,2,0,1,0],[null,null,null,null,[[2020,496],[2021,490],[2023,388]],null,[[2020,798],[2021,964],[2022,869],[2023,841],[2024,799],[2025,639]],null,null,null,null]]}}