{"type":"Topology","objects":{"neighborhoods":{"type":"GeometryCollection","geometries":[{"type":"MultiPolygon","arcs":[[[0,1,2,3]]],"properties":{"i":0}},{"type":"MultiPolygon","arcs":[[[4,5,6,7,8,9,-3,10]]],"properties":{"i":1}},{"type":"MultiPolygon","arcs":[[[-4,-10,11]]],"properties":{"i":2}},{"type":"MultiPolygon","arcs":[[[12,-6,13,14]]],"properties":{"i":3}},{"type":"MultiPolygon","arcs":[[[15,16,-8]]],"properties":{"i":4}},{"type":"MultiPolygon","arcs":[[[17,-16,-7,-13]]],"properties":{"i":5}},{"type":"MultiPolygon","arcs":[[[18,-11,-2,19,20]]],"properties":{"i":6}},{"type":"MultiPolygon","arcs":[[[21,22,-21,23,24]]],"properties":{"i":7}},{"type":"MultiPolygon","arcs":[[[-22,25,26,27]]],"properties":{"i":8}},{"type":"MultiPolygon","arcs":[[[-26,-25,28]]],"properties":{"i":9}},{"type":"MultiPolygon","arcs":[[[29,-14,-5,-19,-23,-28]]],"properties":{"i":10}},{"type":"MultiPolygon","arcs":[[[30,31,32]]],"properties":{"i":11}},{"type":"MultiPolygon","arcs":[[[33,-32,34,35,36,37]]],"properties":{"i":12}},{"type":"MultiPolygon","arcs":[[[38,-36,39]]],"properties":{"i":13}},{"type":"MultiPolygon","arcs":[[[40,-37,-39]]],"properties":{"i":14}},{"type":"MultiPolygon","arcs":[[[-33,-34,41]]],"properties":{"i":15}}]}},"arcs":[[[26707,29485],[543,1850],[608,716],[1795,-214],[1926,465],[1221,538],[824,59]],[[33624,32899],[293,-37],[1092,-299],[1388,112],[889,360],[416,5],[379,-55],[649,-128],[357,-55],[1393,-341],[2162,-263]],[[42642,32198],[-1957,-784],[-880,-253],[-3077,-925],[-1432,-558],[-1017,-663]],[[34279,29015],[-4411,-39],[-3161,509]],[[55815,28467],[3383,-867],[680,179],[772,204],[1603,-969],[86,-445],[-165,-669],[26,-15]],[[62200,25885],[-766,-947],[446,-553],[23,-6],[904,-466],[609,-264],[-379,-236],[-687,-211],[-688,-52],[-459,72],[-1576,-82],[-427,-183],[-28,-32],[-104,-49],[-2021,-617],[-524,-273],[-306,-143],[-125,-52],[245,-146],[342,-288],[-296,-776],[-427,-305],[-175,-279],[-2125,110],[-517,-357],[114,-133],[1591,-290],[-2076,-836],[-278,-273],[-833,-1766],[-300,-613]],[[51357,15839],[-2399,329],[-3428,825]],[[45530,16993],[-30,647],[1111,1435],[-709,678],[-2128,51],[-2279,21],[-3283,-333],[-1059,546],[10,147],[-122,135],[-134,112],[22,551],[-399,64],[-979,-134],[-2296,113],[-2239,-93],[-475,-159],[-890,-297]],[[29651,20477],[-1335,747],[-1343,470]],[[26973,21694],[2014,727],[1004,230],[578,38],[2957,468],[12,9],[-34,184],[62,57],[160,356],[-499,410],[-220,100],[-42,410],[1186,-24],[928,87],[367,203],[811,231],[562,250],[36,21],[160,301],[-41,30],[-162,476],[-2533,2757]],[[42642,32198],[1639,-61],[2346,-625],[3310,-510],[1001,-551],[1211,-668],[2047,-373],[638,-424],[254,-169],[566,-273],[161,-77]],[[26973,21694],[-2399,-923],[-2131,157],[-762,722],[216,165],[50,84],[197,9],[148,50],[-116,683],[129,1491],[350,173],[178,435],[51,738],[-694,922],[211,324],[961,1446],[-26,508],[-64,115],[159,227],[921,371],[1400,128],[955,-34]],[[55306,15236],[-3949,603]],[[62200,25885],[1448,-166],[2530,-1321],[241,-415],[182,-1083],[-48,-169],[82,-188],[1231,-481],[990,-283],[450,-27],[1375,-411],[1116,-334],[64,-16]],[[71861,20991],[-1024,-924],[-795,-538],[-1264,-857],[-335,-345],[-316,-323],[-182,-47],[-407,-103],[-503,-128],[-930,18],[-42,0],[-144,3],[-234,99],[-158,67],[-8,1],[-396,75],[-210,40],[-44,-3],[-368,-22],[-677,-137],[-918,-580],[-525,-114],[-839,-64],[-278,-22],[-1271,-107],[-1120,-114],[-2731,-1091],[-836,-539]],[[45530,16993],[-1054,-1359],[-942,-1212],[-1292,-244],[-91,-608],[-1433,-830],[-1708,92],[-2839,-20],[-1272,250]],[[34899,13062],[367,700],[-1754,854],[-3131,372],[-985,71],[-1251,152],[-82,10],[7,48],[47,334],[585,529],[946,582],[65,298],[106,478],[-253,460],[-414,476],[-38,121],[-108,344],[136,496],[96,349],[62,404],[289,253],[62,84]],[[55306,15236],[9563,-4881],[-1291,-594],[-1061,-739],[-663,-461],[1262,-1368],[1045,-315],[4783,-1444],[-5054,308],[-4115,-1537],[-3082,-688],[-3331,-386],[-3333,-1893],[262,-293],[550,-263],[970,-10],[-87,-457],[-1402,-215],[-1034,31],[-576,189],[-1375,338],[-868,33],[-1627,-184],[-1422,746],[-1134,291],[-1675,1110],[-2545,586],[-6464,272],[94,436],[56,260],[-680,830],[722,189],[676,660],[-19,-5],[-18,-5],[-1240,370],[8,11],[269,370],[669,205],[1810,470],[643,758],[505,1110],[612,613],[305,283],[37,258],[123,1404],[-866,636],[-409,797]],[[58348,36768],[407,-1208],[-75,-883],[2080,-1145],[1034,-685],[17,-18],[139,-250],[-35,-614],[-1525,-239],[-67,13],[-997,-73],[-14,-16],[-1146,-437],[-783,-719],[-924,-1254],[-644,-773]],[[33624,32899],[-211,302],[-755,-47],[-1103,282],[-2,2],[892,755],[1106,933],[1953,1068],[1092,1180],[1495,706],[3110,801],[1441,383],[324,86],[1663,403],[490,465],[203,1258],[27,1297],[35,253],[-145,449],[72,869],[1837,368],[2561,-245],[2258,364],[295,200],[349,995],[396,138],[1447,696],[1196,-118],[1677,-180]],[[57327,46562],[861,-274],[1405,-677],[530,-569],[104,-737],[86,-656],[52,-1232],[20,-21],[-127,-180],[-1088,-538],[-462,-325],[-1055,-217],[-1107,-462],[-374,-653],[1041,-1171],[-48,-480],[-52,-258],[1235,-1344]],[[75359,38365],[-2430,-1166],[-1525,-637],[-944,-375],[-334,-187],[-1251,-58],[-2363,103]],[[66512,36045],[-349,155],[-1160,172],[-173,158],[-2357,693],[-24,2],[-63,22],[-14,28],[-262,97],[-826,245],[-2511,-570],[-425,-279]],[[57327,46562],[3868,1631],[1541,341],[1670,206],[582,68],[3894,471],[7172,-1205],[2257,-1847],[278,-227],[47,-727]],[[78636,45273],[-4043,-3167],[2106,-2520],[-1340,-1221]],[[75359,38365],[70,5],[3411,79],[1638,-1023],[1178,-678],[1286,-670],[168,-71],[986,-292],[3141,233],[2361,-34],[4701,-912]],[[94299,35002],[487,-473],[230,-222],[1101,-1719],[207,-330],[1130,-1718],[-2825,-1504]],[[94629,29036],[-1057,-225],[-1407,-299],[-1168,-595],[-2905,522],[-5419,3070],[-2299,1507],[-1266,710],[-1348,-1211],[-2886,-47],[-929,464],[-1372,119],[-957,22],[-2530,660],[-382,857],[-2108,174],[-84,1281]],[[78636,45273],[1176,-465],[1550,-1800],[5791,-2603],[939,153],[882,100],[43,5],[47,-22],[1032,-488],[610,-367],[1909,-512],[760,-324],[1109,-2395],[1,-809],[-128,-686],[-58,-58]],[[94629,29036],[555,-460],[2403,-1751],[2412,-2860],[-4313,-1853],[-1638,-1067],[-536,-258],[-1738,-836],[-2,-1],[-1630,-624],[-1966,-390],[-1545,-217],[-910,325],[-2454,730],[-4072,1993],[-256,107],[-2160,904],[-85,35],[-1854,303],[-1852,53],[-620,-114],[466,-416],[258,-167],[271,-177],[-1502,-1304]],[[62488,64356],[10,-19],[3936,-1290],[2,-1],[250,-776],[-108,-319],[-169,-499],[-124,-80],[-4279,-2752],[-2471,-1593],[-74,2],[-8214,698],[-4212,1095],[-4049,1031],[-593,257],[-335,146],[-1842,1404],[-164,27],[-68,358],[-72,379],[1764,588],[54,18],[-292,644],[-579,146],[-35,99],[-147,422],[-465,185],[-120,48],[541,490],[3202,734]],[[43835,65798],[3995,479]],[[47830,66277],[4849,-2733],[2959,-111],[6850,923]],[[57266,82533],[-3761,-3066],[-5718,-2374],[-2505,-1627],[85,-3785],[-858,-3292],[3321,-2112]],[[43835,65798],[-2134,783],[-1042,382],[-2614,865],[-1538,417],[-1374,-85],[-515,-110]],[[34618,68050],[-216,107],[-2333,1536],[-32,21],[-1873,-394],[-3337,-294]],[[26827,69026],[2033,1157],[1083,765],[-1769,68],[-2757,969],[-694,574],[-2857,670],[-2396,195],[-7549,824],[-854,290],[-264,172],[-2303,1106],[-161,-12],[-825,-61]],[[7514,75743],[-1302,1137],[1518,1892],[-327,1132],[47,73],[-260,285],[-176,219],[-1453,3278],[-1823,288],[-3220,402],[-205,148],[-313,516],[161,329],[604,1234],[544,596],[3537,7993],[456,38],[3862,1093],[80,7],[2852,249],[2966,-530],[4346,-593],[4113,884],[686,148],[434,410],[858,312],[5193,1883],[5308,833],[2334,-2366],[6174,-1304],[871,1419],[2356,-23],[526,-388],[5436,-275],[471,-231],[-925,-1527],[764,-1538],[2131,-2507],[236,-278],[1026,-797],[503,-1551],[-137,-475],[-167,-575],[590,-151],[1565,-750],[3951,-442],[-404,-2206],[-12,-169],[-3,-41],[-6439,419],[419,-1710]],[[26421,68931],[6,1],[400,94]],[[34618,68050],[-2477,-1412],[-1188,-86],[-3584,-259],[-2768,489],[-357,97],[-657,554],[-339,285],[204,90],[62,15],[1551,384],[1356,724]],[[26421,68931],[-3247,716],[-78,17],[-1348,808],[-693,207],[-1271,-126],[-599,-65],[-400,-44],[-733,-79],[-891,-97],[-608,151],[-439,110],[-309,77],[-926,279],[-1273,0],[-1324,28],[-8,3],[-199,200],[-47,11],[-239,60],[-225,-95],[-535,3],[-139,271],[-270,188],[-1922,12],[-651,-110],[-1397,-259],[-701,-310],[-9,1],[-1925,896],[-572,265],[-816,508],[-77,43],[225,690],[-5,56],[92,656],[1042,605],[293,60],[577,119],[662,144],[98,50],[745,377],[1235,386]],[[57266,82533],[2170,-2288],[6797,-4390],[4738,-3056],[1299,-446],[3015,47],[9258,2257],[-1407,-5442],[-13834,-4452],[-6814,-407]]],"bbox":[28.026805479101277,62.57003354064013,29.045816380385485,63.71215314625901],"transform":{"scale":[0.000010190210914951227,0.000011421310269291497],"translate":[28.026805479101277,62.57003354064013]},"propertiesColumnar":{"format":"columnar/1","keys":["id","postinumeroalue","nimi","namn","euref_x","euref_y","pinta_ala","vuosi","kunta","he_vakiy","he_naiset","he_miehet","he_kika","he_0_2","he_3_6","he_7_12","he_13_15","he_16_17","he_18_19","he_20_24","he_25_29","he_30_34","he_35_39","he_40_44","he_45_49","he_50_54","he_55_59","he_60_64","he_65_69","he_70_74","he_75_79","he_80_84","he_85_","ko_ika18y","ko_perus","ko_koul","ko_yliop","ko_ammat","ko_al_kork","ko_yl_kork","hr_tuy","hr_ktu","hr_mtu","hr_pi_tul","hr_ke_tul","hr_hy_tul","hr_ovy","te_taly","te_takk","te_as_valj","te_yks","te_nuor","te_eil_np","te_laps","te_plap","te_aklap","te_klap","te_teini","te_yhlap","te_aik","te_elak","te_omis_as","te_vuok_as","te_muu_as","tr_kuty","tr_ktu","tr_mtu","tr_pi_tul","tr_ke_tul","tr_hy_tul","tr_ovy","ra_ke","ra_raky","ra_muut","ra_asrak","ra_asunn","ra_as_kpa","ra_pt_as","ra_kt_as","ra_muu_as","tp_tyopy","tp_alku_a","tp_jalo_bf","tp_palv_gu","tp_a_maat","tp_b_kaiv","tp_c_teol","tp_d_ener","tp_e_vesi","tp_f_rake","tp_g_kaup","tp_h_kulj","tp_i_majo","tp_j_info","tp_k_raho","tp_l_kiin","tp_m_erik","tp_n_hall","tp_o_julk","tp_p_koul","tp_q_terv","tp_r_taid","tp_s_muup","tp_t_koti","tp_u_kans","tp_x_tunt","pt_vakiy","pt_tyoll","pt_tyott","pt_0_14","pt_opisk","pt_elakel","pt_muut","city","pno","unemployment_rate","higher_education_rate","pensioner_share","ownership_rate","rental_rate","population_density","child_ratio","student_share","detached_house_share","youth_ratio_pct","gender_ratio","single_parent_hh_pct","families_with_children_pct","tech_sector_pct","healthcare_workers_pct","employment_rate","elderly_ratio_pct","avg_household_size","manufacturing_jobs_pct","public_sector_jobs_pct","service_sector_jobs_pct","new_construction_pct","foreign_language_pct","crime_index","property_price_sqm","transit_stop_density","air_quality_index","daycare_density","school_density","healthcare_density","restaurant_density","grocery_density","cycling_density","single_person_hh_pct","rental_price_sqm","price_to_rent_ratio","walkability_index","traffic_accident_rate","property_price_change_pct","school_quality_score","light_pollution","noise_pollution","voter_turnout_pct","party_diversity_index","broadband_coverage_pct","ev_charging_density","tree_canopy_pct","transit_reachability_score","sports_facility_density","water_proximity_m","avg_construction_year","income_history","population_history","unemployment_history","income_change_pct","population_change_pct","unemployment_change_pct","schools","crime_index_history","crime_index_change_pct","health_index","radon","municipality","lon","lat","flood_risk_pct","population_projection_pct","construction_activity","active_plan_count","political_lean_index","party_vote_kok_pct","party_vote_sdp_pct","party_vote_ps_pct","party_vote_kesk_pct","party_vote_vihr_pct","party_vote_vas_pct","party_vote_rkp_pct","foreign_language_municipal_pct","foreign_language_history","foreign_language_est_pct","low_income_pct","job_self_sufficiency","violent_crime_rate","property_crime_rate","property_price_history"],"cols":[[2087,2088,2089,2090,2091,2092,2168,2169,2170,2171,2172,2178,2179,2180,2181,2224],["71170","71200","71210","71240","71260","71280","73600","73620","73640","73645","73670","73850","73900","73970","73990","75680"],["Laukka-aho","Tuusniemi Keskus","Tuusjärvi","Paakkila","Juurikkamäki","Kosula","Kaavi Keskus","Kortteinen-Rasilampi","Sivakkavaara","Niinivaara-Onnivaara","Luikonlahti","Ala-Luosta-Riitasalo","Rautavaara Keskus","Riitasalo","Kangaslahti","Ylä-Luosta"],["Laukka-aho","Tuusniemi centrum","Tuusjärvi","Paakkila","Juurikkamäki","Kosula","Kaavi centrum","Kortteinen-Rasilampi","Sivakkavaara","Niinivaara-Onnivaara","Luikonlahti","Ala-Luosta-Riitasalo","Rautavaara centrum","Riitasalo","Kangaslahti","Ylä-Luosta"],[569299,577240,567518,585508,571845,578801,576276,586618,597539,595594,590243,578735,567156,566405,558369,584165],[6977885,6969146,6971151,6964894,6959268,6948777,6987054,6993033,6981323,6988222,6974787,7017108,7045896,7024911,7030351,7028632],[25681542,195876097,58736973,66064961,69006602,230972285,180807550,137833853,100124641,64105035,263381139,99354192,825477335,15734208,53220230,270939708],[2026,2026,2026,2026,2026,2026,2026,2026,2026,2026,2026,2026,2026,2026,2026,2026],["857","857","857","857","857","857","204","204","204","204","204","687","687","687","687","687"],[88,1351,193,204,121,208,1792,195,82,65,389,72,1123,8,113,89],[45,692,94,96,46,99,888,92,38,29,200,37,523,null,55,43],[43,659,99,108,75,109,904,103,44,36,189,35,600,null,58,46],[44,56,56,51,57,55,53,58,60,56,53,50,56,null,56,58],[3,8,1,2,0,1,28,4,0,1,4,1,13,null,1,0],[5,23,4,7,1,6,46,0,1,3,15,3,22,null,2,0],[10,54,5,11,4,6,89,2,3,1,23,4,40,null,5,1],[3,35,2,9,4,4,44,7,2,2,6,1,30,null,4,0],[1,15,4,5,2,3,33,2,1,1,4,2,21,null,2,2],[2,16,3,3,2,2,26,2,0,0,4,2,17,null,0,3],[4,28,5,2,3,1,39,3,1,0,8,1,27,null,1,3],[0,36,5,3,1,4,54,5,2,0,14,3,14,null,1,3],[5,53,6,6,0,4,80,5,2,1,13,2,40,null,8,4],[1,57,10,8,3,13,76,4,0,2,20,5,56,null,3,2],[7,70,5,17,5,11,88,10,4,5,20,6,45,null,6,3],[7,56,17,13,7,6,98,6,3,5,17,3,41,null,2,3],[3,68,4,13,9,15,96,11,9,3,14,2,58,null,5,2],[5,87,18,18,13,20,141,28,10,8,36,7,89,null,15,9],[6,134,23,22,14,32,145,24,8,6,42,6,111,null,11,11],[8,163,27,21,23,34,173,25,6,6,42,6,126,null,15,13],[12,156,21,16,16,23,165,21,5,9,39,6,123,null,10,15],[3,126,14,19,10,9,168,16,10,8,39,5,113,null,14,8],[2,77,11,6,4,8,104,11,5,4,14,4,58,null,1,5],[1,89,8,3,0,6,99,9,10,0,15,3,79,null,7,2],[66,1216,177,170,110,188,1552,180,75,57,337,61,997,8,99,86],[15,331,35,32,35,48,477,53,38,23,84,18,342,null,37,32],[51,885,142,138,75,140,1075,127,37,34,253,43,655,null,62,54],[6,31,3,7,3,5,21,2,0,1,6,1,25,null,0,3],[34,585,97,93,51,92,806,105,30,29,174,32,484,null,45,46],[10,217,35,31,14,37,202,18,6,4,63,7,113,null,14,4],[1,52,7,7,7,6,46,2,1,0,10,3,33,null,3,1],[66,1216,177,170,110,188,1552,180,75,57,337,61,997,8,99,86],[25797,24765,26377,29597,26414,26695,25133,24237,24115,25478,25918,28149,22878,null,22304,23083],[23244,21745,22460,24641,23439,21720,21592,21545,18964,19577,21503,23162,19774,null,19675,19915],[14,290,46,35,28,55,399,55,28,16,92,16,305,null,37,29],[45,797,112,112,65,106,997,109,36,36,192,33,623,null,52,49],[7,129,19,23,17,27,156,16,11,5,53,12,69,null,10,8],[1702606,30113688,4668653,5031411,2905571,5018711,39006007,4362628,1808623,1452252,8734435,1717068,22809377,null,2208066,1985148],[36,804,100,110,70,117,1021,106,47,36,201,36,635,5,54,49],[2.4,1.6,1.9,1.9,1.7,1.8,1.7,1.8,1.7,1.8,1.9,2,1.7,null,2.1,1.8],[41.5,48.4,49.1,52.4,62.4,51.4,46.5,49.1,55.3,59.1,48,57,48.7,null,54.1,49.5],[11,442,34,50,34,54,531,42,21,14,80,12,324,null,17,23],[0,45,5,5,0,3,41,4,1,0,4,0,27,null,1,3],[0,8,2,0,0,0,19,1,1,0,3,1,6,null,1,0],[10,79,10,20,9,10,126,8,5,3,26,7,69,null,7,3],[3,8,1,2,0,1,26,3,0,1,4,1,13,null,1,0],[6,23,4,5,1,5,54,3,1,1,14,4,26,null,1,0],[7,39,3,10,3,6,65,1,3,1,13,3,29,null,5,1],[3,38,4,10,5,5,54,6,3,2,7,3,34,null,4,2],[1,23,1,4,2,4,28,1,0,1,4,3,12,null,0,0],[8,284,33,40,21,42,365,44,17,14,68,12,203,null,16,13],[19,447,57,50,40,65,530,55,27,19,108,17,366,null,31,33],[34,566,90,101,69,108,726,99,45,34,182,36,449,null,50,41],[2,219,10,6,1,5,276,6,1,0,12,0,172,null,4,6],[0,19,0,3,0,4,19,1,1,2,7,0,14,null,0,2],[36,804,100,110,70,117,1021,106,47,36,201,36,635,5,54,49],[48089,37026,46731,45903,41454,43045,38294,41339,38695,40340,43700,48276,35495,null,41109,40676],[40213,29978,37805,39354,34988,29766,30534,36493,32529,34166,38970,38897,29201,null,35636,31334],[11,314,32,32,23,42,389,28,18,10,60,9,264,null,15,20],[22,415,51,61,37,59,532,68,25,23,108,20,336,null,34,24],[3,75,17,17,10,16,100,10,4,3,33,7,35,null,5,5],[1731215,29769080,4673075,5049309,2901769,5036322,39098310,4381983,1818649,1452252,8783649,1737951,22539190,null,2219863,1993139],[12,272,63,169,131,491,353,224,113,64,418,75,332,9,64,44],[58,793,152,171,131,257,876,181,98,57,350,85,821,16,116,81],[5,123,21,26,13,24,100,18,17,5,45,16,125,0,36,11],[53,670,131,145,118,233,776,163,81,52,305,69,696,16,80,70],[51,999,121,131,92,167,1310,147,71,49,314,60,912,null,73,65],[94.5,77.6,92.1,94.3,102.6,83.4,76.9,90.9,93.7,91.1,86,103.3,78.5,null,105.4,84],[48,843,118,127,89,162,1048,147,66,48,310,57,794,null,70,64],[3,99,0,0,0,0,229,0,0,0,0,0,86,null,0,0],[0,57,3,4,3,5,33,0,5,1,4,3,32,null,3,1],[14,355,60,62,13,27,586,18,6,5,36,16,330,0,16,11],[3,32,25,19,8,23,34,15,null,null,19,12,12,0,10,11],[11,35,31,38,3,2,139,0,null,null,11,2,48,0,4,0],[0,288,4,5,2,2,413,3,null,null,6,2,270,0,2,0],[3,32,25,19,8,23,34,15,null,null,19,12,12,0,10,11],[0,3,0,0,0,0,0,0,null,null,2,0,0,0,0,0],[0,4,0,38,0,0,100,0,null,null,0,0,17,0,4,0],[0,0,0,0,0,0,1,0,null,null,0,0,0,0,0,0],[0,1,0,0,1,2,5,0,null,null,0,0,1,0,0,0],[11,27,31,0,2,0,33,0,null,null,9,2,30,0,0,0],[0,34,0,0,1,0,65,0,null,null,0,0,17,0,1,0],[0,10,0,0,0,0,50,1,null,null,3,2,19,0,0,0],[0,11,0,0,0,0,4,0,null,null,0,0,26,0,0,0],[0,3,0,0,0,0,5,0,null,null,0,0,0,0,0,0],[0,5,0,0,0,0,0,0,null,null,0,0,0,0,0,0],[0,4,0,0,0,1,4,0,null,null,0,0,1,0,0,0],[0,4,0,0,0,1,7,0,null,null,2,0,5,0,0,0],[0,19,0,4,1,0,25,1,null,null,0,0,19,0,1,0],[0,20,0,0,0,0,14,0,null,null,0,0,22,0,0,0],[0,50,0,0,0,0,23,0,null,null,0,0,29,0,0,0],[0,117,4,1,0,0,190,1,null,null,1,0,113,0,0,0],[0,2,0,0,0,0,2,0,null,null,0,0,4,0,0,0],[0,9,0,0,0,0,24,0,null,null,0,0,15,0,0,0],[0,0,0,0,0,0,0,0,null,null,0,0,0,0,0,0],[0,0,0,0,0,0,0,0,null,null,0,0,0,0,0,0],[0,0,0,0,0,0,0,0,null,null,0,0,0,0,0,0],[88,1351,193,204,121,208,1792,195,82,65,389,72,1123,8,113,89],[30,411,69,76,44,61,589,68,23,15,125,34,315,null,32,32],[3,54,9,11,4,17,94,17,5,4,27,2,60,null,8,2],[20,110,11,23,7,16,194,10,6,6,47,8,95,null,11,1],[3,49,12,12,5,5,68,5,2,2,15,4,49,null,6,6],[28,690,88,77,59,105,808,90,44,37,167,24,573,null,54,45],[4,37,4,5,2,4,39,5,2,1,8,0,31,null,2,3],["koillis_savo","koillis_savo","koillis_savo","koillis_savo","koillis_savo","koillis_savo","koillis_savo","koillis_savo","koillis_savo","koillis_savo","koillis_savo","koillis_savo","koillis_savo","koillis_savo","koillis_savo","koillis_savo"],["71170","71200","71210","71240","71260","71280","73600","73620","73640","73645","73670","73850","73900","73970","73990","75680"],[3.4,4,4.7,5.4,3.3,8.2,5.2,8.7,6.1,6.2,6.9,2.8,5.3,null,7.1,2.2],[16.7,22.1,23.7,22.4,19.1,22.9,16,11.1,9.3,7,21.7,16.4,14.6,null,17.2,5.8],[31.8,51.1,45.6,37.7,48.8,50.5,45.1,46.2,53.7,56.9,42.9,33.3,51,null,47.8,50.6],[94.4,70.4,90,91.8,98.6,92.3,71.1,93.4,95.7,94.4,90.5,100,70.7,null,92.6,83.7],[5.6,27.2,10,5.5,1.4,4.3,27,5.7,2.1,0,6,0,27.1,null,7.4,12.2],[3,7,3,3,2,1,10,1,1,1,1,1,1,1,2,0],[9.1,2.3,2.6,4.4,0.8,3.4,4.1,2.1,1.2,6.2,4.9,5.6,3.1,null,2.7,0],[3.4,3.6,6.2,5.9,4.1,2.4,3.8,2.6,2.4,3.1,3.9,5.6,4.4,null,5.3,6.7],[94.1,84.4,97.5,96.9,96.7,97,80,100,93,98,98.7,95,87.1,null,95.9,98.5],[6.8,5.9,6.7,3.9,5,3.4,6.6,5.1,3.7,0,6.7,8.3,5.2,null,1.8,10.1],[1.05,1.05,0.95,0.89,0.61,0.91,0.98,0.89,0.86,0.81,1.06,1.06,0.87,null,0.95,0.93],[0,1,2,0,0,0,1.9,0.9,2.1,0,1.5,2.8,0.9,null,1.9,0],[27.8,9.8,10,18.2,12.9,8.5,12.3,7.5,10.6,8.3,12.9,19.4,10.9,null,13,6.1],[0,0.8,0,0,0,0,0.9,0,null,null,0,0,0,null,0,0],[0,33,6.7,1.6,0,0,32.4,5.6,null,null,2.8,0,34.2,null,0,0],[34.1,30.4,35.8,37.3,36.4,29.3,32.9,34.9,28,23.1,32.1,47.2,28,null,28.3,36],[29.5,45.2,42,31.9,43.8,38.5,39.6,42.1,43.9,41.5,38.3,33.3,44.4,null,41.6,48.3],[2.44,1.68,1.93,1.85,1.73,1.78,1.76,1.84,1.74,1.81,1.94,2,1.77,1.6,2.09,1.82],[78.6,9.9,51.7,61.3,23.1,7.4,23.7,0,null,null,30.6,12.5,14.5,null,25,0],[0,5.6,0,0,0,0,2.4,0,null,null,0,0,6.7,null,0,0],[0,81.1,6.7,8.1,15.4,7.4,70.5,16.7,null,null,16.7,12.5,81.8,null,12.5,0],[113.7,79.4,125.6,130.5,142.4,153.9,66.9,123.1,138,116.3,111.5,141.7,90,null,158.9,124.6],[0,1.4,0.5,3.5,2.9,6.1,1.9,0.9,0,2.8,1.4,0,1.3,0,0.8,1],[99.1,99.1,99.1,99.1,99.1,99.1,106,106,106,106,106,78,78,78,78,78],[null,628,null,null,null,null,650,null,null,null,null,null,460,null,null,null],[0.5,0.3,0.2,0.3,0.5,0.2,0.5,0.2,0.3,0.2,0.3,0,0.1,0,0,0],[18.2,17.9,18.3,17.9,18.5,18.6,17.9,17.8,17.8,17.6,17.9,17.8,17.8,17.8,18.1,17.7],[0,0,0,0,0,0,0,0,0,0,0,0,0,0,0,0],[0,0,0,0,0,0,0,0,0,0,0,0,0,0,0,0],[0,0,0,0,0,0,0,0,0,0,0,0,0,0,0,0],[0,0,0,0,0,0,0,0,0,0,0,0,0,0,0,0],[0,0,0,0,0,0,0,0,0,0,0,0,0,0,0,0],[0,0.3,0,0,0,0,0.3,0,0,0,0,0,0,0,0,0],[30.6,55,34,45.5,48.6,46.2,52,39.6,44.7,38.9,39.8,33.3,51,null,31.5,46.9],[null,null,null,null,null,null,null,null,null,null,null,null,null,null,null,null],[null,null,null,null,null,null,null,null,null,null,null,null,null,null,null,null],[76,79,76,76,76,76,79,76,76,76,76,76,76,76,76,76],[3.8,1.5,10.4,8.2,2.8,3.2,1.7,3.4,null,null,6.9,null,1.5,null,2.9,15],[null,35.1,null,null,null,null,8,null,null,null,null,null,null,null,null,null],[null,62.9,null,null,null,null,null,null,null,null,null,null,56.9,null,null,null],[0,0.1,0.11,0.12,0,0,0.16,0.01,0,0,0,0,0.06,0,0.01,0.01],[40,40,40,40,40,40,40.1,40,40,40,40,40,40,40,40,40],[64.2,64.2,64.2,64.2,64.2,64.2,58.6,58.6,58.6,58.6,58.6,57.2,57.2,57.2,57.2,57.2],[0.708,0.708,0.708,0.708,0.708,0.708,0.746,0.746,0.746,0.746,0.746,0.738,0.738,0.738,0.738,0.738],[2,2,2,2,2,2,1,1,1,1,1,98,98,98,98,98],[0,0,0,0,0,0,0,0,0,0,0,0,0,0,0,0],[76.6,51.9,79.4,32.2,38,41.2,76.3,49,45.6,48.8,65.2,53.4,54.7,58,24.6,52.5],[null,null,null,null,null,null,null,null,null,null,null,null,null,null,null,null],[0,0.1,0.1,0,0,0,0.1,0,0,0,0,0,0,0,0.1,0],[0,0,0,0,0,0,0,0,0,0,0,0,0,0,0,0],[1975,1974,1976,1976,1976,1977,1977,1979,1980,1979,1979,1977,1975,1972,1978,1976],[[[2021,19863],[2022,19516],[2023,20913],[2024,19942],[2025,21762],[2026,23244]],[[2021,17634],[2022,17693],[2023,18423],[2024,19088],[2025,20373],[2026,21745]],[[2021,19375],[2022,20121],[2023,22010],[2024,22043],[2025,22444],[2026,22460]],[[2021,18509],[2022,20137],[2023,20581],[2024,22917],[2025,24248],[2026,24641]],[[2021,16183],[2022,17261],[2023,18252],[2024,18421],[2025,21000],[2026,23439]],[[2021,17207],[2022,17687],[2023,19866],[2024,19395],[2025,19973],[2026,21720]],[[2021,17621],[2022,18200],[2023,18636],[2024,19323],[2025,20466],[2026,21592]],[[2021,17762],[2022,18220],[2023,18823],[2024,19718],[2025,20772],[2026,21545]],[[2021,16422],[2022,15672],[2023,17145],[2024,17329],[2025,18860],[2026,18964]],[[2021,15660],[2022,15888],[2023,15668],[2024,17252],[2025,18787],[2026,19577]],[[2021,17916],[2022,18357],[2023,18741],[2024,19453],[2025,20901],[2026,21503]],[[2021,18982],[2022,19440],[2023,20521],[2024,21176],[2025,24214],[2026,23162]],[[2021,16640],[2022,17222],[2023,17548],[2024,18364],[2025,19295],[2026,19774]],null,[[2021,15090],[2022,16534],[2023,17291],[2024,17767],[2025,17152],[2026,19675]],[[2021,18426],[2022,17764],[2023,17834],[2024,19623],[2025,19320],[2026,19915]]],[[[2021,95],[2022,90],[2023,87],[2024,90],[2025,86],[2026,88]],[[2021,1463],[2022,1443],[2023,1428],[2024,1388],[2025,1332],[2026,1351]],[[2021,216],[2022,202],[2023,202],[2024,203],[2025,191],[2026,193]],[[2021,209],[2022,202],[2023,204],[2024,214],[2025,207],[2026,204]],[[2021,138],[2022,137],[2023,137],[2024,135],[2025,127],[2026,121]],[[2021,214],[2022,213],[2023,223],[2024,220],[2025,221],[2026,208]],[[2021,1997],[2022,1930],[2023,1930],[2024,1871],[2025,1803],[2026,1792]],[[2021,219],[2022,221],[2023,214],[2024,198],[2025,201],[2026,195]],[[2021,85],[2022,87],[2023,87],[2024,86],[2025,86],[2026,82]],[[2021,72],[2022,71],[2023,70],[2024,68],[2025,67],[2026,65]],[[2021,455],[2022,431],[2023,410],[2024,412],[2025,395],[2026,389]],[[2021,86],[2022,89],[2023,84],[2024,77],[2025,74],[2026,72]],[[2021,1269],[2022,1233],[2023,1194],[2024,1177],[2025,1131],[2026,1123]],[[2021,9],[2022,8],[2023,8],[2024,8],[2025,8],[2026,8]],[[2021,128],[2022,121],[2023,117],[2024,110],[2025,109],[2026,113]],[[2021,100],[2022,100],[2023,98],[2024,97],[2025,95],[2026,89]]],[[[2021,3.2],[2022,2.2],[2023,5.7],[2024,4.4],[2025,8.1],[2026,3.4]],[[2021,5.1],[2022,5.1],[2023,5],[2024,4],[2025,4.1],[2026,4]],[[2021,4.2],[2022,4.5],[2023,4.5],[2024,6.4],[2025,6.8],[2026,4.7]],[[2021,8.1],[2022,7.4],[2023,2.9],[2024,3.7],[2025,3.9],[2026,5.4]],[[2021,6.5],[2022,5.1],[2023,8],[2024,5.9],[2025,4.7],[2026,3.3]],[[2021,6.1],[2022,5.6],[2023,8.1],[2024,8.6],[2025,9.5],[2026,8.2]],[[2021,4.6],[2022,5.4],[2023,4.6],[2024,5.2],[2025,6.2],[2026,5.2]],[[2021,6.8],[2022,5.9],[2023,6.5],[2024,8.1],[2025,9.5],[2026,8.7]],[[2021,7.1],[2022,3.4],[2023,4.6],[2024,2.3],[2025,2.3],[2026,6.1]],[[2021,9.7],[2022,8.5],[2023,5.7],[2024,5.9],[2025,7.5],[2026,6.2]],[[2021,7],[2022,8.8],[2023,3.2],[2024,4.4],[2025,7.1],[2026,6.9]],[[2021,4.7],[2022,1.1],[2023,1.2],[2024,2.6],[2025,1.4],[2026,2.8]],[[2021,5.9],[2022,3.6],[2023,4.2],[2024,3.8],[2025,3.7],[2026,5.3]],null,[[2021,6.2],[2022,6.6],[2023,6.8],[2024,8.2],[2025,6.4],[2026,7.1]],[[2021,5],[2022,6],[2023,4.1],[2024,3.1],[2025,4.2],[2026,2.2]]],[17,23.3,15.9,33.1,44.8,26.2,22.5,21.3,15.5,25,20,22,18.8,null,30.4,8.1],[-7.4,-7.7,-10.6,-2.4,-12.3,-2.8,-10.3,-11,-3.5,-9.7,-14.5,-16.3,-11.5,-11.1,-11.7,-11],[6.2,-21.6,11.9,-33.3,-49.2,34.4,13,27.9,-14.1,-36.1,-1.4,-40.4,-10.2,null,14.5,-56],[null,[{"name":"Tuusniemen lukio","score":62.9}],null,null,null,null,null,null,null,null,null,null,[{"name":"Rautavaaran lukio","score":56.9}],null,null,null],[[[2020,72.3],[2021,95.9],[2022,88.1],[2023,114.1],[2024,116.8],[2025,99.1]],[[2020,72.3],[2021,95.9],[2022,88.1],[2023,114.1],[2024,116.8],[2025,99.1]],[[2020,72.3],[2021,95.9],[2022,88.1],[2023,114.1],[2024,116.8],[2025,99.1]],[[2020,72.3],[2021,95.9],[2022,88.1],[2023,114.1],[2024,116.8],[2025,99.1]],[[2020,72.3],[2021,95.9],[2022,88.1],[2023,114.1],[2024,116.8],[2025,99.1]],[[2020,72.3],[2021,95.9],[2022,88.1],[2023,114.1],[2024,116.8],[2025,99.1]],[[2020,81.2],[2021,99.3],[2022,80.7],[2023,68.9],[2024,75.7],[2025,106]],[[2020,81.2],[2021,99.3],[2022,80.7],[2023,68.9],[2024,75.7],[2025,106]],[[2020,81.2],[2021,99.3],[2022,80.7],[2023,68.9],[2024,75.7],[2025,106]],[[2020,81.2],[2021,99.3],[2022,80.7],[2023,68.9],[2024,75.7],[2025,106]],[[2020,81.2],[2021,99.3],[2022,80.7],[2023,68.9],[2024,75.7],[2025,106]],[[2020,65.4],[2021,57.5],[2022,63.7],[2023,99.1],[2024,89.2],[2025,78]],[[2020,65.4],[2021,57.5],[2022,63.7],[2023,99.1],[2024,89.2],[2025,78]],[[2020,65.4],[2021,57.5],[2022,63.7],[2023,99.1],[2024,89.2],[2025,78]],[[2020,65.4],[2021,57.5],[2022,63.7],[2023,99.1],[2024,89.2],[2025,78]],[[2020,65.4],[2021,57.5],[2022,63.7],[2023,99.1],[2024,89.2],[2025,78]]],[37.1,37.1,37.1,37.1,37.1,37.1,30.5,30.5,30.5,30.5,30.5,19.3,19.3,19.3,19.3,19.3],[167.1,167.1,167.1,167.1,167.1,167.1,165,165,165,165,165,149.3,149.3,149.3,149.3,149.3],[null,104,null,null,null,72,81,null,null,null,85,null,49,null,null,null],["Tuusniemi","Tuusniemi","Tuusniemi","Tuusniemi","Tuusniemi","Tuusniemi","Kaavi","Kaavi","Kaavi","Kaavi","Kaavi","Rautavaara","Rautavaara","Rautavaara","Rautavaara","Rautavaara"],[28.38148,28.50257,28.31719,28.65918,28.38278,28.4815,28.53629,28.68566,28.85791,28.90206,28.75978,28.53976,28.3435,28.31218,28.16608,28.65136],[62.93156,62.84059,62.85298,62.80111,62.77185,62.65109,62.99351,63.03929,62.95724,63.01202,62.89263,63.28139,63.51839,63.34579,63.39143,63.39196],[null,null,1.26,null,null,4.12,0.01,null,null,null,null,null,null,null,null,null],[-16.1,-16.1,-16.1,-16.1,-16.1,-16.1,-21,-21,-21,-21,-21,-25.8,-25.8,-25.8,-25.8,-25.8],[3.2,3.2,3.2,3.2,3.2,3.2,9.5,9.5,9.5,9.5,9.5,0.7,0.7,0.7,0.7,0.7],[1,1,null,null,1,1,5,null,null,null,4,null,null,null,1,null],[57.1,57.1,57.1,57.1,57.1,57.1,61.8,61.8,61.8,61.8,61.8,59.4,59.4,59.4,59.4,59.4],[10,10,10,10,10,10,7.9,7.9,7.9,7.9,7.9,6.7,6.7,6.7,6.7,6.7],[9.9,9.9,9.9,9.9,9.9,9.9,14.8,14.8,14.8,14.8,14.8,13.9,13.9,13.9,13.9,13.9],[23.8,23.8,23.8,23.8,23.8,23.8,29.8,29.8,29.8,29.8,29.8,27,27,27,27,27],[25,25,25,25,25,25,26.3,26.3,26.3,26.3,26.3,22.4,22.4,22.4,22.4,22.4],[2.3,2.3,2.3,2.3,2.3,2.3,1.7,1.7,1.7,1.7,1.7,1.6,1.6,1.6,1.6,1.6],[15.8,15.8,15.8,15.8,15.8,15.8,5.6,5.6,5.6,5.6,5.6,10.9,10.9,10.9,10.9,10.9],[null,null,null,null,null,null,null,null,null,null,null,0.1,0.1,0.1,0.1,0.1],[2.6,2.6,2.6,2.6,2.6,2.6,2.4,2.4,2.4,2.4,2.4,3.4,3.4,3.4,3.4,3.4],["[[2020, 0.0], [2021, 0.0], [2022, 0.0], [2023, 0.0], [2024, 0.0], [2025, 0.0]]","[[2020, 1.4], [2021, 1.6], [2022, 1.6], [2023, 1.8], [2024, 1.9], [2025, 1.9]]","[[2020, 0.5], [2021, 0.6], [2022, 0.6], [2023, 0.6], [2024, 0.7], [2025, 0.7]]","[[2020, 3.5], [2021, 4.1], [2022, 4.1], [2023, 4.4], [2024, 4.8], [2025, 4.8]]","[[2020, 2.9], [2021, 3.4], [2022, 3.4], [2023, 3.7], [2024, 4.0], [2025, 4.0]]","[[2020, 6.1], [2021, 7.1], [2022, 7.1], [2023, 7.7], [2024, 8.3], [2025, 8.3]]","[[2020, 1.9], [2021, 2.0], [2022, 2.1], [2023, 2.1], [2024, 2.8], [2025, 2.7]]","[[2020, 0.9], [2021, 1.0], [2022, 1.0], [2023, 1.0], [2024, 1.3], [2025, 1.3]]","[[2020, 0.0], [2021, 0.0], [2022, 0.0], [2023, 0.0], [2024, 0.0], [2025, 0.0]]","[[2020, 2.8], [2021, 3.0], [2022, 3.1], [2023, 3.1], [2024, 4.1], [2025, 4.0]]","[[2020, 1.4], [2021, 1.5], [2022, 1.6], [2023, 1.6], [2024, 2.1], [2025, 2.0]]","[[2020, 0.0], [2021, 0.0], [2022, 0.0], [2023, 0.0], [2024, 0.0], [2025, 0.0]]","[[2020, 1.3], [2021, 1.2], [2022, 1.3], [2023, 1.6], [2024, 2.7], [2025, 3.7]]","[[2020, 0.0], [2021, 0.0], [2022, 0.0], [2023, 0.0], [2024, 0.0], [2025, 0.0]]","[[2020, 0.8], [2021, 0.7], [2022, 0.8], [2023, 1.0], [2024, 1.7], [2025, 2.3]]","[[2020, 1.0], [2021, 0.9], [2022, 1.0], [2023, 1.2], [2024, 2.1], [2025, 2.8]]"],[0,1.9,0.7,4.8,4,8.3,2.7,1.3,0,4,2,0,3.7,0,2.3,2.8],[21.2,23.8,26,20.6,25.5,29.3,25.7,30.6,37.3,28.1,27.3,26.2,30.6,null,37.4,33.7],[46.7,86.4,87,81.6,29.5,44.3,99.5,26.5,26.1,33.3,28.8,47.1,104.8,null,50,34.4],[10.9,10.9,10.9,10.9,10.9,10.9,13,13,13,13,13,null,null,null,null,null],[32.2,32.2,32.2,32.2,32.2,32.2,50.3,50.3,50.3,50.3,50.3,null,null,null,null,null],[null,[[2020,465],[2021,746],[2022,505],[2023,628]],null,null,null,null,[[2021,602],[2022,650]],null,null,null,null,null,null,null,null,null]]}}