{"type":"Topology","objects":{"neighborhoods":{"type":"GeometryCollection","geometries":[{"type":"MultiPolygon","arcs":[[[0,1]]],"properties":{"i":0}},{"type":"MultiPolygon","arcs":[[[2,3,4,5,6,7,8,9,10]]],"properties":{"i":1}},{"type":"MultiPolygon","arcs":[[[-7,11]]],"properties":{"i":2}},{"type":"MultiPolygon","arcs":[[[12,-9]]],"properties":{"i":3}},{"type":"MultiPolygon","arcs":[[[-11,13,14]]],"properties":{"i":4}},{"type":"MultiPolygon","arcs":[[[15,-4,16,17]]],"properties":{"i":5}},{"type":"MultiPolygon","arcs":[[[-16,18,-5]]],"properties":{"i":6}},{"type":"MultiPolygon","arcs":[[[19,-1,20,21,-17,-3,-15,22]]],"properties":{"i":7}},{"type":"MultiPolygon","arcs":[[[23,24]]],"properties":{"i":8}},{"type":"MultiPolygon","arcs":[[[-21,-2,-20,25,26,27,-24,28,29]]],"properties":{"i":9}},{"type":"MultiPolygon","arcs":[[[-29,-25,-28,30,31]]],"properties":{"i":10}},{"type":"MultiPolygon","arcs":[[[32,-31,-27]]],"properties":{"i":11}}]}},"arcs":[[[65333,52447],[-294,65],[-1474,1038],[-2940,1637],[-2187,195],[-1037,624],[-2431,-38],[-256,63]],[[54714,56031],[160,2648],[1056,170],[2069,361],[602,1912],[-233,353],[336,233],[990,-316],[399,-501],[739,-104],[2086,-574],[268,-349],[690,54],[858,252],[631,-263],[-963,-850],[-202,-2341],[837,-834],[465,-1769],[-169,-1666]],[[38470,35457],[507,5],[414,3],[194,-730],[-265,-663],[-289,-651],[-169,-379],[-60,-2056],[707,-2970]],[[39509,28016],[-26,-249],[454,-2398],[1002,-2216],[1102,-3332],[-42,-17],[58,-2185],[-617,-489],[-1200,-663],[-443,-328]],[[39797,16139],[-612,277],[-1658,-432],[-1326,105],[-2629,-1054],[-3308,-510],[-1738,-2738],[-1711,-3747],[-1049,-807],[-8867,337]],[[16899,7570],[-3630,7026]],[[13269,14596],[2871,5079],[-1663,3425],[-601,2694],[-1916,1471],[-236,6],[-176,37],[-3095,39],[-551,140],[-735,76]],[[7167,27563],[-210,692],[-12,90],[-185,502],[-932,1399],[-181,348],[-445,724],[109,666],[-632,765],[-187,206],[-479,2349],[-478,739],[-378,730]],[[3157,36773],[6046,-363],[1786,146],[906,36],[58,5],[2272,110],[808,974],[-942,3906],[-5164,4481]],[[8927,46068],[2931,474],[316,67],[1099,224],[440,40],[1791,15],[8873,-3494]],[[24377,43394],[4059,-7007],[3406,-191],[1386,-14],[140,38],[171,91],[253,243],[1325,-307],[550,-323],[189,-111],[2587,-1630],[27,1274]],[[13269,14596],[-913,-230],[-1659,-1060],[-642,-513],[-434,-855],[-1273,-2517],[-219,-44],[-440,42],[-861,675],[-505,451],[-2122,754],[-771,2836],[-287,902],[146,982],[205,668],[21,13],[355,945],[52,85],[190,1429],[14,107],[456,1800],[17,176],[-568,1938],[355,408],[949,1768],[1832,2207]],[[3157,36773],[-1612,389],[-1545,1045],[2242,4610],[1417,1707],[27,34],[1644,1387],[1503,1252],[381,-154],[1010,-509],[375,-203],[3,-2],[325,-261]],[[24377,43394],[486,1722],[11,37],[333,833],[52,47],[1737,395],[1481,490],[2827,537],[1127,129],[1135,28],[6,6],[1084,1107],[1108,1104]],[[35764,49829],[378,-3835],[1657,-5676],[1009,-1091],[74,-359],[39,-189],[20,-335],[11,-185],[70,-1146],[-81,-228],[-471,-1328]],[[42795,14145],[-2998,1994]],[[39509,28016],[4002,62],[1263,19],[2055,73],[1138,460],[230,90],[1976,772],[1336,-171],[1258,-734],[518,-569],[24,-8],[1119,-368],[1027,-980],[673,-1079],[503,-675],[939,-1260],[1525,-1214],[1040,-397],[4688,-2015]],[[64823,20022],[-4531,-3345],[-336,-249],[-438,-325],[-1048,-558],[-101,-54],[-130,-70],[-149,-79],[-1540,-822],[-712,142],[-390,-223],[-19,17],[-92,42],[-556,-168],[-72,26],[-279,-160],[-4043,706],[-4022,-1486],[-673,-846],[-831,289],[-875,303],[-1191,983]],[[42795,14145],[-2540,-712],[-1230,-536],[-526,-1320],[506,-1007],[234,-2551],[-1452,-369],[-543,-2756],[-2308,-1460],[-1965,-1119],[-3634,-1195],[-2189,401],[-16,25],[-2825,-1005],[-1900,-541],[-2610,614],[-4258,674],[1628,3411],[-275,2825],[7,46]],[[42256,60802],[3074,-1294],[1679,-1603],[7705,-1874]],[[65333,52447],[3415,-749],[5869,116],[1524,639],[2777,-794],[1772,-672],[663,563],[-993,1701],[2088,586],[817,-377],[590,-838],[591,-343],[1308,-565],[8,809],[718,910],[2810,-1922],[-3268,232],[591,-1635],[254,-143],[-2,-240],[336,-482],[4838,-17],[659,562],[3138,349],[1775,-788]],[[97611,49349],[196,-923],[66,-308],[26,-124],[6,-38],[295,-1870],[364,-2315],[6,-41],[63,-399],[88,-380],[497,-2924],[81,-571],[53,-371],[0,-5],[0,-1],[244,-1720],[45,-318],[0,-2],[2,-11],[0,-3],[14,-99],[71,-506],[13,-85],[2,-18],[2,-11],[45,-323],[26,-185],[3,-20],[19,-263],[0,-3],[9,-127],[1,-7],[15,-216],[85,-1178],[1,-15],[50,-704],[-58,21],[-1034,386],[-136,51],[-1132,422],[-10,3],[-1671,622],[-142,115],[-6,5],[-775,625],[-56,-23],[-575,-237],[-15,-6],[-2,-1],[-4,-2],[-199,-83],[-1,-1],[-50,-21],[-102,-43],[-7,-2],[-576,-242],[-116,-49],[-72,-30],[-114,-48],[-19,-8],[-878,-350],[-658,-256],[-493,-183],[-307,-115],[-2,-1],[-150,-56],[-78,-30],[-185,-71],[-109,-42],[-101,-39],[-1942,-759],[-860,-339],[-3,-1],[-29,-12],[-3207,-1274],[-6,-3],[-65,-27],[-591,-244],[-1,0],[-114,-48],[-4,-1],[-388,-161],[1,-1],[392,-667],[490,-833],[1,-3],[64,-109],[0,-1],[2,-3],[124,-213],[240,-415],[1355,-1136],[938,-767],[222,-182],[631,-549],[518,-490],[833,-835],[-28,-28],[-1477,-1523],[-118,-123],[-80,-82],[-63,-65],[-911,-941],[-1262,-1652],[-199,-261],[-49,-64],[-280,-367],[-69,-353],[-1,0],[-3442,148],[-5090,339],[-757,-44],[-265,-15],[-1800,-96],[-958,26],[-2046,54],[-5049,566]],[[35764,49829],[-773,941],[-303,200],[-219,170],[-954,684],[-909,1410],[-225,626],[-1703,3318],[0,212],[375,327],[1254,953],[2252,1315],[1589,147],[376,55],[910,133],[1516,-156],[2030,75],[74,2],[31,15],[1171,546]],[[69757,77615],[1128,-285],[174,-3806],[-1482,-2367],[-976,-349],[-2180,-2916],[-3608,-1555],[-5095,50],[-3253,3111],[-878,1124],[-639,1127],[1473,1714],[3432,2803],[-2721,2195],[-3141,593]],[[51991,79054],[-93,220],[-989,709],[685,164],[1643,97],[576,-434],[984,123],[340,444],[1108,121],[1190,-145],[884,-313],[778,108],[1185,-212],[1423,-190],[1127,-38],[5806,-2328],[1119,235]],[[42256,60802],[852,397],[152,853],[-174,512],[-570,562],[-476,468],[-33,43],[-170,223],[-241,315],[-241,261],[-119,130],[-276,212],[-716,732],[-436,527],[-510,108],[-70,-12],[-474,646],[-179,244],[-753,576],[-459,821],[223,841],[111,417],[1039,760],[71,52],[2060,1172],[18,93]],[[40885,71755],[2457,2405],[3109,1190],[1687,658]],[[48138,76008],[2816,2829],[1037,217]],[[69757,77615],[3,1],[448,115],[11463,5445]],[[81671,83176],[168,-405],[28,-44],[3,-6],[67,-107],[14,-21],[0,-1],[1,-2],[-1,-2],[0,-1],[-1,-1],[0,-1],[0,-2],[-1,-1],[0,-1],[0,-1],[-1,-1],[0,-2],[-1,0],[-1,-1],[0,-1],[-1,-1],[-1,-1],[-2,0],[-1,-1],[-2,-1],[-1,-1],[-2,-1],[-1,-1],[-1,-1],[0,-2],[-1,-1],[0,-1],[1,-1],[0,-2],[1,-1],[0,-1],[2,-5],[1,-1],[0,-1],[2,-4],[0,-2],[1,-1],[-1,-1],[0,-2],[-1,-3],[-1,-1],[-1,-1],[-1,-3],[0,-1],[-1,-3],[0,-1],[-1,-2],[0,-2],[0,-1],[1,0],[2,-1],[1,0],[2,0],[4,0],[4,0],[2,-1],[2,0],[1,0],[2,-1],[3,-2],[1,0],[1,-1],[2,0],[1,-1],[2,0],[2,0],[1,0],[1,0],[2,1],[1,0],[2,0],[1,1],[2,0],[1,1],[1,1],[1,1],[1,1],[2,1],[0,1],[2,1],[1,1],[2,0],[2,1],[2,0],[2,0],[2,0],[2,0],[2,-1],[2,0],[2,0],[1,0],[1,-1],[2,-1],[2,-1],[1,-1],[2,-1],[1,0],[1,-1],[2,1],[2,0],[2,0],[1,1],[4,1],[1,0],[5,2],[1,0],[2,1],[2,0],[2,0],[1,0],[1,0],[2,0],[4,0],[5,0],[2,0],[2,0],[2,0],[1,0],[5,0],[2,0],[2,1],[2,-1],[2,0],[2,0],[1,0],[1,-1],[2,0],[1,0],[0,-1],[1,0],[2,-1],[3,-2],[5,-4],[1,-1],[2,-1],[5,-3],[1,-1],[2,-1],[1,-1],[1,-1],[0,-2],[0,-3],[0,-2],[1,-1],[1,-1],[0,-1],[1,-1],[1,-1],[1,-1],[1,-1],[1,-1],[1,-1],[2,-1],[1,0],[2,-1],[2,0],[4,-1],[2,0],[2,-1],[1,-1],[1,0],[1,-1],[1,-2],[0,-1],[1,-1],[1,-2],[1,-3],[0,-2],[1,-1],[1,-5],[0,-1],[1,-2],[1,-1],[5,-2],[3,-1],[1,-1],[7,-2],[1,0],[1,-1],[3,-1],[1,0],[1,-1],[3,-2],[7,-4],[-1,-2],[5,-15],[9,-23],[31,-12],[39,-16],[3,-2],[31,-23],[24,-19],[22,-20],[9,-28],[6,-25],[2,-21],[-5,-28],[-24,-32],[-28,-24],[-35,-25],[-44,-21],[-44,-13],[-44,-7],[-47,0],[-98,6],[-42,-2],[-44,-18],[-30,-20],[-18,-24],[-11,-26],[0,-1],[0,-17],[4,-8],[7,-14],[36,-50],[20,-55],[26,-51],[18,-27],[20,-23],[21,-18],[2,-3],[15,-14],[29,-15],[15,-7],[12,-6],[28,-10],[49,-10],[27,-4],[28,-1],[29,1],[56,12],[18,7],[21,11],[18,11],[17,18],[22,15],[48,31],[21,11],[8,4],[16,-20],[1,-2],[7,-9],[211,-276],[246,-322],[738,-966],[3,-3],[8,-11],[1184,-1552],[3,-4],[310,-406],[66,-84],[13,-16],[2985,-3779],[384,-488],[1772,-2399],[798,-1083],[472,-1556],[1099,-3629],[89,-296],[69,-231],[221,-840],[36,-37],[380,-141],[-52,-50],[-97,-95],[-159,-117],[15,-45],[30,-89],[387,-1163],[340,-179],[3,-148],[-3,-1],[-125,-66],[-11,-5],[138,-1506],[141,-1354],[47,-447],[1,-11],[1109,-982],[6,-548],[0,-55],[1,-42],[674,-1845],[176,-481],[23,-65],[199,-545],[299,-821],[59,-161],[372,-1244],[476,-2233]],[[48138,76008],[-4448,903],[-590,216]],[[43100,77127],[6,14],[75,173],[-53,104],[-162,316],[-11,20],[-21,42],[-163,316],[-195,380],[-83,101],[-105,203],[-1175,1129],[-4948,-497],[-1117,111],[194,2143],[828,1335],[687,4347],[-377,1099],[-623,1436],[-899,2059],[1197,719],[624,640],[510,-49],[2299,911],[1087,973],[359,2932],[71,54],[2095,673],[988,318],[620,85],[2469,38],[951,-1499],[137,-162],[1138,-457],[28,-36],[43,-57],[1410,-568],[949,-387],[781,-193],[944,-107],[392,-55],[452,-36],[1733,-465],[579,-120],[1527,-318],[4104,-963],[1534,771],[548,275],[445,253],[5578,3162],[2590,1045],[1172,473],[343,138],[133,53],[775,-1860],[554,-1333],[227,-546],[419,-1009],[57,-127],[43,0],[842,-1991],[30,-72],[59,-127],[1460,-3200],[300,-895],[45,-134],[58,-171],[105,-314],[18,-54],[572,-1708],[1,-2],[30,-89],[0,-2],[132,-394],[451,-1089],[510,-1232],[195,-474]],[[40885,71755],[4,20],[217,1126],[8,13],[1664,2321],[47,730],[16,450],[5,126],[254,586]]],"bbox":[27.694049114130582,65.25774377039608,30.138463206094936,66.49307838616016],"transform":{"scale":[0.00002444438536349718,0.000012353469692337809],"translate":[27.694049114130582,65.25774377039608]},"propertiesColumnar":{"format":"columnar/1","keys":["id","postinumeroalue","nimi","namn","euref_x","euref_y","pinta_ala","vuosi","kunta","he_vakiy","he_naiset","he_miehet","he_kika","he_0_2","he_3_6","he_7_12","he_13_15","he_16_17","he_18_19","he_20_24","he_25_29","he_30_34","he_35_39","he_40_44","he_45_49","he_50_54","he_55_59","he_60_64","he_65_69","he_70_74","he_75_79","he_80_84","he_85_","ko_ika18y","ko_perus","ko_koul","ko_yliop","ko_ammat","ko_al_kork","ko_yl_kork","hr_tuy","hr_ktu","hr_mtu","hr_pi_tul","hr_ke_tul","hr_hy_tul","hr_ovy","te_taly","te_takk","te_as_valj","te_yks","te_nuor","te_eil_np","te_laps","te_plap","te_aklap","te_klap","te_teini","te_yhlap","te_aik","te_elak","te_omis_as","te_vuok_as","te_muu_as","tr_kuty","tr_ktu","tr_mtu","tr_pi_tul","tr_ke_tul","tr_hy_tul","tr_ovy","ra_ke","ra_raky","ra_muut","ra_asrak","ra_asunn","ra_as_kpa","ra_pt_as","ra_kt_as","ra_muu_as","tp_tyopy","tp_alku_a","tp_jalo_bf","tp_palv_gu","tp_a_maat","tp_b_kaiv","tp_c_teol","tp_d_ener","tp_e_vesi","tp_f_rake","tp_g_kaup","tp_h_kulj","tp_i_majo","tp_j_info","tp_k_raho","tp_l_kiin","tp_m_erik","tp_n_hall","tp_o_julk","tp_p_koul","tp_q_terv","tp_r_taid","tp_s_muup","tp_t_koti","tp_u_kans","tp_x_tunt","pt_vakiy","pt_tyoll","pt_tyott","pt_0_14","pt_opisk","pt_elakel","pt_muut","city","pno","unemployment_rate","higher_education_rate","pensioner_share","ownership_rate","rental_rate","population_density","child_ratio","student_share","detached_house_share","youth_ratio_pct","gender_ratio","single_parent_hh_pct","families_with_children_pct","tech_sector_pct","healthcare_workers_pct","employment_rate","elderly_ratio_pct","avg_household_size","manufacturing_jobs_pct","public_sector_jobs_pct","service_sector_jobs_pct","new_construction_pct","foreign_language_pct","crime_index","property_price_sqm","transit_stop_density","air_quality_index","daycare_density","school_density","healthcare_density","restaurant_density","grocery_density","cycling_density","single_person_hh_pct","rental_price_sqm","price_to_rent_ratio","walkability_index","traffic_accident_rate","property_price_change_pct","school_quality_score","light_pollution","noise_pollution","voter_turnout_pct","party_diversity_index","broadband_coverage_pct","ev_charging_density","tree_canopy_pct","transit_reachability_score","sports_facility_density","water_proximity_m","avg_construction_year","income_history","population_history","unemployment_history","income_change_pct","population_change_pct","unemployment_change_pct","schools","property_price_history","crime_index_history","crime_index_change_pct","health_index","radon","municipality","lon","lat","flood_risk_pct","population_projection_pct","construction_activity","active_plan_count","political_lean_index","party_vote_kok_pct","party_vote_sdp_pct","party_vote_ps_pct","party_vote_kesk_pct","party_vote_vihr_pct","party_vote_vas_pct","party_vote_rkp_pct","foreign_language_municipal_pct","foreign_language_history","foreign_language_est_pct","low_income_pct","job_self_sufficiency","violent_crime_rate","property_crime_rate","grocery_count","healthcare_count","school_count","daycare_count","restaurant_count"],"cols":[[2732,2726,2727,2728,2729,2730,2731,2733,2735,2734,2736,2737],["93600","93400","93420","93440","93470","93540","93590","93700","93830","93800","93900","93999"],["Kuusamo","Taivalkoski Keskus","Jurmu","Loukusa","Inget","Tyrövaara","Vanhala","Kurkijärvi - Oijusluoma","Rukatunturi","Muojärvi","Oulangan kansallispuisto","Lososaari"],["Kuusamo","Taivalkoski centrum","Jurmu","Loukusa","Inget","Tyrövaara","Vanhala","Kurkijärvi - Oijusluoma","Rukatunturi","Muojärvi","Oulangan kansallispuisto","Lososaari"],[597645,557576,543058,540266,567317,591453,565422,608616,598360,617978,594772,580331],[7317541,7273046,7264412,7294827,7295614,7267416,7247649,7294032,7339532,7331092,7360116,7342516],[78763154,1308393904,243422507,164914949,204264737,405319189,333098313,2750952863,276451973,1602277511,1136540757,16225010],[2026,2026,2026,2026,2026,2026,2026,2026,2026,2026,2026,2026],["305","832","832","832","832","832","832","305","305","305","305","305"],[9524,2780,212,56,109,307,157,1378,896,2149,626,0],[4917,1349,92,22,44,126,58,625,429,995,276,0],[4607,1431,120,34,65,181,99,753,467,1154,350,0],[49,50,51,56,55,43,55,50,42,46,54,0],[167,50,0,0,2,8,2,24,21,53,6,0],[247,85,5,0,2,14,3,44,42,79,10,0],[587,155,13,0,4,35,6,79,72,188,29,0],[324,113,5,3,3,19,2,47,38,112,18,0],[236,64,4,1,4,12,1,25,22,62,14,0],[214,53,3,0,0,9,3,21,12,49,4,0],[291,86,8,0,3,12,4,24,28,38,12,0],[371,86,6,0,1,7,5,50,30,46,10,0],[459,144,12,3,2,12,3,56,79,91,23,0],[497,134,5,5,6,12,5,65,93,114,22,0],[544,128,9,3,1,10,5,60,65,130,28,0],[532,112,10,5,6,10,7,73,51,121,36,0],[503,127,19,3,8,16,14,79,34,102,46,0],[665,214,25,6,11,25,13,116,51,144,51,0],[811,235,27,7,10,22,26,144,76,206,85,0],[816,285,24,6,12,26,22,147,69,213,74,0],[728,249,14,8,13,22,15,167,65,156,63,0],[607,193,10,2,13,17,11,91,26,136,47,0],[434,133,6,2,5,8,4,32,14,62,28,0],[491,134,7,2,3,11,6,34,8,47,20,0],[7963,2313,185,52,94,219,143,1159,701,1655,549,0],[1785,567,44,8,24,60,41,209,129,333,134,0],[6178,1746,141,44,70,159,102,950,572,1322,415,0],[189,43,1,1,1,9,4,20,29,32,10,0],[3926,1232,113,24,51,112,82,698,333,898,300,0],[1580,371,20,17,14,31,14,186,153,304,85,0],[483,100,7,2,4,7,2,46,57,88,20,0],[7963,2313,185,52,94,219,143,1159,701,1655,549,0],[26465,24942,25248,26906,24847,26055,23176,26675,31042,28250,24057,0],[24426,22830,24288,22081,20487,23614,20232,24755,27321,25720,21808,0],[1469,540,47,12,27,49,49,275,104,362,176,0],[5557,1552,119,35,55,136,84,737,461,1010,311,0],[937,221,19,5,12,34,10,147,136,283,62,0],[210737050,57690941,4670890,1399122,2335580,5706097,3314147,30916683,21760650,46754017,13207466,0],[5043,1395,99,29,55,111,87,634,387,874,330,0],[1.9,2,2.1,null,2,2.8,1.8,2.2,2.3,2.5,1.9,0],[43.7,46.2,49.7,null,52.3,39.6,55.8,50.5,43.6,46.7,54.1,null],[2405,644,35,null,23,36,42,193,116,224,136,0],[391,80,6,null,0,2,3,9,29,8,11,0],[123,22,1,null,1,1,0,10,14,9,2,0],[847,221,10,null,4,19,6,103,94,200,41,0],[145,44,0,null,2,7,2,20,18,45,6,0],[289,91,3,null,2,13,3,41,42,76,13,0],[414,105,7,null,2,15,3,55,50,121,20,0],[385,114,6,null,4,13,1,51,41,110,24,0],[207,40,3,null,1,1,0,13,17,19,13,0],[2019,469,44,null,19,37,34,225,172,274,129,0],[2196,713,45,null,32,57,48,311,125,407,162,0],[3238,979,90,null,53,102,76,588,292,821,287,0],[1746,395,6,null,1,7,10,24,86,30,30,0],[59,21,3,null,1,2,1,22,9,23,13,0],[5043,1395,99,29,55,111,87,634,387,874,330,0],[41407,40913,46838,null,42906,52191,38399,48720,56651,53924,40250,null],[34417,34483,39661,null,39843,43803,31277,43996,49766,47990,33005,null],[1423,438,26,null,15,25,37,139,64,166,118,0],[3080,833,57,null,35,68,43,408,254,576,174,0],[540,124,16,null,5,18,7,87,69,132,38,0],[208817147,57073277,4636992,null,2359844,5793146,3340731,30888335,21923790,47129502,13282586,0],[240,490,125,58,169,297,130,1859,2138,2261,1021,1],[2910,1316,156,45,73,194,115,1047,602,1334,564,0],[452,210,10,3,10,39,9,136,220,181,121,0],[2458,1106,146,42,63,155,106,911,382,1153,443,0],[5856,1662,133,36,65,143,110,821,463,1094,442,0],[79,87.3,99.5,103.8,105.5,106.4,93.3,105.3,100.5,110.5,100.2,0],[3592,1306,131,35,62,143,106,796,456,1068,430,0],[2162,314,0,0,0,0,3,9,0,9,2,0],[102,42,2,1,3,0,1,16,7,17,10,0],[4387,984,16,2,11,53,22,150,775,263,112,0],[84,110,2,null,10,22,8,51,10,90,26,0],[738,184,2,null,0,1,10,27,46,53,25,0],[3565,689,12,null,1,30,4,72,719,120,61,0],[84,110,2,null,10,22,8,51,10,90,26,0],[16,0,0,null,0,0,0,0,0,0,0,0],[379,150,0,null,0,1,0,3,2,6,3,0],[20,3,0,null,0,0,0,0,0,0,0,0],[41,3,2,null,0,0,0,6,0,4,1,0],[282,28,0,null,0,0,10,18,44,43,21,0],[561,57,0,null,0,3,0,2,87,5,7,0],[357,40,2,null,0,2,1,6,29,16,9,0],[162,51,1,null,0,14,0,2,177,29,9,0],[41,33,0,null,0,0,0,0,2,0,0,0],[33,7,0,null,0,0,0,0,0,0,0,0],[98,1,0,null,0,0,0,0,4,0,1,0],[156,22,0,null,0,2,0,5,6,4,11,0],[414,57,0,null,0,0,2,2,174,25,10,0],[230,40,0,null,0,0,0,40,0,0,0,0],[309,114,0,null,0,6,0,1,37,12,4,0],[983,205,2,null,1,3,0,1,16,26,2,0],[56,15,6,null,0,0,0,6,160,0,4,0],[165,47,1,null,0,0,1,7,27,3,4,0],[0,0,0,null,0,0,0,0,0,0,0,0],[0,0,0,null,0,0,0,0,0,0,0,0],[0,1,0,null,0,0,0,0,0,0,0,0],[9524,2780,212,56,109,307,157,1378,896,2149,626,0],[3580,898,94,16,33,92,46,517,460,845,222,0],[552,193,14,10,5,23,22,76,30,80,51,0],[1204,360,22,1,9,69,13,182,157,395,59,0],[521,165,9,4,7,27,3,56,47,126,24,0],[3439,1094,66,24,54,91,68,518,192,662,247,0],[228,70,7,1,1,5,5,29,10,41,23,0],["koillismaa","koillismaa","koillismaa","koillismaa","koillismaa","koillismaa","koillismaa","koillismaa","koillismaa","koillismaa","koillismaa","koillismaa"],["93600","93400","93420","93440","93470","93540","93590","93700","93830","93800","93900","93999"],[5.8,6.9,6.6,17.9,4.6,7.5,14,5.5,3.3,3.7,8.1,null],[25.9,20.4,14.6,36.5,19.1,17.4,11.2,20,30,23.7,19.1,null],[36.1,39.4,31.1,42.9,49.5,29.6,43.3,37.6,21.4,30.8,39.5,null],[64.2,70.2,90.9,null,96.4,91.9,87.4,92.7,75.5,93.9,87,null],[34.6,28.3,6.1,null,1.8,6.3,11.5,3.8,22.2,3.4,9.1,null],[121,2,1,0,1,1,0,1,3,1,1,0],[4.3,4.9,2.4,0,3.7,7.2,3.2,4.9,7,6.1,2.6,null],[5.5,5.9,4.2,7.1,6.4,8.8,1.9,4.1,5.2,5.9,3.8,null],[61.3,78.6,98.5,97.2,95.4,100,96.4,97,98.5,97.6,97.3,null],[9.2,8.1,8,0,3.7,9.1,7.6,6.9,7.8,6.2,4.2,null],[1.07,0.94,0.77,0.65,0.68,0.7,0.59,0.83,0.92,0.86,0.79,null],[2.4,1.6,1,null,1.8,0.9,0,1.6,3.6,1,0.6,null],[16.8,15.8,10.1,null,7.3,17.1,6.9,16.2,24.3,22.9,12.4,null],[0.9,3.4,0,null,0,0,0,0,0.3,0,0,null],[22.4,20.8,12.5,null,9.1,5.7,0,0.7,2.1,9.9,1.8,null],[37.6,32.3,44.3,28.6,30.3,30,29.3,37.5,51.3,39.3,35.5,null],[32.3,35.8,28.8,35.7,42.2,27.4,36.9,34.2,20.3,28.6,37.1,null],[1.89,1.99,2.14,1.93,1.98,2.77,1.8,2.17,2.32,2.46,1.9,null],[16.8,18.7,12.5,null,0,1.9,45.5,18,5.9,20.2,22.3,null],[5.2,4.1,0,null,0,0,0,26.7,0,0,0,null],[81.3,70,75,null,9.1,56.6,18.2,48,92.8,45.6,54.5,null],[49.7,79.2,117.3,125,112.3,135.7,104.5,127.5,130,121.9,127.6,null],[3.3,1.9,1.8,1.8,2.5,0.6,0.5,1.2,1.9,0.9,1.2,null],[78.7,73.1,73.1,73.1,73.1,73.1,73.1,78.7,78.7,78.7,78.7,78.7],[1378,883,null,null,null,null,null,null,2086,null,null,null],[1.4,0.1,0.1,0,0,0.2,0,0.1,0.3,0.1,0.1,0],[17.8,21.7,23,22.6,19.3,17.2,18.7,17,18.7,17.1,19.2,19.5],[0.0381,0,0,0,0,0,0,0,0,0,0,0],[0.1016,0.0031,0,0,0.0049,0.0025,0.003,0.0004,0.0036,0.0019,0,0],[0.0381,0.0015,0,0,0,0,0,0,0.0036,0,0,0],[0.2666,0.0054,0,0,0,0.0025,0.003,0.0015,0.0904,0.0044,0.0062,0],[0.0762,0.0008,0,0,0,0,0.003,0,0.0109,0,0.0009,0],[6.3989,0.0673,0,0,0,0.0197,0,0.0022,0.4594,0.01,0.0009,0],[47.7,46.2,35.4,null,41.8,32.4,48.3,30.4,30,25.6,41.2,null],[null,null,null,null,null,null,null,null,null,null,null,null],[null,null,null,null,null,null,null,null,null,null,null,null],[87,78,76,76,76,76,76,76,81,76,76,76],[0.5,2.4,11,null,9.2,3.3,null,4.4,5.6,3.1,2.1,null],[-1.2,null,null,null,null,null,null,null,10.9,null,null,null],[61.6,67.4,null,null,null,null,null,null,null,null,null,null],[6.06,0.26,0.06,0.15,0.18,0.08,0.1,0.2,1.18,0.31,0.55,0.42],[40,40,40,40,40,40,40,40,40,40,40,40],[60,60,60,60,60,60,60,60,60,60,60,60],[0.631,0.594,0.594,0.594,0.594,0.594,0.594,0.631,0.631,0.631,0.631,0.631],[74,98,98,98,98,98,98,74,74,74,74,74],[0.1,0,0,0,0,0,0,0,0,0,0,0],[44.8,59,48.4,37.4,55.5,44.5,56.8,42.8,34.9,45.2,44.5,0.8],[null,null,null,null,null,null,null,null,null,null,null,null],[1.2,0,0,0,0,0,0,0,0.2,0,0,0],[340,430,350,500,370,250,560,350,330,380,290,800],[1981,1981,1983,1983,1983,1984,1982,1984,1984,1984,1984,1984],[[[2021,20928],[2022,20985],[2023,21648],[2024,22444],[2025,23492],[2026,24426]],[[2021,19496],[2022,19677],[2023,20385],[2024,21128],[2025,22062],[2026,22830]],[[2021,18477],[2022,18856],[2023,20794],[2024,21329],[2025,23283],[2026,24288]],[[2021,20151],[2022,17760],[2023,19808],[2024,18037],[2025,21678],[2026,22081]],[[2021,17569],[2022,18017],[2023,18231],[2024,19457],[2025,19570],[2026,20487]],[[2021,17942],[2022,18526],[2023,19637],[2024,22464],[2025,22085],[2026,23614]],[[2021,16722],[2022,17067],[2023,16859],[2024,19420],[2025,19035],[2026,20232]],[[2021,19628],[2022,20319],[2023,21430],[2024,22286],[2025,23226],[2026,24755]],[[2021,23240],[2022,23200],[2023,24593],[2024,25702],[2025,26813],[2026,27321]],[[2021,21389],[2022,21529],[2023,22024],[2024,23247],[2025,24531],[2026,25720]],[[2021,19308],[2022,19962],[2023,19105],[2024,21262],[2025,21825],[2026,21808]],[[2021,0],[2022,0],[2023,0],[2024,0],[2025,0],[2026,0]]],[[[2021,9678],[2022,9746],[2023,9734],[2024,9730],[2025,9663],[2026,9524]],[[2021,2999],[2022,2975],[2023,2977],[2024,2910],[2025,2843],[2026,2780]],[[2021,234],[2022,221],[2023,228],[2024,216],[2025,216],[2026,212]],[[2021,56],[2022,57],[2023,57],[2024,59],[2025,55],[2026,56]],[[2021,120],[2022,120],[2023,122],[2024,117],[2025,107],[2026,109]],[[2021,348],[2022,335],[2023,331],[2024,327],[2025,319],[2026,307]],[[2021,208],[2022,189],[2023,175],[2024,171],[2025,174],[2026,157]],[[2021,1499],[2022,1475],[2023,1463],[2024,1432],[2025,1402],[2026,1378]],[[2021,848],[2022,853],[2023,854],[2024,851],[2025,896],[2026,896]],[[2021,2224],[2022,2241],[2023,2222],[2024,2208],[2025,2161],[2026,2149]],[[2021,699],[2022,673],[2023,667],[2024,667],[2025,631],[2026,626]],[[2021,0],[2022,0],[2023,0],[2024,0],[2025,0],[2026,0]]],[[[2021,4.3],[2022,4.2],[2023,4.1],[2024,4.5],[2025,5.3],[2026,5.8]],[[2021,5.4],[2022,5.2],[2023,4.6],[2024,4.9],[2025,5.6],[2026,6.9]],[[2021,5.6],[2022,6.3],[2023,5.3],[2024,3.7],[2025,5.1],[2026,6.6]],[[2021,12.5],[2022,15.8],[2023,5.3],[2024,8.5],[2025,12.7],[2026,17.9]],[[2021,4.2],[2022,3.3],[2023,2.5],[2024,3.4],[2025,3.7],[2026,4.6]],[[2021,4.6],[2022,6],[2023,5.7],[2024,5.2],[2025,5],[2026,7.5]],[[2021,8.7],[2022,15.3],[2023,10.3],[2024,9.4],[2025,11.5],[2026,14]],[[2021,5.2],[2022,4.8],[2023,4.4],[2024,4.3],[2025,4.9],[2026,5.5]],[[2021,3.4],[2022,3.6],[2023,3],[2024,3.5],[2025,3.9],[2026,3.3]],[[2021,4.6],[2022,4.1],[2023,3.6],[2024,3.2],[2025,4.3],[2026,3.7]],[[2021,3.4],[2022,6.2],[2023,4.8],[2024,4.3],[2025,6.8],[2026,8.1]],null],[16.7,17.1,31.4,9.6,16.6,31.6,21,26.1,17.6,20.2,12.9,null],[-1.6,-7.3,-9.4,0,-9.2,-11.8,-24.5,-8.1,5.7,-3.4,-10.4,null],[34.9,27.8,17.9,43.2,9.5,63,60.9,5.8,-2.9,-19.6,138.2,null],[[{"name":"Kuusamon lukio","score":61.6}],[{"name":"Taivalkosken lukio","score":67.4}],null,null,null,null,null,null,null,null,null,null],[[[2020,1395],[2021,1364],[2022,1540],[2023,1374],[2024,1333],[2025,1378]],null,null,null,null,null,null,null,[[2021,1881],[2022,2086]],null,null,null],[[[2020,98.9],[2021,84.7],[2022,73.2],[2023,65.5],[2024,62.9],[2025,78.7]],[[2020,100],[2021,96],[2022,86.8],[2023,55.4],[2024,74.1],[2025,73.1]],[[2020,100],[2021,96],[2022,86.8],[2023,55.4],[2024,74.1],[2025,73.1]],[[2020,100],[2021,96],[2022,86.8],[2023,55.4],[2024,74.1],[2025,73.1]],[[2020,100],[2021,96],[2022,86.8],[2023,55.4],[2024,74.1],[2025,73.1]],[[2020,100],[2021,96],[2022,86.8],[2023,55.4],[2024,74.1],[2025,73.1]],[[2020,100],[2021,96],[2022,86.8],[2023,55.4],[2024,74.1],[2025,73.1]],[[2020,98.9],[2021,84.7],[2022,73.2],[2023,65.5],[2024,62.9],[2025,78.7]],[[2020,98.9],[2021,84.7],[2022,73.2],[2023,65.5],[2024,62.9],[2025,78.7]],[[2020,98.9],[2021,84.7],[2022,73.2],[2023,65.5],[2024,62.9],[2025,78.7]],[[2020,98.9],[2021,84.7],[2022,73.2],[2023,65.5],[2024,62.9],[2025,78.7]],[[2020,98.9],[2021,84.7],[2022,73.2],[2023,65.5],[2024,62.9],[2025,78.7]]],[-20.4,-26.9,-26.9,-26.9,-26.9,-26.9,-26.9,-20.4,-20.4,-20.4,-20.4,-20.4],[117.2,117.2,117.2,117.2,117.2,117.2,117.2,117.2,117.2,117.2,117.2,117.2],[65,69,56,null,null,null,null,null,null,null,null,57],["Kuusamo","Taivalkoski","Taivalkoski","Taivalkoski","Taivalkoski","Taivalkoski","Taivalkoski","Kuusamo","Kuusamo","Kuusamo","Kuusamo","Kuusamo"],[29.18544,28.26506,27.87909,27.88566,28.51686,28.94152,28.45658,29.54642,29.13753,29.60457,29.10263,28.74751],[65.97482,65.62654,65.48229,65.76837,65.76405,65.50783,65.36182,65.72673,66.20143,66.19289,66.34608,66.1818],[null,null,null,null,null,null,null,null,null,null,null,null],[-5.9,-17.3,-17.3,-17.3,-17.3,-17.3,-17.3,-5.9,-5.9,-5.9,-5.9,-5.9],[15.1,3.3,3.3,3.3,3.3,3.3,3.3,15.1,15.1,15.1,15.1,15.1],[null,null,null,null,null,null,null,null,null,null,null,null],[59.6,60.4,60.4,60.4,60.4,60.4,60.4,59.6,59.6,59.6,59.6,59.6],[10.5,5.9,5.9,5.9,5.9,5.9,5.9,10.5,10.5,10.5,10.5,10.5],[12.1,16.6,16.6,16.6,16.6,16.6,16.6,12.1,12.1,12.1,12.1,12.1],[23,28.7,28.7,28.7,28.7,28.7,28.7,23,23,23,23,23],[39.5,38.6,38.6,38.6,38.6,38.6,38.6,39.5,39.5,39.5,39.5,39.5],[7,1.8,1.8,1.8,1.8,1.8,1.8,7,7,7,7,7],[3.5,3.9,3.9,3.9,3.9,3.9,3.9,3.5,3.5,3.5,3.5,3.5],[0.1,0.1,0.1,0.1,0.1,0.1,0.1,0.1,0.1,0.1,0.1,0.1],[5,2.5,2.5,2.5,2.5,2.5,2.5,5,5,5,5,5],[[[2020,3.3],[2021,3.6],[2022,4.2],[2023,5.1],[2024,5.6],[2025,6.3]],[[2020,1.9],[2021,2.2],[2022,2.3],[2023,2.5],[2024,2.5],[2025,2.6]],[[2020,1.8],[2021,2.1],[2022,2.2],[2023,2.4],[2024,2.4],[2025,2.5]],[[2020,1.8],[2021,2.1],[2022,2.2],[2023,2.4],[2024,2.4],[2025,2.5]],[[2020,2.5],[2021,2.9],[2022,3.1],[2023,3.3],[2024,3.3],[2025,3.5]],[[2020,0.6],[2021,0.7],[2022,0.7],[2023,0.8],[2024,0.8],[2025,0.8]],[[2020,0.5],[2021,0.6],[2022,0.6],[2023,0.7],[2024,0.7],[2025,0.7]],[[2020,1.2],[2021,1.3],[2022,1.5],[2023,1.8],[2024,2],[2025,2.3]],[[2020,1.9],[2021,2],[2022,2.4],[2023,2.9],[2024,3.2],[2025,3.7]],[[2020,0.9],[2021,1],[2022,1.1],[2023,1.4],[2024,1.5],[2025,1.7]],[[2020,1.2],[2021,1.3],[2022,1.5],[2023,1.8],[2024,2],[2025,2.3]],null],[6.3,2.6,2.5,2.5,3.5,0.8,0.7,2.3,3.7,1.7,2.3,null],[18.4,23.3,25.4,23.1,28.7,22.4,34.3,23.7,14.8,21.9,32.1,null],[122.5,109.6,17,12.5,33.3,57.6,47.8,29,168.5,31.1,50.5,null],[5.3,6.1,6.1,6.1,6.1,6.1,6.1,5.3,5.3,5.3,5.3,5.3],[21.4,12.9,12.9,12.9,12.9,12.9,12.9,21.4,21.4,21.4,21.4,21.4],[6,1,0,0,0,0,1,0,3,0,1,0],[3,2,0,0,0,0,0,0,1,0,0,0],[8,4,0,0,1,1,1,1,1,3,0,0],[3,0,0,0,0,0,0,0,0,0,0,0],[21,7,0,0,0,1,1,4,25,7,7,0]]}}