{"type":"Topology","objects":{"neighborhoods":{"type":"GeometryCollection","geometries":[{"type":"MultiPolygon","arcs":[[[0,1,2,3]]],"properties":{"i":0}},{"type":"MultiPolygon","arcs":[[[4,-4,5,6]]],"properties":{"i":1}},{"type":"MultiPolygon","arcs":[[[7,8,9]]],"properties":{"i":2}},{"type":"MultiPolygon","arcs":[[[10,11,12,-10,13,14,15]]],"properties":{"i":3}},{"type":"MultiPolygon","arcs":[[[16,-2,17,18,19,-8,-13,20,21]]],"properties":{"i":4}},{"type":"MultiPolygon","arcs":[[[-14,-9,-20,22,23]]],"properties":{"i":5}},{"type":"MultiPolygon","arcs":[[[24,-23,-19]]],"properties":{"i":6}},{"type":"MultiPolygon","arcs":[[[25,26,-6,-3,-17,27,28,29]]],"properties":{"i":7}},{"type":"MultiPolygon","arcs":[[[30,31,32,-29,33,-21,-12]]],"properties":{"i":8}},{"type":"MultiPolygon","arcs":[[[-34,-28,-22]]],"properties":{"i":9}},{"type":"MultiPolygon","arcs":[[[34,35,36,37,38,39,40,41]]],"properties":{"i":10}},{"type":"MultiPolygon","arcs":[[[-35,42,43,44]]],"properties":{"i":11}},{"type":"MultiPolygon","arcs":[[[45,-38,46]]],"properties":{"i":12}},{"type":"MultiPolygon","arcs":[[[-37,47,48,-47]]],"properties":{"i":13}},{"type":"MultiPolygon","arcs":[[[49,50,51,-39,-46,-49,52]]],"properties":{"i":14}},{"type":"MultiPolygon","arcs":[[[53,-50,54]]],"properties":{"i":15}},{"type":"MultiPolygon","arcs":[[[-52,55,-26,56,-40]]],"properties":{"i":16}},{"type":"MultiPolygon","arcs":[[[-56,-51,-54,57,-7,-27]]],"properties":{"i":17}},{"type":"MultiPolygon","arcs":[[[58,59,-41,-57,-30,-33]]],"properties":{"i":18}},{"type":"MultiPolygon","arcs":[[[-32,60,61,62,-59]]],"properties":{"i":19}},{"type":"MultiPolygon","arcs":[[[-61,-31,-11,63,64,65]]],"properties":{"i":20}},{"type":"MultiPolygon","arcs":[[[-64,-16,66,67]]],"properties":{"i":21}},{"type":"MultiPolygon","arcs":[[[-62,-66,68,69,70,71]]],"properties":{"i":22}},{"type":"MultiPolygon","arcs":[[[-43,-42,-60,-63,-72,72,73,74]]],"properties":{"i":23}},{"type":"MultiPolygon","arcs":[[[-69,-65,-68,75,76,77]]],"properties":{"i":24}},{"type":"MultiPolygon","arcs":[[[-77,78,79]]],"properties":{"i":25}},{"type":"MultiPolygon","arcs":[[[-73,-71,80]]],"properties":{"i":26}},{"type":"MultiPolygon","arcs":[[[81,82,-74,-81,-70,-78,-80,83,84,85,86]]],"properties":{"i":27}},{"type":"MultiPolygon","arcs":[[[87,-44,-75,-83,88]]],"properties":{"i":28}},{"type":"MultiPolygon","arcs":[[[-89,-82,89]]],"properties":{"i":29}},{"type":"MultiPolygon","arcs":[[[90,91,92,93]]],"properties":{"i":30}},{"type":"MultiPolygon","arcs":[[[-86,94,-92,95]]],"properties":{"i":31}},{"type":"MultiPolygon","arcs":[[[-85,96,97,-93,-95]]],"properties":{"i":32}},{"type":"MultiPolygon","arcs":[[[-94,-98,98]]],"properties":{"i":33}}]}},"arcs":[[[4239,50396],[-1831,385],[-196,-396],[-147,-297],[-989,-185],[-391,213],[-685,3130],[162,8026],[-124,4439],[2696,2422],[1707,3056],[1370,845]],[[5811,72034],[2683,-3583],[1473,-1970]],[[9967,66481],[-589,-1155],[-86,-394],[-52,-311],[-96,-570],[-158,-1056],[20,-729]],[[9006,62266],[-127,-200],[-177,-259],[-230,-406],[-292,-614],[-203,-104],[-718,-339],[-1040,-1014],[64,-391],[46,-426],[313,-512],[239,-731],[-14,-43],[237,-867],[25,-41],[198,-1031],[-754,-1200],[-382,-1358],[258,-702],[125,-109],[3,-136],[-382,-199],[-1956,-1188]],[[8821,40555],[-310,452],[-163,238],[-30,118],[-2721,3227],[-184,321],[-916,547],[-493,973],[-449,975],[161,1272],[523,1718]],[[9006,62266],[3752,-2035],[78,-170],[15,-22],[529,-1986],[1327,-3208],[378,-671],[-61,-524],[-40,-1110],[-62,-910],[-9,-85],[141,-1863],[864,-687],[221,-905]],[[16139,48090],[-1004,-1223],[-403,-860],[35,-432],[517,-3430],[-1111,-326],[-932,858],[-30,13],[-587,295],[-1470,176],[-2333,-2606]],[[28722,73254],[-2011,-99],[-43,52],[-171,460],[-88,87],[-75,163],[-388,-443],[-46,197],[-23,206],[-304,134],[-60,5],[-350,57],[-89,-173],[-525,101],[-243,252],[-949,2069],[-1,29],[-771,3620]],[[22585,79971],[339,1078],[9,20],[865,2383],[234,248],[34,13],[42,94],[921,31],[152,8],[587,135],[11,4],[314,25],[213,7],[4389,-354],[794,-1789]],[[31489,81874],[101,-878],[-962,-5028],[-43,-190],[-1863,-2524]],[[39694,65280],[-246,189],[-1878,1442],[-281,1414],[-301,496],[-1615,-123],[-37,-4],[-1067,-1699],[-647,-862]],[[33622,66133],[-1541,642],[-1406,524],[-498,-129]],[[30177,67170],[-47,45],[-1055,1130],[-405,446],[-222,3548],[287,881],[-13,34]],[[31489,81874],[111,221],[1872,2183],[596,850],[968,1036]],[[35036,86164],[2034,-3664],[646,-1221],[201,-1155],[152,-551],[152,-543],[1637,-4152],[451,-626]],[[40309,74252],[-171,-743],[614,-1956],[346,-648],[699,-1311],[-454,-839],[-189,-306],[-89,-451],[-419,-635],[-113,-257],[-542,-649],[-29,-41],[-166,-703],[-102,-433]],[[21308,60336],[-801,276],[-3042,1423],[-1755,760],[-5743,3686]],[[5811,72034],[497,1344],[1454,3925],[2109,315],[862,128],[926,535],[1633,205],[1647,3075],[95,266],[332,1299]],[[15366,83126],[956,696],[255,9],[1659,922],[353,38]],[[18589,84791],[208,-460],[536,-1465],[-6,-99],[30,-126],[198,-354],[109,-163],[5,-38],[969,-758],[61,-30],[630,-866],[172,-322],[49,-36],[545,-86],[155,-2],[335,-15]],[[30177,67170],[-557,-1020],[-575,-1195],[-10,-1],[-1574,-848],[-508,-323],[-266,6],[-527,146],[21,172],[-74,228],[68,339],[-657,-206]],[[25518,64468],[-60,43],[32,318],[-361,168],[-4,13],[31,240],[100,86],[-4,147],[-264,280],[226,373],[-5,37],[-46,363],[-67,115],[-479,-60],[-37,-31],[-65,-378],[-12,-268],[-9,-126],[41,-99],[-26,-259],[-205,-306],[-21,-180],[27,-73],[35,-217],[-302,-315],[-334,137],[-91,-158],[209,-913],[-162,-245],[-111,-88],[-717,-492],[-155,-25],[-90,-140],[-766,-1384],[-518,-695]],[[18589,84791],[4,123],[-32,350],[230,777],[167,876],[21,123],[459,517],[526,323],[931,930],[-94,2065],[-664,1133]],[[20137,92008],[1453,2728],[450,5263],[2003,-1037],[1456,48],[12,5],[932,-227],[542,-160],[535,-293],[222,-3149],[3363,-1276],[1267,645],[2501,1752],[3695,-3121],[843,-768],[-2639,-2852],[-1736,-3402]],[[15366,83126],[-936,1815],[-265,1302],[-59,134],[120,296],[99,2],[-17,1015],[-411,1610],[-98,511],[-328,1134],[-475,925],[883,453],[449,140],[1390,-154],[1340,43],[527,122],[1851,-165],[701,-301]],[[22159,45586],[-4483,-2081]],[[17676,43505],[-393,865],[-27,1997],[-1117,1723]],[[21308,60336],[91,-182],[148,-350],[690,-586]],[[22237,59218],[801,-3733],[467,-276]],[[23505,55209],[-1193,-2162],[303,-2390],[-28,-1649],[-428,-3422]],[[33622,66133],[-1791,-6420],[-129,-327],[-14,-2794],[0,-276],[9,-69],[15,-113],[184,-645]],[[31896,55489],[-75,-1029],[-873,-1394],[-132,-501],[3,-67],[-129,-241],[-51,-140],[-138,-275]],[[30501,51842],[-877,-107],[-256,-29],[-575,-473],[-661,-748],[-3,-8],[-1333,889],[-3291,3843]],[[22237,59218],[3328,1761],[633,8],[205,432],[-177,223],[-1,9],[-210,547],[197,294],[-125,628],[-53,5],[-282,357],[-14,56],[4,114],[-132,209],[-4,27],[-4,122],[36,104],[-120,354]],[[42195,25124],[-209,-683],[-154,-369],[-1266,-1802],[-177,-604],[-78,-1265],[258,-1220],[631,-856],[2032,-796],[182,-167],[-692,-948],[-973,-156],[-2,-12]],[[41747,16246],[-334,-1289],[-34,-199],[-151,-358]],[[41228,14400],[-1252,1388],[-782,650],[-657,426],[-378,-62],[-31,30],[-780,505]],[[37348,17337],[-7,247],[-92,655],[805,2054],[-1750,-234],[-2,73],[-51,341],[227,283],[189,410],[0,51],[47,369],[-4,11],[39,142],[5,443],[-202,312],[-1027,9],[-258,623],[-4,15],[481,1717],[104,87],[105,853],[-45,1097],[40,85],[130,580],[13,599],[-42,117],[-21,84],[-460,410],[-91,88],[-342,397],[-738,-134],[-181,-272],[-46,-6],[-500,115],[-251,-355],[-42,22],[-301,-12],[-60,-83],[171,-282],[-61,-236],[-234,-114],[-70,255],[31,129],[-226,211],[-582,-139],[-1229,-437],[-1943,-1316],[-444,-1244],[-43,-1435],[321,-1654]],[[28707,22268],[-201,-80],[-2230,-512],[-383,208],[-90,145],[-280,574]],[[25523,22603],[103,1182],[245,380],[90,1542],[-73,193],[-550,302],[-421,465],[-380,638],[502,704],[1059,-348],[101,245],[-552,785],[-575,325],[1359,1215],[-77,203],[26,1335],[-775,1496],[88,4125],[-25,390],[-677,1149],[5,23],[-610,2008],[334,2252]],[[24720,43212],[6151,-700],[36,-2],[411,-81],[299,287],[4,70],[209,255],[213,2],[121,-15],[88,-39],[32,-9],[83,-58],[480,-6],[212,-468],[32,-51],[378,160],[107,9],[48,18],[193,189],[72,156],[235,-148],[393,269],[17,106],[66,72],[-63,376],[170,258],[20,5],[184,-11],[145,-96],[101,-334],[-24,-87],[-121,-169],[50,-109],[38,-45],[817,-432],[151,-196],[197,76],[458,-7],[137,112],[42,559],[-4,83],[266,681],[169,333],[7,526],[525,1084],[141,217]],[[38006,46052],[129,-503],[814,-1436],[-76,-704],[-262,-917],[-244,-166],[4,-222],[509,-321],[-26,-55],[-9,-34],[-338,-609],[-23,-261],[545,-2014],[1198,-5637],[849,-1872],[850,-1833],[269,-4344]],[[42195,25124],[1340,-158],[584,-209],[1069,-229],[2977,-556],[399,-293]],[[48564,23679],[-1201,-1942],[-293,-4122]],[[47070,17615],[-1801,-274],[-1474,-1545],[-302,-265],[-830,340],[-916,375]],[[32229,18589],[-59,243],[-521,184],[-123,92],[-759,1619],[-790,307],[-321,512],[-67,20],[-882,702]],[[37348,17337],[-1297,-450],[-9,-6],[-28,7],[-879,19],[-984,861],[-231,36],[-59,-25],[-819,-41],[-813,851]],[[41228,14400],[-65,-374],[-63,-354],[1071,-961],[1086,-1630],[123,-443],[-385,-1717],[-705,-934],[-998,2228],[-568,727],[114,1023],[-798,54],[-1114,-657],[-1838,-2355],[-851,-997],[-899,-341],[-373,98],[-557,50],[-2766,305],[-559,399]],[[31083,8521],[-625,6218],[1220,1507],[-576,1074],[-344,59],[-32,167],[16,161],[15,79],[1228,363],[244,440]],[[24751,6721],[-836,1410],[76,2625],[-794,1779],[-70,511],[-110,442],[-20,1315],[278,478],[445,2854],[-563,679]],[[23157,18814],[-14,340],[-137,1383],[-112,744],[1515,1048]],[[24409,22329],[1114,274]],[[31083,8521],[-6332,-1800]],[[13541,16517],[848,1030],[897,114],[540,-87],[1597,2706],[718,19],[195,-166],[731,-1554],[500,-143],[422,-413],[1098,-247],[2070,1038]],[[24751,6721],[-241,-1619],[-2,-41],[-79,-3328],[-957,-96],[-4112,-975],[-2854,179],[-1252,-685],[-1800,190],[-1967,932],[-292,6572],[1670,2347],[524,736],[364,156],[54,293],[503,2723],[-502,820],[-6,16],[-134,651],[-24,120],[-103,805]],[[24409,22329],[-804,795],[-359,268],[-4,2],[-1043,19],[-1243,444],[-1466,2052],[-190,856],[2,26],[-508,3619],[1100,2079],[-635,2032],[60,4238],[-70,1146],[-520,325],[-234,521],[-145,169],[-23,117],[-122,387],[-529,2081]],[[22159,45586],[400,-1168],[2161,-1206]],[[13541,16517],[-450,108],[-417,101],[-959,2191],[-1921,170],[-807,2628],[-123,121],[306,1356],[23,1546],[-265,942],[40,247],[44,264],[-27,201],[-657,2530],[-481,2019],[-59,29],[-660,907],[0,71],[0,413],[245,-84],[197,-67],[91,242],[-3,33],[-81,115],[-192,2235],[56,123],[189,131],[356,636],[835,4830]],[[30501,51842],[-7,-186],[208,-837],[327,-565],[198,-2149],[23,-538],[255,-454],[370,148],[1,-1],[372,-157],[124,-159],[158,90],[61,49],[191,-18],[49,6],[231,-65],[42,-29],[100,-41],[40,-23],[20,-17],[23,-12],[78,-71],[46,-64],[44,-50],[26,-40],[18,-198],[31,-84],[15,-72],[103,-264],[263,-153],[53,-28],[34,-10],[453,-107],[252,45],[99,14],[208,81],[2024,1838],[990,211]],[[38024,47932],[142,-1260],[-160,-620]],[[31896,55489],[1701,318],[2587,117],[1981,-275],[333,-181]],[[38498,55468],[211,-652],[387,-658],[48,-707],[118,-664],[-26,-2958]],[[39236,49829],[-308,-312],[-23,-26],[-881,-1559]],[[39694,65280],[-74,-574],[364,-121],[792,159],[1317,616],[664,-37],[448,-130],[371,-408],[90,-308],[150,-323],[314,-512]],[[44130,63642],[97,-492]],[[44227,63150],[-956,-927],[-145,-135],[-799,-1233],[-272,-201],[241,-1142],[44,-539],[6,-377],[-70,-367],[-1373,-448],[-1816,-448],[-589,-1865]],[[40309,74252],[715,16],[4072,-1467],[219,-79],[1394,-986]],[[46709,71736],[-387,-1642],[-109,-304],[-116,-348],[-314,-1327],[-77,-324],[-75,-83],[-385,-833],[407,-1465],[-1523,-1768]],[[44227,63150],[468,-291],[961,-977],[604,-624],[867,422],[-248,-923],[-219,-250],[95,-252],[1433,-73],[100,-120],[-51,-2304],[533,-1200],[94,-101],[253,-86],[32,-53],[1,-27],[152,-465],[203,-1320],[1009,-916],[3368,-2661],[2824,-1194]],[[56706,49735],[-1370,-1833],[-93,-931]],[[55243,46971],[-2025,687],[-230,572],[-899,-268],[-1503,-790],[-51,-279],[-16,-311],[-162,-752],[-148,-1299],[-176,-439],[-944,-1469],[-225,-175],[-656,-870]],[[48208,41578],[-2702,-274],[-452,1715],[-186,932],[-209,806],[-77,967],[-83,185],[-9,141],[64,127],[262,947],[-3133,-47],[-1065,458],[-1382,2294]],[[48208,41578],[2484,-7335],[2903,-776]],[[53595,33467],[-161,-1982],[167,-217],[37,-234],[170,-236],[251,-512],[77,-45],[53,-652],[-15,-32],[-742,-640],[-1130,-466],[-1096,-1175]],[[51206,27276],[-85,-208],[-221,-259],[-123,-83],[-432,-162],[-402,-152],[-17,-22],[-108,-264],[100,-349],[47,-161],[43,-101],[-352,-226],[-591,-378],[16,-245],[-10,-32],[-507,-955]],[[46709,71736],[948,-679],[68,-49],[216,-155],[595,-903],[588,-890],[1197,-2011],[1011,627],[401,1262],[1049,541],[2550,-1058]],[[55332,68421],[8,-690],[345,-1655],[353,-2122],[748,-2812],[988,-2554],[663,-602],[485,206],[-85,-1197],[-9,-48],[538,-1285],[232,-2101],[619,-1246]],[[60217,52315],[-125,-544],[-458,-517],[-1911,-1748],[-1017,229]],[[55332,68421],[1365,-252],[2295,-1968],[2762,-1137],[100,339],[55,33],[72,-71],[89,-138],[30,-46],[119,-28],[28,113],[1,51],[2,47],[32,64],[154,307],[132,263],[125,103]],[[62693,66101],[1033,-3241],[312,-1981],[-255,-5673],[-702,-2792],[-736,-881],[-859,-418],[210,1734],[-33,62],[-1446,-596]],[[55243,46971],[26,-134],[107,-42],[1623,169],[143,-61],[58,-24],[12,-17],[8,-15],[263,-329],[244,-955],[444,380],[943,-193],[-260,-539],[-125,-48],[-1102,170],[-150,-181],[-279,-337],[3,-354],[-442,-745],[591,-952],[715,-562],[-29,-254],[170,-716],[135,-340],[403,-589],[499,-729],[129,-4199],[-1245,-2814],[-2953,131],[-1579,775]],[[63741,8947],[-492,4649],[-339,1547],[-864,1145],[-1050,900],[-829,1125],[-113,376]],[[60054,18689],[106,547],[83,860],[154,415],[-190,567],[4,523],[-131,339],[38,308],[153,135],[582,753],[-2,117],[11,69],[-496,642],[-13,102],[-194,49],[-116,-78],[-474,195],[-49,57],[-330,1348],[-3596,1327],[-2421,-1760],[-129,-94],[-6,-37],[-442,97],[-777,470],[572,735],[12,235],[-26,33],[-1171,633]],[[62693,66101],[29,1413],[-742,1743],[784,774],[-235,733],[41,0],[189,2],[896,513],[202,-202],[582,-508],[469,-1797],[-131,-1408],[339,-2544],[51,-299],[123,-2237],[10,-9],[84,-182],[351,-759],[1299,-533],[22,3],[186,-1516],[-25,-72],[1292,-1946],[1457,-175],[2931,-843],[544,508],[1502,273],[1769,-680]],[[76712,56353],[-1000,-2293],[-70,-632],[-150,-779],[-60,-3490],[-2587,-8033],[-438,-2255],[-340,-1096],[-84,-307],[-463,-1283],[-1316,-32],[-429,-218],[-282,-469],[-190,-349],[2,-31],[1,-9],[-262,-776],[-377,-685],[-402,-289],[-242,-137],[-159,-111],[-144,-172],[-138,-191],[-145,-260],[-31,-59],[-30,-326],[199,-599],[268,-306],[1130,-2527],[43,-151]],[[69016,28488],[-152,-227],[-96,-63],[-278,-473],[-231,-463],[-58,-140],[114,-678],[2,-2],[386,-878],[81,-40],[235,-311],[50,-106],[432,-536],[35,-21],[48,-20],[48,-36],[36,-117],[1,-398],[131,-671],[-274,-484],[-369,-427],[-125,6],[-1228,-471],[-105,-144],[-20,-229],[-53,-1086],[20,-71],[535,-1628],[86,-13],[1374,-742],[64,-1471],[810,-1256],[280,-433]],[[70795,14859],[-1209,-1755],[-494,-2837],[-2181,-1004],[-1935,-7],[-1235,-309]],[[53675,17342],[-6605,273]],[[60054,18689],[-1145,-776],[-822,-455],[-647,-232],[-232,-61],[-3533,177]],[[63741,8947],[-1421,-8947],[-546,35],[-887,5],[-26,19],[-4373,4213],[-461,3117],[-583,2436],[-183,514],[-140,116],[-770,108],[-726,-286],[-602,1052],[-501,997],[456,1066],[556,2722],[141,1228]],[[92901,46250],[7098,-17063],[-4656,-1711],[-2705,-3248],[-506,-608],[-487,-585],[201,-473],[-64,-438],[-816,-974],[-1526,-526],[-1620,2215],[-1231,-100],[-157,634],[354,429],[-787,320],[-242,-482],[-957,-816],[-1678,-3735],[-75,-48],[-1104,-716],[-4060,364],[137,1378]],[[78020,20067],[-207,1985],[-859,678],[-1582,-172],[-716,1358],[155,368],[-174,933],[306,465],[-57,123],[-13,-1],[-298,-449],[-60,96],[-48,133],[3,14],[-48,269],[242,53],[-6,101],[-425,111],[-559,705]],[[73674,26837],[396,156],[270,217],[829,612],[629,1019],[-101,323],[-342,204],[-90,-226],[-310,258],[-248,434],[620,190],[518,599],[850,1705],[737,1708],[1007,1708],[619,1288],[-417,3945],[107,1431],[732,479],[749,229],[1754,-300],[550,306],[744,424],[337,728],[898,1632],[55,298],[127,932],[18,1281],[538,3149],[933,3191]],[[86183,54757],[1174,-1966],[1312,-763],[3099,-3894],[782,-779],[351,-1105]],[[69016,28488],[1383,870],[1448,-78],[285,-941],[116,-400],[443,-509],[663,-1037],[320,444]],[[78020,20067],[-3476,237],[-746,50],[135,-3017],[297,-2210],[-576,-2151],[417,-1330],[-1111,-514],[-839,3276],[-1326,451]],[[76712,56353],[338,1771],[238,875],[166,611],[307,235],[1541,1180],[2377,-1],[512,-199],[3953,-5604]],[[86144,55221],[39,-464]],[[86144,55221],[1633,5066],[1675,1381],[674,334],[901,866],[4,81],[2899,-932],[383,-446],[268,-313],[323,-376],[637,-713],[883,-989],[-319,-1260],[-222,-879],[427,-455],[590,-628],[1482,-2263],[-5481,-7445]]],"bbox":[23.15427344322519,62.365169584909125,24.570290319911603,62.931244501608546],"transform":{"scale":[0.000014160310369967831,0.000005660805775051958],"translate":[23.15427344322519,62.365169584909125]},"propertiesColumnar":{"format":"columnar/1","keys":["id","postinumeroalue","nimi","namn","euref_x","euref_y","pinta_ala","vuosi","kunta","he_vakiy","he_naiset","he_miehet","he_kika","he_0_2","he_3_6","he_7_12","he_13_15","he_16_17","he_18_19","he_20_24","he_25_29","he_30_34","he_35_39","he_40_44","he_45_49","he_50_54","he_55_59","he_60_64","he_65_69","he_70_74","he_75_79","he_80_84","he_85_","ko_ika18y","ko_perus","ko_koul","ko_yliop","ko_ammat","ko_al_kork","ko_yl_kork","hr_tuy","hr_ktu","hr_mtu","hr_pi_tul","hr_ke_tul","hr_hy_tul","hr_ovy","te_taly","te_takk","te_as_valj","te_yks","te_nuor","te_eil_np","te_laps","te_plap","te_aklap","te_klap","te_teini","te_yhlap","te_aik","te_elak","te_omis_as","te_vuok_as","te_muu_as","tr_kuty","tr_ktu","tr_mtu","tr_pi_tul","tr_ke_tul","tr_hy_tul","tr_ovy","ra_ke","ra_raky","ra_muut","ra_asrak","ra_asunn","ra_as_kpa","ra_pt_as","ra_kt_as","ra_muu_as","tp_tyopy","tp_alku_a","tp_jalo_bf","tp_palv_gu","tp_a_maat","tp_b_kaiv","tp_c_teol","tp_d_ener","tp_e_vesi","tp_f_rake","tp_g_kaup","tp_h_kulj","tp_i_majo","tp_j_info","tp_k_raho","tp_l_kiin","tp_m_erik","tp_n_hall","tp_o_julk","tp_p_koul","tp_q_terv","tp_r_taid","tp_s_muup","tp_t_koti","tp_u_kans","tp_x_tunt","pt_vakiy","pt_tyoll","pt_tyott","pt_0_14","pt_opisk","pt_elakel","pt_muut","city","pno","unemployment_rate","higher_education_rate","pensioner_share","ownership_rate","rental_rate","population_density","child_ratio","student_share","detached_house_share","youth_ratio_pct","gender_ratio","single_parent_hh_pct","families_with_children_pct","tech_sector_pct","healthcare_workers_pct","employment_rate","elderly_ratio_pct","avg_household_size","manufacturing_jobs_pct","public_sector_jobs_pct","service_sector_jobs_pct","new_construction_pct","foreign_language_pct","crime_index","property_price_sqm","transit_stop_density","air_quality_index","daycare_density","school_density","healthcare_density","restaurant_density","grocery_density","cycling_density","single_person_hh_pct","rental_price_sqm","price_to_rent_ratio","walkability_index","traffic_accident_rate","property_price_change_pct","school_quality_score","light_pollution","noise_pollution","voter_turnout_pct","party_diversity_index","broadband_coverage_pct","ev_charging_density","tree_canopy_pct","transit_reachability_score","sports_facility_density","water_proximity_m","avg_construction_year","income_history","population_history","unemployment_history","income_change_pct","population_change_pct","unemployment_change_pct","schools","crime_index_history","crime_index_change_pct","health_index","radon","municipality","lon","lat","flood_risk_pct","population_projection_pct","construction_activity","active_plan_count","political_lean_index","party_vote_kok_pct","party_vote_sdp_pct","party_vote_ps_pct","party_vote_kesk_pct","party_vote_vihr_pct","party_vote_vas_pct","party_vote_rkp_pct","foreign_language_municipal_pct","foreign_language_history","foreign_language_est_pct","low_income_pct","job_self_sufficiency","violent_crime_rate","property_crime_rate","grocery_count","healthcare_count","school_count","daycare_count","restaurant_count","property_price_history"],"cols":[[1716,1718,1827,1828,1829,1830,1831,1832,1833,1834,1835,1836,1837,1838,1839,1840,1841,1842,1843,1844,1845,1846,1851,1852,1853,1854,1855,1856,1857,1858,1863,1864,1865,1866],["61150","61170","63100","63120","63130","63150","63160","63210","63230","63250","63300","63320","63330","63340","63350","63355","63360","63370","63400","63410","63430","63450","63600","63610","63640","63660","63680","63700","63770","63780","63900","63910","63920","63950"],["Sydänmaa","Sääskiniemi","Kuortane Keskus","Leppälänkylä","Mäyry","Ruona","Salmi","Niinimaa","Lentilä","Rantala","Alavus Keskus","Kattelus","Pahajoki","Sapsalampi","Sulkavankylä","Seinäjärvi","Kuivaskylä","Taipalus","Alavus Asemanseutu","Rantatöysä","Kätkänjoki","Löyä","Töysä Keskus","Tuuri","Ritola","Ähtärinranta","Hakojärvi","Ähtäri Keskus","Peränne","Alastaipale","Myllymäki-Vehunkylä","Inhan Tehtaat","Inha","Vehunkylä"],["Sydänmaa","Sääskiniemi","Kuortane centrum","Leppälänkylä","Mäyry","Ruona","Salmi","Niinimaa","Lentilä","Rantala","Alavus centrum","Kattelus","Pahajoki","Sapsalampi","Sulkavankylä","Seinäjärvi","Kuivaskylä","Taipalus","Alavo stationsamhälle","Rantatöysä","Kätkänjoki","Löyä","Töysä centrum","Tuuri","Ritola","Ähtärinranta","Hakojärvi","Etseri centrum","Peränne","Alastaipale","Myllymäki-Vehunkylä","Inha fabriker","Inha","Vehunkylä"],[306922,310006,323621,329103,316348,325653,316662,315047,323624,320618,326570,333788,326116,327818,321829,314470,318496,313577,322355,328310,330879,334821,337549,336003,341029,346653,341666,349068,341208,343941,365359,354940,358435,369971],[6959064,6953193,6969160,6967897,6965655,6976536,6975669,6954624,6955901,6958648,6938223,6931867,6933814,6927641,6928949,6926602,6941511,6939109,6950299,6951448,6958403,6962738,6950954,6939599,6956845,6955744,6944120,6938198,6932655,6924737,6941763,6930263,6945884,6952122],[65570025,76508270,35156337,72106381,147087886,100650724,21959523,68989555,48531572,7421940,136178138,22830041,33322363,40571508,49928315,91995870,60895722,133967339,48621827,31418493,48387337,20761239,85630690,100837564,84188580,38696292,56719273,280356649,48604843,60685013,226773758,39459468,122990992,53637073],[2026,2026,2026,2026,2026,2026,2026,2026,2026,2026,2026,2026,2026,2026,2026,2026,2026,2026,2026,2026,2026,2026,2026,2026,2026,2026,2026,2026,2026,2026,2026,2026,2026,2026],["010","010","300","300","300","300","300","010","300","300","010","010","010","010","010","010","010","010","010","010","010","300","010","010","010","989","010","989","989","989","989","989","989","989"],[71,263,1408,293,636,357,119,104,271,109,4642,53,145,160,182,108,210,429,1137,386,112,46,1123,1040,273,158,276,3845,187,126,422,151,294,35],[35,121,739,138,297,163,48,49,118,53,2390,24,67,83,81,46,86,189,523,178,42,22,560,511,111,76,139,1900,96,60,188,68,140,17],[36,142,669,155,339,194,71,55,153,56,2252,29,78,77,101,62,124,240,614,208,70,24,563,529,162,82,137,1945,91,66,234,83,154,18],[40,47,52,47,49,50,49,53,48,46,47,53,48,54,45,47,48,48,49,46,49,57,51,40,47,55,45,51,45,53,51,53,49,62],[4,7,15,7,12,4,3,0,9,2,100,2,2,3,4,1,4,3,13,9,1,0,13,36,5,1,10,55,7,3,5,1,3,0],[7,14,36,10,19,9,7,3,7,7,201,2,4,3,6,6,4,14,41,14,1,0,31,49,12,0,12,110,6,6,13,1,11,0],[9,11,83,10,38,16,3,7,20,9,323,2,9,10,15,8,14,26,70,28,4,2,71,110,19,5,22,220,17,3,25,7,16,0],[0,5,49,15,16,16,2,3,6,5,169,1,4,4,8,2,7,18,33,15,7,0,29,61,7,9,14,109,7,3,17,3,16,1],[1,8,41,8,25,13,3,1,5,3,116,2,2,2,6,4,3,13,28,7,2,0,27,31,6,5,8,104,4,2,15,1,13,0],[3,7,41,11,21,10,3,1,5,0,138,2,1,4,4,4,3,17,26,8,5,0,24,20,6,3,3,64,5,0,5,2,7,2],[2,11,59,13,13,8,6,1,6,0,172,3,4,7,8,0,11,11,40,15,7,4,38,32,11,8,9,130,5,2,12,4,7,0],[4,14,38,10,17,3,6,4,14,1,178,0,8,5,9,3,10,17,27,24,4,1,38,47,10,0,9,127,4,1,9,4,9,1],[3,8,48,11,25,13,7,9,11,9,211,2,12,2,8,4,6,17,39,19,5,2,42,58,14,2,13,178,8,8,11,5,9,0],[3,15,40,15,27,18,2,3,16,6,234,1,10,3,7,9,12,22,55,20,2,1,58,58,13,4,16,198,16,5,22,7,12,1],[3,14,87,16,39,19,4,8,16,7,268,0,9,5,10,3,10,30,69,14,2,0,62,86,9,12,14,226,11,8,22,8,8,2],[3,13,81,19,59,27,5,2,16,4,240,1,5,7,12,10,12,16,79,15,6,1,62,64,12,9,11,195,12,3,25,10,23,1],[2,18,72,23,37,21,9,3,13,5,231,4,9,9,12,5,19,27,65,27,11,8,65,66,19,12,14,174,12,12,18,12,15,0],[2,21,87,27,51,37,11,6,17,9,266,4,8,21,11,9,13,35,92,21,10,8,71,56,28,8,24,259,14,7,19,15,31,2],[4,30,103,19,50,28,8,11,20,13,280,3,19,10,16,10,27,25,92,33,15,3,101,51,26,15,23,298,7,19,44,25,12,6],[8,23,97,20,48,32,10,10,29,14,342,2,11,17,11,7,17,43,105,40,6,1,97,63,19,16,23,344,15,13,56,16,31,7],[7,13,125,16,47,32,18,8,16,6,348,8,13,14,15,11,16,40,95,36,10,3,92,67,24,17,21,342,16,12,41,17,25,4],[2,16,118,19,39,24,3,13,29,5,369,7,10,16,10,5,10,28,86,20,8,7,73,57,16,15,15,356,8,15,35,7,28,3],[2,7,81,7,29,9,3,9,8,1,217,4,4,6,6,4,6,14,46,16,2,2,58,16,14,4,4,170,7,2,18,1,11,2],[2,8,107,17,24,18,6,2,8,3,239,3,1,12,4,3,6,13,36,5,4,3,71,12,3,13,11,186,6,2,10,5,7,3],[50,218,1184,243,526,299,101,90,224,83,3733,44,124,138,143,87,178,355,952,313,97,44,952,753,224,138,210,3247,146,109,347,138,235,34],[18,49,304,81,116,74,29,34,65,23,895,24,22,34,33,25,46,95,298,87,20,16,305,179,54,34,52,799,37,24,85,27,44,10],[32,169,880,162,410,225,72,56,159,60,2838,20,102,104,110,62,132,260,654,226,77,28,647,574,170,104,158,2448,109,85,262,111,191,24],[0,7,28,6,14,6,3,0,5,1,136,0,4,5,6,1,6,6,18,14,2,0,26,29,6,5,3,70,5,3,3,4,7,1],[28,114,476,118,243,144,45,42,116,44,1740,17,67,66,70,36,102,195,468,157,51,20,437,395,118,71,107,1602,60,49,193,76,107,16],[3,32,294,29,118,44,16,10,30,13,737,2,27,29,27,23,23,53,149,44,19,7,152,123,38,19,36,600,32,28,54,27,56,6],[1,16,82,9,35,31,8,4,8,2,225,1,4,4,7,2,1,6,19,11,5,1,32,27,8,9,12,176,12,5,12,4,21,1],[50,218,1184,243,526,299,101,90,224,83,3733,44,124,138,143,87,178,355,952,313,97,44,952,753,224,138,210,3247,146,109,347,138,235,34],[27213,24472,27553,27014,28690,25942,28053,23566,24997,28348,26797,20832,26830,24507,27349,23544,24106,29286,24958,25410,26025,53421,27815,28002,28622,23651,24589,26004,28405,27091,27177,26625,30001,21343],[23124,23848,24158,23248,26055,24115,25124,23315,23964,26105,23164,17130,25195,22044,21893,22868,22408,22742,21584,22532,24270,21312,21404,24521,25130,20994,24574,23247,24596,24103,24527,24435,26712,20301],[9,60,231,70,114,83,24,19,62,18,795,20,21,44,45,25,57,96,251,70,27,14,232,164,49,46,56,691,33,26,75,29,48,13],[35,128,780,136,316,167,61,66,137,48,2531,23,89,75,73,55,111,209,637,205,51,25,638,500,142,82,136,2241,85,67,234,99,142,18],[6,30,173,37,96,49,16,5,25,17,407,1,14,19,25,7,10,50,64,38,19,5,82,89,33,10,18,315,28,16,38,10,45,3],[1360632,5334853,32622933,6564460,15090895,7756679,2833401,2120909,5599410,2352880,100031963,916624,3326925,3381965,3910972,2048355,4290894,10396574,23759855,7953345,2524401,2350533,26479633,21085670,6411363,3263805,5163778,84434617,4147096,2952879,9430327,3674226,7050229,725665],[31,122,751,134,279,167,55,45,122,44,2300,23,66,77,72,42,99,180,568,180,56,23,576,471,126,75,118,2031,80,71,213,75,132,22],[2.3,2.2,1.8,2.2,2.3,2.1,2.2,2.3,2.2,2.5,2,null,2.2,2.1,2.5,2.6,2.1,2.4,2,2.1,2,null,1.9,2.2,2.2,2.1,2.3,1.8,2.3,1.8,2,2,2.2,null],[50.7,48.8,50.7,49.2,53.2,52.4,57.2,42.7,52.4,44.5,45.5,null,48.4,53,45.4,50.1,47.8,46.3,47,44.7,54.5,null,47.4,43.5,53.8,48,46.8,48.4,51.4,58.7,49.2,58.1,52.9,null],[15,43,369,44,80,62,21,7,41,12,1091,null,20,29,19,10,38,53,224,72,24,null,271,190,45,19,37,988,28,32,85,25,41,null],[3,4,55,3,11,3,2,2,2,1,171,null,2,3,1,0,4,5,20,7,2,null,34,30,5,1,4,160,2,1,8,0,5,null],[0,2,13,3,3,2,0,1,2,0,50,null,2,0,0,0,2,2,6,3,1,null,8,9,3,0,0,42,2,0,2,2,1,null],[7,21,127,31,63,32,10,9,23,11,418,null,10,8,19,10,18,32,99,36,7,null,85,134,23,11,28,303,21,11,38,9,29,null],[3,5,15,6,11,3,3,0,9,2,90,null,2,3,4,1,3,3,12,8,1,null,12,27,5,1,9,51,6,3,4,1,3,null],[5,13,40,11,22,11,5,3,12,6,197,null,5,4,6,5,7,11,42,16,1,null,30,52,10,1,13,124,7,6,10,2,11,null],[4,10,62,8,25,13,3,6,12,6,209,null,5,6,7,5,9,18,52,17,3,null,45,78,12,4,13,150,14,3,18,5,12,null],[1,10,58,19,37,22,4,2,10,5,193,null,5,5,10,5,6,21,44,16,6,null,39,64,10,10,14,146,9,4,25,4,17,null],[2,3,33,9,7,4,2,0,1,1,66,null,0,1,2,0,3,5,26,6,2,null,10,45,4,2,2,70,1,2,10,2,6,null],[8,53,252,44,91,52,19,10,38,14,814,null,30,24,21,13,41,57,216,60,23,null,228,179,49,22,40,763,22,27,63,37,33,null],[16,49,373,59,125,86,27,27,62,20,1073,null,26,45,32,22,40,96,255,87,26,null,265,159,54,42,50,974,38,34,113,29,70,null],[26,111,506,122,263,154,53,44,113,40,1615,null,64,70,67,37,91,164,417,142,54,null,407,311,115,71,107,1475,75,62,192,70,126,null],[4,7,238,11,13,11,0,0,6,3,655,null,0,3,1,1,5,10,139,35,1,null,159,156,10,3,10,523,2,7,12,4,4,null],[1,4,7,1,3,2,2,1,3,1,30,null,2,4,4,4,3,6,12,3,1,null,10,4,1,1,1,33,3,2,9,1,2,null],[31,122,751,134,279,167,55,45,122,44,2300,23,66,77,72,42,99,180,568,180,56,23,576,471,126,75,118,2031,80,71,213,75,132,22],[44287,43909,42871,49614,54065,47021,51944,47275,46098,54233,43074,null,50530,44034,54781,49237,43414,58310,42117,44812,45182,null,45348,45201,51112,43891,44107,40847,52011,41808,44567,48536,54467,null],[36437,41771,34022,39143,46187,40735,40987,43696,39294,52239,33483,null,50741,38860,43182,44876,38244,43159,34459,36789,41656,null,32151,34710,44345,38902,37215,32923,47661,34824,39926,47371,44620,null],[7,34,226,41,51,50,9,11,31,9,722,null,8,22,22,13,34,46,174,59,15,null,204,155,30,25,30,620,15,23,56,18,28,null],[22,76,434,76,176,90,39,32,77,27,1374,null,51,48,37,25,61,114,355,100,34,null,330,269,76,45,81,1244,55,39,133,48,75,null],[2,12,91,17,52,27,7,2,14,8,204,null,7,7,13,4,4,20,39,21,7,null,42,47,20,5,7,167,10,9,24,9,29,null],[1372906,5356953,32195787,6648248,15084105,7852446,2856944,2127378,5623951,2386237,99069677,null,3335010,3390607,3944221,2067950,4297997,10495862,23922721,8066120,2530181,null,26120565,21289683,6440074,3291804,5204677,82959380,4160854,2968378,9492748,3640169,7189675,null],[331,438,106,45,226,125,84,97,27,5,137,33,58,201,28,136,15,71,54,42,7,18,106,64,174,115,74,485,126,48,225,36,247,28],[61,191,732,211,407,257,84,70,180,59,1766,35,109,135,111,72,134,238,659,258,73,36,604,503,249,106,168,1739,117,113,330,126,289,51],[13,28,163,48,51,39,11,2,33,10,282,4,15,17,10,15,15,24,105,58,5,1,128,113,56,8,29,280,9,6,32,24,74,6],[48,163,569,163,356,218,73,68,147,49,1484,31,94,118,101,57,119,214,554,200,68,35,476,390,193,98,139,1459,108,107,298,102,215,45],[40,159,963,172,362,223,76,66,162,51,2710,36,94,117,101,63,123,228,722,229,77,33,722,560,173,102,149,2473,106,93,291,112,209,37],[115.4,98.6,88.4,102.3,112.1,105,111.8,92.8,104.9,105.6,87,93.3,98.4,96.6,105.4,111.3,96.8,103.4,90.2,92,100.2,110.7,86.7,92.9,107.9,96.4,101.4,86.1,111.8,97.1,92.8,101.3,103.7,102],[39,154,854,169,356,209,75,65,156,51,1993,35,91,116,99,60,122,223,637,224,76,33,655,550,168,95,143,2031,104,92,286,101,185,37],[0,0,72,3,2,6,0,0,1,0,509,0,0,0,0,0,0,0,57,1,0,0,51,0,2,4,3,345,0,0,0,7,24,0],[1,5,37,0,4,8,1,1,5,0,208,1,3,1,2,3,1,5,28,4,1,0,16,10,3,3,3,97,2,1,5,4,0,0],[3,31,832,120,140,35,10,6,64,8,1804,0,8,13,43,20,33,42,311,183,21,10,283,666,123,18,24,1376,24,25,55,61,156,3],[null,6,21,23,39,12,9,null,13,null,64,0,null,10,31,11,12,26,21,11,15,9,24,11,29,6,6,87,18,14,40,20,2,null],[null,6,123,88,22,12,0,null,22,null,214,0,null,3,4,5,4,3,194,158,5,1,107,22,69,1,8,332,4,0,3,36,4,null],[null,19,688,9,79,11,1,null,29,null,1526,0,null,0,8,4,17,13,95,14,1,0,152,633,25,11,10,957,2,11,12,5,149,null],[null,6,21,23,39,12,9,null,13,null,64,0,null,10,31,11,12,26,21,11,15,9,24,11,29,6,6,87,18,14,40,20,2,null],[null,2,0,0,0,0,0,null,0,null,1,0,null,0,1,0,2,0,0,0,2,0,0,2,0,0,0,7,0,0,0,0,0,null],[null,0,63,67,18,4,0,null,19,null,67,0,null,0,2,0,0,1,166,152,0,0,95,15,66,0,2,239,0,0,0,36,0,null],[null,0,0,0,0,1,0,null,0,null,0,0,null,0,0,0,0,0,3,0,0,0,0,0,0,0,0,20,0,0,0,0,0,null],[null,0,0,0,1,2,0,null,0,null,9,0,null,0,0,0,0,0,0,0,0,0,0,0,0,0,0,1,0,0,0,0,0,null],[null,4,60,21,3,5,0,null,3,null,137,0,null,3,1,5,2,2,25,6,3,1,12,5,3,1,6,65,4,0,3,0,4,null],[null,4,57,3,8,0,1,null,0,null,215,0,null,0,0,2,0,2,20,3,0,0,21,454,9,1,0,151,0,0,1,2,0,null],[null,0,87,1,11,1,0,null,17,null,48,0,null,0,1,0,8,6,22,8,0,0,5,30,15,1,0,56,1,0,8,0,3,null],[null,1,42,0,7,0,0,null,0,null,63,0,null,0,0,0,0,0,1,0,0,0,3,41,0,0,0,56,0,0,0,0,13,null],[null,0,0,0,0,0,0,null,0,null,13,0,null,0,0,0,0,0,2,0,0,0,0,10,0,0,0,7,1,0,0,0,0,null],[null,1,8,0,0,0,0,null,0,null,19,0,null,0,0,0,0,0,0,0,0,0,0,8,0,0,0,6,0,0,0,0,0,null],[null,0,5,0,2,0,0,null,1,null,18,0,null,0,0,0,0,0,0,0,0,0,1,1,1,0,0,13,0,0,0,0,0,null],[null,0,15,0,5,0,0,null,0,null,72,0,null,0,0,0,0,0,2,0,0,0,4,7,0,0,1,29,0,0,0,1,0,null],[null,0,28,0,4,2,0,null,1,null,63,0,null,0,0,0,1,0,0,3,0,0,2,33,0,8,0,40,0,0,0,2,1,null],[null,0,38,0,0,0,0,null,0,null,82,0,null,0,0,0,0,0,0,0,0,0,3,2,0,0,0,32,0,0,0,0,84,null],[null,7,168,0,0,4,0,null,3,null,180,0,null,0,5,0,8,0,17,0,0,0,33,11,0,0,5,117,0,0,3,0,20,null],[null,6,194,3,36,2,0,null,5,null,644,0,null,0,2,2,0,5,27,0,0,0,72,25,0,1,3,404,0,10,0,0,0,null],[null,0,22,0,3,0,0,null,1,null,26,0,null,0,0,0,0,0,0,0,0,0,0,6,0,0,0,5,0,0,0,0,27,null],[null,0,24,2,3,2,0,null,1,null,83,0,null,0,0,0,0,0,4,0,1,0,8,5,0,0,1,41,0,1,0,0,1,null],[null,0,0,0,0,0,0,null,0,null,0,0,null,0,0,0,0,0,0,0,0,0,0,0,0,0,0,0,0,0,0,0,0,null],[null,0,0,0,0,0,0,null,0,null,0,0,null,0,0,0,0,0,0,0,0,0,0,0,0,0,0,0,0,0,0,0,0,null],[null,0,0,0,0,0,0,null,0,null,0,0,null,0,0,0,0,0,1,0,0,0,0,0,0,0,0,0,0,0,0,0,1,null],[71,263,1408,293,636,357,119,104,271,109,4642,53,145,160,182,108,210,429,1137,386,112,46,1123,1040,273,158,276,3845,187,126,422,151,294,35],[24,115,527,131,291,142,51,33,107,48,1624,14,66,61,68,44,85,154,401,138,57,22,399,405,119,59,112,1364,79,50,147,71,107,7],[0,18,29,6,19,16,2,7,7,2,206,2,6,3,10,4,10,25,74,18,4,2,69,50,13,2,10,170,4,5,23,9,8,3],[20,35,164,38,76,37,14,12,40,22,743,7,17,18,31,15,26,54,147,63,10,2,134,237,40,11,53,456,35,14,52,10,41,1],[1,17,106,22,41,29,7,2,14,5,291,5,8,7,15,10,11,31,62,22,8,2,63,74,13,13,15,230,13,5,26,5,21,2],[24,68,559,86,194,126,42,47,93,30,1666,25,46,65,52,33,72,153,407,135,31,18,414,247,84,69,80,1522,55,50,172,51,108,21],[2,10,23,10,15,7,3,3,10,2,112,0,2,6,6,2,6,12,46,10,2,0,44,27,4,4,6,103,1,2,2,5,9,1],["kuusiokunnat","kuusiokunnat","kuusiokunnat","kuusiokunnat","kuusiokunnat","kuusiokunnat","kuusiokunnat","kuusiokunnat","kuusiokunnat","kuusiokunnat","kuusiokunnat","kuusiokunnat","kuusiokunnat","kuusiokunnat","kuusiokunnat","kuusiokunnat","kuusiokunnat","kuusiokunnat","kuusiokunnat","kuusiokunnat","kuusiokunnat","kuusiokunnat","kuusiokunnat","kuusiokunnat","kuusiokunnat","kuusiokunnat","kuusiokunnat","kuusiokunnat","kuusiokunnat","kuusiokunnat","kuusiokunnat","kuusiokunnat","kuusiokunnat","kuusiokunnat"],["61150","61170","63100","63120","63130","63150","63160","63210","63230","63250","63300","63320","63330","63340","63350","63355","63360","63370","63400","63410","63430","63450","63600","63610","63640","63660","63680","63700","63770","63780","63900","63910","63920","63950"],[0,6.8,2.1,2,3,4.5,1.7,6.7,2.6,1.8,4.4,3.8,4.1,1.9,5.5,3.7,4.8,5.8,6.5,4.7,3.6,4.3,6.1,4.8,4.8,1.3,3.6,4.4,2.1,4,5.5,6,2.7,8.6],[8,22,31.8,15.6,29.1,25.1,23.8,15.6,17,18.1,25.8,6.8,25,23.9,23.8,28.7,13.5,16.6,17.6,17.6,24.7,18.2,19.3,19.9,20.5,20.3,22.9,23.9,30.1,30.3,19,22.5,32.8,20.6],[33.8,25.9,39.7,29.4,30.5,35.3,35.3,45.2,34.3,27.5,35.9,47.2,31.7,40.6,28.6,30.6,34.3,35.7,35.8,35,27.7,39.1,36.9,23.8,30.8,43.7,29,39.6,29.4,39.7,40.8,33.8,36.7,60],[83.9,91,67.4,91,94.3,92.2,96.4,97.8,92.6,90.9,70.2,null,97,90.9,93.1,88.1,91.9,91.1,73.4,78.9,96.4,null,70.7,66,91.3,94.7,90.7,72.6,93.8,87.3,90.1,93.3,95.5,null],[12.9,5.7,31.7,8.2,4.7,6.6,0,0,4.9,6.8,28.5,null,0,3.9,1.4,2.4,5.1,5.6,24.5,19.4,1.8,null,27.6,33.1,7.9,4,8.5,25.8,2.5,9.9,5.6,5.3,3,null],[1,3,40,4,4,4,5,2,6,15,34,2,4,4,4,1,3,3,23,12,2,2,13,10,3,4,5,14,4,2,2,4,2,1],[15.5,8,3.6,5.8,4.9,3.6,8.4,2.9,5.9,8.3,6.5,7.5,4.1,3.8,5.5,6.5,3.8,4,4.7,6,1.8,0,3.9,8.2,6.2,0.6,8,4.3,7,7.1,4.3,1.3,4.8,0],[1.4,6.5,7.5,7.5,6.4,8.1,5.9,1.9,5.2,4.6,6.3,9.4,5.5,4.4,8.2,9.3,5.2,7.2,5.5,5.7,7.1,4.3,5.6,7.1,4.8,8.2,5.4,6,7,4,6.2,3.3,7.1,5.7],[97.5,96.9,88.7,98.3,98.3,93.7,98.7,98.5,96.3,100,73.5,97.2,96.8,99.1,98,95.2,99.2,97.8,88.2,97.8,98.7,100,90.7,98.2,97.1,93.1,96,82.1,98.1,98.9,98.3,90.2,88.5,100],[12.7,12.2,9.8,11.6,8,5.9,12.6,5.8,9.2,0.9,10.5,9.4,9,10,11.5,6.5,11.4,10.5,8.2,12.2,14.3,10.9,8.9,9.5,9.9,7,7.6,8.3,7.5,2.4,6.2,6.6,7.8,8.6],[0.97,0.85,1.1,0.89,0.88,0.84,0.68,0.89,0.77,0.95,1.06,0.83,0.86,1.08,0.8,0.74,0.69,0.79,0.85,0.86,0.6,0.92,0.99,0.97,0.69,0.93,1.01,0.98,1.05,0.91,0.8,0.82,0.91,0.94],[0,1.6,1.7,2.2,1.1,1.2,0,2.2,1.6,0,2.2,null,3,0,0,0,2,1.1,1.1,1.7,1.8,null,1.4,1.9,2.4,0,0,2.1,2.5,0,0.9,2.7,0.8,null],[22.6,17.2,16.9,23.1,22.6,19.2,18.2,20,18.9,25,18.2,null,15.2,10.4,26.4,23.8,18.2,17.8,17.4,20,12.5,null,14.8,28.5,18.3,14.7,23.7,14.9,26.2,15.5,17.8,12,22,null],[null,0,0,0,0,0,0,null,0,null,0.7,null,null,0,0,0,0,0,0.6,0,0,0,0,1.5,0,0,0,0.5,4.2,0,0,0,0,null],[null,19.4,23.3,2.5,25.7,5.7,0,null,7.8,null,35.7,null,null,0,4.7,10,0,11.9,8.7,0,0,0,25.4,3.8,0,5.6,12.5,29.4,0,40,0,0,0,null],[33.8,43.7,37.4,44.7,45.8,39.8,42.9,31.7,39.5,44,35,26.4,45.5,38.1,37.4,40.7,40.5,35.9,35.3,35.8,50.9,47.8,35.5,38.9,43.6,37.3,40.6,35.5,42.2,39.7,34.8,47,36.4,20],[29.6,25.5,37.5,27,29.4,32.2,33.6,40.4,33.2,26.6,32.6,45.3,26.9,40.6,25.3,27.8,26.2,32.2,32.4,30.3,26.8,34.8,34.8,20.7,27.8,41.1,26.8,36.4,27.8,34.9,37.9,30.5,34.7,54.3],[2.29,2.16,1.87,2.19,2.28,2.14,2.16,2.31,2.22,2.48,2.02,2.3,2.2,2.08,2.53,2.57,2.12,2.38,2,2.14,2,2,1.95,2.21,2.17,2.11,2.34,1.89,2.34,1.77,1.98,2.01,2.23,1.59],[null,19.4,14.8,73.3,15.7,34.3,0,null,34.4,null,11.9,null,null,23.1,9.3,25,12.1,7.1,62.4,86.3,23.8,10,37.8,3.3,56.1,5.6,33.3,24.1,16.7,0,5.5,59,2.6,null],[null,0,4.6,0,0,0,0,null,0,null,4.5,null,null,0,0,0,0,0,0,0,0,0,1.1,0.3,0,0,0,2.3,0,0,0,0,53.8,null],[null,61.3,82.7,7.5,56.4,31.4,10,null,45.3,null,84.6,null,null,0,18.6,20,51.5,31,30.5,7.7,4.8,0,53.7,95,20.3,61.1,41.7,69.5,8.3,44,21.8,8.2,95.5,null],[152.5,120.1,76,122.7,112.4,115.2,110.5,106.1,111.1,115.7,65.2,97.2,116,115.4,109.9,114.3,108.9,104.4,91.3,112.7,94.8,109.1,83.7,89.8,143.9,103.9,112.8,70.3,110.4,121.5,113.4,112.5,138.3,137.8],[0,1.1,3,0.6,2.1,0.3,0.8,2.9,0.3,0,2,0,0.6,0.6,1,0.9,0.4,0.8,1.8,2.7,0.7,0,0.9,1.5,1,0.6,1.4,1.2,3,0,0.2,0.6,0.9,2.7],[77.8,77.8,66.2,66.2,66.2,66.2,66.2,77.8,66.2,66.2,77.8,77.8,77.8,77.8,77.8,77.8,77.8,77.8,77.8,77.8,77.8,66.2,77.8,77.8,77.8,56,77.8,56,56,56,56,56,56,56],[null,null,851,null,null,null,null,null,null,null,1070,null,null,null,null,null,null,null,null,null,null,null,817,1335,null,null,null,940,null,null,null,null,null,null],[0.2,0.3,0.7,0.1,0.3,0.2,0.3,0,0.4,0,0.5,0,0.6,0.4,0.4,0,0.1,0.2,0.2,0.2,0,0.1,0.5,0.1,0.2,0.4,0.2,0.4,0.3,0.2,0.1,0,0.2,0.2],[23.3,23.3,23.7,23.5,23.3,23.7,23.6,23.2,23.2,23.2,23.1,23,22.9,22.9,22.9,23,23.1,23.2,23.3,23.3,23.5,23.5,23.5,23.4,23.5,23.5,23.5,23.6,23.3,23.3,23.6,23.5,23.7,22.9],[0,0,0.0569,0,0.0068,0.0099,0,0,0,0,0.022,0,0,0,0,0,0,0,0.0206,0,0,0,0.0117,0.0099,0,0,0,0.0107,0,0,0,0,0,0],[0,0.0131,0.0853,0,0,0,0,0,0.0206,0,0.0367,0,0,0,0.02,0,0.0164,0,0.0206,0,0,0,0.035,0.0099,0,0,0,0.0036,0,0,0.0044,0,0.0163,0],[0,0,0.1422,0,0,0,0,0,0,0,0.0147,0,0,0,0,0,0,0,0,0,0,0,0.035,0.0198,0,0,0,0.0178,0,0,0,0,0,0],[0,0,0.2276,0,0.0272,0,0,0,0,0,0.0955,0,0,0,0,0,0,0,0,0,0,0,0.0117,0.1488,0,0,0,0.0535,0,0,0,0,0.0488,0],[0,0,0.0569,0,0,0,0,0,0,0,0.022,0,0,0,0,0.0109,0,0,0.0206,0,0,0,0.0117,0.0099,0,0,0,0.0071,0,0,0,0,0.0081,0],[0,0,1.7067,0,0.034,0.0298,0,0,0,0,1.5715,0,0,0,0,0,0,0,0.8021,0.1591,0,0,0.5839,0.595,0,0,0.0882,0.4316,0,0,0,0,0.1301,0],[48.4,35.2,49.1,32.8,28.7,37.1,38.2,15.6,33.6,27.3,47.4,null,30.3,37.7,26.4,23.8,38.4,29.4,39.4,40,42.9,null,47,40.3,35.7,25.3,31.4,48.6,35,45.1,39.9,33.3,31.1,null],[null,null,null,null,null,null,null,null,null,null,null,null,null,null,null,null,null,null,null,null,null,null,null,null,null,null,null,null,null,null,null,null,null,null],[null,null,null,null,null,null,null,null,null,null,null,null,null,null,null,null,null,null,null,null,null,null,null,null,null,null,null,null,null,null,null,null,null,null],[76,76,86,76,76,76,76,76,76,76,81,76,76,76,76,76,76,76,80,78,76,76,80,80,76,76,78,80,76,76,76,76,78,76],[18.8,7.6,0.5,3.4,8.4,5.6,8.4,3.2,4.9,null,0.3,null,2.3,2.1,1.8,6.2,7.9,5.4,1.2,null,null,null,2.1,1.6,2.4,null,7.2,1.2,1.8,2.6,6.3,2.2,2.3,null],[null,null,-26.8,null,null,null,null,null,null,null,-21.7,null,null,null,null,null,null,null,null,null,null,null,null,null,null,null,null,14.9,null,null,null,null,null,null],[null,null,60,null,null,null,null,null,null,null,57.5,null,null,null,null,null,null,null,null,null,null,null,null,null,null,null,null,60.8,null,null,null,null,null,null],[0.01,0,0.92,0.05,0.05,0,0,0,0.03,0.04,0.65,0,0,0,0,0,0,0.01,0.55,0.12,0,0,0.06,0.2,0.02,0.01,0.16,0.11,0.02,0,0.01,0.09,0.11,0.03],[40,40,40,40,40,40,40,40,40,40,40,40,40,40,40,40,40,40,40,40,40,40,40,40,40,40,40,40,40,40,40,40,40,40],[66.1,66.1,71.8,71.8,71.8,71.8,71.8,66.1,71.8,71.8,66.1,66.1,66.1,66.1,66.1,66.1,66.1,66.1,66.1,66.1,66.1,71.8,66.1,66.1,66.1,63.9,66.1,63.9,63.9,63.9,63.9,63.9,63.9,63.9],[0.608,0.608,0.662,0.662,0.662,0.662,0.662,0.608,0.662,0.662,0.608,0.608,0.608,0.608,0.608,0.608,0.608,0.608,0.608,0.608,0.608,0.662,0.608,0.608,0.608,0.612,0.608,0.612,0.612,0.612,0.612,0.612,0.612,0.612],[79,79,83,83,83,83,83,79,83,83,79,79,79,79,79,79,79,79,79,79,79,83,79,79,79,71,79,71,71,71,71,71,71,71],[0,0,0,0,0,0,0,0,0,0,0,0,0,0,0,0,0,0,0,0,0,0,0,0,0,0,0,0,0,0,0,0,0,0],[39.8,42.6,57.4,38.4,69.3,28.2,35.2,54.8,36,37.6,18.8,54.2,38.6,65.2,46,28.6,36.8,28.7,23.2,38.8,60,24.2,54.4,27.8,54.6,39,12.4,49.9,38.4,38,39.6,18.4,60,47.2],[null,null,null,null,null,null,null,null,null,null,null,null,null,null,null,null,null,null,null,null,null,null,null,null,null,null,null,null,null,null,null,null,null,null],[0,0.1,1.4,0.1,0.1,0.1,0.1,0,0.2,0.1,0.3,0.1,0.1,0.1,0.1,0,0.1,0,0.1,0,0.2,0,0.3,0.1,0.1,0.1,0.1,0.1,0.1,0.1,0,0.1,0.2,0],[600,420,650,3900,870,640,350,1010,1660,2680,660,400,1550,230,620,640,960,1390,860,300,720,420,470,710,830,430,520,640,310,300,690,510,330,740],[1982,1980,1974,1976,1976,1976,1976,1980,1976,1976,1978,1979,1980,1980,1980,1980,1980,1980,1979,1980,1979,1976,1979,1979,1982,1978,1980,1976,1978,1978,1978,1978,1979,1979],[[[2021,19258],[2022,21347],[2023,22797],[2024,23199],[2025,25118],[2026,23124]],[[2021,19853],[2022,20388],[2023,20085],[2024,22171],[2025,22676],[2026,23848]],[[2021,20216],[2022,20023],[2023,21183],[2024,21908],[2025,23409],[2026,24158]],[[2021,19519],[2022,19466],[2023,20513],[2024,21472],[2025,22416],[2026,23248]],[[2021,22269],[2022,22150],[2023,22824],[2024,23446],[2025,24764],[2026,26055]],[[2021,18613],[2022,19564],[2023,20156],[2024,21989],[2025,23568],[2026,24115]],[[2021,18015],[2022,18427],[2023,20340],[2024,20846],[2025,21462],[2026,25124]],[[2021,19603],[2022,19290],[2023,20825],[2024,20460],[2025,22204],[2026,23315]],[[2021,19784],[2022,20331],[2023,20311],[2024,19297],[2025,22577],[2026,23964]],[[2021,21228],[2022,21052],[2023,22009],[2024,23796],[2025,23120],[2026,26105]],[[2021,19810],[2022,20208],[2023,20891],[2024,21241],[2025,22659],[2026,23164]],[[2021,16494],[2022,17534],[2023,17010],[2024,17694],[2025,16212],[2026,17130]],[[2021,20071],[2022,20402],[2023,21585],[2024,22831],[2025,24097],[2026,25195]],[[2021,18338],[2022,18207],[2023,18906],[2024,19488],[2025,20108],[2026,22044]],[[2021,17009],[2022,18083],[2023,18912],[2024,21222],[2025,22261],[2026,21893]],[[2021,15981],[2022,17920],[2023,18883],[2024,20623],[2025,19449],[2026,22868]],[[2021,17582],[2022,17606],[2023,18116],[2024,19094],[2025,21128],[2026,22408]],[[2021,19858],[2022,20322],[2023,21553],[2024,22684],[2025,22552],[2026,22742]],[[2021,19046],[2022,19108],[2023,19882],[2024,20173],[2025,21125],[2026,21584]],[[2021,19234],[2022,19145],[2023,19052],[2024,20750],[2025,21891],[2026,22532]],[[2021,17073],[2022,17203],[2023,16250],[2024,20041],[2025,21938],[2026,24270]],[[2021,15796],[2022,15552],[2023,20554],[2024,18785],[2025,22751],[2026,21312]],[[2021,18515],[2022,18652],[2023,19231],[2024,20262],[2025,20850],[2026,21404]],[[2021,21278],[2022,21631],[2023,21276],[2024,23138],[2025,23957],[2026,24521]],[[2021,18431],[2022,19548],[2023,22036],[2024,22448],[2025,22442],[2026,25130]],[[2021,19222],[2022,20109],[2023,18271],[2024,20308],[2025,19071],[2026,20994]],[[2021,19748],[2022,20093],[2023,22171],[2024,23150],[2025,23154],[2026,24574]],[[2021,20022],[2022,19956],[2023,20440],[2024,20982],[2025,22119],[2026,23247]],[[2021,23672],[2022,23374],[2023,24284],[2024,23369],[2025,24144],[2026,24596]],[[2021,18004],[2022,19729],[2023,20445],[2024,22268],[2025,21846],[2026,24103]],[[2021,20487],[2022,20364],[2023,21471],[2024,22933],[2025,23582],[2026,24527]],[[2021,21646],[2022,21602],[2023,20462],[2024,21300],[2025,23294],[2026,24435]],[[2021,22112],[2022,22257],[2023,23524],[2024,24265],[2025,25402],[2026,26712]],[[2021,16991],[2022,17346],[2023,16229],[2024,18686],[2025,20315],[2026,20301]]],[[[2021,72],[2022,74],[2023,73],[2024,74],[2025,71],[2026,71]],[[2021,266],[2022,262],[2023,266],[2024,262],[2025,270],[2026,263]],[[2021,1477],[2022,1490],[2023,1482],[2024,1445],[2025,1455],[2026,1408]],[[2021,331],[2022,330],[2023,333],[2024,318],[2025,299],[2026,293]],[[2021,689],[2022,673],[2023,677],[2024,662],[2025,635],[2026,636]],[[2021,398],[2022,383],[2023,379],[2024,368],[2025,357],[2026,357]],[[2021,129],[2022,128],[2023,125],[2024,124],[2025,123],[2026,119]],[[2021,99],[2022,102],[2023,101],[2024,107],[2025,106],[2026,104]],[[2021,290],[2022,292],[2023,290],[2024,276],[2025,266],[2026,271]],[[2021,109],[2022,110],[2023,110],[2024,109],[2025,111],[2026,109]],[[2021,4828],[2022,4795],[2023,4758],[2024,4721],[2025,4692],[2026,4642]],[[2021,66],[2022,67],[2023,62],[2024,65],[2025,51],[2026,53]],[[2021,157],[2022,162],[2023,153],[2024,148],[2025,144],[2026,145]],[[2021,174],[2022,174],[2023,172],[2024,168],[2025,164],[2026,160]],[[2021,205],[2022,198],[2023,191],[2024,201],[2025,183],[2026,182]],[[2021,113],[2022,111],[2023,104],[2024,108],[2025,112],[2026,108]],[[2021,241],[2022,240],[2023,234],[2024,229],[2025,211],[2026,210]],[[2021,502],[2022,488],[2023,469],[2024,453],[2025,445],[2026,429]],[[2021,1218],[2022,1212],[2023,1203],[2024,1198],[2025,1152],[2026,1137]],[[2021,426],[2022,411],[2023,421],[2024,407],[2025,406],[2026,386]],[[2021,141],[2022,138],[2023,136],[2024,127],[2025,116],[2026,112]],[[2021,60],[2022,56],[2023,54],[2024,51],[2025,50],[2026,46]],[[2021,1215],[2022,1173],[2023,1150],[2024,1148],[2025,1139],[2026,1123]],[[2021,1077],[2022,1069],[2023,1058],[2024,1056],[2025,1059],[2026,1040]],[[2021,317],[2022,306],[2023,297],[2024,277],[2025,269],[2026,273]],[[2021,175],[2022,168],[2023,168],[2024,163],[2025,160],[2026,158]],[[2021,300],[2022,286],[2023,287],[2024,285],[2025,283],[2026,276]],[[2021,4069],[2022,4027],[2023,3996],[2024,3933],[2025,3870],[2026,3845]],[[2021,206],[2022,197],[2023,195],[2024,199],[2025,192],[2026,187]],[[2021,145],[2022,140],[2023,127],[2024,122],[2025,120],[2026,126]],[[2021,493],[2022,480],[2023,466],[2024,458],[2025,439],[2026,422]],[[2021,184],[2022,177],[2023,176],[2024,171],[2025,169],[2026,151]],[[2021,329],[2022,323],[2023,330],[2024,331],[2025,331],[2026,294]],[[2021,45],[2022,37],[2023,39],[2024,37],[2025,36],[2026,35]]],[[[2021,5.6],[2022,2.7],[2023,1.4],[2024,1.4],[2025,5.6],[2026,0]],[[2021,3.4],[2022,2.7],[2023,2.3],[2024,3.1],[2025,7],[2026,6.8]],[[2021,1.9],[2022,2.2],[2023,1.6],[2024,2],[2025,2.1],[2026,2.1]],[[2021,1.8],[2022,3],[2023,2.7],[2024,1.6],[2025,2],[2026,2]],[[2021,2.8],[2022,2.7],[2023,1.5],[2024,2.1],[2025,1.9],[2026,3]],[[2021,3.8],[2022,5],[2023,2.4],[2024,3],[2025,4.2],[2026,4.5]],[[2021,0.8],[2022,1.6],[2023,2.4],[2024,1.6],[2025,2.4],[2026,1.7]],[[2021,4],[2022,2.9],[2023,4],[2024,1.9],[2025,2.8],[2026,6.7]],[[2021,2.8],[2022,2.4],[2023,2.4],[2024,2.9],[2025,5.3],[2026,2.6]],[[2021,5.5],[2022,3.6],[2023,0.9],[2024,1.8],[2025,2.7],[2026,1.8]],[[2021,2.5],[2022,2.9],[2023,1.9],[2024,2.4],[2025,3.8],[2026,4.4]],[[2021,4.5],[2022,1.5],[2023,1.6],[2024,4.6],[2025,2],[2026,3.8]],[[2021,2.5],[2022,6.2],[2023,2.6],[2024,4.7],[2025,6.2],[2026,4.1]],[[2021,1.1],[2022,0.6],[2023,1.2],[2024,0.6],[2025,0.6],[2026,1.9]],[[2021,2.4],[2022,3],[2023,1.6],[2024,4],[2025,5.5],[2026,5.5]],[[2021,2.7],[2022,3.6],[2023,3.8],[2024,1.9],[2025,3.6],[2026,3.7]],[[2021,4.1],[2022,5.4],[2023,4.3],[2024,2.2],[2025,4.7],[2026,4.8]],[[2021,3.6],[2022,3.5],[2023,2.6],[2024,3.1],[2025,4.7],[2026,5.8]],[[2021,3.3],[2022,3.2],[2023,3.4],[2024,2.8],[2025,5.4],[2026,6.5]],[[2021,4.5],[2022,5.4],[2023,3.3],[2024,3.7],[2025,3.4],[2026,4.7]],[[2021,1.4],[2022,4.3],[2023,2.2],[2024,0.8],[2025,2.6],[2026,3.6]],[[2021,0],[2022,1.8],[2023,0],[2024,0],[2025,4],[2026,4.3]],[[2021,4.5],[2022,4.9],[2023,4.9],[2024,3.7],[2025,5],[2026,6.1]],[[2021,4.3],[2022,4.5],[2023,4.2],[2024,3.2],[2025,4.7],[2026,4.8]],[[2021,3.8],[2022,3.9],[2023,3],[2024,3.2],[2025,4.8],[2026,4.8]],[[2021,1.1],[2022,3.6],[2023,2.4],[2024,3.1],[2025,5],[2026,1.3]],[[2021,3],[2022,5.6],[2023,3.8],[2024,3.9],[2025,4.2],[2026,3.6]],[[2021,3.7],[2022,4.2],[2023,3],[2024,3],[2025,5.5],[2026,4.4]],[[2021,1],[2022,3],[2023,1],[2024,1.5],[2025,3.1],[2026,2.1]],[[2021,3.4],[2022,2.9],[2023,4.7],[2024,2.5],[2025,3.3],[2026,4]],[[2021,5.1],[2022,7.3],[2023,4.5],[2024,3.7],[2025,7.3],[2026,5.5]],[[2021,3.8],[2022,7.3],[2023,6.8],[2024,5.8],[2025,9.5],[2026,6]],[[2021,2.4],[2022,3.7],[2023,2.4],[2024,2.4],[2025,4.5],[2026,2.7]],[[2021,6.7],[2022,8.1],[2023,12.8],[2024,16.2],[2025,8.3],[2026,8.6]]],[20.1,20.1,19.5,19.1,17,29.6,39.5,18.9,21.1,23,16.9,3.9,25.5,20.2,28.7,43.1,27.4,14.5,13.3,17.1,42.2,34.9,15.6,15.2,36.3,9.2,24.4,16.1,3.9,33.9,19.7,12.9,20.8,19.5],[-1.4,-1.1,-4.7,-11.5,-7.7,-10.3,-7.8,5.1,-6.6,0,-3.9,-19.7,-7.6,-8,-11.2,-4.4,-12.9,-14.5,-6.7,-9.4,-20.6,-23.3,-7.6,-3.4,-13.9,-9.7,-8,-5.5,-9.2,-13.1,-14.4,-17.9,-10.6,-22.2],[-100,100,10.5,11.1,7.1,18.4,112.5,67.5,-7.1,-67.3,76,-15.6,64,72.7,129.2,37,17.1,61.1,97,4.4,157.1,null,35.6,11.6,26.3,18.2,20,18.9,110,17.6,7.8,57.9,12.5,28.4],[null,null,[{"name":"Kuortaneen lukio","score":60}],null,null,null,null,null,null,null,[{"name":"Alavuden lukio","score":57.5}],null,null,null,null,null,null,null,null,null,null,null,null,null,null,null,null,[{"name":"Ähtärin lukio","score":60.8}],null,null,null,null,null,null],[[[2020,81.4],[2021,72.6],[2022,66.9],[2023,62.7],[2024,71.4],[2025,77.8]],[[2020,81.4],[2021,72.6],[2022,66.9],[2023,62.7],[2024,71.4],[2025,77.8]],[[2020,97.6],[2021,85],[2022,74.7],[2023,73],[2024,70.4],[2025,66.2]],[[2020,97.6],[2021,85],[2022,74.7],[2023,73],[2024,70.4],[2025,66.2]],[[2020,97.6],[2021,85],[2022,74.7],[2023,73],[2024,70.4],[2025,66.2]],[[2020,97.6],[2021,85],[2022,74.7],[2023,73],[2024,70.4],[2025,66.2]],[[2020,97.6],[2021,85],[2022,74.7],[2023,73],[2024,70.4],[2025,66.2]],[[2020,81.4],[2021,72.6],[2022,66.9],[2023,62.7],[2024,71.4],[2025,77.8]],[[2020,97.6],[2021,85],[2022,74.7],[2023,73],[2024,70.4],[2025,66.2]],[[2020,97.6],[2021,85],[2022,74.7],[2023,73],[2024,70.4],[2025,66.2]],[[2020,81.4],[2021,72.6],[2022,66.9],[2023,62.7],[2024,71.4],[2025,77.8]],[[2020,81.4],[2021,72.6],[2022,66.9],[2023,62.7],[2024,71.4],[2025,77.8]],[[2020,81.4],[2021,72.6],[2022,66.9],[2023,62.7],[2024,71.4],[2025,77.8]],[[2020,81.4],[2021,72.6],[2022,66.9],[2023,62.7],[2024,71.4],[2025,77.8]],[[2020,81.4],[2021,72.6],[2022,66.9],[2023,62.7],[2024,71.4],[2025,77.8]],[[2020,81.4],[2021,72.6],[2022,66.9],[2023,62.7],[2024,71.4],[2025,77.8]],[[2020,81.4],[2021,72.6],[2022,66.9],[2023,62.7],[2024,71.4],[2025,77.8]],[[2020,81.4],[2021,72.6],[2022,66.9],[2023,62.7],[2024,71.4],[2025,77.8]],[[2020,81.4],[2021,72.6],[2022,66.9],[2023,62.7],[2024,71.4],[2025,77.8]],[[2020,81.4],[2021,72.6],[2022,66.9],[2023,62.7],[2024,71.4],[2025,77.8]],[[2020,81.4],[2021,72.6],[2022,66.9],[2023,62.7],[2024,71.4],[2025,77.8]],[[2020,97.6],[2021,85],[2022,74.7],[2023,73],[2024,70.4],[2025,66.2]],[[2020,81.4],[2021,72.6],[2022,66.9],[2023,62.7],[2024,71.4],[2025,77.8]],[[2020,81.4],[2021,72.6],[2022,66.9],[2023,62.7],[2024,71.4],[2025,77.8]],[[2020,81.4],[2021,72.6],[2022,66.9],[2023,62.7],[2024,71.4],[2025,77.8]],[[2020,65],[2021,63.4],[2022,55.3],[2023,52.8],[2024,42.7],[2025,56]],[[2020,81.4],[2021,72.6],[2022,66.9],[2023,62.7],[2024,71.4],[2025,77.8]],[[2020,65],[2021,63.4],[2022,55.3],[2023,52.8],[2024,42.7],[2025,56]],[[2020,65],[2021,63.4],[2022,55.3],[2023,52.8],[2024,42.7],[2025,56]],[[2020,65],[2021,63.4],[2022,55.3],[2023,52.8],[2024,42.7],[2025,56]],[[2020,65],[2021,63.4],[2022,55.3],[2023,52.8],[2024,42.7],[2025,56]],[[2020,65],[2021,63.4],[2022,55.3],[2023,52.8],[2024,42.7],[2025,56]],[[2020,65],[2021,63.4],[2022,55.3],[2023,52.8],[2024,42.7],[2025,56]],[[2020,65],[2021,63.4],[2022,55.3],[2023,52.8],[2024,42.7],[2025,56]]],[-4.4,-4.4,-32.2,-32.2,-32.2,-32.2,-32.2,-4.4,-32.2,-32.2,-4.4,-4.4,-4.4,-4.4,-4.4,-4.4,-4.4,-4.4,-4.4,-4.4,-4.4,-32.2,-4.4,-4.4,-4.4,-13.8,-4.4,-13.8,-13.8,-13.8,-13.8,-13.8,-13.8,-13.8],[109.2,109.2,100.1,100.1,100.1,100.1,100.1,109.2,100.1,100.1,109.2,109.2,109.2,109.2,109.2,109.2,109.2,109.2,109.2,109.2,109.2,100.1,109.2,109.2,109.2,110.6,109.2,110.6,110.6,110.6,110.6,110.6,110.6,110.6],[null,null,70,null,null,null,null,null,null,null,43,null,null,null,null,null,null,null,null,null,null,null,null,null,null,null,null,130,null,null,null,null,null,null],["Alavus","Alavus","Kuortane","Kuortane","Kuortane","Kuortane","Kuortane","Alavus","Kuortane","Kuortane","Alavus","Alavus","Alavus","Alavus","Alavus","Alavus","Alavus","Alavus","Alavus","Alavus","Alavus","Kuortane","Alavus","Alavus","Alavus","Ähtäri","Alavus","Ähtäri","Ähtäri","Ähtäri","Ähtäri","Ähtäri","Ähtäri","Ähtäri"],[23.24004,23.29347,23.52333,23.66343,23.4729,23.50331,23.39027,23.38556,23.55381,23.50341,23.64031,23.76862,23.63888,23.67022,23.54216,23.4134,23.48038,23.36321,23.61697,23.63453,23.70202,23.75927,23.81059,23.80187,23.87692,24.01163,23.93881,24.05067,23.93207,23.97609,24.30917,24.16791,24.21632,24.46479],[62.69706,62.65789,62.80716,62.7746,62.76675,62.85857,62.86323,62.68156,62.70405,62.72668,62.54394,62.47852,62.49855,62.44478,62.46352,62.4312,62.54584,62.53641,62.62415,62.64339,62.71424,62.7493,62.66295,62.56451,62.71298,62.71061,62.61066,62.57435,62.49773,62.42818,62.54195,62.49539,62.58489,62.68567],[null,null,null,null,null,null,null,null,null,null,null,null,null,null,null,null,null,null,null,null,null,null,null,null,null,null,null,null,null,null,null,null,null,null],[-14.8,-14.8,-12.3,-12.3,-12.3,-12.3,-12.3,-14.8,-12.3,-12.3,-14.8,-14.8,-14.8,-14.8,-14.8,-14.8,-14.8,-14.8,-14.8,-14.8,-14.8,-12.3,-14.8,-14.8,-14.8,-16.1,-14.8,-16.1,-16.1,-16.1,-16.1,-16.1,-16.1,-16.1],[4.8,4.8,8,8,8,8,8,4.8,8,8,4.8,4.8,4.8,4.8,4.8,4.8,4.8,4.8,4.8,4.8,4.8,8,4.8,4.8,4.8,2.7,4.8,2.7,2.7,2.7,2.7,2.7,2.7,2.7],[null,null,null,null,null,null,null,null,null,null,null,null,null,null,null,null,null,null,1,null,null,null,null,null,null,null,null,1,null,null,null,null,1,null],[66.3,66.3,67.5,67.5,67.5,67.5,67.5,66.3,67.5,67.5,66.3,66.3,66.3,66.3,66.3,66.3,66.3,66.3,66.3,66.3,66.3,67.5,66.3,66.3,66.3,61.6,66.3,61.6,61.6,61.6,61.6,61.6,61.6,61.6],[10.6,10.6,25.9,25.9,25.9,25.9,25.9,10.6,25.9,25.9,10.6,10.6,10.6,10.6,10.6,10.6,10.6,10.6,10.6,10.6,10.6,25.9,10.6,10.6,10.6,9.8,10.6,9.8,9.8,9.8,9.8,9.8,9.8,9.8],[7.5,7.5,5,5,5,5,5,7.5,5,5,7.5,7.5,7.5,7.5,7.5,7.5,7.5,7.5,7.5,7.5,7.5,5,7.5,7.5,7.5,13,7.5,13,13,13,13,13,13,13],[34.4,34.4,26.1,26.1,26.1,26.1,26.1,34.4,26.1,26.1,34.4,34.4,34.4,34.4,34.4,34.4,34.4,34.4,34.4,34.4,34.4,26.1,34.4,34.4,34.4,21.9,34.4,21.9,21.9,21.9,21.9,21.9,21.9,21.9],[34.2,34.2,31.6,31.6,31.6,31.6,31.6,34.2,31.6,31.6,34.2,34.2,34.2,34.2,34.2,34.2,34.2,34.2,34.2,34.2,34.2,31.6,34.2,34.2,34.2,44.5,34.2,44.5,44.5,44.5,44.5,44.5,44.5,44.5],[1.7,1.7,2,2,2,2,2,1.7,2,2,1.7,1.7,1.7,1.7,1.7,1.7,1.7,1.7,1.7,1.7,1.7,2,1.7,1.7,1.7,1.4,1.7,1.4,1.4,1.4,1.4,1.4,1.4,1.4],[1.5,1.5,0.6,0.6,0.6,0.6,0.6,1.5,0.6,0.6,1.5,1.5,1.5,1.5,1.5,1.5,1.5,1.5,1.5,1.5,1.5,0.6,1.5,1.5,1.5,1.8,1.5,1.8,1.8,1.8,1.8,1.8,1.8,1.8],[0.3,0.3,0.4,0.4,0.4,0.4,0.4,0.3,0.4,0.4,0.3,0.3,0.3,0.3,0.3,0.3,0.3,0.3,0.3,0.3,0.3,0.4,0.3,0.3,0.3,0.5,0.3,0.5,0.5,0.5,0.5,0.5,0.5,0.5],[2.6,2.6,2.9,2.9,2.9,2.9,2.9,2.6,2.9,2.9,2.6,2.6,2.6,2.6,2.6,2.6,2.6,2.6,2.6,2.6,2.6,2.9,2.6,2.6,2.6,3.5,2.6,3.5,3.5,3.5,3.5,3.5,3.5,3.5],[[[2020,0],[2021,0],[2022,0],[2023,0],[2024,0],[2025,0]],[[2020,1.1],[2021,1.2],[2022,1.5],[2023,1.7],[2024,1.9],[2025,1.8]],[[2020,3],[2021,2.8],[2022,2.8],[2023,3.5],[2024,3.9],[2025,4.6]],[[2020,0.6],[2021,0.6],[2022,0.6],[2023,0.7],[2024,0.8],[2025,0.9]],[[2020,2.1],[2021,2],[2022,2],[2023,2.4],[2024,2.8],[2025,3.2]],[[2020,0.3],[2021,0.3],[2022,0.3],[2023,0.3],[2024,0.4],[2025,0.5]],[[2020,0.8],[2021,0.8],[2022,0.8],[2023,0.9],[2024,1.1],[2025,1.2]],[[2020,2.9],[2021,3.1],[2022,4],[2023,4.5],[2024,4.9],[2025,4.7]],[[2020,0.3],[2021,0.3],[2022,0.3],[2023,0.3],[2024,0.4],[2025,0.5]],[[2020,0],[2021,0],[2022,0],[2023,0],[2024,0],[2025,0]],[[2020,2],[2021,2.1],[2022,2.8],[2023,3.1],[2024,3.4],[2025,3.2]],[[2020,0],[2021,0],[2022,0],[2023,0],[2024,0],[2025,0]],[[2020,0.6],[2021,0.6],[2022,0.8],[2023,0.9],[2024,1],[2025,1]],[[2020,0.6],[2021,0.6],[2022,0.8],[2023,0.9],[2024,1],[2025,1]],[[2020,1],[2021,1.1],[2022,1.4],[2023,1.6],[2024,1.7],[2025,1.6]],[[2020,0.9],[2021,1],[2022,1.2],[2023,1.4],[2024,1.5],[2025,1.5]],[[2020,0.4],[2021,0.4],[2022,0.6],[2023,0.6],[2024,0.7],[2025,0.7]],[[2020,0.8],[2021,0.9],[2022,1.1],[2023,1.2],[2024,1.4],[2025,1.3]],[[2020,1.8],[2021,1.9],[2022,2.5],[2023,2.8],[2024,3],[2025,2.9]],[[2020,2.7],[2021,2.9],[2022,3.7],[2023,4.2],[2024,4.6],[2025,4.4]],[[2020,0.7],[2021,0.7],[2022,1],[2023,1.1],[2024,1.2],[2025,1.1]],[[2020,0],[2021,0],[2022,0],[2023,0],[2024,0],[2025,0]],[[2020,0.9],[2021,1],[2022,1.2],[2023,1.4],[2024,1.5],[2025,1.5]],[[2020,1.5],[2021,1.6],[2022,2.1],[2023,2.3],[2024,2.5],[2025,2.4]],[[2020,1],[2021,1.1],[2022,1.4],[2023,1.6],[2024,1.7],[2025,1.6]],[[2020,0.6],[2021,0.8],[2022,0.9],[2023,1.5],[2024,1.6],[2025,1.9]],[[2020,1.4],[2021,1.5],[2022,1.9],[2023,2.2],[2024,2.4],[2025,2.3]],[[2020,1.2],[2021,1.5],[2022,1.7],[2023,3.1],[2024,3.3],[2025,3.8]],[[2020,3],[2021,3.8],[2022,4.4],[2023,7.6],[2024,8.2],[2025,9.5]],[[2020,0],[2021,0],[2022,0],[2023,0],[2024,0],[2025,0]],[[2020,0.2],[2021,0.3],[2022,0.3],[2023,0.5],[2024,0.5],[2025,0.6]],[[2020,0.6],[2021,0.8],[2022,0.9],[2023,1.5],[2024,1.6],[2025,1.9]],[[2020,0.9],[2021,1.1],[2022,1.3],[2023,2.3],[2024,2.5],[2025,2.9]],[[2020,2.7],[2021,3.4],[2022,3.9],[2023,6.9],[2024,7.4],[2025,8.6]]],[0,1.8,4.6,0.9,3.2,0.5,1.2,4.7,0.5,0,3.2,0,1,1,1.6,1.5,0.7,1.3,2.9,4.4,1.1,0,1.5,2.4,1.6,1.9,2.3,3.8,9.5,0,0.6,1.9,2.9,8.6],[18,27.5,19.5,28.8,21.7,27.8,23.8,21.1,27.7,21.7,21.3,45.5,16.9,31.9,31.5,28.7,32,27,26.4,22.4,27.8,31.8,24.4,21.8,21.9,33.3,26.7,21.3,22.6,23.9,21.6,21,20.4,38.2],[12.5,27,157.9,91.6,48.1,24.6,19.6,18.2,59.8,16.7,111.1,0,12.1,21.3,63.2,45.5,38.8,27.3,77.6,132.6,36.8,45.5,70.9,164.4,103.4,30.5,21.4,100.9,30.4,50,37.4,85.9,145.8,42.9],[5.8,5.8,3.5,3.5,3.5,3.5,3.5,5.8,3.5,3.5,5.8,5.8,5.8,5.8,5.8,5.8,5.8,5.8,5.8,5.8,5.8,3.5,5.8,5.8,5.8,5.4,5.8,5.4,5.4,5.4,5.4,5.4,5.4,5.4],[29.5,29.5,12.1,12.1,12.1,12.1,12.1,29.5,12.1,12.1,29.5,29.5,29.5,29.5,29.5,29.5,29.5,29.5,29.5,29.5,29.5,12.1,29.5,29.5,29.5,12.1,29.5,12.1,12.1,12.1,12.1,12.1,12.1,12.1],[0,0,2,0,0,0,0,0,0,0,3,0,0,0,0,1,0,0,1,0,0,0,1,1,0,0,0,2,0,0,0,0,1,0],[0,0,5,0,0,0,0,0,0,0,2,0,0,0,0,0,0,0,0,0,0,0,3,2,0,0,0,5,0,0,0,0,0,0],[0,1,3,0,0,0,0,0,1,0,5,0,0,0,1,0,1,0,1,0,0,0,3,1,0,0,0,1,0,0,1,0,2,0],[0,0,2,0,1,1,0,0,0,0,3,0,0,0,0,0,0,0,1,0,0,0,1,1,0,0,0,3,0,0,0,0,0,0],[0,0,8,0,4,0,0,0,0,0,13,0,0,0,0,0,0,0,0,0,0,0,1,15,0,0,0,15,0,0,0,0,6,0],[null,null,[[2020,1162],[2021,1242],[2023,1058],[2025,851]],null,null,null,null,null,null,null,[[2020,1366],[2021,1304],[2022,1297],[2023,1209],[2024,1147],[2025,1070]],null,null,null,null,null,null,null,null,null,null,null,null,null,null,null,null,[[2020,818],[2021,897],[2022,766],[2023,1010],[2024,792],[2025,940]],null,null,null,null,null,null]]}}