{"type":"Topology","objects":{"neighborhoods":{"type":"GeometryCollection","geometries":[{"type":"MultiPolygon","arcs":[[[0,1,2,3]]],"properties":{"i":0}},{"type":"MultiPolygon","arcs":[[[4,5,6,7,-3]]],"properties":{"i":1}},{"type":"MultiPolygon","arcs":[[[8,9,10,11,12]]],"properties":{"i":2}},{"type":"MultiPolygon","arcs":[[[-4,-8,13,14]]],"properties":{"i":3}},{"type":"MultiPolygon","arcs":[[[15,-5,-2,16,17,18,19,20]]],"properties":{"i":4}},{"type":"MultiPolygon","arcs":[[[21,-18]]],"properties":{"i":5}},{"type":"MultiPolygon","arcs":[[[22,-21,23,-13,24,25]]],"properties":{"i":6}},{"type":"MultiPolygon","arcs":[[[-23,26,-6,-16]]],"properties":{"i":7}},{"type":"MultiPolygon","arcs":[[[-20,27,28,-9,-24]]],"properties":{"i":8}},{"type":"MultiPolygon","arcs":[[[29,-10,-29,30]]],"properties":{"i":9}},{"type":"MultiPolygon","arcs":[[[31,32,33,-14,-7,-27,-26,34,-11,-30,35,36]]],"properties":{"i":10}},{"type":"MultiPolygon","arcs":[[[37,38,-37,39]]],"properties":{"i":11}},{"type":"MultiPolygon","arcs":[[[-33,40,41]]],"properties":{"i":12}},{"type":"MultiPolygon","arcs":[[[-25,-12,-35]]],"properties":{"i":13}},{"type":"MultiPolygon","arcs":[[[42,43,-41,-32,-39,44]]],"properties":{"i":14}},{"type":"MultiPolygon","arcs":[[[45,-45,-38,46]]],"properties":{"i":15}},{"type":"MultiPolygon","arcs":[[[47,-43,-46]]],"properties":{"i":16}}]}},"arcs":[[[87594,20571],[1636,-4177],[-971,-221],[-2214,-264],[-2536,-413],[-1326,148],[-216,24],[-179,-16],[-97,-24],[-838,-52],[-440,-27],[-1149,-984],[-367,-40],[-608,-560],[142,-83],[625,-365],[1357,-501],[-1272,-998],[-91,-136],[-2173,-1203],[-1848,-270],[-1159,938],[-1985,377],[-1548,-49],[-1693,-1218],[-1219,-405],[-1831,-15]],[[65594,10037],[-959,808],[-43,15],[-1280,770],[-1844,1408],[-457,352],[-1572,922],[-1792,1463]],[[57647,15775],[1909,479],[1075,-50],[1286,-15],[1593,-193],[-73,1331],[417,385],[1377,292],[1096,977],[-371,371],[-240,587],[28,24],[2413,953],[364,1435],[206,854],[812,1483],[927,2607]],[[70466,27295],[1981,-1316],[2092,-1244],[878,-1587],[1608,-2347],[2065,-177],[1588,-128],[1425,12],[854,461],[2373,1480],[1652,-285],[612,-1593]],[[57647,15775],[-1,12],[-2490,2380],[-528,653],[278,263],[-112,227],[-203,218],[-452,131]],[[54139,19659],[-625,-90],[-590,792],[507,541],[2086,86],[1627,1135],[899,1254],[602,781],[-329,748],[-1756,278],[-282,1313],[4489,2161],[6809,2305]],[[67576,30963],[1683,-231]],[[69259,30732],[829,-1319],[378,-2118]],[[37901,37998],[-2499,1842],[-5338,-309],[-1945,-576]],[[28119,38955],[-614,2325],[1895,8349]],[[29400,49629],[843,3026],[1963,492],[4098,-1313],[1077,-713],[1605,-1229],[2486,-853],[103,-83],[736,-160],[676,-545],[1553,-1283],[512,-449],[39,-343],[-89,-215],[-602,-556],[-62,-128],[-117,-434],[89,-265]],[[44310,44578],[-304,-384],[-411,-251],[-47,-167],[-1127,-1129],[-742,-487],[-193,-74],[-78,-52],[-2229,-3711]],[[39179,38323],[-1278,-325]],[[69259,30732],[1747,1161],[4040,1676],[1404,746],[227,180],[351,279],[4432,1452]],[[81460,36226],[6885,-99],[85,-4],[3983,-190],[616,-159],[1083,-2148],[2634,-4111],[442,-761],[371,-513],[397,-550],[246,-340],[1797,-2847],[-222,-547],[-1267,-4192],[-925,660],[-869,116],[-1048,439],[-1846,300],[-4479,198],[-1749,-907]],[[47855,22086],[2654,-1828],[2942,-1640],[688,1041]],[[65594,10037],[-720,-931],[-183,-699],[298,-749],[749,-683],[-475,-737],[-1719,743],[-1149,478],[-769,157],[-702,309],[-47,2],[-242,13],[-468,-212],[-801,-222],[-850,-49],[-848,668],[-534,155],[-640,-50],[-687,-669],[-1646,-287],[-1692,-444]],[[52469,6830],[888,2146],[-219,979],[-8,20],[523,1494],[-407,341],[-360,-32],[-695,487],[-49,34],[-55,12],[-306,-246],[524,-1083],[-225,-227],[-2082,-358],[17,261],[-1104,1355],[523,827],[577,840],[-71,677],[-62,76],[-406,-95],[-410,-211],[-392,-144],[-396,-144],[-833,300],[-383,492],[-254,304],[-525,663],[-314,943],[-502,560],[-188,143],[-593,115],[-1974,592],[-1553,620],[119,813],[-295,92],[-489,26],[-216,-388],[13,-918],[-514,-785],[-1405,-510],[-1110,355],[-1453,961],[-2961,273],[-1574,658],[-1958,648]],[[29312,19796],[-509,906],[-1072,284],[-593,2785],[340,2843]],[[27478,26614],[1640,2048],[1822,465],[1452,423],[706,78],[197,-443]],[[33295,29185],[689,-470],[755,-516],[708,-420],[1381,-278],[578,-1034],[647,-258],[851,-411],[808,-585],[664,-253],[674,-145],[1038,-744],[923,-1235],[791,-565],[1877,-287],[2176,102]],[[52469,6830],[-1391,-2170],[-667,-284],[-94,-201],[-846,-407],[-447,-288],[-547,-355],[-463,-629],[-4388,1691],[-6441,111],[-6600,-1463],[-1598,-362],[15,-923],[150,-1544],[-3,-6],[-674,471],[-4584,2735],[-1168,105],[-782,200],[-3281,2301],[25,87],[-2051,483],[-1338,314],[-1103,1230],[-1250,1395],[966,-3],[1481,-271],[5039,607],[1357,1256],[3279,1473],[1121,1242],[563,1030],[67,657],[-129,613],[236,647],[178,1085],[1310,1260],[-6,15],[907,864]],[[61755,34699],[-1013,-1683],[-1639,-2722],[-2811,539],[-7743,61],[-442,-238],[-86,-630],[-207,-522],[-62,-409],[-6,-302],[-620,-629],[731,-1002],[978,-45],[598,-83],[264,-631],[64,-354],[-4,-329],[-61,-148],[-153,-522],[-866,-312],[-437,-241],[-226,-323],[-10,-102],[-12,-61],[184,-632],[-31,-834],[-288,-456],[-2,-3]],[[33295,29185],[307,126],[448,71],[-507,441],[-40,125],[-348,416],[-34,45],[-224,238],[445,441],[-276,634],[684,229],[383,-781],[170,-34],[1118,-372],[991,69],[773,476],[-293,1224],[-269,505],[-7,26],[-610,1764],[-6,259],[-270,625],[2,317],[656,944],[1513,1025]],[[39179,38323],[2878,-1736],[101,-3],[68,-35],[837,-433],[1453,-687]],[[44516,35429],[0,-223],[0,-83],[502,-255],[413,141],[195,-32],[1478,-211],[2115,893],[60,255],[465,438],[31,194],[336,476],[4438,2766],[4338,929],[33,-85],[1418,-351],[400,-99],[125,-31],[-45,-147],[-22,-71],[-366,-142],[-246,21],[-1859,-1564],[-34,-38],[168,-2318],[3296,-1193]],[[61755,34699],[186,-15],[3244,-1131],[476,-516],[1915,-2074]],[[27478,26614],[-1562,1618],[-4471,1617],[-1302,1890],[-1267,2209],[-90,212],[-96,231],[-70,166],[416,607],[327,320],[294,287]],[[19657,35771],[879,-460],[138,26],[1248,234],[1045,705],[665,495],[439,218],[7,6],[538,554],[1254,858],[2249,548]],[[23879,55761],[966,-1910],[3218,-3294],[1337,-928]],[[19657,35771],[-341,364],[-1913,283],[-539,-300],[-259,-143],[-21,18],[-751,-599],[-2964,-1816],[-998,1866],[468,4450],[-482,1684],[148,1307],[-2990,1299],[-97,23],[-659,-180],[-1141,-312],[-338,-93],[-138,140],[-492,443],[-439,145],[-1724,566],[-346,129],[-2730,593],[-280,199],[-271,427],[-177,519],[-110,410],[-70,262],[-3,43],[867,1032],[422,501],[-63,450],[-287,1735],[3170,1325],[2343,2184],[4302,157],[3895,572],[430,330],[150,116],[266,-262],[358,-353],[616,194],[7410,282]],[[50820,71406],[575,-978],[1445,-1260],[1337,-2658],[-502,-1554],[-198,-647],[2569,-1018],[510,-441],[125,-910],[475,-1121],[8909,-1230],[1814,-285]],[[67879,59304],[486,-270],[1797,-3844],[2159,-2095],[877,-614],[-348,-1877],[12,-1768],[1800,-2734],[911,-776],[660,-9],[1062,-274],[50,-11],[77,-37],[466,-497]],[[77888,44498],[-4,-3],[-248,-715],[2664,-2686],[1160,-4868]],[[44516,35429],[601,-54],[38,742],[363,90],[442,465],[-74,209],[47,218],[164,125],[-294,908],[-9,7],[-15,376],[465,167],[305,868],[49,32],[17,25],[8,61],[-26,196],[-9,165],[390,589],[218,145],[260,89],[71,770],[-138,158],[-10,39],[-126,239],[68,223],[-246,419],[205,355],[-2,64],[70,122],[269,169],[185,-24],[557,-10],[435,242],[-198,395],[-312,390],[-588,-192],[-301,213],[-232,360],[-41,11],[-270,-134],[-95,73],[-121,135],[-590,55],[-274,-58],[-518,-2],[-210,-94],[-147,-61],[-587,-131]],[[23879,55761],[-952,6394],[1138,4278],[873,1989],[2754,1359],[3543,973]],[[31235,70754],[7074,-5141],[5754,-525],[1780,442],[556,569],[-110,770],[-190,747],[4721,3790]],[[48393,90132],[-1434,-3286],[1424,-7464],[2409,-4578],[175,-3106]],[[50967,71698],[-147,-292]],[[31235,70754],[-5,275],[-1016,1444],[-1371,1948],[378,935],[-48,395],[-36,1413],[1907,731],[2188,837],[-753,2790],[-2353,321],[-62,8],[-277,699],[-472,506],[-130,139],[-644,108],[-4241,707],[368,599],[349,946],[179,245],[334,501],[443,143],[2442,860],[478,204],[884,379],[1729,738],[1803,-728],[380,-177],[1636,-759],[390,79],[581,67],[229,46],[2305,1261],[2463,323],[621,711],[3529,661],[2123,397],[827,-374]],[[67879,59304],[5654,1787],[832,263]],[[74365,61354],[5871,-988],[1186,-852],[665,-1861],[277,-1918],[-122,-2010],[-4,-84],[-35,-130],[-210,-3302],[-840,-1545],[-454,-990],[-435,-323],[-845,-575],[-415,-603],[-914,-837],[-202,-838]],[[66869,70139],[200,-475],[616,-451],[125,-34],[907,-2047],[562,-1275],[4752,-3692]],[[74031,62165],[-4,-46],[237,-458],[101,-307]],[[50967,71698],[321,-206],[2037,-918],[1453,-100],[1738,437],[184,140],[82,138],[251,599],[-67,412],[45,147],[98,240],[247,306],[958,851],[2779,606],[866,-947],[233,-314],[193,-295],[1520,-358],[288,-159],[127,-120],[47,-74],[-371,-973],[-153,-856],[-26,-432],[630,-584],[66,21],[644,206],[82,679],[1630,-5]],[[85545,72168],[-2883,-53],[-2391,-396],[-3879,100],[-1357,194],[-1053,632],[-741,80],[-336,-282],[-466,-456],[-699,-68],[-88,-321],[553,-78],[999,100],[484,-120],[-836,-676],[-278,284],[-432,249],[-1775,-268],[-802,-220],[-2696,-730]],[[48393,90132],[1547,1351],[6135,1877],[6171,2238],[1606,4401],[201,-33],[171,-34],[2944,-765],[105,-235],[289,-397],[494,-676],[725,-1268],[162,-283],[1804,-2406],[1198,-2029],[2723,-5413],[6812,-6562],[1031,-542],[530,-238],[932,-254],[655,-178],[917,-6518]],[[85545,72168],[464,-402],[740,-641],[-1822,-1033],[-1735,-1202],[-1389,-292],[-2171,-58],[-1222,-1394],[-130,-3066],[-1664,-414],[-1481,-801],[-1104,-700]]],"bbox":[22.53840352650539,61.672684337031185,23.543514152376016,62.35310736124889],"transform":{"scale":[0.000010051206770773955,0.000006804298285159879],"translate":[22.53840352650539,61.672684337031185]},"propertiesColumnar":{"format":"columnar/1","keys":["id","postinumeroalue","nimi","namn","euref_x","euref_y","pinta_ala","vuosi","kunta","he_vakiy","he_naiset","he_miehet","he_kika","he_0_2","he_3_6","he_7_12","he_13_15","he_16_17","he_18_19","he_20_24","he_25_29","he_30_34","he_35_39","he_40_44","he_45_49","he_50_54","he_55_59","he_60_64","he_65_69","he_70_74","he_75_79","he_80_84","he_85_","ko_ika18y","ko_perus","ko_koul","ko_yliop","ko_ammat","ko_al_kork","ko_yl_kork","hr_tuy","hr_ktu","hr_mtu","hr_pi_tul","hr_ke_tul","hr_hy_tul","hr_ovy","te_taly","te_takk","te_as_valj","te_yks","te_nuor","te_eil_np","te_laps","te_plap","te_aklap","te_klap","te_teini","te_yhlap","te_aik","te_elak","te_omis_as","te_vuok_as","te_muu_as","tr_kuty","tr_ktu","tr_mtu","tr_pi_tul","tr_ke_tul","tr_hy_tul","tr_ovy","ra_ke","ra_raky","ra_muut","ra_asrak","ra_asunn","ra_as_kpa","ra_pt_as","ra_kt_as","ra_muu_as","tp_tyopy","tp_alku_a","tp_jalo_bf","tp_palv_gu","tp_a_maat","tp_b_kaiv","tp_c_teol","tp_d_ener","tp_e_vesi","tp_f_rake","tp_g_kaup","tp_h_kulj","tp_i_majo","tp_j_info","tp_k_raho","tp_l_kiin","tp_m_erik","tp_n_hall","tp_o_julk","tp_p_koul","tp_q_terv","tp_r_taid","tp_s_muup","tp_t_koti","tp_u_kans","tp_x_tunt","pt_vakiy","pt_tyoll","pt_tyott","pt_0_14","pt_opisk","pt_elakel","pt_muut","city","pno","unemployment_rate","higher_education_rate","pensioner_share","ownership_rate","rental_rate","population_density","child_ratio","student_share","detached_house_share","youth_ratio_pct","gender_ratio","single_parent_hh_pct","families_with_children_pct","tech_sector_pct","healthcare_workers_pct","employment_rate","elderly_ratio_pct","avg_household_size","manufacturing_jobs_pct","public_sector_jobs_pct","service_sector_jobs_pct","new_construction_pct","foreign_language_pct","crime_index","property_price_sqm","transit_stop_density","air_quality_index","daycare_density","school_density","healthcare_density","restaurant_density","grocery_density","cycling_density","single_person_hh_pct","rental_price_sqm","price_to_rent_ratio","walkability_index","traffic_accident_rate","property_price_change_pct","school_quality_score","light_pollution","noise_pollution","voter_turnout_pct","party_diversity_index","broadband_coverage_pct","ev_charging_density","tree_canopy_pct","transit_reachability_score","sports_facility_density","water_proximity_m","avg_construction_year","income_history","population_history","unemployment_history","income_change_pct","population_change_pct","unemployment_change_pct","schools","crime_index_history","crime_index_change_pct","health_index","radon","municipality","lon","lat","flood_risk_pct","population_projection_pct","construction_activity","active_plan_count","political_lean_index","party_vote_kok_pct","party_vote_sdp_pct","party_vote_ps_pct","party_vote_kesk_pct","party_vote_vihr_pct","party_vote_vas_pct","party_vote_rkp_pct","foreign_language_municipal_pct","foreign_language_history","foreign_language_est_pct","low_income_pct","job_self_sufficiency","violent_crime_rate","property_crime_rate","grocery_count","healthcare_count","school_count","daycare_count","restaurant_count","property_price_history"],"cols":[[1162,1163,1171,1164,1165,1166,1167,1168,1169,1170,1172,1173,1174,1175,1176,1177,1178],["39410","39430","39660","39450","39500","39530","39580","39590","39610","39620","39700","39750","39770","39780","39810","39820","39880"],["Luhalahti","Röyhiö","Lapinneva","Sisättö","Ikaalinen Keskus","Kilvakkala","Riitiala","Tevaniemi","Kovelahti","Kovesjoki","Parkano Keskus","Vatajanjärvi","Aureskoski","Alaskylä","Linnankylä","Kihniö Keskus","Kihniö Asemanseutu"],["Luhalahti","Röyhiö","Lapinneva","Sisättö","Ikalis centrum","Kilvakkala","Riitiala","Tevaniemi","Kovelahti","Kovesjoki","Parkano centrum","Vatajanjärvi","Aureskoski","Alaskylä","Linnankylä","Kihniö centrum","Kihniö stationsamhälle"],[305640,297786,285313,309768,290982,282548,290082,293375,280450,274193,293978,287684,306347,289231,300176,302685,307796],[6857631,6860736,6878966,6864064,6857704,6852274,6867753,6864031,6869857,6879654,6885659,6902355,6883647,6874360,6894159,6907958,6894604],[99325487,61705246,68693344,141980798,118639151,169762475,100642374,51548339,60952411,162817176,468856013,164595586,60590539,19394336,74407540,274183914,40476139],[2026,2026,2026,2026,2026,2026,2026,2026,2026,2026,2026,2026,2026,2026,2026,2026,2026],["143","143","581","143","143","143","143","143","143","581","581","581","581","581","250","250","250"],[296,160,230,95,4443,916,371,208,182,165,5051,285,68,189,291,1297,127],[142,74,100,38,2292,413,173,100,84,78,2517,136,34,84,134,648,59],[154,86,130,57,2151,503,198,108,98,87,2534,149,34,105,157,649,68],[51,49,52,61,50,47,50,49,51,53,50,51,54,52,51,53,57],[2,0,2,0,68,11,9,1,1,2,101,4,1,6,5,23,1],[8,3,10,0,115,26,16,5,7,3,149,12,4,5,10,29,0],[18,13,8,1,298,62,19,14,14,8,297,16,2,6,17,74,3],[14,7,6,0,128,48,14,13,7,3,162,6,1,9,11,44,3],[8,4,6,2,89,27,7,9,3,4,118,5,2,4,4,21,0],[3,2,1,2,111,24,6,8,1,6,90,6,1,1,2,8,1],[2,6,4,3,173,24,4,6,4,1,170,10,0,4,8,30,1],[9,4,8,1,175,25,11,5,5,5,208,7,1,5,10,37,6],[10,5,10,2,222,42,15,1,1,3,248,13,2,10,12,55,4],[16,10,13,3,216,31,18,13,4,8,249,16,1,9,12,59,5],[18,11,12,5,261,66,11,9,14,10,287,12,5,8,14,91,4],[19,10,11,4,222,70,33,6,19,13,254,12,6,5,6,62,7],[20,6,11,8,221,54,24,6,13,9,248,14,6,12,21,46,6],[23,16,16,8,288,81,36,28,17,12,338,17,2,13,25,81,11],[23,17,29,12,283,81,29,23,11,17,361,27,4,19,35,136,17],[27,15,26,7,359,61,23,13,10,24,402,24,7,17,28,137,26],[27,10,25,13,400,57,32,20,19,11,455,34,12,28,22,131,15],[28,12,17,8,387,62,38,11,16,12,435,29,9,14,20,101,14],[10,5,8,12,208,33,16,10,9,7,245,12,0,11,19,57,2],[11,4,7,4,219,31,10,7,7,7,234,9,2,3,10,75,1],[246,133,198,92,3745,742,306,166,150,145,4224,242,58,159,244,1106,120],[68,25,61,37,950,169,62,30,32,37,1131,57,20,37,65,338,31],[178,108,137,55,2795,573,244,136,118,108,3093,185,38,122,179,768,89],[5,8,3,2,130,28,8,6,1,6,101,7,2,6,6,28,5],[105,67,107,40,1612,366,161,96,73,76,2073,144,27,74,130,529,56],[53,27,23,8,826,149,58,25,32,23,743,29,9,33,36,171,25],[15,6,4,5,227,30,17,9,12,3,176,5,0,9,7,40,3],[246,133,198,92,3745,742,306,166,150,145,4224,242,58,159,244,1106,120],[28320,25845,25040,26532,25562,27048,26233,28142,26052,26398,26392,25553,24851,27899,27638,25094,24871],[25451,23670,22752,21185,23286,24579,24364,24435,24864,23861,23253,22515,20188,24940,22329,21979,22420],[59,33,45,26,817,158,64,30,41,35,882,64,20,24,67,264,40],[145,82,129,55,2473,475,198,104,89,86,2879,147,31,111,142,730,65],[42,18,24,11,455,109,44,32,20,24,463,31,7,24,35,112,15],[6966602,3437341,4957984,2440977,95730066,20069758,8027293,4671600,3907821,3827692,111481249,6183705,1441346,4435907,6743569,27753621,2984540],[141,70,120,60,2433,414,177,94,87,79,2665,136,37,93,132,658,65],[2,2.3,1.9,1.6,1.8,2.2,2.1,2.2,2.1,2,1.9,2.1,1.8,2,2.2,1.9,2],[51.1,48.8,55,67,48.3,50.6,51.4,50.5,52.1,53.4,48.6,54.4,52,57.8,50,49.1,50.8],[55,23,46,33,1221,135,65,35,35,29,1268,49,17,32,37,280,20],[4,4,3,4,255,13,1,4,1,0,199,3,0,2,2,22,1],[1,0,1,0,45,8,1,2,3,0,51,0,0,0,1,5,2],[26,14,17,3,377,87,34,14,15,10,439,20,5,16,22,100,3],[2,0,2,0,60,9,8,1,1,2,91,4,1,4,5,20,1],[7,3,9,0,132,25,19,4,7,4,189,10,2,7,8,38,1],[13,9,5,1,191,47,13,8,9,5,207,12,2,5,12,57,3],[15,8,9,1,155,56,16,13,8,4,195,9,3,8,11,49,2],[7,0,8,0,104,17,3,2,0,2,95,3,1,8,2,21,1],[47,24,40,27,969,153,59,39,31,26,970,43,11,27,42,213,25],[69,33,63,30,1101,174,84,42,43,44,1275,73,22,50,71,350,37],[125,61,111,55,1614,380,165,78,79,74,1929,126,32,88,122,498,62],[14,5,5,4,791,19,8,11,5,2,694,6,5,4,4,140,1],[2,4,4,1,28,15,4,5,3,3,42,4,0,1,6,20,2],[141,70,120,60,2433,414,177,94,87,79,2665,136,37,93,132,658,65],[49036,49883,41590,41131,39090,48831,45681,49839,45046,47118,41695,45680,39242,47933,51464,41356,45944],[42912,40976,36955,34181,32552,42467,42179,44900,36197,41519,33567,38093,29518,38074,42983,34745,42259],[36,15,39,22,789,97,40,22,20,20,817,37,17,21,37,220,16],[79,47,69,31,1400,264,113,54,56,48,1591,84,15,59,77,371,40],[26,8,12,7,244,53,24,18,11,11,257,15,5,13,18,67,9],[6914051,3491777,4990793,2467880,95105550,20216044,8085492,4684879,3919010,3722335,111116274,6212498,1451950,4457800,6793273,27212059,2986341],[470,207,22,295,407,262,312,127,79,126,563,238,169,32,227,596,102],[245,127,200,126,1771,626,299,141,157,146,2483,253,83,121,242,832,109],[23,13,49,19,250,94,29,17,17,23,597,60,28,17,51,135,4],[222,114,151,107,1521,532,270,124,140,123,1886,193,55,104,191,697,105],[184,96,155,81,3025,506,227,121,117,100,3332,198,46,109,170,878,79],[98.5,101.7,101,100,82.8,105.6,103.2,107.2,109.5,103.5,86.9,102.2,92.1,117,103.7,90,97.8],[171,91,149,80,1915,501,223,109,115,100,2379,193,45,109,168,833,77],[9,0,3,0,1007,0,0,4,0,0,813,0,0,0,0,20,1],[4,5,3,1,103,5,4,8,2,0,140,5,1,0,2,25,1],[68,9,25,16,1479,262,32,81,25,28,2069,40,28,25,93,424,4],[11,null,6,10,53,56,16,19,17,20,105,17,1,1,17,41,null],[15,null,13,5,213,129,8,8,5,5,682,22,26,8,66,153,null],[42,null,6,1,1213,77,8,54,3,3,1282,1,1,16,10,230,null],[11,null,6,10,53,56,16,19,17,20,105,17,1,1,17,41,null],[0,null,6,0,0,1,0,0,0,0,22,5,0,0,2,0,null],[0,null,3,0,118,45,2,1,2,2,447,15,26,3,54,126,null],[0,null,0,0,36,0,0,0,0,0,5,0,0,0,0,0,null],[0,null,0,0,7,60,0,1,0,0,21,0,0,0,1,0,null],[15,null,4,5,52,23,6,6,3,3,187,2,0,5,9,27,null],[9,null,0,0,142,13,1,0,0,1,247,0,0,1,2,29,null],[2,null,5,0,47,12,3,3,0,2,116,0,0,11,5,13,null],[0,null,0,0,102,7,1,0,0,0,49,0,0,0,0,5,null],[0,null,1,0,22,1,0,0,2,0,20,0,0,0,0,0,null],[0,null,0,0,28,0,0,0,0,0,18,0,0,0,0,1,null],[0,null,0,0,30,1,0,0,0,0,8,0,0,0,0,1,null],[1,null,0,0,53,3,1,0,1,0,54,0,0,1,0,6,null],[1,null,0,1,69,15,2,2,0,0,37,0,1,1,0,14,null],[0,null,0,0,76,0,0,0,0,0,61,0,0,0,0,19,null],[2,null,0,0,165,12,0,7,0,0,131,0,0,0,0,37,null],[27,null,0,0,418,10,0,41,0,0,477,0,0,1,0,90,null],[0,null,0,0,12,1,0,0,0,0,9,1,0,0,0,4,null],[0,null,0,0,49,2,0,1,0,0,55,0,0,1,3,11,null],[0,null,0,0,0,0,0,0,0,0,0,0,0,0,0,0,null],[0,null,0,0,0,0,0,0,0,0,0,0,0,0,0,0,null],[0,null,0,0,0,0,0,0,0,0,0,0,0,0,0,0,null],[296,160,230,95,4443,916,371,208,182,165,5051,285,68,189,291,1297,127],[113,64,82,27,1522,390,142,85,67,69,1830,103,20,77,117,485,44],[8,11,13,7,253,41,16,4,8,5,252,10,3,4,7,43,6],[39,22,24,1,574,132,55,26,27,15,649,35,8,24,38,158,5],[19,5,10,3,321,59,16,21,7,9,259,12,3,7,12,47,4],[113,51,92,52,1652,268,130,70,68,66,1914,116,33,74,110,536,63],[4,7,9,5,121,26,12,2,5,1,147,9,1,3,7,28,5],["luoteis_pirkanmaa","luoteis_pirkanmaa","luoteis_pirkanmaa","luoteis_pirkanmaa","luoteis_pirkanmaa","luoteis_pirkanmaa","luoteis_pirkanmaa","luoteis_pirkanmaa","luoteis_pirkanmaa","luoteis_pirkanmaa","luoteis_pirkanmaa","luoteis_pirkanmaa","luoteis_pirkanmaa","luoteis_pirkanmaa","luoteis_pirkanmaa","luoteis_pirkanmaa","luoteis_pirkanmaa"],["39410","39430","39660","39450","39500","39530","39580","39590","39610","39620","39700","39750","39770","39780","39810","39820","39880"],[2.7,6.9,5.7,7.4,5.7,4.5,4.3,1.9,4.4,3,5,3.5,4.4,2.1,2.4,3.3,4.7],[27.6,24.8,13.6,14.1,28.1,24.1,24.5,20.5,29.3,17.9,21.8,14,15.5,26.4,17.6,19.1,23.3],[38.2,31.9,40,54.7,37.2,29.3,35,33.7,37.4,40,37.9,40.7,48.5,39.2,37.8,41.3,49.6],[88.7,87.1,92.5,91.7,66.3,91.8,93.2,83,90.8,93.7,72.4,92.6,86.5,94.6,92.4,75.7,95.4],[9.9,7.1,4.2,6.7,32.5,4.6,4.5,11.7,5.7,2.5,26,4.4,13.5,4.3,3,21.3,1.5],[3,3,3,1,37,5,4,4,3,1,11,2,1,10,4,5,3],[3.4,1.9,5.2,0,4.1,4,6.7,2.9,4.4,3,4.9,5.6,7.4,5.8,5.2,4,0.8],[6.4,3.1,4.3,3.2,7.2,6.4,4.3,10.1,3.8,5.5,5.1,4.2,4.4,3.7,4.1,3.6,3.1],[92.9,94.8,96.1,98.8,63.3,99,98.2,90.1,98.3,100,71.4,97.5,97.8,100,98.8,94.9,97.5],[4.7,7.5,5.7,6.3,10.3,8,5.7,9.1,5.5,7.3,9.3,8.1,2.9,5.3,6.9,5.8,6.3],[0.92,0.86,0.77,0.67,1.07,0.82,0.87,0.93,0.86,0.9,0.99,0.91,1,0.8,0.85,1,0.87],[0.7,0,0.8,0,1.8,1.9,0.6,2.1,3.4,0,1.9,0,0,0,0.8,0.8,3.1],[18.4,20,14.2,5,15.5,21,19.2,14.9,17.2,12.7,16.5,14.7,13.5,17.2,16.7,15.2,4.6],[0,null,4,0,1.5,0.4,0,0,8,0,1,0,0,0,0,0,null],[39.7,null,0,0,28.3,3.8,0,50.6,0,0,23.1,0,0,4,0,21.2,null],[38.2,40,35.7,28.4,34.3,42.6,38.3,40.9,36.8,41.8,36.2,36.1,29.4,40.7,40.2,37.4,34.6],[34.8,28.7,36.1,46.3,35.4,26.6,32.1,29.3,33.5,37,35.1,37.9,44.1,38.6,34,38.6,45.7],[2.1,2.29,1.92,1.58,1.83,2.21,2.1,2.21,2.09,2.09,1.9,2.1,1.84,2.03,2.2,1.97,1.95],[22.1,null,52,31.2,14.4,49.2,25,9.9,20,17.9,33,55,92.9,32,71,36.1,null],[0,null,0,0,5.1,0,0,0,0,0,2.9,0,0,0,0,4.5,null],[61.8,null,24,6.2,82,29.4,25,66.7,12,10.7,62,2.5,3.6,64,10.8,54.2,null],[133.2,132.3,129,155.6,58.5,123.7,131.7,116.5,134.2,146,74.5,127.8,180.4,111,142.4,94.8,138],[1,1.2,0.4,2.7,2.3,1.1,1.8,1.3,2.1,1.1,2.3,0,0,0,0.3,1.8,1.6],[92.3,92.3,93.3,92.3,92.3,92.3,92.3,92.3,92.3,93.3,93.3,93.3,93.3,93.3,25.8,25.8,25.8],[null,null,null,null,776,null,null,null,null,null,963,null,null,null,null,null,null],[0.3,0.2,0.3,0,0.5,0.3,0.3,0.4,0.2,0.1,0.3,0.2,0.1,0.8,0.3,0.2,0],[23.6,23.5,23,23.5,23.2,23,23,23.3,23,22.7,23.2,22.1,23.2,23,23,23,23],[0,0,0,0,0.0084,0,0,0,0,0,0,0,0,0,0,0,0],[0.0101,0,0,0,0.0421,0.0059,0,0.0194,0,0,0.0064,0.0061,0,0,0,0.0073,0],[0,0,0,0,0.0337,0,0,0,0,0,0.0043,0,0,0,0,0.0073,0],[0,0,0,0,0.0674,0.0118,0,0,0,0,0.0277,0,0,0,0,0.0073,0],[0,0,0,0,0.0337,0,0,0,0,0,0.0171,0,0,0,0,0.0036,0],[0,0,0,0,1.3739,0.0766,0.0099,0,0,0,0.2837,0,0,0,0,0.0365,0],[39,32.9,38.3,55,50.2,32.6,36.7,37.2,40.2,36.7,47.6,36,45.9,34.4,28,42.6,30.8],[null,null,null,null,null,null,null,null,null,null,null,null,null,null,null,null,null],[null,null,null,null,null,null,null,null,null,null,null,null,null,null,null,null,null],[76,76,76,76,82,78,76,76,76,76,79,76,76,76,76,76,76],[2.3,2.1,4.3,null,1.2,3.3,8.1,1.6,null,12.1,1.3,9.4,null,12.3,3.4,0.5,null],[null,null,null,null,-19.8,null,null,null,null,null,10.1,null,null,null,null,null,null],[null,null,null,null,53.4,null,null,null,null,null,59.4,null,null,null,null,null,null],[0.02,0.01,0.09,0,5.75,4.01,0.06,0.01,0.01,0.02,0.25,0.11,0.01,0.37,0.01,0.02,0],[40,40,40,40,40,40,40,40,40,40,40,40,40,40,40,40,40],[70.3,70.3,68,70.3,70.3,70.3,70.3,70.3,70.3,68,68,68,68,68,72,72,72],[0.649,0.649,0.564,0.649,0.649,0.649,0.649,0.649,0.649,0.564,0.564,0.564,0.564,0.564,0.576,0.576,0.576],[72,72,82,72,72,72,72,72,72,82,82,82,82,82,69,69,69],[0,0,0,0,0,0,0,0,0,0,0,0,0,0,0,0,0],[43.5,49.3,45.7,54.4,36.6,45.6,44.7,50.1,47.7,43.8,47,45.3,48.8,41,45.7,45.8,52.7],[null,null,null,null,null,null,null,null,null,null,null,null,null,null,null,null,null],[0.1,0,0,0,0.3,0.1,0,0.1,0,0,0.1,0,0,0,0,0.1,0],[290,400,940,400,80,400,520,440,930,1770,390,620,710,690,550,520,820],[1979,1979,1979,1980,1976,1979,1979,1978,1979,1980,1977,1979,1981,1978,1975,1973,1975],[[[2021,22051],[2022,20759],[2023,22772],[2024,22601],[2025,24422],[2026,25451]],[[2021,20545],[2022,19855],[2023,21444],[2024,21207],[2025,24761],[2026,23670]],[[2021,19182],[2022,19690],[2023,19993],[2024,20075],[2025,21301],[2026,22752]],[[2021,18019],[2022,18806],[2023,19621],[2024,18306],[2025,23535],[2026,21185]],[[2021,19789],[2022,19799],[2023,20477],[2024,21215],[2025,22290],[2026,23286]],[[2021,20700],[2022,21007],[2023,21465],[2024,22532],[2025,24217],[2026,24579]],[[2021,19477],[2022,19935],[2023,20020],[2024,21196],[2025,23626],[2026,24364]],[[2021,19781],[2022,18745],[2023,22167],[2024,21642],[2025,23645],[2026,24435]],[[2021,18627],[2022,19336],[2023,19382],[2024,21326],[2025,23316],[2026,24864]],[[2021,21591],[2022,19872],[2023,22061],[2024,21624],[2025,22680],[2026,23861]],[[2021,19401],[2022,19768],[2023,20450],[2024,21212],[2025,22331],[2026,23253]],[[2021,19260],[2022,18737],[2023,19646],[2024,19906],[2025,21618],[2026,22515]],[[2021,15647],[2022,18037],[2023,18608],[2024,18957],[2025,20675],[2026,20188]],[[2021,21867],[2022,22646],[2023,22553],[2024,22106],[2025,24111],[2026,24940]],[[2021,18513],[2022,18863],[2023,19688],[2024,20411],[2025,21356],[2026,22329]],[[2021,18198],[2022,18575],[2023,19415],[2024,20052],[2025,21112],[2026,21979]],[[2021,16421],[2022,18633],[2023,18844],[2024,19230],[2025,21589],[2026,22420]]],[[[2021,300],[2022,299],[2023,296],[2024,304],[2025,309],[2026,296]],[[2021,173],[2022,169],[2023,170],[2024,160],[2025,165],[2026,160]],[[2021,243],[2022,242],[2023,238],[2024,231],[2025,231],[2026,230]],[[2021,115],[2022,111],[2023,111],[2024,109],[2025,98],[2026,95]],[[2021,4406],[2022,4375],[2023,4415],[2024,4409],[2025,4485],[2026,4443]],[[2021,1008],[2022,990],[2023,970],[2024,941],[2025,926],[2026,916]],[[2021,386],[2022,381],[2023,377],[2024,379],[2025,369],[2026,371]],[[2021,233],[2022,239],[2023,230],[2024,236],[2025,228],[2026,208]],[[2021,188],[2022,188],[2023,187],[2024,176],[2025,177],[2026,182]],[[2021,184],[2022,180],[2023,177],[2024,178],[2025,170],[2026,165]],[[2021,5277],[2022,5242],[2023,5185],[2024,5152],[2025,5061],[2026,5051]],[[2021,345],[2022,328],[2023,326],[2024,307],[2025,300],[2026,285]],[[2021,65],[2022,65],[2023,66],[2024,71],[2025,69],[2026,68]],[[2021,194],[2022,194],[2023,196],[2024,201],[2025,199],[2026,189]],[[2021,320],[2022,316],[2023,313],[2024,313],[2025,295],[2026,291]],[[2021,1435],[2022,1409],[2023,1381],[2024,1347],[2025,1340],[2026,1297]],[[2021,132],[2022,125],[2023,137],[2024,128],[2025,132],[2026,127]]],[[[2021,1.3],[2022,2],[2023,2.7],[2024,2],[2025,2.6],[2026,2.7]],[[2021,7.5],[2022,7.1],[2023,7.6],[2024,6.2],[2025,5.5],[2026,6.9]],[[2021,5.3],[2022,4.5],[2023,4.6],[2024,3.5],[2025,3.9],[2026,5.7]],[[2021,3.5],[2022,7.2],[2023,5.4],[2024,6.4],[2025,2],[2026,7.4]],[[2021,3.5],[2022,4.3],[2023,4.3],[2024,3.9],[2025,5.6],[2026,5.7]],[[2021,3.8],[2022,4],[2023,3.4],[2024,3.8],[2025,5],[2026,4.5]],[[2021,3.9],[2022,4.5],[2023,5.3],[2024,5.5],[2025,5.4],[2026,4.3]],[[2021,5.2],[2022,2.1],[2023,2.6],[2024,1.3],[2025,3.5],[2026,1.9]],[[2021,3.2],[2022,3.7],[2023,5.3],[2024,5.1],[2025,5.6],[2026,4.4]],[[2021,2.7],[2022,3.3],[2023,2.8],[2024,2.2],[2025,4.1],[2026,3]],[[2021,3.8],[2022,4.2],[2023,3.9],[2024,4],[2025,3.9],[2026,5]],[[2021,2],[2022,4.9],[2023,4],[2024,2.3],[2025,2],[2026,3.5]],[[2021,4.6],[2022,3.1],[2023,1.5],[2024,7],[2025,8.7],[2026,4.4]],[[2021,2.6],[2022,4.1],[2023,2.6],[2024,3.5],[2025,3.5],[2026,2.1]],[[2021,2.8],[2022,3.2],[2023,1],[2024,1.3],[2025,2.7],[2026,2.4]],[[2021,3.8],[2022,3.5],[2023,3.6],[2024,3.4],[2025,3.4],[2026,3.3]],[[2021,4.5],[2022,4.8],[2023,1.5],[2024,4.7],[2025,6.1],[2026,4.7]]],[15.4,15.2,18.6,17.6,17.7,18.7,25.1,23.5,33.5,10.5,19.9,16.9,29,14.1,20.6,20.8,36.5],[-1.3,-7.5,-5.3,-17.4,0.8,-9.1,-3.9,-10.7,-3.2,-10.3,-4.3,-17.4,4.6,-2.6,-9.1,-9.6,-3.8],[107.7,-8,7.5,111.4,62.9,18.4,10.3,-63.5,37.5,11.1,31.6,75,-4.3,-19.2,-14.3,-13.2,4.4],[null,null,null,null,[{"name":"Ikaalisten lukio","score":54},{"name":"Pirkanmaan aikuislukio","score":52.7}],null,null,null,null,null,[{"name":"Parkanon lukio","score":59.4}],null,null,null,null,null,null],[[[2020,380.9],[2021,97.5],[2022,77.4],[2023,100.8],[2024,108.9],[2025,92.3]],[[2020,380.9],[2021,97.5],[2022,77.4],[2023,100.8],[2024,108.9],[2025,92.3]],[[2020,133.3],[2021,68.1],[2022,70.3],[2023,88.5],[2024,73.1],[2025,93.3]],[[2020,380.9],[2021,97.5],[2022,77.4],[2023,100.8],[2024,108.9],[2025,92.3]],[[2020,380.9],[2021,97.5],[2022,77.4],[2023,100.8],[2024,108.9],[2025,92.3]],[[2020,380.9],[2021,97.5],[2022,77.4],[2023,100.8],[2024,108.9],[2025,92.3]],[[2020,380.9],[2021,97.5],[2022,77.4],[2023,100.8],[2024,108.9],[2025,92.3]],[[2020,380.9],[2021,97.5],[2022,77.4],[2023,100.8],[2024,108.9],[2025,92.3]],[[2020,380.9],[2021,97.5],[2022,77.4],[2023,100.8],[2024,108.9],[2025,92.3]],[[2020,133.3],[2021,68.1],[2022,70.3],[2023,88.5],[2024,73.1],[2025,93.3]],[[2020,133.3],[2021,68.1],[2022,70.3],[2023,88.5],[2024,73.1],[2025,93.3]],[[2020,133.3],[2021,68.1],[2022,70.3],[2023,88.5],[2024,73.1],[2025,93.3]],[[2020,133.3],[2021,68.1],[2022,70.3],[2023,88.5],[2024,73.1],[2025,93.3]],[[2020,133.3],[2021,68.1],[2022,70.3],[2023,88.5],[2024,73.1],[2025,93.3]],[[2020,39.6],[2021,20.5],[2022,31.1],[2023,30.4],[2024,30.6],[2025,25.8]],[[2020,39.6],[2021,20.5],[2022,31.1],[2023,30.4],[2024,30.6],[2025,25.8]],[[2020,39.6],[2021,20.5],[2022,31.1],[2023,30.4],[2024,30.6],[2025,25.8]]],[-75.8,-75.8,-30,-75.8,-75.8,-75.8,-75.8,-75.8,-75.8,-30,-30,-30,-30,-30,-34.8,-34.8,-34.8],[102.3,102.3,99.6,102.3,102.3,102.3,102.3,102.3,102.3,99.6,99.6,99.6,99.6,99.6,98,98,98],[73,null,null,null,85,85,56,null,null,null,113,109,null,null,null,103,null],["Ikaalinen","Ikaalinen","Parkano","Ikaalinen","Ikaalinen","Ikaalinen","Ikaalinen","Ikaalinen","Ikaalinen","Parkano","Parkano","Parkano","Parkano","Parkano","Kihniö","Kihniö","Kihniö"],[23.27698,23.15369,22.93544,23.40611,23.02537,22.92704,22.99278,23.07167,22.83499,22.66936,23.05853,22.89818,23.31438,22.99836,23.15655,23.20471,23.29389],[61.78631,61.81761,61.97969,61.85608,61.78257,61.75103,61.88677,61.84985,61.89925,61.97568,61.98532,62.22346,62.02127,61.95259,62.13984,62.20246,62.14806],[0,0,null,null,0,0,0,0,0,null,null,null,null,null,null,null,null],[-3.5,-3.5,-11.9,-3.5,-3.5,-3.5,-3.5,-3.5,-3.5,-11.9,-11.9,-11.9,-11.9,-11.9,-18.3,-18.3,-18.3],[8.2,8.2,7.3,8.2,8.2,8.2,8.2,8.2,8.2,7.3,7.3,7.3,7.3,7.3,1.2,1.2,1.2],[1,null,null,1,3,1,1,null,null,1,2,1,null,1,null,1,null],[61.2,61.2,66.1,61.2,61.2,61.2,61.2,61.2,61.2,66.1,66.1,66.1,66.1,66.1,70.4,70.4,70.4],[13.7,13.7,7.1,13.7,13.7,13.7,13.7,13.7,13.7,7.1,7.1,7.1,7.1,7.1,3.8,3.8,3.8],[19.8,19.8,12.8,19.8,19.8,19.8,19.8,19.8,19.8,12.8,12.8,12.8,12.8,12.8,8.8,8.8,8.8],[25.1,25.1,26.6,25.1,25.1,25.1,25.1,25.1,25.1,26.6,26.6,26.6,26.6,26.6,51,51,51],[21.3,21.3,9.8,21.3,21.3,21.3,21.3,21.3,21.3,9.8,9.8,9.8,9.8,9.8,12.5,12.5,12.5],[2,2,0.8,2,2,2,2,2,2,0.8,0.8,0.8,0.8,0.8,0.7,0.7,0.7],[3.6,3.6,2,3.6,3.6,3.6,3.6,3.6,3.6,2,2,2,2,2,1.7,1.7,1.7],[0.1,0.1,0,0.1,0.1,0.1,0.1,0.1,0.1,0,0,0,0,0,null,null,null],[4.9,4.9,3.6,4.9,4.9,4.9,4.9,4.9,4.9,3.6,3.6,3.6,3.6,3.6,2.1,2.1,2.1],["[[2020, 1.0], [2021, 1.2], [2022, 1.3], [2023, 2.4], [2024, 2.4], [2025, 2.5]]","[[2020, 1.2], [2021, 1.4], [2022, 1.6], [2023, 2.8], [2024, 2.9], [2025, 2.9]]","[[2020, 0.4], [2021, 0.4], [2022, 0.5], [2023, 0.6], [2024, 0.7], [2025, 0.7]]","[[2020, 2.7], [2021, 3.2], [2022, 3.5], [2023, 6.3], [2024, 6.5], [2025, 6.6]]","[[2020, 2.3], [2021, 2.8], [2022, 3.0], [2023, 5.4], [2024, 5.5], [2025, 5.6]]","[[2020, 1.1], [2021, 1.3], [2022, 1.4], [2023, 2.6], [2024, 2.6], [2025, 2.7]]","[[2020, 1.8], [2021, 2.2], [2022, 2.3], [2023, 4.2], [2024, 4.3], [2025, 4.4]]","[[2020, 1.3], [2021, 1.6], [2022, 1.7], [2023, 3.1], [2024, 3.1], [2025, 3.2]]","[[2020, 2.1], [2021, 2.5], [2022, 2.7], [2023, 4.9], [2024, 5.0], [2025, 5.1]]","[[2020, 1.1], [2021, 1.2], [2022, 1.3], [2023, 1.7], [2024, 1.9], [2025, 2.0]]","[[2020, 2.3], [2021, 2.5], [2022, 2.8], [2023, 3.4], [2024, 3.9], [2025, 4.1]]","[[2020, 0.0], [2021, 0.0], [2022, 0.0], [2023, 0.0], [2024, 0.0], [2025, 0.0]]","[[2020, 0.0], [2021, 0.0], [2022, 0.0], [2023, 0.0], [2024, 0.0], [2025, 0.0]]","[[2020, 0.0], [2021, 0.0], [2022, 0.0], [2023, 0.0], [2024, 0.0], [2025, 0.0]]","[[2020, 0.3], [2021, 0.3], [2022, 0.3], [2023, 0.3], [2024, 0.4], [2025, 0.4]]","[[2020, 1.8], [2021, 1.8], [2022, 1.9], [2023, 1.9], [2024, 2.4], [2025, 2.4]]","[[2020, 1.6], [2021, 1.6], [2022, 1.7], [2023, 1.7], [2024, 2.1], [2025, 2.1]]"],[2.5,2.9,0.7,6.6,5.6,2.7,4.4,3.2,5.1,2,4.1,0,0,0,0.4,2.4,2.1],[24,24.8,22.7,28.3,21.8,21.3,20.9,18.1,27.3,24.1,20.9,26.4,34.5,15.1,27.5,23.9,33.3],[60.2,14.1,30.5,59.3,97.2,67.2,22.5,95.3,37.3,40.6,113.1,38.8,140,32.5,79.5,87.4,9.1],[5.4,5.4,5.1,5.4,5.4,5.4,5.4,5.4,5.4,5.1,5.1,5.1,5.1,5.1,null,null,null],[25.7,25.7,44.1,25.7,25.7,25.7,25.7,25.7,25.7,44.1,44.1,44.1,44.1,44.1,null,null,null],[0,0,0,0,4,0,0,0,0,0,8,0,0,0,0,1,0],[0,0,0,0,4,0,0,0,0,0,2,0,0,0,0,2,0],[1,0,0,0,5,1,0,1,0,0,3,1,0,0,0,2,0],[0,0,0,0,1,0,0,0,0,0,0,0,0,0,0,0,0],[0,0,0,0,8,2,0,0,0,0,13,0,0,0,0,2,0],[null,null,null,null,[[2020,967],[2021,977],[2022,1085],[2023,682],[2024,950],[2025,776]],null,null,null,null,null,[[2020,875],[2021,919],[2022,1026],[2023,1050],[2024,898],[2025,963]],null,null,null,null,null,null]]}}