{"type":"Topology","objects":{"neighborhoods":{"type":"GeometryCollection","geometries":[{"type":"MultiPolygon","arcs":[[[0]]],"properties":{"id":677,"postinumeroalue":"22100","nimi":"Maarianhamina","namn":"Mariehamn","euref_x":108230,"euref_y":6682953,"pinta_ala":10455231,"vuosi":2026,"kunta":"478","he_vakiy":11891,"he_naiset":6244,"he_miehet":5647,"he_kika":46,"he_0_2":258,"he_3_6":373,"he_7_12":764,"he_13_15":385,"he_16_17":249,"he_18_19":268,"he_20_24":559,"he_25_29":634,"he_30_34":700,"he_35_39":781,"he_40_44":783,"he_45_49":732,"he_50_54":752,"he_55_59":792,"he_60_64":690,"he_65_69":722,"he_70_74":800,"he_75_79":756,"he_80_84":483,"he_85_":410,"ko_ika18y":9862,"ko_perus":2480,"ko_koul":7382,"ko_yliop":591,"ko_ammat":3117,"ko_al_kork":2457,"ko_yl_kork":1217,"hr_tuy":9862,"hr_ktu":36069,"hr_mtu":29938,"hr_pi_tul":1610,"hr_ke_tul":5556,"hr_hy_tul":2696,"hr_ovy":355710967,"te_taly":6311,"te_takk":1.9,"te_as_valj":46,"te_yks":3191,"te_nuor":727,"te_eil_np":159,"te_laps":1185,"te_plap":231,"te_aklap":485,"te_klap":579,"te_teini":480,"te_yhlap":289,"te_aik":2821,"te_elak":2335,"te_omis_as":3558,"te_vuok_as":2602,"te_muu_as":151,"tr_kuty":6311,"tr_ktu":56060,"tr_mtu":40290,"tr_pi_tul":1136,"tr_ke_tul":3659,"tr_hy_tul":1516,"tr_ovy":353792591,"ra_ke":111,"ra_raky":3431,"ra_muut":724,"ra_asrak":2707,"ra_asunn":7600,"ra_as_kpa":82,"ra_pt_as":2893,"ra_kt_as":4519,"ra_muu_as":188,"tp_tyopy":9275,"tp_alku_a":5,"tp_jalo_bf":849,"tp_palv_gu":8421,"tp_a_maat":5,"tp_b_kaiv":0,"tp_c_teol":404,"tp_d_ener":55,"tp_e_vesi":22,"tp_f_rake":368,"tp_g_kaup":549,"tp_h_kulj":2046,"tp_i_majo":396,"tp_j_info":532,"tp_k_raho":582,"tp_l_kiin":123,"tp_m_erik":311,"tp_n_hall":260,"tp_o_julk":703,"tp_p_koul":566,"tp_q_terv":1926,"tp_r_taid":163,"tp_s_muup":263,"tp_t_koti":0,"tp_u_kans":1,"tp_x_tunt":0,"pt_vakiy":11891,"pt_tyoll":5424,"pt_tyott":391,"pt_0_14":1674,"pt_opisk":696,"pt_elakel":3203,"pt_muut":503,"city":"mariehamns_stad","pno":"22100","unemployment_rate":3.3,"higher_education_rate":37.3,"pensioner_share":26.9,"ownership_rate":56.4,"rental_rate":41.2,"population_density":1137,"child_ratio":5.3,"student_share":5.9,"detached_house_share":38.1,"youth_ratio_pct":12.3,"gender_ratio":1.11,"single_parent_hh_pct":2.5,"families_with_children_pct":18.8,"tech_sector_pct":5.7,"healthcare_workers_pct":20.8,"employment_rate":45.6,"elderly_ratio_pct":26.7,"avg_household_size":1.88,"manufacturing_jobs_pct":9.2,"public_sector_jobs_pct":7.6,"service_sector_jobs_pct":90.8,"new_construction_pct":45.1,"foreign_language_pct":11.9,"crime_index":108.8,"property_price_sqm":null,"transit_stop_density":null,"air_quality_index":null,"green_space_pct":35.1,"daycare_density":0.4,"school_density":0.8,"healthcare_density":0.8,"restaurant_density":5.1,"grocery_density":0.5,"cycling_density":55.8,"single_person_hh_pct":50.6,"rental_price_sqm":null,"price_to_rent_ratio":null,"walkability_index":96,"traffic_accident_rate":null,"property_price_change_pct":null,"school_quality_score":null,"light_pollution":null,"noise_pollution":null,"voter_turnout_pct":null,"party_diversity_index":null,"broadband_coverage_pct":null,"ev_charging_density":null,"tree_canopy_pct":null,"transit_reachability_score":null,"sports_facility_density":2.8,"water_proximity_m":null,"avg_construction_year":1984,"income_history":[[2021,26325],[2022,26161],[2023,26529],[2024,27265],[2025,28624],[2026,29938]],"population_history":[[2021,11664],[2022,11696],[2023,11720],[2024,11748],[2025,11808],[2026,11891]],"unemployment_history":[[2021,2.3],[2022,2.5],[2023,3.5],[2024,2.8],[2025,2.9],[2026,3.3]],"income_change_pct":13.7,"population_change_pct":1.9,"unemployment_change_pct":43.5}}]}},"arcs":[[[19.96198359252986,60.1290255785317],[19.95850855241527,60.118412600615926],[19.957646108184235,60.11630430817209],[19.95761798769882,60.116256350814325],[19.956956449838348,60.115128131825706],[19.955723585559916,60.11414111244776],[19.955539520416377,60.11411647937781],[19.955059739852892,60.11404324957806],[19.954583476748248,60.113961711654255],[19.954112050241324,60.11387145125593],[19.95362717299856,60.113767728863074],[19.953147360837796,60.11365629306353],[19.952197006670243,60.11341892216624],[19.950780694458132,60.11304612839645],[19.94842602083039,60.11241552386834],[19.947499308759674,60.11216042904274],[19.94704702759652,60.112030566399575],[19.946607650368556,60.111897865066645],[19.946187383344405,60.111760864692364],[19.94579473345113,60.11161755848746],[19.945441183624318,60.11146524193092],[19.94514203327372,60.11130030721947],[19.94491739234901,60.11111801167636],[19.944785698313375,60.11091967674463],[19.944724896982525,60.11070464160117],[19.944715513491108,60.11047729223825],[19.944742349439036,60.11024097267336],[19.944793512578237,60.10999818091086],[19.945006781993712,60.10924675969281],[19.945134860171535,60.10873156557554],[19.945227886294855,60.10820865955144],[19.945297373849925,60.10768427833659],[19.945376753056678,60.106897599606285],[19.945441020164782,60.10611187106924],[19.94553381063776,60.10480422416521],[19.945684256574083,60.10245262758386],[19.94572567751933,60.10193103153478],[19.945783882593094,60.10141118815022],[19.945824673254823,60.10115249284629],[19.94587774050393,60.10089509149647],[19.94594787547655,60.100639494908684],[19.946041358198954,60.100386374751785],[19.94616311213115,60.1001365571569],[19.94630814543406,60.09988920143032],[19.946470180662562,60.09964362877364],[19.94682736356226,60.099155922293946],[19.947405709520524,60.098428947991316],[19.948007297117872,60.097706151549644],[19.948421894828847,60.09722912720844],[19.9486365037701,60.09699356106245],[19.948858802318394,60.09676112223072],[19.94909190838113,60.09653307638352],[19.949339995026172,60.09631110440608],[19.949608530151593,60.09609741346566],[19.949904586968096,60.09589485456694],[19.950211612240288,60.09571710737268],[19.95054027296705,60.095548131611025],[19.950687049038088,60.09547817428718],[19.95156762583584,60.09505845917299],[19.951895920692007,60.09488991882479],[19.952202106181176,60.09471284025346],[19.95242418498804,60.0945636014669],[19.952626858212366,60.09440737033764],[19.952810751953404,60.09424492227711],[19.953013191881723,60.09403653992793],[19.95319287987073,60.093821627184845],[19.953354503644494,60.09360192403349],[19.953501461569026,60.09337882020849],[19.953636052765077,60.09315343658587],[19.95387292218968,60.09269940503638],[19.95389466456673,60.092651021669695],[19.95418326780862,60.092008747589254],[19.95432784808533,60.09177069235372],[19.95450089271185,60.09153553466128],[19.95469572780841,60.09130266674993],[19.954907266787547,60.09107166224983],[19.955131789632503,60.09084226166823],[19.95536675156345,60.09061436395029],[19.955862873605685,60.09016347455461],[19.956123749940772,60.089941114781155],[19.95639445826157,60.08972156281426],[19.95667710173846,60.08950568103027],[19.95698491700559,60.089286238249834],[19.957304634070134,60.08907062681372],[19.957632968719953,60.08885780207309],[19.958306180985755,60.08843753219891],[19.96001937753665,60.08739751448388],[19.960034199515686,60.087388259625186],[19.96069032394716,60.0869785366907],[19.96101485243234,60.08676653181959],[19.961327267315305,60.08655175512078],[19.961622312637974,60.08633302705388],[19.961892935451466,60.08610877190576],[19.96212977501098,60.08587690937008],[19.962315792232687,60.08564868982985],[19.96247068929938,60.08541354458676],[19.96260220759173,60.085173283714546],[19.962716064475376,60.0849293016995],[19.962816268602122,60.084682655603125],[19.962905361307214,60.08443414287294],[19.96305398986508,60.08393372406879],[19.96311240818497,60.08368257310092],[19.963157443810257,60.08343113408431],[19.963185331488454,60.08317957622485],[19.963190743434613,60.08292802756775],[19.96316841925971,60.082669773095716],[19.96312304907989,60.082411643313286],[19.963060916837726,60.08215364056565],[19.96298677324574,60.08189575646016],[19.962815679527363,60.08138030029681],[19.96262815880898,60.08086518152998],[19.961946674362267,60.07906374812544],[19.96167558568564,60.07829198113663],[19.961524293941604,60.07777742934422],[19.96151882021713,60.077753409517726],[19.96146565581893,60.07752011224116],[19.961424306338056,60.07726274784643],[19.961406494439295,60.07700531609151],[19.961417902247817,60.076741017285606],[19.961453888058767,60.07647664730943],[19.961507729294105,60.07621222707692],[19.96164995267213,60.07568328933629],[19.961906567774,60.07488977182899],[19.962913224105655,60.071979477242046],[19.963161929067226,60.07118436857616],[19.963296651626646,60.07065289287377],[19.963346404738825,60.07038641105929],[19.963347968353805,60.0703742020646],[19.96337911970704,60.07013108290843],[19.963399871492964,60.06987525760419],[19.963411834478794,60.06961906158872],[19.963418198436948,60.069105991158295],[19.96340099322146,60.068336351074194],[19.963373061590527,60.06782512278652],[19.963368897914872,60.06778409434049],[19.96332162581758,60.067318215355584],[19.96328069919124,60.067067730969015],[19.96322413742323,60.066820326042425],[19.96314603745445,60.06657716042547],[19.96303864964559,60.06633974858257],[19.962891964605905,60.06611003662628],[19.962712636222896,60.06590343902923],[19.962502773114025,60.065702488495205],[19.961816498729206,60.06510510798157],[19.961608016348215,60.064898613180745],[19.961407679890424,60.064659685004656],[19.961236026398776,60.0644125667719],[19.96108578862613,60.06415928823711],[19.960951153326462,60.063901506198796],[19.960827422795763,60.06364061981336],[19.960622951627975,60.063174609693846],[19.96036763772926,60.062592702101604],[19.960243386511806,60.06233810456288],[19.960106324939424,60.0620916664939],[19.95994980925976,60.0618576230032],[19.959765163940034,60.06164170756812],[19.959541033061413,60.061451621162234],[19.95926261133355,60.06129760849309],[19.958939416402846,60.061194029551125],[19.958569048551176,60.06112842423279],[19.9581663065191,60.06109767402039],[19.95774346992838,60.06110149028956],[19.957323402760007,60.061138309560945],[19.956897635559784,60.06120133487542],[19.95646879008572,60.0612840193962],[19.956422488381005,60.06129452509794],[19.956039035259334,60.06138152807778],[19.955610310235507,60.061490444945626],[19.9551845351461,60.06160854641993],[19.954763792199085,60.061734628939185],[19.95435051717654,60.061868397534106],[19.953947697890552,60.06201040615407],[19.95355908799868,60.062162035773724],[19.953163097707815,60.062335871608404],[19.952783574865027,60.06251955768405],[19.952416793584153,60.06271037080363],[19.95206032780149,60.062906363100744],[19.95171298077663,60.06310621136312],[19.951374777511912,60.063309109382644],[19.951047043134587,60.063514688343155],[19.950732561511355,60.06372296674377],[19.95043584771386,60.063934324447466],[19.9501635252983,60.064149509385445],[19.949924819676315,60.06436964957652],[19.9497321920997,60.0645962906995],[19.949603576619666,60.064815632127875],[19.949520524739576,60.06503942638239],[19.949477130535055,60.06526487836643],[19.9494707418894,60.065489256392986],[19.949501859026565,60.06570971820461],[19.949574157902557,60.06592312654277],[19.949694638318576,60.06612586327233],[19.949873869492638,60.06631362617523],[19.95011331462897,60.066479510519024],[19.950402206265107,60.066631540877104],[19.950723019386697,60.0667743369069],[19.951399104173525,60.06704818925055],[19.951725217086,60.067186632487534],[19.952023002413878,60.067331053507765],[19.95227499779204,60.06748552444401],[19.952437750837287,60.06762496303861],[19.952550931359315,60.06777238741954],[19.95260910491331,60.06792583832049],[19.952599070900927,60.06812666999285],[19.952513088333124,60.06833262867888],[19.95237085449488,60.06854228490087],[19.952187461457893,60.06875453581339],[19.95197428356845,60.068968511253864],[19.95173972499039,60.06918351012961],[19.951489819853627,60.06939892619449],[19.950958966986725,60.069828720228195],[19.950397648286046,60.070252746281135],[19.950105276046155,60.0704604045416],[19.949802769649942,60.070663494860945],[19.949486949114007,60.07086030279186],[19.94915334258966,60.071048620104975],[19.94878046805015,60.07123512864849],[19.94838853023578,60.07141241435194],[19.947982910979064,60.07158296652668],[19.94714569997929,60.07191093737454],[19.946289840983727,60.07222904190143],[19.944993000311328,60.0726985352649],[19.94109134036506,60.07409736984235],[19.939800629448715,60.07456815108168],[19.93895690871499,60.07488974839754],[19.938545736402844,60.07505539249894],[19.938145996938903,60.07522617013301],[19.937762370286976,60.075404134346726],[19.93740106463099,60.07559199981772],[19.93708206016696,60.07578254528023],[19.936784219210242,60.07598233721612],[19.936502688666778,60.07618909625737],[19.936234085912105,60.07640113748539],[19.935976320571903,60.07661726804449],[19.93572849380704,60.076836718655386],[19.93549085294746,60.077059086208045],[19.935264802551433,60.07728429921156],[19.93505300138282,60.07751260317697],[19.93485949913308,60.07774456255403],[19.934698344102298,60.077965575578844],[19.934555023142785,60.07818970903553],[19.934427711013743,60.0784163331874],[19.93431583880326,60.07864502453261],[19.93422006703496,60.07887554002883],[19.93414229546336,60.07910779689039],[19.934077704714547,60.079372659221995],[19.93403277857659,60.07963914317391],[19.93398041674968,60.08017504742227],[19.93390811453305,60.08178832363505],[19.933857315393393,60.08232392981359],[19.9338153982543,60.08259056555603],[19.933756697815383,60.08285603995999],[19.933678242318184,60.083117935551485],[19.933583234891714,60.08337869752121],[19.933476148985346,60.08363863176978],[19.93323850469913,60.08415689681599],[19.932852666297276,60.08493232487547],[19.932367920413803,60.085877828877905],[19.93099871071506,60.08854817024807],[19.930578723453014,60.08931668382018],[19.930397958931007,60.08960889496191],[19.930266947989846,60.08982067545061],[19.930092815747553,60.09006789214049],[19.92990033085931,60.09031030405421],[19.92968309675842,60.09054623629267],[19.929456915953207,60.090756938568866],[19.92846553020529,60.09157681404824],[19.92824085087786,60.09178770359129],[19.928026899565655,60.09202290973026],[19.927838175803707,60.09226462926054],[19.92777313649519,60.09235895603029],[19.92766817210843,60.09251118500507],[19.927511863659294,60.092761280448734],[19.927365432971023,60.09301392907849],[19.927091450598823,60.09352411976492],[19.92683114958007,60.09403787007026],[19.925562318745488,60.09661602314219],[19.924146353650528,60.09944938238311],[19.92378674070489,60.10022299553195],[19.923680157085464,60.10048139991271],[19.923585288834474,60.100740276948585],[19.9235067781808,60.10099981661181],[19.92345074620919,60.101260266707904],[19.923422154438633,60.10152167751867],[19.923416033370533,60.101783999240276],[19.92342628786682,60.10204698456382],[19.923448297017373,60.10231044736891],[19.923514667997978,60.10283827925933],[19.923597182033006,60.10336676752409],[19.924100776166867,60.10627565885945],[19.924229641133675,60.107068768558186],[19.924301756639995,60.107596984668774],[19.92432926924489,60.10786075171625],[19.924347741710314,60.10812414758484],[19.924352868486235,60.108356149524],[19.924353550519772,60.10838701819348],[19.924341881292126,60.10864915450369],[19.924306418771394,60.108910281270504],[19.924243135178298,60.10916678208062],[19.92415693258838,60.10942231669468],[19.924054321246135,60.10967717352826],[19.923940537284718,60.109931579766034],[19.92357304289718,60.110693721944216],[19.923343550921498,60.11120210444909],[19.923246477986954,60.11145666735188],[19.923169205679113,60.11171159456194],[19.92311982355603,60.11196696736843],[19.92310571912967,60.11222511886442],[19.923125474464232,60.112483047838886],[19.923176795470333,60.11273993151995],[19.923260140408967,60.11299482907354],[19.92337871935005,60.11324661756532],[19.923537655418887,60.11349798240819],[19.923726765917635,60.113746066155144],[19.923936104545767,60.113991921715886],[19.924606534474098,60.11472361889851],[19.924819770349828,60.11496734552883],[19.925014198845552,60.11521163453264],[19.925179111899396,60.11545676814374],[19.92530093755931,60.11570296588106],[19.925362226028497,60.11595037064117],[19.92534892144705,60.11619747144034],[19.925273731353144,60.11644477319071],[19.92515165295315,60.11669097561347],[19.924993314970123,60.11693435900838],[19.924805607170477,60.11717258642661],[19.924592161260655,60.11740245818005],[19.92435363337648,60.11761958988115],[19.92408782585803,60.11781801513909],[19.92378965293692,60.1179896915257],[19.92345096676437,60.11812390077406],[19.923069841927006,60.1182100361],[19.922656949083816,60.11825189100997],[19.922229117132837,60.118251933205286],[19.921801821328643,60.11820886666143],[19.921414664289365,60.11812788488951],[19.921380787350472,60.11818347074332],[19.92133646535012,60.11831869501958],[19.920610411743244,60.11975983532777],[19.920687208146216,60.120159006103705],[19.920557349629625,60.12059498759664],[19.920319526579252,60.12164923441134],[19.920198341443438,60.121947291840065],[19.920138086381193,60.12209548911713],[19.920068051157152,60.122168504602826],[19.920029516449713,60.1222026176213],[19.919972073602302,60.122432893776434],[19.91995879970996,60.12255099152541],[19.919802910883245,60.12292469761491],[19.919729013450972,60.12318694268288],[19.91974350894712,60.12337379126372],[19.919761479447523,60.123605445644586],[19.919771016541624,60.12372837483424],[19.919919586410252,60.123879163056564],[19.92497989425559,60.12449059847695],[19.933980994437782,60.124945510859035],[19.934251882887253,60.12735540279393],[19.941729481466094,60.12875674723002],[19.94228971972792,60.130410734717984],[19.95080855027271,60.13091037343326],[19.96198359252986,60.1290255785317]]],"bbox":[19.919729013450972,60.06109767402039,19.963418198436948,60.13091037343326]}
