{"type":"Topology","objects":{"neighborhoods":{"type":"GeometryCollection","geometries":[{"type":"MultiPolygon","arcs":[[[0,1,2,3]]],"properties":{"i":0}},{"type":"MultiPolygon","arcs":[[[4,5,-4,6,7]]],"properties":{"i":1}},{"type":"MultiPolygon","arcs":[[[-3,8,9,-7]]],"properties":{"i":2}},{"type":"MultiPolygon","arcs":[[[-8,-10,10,11]]],"properties":{"i":3}},{"type":"MultiPolygon","arcs":[[[12,13,14,15]]],"properties":{"i":4}},{"type":"MultiPolygon","arcs":[[[-15,16,17,18]]],"properties":{"i":5}},{"type":"MultiPolygon","arcs":[[[19,20,21,-5,-12,22]]],"properties":{"i":6}},{"type":"MultiPolygon","arcs":[[[23,-21,24]]],"properties":{"i":7}},{"type":"MultiPolygon","arcs":[[[25,26,27,-23,-11,-9,-2,28,-16,-19,29]]],"properties":{"i":8}},{"type":"MultiPolygon","arcs":[[[30,31,32,-26]]],"properties":{"i":9}},{"type":"MultiPolygon","arcs":[[[-32,33]]],"properties":{"i":10}},{"type":"MultiPolygon","arcs":[[[-25,-20,-28,34]]],"properties":{"i":11}},{"type":"MultiPolygon","arcs":[[[35,36]]],"properties":{"i":12}},{"type":"MultiPolygon","arcs":[[[37,38,39,40,41,42,43,-36,44,45,46,47,48,49,50]]],"properties":{"i":13}},{"type":"MultiPolygon","arcs":[[[51,-42]]],"properties":{"i":14}},{"type":"MultiPolygon","arcs":[[[-44,52,53,54,-45,-37]]],"properties":{"i":15}},{"type":"MultiPolygon","arcs":[[[55,56,57,-38]]],"properties":{"i":16}},{"type":"MultiPolygon","arcs":[[[58,59,60,61,-53,-43,-52,-41]]],"properties":{"i":17}},{"type":"MultiPolygon","arcs":[[[62,-54,-62,63]]],"properties":{"i":18}},{"type":"MultiPolygon","arcs":[[[-55,-63,64,65,66,67,-46]]],"properties":{"i":19}},{"type":"MultiPolygon","arcs":[[[-51,68,-56]]],"properties":{"i":20}},{"type":"MultiPolygon","arcs":[[[69,70,71,-47,-68]]],"properties":{"i":21}},{"type":"MultiPolygon","arcs":[[[72,-60,73,74]]],"properties":{"i":22}},{"type":"MultiPolygon","arcs":[[[75,-71,76,77,78]]],"properties":{"i":23}},{"type":"MultiPolygon","arcs":[[[-72,-76,79,-48]]],"properties":{"i":24}},{"type":"MultiPolygon","arcs":[[[-67,80,81,-77,-70]]],"properties":{"i":25}},{"type":"MultiPolygon","arcs":[[[-78,-82,82]]],"properties":{"i":26}},{"type":"MultiPolygon","arcs":[[[-17,-14,83,84,-75,85,86]]],"properties":{"i":27}},{"type":"MultiPolygon","arcs":[[[-65,-64,-61,-73,-85,87]]],"properties":{"i":28}},{"type":"MultiPolygon","arcs":[[[-86,-74,-59,-40,88,89]]],"properties":{"i":29}},{"type":"MultiPolygon","arcs":[[[90,-57,-69,-50,91]]],"properties":{"i":30}},{"type":"MultiPolygon","arcs":[[[92,93,-89,-39,-58,-91,94]]],"properties":{"i":31}},{"type":"MultiPolygon","arcs":[[[-93,95]]],"properties":{"i":32}}]}},"arcs":[[[60865,16777],[-78,391],[-63,323],[-579,502],[-837,726],[-11,30],[-273,1514],[-299,269],[-725,356],[-1100,670],[-661,165],[-301,1426],[-5,12],[-169,933],[-394,275],[-704,575],[-2213,2554],[-288,325],[-259,292],[-230,259],[-374,709],[-290,888],[-625,1905],[-231,558],[405,2464],[4991,-883]],[[55552,34015],[3018,-894],[2746,-1991],[459,-1246]],[[61775,29884],[-728,-886],[-400,-585],[-114,-254],[223,-155],[766,-361],[358,-1257],[-270,-1137],[1177,-385],[1720,-580]],[[64507,24284],[-745,-438],[-4,-3],[-123,-165],[-225,-370],[24,-435],[412,-599],[13,-147],[-22,-33],[-110,-83],[-24,-93],[-165,-266],[584,-496],[386,-264],[15,-354],[-2577,-1087],[154,-513],[-62,-990],[-44,-619],[-1014,-496],[-115,-56]],[[72522,18200],[443,-2556],[-770,-1147]],[[72195,14497],[-355,-16],[-265,-12],[-1152,-224],[-959,-190],[-1530,505],[-879,433],[-82,317],[-1166,529],[-52,24],[-23,1],[-2726,88],[-77,210],[-610,-384],[-234,30],[-243,31],[-317,300],[-462,197],[-198,441]],[[64507,24284],[1421,91],[1909,76],[136,19]],[[67973,24470],[870,-880],[1078,-1439],[199,-153],[864,-324],[295,-339],[527,-994],[-190,-1052],[556,-942],[350,-147]],[[61775,29884],[257,-194],[3892,1654],[4,6],[2205,242]],[[68133,31592],[133,-510],[-890,-1007],[45,-1100],[709,-2820],[241,-270],[58,-631],[-456,-784]],[[68133,31592],[-826,570],[177,1422],[976,911],[1557,434],[80,-109],[140,-94],[-130,-598],[-24,-231],[19,-107],[-21,-28],[94,-494],[111,-171],[1789,350],[781,-1463],[-56,-1665],[369,-109],[172,-603],[715,158],[523,777],[741,-227],[1347,-1884],[619,-2361],[-397,-618],[1,-5]],[[76890,25447],[-986,-710],[-49,-414],[-309,-2254],[406,-695],[28,-247],[-30,-229],[-426,-343],[-1635,-556],[-1187,-960],[-180,-839]],[[50303,39674],[-250,306],[-3772,4604],[-61,68],[-1335,2611],[269,888],[462,1522],[34,135],[-32,659],[-9,181],[-43,890],[-39,802]],[[45527,52340],[158,352],[1801,33],[291,-144],[301,-148],[2964,-1722],[2763,-120],[1903,-9]],[[55708,50582],[-26,-25],[-364,-359],[-108,-1180],[27,-45],[719,-742],[499,-746],[509,-493],[1830,-1304]],[[58794,45688],[539,-444],[754,-738],[248,-1692],[-2427,-528],[-2811,-219],[-1064,4],[-67,-46],[-496,-542],[-1621,1324],[-299,25],[-386,-1068],[-438,-1063],[-149,-360],[-274,-667]],[[55708,50582],[3936,966],[287,590]],[[59931,52138],[932,-487],[1318,-831],[221,-688],[4,-14],[73,-228],[12,-177],[1,-25],[1,-14],[55,-839]],[[62548,48835],[-599,-145],[-2063,-1376],[-298,378],[-663,-375],[-131,-1629]],[[79926,23764],[517,14],[460,-330],[150,-495],[188,-434],[1,-13],[64,-1059],[-94,-1375],[857,-239],[1175,-353],[819,-586],[347,-1919],[-199,-1128],[400,-955],[-923,-435]],[[83688,14457],[-1614,-988],[-488,-907],[-204,-242],[-1405,485],[-717,-1172],[-622,442],[-1113,-48],[-1214,-351],[-1591,-2375]],[[74720,9301],[-1622,1062],[-824,2030],[-688,-399],[272,-1752],[-709,341],[-1223,873],[212,1245],[987,818],[293,311],[562,482],[215,185]],[[76890,25447],[235,-719],[6,-5],[-150,-957],[1547,-782],[866,-568],[471,190],[61,1158]],[[89388,12930],[367,-2142],[-832,-1100],[-304,-511],[-160,-270],[-301,-104],[-965,-335],[-15,1],[-1360,56],[-719,-199],[-1650,-756],[-500,-462],[-1107,-1021],[-164,-122],[-1749,-1295],[-212,-1391],[62,-804],[9,-129],[149,-792],[-12,-398],[-1,-40],[190,-495],[-1075,-236],[-15,-3],[-1418,-371],[-318,-7],[-165,-4],[13,289],[18,378],[29,605],[-425,746],[-429,652],[-283,287],[-315,267],[-173,249],[-253,363],[0,20],[11,264],[13,308],[387,656],[-7,298],[-19,765],[-29,1201],[-4,141],[-670,1295],[-267,517]],[[83688,14457],[714,-465],[632,-796],[1061,-448],[1171,418],[2122,-236]],[[82656,44437],[-1492,-555],[-1305,-1493],[591,-2702],[2223,-1339],[1476,-453],[204,-582],[-50,-1277],[1118,-438],[618,351],[352,20],[1097,-79],[510,-178],[685,13]],[[88683,35725],[357,-497],[86,-118],[119,-139],[780,-114],[709,-152],[275,-276],[-158,-797],[1788,-283],[301,-344],[-148,-253],[-168,-47],[-534,-151],[-69,-19],[-8,-176],[-17,-351],[-24,-41],[-390,-652],[-1299,-1129],[-444,-630],[-77,-110]],[[89762,29446],[-7,0],[-2076,-215],[-583,-1389],[-336,-208],[-753,-127],[-1031,339],[-2352,-1883],[-656,-823],[-890,-52],[-722,48],[-430,-1372]],[[55552,34015],[716,476],[156,1255],[-1071,321],[-404,1790],[-1216,926],[-1929,397],[-1501,494]],[[62548,48835],[5426,-1723],[2259,-565],[2292,-99],[1291,1242],[366,499],[473,224],[455,-410],[714,-446],[1115,1325],[1481,-1739],[4236,-2706]],[[82656,44437],[1557,104],[1861,-1940],[2130,-1004]],[[88204,41597],[144,-325],[308,-598],[2489,-638],[839,-687],[-201,-1220],[-274,-768]],[[91509,37361],[-538,-580],[-122,-132],[-466,-287],[-203,-173],[-496,-193],[-612,-240],[-388,-31],[-1,0]],[[88204,41597],[1190,-30],[420,145],[265,839],[125,394],[6,8],[147,627],[271,316],[126,198],[1127,164],[1152,101],[971,570],[434,1302],[1013,-299],[427,-108],[674,-506],[88,-112],[760,-828],[631,-361],[1850,-1326],[99,-436],[6,-199],[-119,-223],[132,-349],[-619,-522],[-73,-284],[556,-748],[-679,-476],[-694,625],[-164,149],[-1205,290],[-68,51],[-905,678],[-646,104],[-14,3],[-1029,166],[-208,-490],[-51,-121],[-48,-112],[198,10],[276,15],[459,24],[-22,-269],[-17,-195],[-140,-361],[82,-486],[35,-213],[23,-132],[-215,-107],[-1178,-586],[-126,-59],[-792,-369],[-1137,-657],[-89,-51]],[[89762,29446],[-9,-21],[-206,-1822],[30,-27],[416,-378],[394,-111],[86,-35],[660,-275],[39,-17],[311,-422],[802,-1091],[536,-385],[516,-371],[108,-1790],[-154,-1239],[-768,-194],[-492,-124],[-1452,-845],[266,-970],[1336,-1069],[1058,130],[64,-70],[90,-97],[-494,-1028],[266,-685],[-1908,-788],[60,-1294],[-28,-258],[-1,-7],[-55,-261],[-34,-158],[-21,-101],[-347,-47],[-882,-121],[-561,-545]],[[27878,78768],[-138,1420],[2305,485],[399,-841],[23,-44],[113,-208],[80,-123],[10,-11],[50,-113],[14,-38],[8,-44],[11,-59],[2,-6],[-44,-90],[-103,-149],[-23,-100],[-161,-173]],[[30424,78674],[-334,-18],[15,-136],[-218,-183],[-220,-83],[-19,25],[-16,11],[0,11],[-8,16],[-56,-10],[-9,17],[57,16],[-1,7],[-14,21],[0,4],[-10,22],[-27,38],[-46,-12],[-36,35],[-102,-31],[94,-49],[44,-66],[75,-139],[-117,-50],[-108,-44],[-272,46],[-776,127],[-442,519]],[[32307,84569],[786,-1006],[1067,-1220],[415,-803],[445,-86],[342,823],[1206,-539],[138,903],[-279,1034],[-118,434],[-153,567],[745,115],[2413,891],[1658,2463],[401,485],[-1010,798],[422,395],[-305,153],[-452,-272],[-878,-291],[-239,246],[307,53],[15,319],[-866,887]],[[38367,90918],[48,1744],[785,539],[2703,-3415],[-399,-4189],[875,-1037],[-84,-402],[646,-557],[1189,-60],[697,-95],[30,-51]],[[44857,83395],[-2193,-3294],[-839,-392],[-1863,-731],[-2649,-1331],[-1035,-511]],[[36278,77136],[-172,-30],[-515,45],[-475,213],[-35,12]],[[35081,77376],[-385,1253],[-133,317],[-831,655],[-290,240],[-730,-176],[-124,-275],[12,-95],[52,-36],[-4,-9],[-23,-16],[-20,-6],[0,-12],[-19,-24],[-50,-4],[-19,-14],[-82,-29],[-2,-127],[20,-52],[25,0],[9,17],[32,12],[14,-9],[7,-19],[19,-30],[10,-14],[0,-1],[9,-19],[6,-18],[13,-23],[-1,-3],[13,-21],[59,-90],[0,-24],[11,-20],[7,-21],[10,-21],[12,-10],[56,30],[46,-28],[4,-5],[0,-1],[-9,-14],[19,-43],[-2,-22],[-14,-12],[12,-31],[-2,-6],[5,-12],[-3,-11],[2,-16],[3,-6],[1,-12],[-2,-5],[1,-19],[-3,-23],[1,-2],[-2,-31],[-15,-12],[-36,-1],[-15,-30],[4,-19],[1,-2],[60,-2],[-2,-34],[-10,-24],[2,-19],[-10,-8],[-7,-19],[-5,-4],[-17,-26],[-15,-21],[-2,-16],[-2,-3],[-13,-7],[-17,-15],[-11,-4],[-13,-11],[-4,-1],[-20,-13],[-1,-1],[-22,-13],[-2,0],[-60,-30],[21,-117],[251,-134],[200,-41],[28,-21],[81,-32],[148,-53],[232,-141],[65,-17],[115,-11],[103,-13],[218,-31],[103,-16],[806,-90]],[[34960,77331],[-789,-540],[-295,-376],[-348,-287],[-401,-311]],[[33127,75817],[-452,177],[-491,88],[-220,231],[-148,193],[-316,811],[-317,-2],[-26,81],[94,59],[-34,37],[-19,18],[-13,9],[-12,17],[-16,16],[-7,19],[-129,4],[-20,16],[-3,7],[2,9],[-35,71],[-126,26],[-54,13],[-30,10],[-7,4],[-68,7],[-3,42],[-154,-3],[49,82],[-75,112],[9,50],[15,40],[-29,40],[-10,34],[-54,30],[-55,51],[-27,33],[-86,169],[-78,77],[235,174],[7,5]],[[27878,78768],[-380,109],[-335,35],[-544,-15]],[[26619,78897],[-44,101],[-194,617],[-460,1108],[-2001,2575],[-788,886],[-564,-328],[-1217,292],[-1348,1015],[-1324,537]],[[18679,85700],[-1115,2134],[-3083,1754],[-1530,142]],[[12951,89730],[-23,28],[-260,1357],[-1375,1763],[-72,25],[-1190,993]],[[10031,93896],[1278,735],[2425,1517],[555,785],[317,352],[1,2],[606,403],[148,-587],[1646,-2026],[533,-353],[698,-626],[618,-555]],[[18856,93543],[-54,-148],[-283,-776],[1725,-1643],[5742,-2966],[1190,-403]],[[27176,87607],[246,-1798],[29,-327],[93,-224],[153,-219],[112,-51],[153,97],[315,-309],[2110,-1283],[1920,1076]],[[35081,77376],[-9,-1],[-112,-44]],[[33127,75817],[-188,-146],[-761,-286],[-319,-211],[-263,-277],[-125,-111],[-6,-11],[-40,-84],[-45,-309],[267,-334],[40,-29],[275,-196],[23,-36],[321,-1966]],[[32306,71821],[-2197,-491]],[[30109,71330],[-2262,1484],[-425,550],[576,694],[-428,2398],[262,32],[-61,210],[-19,67],[61,15],[-44,158],[-578,1153],[-252,544],[-320,262]],[[32307,84569],[477,765],[960,453],[540,560],[115,140],[-228,1280],[-307,350],[-361,449]],[[33503,88566],[3655,2515]],[[37158,91081],[1209,-163]],[[36278,77136],[780,-1278],[575,-904],[111,-34],[1192,-75],[1298,-911],[4,-4],[79,-68],[644,-519],[925,-1181]],[[41886,72162],[174,-989],[754,-4032],[116,-1191]],[[42930,65950],[-3225,477]],[[39705,66427],[-1630,2134],[-327,840],[-544,1132],[-326,348],[-678,504],[-2055,472],[-264,140],[-1575,-176]],[[31911,66006],[-112,227],[-52,111],[-223,187],[-143,419],[-180,528],[-168,160],[-659,1293],[-371,245],[-228,138],[-248,1261],[582,755]],[[39705,66427],[-2221,-52],[-1897,-1460],[-4,-8],[-581,-334],[-500,-53],[-993,113],[-266,296],[-30,71],[-657,727],[-434,146],[-64,21],[-147,112]],[[31911,66006],[-753,-474]],[[31158,65532],[-1573,-158],[-30,87],[-153,387],[-2505,-1233],[-104,48],[-799,288],[-53,-13],[-1015,69],[-687,46],[-76,-35]],[[24163,65018],[-1558,631],[-1119,453],[-111,45],[-112,3],[-118,527],[575,588],[-601,735],[231,122],[13,10],[397,152],[50,464],[3,271],[-501,465],[-40,146],[-28,12],[-232,226],[11,224],[88,410],[234,129],[-137,284],[-833,-220],[-66,108],[-34,46],[-228,88],[-72,20],[-703,-261],[-123,19],[-210,195],[-106,76],[-132,-17],[-263,377],[-139,-63],[-1038,504],[372,407],[128,392],[-225,1160],[-117,83],[-206,100],[-820,877],[339,480]],[[16732,75286],[921,436],[672,596],[238,665],[507,313],[2,65],[1,62],[412,939],[630,604],[1192,301],[265,636],[-1278,658],[15,23],[-27,102],[-349,601],[291,376],[85,46],[386,136],[142,-44],[39,-38],[679,186],[-18,36],[-69,115],[-34,40],[-313,309],[-198,241],[-175,148],[-716,-32],[-1112,295],[-52,128],[-52,186],[-94,533],[-43,1752]],[[27176,87607],[6327,959]],[[16732,75286],[-58,364],[-719,1156],[-280,159],[-2039,-651],[-431,333]],[[13205,76647],[-227,592],[-118,153],[-12,429],[-418,945],[-617,430],[-355,524],[-551,1022],[-437,580],[-278,821],[-547,334]],[[9645,82477],[715,679],[1076,606],[1337,1187],[30,1163],[-150,1232],[298,2386]],[[45263,63144],[-860,1401],[-426,589],[-303,629],[-744,187]],[[41886,72162],[1154,-147],[1668,-855],[1686,-2503],[340,-564],[221,-620],[1502,-449]],[[48457,67024],[-1246,-1315],[-1,-255],[-7,-136],[-12,-103],[-693,-416],[-2,-32],[-261,-1141],[-651,-299],[-321,-183]],[[3262,86439],[1664,-1956],[1606,-232],[813,367],[179,-7],[289,-602],[-47,-283],[243,-469],[-451,-339],[183,-328],[917,-80],[987,-33]],[[13205,76647],[-1486,-1364],[-1236,418],[-247,390],[-617,68],[-281,-307],[-56,-319],[210,-295],[-705,-838],[145,-438],[170,-351],[-279,-96],[-361,-135],[384,-1377],[2250,-1116],[942,-718],[299,-487],[249,-157],[564,-289],[302,-131],[109,-135],[-31,-464],[-43,-567]],[[13487,67939],[41,-499],[-407,-361],[-1085,-261],[-1250,-435],[-775,-343]],[[10011,66040],[-716,-59],[-208,-18],[-202,-16],[-190,-90],[-320,-151],[-277,-130],[-325,358],[-625,686],[-1426,1281],[-84,75],[-308,-138],[-186,492],[-359,952],[-682,1452],[138,442],[100,418],[41,169],[166,424],[120,244],[-134,1390],[-112,504],[-57,258],[-274,557],[-20,39],[-8,51],[-254,1473],[-33,56],[-862,1461],[-54,144],[-926,2509],[-120,373],[-75,231],[-75,233],[-28,86],[-1,4],[-13,53],[-13,51],[-107,435],[-185,753],[-62,410],[-383,744],[-550,707],[-322,904],[578,333],[1166,-21],[477,204],[1041,66]],[[3262,86439],[-223,2050],[-4,39],[374,1130],[-1,937],[-3,1597],[-1,84],[-2,259],[-1,71],[-37,807],[124,34],[888,246],[657,-302],[1879,-908],[840,36],[566,468],[183,1464],[1530,-555]],[[24163,65018],[-2091,-2611],[-794,-911],[-663,239],[-427,836],[-877,715],[-2187,-309]],[[17124,62977],[-1134,2595],[-1059,1545],[-1444,822]],[[17124,62977],[396,-1418],[-143,-838],[-7,-903],[-348,-690],[-447,-697],[-2420,-148],[-670,254],[-411,417],[-110,1045],[-172,469],[-129,348],[-353,179],[-307,362],[-408,768],[-563,1046],[39,932],[-151,223],[-819,1042],[-90,672]],[[45527,52340],[-1240,723],[-910,529],[644,769],[-1093,1440],[-64,835],[-651,483],[-342,753],[-625,1719],[-58,159],[-43,45],[-1126,1713]],[[40019,61508],[463,364],[1601,612],[706,510],[741,-49],[994,-158],[739,357]],[[48457,67024],[2966,907],[2597,-301]],[[54020,67630],[1525,-991],[573,-1010],[219,-941],[286,-974],[1141,-746],[847,-493],[1105,-1057],[159,-334],[611,-839],[675,-498],[228,-168],[-640,-454],[309,-468],[3,-9],[-97,-727],[387,-828],[16,-8],[-4,-440],[-1,-94],[-657,-1780],[-774,-2633]],[[40019,61508],[-966,40],[-1036,-329],[-2210,15],[-706,33],[-676,32],[-788,281],[-2006,713],[-273,163],[-88,128],[-605,646],[-254,1456],[491,482],[256,364]],[[44857,83395],[888,67],[784,180],[1087,288],[1911,-558],[778,-473],[1031,-744],[-1,-21],[805,-1581]],[[52140,80553],[-558,-1729],[-601,-1464],[-182,-241],[-93,-370],[208,-598],[754,-405],[21,-4],[315,180],[1319,-1195],[900,-1239],[2120,-1675],[-314,-421],[-644,-452],[-758,-346],[-1069,819],[-406,-77],[385,-1062],[498,-1230],[-15,-1414]],[[36873,93907],[285,-2826]],[[18856,93543],[788,1771],[568,1274],[705,197],[704,197],[3462,-247],[1378,509],[22,1],[829,68],[1021,-1],[572,424],[154,407],[90,562],[33,204],[31,187],[106,63],[929,-596],[986,-977],[1032,-891],[-106,-620],[745,-122],[22,2],[762,-41],[16,0],[817,-302],[14,-22],[1357,-560],[713,-765],[267,-358]],[[58598,90906],[-304,-3228],[-1165,-556],[-379,286],[-1071,-1363],[95,-782],[-257,-766],[-1426,-199],[-283,-885],[460,-1014],[1107,-482]],[[55375,81917],[-848,-684],[-477,-52],[-46,-492],[-346,-80],[-328,-334],[-383,31],[-807,247]],[[36873,93907],[1649,733],[1167,2095],[637,1246],[7,4],[363,582],[546,80],[1072,261],[755,538],[521,417],[325,136],[581,-150],[981,-29],[1207,-495],[510,-209],[762,-1009],[1624,-889],[2350,417],[2740,-390],[80,-325],[179,-808],[142,-745],[1571,-1542],[1610,-1697],[346,-1222]],[[58598,90906],[1856,-1241],[2369,-1414],[3786,-1029],[1261,-368],[322,-279],[135,-561],[-66,-471],[-1128,-1659],[-500,-1601],[-1981,-2204],[581,-340],[-1368,-404],[-1192,-1081],[-1098,456],[-2679,878],[-910,459],[-766,636],[-87,35],[-1220,959],[-538,240]]],"bbox":[26.643032750539923,61.547119710021576,28.268384275759654,62.509957817746],"transform":{"scale":[0.0000162536777889752,0.000009628477362017848],"translate":[26.643032750539923,61.547119710021576]},"propertiesColumnar":{"format":"columnar/1","keys":["id","postinumeroalue","nimi","namn","euref_x","euref_y","pinta_ala","vuosi","kunta","he_vakiy","he_naiset","he_miehet","he_kika","he_0_2","he_3_6","he_7_12","he_13_15","he_16_17","he_18_19","he_20_24","he_25_29","he_30_34","he_35_39","he_40_44","he_45_49","he_50_54","he_55_59","he_60_64","he_65_69","he_70_74","he_75_79","he_80_84","he_85_","ko_ika18y","ko_perus","ko_koul","ko_yliop","ko_ammat","ko_al_kork","ko_yl_kork","hr_tuy","hr_ktu","hr_mtu","hr_pi_tul","hr_ke_tul","hr_hy_tul","hr_ovy","te_taly","te_takk","te_as_valj","te_yks","te_nuor","te_eil_np","te_laps","te_plap","te_aklap","te_klap","te_teini","te_yhlap","te_aik","te_elak","te_omis_as","te_vuok_as","te_muu_as","tr_kuty","tr_ktu","tr_mtu","tr_pi_tul","tr_ke_tul","tr_hy_tul","tr_ovy","ra_ke","ra_raky","ra_muut","ra_asrak","ra_asunn","ra_as_kpa","ra_pt_as","ra_kt_as","ra_muu_as","tp_tyopy","tp_alku_a","tp_jalo_bf","tp_palv_gu","tp_a_maat","tp_b_kaiv","tp_c_teol","tp_d_ener","tp_e_vesi","tp_f_rake","tp_g_kaup","tp_h_kulj","tp_i_majo","tp_j_info","tp_k_raho","tp_l_kiin","tp_m_erik","tp_n_hall","tp_o_julk","tp_p_koul","tp_q_terv","tp_r_taid","tp_s_muup","tp_t_koti","tp_u_kans","tp_x_tunt","pt_vakiy","pt_tyoll","pt_tyott","pt_0_14","pt_opisk","pt_elakel","pt_muut","city","pno","unemployment_rate","higher_education_rate","pensioner_share","ownership_rate","rental_rate","population_density","child_ratio","student_share","detached_house_share","youth_ratio_pct","gender_ratio","single_parent_hh_pct","families_with_children_pct","tech_sector_pct","healthcare_workers_pct","employment_rate","elderly_ratio_pct","avg_household_size","manufacturing_jobs_pct","public_sector_jobs_pct","service_sector_jobs_pct","new_construction_pct","foreign_language_pct","crime_index","property_price_sqm","transit_stop_density","air_quality_index","daycare_density","school_density","healthcare_density","restaurant_density","grocery_density","cycling_density","single_person_hh_pct","rental_price_sqm","price_to_rent_ratio","walkability_index","traffic_accident_rate","property_price_change_pct","school_quality_score","light_pollution","noise_pollution","voter_turnout_pct","party_diversity_index","broadband_coverage_pct","ev_charging_density","tree_canopy_pct","transit_reachability_score","sports_facility_density","water_proximity_m","avg_construction_year","income_history","population_history","unemployment_history","income_change_pct","population_change_pct","unemployment_change_pct","schools","crime_index_history","crime_index_change_pct","health_index","radon","municipality","lon","lat","flood_risk_pct","population_projection_pct","construction_activity","active_plan_count","political_lean_index","party_vote_kok_pct","party_vote_sdp_pct","party_vote_ps_pct","party_vote_kesk_pct","party_vote_vihr_pct","party_vote_vas_pct","party_vote_rkp_pct","foreign_language_municipal_pct","foreign_language_history","foreign_language_est_pct","low_income_pct","job_self_sufficiency","violent_crime_rate","property_crime_rate","grocery_count","healthcare_count","school_count","daycare_count","restaurant_count","property_price_history"],"cols":[[1507,1508,1509,1510,1511,1512,1513,1514,1515,1516,1517,1518,2238,2236,2237,2239,2240,2241,2242,2243,2244,2245,2250,2246,2247,2248,2249,2251,2252,2254,2257,2258,2259],["51760","51780","51810","51820","51850","51860","51880","51890","51900","51930","51940","51980","76130","76100","76120","76150","76280","76620","76780","76850","76940","77110","77320","77120","77140","77220","77240","77330","77350","77430","77520","77570","77580"],["Nuutilanmäki","Kuosmala","Maivala","Hatsola","Vuorenmaa","Narila","Koikkala","Risulahti","Juva Keskus","Paatela","Härkälä","Lauteala","Pappilanmäki","Pieksämäki Keskus","Kontiopuisto","Länsirinne","Partaharju","Pyhitty","Lamminmäki","Naarajärvi","Nenonpelto","Paltanen","Hurskaala","Venetmäki","Huumala","Neuvola","Halkokumpu","Virtasalmi Keskus","Montola","Siikamäki","Haapakoski-Partaharju","Jäppilä Keskus","Tihusniemi"],["Nuutilanmäki","Kuosmala","Maivala","Hatsola","Vuorenmaa","Narila","Koikkala","Risulahti","Juva centrum","Paatela","Härkälä","Lauteala","Pappilanmäki","Pieksämäki centrum","Kontiopuisto","Länsirinne","Partaharju","Pyhitty","Lamminmäki","Naarajärvi","Nenonpelto","Paltanen","Hurskaala","Venetmäki","Huumala","Neuvola","Halkokumpu","Virtasalmi centrum","Montola","Siikamäki","Haapakoski-Partaharju","Jäppilä centrum","Tihusniemi"],[530324,538641,536430,543096,525399,531432,547581,551909,543141,554449,562183,555534,506138,500628,509942,506671,512505,513930,510702,501860,507332,494651,519620,487215,488265,495233,493061,524371,513335,520556,504950,521631,532892],[6853240,6845271,6853451,6851527,6873361,6876343,6843086,6834844,6862305,6867130,6869098,6845927,6908796,6916792,6907974,6904090,6917959,6900629,6896832,6903101,6916018,6912709,6895557,6904868,6917750,6899367,6891424,6887470,6892218,6905550,6923899,6921538,6914082],[116866524,73035182,36558776,87299552,101630511,23919167,109061908,93540607,470394907,58397146,43965424,126932344,5099667,187489702,3784729,24552396,38627071,55376593,42270576,144537135,21712404,83809695,25814640,126045979,78097322,93909345,40677528,226730182,48348509,157202439,123033634,226085323,91178123],[2026,2026,2026,2026,2026,2026,2026,2026,2026,2026,2026,2026,2026,2026,2026,2026,2026,2026,2026,2026,2026,2026,2026,2026,2026,2026,2026,2026,2026,2026,2026,2026,2026],["178","178","178","178","178","178","178","178","178","178","178","178","593","593","593","593","593","593","593","593","593","593","593","593","593","593","593","593","593","593","593","593","593"],[259,112,129,273,159,56,176,68,3958,139,100,204,897,5041,1788,3100,159,260,89,2703,187,87,62,140,85,137,136,518,182,350,153,660,141],[112,48,59,135,75,24,82,38,2044,64,41,90,467,2663,901,1606,85,127,43,1344,101,44,29,60,45,66,66,250,83,158,70,324,69],[147,64,70,138,84,32,94,30,1914,75,59,114,430,2378,887,1494,74,133,46,1359,86,43,33,80,40,71,70,268,99,192,83,336,72],[53,54,49,52,54,57,58,55,53,48,53,58,49,53,49,50,48,45,54,50,47,47,55,57,57,55,49,56,51,50,52,57,51],[2,2,2,6,1,0,2,1,54,4,1,4,16,73,36,62,2,6,3,62,5,2,0,2,1,3,4,7,1,4,1,4,2],[5,2,3,5,3,0,4,1,112,4,4,3,25,99,53,93,5,7,1,79,8,4,1,3,5,3,6,6,3,11,0,8,6],[12,4,9,15,7,2,4,4,203,4,4,5,45,204,114,153,10,23,4,168,6,6,2,2,2,5,11,19,11,19,5,30,9],[7,3,8,12,5,4,2,0,102,5,1,4,29,120,54,84,2,14,1,87,5,3,2,3,0,3,2,18,4,19,4,19,0],[6,3,4,8,1,0,3,1,65,3,2,3,20,103,35,47,3,5,3,48,6,3,2,0,1,2,2,10,2,5,5,11,0],[7,1,1,3,3,0,3,2,66,5,0,2,24,108,30,47,2,6,1,33,3,2,0,2,0,2,2,9,2,8,5,4,0],[5,1,4,5,3,1,5,2,121,7,2,1,33,221,43,135,2,10,1,72,4,1,2,2,0,3,3,7,8,8,4,9,3],[5,1,3,5,4,1,3,1,149,6,3,2,40,193,63,132,4,12,1,108,10,1,1,2,0,6,4,14,6,7,3,15,10],[9,6,4,9,2,1,5,4,140,5,6,7,39,230,111,184,11,14,4,118,8,4,0,5,5,2,6,12,11,9,7,12,9],[6,8,7,7,11,2,5,3,196,3,4,7,60,271,111,163,9,13,2,156,22,2,1,11,10,4,8,19,6,16,7,29,10],[10,4,8,14,10,4,5,0,198,6,4,5,46,251,110,170,15,16,5,147,7,8,5,5,1,9,9,28,12,23,11,23,9],[22,3,9,18,11,2,8,1,174,13,4,13,66,239,85,157,16,10,7,129,14,3,7,13,3,2,4,25,11,25,5,42,2],[25,8,7,19,12,4,8,2,202,12,7,12,46,211,101,145,8,13,3,143,13,6,4,6,3,8,6,33,12,24,14,40,7],[25,10,4,27,7,5,12,8,294,8,6,16,49,305,120,221,15,11,10,194,10,11,5,9,8,15,8,47,22,25,18,54,10],[25,8,9,26,15,7,25,9,316,11,15,35,65,421,145,252,18,28,3,275,9,9,5,12,6,11,11,46,13,35,24,62,17],[27,13,14,29,22,5,17,14,348,18,13,21,82,470,152,279,16,28,14,271,16,13,7,12,9,21,15,63,19,30,11,93,13],[24,14,8,22,17,7,22,4,401,9,14,18,79,494,146,290,13,7,14,221,15,1,8,16,10,16,15,54,15,28,10,71,20],[18,13,9,18,16,4,26,4,324,10,5,16,62,416,144,219,2,21,7,198,15,2,6,19,10,14,11,37,12,37,6,57,6],[13,3,11,16,7,6,8,2,218,4,2,16,39,279,64,129,3,6,1,101,8,4,2,10,5,4,5,31,9,9,7,30,2],[6,5,5,9,2,1,9,5,275,2,3,14,32,333,71,138,3,10,4,93,3,2,2,6,6,4,4,33,3,8,6,47,6],[227,98,103,227,142,50,161,61,3422,119,88,185,762,4442,1496,2661,137,205,77,2259,157,69,55,130,76,121,111,458,161,292,138,588,124],[58,28,28,53,36,15,38,12,934,32,16,48,170,1186,373,684,44,38,14,485,43,18,13,41,21,23,27,127,46,67,37,151,33],[169,70,75,174,106,35,123,49,2488,87,72,137,592,3256,1123,1977,93,167,63,1774,114,51,42,89,55,98,84,331,115,225,101,437,91],[7,0,5,5,2,0,4,3,81,3,3,6,17,143,37,68,1,9,2,40,0,3,0,6,2,3,1,9,6,7,3,9,0],[108,40,50,103,78,25,77,28,1661,56,47,85,343,2066,725,1283,57,101,39,1097,79,34,28,55,40,66,63,231,85,146,69,281,57],[35,18,13,49,19,7,26,15,569,23,17,33,180,833,299,497,24,47,18,500,27,11,8,24,13,26,12,73,20,53,22,115,27],[19,12,7,17,7,3,16,3,177,5,5,13,52,214,62,129,11,10,4,137,8,3,6,4,0,3,8,18,4,19,7,32,7],[227,98,103,227,142,50,161,61,3422,119,88,185,762,4442,1496,2661,137,205,77,2259,157,69,55,130,76,121,111,458,161,292,138,588,124],[30732,29846,28393,29507,29670,31851,28845,37493,25655,30304,28796,29713,26352,24592,24890,24787,29273,27676,30348,28447,26426,26246,26716,26264,26406,27159,29473,26378,26025,28616,26094,26485,27728],[24937,27638,21988,26330,26132,26149,24192,21214,23079,25623,21991,23189,25561,22377,23829,23201,24190,27445,26470,25560,25389,24864,24463,22703,19432,25827,27327,22670,23039,25101,23317,22808,23990],[53,15,30,47,29,6,44,16,766,25,18,55,141,984,302,599,23,41,14,384,24,19,11,45,27,17,20,113,36,70,28,141,40],[130,57,53,129,84,31,84,24,2252,71,52,98,532,3098,1062,1827,83,128,48,1549,115,41,38,68,37,88,65,276,106,167,92,377,70],[44,26,20,51,29,13,33,21,404,23,18,32,89,360,132,235,31,36,15,326,18,9,6,17,12,16,26,69,19,55,18,70,14],[6976230,2924949,2924491,6698057,4213201,1592531,4644032,2287080,87791533,3606186,2534073,5496949,20079851,109237397,37235931,65959464,4010382,5673527,2336797,64261295,4148842,1810981,1469368,3414290,2006855,3286297,3271485,12081003,4190076,8355838,3600906,15573387,3438237],[134,59,61,134,85,32,99,36,2227,65,53,104,437,3161,961,1781,67,109,44,1351,91,43,34,82,44,69,70,280,97,165,81,346,75],[1.9,1.9,2.1,2,1.8,1.8,1.8,1.9,1.8,2.1,1.9,2,1.9,1.6,1.8,1.7,2.2,2.4,2,2,2,2,1.8,1.7,1.9,2,1.9,1.8,1.9,2.1,1.9,1.9,1.9],[59.6,61.5,52.9,54.4,62.2,58.7,67.2,69.7,47.6,52.6,61.6,66.2,46.6,44.2,45.6,44.8,49.4,48.7,55.9,48.7,42,46.4,65.4,66.1,56.4,57.7,57.3,52.4,51.6,53,53.8,53.4,55.4],[53,25,24,52,42,13,47,15,1148,25,23,39,186,1963,456,929,17,26,15,509,31,16,17,39,15,21,34,129,42,55,32,137,26],[3,0,1,5,1,0,3,1,125,2,3,1,20,340,79,196,1,3,0,52,6,1,0,5,0,0,2,11,5,3,4,5,3],[3,1,0,0,3,0,0,0,46,2,1,0,12,65,15,40,1,3,0,23,1,0,0,0,0,1,1,3,2,3,1,4,3],[17,9,15,26,6,3,10,4,296,11,6,11,82,343,170,256,14,28,5,257,18,13,4,6,6,10,13,33,13,29,9,37,10],[1,2,2,5,1,0,2,1,50,3,1,3,15,66,28,50,2,6,2,52,4,2,0,2,1,2,4,6,1,4,1,3,2],[5,4,3,8,2,0,4,1,118,4,3,4,31,125,58,108,5,12,2,105,9,6,1,4,4,5,7,8,3,11,1,10,7],[9,4,6,11,4,1,2,2,146,3,3,4,31,141,77,105,5,17,3,129,5,6,1,2,1,5,9,16,8,15,3,21,6],[10,6,9,15,4,3,5,1,118,5,3,5,39,155,63,92,5,14,2,106,7,6,4,2,1,5,4,20,4,18,7,24,0],[3,1,1,2,0,1,0,1,89,0,0,2,18,108,48,57,2,5,0,48,4,3,0,3,0,0,2,7,2,4,3,8,2],[54,14,12,44,33,13,30,11,782,21,19,31,163,1303,389,759,30,31,11,500,35,11,11,31,11,18,21,88,41,63,41,110,31],[63,39,35,66,46,16,60,22,1160,33,28,62,193,1520,404,769,23,51,28,596,38,19,20,45,27,41,36,160,43,75,32,203,34],[125,57,58,122,80,31,91,35,1598,63,50,97,312,1791,668,1085,53,98,43,1009,55,38,28,75,41,63,65,227,76,157,59,264,65],[6,2,1,10,5,0,4,0,591,2,2,3,122,1341,281,686,9,9,0,322,33,3,3,3,1,2,5,46,14,6,19,75,7],[3,0,2,2,0,1,4,1,38,0,1,4,3,29,12,10,5,2,1,20,3,2,3,4,2,4,0,7,7,2,3,7,3],[134,59,61,134,85,32,99,36,2227,65,53,104,437,3161,961,1781,67,109,44,1351,91,43,34,82,44,69,70,280,97,165,81,346,75],[52392,49841,48356,50445,49206,49914,46483,63939,39321,55550,48230,52982,44114,34056,38494,36831,56318,52391,53476,47382,45185,43136,42939,41640,45636,47711,47025,42422,43236,50919,44847,44449,45843],[44186,44781,38836,48321,38514,46800,35465,46809,31870,49467,35090,39387,38578,27340,34012,30639,47521,52605,46729,41372,43140,39886,31928,33279,41054,43099,39602,31319,37537,45186,39820,37763,38651],[34,12,20,29,18,7,30,6,719,12,15,23,81,1138,269,577,9,25,7,293,16,9,9,25,16,10,15,103,33,37,21,89,23],[69,34,30,79,46,15,49,20,1280,43,29,60,319,1822,621,1072,45,65,28,853,64,30,19,44,20,53,42,137,53,97,50,205,39],[31,13,11,26,21,10,20,10,228,10,9,21,37,201,71,132,13,19,9,205,11,4,6,13,8,6,13,40,11,31,10,52,13],[7020464,2940602,2949692,6759614,4182501,1597235,4601813,2301812,87567294,3610761,2556171,5510144,19277714,107652154,36992390,65596578,3773281,5710671,2352957,64013520,4111865,1854834,1459942,3414520,2008006,3292067,3291757,11878119,4193861,8401562,3632580,15379488,3438237],[275,229,44,130,100,9,227,171,505,72,59,270,2,110,1,25,36,170,136,317,16,84,82,182,86,140,34,607,63,294,69,448,80],[194,99,92,184,152,51,162,68,1717,100,88,172,291,1447,637,917,103,166,68,1211,109,93,61,140,92,111,97,454,150,258,131,438,133],[24,5,15,24,15,9,16,11,277,11,11,27,16,293,40,141,27,31,9,179,40,16,7,9,8,10,6,65,17,32,13,65,34],[170,94,77,160,137,42,146,57,1440,89,77,145,275,1154,597,776,76,135,59,1032,69,77,54,131,84,101,91,389,133,226,118,373,99],[165,82,72,155,128,40,149,50,2646,82,68,131,490,3840,1148,2086,79,134,54,1508,129,58,43,98,58,91,83,401,124,197,110,450,96],[112.5,104.9,107.8,107.6,103.1,99.5,103.7,126.7,81.5,105,114.1,124.2,86.2,67,80.2,74.9,103.7,109,110.4,94.6,73.1,87.8,108.1,110.6,108.1,107.1,109.5,88.3,92.2,109.9,94.1,93,99.7],[161,82,70,150,124,38,143,49,1894,81,67,124,423,1326,800,936,76,121,53,1315,108,56,42,97,56,89,80,373,120,196,109,430,96],[0,0,0,0,0,0,0,0,700,0,0,3,65,2333,347,1118,0,8,0,172,19,0,0,0,2,0,0,12,0,0,1,5,0],[4,0,2,5,4,2,6,1,52,1,1,4,2,181,1,32,3,5,1,21,2,2,1,1,0,2,3,16,4,1,0,15,0],[79,11,36,30,25,13,24,33,1263,37,8,39,310,2484,474,617,82,23,10,913,788,4,4,16,8,9,11,134,16,55,18,92,54],[14,10,31,15,20,5,19,32,87,16,null,27,8,38,1,23,73,0,6,58,1,null,null,10,null,null,7,27,1,18,9,21,11],[39,1,5,3,3,7,2,0,224,15,null,4,24,291,203,132,4,3,1,475,1,null,null,3,null,null,1,37,7,18,6,23,27],[26,0,0,12,2,1,3,1,952,6,null,8,278,2155,270,462,5,20,3,380,786,null,null,3,null,null,3,70,8,19,3,48,16],[14,10,31,15,20,5,19,32,87,16,null,27,8,38,1,23,73,0,6,58,1,null,null,10,null,null,7,27,1,18,9,21,11],[0,0,0,0,0,0,0,0,1,0,null,0,0,0,0,0,0,0,0,1,0,null,null,0,null,null,0,0,0,0,0,0,0],[32,0,0,1,0,0,0,0,130,13,null,2,0,149,197,44,0,2,0,360,0,null,null,2,null,null,0,31,7,10,1,18,0],[1,0,0,0,0,0,0,0,1,0,null,0,0,16,0,0,0,0,0,0,0,null,null,0,null,null,0,0,0,0,0,0,26],[0,0,0,0,0,2,0,0,8,0,null,0,0,5,0,18,0,0,0,0,0,null,null,0,null,null,0,0,0,0,0,0,0],[6,1,5,2,3,5,2,0,84,2,null,2,24,121,6,70,4,1,1,114,1,null,null,1,null,null,1,6,0,8,5,5,1],[20,0,0,3,0,0,0,0,160,0,null,3,1,328,3,119,0,2,1,46,0,null,null,0,null,null,1,7,2,0,3,14,4],[0,0,0,0,0,0,0,0,86,0,null,0,20,126,1,55,0,0,0,32,4,null,null,3,null,null,0,4,4,3,0,1,0],[0,0,0,1,0,0,1,0,70,1,null,0,0,101,5,16,4,11,0,12,0,null,null,0,null,null,0,2,0,3,0,2,0],[0,0,0,0,0,0,0,0,4,0,null,0,0,31,0,0,0,1,0,3,1,null,null,0,null,null,0,0,0,0,0,0,0],[0,0,0,1,0,0,1,0,4,0,null,0,0,23,0,0,0,0,0,2,0,null,null,0,null,null,0,0,0,0,0,0,0],[0,0,0,0,0,0,0,0,3,0,null,0,1,40,7,2,0,0,0,10,0,null,null,0,null,null,0,0,0,0,0,0,0],[0,0,0,0,2,0,0,1,35,0,null,1,1,162,8,5,0,0,0,17,0,null,null,0,null,null,1,11,1,0,0,2,1],[0,0,0,1,0,0,1,0,57,0,null,0,0,174,2,5,0,0,0,18,0,null,null,0,null,null,1,1,0,0,0,1,0],[0,0,0,0,0,0,0,0,32,0,null,0,0,155,0,3,0,0,0,49,0,null,null,0,null,null,0,4,0,0,0,0,0],[0,0,0,5,0,0,0,0,80,5,null,0,100,128,43,93,0,0,0,38,37,null,null,0,null,null,0,8,0,0,0,6,0],[5,0,0,0,0,1,0,0,355,0,null,0,132,759,200,131,1,6,2,138,743,null,null,0,null,null,0,31,0,12,0,20,9],[1,0,0,0,0,0,0,0,18,0,null,4,0,33,1,0,0,0,0,2,0,null,null,0,null,null,0,0,0,0,0,0,0],[0,0,0,1,0,0,0,0,48,0,null,0,23,95,0,33,0,0,0,13,1,null,null,0,null,null,0,2,1,1,0,2,2],[0,0,0,0,0,0,0,0,0,0,null,0,0,0,0,0,0,0,0,0,0,null,null,0,null,null,0,0,0,0,0,0,0],[0,0,0,0,0,0,0,0,0,0,null,0,0,0,0,0,0,0,0,0,0,null,null,0,null,null,0,0,0,0,0,0,0],[0,0,0,0,0,0,0,0,0,0,null,0,0,0,0,0,0,0,0,0,0,null,null,0,null,null,0,0,0,0,0,0,0],[259,112,129,273,159,56,176,68,3958,139,100,204,897,5041,1788,3100,159,260,89,2703,187,87,62,140,85,137,136,518,182,350,153,660,141],[114,42,45,105,67,23,69,28,1432,63,41,73,343,1653,632,1125,87,108,38,1088,84,33,23,51,22,54,52,171,80,136,70,221,61],[11,5,2,11,3,1,2,1,173,4,4,11,38,293,83,151,4,9,2,106,4,6,2,5,6,1,2,24,5,17,8,37,12],[23,10,19,31,14,5,10,6,436,17,9,13,102,464,236,370,18,42,8,369,23,15,5,9,8,13,23,45,17,46,9,57,17],[14,5,11,21,7,1,9,3,161,7,6,7,66,255,93,141,5,19,4,112,9,4,4,4,2,5,5,26,6,21,11,21,0],[90,47,49,100,66,26,84,29,1676,47,38,92,321,2215,668,1192,39,78,35,967,63,27,26,68,46,63,53,234,69,120,50,309,48],[7,3,3,5,2,0,2,1,80,1,2,8,27,161,76,121,6,4,2,61,4,2,2,3,1,1,1,18,5,10,5,15,3],["pieksamaki","pieksamaki","pieksamaki","pieksamaki","pieksamaki","pieksamaki","pieksamaki","pieksamaki","pieksamaki","pieksamaki","pieksamaki","pieksamaki","pieksamaki","pieksamaki","pieksamaki","pieksamaki","pieksamaki","pieksamaki","pieksamaki","pieksamaki","pieksamaki","pieksamaki","pieksamaki","pieksamaki","pieksamaki","pieksamaki","pieksamaki","pieksamaki","pieksamaki","pieksamaki","pieksamaki","pieksamaki","pieksamaki"],["51760","51780","51810","51820","51850","51860","51880","51890","51900","51930","51940","51980","76130","76100","76120","76150","76280","76620","76780","76850","76940","77110","77320","77120","77140","77220","77240","77330","77350","77430","77520","77570","77580"],[4.2,4.5,1.6,4,1.9,1.8,1.1,1.5,4.4,2.9,4,5.4,4.2,5.8,4.6,4.9,2.5,3.5,2.2,3.9,2.1,6.9,3.2,3.6,7.1,0.7,1.5,4.6,2.7,4.9,5.2,5.6,8.5],[23.8,30.6,19.4,29.1,18.3,20,26.1,29.5,21.8,23.5,25,24.9,30.4,23.6,24.1,23.5,25.5,27.8,28.6,28.2,22.3,20.3,25.5,21.5,17.1,24,18,19.9,14.9,24.7,21,25,27.4],[34.7,42,38,36.6,41.5,46.4,47.7,42.6,42.3,33.8,38,45.1,35.8,43.9,37.4,38.5,24.5,30,39.3,35.8,33.7,31,41.9,48.6,54.1,46,39,45.2,37.9,34.3,32.7,46.8,34],[93.3,96.6,95.1,91,94.1,96.9,91.9,97.2,71.8,96.9,94.3,93.3,71.4,56.7,69.5,60.9,79.1,89.9,97.7,74.7,60.4,88.4,82.4,91.5,93.2,91.3,92.9,81.1,78.4,95.2,72.8,76.3,86.7],[4.5,3.4,1.6,7.5,5.9,0,4,0,26.5,3.1,3.8,2.9,27.9,42.4,29.2,38.5,13.4,8.3,0,23.8,36.3,7,8.8,3.7,2.3,2.9,7.1,16.4,14.4,3.6,23.5,21.7,9.3],[2,2,4,3,2,2,2,1,8,2,2,2,176,27,472,126,4,5,2,19,9,1,2,1,1,1,3,2,4,2,1,3,2],[2.7,3.6,3.9,4,2.5,0,3.4,2.9,4.2,5.8,5,3.4,4.6,3.4,5,5,4.4,5,4.5,5.2,7,6.9,1.6,3.6,7.1,4.4,7.4,2.5,2.2,4.3,0.7,1.8,5.7],[5.4,4.5,8.5,7.7,4.4,1.8,5.1,4.4,4.1,5,6,3.4,7.4,5.1,5.2,4.5,3.1,7.3,4.5,4.1,4.8,4.6,6.5,2.9,2.4,3.6,3.7,5,3.3,6,7.2,3.2,0],[97.6,100,97.2,96.8,96.9,95,96,98,71.6,98.8,98.5,94.7,86.3,34.5,69.7,44.9,96.2,90.3,98.1,87.2,83.7,96.6,97.7,99,96.6,97.8,96.4,93,96.8,99.5,99.1,95.6,100],[6.6,2.7,6.2,4.8,6.3,3.6,6.2,7.4,8.5,12.9,5,2.5,10.8,10.4,7.6,10.1,5,10.8,3.4,7.9,9.1,4.6,4.8,4.3,0,8,6.6,5.8,8.8,6.6,7.8,4.2,9.2],[0.76,0.75,0.84,0.98,0.89,0.75,0.87,1.27,1.07,0.85,0.69,0.79,1.09,1.12,1.02,1.07,1.15,0.95,0.93,0.99,1.17,1.02,0.88,0.75,1.12,0.93,0.94,0.93,0.84,0.82,0.84,0.96,0.96],[2.2,1.7,0,0,3.5,0,0,0,2.1,3.1,1.9,0,2.7,2.1,1.6,2.2,1.5,2.8,0,1.7,1.1,0,0,0,0,1.4,1.4,1.1,2.1,1.8,1.2,1.2,4],[12.7,15.3,24.6,19.4,7.1,9.4,10.1,11.1,13.3,16.9,11.3,10.6,18.8,10.9,17.7,14.4,20.9,25.7,11.4,19,19.8,30.2,11.8,7.3,13.6,14.5,18.6,11.8,13.4,17.6,11.1,10.7,13.3],[0,0,0,0,0,0,0,0,0.3,0,null,0,0,1.2,0,0,0,4.3,0,0.3,0.1,null,null,0,null,null,0,0,0,0,0,0,0],[6.3,0,0,0,0,7.7,0,0,28.1,0,null,0,42.6,30.6,42.2,21.2,1.2,26.1,20,15.1,94.3,null,null,0,null,null,0,23.1,0,21.8,0,21.7,16.7],[44,37.5,34.9,38.5,42.1,41.1,39.2,41.2,36.2,45.3,41,35.8,38.2,32.8,35.3,36.3,54.7,41.5,42.7,40.3,44.9,37.9,37.1,36.4,25.9,39.4,38.2,33,44,38.9,45.8,33.5,43.3],[34,42.9,36.4,34.4,40.3,41.1,46.6,42.6,39.6,30.9,37,41.7,32.8,39.5,32.3,34,23.3,27.7,44.9,32.7,30.5,25.3,40.3,45,47.1,43.1,36.8,42.1,31.9,32,26.1,45.2,33.3],[1.93,1.9,2.11,2.04,1.87,1.75,1.78,1.89,1.78,2.14,1.89,1.96,2.05,1.59,1.86,1.74,2.37,2.39,2.02,2,2.05,2.02,1.82,1.71,1.93,1.99,1.94,1.85,1.88,2.12,1.89,1.91,1.88],[49.4,9.1,13.9,10,12,53.8,8.3,0,17.7,40.5,null,10.3,7.7,11.7,42.8,21.4,4.9,13,10,52,0.1,null,null,18.8,null,null,9.1,27.6,43.8,32.7,33.3,25,50],[0,0,0,0,0,0,0,0,2.5,0,null,0,0,6.2,0,0.5,0,0,0,5.4,0,null,null,0,null,null,0,3,0,0,0,0,0],[32.9,0,0,40,8,7.7,12.5,3,75.4,16.2,null,20.5,89.7,86.8,57,74.9,6.1,87,30,41.6,99.7,null,null,18.8,null,null,27.3,52.2,50,34.5,16.7,52.2,29.6],[117.6,120.7,127.8,118.7,118.8,127.5,108.7,136,64.9,122,129.4,131.3,59.4,37.7,55.5,44,130.4,123.9,125.9,80.3,84.5,160.3,141.9,142.9,158.6,122,116.9,113.2,121,131,119.1,97.3,138.5],[3.7,1.7,2.9,6.9,1.1,0,1.9,0,1.8,1.3,2.7,5.9,2.5,3.7,1.3,3.6,9.8,0.7,0,2.4,5.3,0,3.1,1.2,1.1,0.6,0,2.2,3,0.5,1.2,2.1,0.6],[79.4,79.4,79.4,79.4,79.4,79.4,79.4,79.4,79.4,79.4,79.4,79.4,95.8,95.8,95.8,95.8,95.8,95.8,95.8,95.8,95.8,95.8,95.8,95.8,95.8,95.8,95.8,95.8,95.8,95.8,95.8,95.8,95.8],[null,null,null,null,null,null,null,null,642,null,null,null,1089,527,763,453,null,null,null,554,null,null,null,null,null,null,null,null,null,null,null,889,null],[0.2,0,0.1,0.1,0.1,0.4,0,0,0.3,0.2,0.5,0.2,2,0.4,5.3,1,0.1,0.7,0,0.5,0.5,0.2,0,0.1,0.1,0.2,0.2,0.1,0.3,0.2,0.2,0.1,0],[21.9,21.9,21.8,22.1,21.8,22,22,22,22.1,21.5,21,21.9,21.5,21.5,21.5,21.6,21.6,21.6,21.7,21.8,21.5,22,21.7,23.4,23.2,22.3,23.2,21.7,21.6,21.9,21.6,22.4,22.4],[0,0,0,0,0,0,0,0,0.0043,0,0,0,0,0.0053,0,0,0,0,0,0,0.0461,0,0,0,0,0,0,0,0,0,0,0,0],[0,0,0,0.0115,0,0,0.0092,0,0.0043,0.0171,0,0,0.1961,0.032,0.5284,0.1222,0,0,0,0.0138,0.0461,0,0,0,0,0,0,0.0044,0,0.0064,0,0.0044,0],[0,0,0,0,0,0,0,0,0.0043,0,0,0,0,0.0373,0,0,0,0,0,0.0069,0.0461,0,0,0,0,0,0,0.0044,0,0,0,0.0044,0],[0.0086,0,0,0,0,0,0.0092,0,0.0191,0.0171,0.0227,0,0,0.112,0,0.0407,0,0.0181,0,0.0138,0,0,0,0,0,0,0,0,0,0,0,0.0044,0],[0.0086,0,0,0,0,0,0,0,0.0085,0,0,0,0,0.0267,0,0,0,0,0,0.0138,0,0,0,0,0,0,0,0,0,0,0,0,0],[0.0856,0,0,0.1031,0,0,0,0,0.3805,0,0,0,5.0984,0.8854,9.7761,2.7289,0,0,0,0.6365,0.4145,0,0,0,0,0,0,0.0662,0,0,0,0.0885,0],[39.6,42.4,39.3,38.8,49.4,40.6,47.5,41.7,51.5,38.5,43.4,37.5,42.6,62.1,47.5,52.2,25.4,23.9,34.1,37.7,34.1,37.2,50,47.6,34.1,30.4,48.6,46.1,43.3,33.3,39.5,39.6,34.7],[null,null,null,null,null,null,null,null,null,null,null,null,null,null,null,null,null,null,null,null,null,null,null,null,null,null,null,null,null,null,null,null,null],[null,null,null,null,null,null,null,null,null,null,null,null,null,null,null,null,null,null,null,null,null,null,null,null,null,null,null,null,null,null,null,null,null],[46,24,26,38,26,32,36,24,63,43,41,29,58,75,60,64,26,42,24,69,59,29,24,26,26,29,29,43,31,34,29,48,24],[11.6,3,5.2,4.9,null,null,1.9,null,2.5,7.2,13.3,1.6,null,0.5,0.2,0.3,2.1,10.3,null,0.6,3.6,19.2,null,4.8,3.9,2.4,2.5,0.6,null,5.7,13.1,2,7.1],[null,null,null,null,null,null,null,null,-20.4,null,null,null,null,-8.5,-18.7,-34.3,null,null,null,21.2,null,null,null,null,null,null,null,null,null,null,null,null,null],[null,null,null,null,null,null,null,null,56.4,null,null,null,null,58,null,null,null,null,null,null,null,null,null,null,null,null,null,null,null,null,null,null,null],[0.06,0,6.44,0.15,0,0,0,0,0.44,0,0,0,4.81,1.01,9.02,2.86,0.15,0.12,0.01,0.32,0.27,0,0,0,0,0,0,0.01,0.07,0.01,0,0.02,0.08],[40,40,40,40.1,40,40,40,40,40.1,40,40,40,40,40,40,40,40,40,40,40,40,40,40,40,40,40,40,40,40,40,40,40,40],[65.6,65.6,65.6,65.6,65.6,65.6,65.6,65.6,65.6,65.6,65.6,65.6,57.9,57.9,57.9,57.9,57.9,57.9,57.9,57.9,57.9,57.9,57.9,57.9,57.9,57.9,57.9,57.9,57.9,57.9,57.9,57.9,57.9],[0.643,0.643,0.643,0.643,0.643,0.643,0.643,0.643,0.643,0.643,0.643,0.643,0.728,0.728,0.728,0.728,0.728,0.728,0.728,0.728,0.728,0.728,0.728,0.728,0.728,0.728,0.728,0.728,0.728,0.728,0.728,0.728,0.728],[48,48,48,48,48,48,48,48,48,48,48,48,74,74,74,74,74,74,74,74,74,74,74,74,74,74,74,74,74,74,74,74,74],[0,0,0,0,0,0,0,0,0,0,0,0,0,0,0,0,0,0,0,0,0,0,0,0,0,0,0,0,0,0,0,0,0],[60.8,29.6,16.4,78.2,43.8,46.6,80,75.2,51.4,32.2,82,53.7,17.8,71,39,66.8,48,43.2,45.2,46,67.6,56.2,52.8,61.2,57.4,23.8,48.2,44.5,66,65.4,45.5,50.8,62.8],[null,null,null,null,null,null,null,null,null,null,null,null,null,null,null,null,null,null,null,null,null,null,null,null,null,null,null,null,null,null,null,null,null],[0,0.1,0,0,0,0,0,0,0,0,0,0,1,0.2,1.6,0.1,0,0.1,0,0.1,0,0,0,0,0,0,0,0.1,0,0,0,0,0],[350,210,460,440,1150,1570,820,220,410,330,530,380,280,460,900,1010,450,960,590,460,500,480,420,450,820,380,780,420,720,450,940,250,230],[1978,1978,1978,1978,1978,1978,1977,1979,1976,1978,1978,1978,1975,1973,1975,1974,1978,1978,1978,1976,1976,1980,1979,1979,1980,1978,1978,1978,1978,1978,1978,1977,1979],[[[2021,22161],[2022,22233],[2023,23102],[2024,24695],[2025,25867],[2026,24937]],[[2021,21599],[2022,21598],[2023,21219],[2024,23013],[2025,25188],[2026,27638]],[[2021,19405],[2022,18186],[2023,19182],[2024,19443],[2025,21894],[2026,21988]],[[2021,21515],[2022,21797],[2023,22752],[2024,23703],[2025,25817],[2026,26330]],[[2021,19137],[2022,20221],[2023,21672],[2024,23857],[2025,22521],[2026,26132]],[[2021,21008],[2022,21279],[2023,23600],[2024,24227],[2025,24162],[2026,26149]],[[2021,18753],[2022,18508],[2023,18937],[2024,19995],[2025,21284],[2026,24192]],[[2021,20890],[2022,18342],[2023,21331],[2024,20188],[2025,20895],[2026,21214]],[[2021,19022],[2022,19333],[2023,19700],[2024,20727],[2025,22165],[2026,23079]],[[2021,21283],[2022,22404],[2023,24242],[2024,24266],[2025,23980],[2026,25623]],[[2021,19058],[2022,18032],[2023,21101],[2024,19314],[2025,22628],[2026,21991]],[[2021,20250],[2022,19378],[2023,20096],[2024,20184],[2025,22250],[2026,23189]],[[2021,22266],[2022,22891],[2023,23147],[2024,23703],[2025,24132],[2026,25561]],[[2021,19081],[2022,19371],[2023,19947],[2024,20398],[2025,21744],[2026,22377]],[[2021,20241],[2022,20383],[2023,21041],[2024,21509],[2025,23049],[2026,23829]],[[2021,19606],[2022,19775],[2023,20126],[2024,20836],[2025,22316],[2026,23201]],[[2021,21804],[2022,22316],[2023,24183],[2024,23687],[2025,26007],[2026,24190]],[[2021,23084],[2022,23758],[2023,24241],[2024,27173],[2025,28002],[2026,27445]],[[2021,22933],[2022,24028],[2023,24667],[2024,24226],[2025,25234],[2026,26470]],[[2021,21916],[2022,21771],[2023,22443],[2024,23309],[2025,24696],[2026,25560]],[[2021,19394],[2022,19742],[2023,21296],[2024,21913],[2025,22531],[2026,25389]],[[2021,21371],[2022,20088],[2023,22591],[2024,22085],[2025,23529],[2026,24864]],[[2021,22402],[2022,19438],[2023,21237],[2024,23113],[2025,22829],[2026,24463]],[[2021,17016],[2022,17243],[2023,18801],[2024,18171],[2025,21480],[2026,22703]],[[2021,16270],[2022,16187],[2023,18432],[2024,18537],[2025,21498],[2026,19432]],[[2021,20409],[2022,21718],[2023,22403],[2024,23887],[2025,23232],[2026,25827]],[[2021,19857],[2022,21496],[2023,22995],[2024,20465],[2025,22011],[2026,27327]],[[2021,17857],[2022,18060],[2023,18670],[2024,20238],[2025,22042],[2026,22670]],[[2021,19118],[2022,19908],[2023,21147],[2024,20755],[2025,23486],[2026,23039]],[[2021,19900],[2022,20642],[2023,21888],[2024,23941],[2025,24340],[2026,25101]],[[2021,19811],[2022,19129],[2023,20344],[2024,22308],[2025,22445],[2026,23317]],[[2021,19165],[2022,18728],[2023,18878],[2024,19562],[2025,20965],[2026,22808]],[[2021,21235],[2022,19093],[2023,22143],[2024,21275],[2025,23846],[2026,23990]]],[[[2021,280],[2022,272],[2023,272],[2024,265],[2025,272],[2026,259]],[[2021,123],[2022,121],[2023,114],[2024,117],[2025,116],[2026,112]],[[2021,142],[2022,136],[2023,129],[2024,126],[2025,125],[2026,129]],[[2021,280],[2022,276],[2023,280],[2024,283],[2025,283],[2026,273]],[[2021,183],[2022,179],[2023,178],[2024,177],[2025,168],[2026,159]],[[2021,64],[2022,60],[2023,62],[2024,61],[2025,60],[2026,56]],[[2021,224],[2022,210],[2023,207],[2024,197],[2025,186],[2026,176]],[[2021,74],[2022,76],[2023,77],[2024,76],[2025,71],[2026,68]],[[2021,4217],[2022,4093],[2023,4074],[2024,3981],[2025,3962],[2026,3958]],[[2021,161],[2022,157],[2023,148],[2024,144],[2025,139],[2026,139]],[[2021,112],[2022,112],[2023,107],[2024,98],[2025,100],[2026,100]],[[2021,228],[2022,220],[2023,214],[2024,207],[2025,206],[2026,204]],[[2021,966],[2022,911],[2023,909],[2024,894],[2025,874],[2026,897]],[[2021,5402],[2022,5395],[2023,5342],[2024,5279],[2025,5316],[2026,5041]],[[2021,1878],[2022,1823],[2023,1835],[2024,1796],[2025,1766],[2026,1788]],[[2021,3013],[2022,2933],[2023,2911],[2024,2889],[2025,2872],[2026,3100]],[[2021,153],[2022,153],[2023,152],[2024,157],[2025,157],[2026,159]],[[2021,152],[2022,146],[2023,141],[2024,138],[2025,135],[2026,260]],[[2021,96],[2022,98],[2023,94],[2024,92],[2025,91],[2026,89]],[[2021,2777],[2022,2734],[2023,2729],[2024,2710],[2025,2681],[2026,2703]],[[2021,194],[2022,187],[2023,174],[2024,172],[2025,184],[2026,187]],[[2021,78],[2022,70],[2023,79],[2024,81],[2025,80],[2026,87]],[[2021,65],[2022,65],[2023,63],[2024,64],[2025,62],[2026,62]],[[2021,163],[2022,163],[2023,153],[2024,151],[2025,148],[2026,140]],[[2021,85],[2022,88],[2023,92],[2024,87],[2025,82],[2026,85]],[[2021,151],[2022,158],[2023,146],[2024,142],[2025,141],[2026,137]],[[2021,140],[2022,141],[2023,143],[2024,139],[2025,127],[2026,136]],[[2021,562],[2022,542],[2023,530],[2024,532],[2025,518],[2026,518]],[[2021,207],[2022,200],[2023,190],[2024,179],[2025,184],[2026,182]],[[2021,372],[2022,370],[2023,362],[2024,373],[2025,364],[2026,350]],[[2021,169],[2022,161],[2023,163],[2024,162],[2025,169],[2026,153]],[[2021,690],[2022,674],[2023,656],[2024,654],[2025,653],[2026,660]],[[2021,152],[2022,157],[2023,155],[2024,149],[2025,157],[2026,141]]],[[[2021,4.6],[2022,4],[2023,5.9],[2024,4.9],[2025,4],[2026,4.2]],[[2021,2.4],[2022,5.8],[2023,1.8],[2024,0],[2025,2.6],[2026,4.5]],[[2021,4.9],[2022,2.9],[2023,6.2],[2024,2.4],[2025,4],[2026,1.6]],[[2021,3.9],[2022,3.6],[2023,3.2],[2024,2.8],[2025,3.9],[2026,4]],[[2021,2.2],[2022,1.7],[2023,2.8],[2024,1.1],[2025,1.8],[2026,1.9]],[[2021,0],[2022,3.3],[2023,0],[2024,0],[2025,1.7],[2026,1.8]],[[2021,1.3],[2022,2.9],[2023,3.4],[2024,4.1],[2025,2.2],[2026,1.1]],[[2021,0],[2022,2.6],[2023,5.2],[2024,5.3],[2025,4.2],[2026,1.5]],[[2021,4.6],[2022,4.1],[2023,3.9],[2024,3.6],[2025,3.9],[2026,4.4]],[[2021,3.7],[2022,4.5],[2023,3.4],[2024,1.4],[2025,2.2],[2026,2.9]],[[2021,4.5],[2022,1.8],[2023,2.8],[2024,2],[2025,6],[2026,4]],[[2021,1.8],[2022,2.3],[2023,4.7],[2024,3.9],[2025,3.9],[2026,5.4]],[[2021,3.4],[2022,3.2],[2023,2.9],[2024,2.6],[2025,2.6],[2026,4.2]],[[2021,4.7],[2022,4.3],[2023,4.5],[2024,4.2],[2025,4.8],[2026,5.8]],[[2021,3.3],[2022,3.8],[2023,3.6],[2024,3.9],[2025,3.4],[2026,4.6]],[[2021,4.6],[2022,4],[2023,4.2],[2024,3.5],[2025,4.2],[2026,4.9]],[[2021,6.5],[2022,7.2],[2023,3.3],[2024,2.5],[2025,3.2],[2026,2.5]],[[2021,2.6],[2022,1.4],[2023,1.4],[2024,0.7],[2025,3.7],[2026,3.5]],[[2021,3.1],[2022,5.1],[2023,4.3],[2024,4.3],[2025,1.1],[2026,2.2]],[[2021,3],[2022,2.9],[2023,3.3],[2024,2.8],[2025,3],[2026,3.9]],[[2021,4.1],[2022,5.3],[2023,0.6],[2024,1.2],[2025,0.5],[2026,2.1]],[[2021,7.7],[2022,8.6],[2023,5.1],[2024,4.9],[2025,7.5],[2026,6.9]],[[2021,1.5],[2022,0],[2023,0],[2024,0],[2025,1.6],[2026,3.2]],[[2021,3.7],[2022,4.3],[2023,3.9],[2024,4.6],[2025,4.1],[2026,3.6]],[[2021,2.4],[2022,2.3],[2023,3.3],[2024,3.4],[2025,3.7],[2026,7.1]],[[2021,4.6],[2022,5.7],[2023,4.1],[2024,3.5],[2025,3.5],[2026,0.7]],[[2021,3.6],[2022,3.5],[2023,2.8],[2024,2.9],[2025,3.1],[2026,1.5]],[[2021,3.7],[2022,3.9],[2023,4.2],[2024,5.3],[2025,4.4],[2026,4.6]],[[2021,5.8],[2022,5.5],[2023,3.7],[2024,3.9],[2025,5.4],[2026,2.7]],[[2021,5.4],[2022,4.3],[2023,3.9],[2024,3.5],[2025,3.3],[2026,4.9]],[[2021,8.9],[2022,3.7],[2023,4.9],[2024,5.6],[2025,5.3],[2026,5.2]],[[2021,4.6],[2022,4.3],[2023,4.4],[2024,3.8],[2025,5.5],[2026,5.6]],[[2021,3.9],[2022,2.5],[2023,5.2],[2024,3.4],[2025,6.4],[2026,8.5]]],[12.5,28,13.3,22.4,36.6,24.5,29,1.6,21.3,20.4,15.4,14.5,14.8,17.3,17.7,18.3,10.9,18.9,15.4,16.6,30.9,16.3,9.2,33.4,19.4,26.5,37.6,27,20.5,26.1,17.7,19,13],[-7.5,-8.9,-9.2,-2.5,-13.1,-12.5,-21.4,-8.1,-6.1,-13.7,-10.7,-10.5,-7.1,-6.7,-4.8,2.9,3.9,71.1,-7.3,-2.7,-3.6,11.5,-4.6,-14.1,0,-9.3,-2.9,-7.8,-12.1,-5.9,-9.5,-4.3,-7.2],[-8.7,87.5,-67.3,2.6,-13.6,null,-15.4,null,-4.3,-21.6,-11.1,200,23.5,23.4,39.4,6.5,-61.5,34.6,-29,30,-48.8,-10.4,113.3,-2.7,195.8,-84.8,-58.3,24.3,-53.4,-9.3,-41.6,21.7,117.9],[null,null,null,null,null,null,null,null,[{"name":"Juvan lukio","score":56.4}],null,null,null,null,[{"name":"Pieksämäen lukio","score":58}],null,null,null,null,null,null,null,null,null,null,null,null,null,null,null,null,null,null,null],[[[2020,152.3],[2021,91.3],[2022,85.1],[2023,91.4],[2024,99.4],[2025,79.4]],[[2020,152.3],[2021,91.3],[2022,85.1],[2023,91.4],[2024,99.4],[2025,79.4]],[[2020,152.3],[2021,91.3],[2022,85.1],[2023,91.4],[2024,99.4],[2025,79.4]],[[2020,152.3],[2021,91.3],[2022,85.1],[2023,91.4],[2024,99.4],[2025,79.4]],[[2020,152.3],[2021,91.3],[2022,85.1],[2023,91.4],[2024,99.4],[2025,79.4]],[[2020,152.3],[2021,91.3],[2022,85.1],[2023,91.4],[2024,99.4],[2025,79.4]],[[2020,152.3],[2021,91.3],[2022,85.1],[2023,91.4],[2024,99.4],[2025,79.4]],[[2020,152.3],[2021,91.3],[2022,85.1],[2023,91.4],[2024,99.4],[2025,79.4]],[[2020,152.3],[2021,91.3],[2022,85.1],[2023,91.4],[2024,99.4],[2025,79.4]],[[2020,152.3],[2021,91.3],[2022,85.1],[2023,91.4],[2024,99.4],[2025,79.4]],[[2020,152.3],[2021,91.3],[2022,85.1],[2023,91.4],[2024,99.4],[2025,79.4]],[[2020,152.3],[2021,91.3],[2022,85.1],[2023,91.4],[2024,99.4],[2025,79.4]],[[2020,109.4],[2021,89],[2022,96.4],[2023,105.7],[2024,100.3],[2025,95.8]],[[2020,109.4],[2021,89],[2022,96.4],[2023,105.7],[2024,100.3],[2025,95.8]],[[2020,109.4],[2021,89],[2022,96.4],[2023,105.7],[2024,100.3],[2025,95.8]],[[2020,109.4],[2021,89],[2022,96.4],[2023,105.7],[2024,100.3],[2025,95.8]],[[2020,109.4],[2021,89],[2022,96.4],[2023,105.7],[2024,100.3],[2025,95.8]],[[2020,109.4],[2021,89],[2022,96.4],[2023,105.7],[2024,100.3],[2025,95.8]],[[2020,109.4],[2021,89],[2022,96.4],[2023,105.7],[2024,100.3],[2025,95.8]],[[2020,109.4],[2021,89],[2022,96.4],[2023,105.7],[2024,100.3],[2025,95.8]],[[2020,109.4],[2021,89],[2022,96.4],[2023,105.7],[2024,100.3],[2025,95.8]],[[2020,109.4],[2021,89],[2022,96.4],[2023,105.7],[2024,100.3],[2025,95.8]],[[2020,109.4],[2021,89],[2022,96.4],[2023,105.7],[2024,100.3],[2025,95.8]],[[2020,109.4],[2021,89],[2022,96.4],[2023,105.7],[2024,100.3],[2025,95.8]],[[2020,109.4],[2021,89],[2022,96.4],[2023,105.7],[2024,100.3],[2025,95.8]],[[2020,109.4],[2021,89],[2022,96.4],[2023,105.7],[2024,100.3],[2025,95.8]],[[2020,109.4],[2021,89],[2022,96.4],[2023,105.7],[2024,100.3],[2025,95.8]],[[2020,109.4],[2021,89],[2022,96.4],[2023,105.7],[2024,100.3],[2025,95.8]],[[2020,109.4],[2021,89],[2022,96.4],[2023,105.7],[2024,100.3],[2025,95.8]],[[2020,109.4],[2021,89],[2022,96.4],[2023,105.7],[2024,100.3],[2025,95.8]],[[2020,109.4],[2021,89],[2022,96.4],[2023,105.7],[2024,100.3],[2025,95.8]],[[2020,109.4],[2021,89],[2022,96.4],[2023,105.7],[2024,100.3],[2025,95.8]],[[2020,109.4],[2021,89],[2022,96.4],[2023,105.7],[2024,100.3],[2025,95.8]]],[-47.9,-47.9,-47.9,-47.9,-47.9,-47.9,-47.9,-47.9,-47.9,-47.9,-47.9,-47.9,-12.4,-12.4,-12.4,-12.4,-12.4,-12.4,-12.4,-12.4,-12.4,-12.4,-12.4,-12.4,-12.4,-12.4,-12.4,-12.4,-12.4,-12.4,-12.4,-12.4,-12.4],[102.6,102.6,102.6,102.6,102.6,102.6,102.6,102.6,102.6,102.6,102.6,102.6,112.7,112.7,112.7,112.7,112.7,112.7,112.7,112.7,112.7,112.7,112.7,112.7,112.7,112.7,112.7,112.7,112.7,112.7,112.7,112.7,112.7],[null,null,null,null,null,null,null,null,77,null,null,null,null,61,47,54,null,null,null,53,null,null,null,null,null,null,null,null,null,null,null,59,null],["Juva","Juva","Juva","Juva","Juva","Juva","Juva","Juva","Juva","Juva","Juva","Juva","Pieksämäki","Pieksämäki","Pieksämäki","Pieksämäki","Pieksämäki","Pieksämäki","Pieksämäki","Pieksämäki","Pieksämäki","Pieksämäki","Pieksämäki","Pieksämäki","Pieksämäki","Pieksämäki","Pieksämäki","Pieksämäki","Pieksämäki","Pieksämäki","Pieksämäki","Pieksämäki","Pieksämäki"],[27.60855,27.71765,27.695,27.8106,27.48191,27.60811,27.90091,27.95071,27.84828,28.05804,28.18052,28.07232,27.128,27.14889,27.17808,27.13298,27.24126,27.22421,27.18797,27.01441,27.14289,26.92027,27.37975,26.76071,26.7664,26.9183,26.86456,27.47429,27.23826,27.41684,27.10865,27.42857,27.63049],[61.77808,61.73134,61.81225,61.80784,61.9954,62.02031,61.71869,61.61139,61.889,61.91656,61.94535,61.75082,62.30528,62.3302,62.30286,62.29036,62.3809,62.25824,62.19815,62.26007,62.37402,62.32718,62.18803,62.27642,62.39991,62.22668,62.15026,62.12028,62.16137,62.27143,62.46669,62.41225,62.35569],[null,14.99,null,3.85,null,null,18.56,23.33,null,null,null,null,null,null,null,null,null,null,null,null,null,null,null,null,null,null,null,null,null,null,null,null,null],[-18.4,-18.4,-18.4,-18.4,-18.4,-18.4,-18.4,-18.4,-18.4,-18.4,-18.4,-18.4,-10.4,-10.4,-10.4,-10.4,-10.4,-10.4,-10.4,-10.4,-10.4,-10.4,-10.4,-10.4,-10.4,-10.4,-10.4,-10.4,-10.4,-10.4,-10.4,-10.4,-10.4],[5.3,5.3,5.3,5.3,5.3,5.3,5.3,5.3,5.3,5.3,5.3,5.3,3.1,3.1,3.1,3.1,3.1,3.1,3.1,3.1,3.1,3.1,3.1,3.1,3.1,3.1,3.1,3.1,3.1,3.1,3.1,3.1,3.1],[1,1,null,1,null,null,null,null,1,null,1,null,null,2,null,3,null,null,null,2,null,2,null,2,null,null,null,null,null,null,null,null,null],[62,62,62,62,62,62,62,62,62,62,62,62,57.7,57.7,57.7,57.7,57.7,57.7,57.7,57.7,57.7,57.7,57.7,57.7,57.7,57.7,57.7,57.7,57.7,57.7,57.7,57.7,57.7],[18.6,18.6,18.6,18.6,18.6,18.6,18.6,18.6,18.6,18.6,18.6,18.6,16.7,16.7,16.7,16.7,16.7,16.7,16.7,16.7,16.7,16.7,16.7,16.7,16.7,16.7,16.7,16.7,16.7,16.7,16.7,16.7,16.7],[13.6,13.6,13.6,13.6,13.6,13.6,13.6,13.6,13.6,13.6,13.6,13.6,21,21,21,21,21,21,21,21,21,21,21,21,21,21,21,21,21,21,21,21,21],[17.5,17.5,17.5,17.5,17.5,17.5,17.5,17.5,17.5,17.5,17.5,17.5,21.5,21.5,21.5,21.5,21.5,21.5,21.5,21.5,21.5,21.5,21.5,21.5,21.5,21.5,21.5,21.5,21.5,21.5,21.5,21.5,21.5],[37.1,37.1,37.1,37.1,37.1,37.1,37.1,37.1,37.1,37.1,37.1,37.1,18.4,18.4,18.4,18.4,18.4,18.4,18.4,18.4,18.4,18.4,18.4,18.4,18.4,18.4,18.4,18.4,18.4,18.4,18.4,18.4,18.4],[2.9,2.9,2.9,2.9,2.9,2.9,2.9,2.9,2.9,2.9,2.9,2.9,7.1,7.1,7.1,7.1,7.1,7.1,7.1,7.1,7.1,7.1,7.1,7.1,7.1,7.1,7.1,7.1,7.1,7.1,7.1,7.1,7.1],[1,1,1,1,1,1,1,1,1,1,1,1,5.9,5.9,5.9,5.9,5.9,5.9,5.9,5.9,5.9,5.9,5.9,5.9,5.9,5.9,5.9,5.9,5.9,5.9,5.9,5.9,5.9],[0.2,0.2,0.2,0.2,0.2,0.2,0.2,0.2,0.2,0.2,0.2,0.2,0.1,0.1,0.1,0.1,0.1,0.1,0.1,0.1,0.1,0.1,0.1,0.1,0.1,0.1,0.1,0.1,0.1,0.1,0.1,0.1,0.1],[4.6,4.6,4.6,4.6,4.6,4.6,4.6,4.6,4.6,4.6,4.6,4.6,8,8,8,8,8,8,8,8,8,8,8,8,8,8,8,8,8,8,8,8,8],[[[2020,3.7],[2021,4.2],[2022,4.5],[2023,6.6],[2024,7.7],[2025,7.7]],[[2020,1.7],[2021,1.9],[2022,2.1],[2023,3],[2024,3.6],[2025,3.6]],[[2020,2.9],[2021,3.3],[2022,3.6],[2023,5.1],[2024,6.1],[2025,6.1]],[[2020,6.9],[2021,7.8],[2022,8.5],[2023,12.2],[2024,14.4],[2025,14.4]],[[2020,1.1],[2021,1.2],[2022,1.4],[2023,1.9],[2024,2.3],[2025,2.3]],[[2020,0],[2021,0],[2022,0],[2023,0],[2024,0],[2025,0]],[[2020,1.9],[2021,2.2],[2022,2.3],[2023,3.4],[2024,4],[2025,4]],[[2020,0],[2021,0],[2022,0],[2023,0],[2024,0],[2025,0]],[[2020,1.8],[2021,2],[2022,2.2],[2023,3.2],[2024,3.8],[2025,3.8]],[[2020,1.3],[2021,1.5],[2022,1.6],[2023,2.3],[2024,2.7],[2025,2.7]],[[2020,2.7],[2021,3.1],[2022,3.3],[2023,4.8],[2024,5.6],[2025,5.6]],[[2020,5.9],[2021,6.7],[2022,7.2],[2023,10.5],[2024,12.3],[2025,12.3]],[[2020,2.5],[2021,2.5],[2022,2.9],[2023,4.3],[2024,6.3],[2025,7.1]],[[2020,3.7],[2021,3.7],[2022,4.2],[2023,6.3],[2024,9.4],[2025,10.6]],[[2020,1.3],[2021,1.3],[2022,1.5],[2023,2.2],[2024,3.3],[2025,3.7]],[[2020,3.6],[2021,3.6],[2022,4.1],[2023,6.2],[2024,9.1],[2025,10.3]],[[2020,9.8],[2021,9.8],[2022,11.2],[2023,16.8],[2024,24.9],[2025,28]],[[2020,0.7],[2021,0.7],[2022,0.8],[2023,1.2],[2024,1.8],[2025,2]],[[2020,0],[2021,0],[2022,0],[2023,0],[2024,0],[2025,0]],[[2020,2.4],[2021,2.4],[2022,2.7],[2023,4.1],[2024,6.1],[2025,6.9]],[[2020,5.3],[2021,5.3],[2022,6.1],[2023,9.1],[2024,13.4],[2025,15.1]],[[2020,0],[2021,0],[2022,0],[2023,0],[2024,0],[2025,0]],[[2020,3.1],[2021,3.1],[2022,3.5],[2023,5.3],[2024,7.9],[2025,8.9]],[[2020,1.2],[2021,1.2],[2022,1.4],[2023,2.1],[2024,3],[2025,3.4]],[[2020,1.1],[2021,1.1],[2022,1.3],[2023,1.9],[2024,2.8],[2025,3.1]],[[2020,0.6],[2021,0.6],[2022,0.7],[2023,1],[2024,1.5],[2025,1.7]],[[2020,0],[2021,0],[2022,0],[2023,0],[2024,0],[2025,0]],[[2020,2.2],[2021,2.2],[2022,2.5],[2023,3.8],[2024,5.6],[2025,6.3]],[[2020,3],[2021,3],[2022,3.4],[2023,5.1],[2024,7.6],[2025,8.6]],[[2020,0.5],[2021,0.5],[2022,0.6],[2023,0.9],[2024,1.3],[2025,1.4]],[[2020,1.2],[2021,1.2],[2022,1.4],[2023,2.1],[2024,3],[2025,3.4]],[[2020,2.1],[2021,2.1],[2022,2.4],[2023,3.6],[2024,5.3],[2025,6]],[[2020,0.6],[2021,0.6],[2022,0.7],[2023,1],[2024,1.5],[2025,1.7]]],[7.7,3.6,6.1,14.4,2.3,0,4,0,3.8,2.7,5.6,12.3,7.1,10.6,3.7,10.3,28,2,0,6.9,15.1,0,8.9,3.4,3.1,1.7,0,6.3,8.6,1.4,3.4,6,1.7],[23.3,15.3,29.1,20.7,20.4,12,27.3,26.2,22.4,21,20.5,29.7,18.5,22.2,20.2,22.5,16.8,20,18.2,17,15.3,27.5,20,34.6,35.5,14,18,24.7,22.4,24,20.3,24,32.3],[69.3,26.2,80,28.6,37.3,56.5,34.8,117.9,88.2,58.7,19.5,53.4,90.4,150.3,75,54.8,94.3,21.3,26.3,83.9,938.1,12.1,17.4,31.4,36.4,16.7,21.2,78.4,20,40.4,25.7,41.6,88.5],[4.5,4.5,4.5,4.5,4.5,4.5,4.5,4.5,4.5,4.5,4.5,4.5,7.8,7.8,7.8,7.8,7.8,7.8,7.8,7.8,7.8,7.8,7.8,7.8,7.8,7.8,7.8,7.8,7.8,7.8,7.8,7.8,7.8],[14.9,14.9,14.9,14.9,14.9,14.9,14.9,14.9,14.9,14.9,14.9,14.9,39,39,39,39,39,39,39,39,39,39,39,39,39,39,39,39,39,39,39,39,39],[1,0,0,0,0,0,0,0,4,0,0,0,0,5,0,0,0,0,0,2,0,0,0,0,0,0,0,0,0,0,0,0,0],[0,0,0,0,0,0,0,0,2,0,0,0,0,7,0,0,0,0,0,1,1,0,0,0,0,0,0,1,0,0,0,1,0],[0,0,0,1,0,0,1,0,2,1,0,0,1,6,2,3,0,0,0,2,1,0,0,0,0,0,0,1,0,1,0,1,0],[0,0,0,0,0,0,0,0,2,0,0,0,0,1,0,0,0,0,0,0,1,0,0,0,0,0,0,0,0,0,0,0,0],[1,0,0,0,0,0,1,0,9,1,1,0,0,21,0,1,0,1,0,2,0,0,0,0,0,0,0,0,0,0,0,1,0],[null,null,null,null,null,null,null,null,[[2020,807],[2021,767],[2022,724],[2023,727],[2024,547],[2025,642]],null,null,null,null,[[2020,576],[2021,537],[2022,711],[2023,573],[2024,524],[2025,527]],[[2020,939],[2021,763]],[[2020,690],[2021,665],[2022,568],[2023,462],[2024,574],[2025,453]],null,null,null,[[2021,457],[2022,594],[2023,541],[2025,554]],null,null,null,null,null,null,null,null,null,null,null,null,null]]}}