{"type":"Topology","objects":{"neighborhoods":{"type":"GeometryCollection","geometries":[{"type":"MultiPolygon","arcs":[[[0,1,2]]],"properties":{"i":0}},{"type":"MultiPolygon","arcs":[[[-2,3,4]]],"properties":{"i":1}},{"type":"MultiPolygon","arcs":[[[5,6,7,8,-3,-5,9,10]]],"properties":{"i":2}},{"type":"MultiPolygon","arcs":[[[11,12,13,14]]],"properties":{"i":3}},{"type":"MultiPolygon","arcs":[[[15,-11,16]]],"properties":{"i":4}},{"type":"MultiPolygon","arcs":[[[17,18,19,-12]]],"properties":{"i":5}},{"type":"MultiPolygon","arcs":[[[-8,20,21,22,23,24,25,-19,26]]],"properties":{"i":6}},{"type":"MultiPolygon","arcs":[[[-20,-26,27,-13]]],"properties":{"i":7}},{"type":"MultiPolygon","arcs":[[[-14,-28,-25,28,29]]],"properties":{"i":8}},{"type":"MultiPolygon","arcs":[[[30]],[[31]],[[32]],[[33]],[[34]],[[35]],[[36]],[[37]],[[38]],[[39]],[[40]],[[41]],[[42]],[[43,44,45,46,47,48,49]]],"properties":{"i":9}},{"type":"MultiPolygon","arcs":[[[50,51,-44,52,53]]],"properties":{"i":10}},{"type":"MultiPolygon","arcs":[[[-53,-50,54]]],"properties":{"i":11}},{"type":"MultiPolygon","arcs":[[[55,56,57,58,59,60,61,-54,-55,-49,62]]],"properties":{"i":12}},{"type":"MultiPolygon","arcs":[[[63,-45,-52]]],"properties":{"i":13}},{"type":"MultiPolygon","arcs":[[[-51,-62,64,65,66,67,-46,-64]]],"properties":{"i":14}},{"type":"MultiPolygon","arcs":[[[68,69,70,-65,-61,71]]],"properties":{"i":15}},{"type":"MultiPolygon","arcs":[[[72,-47,-68]]],"properties":{"i":16}},{"type":"MultiPolygon","arcs":[[[-71,73,74,-66]]],"properties":{"i":17}},{"type":"MultiPolygon","arcs":[[[-70,75,-6,-16,76,-74]]],"properties":{"i":18}},{"type":"MultiPolygon","arcs":[[[-22,77,-58,78,79,80]]],"properties":{"i":19}},{"type":"MultiPolygon","arcs":[[[81,-72,-60]]],"properties":{"i":20}},{"type":"MultiPolygon","arcs":[[[-78,-21,-7,-76,-69,-82,-59]]],"properties":{"i":21}},{"type":"MultiPolygon","arcs":[[[82,83,-56,84]]],"properties":{"i":22}},{"type":"MultiPolygon","arcs":[[[85,-83,86]]],"properties":{"i":23}},{"type":"MultiPolygon","arcs":[[[-79,-57,-84,-86,87,88]]],"properties":{"i":24}},{"type":"MultiPolygon","arcs":[[[89,90,-80,-89]]],"properties":{"i":25}},{"type":"MultiPolygon","arcs":[[[91,-23,-81,-91,92,93,94]]],"properties":{"i":26}},{"type":"MultiPolygon","arcs":[[[-94,95]]],"properties":{"i":27}},{"type":"MultiPolygon","arcs":[[[-29,-24,-92,96]]],"properties":{"i":28}}]}},"arcs":[[[26743,14912],[-120,-53],[-230,-81],[-460,-427],[-729,-405],[-44,-8],[-971,177],[-834,-206],[-1897,237],[-1386,-582],[-2355,-1123]],[[17717,12441],[67,1277],[185,1787],[-162,924],[-948,2014],[-366,394]],[[16493,18837],[644,2169],[382,1409],[-149,943],[-117,536],[130,14],[957,-141],[1819,379],[14,139],[1,32],[129,242],[11,103],[-10,182],[-23,67],[-10,398],[-207,689],[25,353],[285,268],[805,-329],[-339,-1179],[4,-5],[429,-277],[256,-60],[323,-418],[226,-152],[1882,-215],[51,89],[964,-218],[1156,640],[63,288],[592,109],[538,-228],[-50,-1284],[-305,-389],[915,-703],[345,-123],[2568,-2861],[-4830,-2376],[84,-462],[692,-1554]],[[17717,12441],[-237,-832],[-558,-339],[-155,-437],[-423,-806],[-2486,-763],[-15,-5],[-1376,-383],[-442,-311],[-25,-18],[-84,-58],[-20,-10],[-716,-352],[-15,-6],[-3,89],[-124,760],[-188,247],[-221,289],[-470,228],[-925,202],[-339,-8],[-1008,-25],[-4079,1423],[-1401,1252],[-1464,1688],[-729,915],[-83,104],[-131,130],[93,199],[68,150],[32,75],[15,39],[14,38],[13,39],[13,40],[11,39],[22,80],[21,81],[29,121],[24,102],[0,1],[4,18],[16,82],[7,41],[5,40],[4,41],[4,41],[5,81],[7,124],[12,288],[4,83],[3,41],[4,41],[4,40],[6,40],[8,39],[11,39],[13,36],[16,34],[18,34],[19,33],[21,31],[22,30],[23,29],[23,26],[25,23],[27,19],[28,14],[31,7],[32,1],[34,-2],[34,-6],[35,-6],[109,-24],[36,-6],[36,-5],[37,-1],[39,2],[39,6],[38,8],[38,11],[37,12],[37,15],[35,16],[33,19],[30,21],[27,26],[21,28],[18,32],[15,35],[13,36],[11,38],[10,38],[9,40],[7,39],[22,154],[7,37],[9,36],[12,34],[15,32],[20,29],[24,27],[26,25],[82,70],[25,23],[21,23],[16,24],[8,25],[0,27],[-8,28],[-12,30],[-50,96],[-15,35],[-13,35],[-10,37],[-8,38],[-7,38],[-5,39],[-5,39],[-3,39],[-2,39],[0,39],[1,39],[4,37],[7,37],[12,37],[15,35],[18,34],[21,31],[22,30],[25,27],[27,23],[29,18],[32,12],[35,7],[36,4],[38,1],[38,0],[39,-2],[157,-12],[39,-2],[38,0],[37,1],[36,3],[33,7],[30,12],[27,17],[22,22],[17,26],[13,30],[7,33],[2,36],[-2,38],[-4,38],[-5,40],[-15,80],[-71,325],[-17,81],[-14,82],[-11,79],[0,4],[-10,84],[-12,127],[-6,83],[-2,42],[-2,41],[0,40],[0,4],[2,36],[4,37],[8,35],[14,32],[18,27],[23,23],[27,20],[29,18],[30,15],[33,12],[33,8],[34,3],[36,-3],[36,-7],[36,-11],[37,-13],[36,-15],[73,-33],[73,-36],[326,-162],[252,-125],[109,-52],[72,-32],[37,-16],[10,-3],[28,-11],[22,-7],[16,-6],[38,-12],[78,-21],[118,-29],[79,-18],[79,-15],[38,-6],[1,0],[39,-5],[39,-2],[39,1],[39,5],[6,1],[32,7],[38,10],[39,13],[38,13],[38,14],[75,31],[37,17],[36,17],[36,19],[35,20],[33,22],[31,25],[30,26],[28,27],[85,85],[28,28],[29,26],[31,24],[31,22],[33,18],[35,15],[35,12],[37,9],[37,6],[39,4],[39,1],[40,0],[80,-4],[80,-7],[323,-31],[80,-7],[79,-5],[39,0],[38,1],[37,4],[36,7],[33,12],[32,18],[29,23],[27,26],[27,29],[26,31],[25,32],[50,67],[49,67],[98,137],[48,68],[47,69],[22,35],[22,36],[7,13],[13,23],[17,37],[17,37],[15,38],[1,2],[28,76],[28,78],[39,118],[26,79],[24,79],[1,7],[9,33],[10,40],[7,40],[2,14],[3,26],[4,40],[2,40],[1,41],[0,81],[-1,40],[-2,41],[-3,40],[-4,39],[-6,39],[-9,39],[-12,37],[-13,36],[-16,36],[-17,35],[-18,36],[-18,35],[-38,69],[-60,103],[-42,67],[-22,33],[-14,18],[-9,13],[-26,32],[-26,32],[-27,30],[-28,30],[-57,60],[-145,146],[-57,59],[-27,30],[-27,29],[-22,27],[-3,3],[-23,31],[-19,31],[-16,31],[-8,32],[-2,27],[3,27],[8,27],[14,32],[18,31],[21,30],[24,30],[26,29],[26,27],[42,43],[39,39],[26,28],[24,28],[23,30],[19,31],[16,34],[11,36],[9,38],[5,37],[2,39],[-3,38],[-7,38],[-12,38],[-14,38],[-18,36],[-20,34],[-22,32],[-26,29],[-25,22],[-28,19],[-29,18],[-30,15],[-32,12],[-32,11],[-33,7],[-37,6],[-38,2],[-38,2],[-37,2],[-36,3],[-35,7],[-33,10],[-32,17],[-29,22],[-27,26],[-17,18],[-9,10],[-25,31],[-23,31],[-20,33],[-11,19],[-8,15],[-15,34],[-11,34],[-4,35],[2,32],[8,33],[10,26],[2,6],[16,31],[18,31],[20,29],[23,28],[17,18],[8,8],[29,24],[32,21],[34,16],[33,10],[33,7],[34,3],[34,1],[35,-4],[37,-8],[38,-11],[37,-14],[37,-16],[73,-35],[110,-56],[396,-209],[73,-37],[72,-36],[36,-17],[37,-15],[37,-14],[37,-12],[37,-9],[37,-4],[38,-2],[38,1],[38,2],[38,4],[38,4],[38,6],[38,6],[38,8],[38,9],[37,11],[38,13],[38,15],[37,16],[74,35],[73,38],[72,39],[36,21],[34,22],[21,15],[13,9],[31,26],[25,22],[6,5],[30,28],[29,29],[29,30],[28,30],[26,30],[26,31],[24,31],[5,7],[16,24],[18,32],[14,33],[6,33],[-1,33],[-5,23],[-2,12],[-13,34],[-16,35],[-19,35],[-21,34],[-23,34],[-25,33],[-25,31],[-25,26],[-71,70],[-19,22],[-16,20],[-10,19],[-2,18],[8,18],[18,16],[25,16],[30,14],[33,13],[36,14],[37,12],[79,25],[40,11],[40,11],[41,10],[41,9],[40,8],[40,6],[159,25],[39,7],[37,9],[36,10],[5,2],[30,12],[31,18],[24,20],[22,23],[20,26],[17,29],[15,30],[12,32],[10,38],[1,1],[7,40],[5,41],[3,41],[1,42],[0,13]],[[9045,27067],[941,-982],[0,-285],[-766,-46],[122,-1334],[200,-32],[955,-281],[114,-149],[815,396],[835,552],[104,-116],[103,-439],[583,-1683],[684,51],[1805,-3653],[953,-229]],[[31339,34935],[2549,18],[2747,-1038]],[[36635,33915],[267,-1038],[341,-1330],[1128,-1398],[115,-124],[739,-716],[3579,79],[1243,10],[1956,-835]],[[46003,28563],[5250,-8306],[2497,-2499]],[[53750,17758],[-2615,-633],[-8013,-791],[-1898,1079],[-2482,1125],[-2756,-1139],[-2562,-1808],[-956,152],[-1898,302],[-1623,532],[-880,-76],[-1260,-1581],[-64,-8]],[[9045,27067],[-1,29],[-2,42],[-5,42],[-1,7],[-7,33],[-10,37],[-13,36],[-25,66],[-15,38],[-11,33],[-8,32],[-4,31],[2,28],[9,26],[15,23],[19,21],[23,18],[26,15],[27,11],[30,5],[33,-1],[34,-6],[35,-11],[35,-14],[36,-16],[18,-9],[18,-9],[72,-39],[38,-21],[263,-140],[19,-9],[23,-8],[11,-4],[33,-9],[32,-4],[30,3],[28,12],[27,20],[26,24],[24,29],[24,31],[24,33],[23,34],[45,71],[44,73],[12,20],[31,54],[21,37],[19,38],[18,38],[16,37],[43,110],[14,32],[1,2],[15,33],[17,29],[20,24],[22,18],[28,11],[31,3],[33,0],[35,-5],[36,-7],[38,-8],[76,-20],[311,-92],[78,-22],[79,-20],[39,-10],[39,-8],[39,-8],[39,-6],[40,-6],[39,-4],[37,-3],[2,0],[39,0],[37,2],[36,4],[36,6],[35,9],[34,10],[32,14],[31,17],[29,23],[28,26],[26,29],[12,14],[13,16],[24,32],[24,33],[46,68],[113,171],[66,103],[21,35],[5,9],[16,26],[18,36],[17,36],[15,37],[5,18],[6,20],[9,38],[7,40],[6,39],[5,40],[14,122],[11,80],[7,42],[7,41],[9,42],[10,41],[10,40],[11,40],[13,39],[14,38],[16,37],[20,35],[21,30],[25,29],[27,28],[28,26],[33,29],[26,23],[121,100],[60,50],[30,26],[28,27],[27,28],[25,29],[23,30],[20,33],[18,34],[16,36],[25,55],[7,15],[15,34],[17,32],[18,29],[20,26],[24,20],[27,13],[30,9],[32,5],[41,4],[27,3],[33,5],[33,7],[30,12],[28,17],[26,23],[22,27],[20,31],[17,33],[13,35],[10,36],[8,38],[1,5],[5,34],[6,39],[5,40],[7,81],[5,81],[0,4],[1,36],[0,10],[1,31],[-2,83],[-3,83],[-5,82],[-6,82],[-4,40],[-4,40],[-6,40],[-7,40],[-9,38],[-11,36],[-23,69],[-10,34],[-8,34],[-4,35],[1,36],[6,37],[9,37],[11,37],[14,37],[15,37],[16,37],[18,36],[18,36],[20,35],[22,35],[22,31],[23,31],[25,30],[25,29],[26,28],[27,27],[27,27],[28,25],[29,23],[30,20],[32,18],[33,13],[35,10],[35,8],[36,5],[37,4],[37,3],[37,1],[37,0],[37,-2],[36,-4],[36,-6],[34,-10],[34,-13],[32,-16],[32,-18],[58,-36],[34,-21],[31,-17],[31,-14],[30,-11],[32,-6],[33,1],[34,7],[34,10],[29,12],[355,212],[18,14],[27,25],[23,27],[18,29],[11,30],[5,33],[2,33],[-1,34],[-4,35],[-7,34],[-10,33],[-13,32],[-17,29],[-20,26],[-24,23],[-26,22],[-40,32],[-12,10],[-24,21],[-22,21],[-18,22],[-11,24],[-5,29],[3,31],[7,32],[11,34],[12,28],[435,838],[17,117]],[[15278,34148],[193,292],[142,126],[79,57],[187,-7],[1474,-1130],[116,-120],[1342,-329],[686,-306],[181,-79],[589,-1723],[2939,-660],[2435,507],[3014,1009],[2684,3150]],[[77012,8087],[120,1852],[-982,1079],[-282,117],[-446,1303],[-637,3373]],[[74785,15811],[2194,1010]],[[76979,16821],[2959,-118],[3998,-1856],[1293,-55],[701,-73],[2097,-1313],[2456,-1496]],[[90483,11910],[-1615,-1521],[-967,-1205],[-703,-2651],[29,-1133],[-533,-305],[-5967,-3127],[-1106,-688],[-1147,-713],[-10,-5],[-140,-72],[-405,-209],[-543,-281],[-1079,1703],[-324,754],[924,1944],[790,1473],[-675,2213]],[[19354,39065],[986,-726],[469,529],[846,-891],[1589,-1386],[55,-31],[1009,-170],[4315,-983],[2716,-472]],[[15278,34148],[3,39],[17,74],[10,36],[11,35],[14,33],[17,31],[21,29],[24,27],[27,24],[29,24],[30,22],[31,21],[32,20],[33,19],[33,17],[34,16],[34,13],[36,10],[37,6],[38,3],[39,0],[39,-1],[39,-3],[40,-3],[39,-4],[80,-10],[118,-17],[79,-13],[116,-22],[39,-6],[39,-4],[36,0],[4,0],[13,1],[20,1],[37,5],[37,6],[37,7],[37,8],[36,9],[37,11],[35,11],[35,12],[34,15],[32,16],[30,20],[27,21],[25,23],[22,25],[18,26],[14,27],[7,29],[1,29],[-5,31],[-8,32],[-34,98],[-10,34],[-7,35],[-2,38],[1,39],[4,39],[6,39],[8,40],[9,40],[21,80],[22,79],[12,39],[12,39],[13,37],[14,35],[15,33],[17,29],[20,24],[22,17],[26,9],[29,2],[13,-1],[18,-1],[32,-6],[34,-9],[35,-10],[35,-12],[72,-26],[71,-29],[36,-16],[36,-17],[35,-18],[53,-29],[17,-9],[68,-40],[33,-21],[32,-22],[30,-22],[28,-24],[26,-26],[21,-29],[18,-33],[13,-36],[11,-38],[8,-39],[7,-41],[11,-83],[25,-255],[10,-84],[6,-40],[7,-40],[3,-13],[6,-24],[12,-35],[15,-32],[19,-27],[25,-20],[29,-15],[32,-12],[21,-6],[302,-37],[19,-1],[39,2],[39,3],[39,7],[38,9],[39,11],[16,5],[22,7],[77,27],[153,54],[78,26],[76,22],[150,42],[36,11],[33,12],[14,6],[18,7],[16,9],[11,6],[23,18],[16,21],[7,25],[1,28],[-5,29],[-9,31],[-13,31],[-17,30],[-21,28],[-26,28],[-30,25],[-32,23],[-34,22],[-36,22],[-143,83],[-34,22],[-34,22],[-33,25],[-30,26],[-27,28],[-26,31],[-23,32],[-23,33],[-4,5],[-228,393],[-12,24],[-17,37],[-15,37],[-12,38],[-9,39],[-7,40],[-4,40],[-4,41],[-2,41],[-3,83],[-6,291],[-4,82],[-3,40],[-5,40],[-7,38],[-7,24],[-3,13],[-15,34],[-19,32],[-23,29],[-26,28],[-19,18],[-9,9],[-30,26],[-31,25],[-32,24],[-33,24],[-33,22],[-29,19],[-5,4],[-34,21],[-35,19],[-36,17],[-36,15],[-37,13],[-38,11],[-38,11],[-151,38],[-35,10],[-1,1],[-34,11],[-31,12],[-29,15],[-24,18],[-18,21],[-10,27],[-5,30],[0,34],[3,35],[6,37],[16,100],[2,18],[6,39],[4,40],[7,81],[5,81],[3,80],[0,40],[0,40],[-2,40],[-3,39],[-6,39],[-8,39],[-6,20],[-5,19],[-12,39],[-28,77],[-90,230],[-29,77],[-14,39],[-12,39],[-12,39],[-10,40],[-28,118],[-9,38],[-11,37],[-13,35],[-16,32],[-20,28],[-26,24],[-19,13],[-10,7],[-33,18],[-34,16],[-72,32],[-36,17],[-34,20],[-31,21],[-29,22],[-29,25],[-27,26],[-27,27],[-27,28],[-26,28],[-25,29],[-24,30],[-24,30],[-22,32],[-20,32],[-19,35],[-17,37],[-5,11],[-11,26],[-15,38],[-14,38],[-26,77],[-12,39],[-11,39],[-11,39],[-8,39],[0,1],[-7,37],[-3,38],[1,38],[5,32],[9,31],[11,31],[15,29],[17,28],[20,26],[28,27],[30,25],[20,14],[12,8],[34,22],[35,19],[36,19],[32,15],[31,15],[18,7],[14,6],[32,11],[33,10],[33,7],[38,4],[39,2],[39,0],[39,-2],[65,-4],[53,-3],[39,-2],[38,-1],[38,2],[37,4],[36,9],[35,13],[14,7],[21,11],[33,21],[33,24],[32,25],[32,25],[97,80],[32,26],[34,24],[33,24],[35,21],[36,17],[36,13],[37,10],[37,7],[38,4],[38,2],[37,-1],[36,-5],[35,-9],[28,-11],[27,-16],[23,-19],[21,-21],[17,-25],[14,-33],[10,-36],[6,-38],[4,-40],[2,-41],[1,-42],[1,-170],[2,-42],[2,-41],[4,-41],[7,-39],[3,-13],[7,-25],[14,-34],[16,-33],[20,-30],[22,-29],[25,-28],[27,-26],[28,-26],[20,-17],[66,-57],[28,-26],[26,-27],[24,-29],[20,-28],[18,-31],[15,-32],[14,-32],[12,-34],[9,-33],[19,-79],[7,-30],[10,-35],[12,-34],[15,-32],[21,-31],[25,-28],[27,-26],[30,-25],[32,-22],[34,-21],[31,-16],[33,-16],[33,-14],[34,-13],[34,-11],[44,-13],[22,-7]],[[77012,8087],[-1535,813],[-1307,-74],[-3283,464],[-3494,2374],[-1981,932],[-1632,1773],[-27,11]],[[63753,14380],[59,1259],[1116,2959],[434,288],[67,78],[2085,1425],[3369,2230]],[[70883,22619],[3902,-6808]],[[46003,28563],[2997,6071],[1955,8922],[3058,3813]],[[54013,47369],[2252,-1475],[2845,-820],[3914,-1636],[4973,-1452]],[[67997,41986],[4147,-1277],[987,-473],[752,-645],[2987,-4374]],[[76870,35217],[2282,-4306]],[[79152,30911],[-442,-597],[-1004,-2259],[-1487,-1871],[-1292,-934]],[[74927,25250],[-616,-50],[-349,-13],[-42,-7],[-844,-191],[-1395,-966],[-325,-248],[-473,-1156]],[[63753,14380],[-990,-570],[-862,-400],[-398,-185],[-3410,3489],[-4343,1044]],[[74927,25250],[2411,-4491],[5,-158],[740,-2240],[-1104,-1540]],[[79152,30911],[36,-26],[4045,-1652],[208,-170],[504,-408],[811,-659],[3122,-2113],[4381,-1800],[1861,-639]],[[94120,23444],[-77,-7881],[-451,-469],[-597,-700],[-989,-1160],[-63,-74],[-245,-286],[-1215,-964]],[[29144,63847],[-40,-14],[-35,2],[-36,28],[-26,53],[-16,47],[1,39],[23,25],[32,2],[15,-6],[41,-28],[20,-41],[25,-44],[13,-45],[-17,-18]],[[32347,66546],[-31,-22],[-32,2],[-42,31],[-61,58],[-54,46],[-37,55],[-25,50],[10,36],[23,7],[55,9],[39,-32],[45,-31],[51,-34],[19,-47],[22,-50],[17,-42],[1,-36]],[[27587,65144],[25,-50],[-34,-29],[-40,-22],[-63,-36],[-43,-8],[-82,12],[-39,28],[-22,38],[8,31],[23,1],[52,-1],[53,-7],[20,16],[22,37],[-22,20],[-53,34],[1,45],[22,25],[53,-10],[67,-63],[27,-20],[25,-41]],[[28035,64199],[-23,-19],[-98,-19],[-67,-2],[-56,15],[-69,-30],[-30,-34],[8,-54],[-17,-18],[-30,25],[-29,59],[-1,39],[10,28],[55,14],[19,22],[31,43],[25,37],[42,26],[37,19],[32,-1],[21,-8],[60,-31],[38,-19],[42,-32],[0,-60]],[[25618,67449],[-43,-11],[-93,2],[-39,23],[-46,46],[-10,44],[36,41],[34,19],[60,24],[49,29],[25,40],[27,40],[64,18],[18,-29],[40,-50],[2,-39],[-25,-49],[-30,-43],[-30,-55],[-39,-50]],[[23766,66467],[-41,-11],[-85,17],[-18,8],[-43,71],[-30,85],[-6,69],[19,34],[57,38],[31,23],[88,-17],[89,-36],[63,-48],[52,-55],[43,-55],[-16,-43],[-57,-20],[-81,-28],[-65,-32]],[[25960,68007],[18,-84],[10,-29],[40,-47],[49,-57],[-10,-49],[-42,-35],[-60,-23],[-61,-18],[-42,31],[-22,32],[-37,59],[10,48],[49,20],[7,28],[-5,51],[-24,20],[-37,-17],[-57,-29],[-52,-30],[-52,-14],[-13,36],[5,42],[4,27],[25,40],[7,51],[-5,51],[30,55],[34,23],[61,8],[59,-21],[39,-46],[38,-53],[34,-70]],[[26100,64277],[-119,-11],[-59,21],[-102,65],[-83,47],[-42,83],[-9,89],[2,33],[47,44],[65,54],[63,36],[70,-6],[50,-7],[45,-34],[63,-42],[88,-30],[53,-64],[16,-53],[22,-104],[-29,-76],[-43,-29],[-98,-16]],[[25981,64041],[-1,-48],[-59,-39],[-64,-18],[-127,-23],[-104,-16],[-146,-1],[-43,-16],[-89,-34],[-42,-35],[-33,-58],[-55,-12],[-49,-14],[-50,-50],[-50,-65],[-69,-18],[-63,-24],[-55,-20],[-58,-3],[-42,38],[-27,82],[-2,39],[13,40],[17,22],[49,17],[25,16],[43,20],[40,28],[31,32],[24,43],[57,38],[54,24],[61,14],[53,-10],[62,-15],[74,27],[72,15],[140,6],[90,13],[42,35],[60,35],[82,-11],[83,-24],[56,-30]],[[29270,64217],[-32,-5],[-35,-2],[-1,0],[-72,-1],[-37,-2],[-25,-1],[-21,-2],[-30,-2],[-2,-1],[-22,-2],[-23,-5],[-22,-7],[-21,-14],[-20,-18],[-9,-9],[-30,-31],[-21,-20],[-24,-17],[-26,-15],[-27,-11],[-26,-8],[-25,-2],[-21,3],[-17,10],[-12,14],[-7,18],[0,19],[6,15],[9,14],[13,13],[18,13],[33,20],[7,4],[20,13],[19,16],[17,23],[14,28],[9,30],[6,32],[2,34],[-3,30],[-7,30],[-10,29],[-13,28],[-16,26],[-22,26],[-25,24],[-28,21],[-29,19],[-30,17],[-31,15],[-32,12],[-31,8],[-29,4],[-23,3],[-33,3],[-27,8],[-23,14],[-20,21],[-17,26],[-13,29],[-9,35],[-3,34],[2,31],[7,27],[10,19],[5,6],[13,9],[5,-4],[16,-7],[10,-4],[13,-4],[29,-9],[35,-7],[38,-5],[38,-2],[60,0],[19,1],[38,-2],[21,-2],[78,-6],[89,-2],[12,0],[33,-4],[33,-7],[32,-13],[30,-17],[30,-20],[29,-23],[27,-25],[27,-27],[24,-28],[23,-30],[20,-32],[15,-29],[7,-17],[7,-14],[39,-96],[28,-65],[13,-32],[8,-22],[3,-8],[9,-29],[4,-27],[-1,-24],[-7,-20],[-12,-15],[-22,-13],[-28,-8]],[[28972,63270],[17,-24],[11,-22],[5,-19],[-4,-16],[-11,-11],[-13,-5],[-16,0],[-16,3],[-24,9],[-7,4],[-18,9],[-26,12],[-29,11],[-29,9],[-29,6],[-28,2],[-27,-4],[-16,-6],[-14,-9],[-20,-19],[-16,-24],[-22,-38],[-9,-17],[-16,-27],[-20,-27],[-22,-24],[-26,-18],[-28,-10],[-31,-5],[-25,-1],[-8,0],[-34,1],[-33,2],[-34,4],[-4,1],[-28,6],[-32,10],[-29,13],[-28,20],[-26,25],[-23,28],[-9,12],[-12,18],[-20,31],[-19,33],[-16,33],[-14,32],[-2,5],[-9,27],[-7,30],[-2,28],[6,26],[5,15],[15,43],[8,38],[3,15],[14,73],[10,44],[12,43],[11,37],[18,56],[6,-2],[18,-7],[64,-19],[87,-25],[48,-12],[46,-11],[45,-9],[40,-5],[44,-4],[26,-4],[27,-7],[25,-9],[25,-11],[27,-17],[25,-20],[25,-22],[23,-25],[22,-26],[20,-27],[19,-28],[1,-1],[54,-87],[18,-27],[21,-30],[40,-53]],[[26807,61739],[-31,-2],[-7,0],[-31,1],[-41,5],[-42,13],[-38,22],[-34,29],[-29,34],[-23,37],[-2,4],[-15,32],[-18,38],[-16,38],[-32,77],[-31,78],[-14,39],[-6,20],[-7,20],[-12,39],[-10,39],[-8,39],[-4,34],[0,5],[-7,64],[-6,34],[-13,68],[0,2],[-5,31],[-4,33],[0,33],[5,36],[6,28],[2,7],[9,36],[8,36],[6,36],[12,101],[1,9],[6,34],[10,32],[14,28],[18,23],[23,20],[15,10],[63,45],[26,21],[23,24],[47,57],[16,19],[22,22],[25,19],[29,15],[33,10],[34,6],[35,3],[35,1],[34,-2],[32,-5],[30,-9],[26,-12],[20,-18],[13,-24],[8,-30],[3,-33],[1,-35],[0,-1],[-2,-77],[0,-39],[2,-39],[5,-38],[9,-36],[11,-35],[23,-64],[1,-3],[10,-33],[6,-32],[0,-31],[-6,-29],[-12,-28],[-17,-27],[-18,-28],[-12,-15],[-51,-69],[-19,-29],[-17,-32],[-15,-35],[-11,-37],[-9,-38],[-7,-40],[-6,-40],[-2,-17],[-7,-64],[-4,-41],[-7,-99],[-20,-315],[-8,-2],[-21,-3]],[[28917,65200],[-36,-4],[-35,1],[-34,6],[-32,10],[-31,14],[-28,18],[-25,23],[-21,27],[-17,30],[-12,30],[-6,30],[2,29],[9,26],[15,25],[19,23],[40,47],[19,24],[15,23],[1,1],[9,25],[3,29],[-6,28],[-13,28],[-17,23],[-21,22],[-24,20],[-28,21],[-79,60],[-45,36],[-29,21],[-88,61],[-28,21],[-25,22],[-20,23],[-16,26],[-9,31],[-2,33],[3,35],[8,35],[11,34],[15,33],[19,30],[23,26],[28,20],[33,16],[35,13],[16,5],[21,6],[108,29],[6,1],[27,7],[39,7],[39,6],[40,4],[120,9],[1,0],[38,4],[39,5],[38,6],[38,9],[35,12],[29,14],[28,16],[26,19],[25,22],[22,23],[24,29],[21,31],[21,32],[18,29],[41,69],[21,31],[23,29],[25,25],[29,24],[33,19],[34,16],[36,13],[37,10],[37,7],[37,3],[37,-3],[34,-9],[36,-17],[38,-24],[38,-29],[37,-32],[34,-34],[32,-35],[0,-1],[62,-81],[-39,-200],[-21,-107],[-21,-97],[-20,-80],[-11,-40],[-12,-36],[-1,-3],[-38,-116],[-12,-38],[-11,-37],[-17,-71],[-2,-6],[-8,-27],[-13,-31],[-16,-27],[-23,-24],[-28,-20],[-31,-17],[-33,-14],[-36,-12],[-36,-11],[-61,-13],[-50,-12],[-36,-10],[-33,-13],[-29,-17],[-26,-23],[-22,-27],[-21,-31],[-14,-23],[-26,-41],[-23,-32],[-20,-25],[-22,-24],[-24,-23],[-25,-22],[-26,-20],[-33,-21],[-35,-19],[-35,-17],[-36,-15],[-37,-11],[-37,-8]],[[33239,63802],[-31,-311],[-113,71],[-159,2],[-1,-1],[4,-60],[111,-202],[-73,-73],[-5,-22],[-137,-215],[-44,-104],[-7,-7],[-111,-137],[-248,393],[-47,39],[-66,46],[-64,28],[-47,15]],[[32201,63264],[-12,63],[-41,146],[-265,-99],[-65,-67],[-19,-71],[2,-13],[-49,-58],[-7,-18],[-50,-46],[-43,-68],[-6,-2],[-28,-14],[-44,-55],[-28,-73],[-4,-20],[-5,-53],[0,-11],[-31,-31],[-11,-15],[-27,-14],[-98,-73],[0,-2],[-46,-35],[-287,-154],[-59,-28],[-8,-3],[-5,0],[-28,5],[-88,-210],[17,-295],[-35,-70],[-6,-17],[186,-382],[15,-47],[-90,-95],[-50,-43],[-70,-50],[-56,-33],[-15,2],[-186,-111],[-8,-7],[-126,-47],[-121,-142],[-61,-262],[-247,335],[-266,-753]],[[29730,60228],[-341,-687],[-312,-37],[10,574],[-787,17]],[[28300,60095],[163,952],[176,437],[-15,130],[-259,2],[-36,14],[-24,12],[-61,40],[-64,43],[-288,-34]],[[27892,61691],[17,10],[526,298],[71,39],[35,18],[35,18],[36,16],[36,14],[36,11],[36,7],[33,2],[33,-1],[33,-5],[32,-8],[31,-11],[30,-14],[29,-19],[36,-28],[47,-37],[30,-19],[30,-16],[31,-14],[32,-11],[31,-6],[32,-1],[35,5],[34,11],[34,15],[26,14],[9,5],[34,20],[34,22],[67,47],[67,48],[33,25],[32,26],[32,26],[9,8],[21,19],[29,28],[26,29],[23,32],[19,35],[17,36],[14,39],[12,39],[16,53],[19,66],[13,39],[15,37],[17,35],[21,33],[25,27],[28,26],[30,23],[33,21],[33,21],[35,19],[105,59],[34,19],[34,21],[32,21],[31,23],[27,25],[25,28],[20,31],[18,34],[45,106],[17,35],[20,32],[23,29],[27,27],[29,25],[31,25],[71,52],[26,19],[32,24],[31,26],[29,27],[27,29],[24,30],[23,32],[22,32],[19,33],[17,34],[14,34],[10,34],[4,34],[-1,29],[-5,28],[-9,27],[-11,26],[-12,21],[-15,20],[-22,24],[-26,20],[-27,16],[-29,11],[-30,4],[-30,-2],[-30,-8],[-32,-12],[-18,-8],[-48,-21],[-36,-13],[-36,-10],[-37,-8],[-37,-5],[-37,-3],[-36,0],[-34,5],[-32,10],[-28,16],[-27,21],[-24,24],[-22,28],[-20,29],[-19,31],[-16,31],[-12,28],[-13,30],[-16,33],[-18,31],[-19,30],[-20,28],[-22,29],[-12,15],[-14,23],[-14,31],[-11,34],[-9,35],[-15,73],[-9,36],[-12,35],[-15,33],[-1,1],[-19,29],[-24,28],[-27,26],[-29,24],[-31,22],[-33,21],[-33,19],[-35,17],[-35,14],[-37,12],[-9,2],[-97,25],[-32,11],[-29,14],[-24,18],[-19,25],[-13,31],[-8,33],[-4,35],[-1,36],[4,36],[8,34],[14,32],[18,25],[23,22],[27,20],[29,17],[30,15],[33,12],[33,9],[34,6],[34,2],[34,-1],[35,-3],[23,-2],[46,-5],[35,-3],[35,0],[35,2],[35,6],[34,8],[34,10],[32,13],[31,15],[30,19],[29,21],[29,22],[26,20],[28,19],[29,16],[30,11],[32,6],[34,1],[35,-2],[57,-7],[53,-7],[38,-4],[37,-1],[38,1],[38,3],[36,6],[36,7],[35,10],[32,14],[30,18],[25,21],[22,25],[21,28],[18,26],[2,3],[58,93],[20,31],[24,33],[24,33],[76,96],[2,3],[23,30],[23,33],[23,34],[20,34],[18,36],[16,36],[15,37],[14,38],[12,38],[9,37],[7,36],[9,54],[3,17],[7,33],[9,32],[13,28],[19,25],[23,21],[26,17],[29,14],[31,10],[32,5],[33,-1],[35,-6],[35,-8],[18,-6],[18,-5],[109,-37],[37,-12],[37,-10],[38,-9],[38,-8],[113,-20],[16,-3],[20,-5],[36,-9],[35,-11],[29,-13],[27,-15],[25,-17],[23,-19],[19,-22],[16,-27],[12,-29],[8,-30],[5,-31],[1,-31],[-2,-31],[-8,-31],[-11,-37],[-7,-23],[-7,-30],[-2,-28],[5,-30],[12,-29],[17,-29],[21,-29],[22,-25],[17,-18],[10,-10],[27,-24],[29,-20],[30,-17],[30,-11],[27,-3],[26,1],[26,5],[25,10],[20,10],[17,14],[22,24],[18,30],[5,11],[9,19],[1,2],[9,25],[3,10],[11,35],[9,39],[17,70],[10,34],[12,32],[14,30],[19,25],[22,18],[25,15],[29,11],[30,9],[32,6],[33,4],[33,2],[64,0],[11,0],[37,2],[34,4],[33,8],[31,12],[30,15],[26,19],[24,21],[20,24],[18,26],[13,26],[7,27],[2,27],[-8,30],[-16,29],[-21,29],[-25,29],[-28,28],[-30,28],[-27,25],[-4,4],[-94,84],[-31,29],[-29,29],[-27,30],[-24,31],[-20,31],[-13,34],[-6,31],[-1,33],[4,34],[6,34],[10,33],[12,33],[15,32],[17,30],[21,27],[24,24],[27,21],[29,18],[31,15],[32,14],[33,10],[34,8],[34,3],[37,-1],[38,-4],[38,-7],[60,-15],[92,-23],[39,-7],[38,-5],[33,-1]],[[33633,67321],[55,-28],[-35,-411],[-7,-76]],[[33646,66806],[97,-442],[-355,-54],[-212,-130],[-332,-64],[-111,-89],[-3,-58],[-2,-33],[-4,-23],[-2,-88],[-1,-96],[39,-92],[92,-111],[19,-170],[36,-29],[7,-63],[-1,-57],[-72,5],[0,-47],[0,-44],[-7,-72],[1,-174],[-46,-9],[-31,-33],[-44,-58],[-18,-101],[-63,-23],[-24,-79],[-19,-41],[1,-46],[55,-30],[7,-176],[-16,-47],[-3,-56],[8,-99],[56,-78],[1,0],[70,24],[12,-52],[-20,-84],[98,-85],[370,7],[10,-7]],[[36019,57464],[-2091,738],[-1009,1425],[-356,603]],[[32563,60230],[22,99],[26,197],[-84,613],[57,212],[44,55],[95,163],[67,30],[24,13],[22,16],[143,49],[71,144],[-1,14],[62,143],[9,6],[0,216],[16,58],[-3,21],[-141,101],[-43,24],[-15,6],[-37,26],[-44,28],[-76,39],[-64,24],[-6,25],[-37,122],[1,65],[-122,41],[-378,196],[-7,42],[14,205],[23,41]],[[33239,63802],[463,222],[694,-6],[835,-101]],[[35231,63917],[66,-49],[23,-34],[389,-214],[27,-292],[36,-177],[33,-124],[76,-71],[42,-35],[39,-31],[240,-93],[65,-27],[326,-308],[224,-962],[-575,-624],[-225,-541],[2,-2871]],[[33646,66806],[605,-378],[305,-267],[25,-14],[35,-3],[403,-8],[91,-47],[15,-226],[-184,-161],[-234,-222],[-168,-176],[-40,-143],[134,-252],[111,-101],[28,-125],[26,-42],[157,-242],[250,-308],[26,-174]],[[38522,79366],[488,-773],[1002,114],[39,-47],[317,-335],[662,-167],[132,21],[335,-179],[334,-84],[838,-163],[290,-145],[544,-271],[285,-141],[857,-427],[494,-221],[79,-25],[2418,-2744],[3283,541],[35,-33],[2755,-2996],[99,-138]],[[53808,71153],[483,-976],[495,-1051],[224,-124],[794,-1369],[790,-4480],[988,-1741],[160,-221],[-1899,-2766],[-607,-885],[-87,-127],[-149,-306]],[[55000,57107],[-733,-1954],[-3589,-632]],[[50678,54521],[-575,350]],[[50103,54871],[-2725,4493],[-90,61],[-1295,1082],[-232,86],[-131,-26],[-386,-573],[-1924,-1216],[-1128,-276],[-46,-77],[-408,-822],[-35,-51],[-12,-11],[-14,-29],[-266,-398],[-37,-43],[-19,-27],[-139,-153],[-771,-413],[-132,-140],[-442,-333],[-65,-101],[-407,-457],[-255,-106]],[[39144,55341],[-1346,-153],[-58,-3],[-1766,-237]],[[35974,54948],[1143,2133],[-1098,383]],[[33633,67321],[1,0],[35,1],[33,4],[32,7],[31,9],[29,13],[26,16],[20,19],[18,22],[13,25],[10,26],[6,33],[1,34],[-4,34],[-7,33],[-11,30],[-16,27],[-20,22],[-26,15],[-29,11],[-1,0],[-32,7],[-35,5],[-108,11],[-36,6],[-34,9],[-32,13],[-29,17],[-26,22],[-23,24],[-21,27],[-18,28],[-15,29],[-11,29],[-5,28],[1,28],[10,28],[18,26],[23,26],[27,25],[30,24],[32,24],[33,23],[68,47],[415,279],[69,43],[34,20],[35,19],[35,16],[36,12],[36,8],[36,1],[38,-3],[37,-6],[38,-9],[38,-11],[39,-13],[9,-3],[29,-10],[19,-7],[57,-22],[38,-16],[37,-16],[37,-17],[35,-18],[35,-20],[32,-22],[31,-23],[48,-40],[10,-9],[28,-20],[28,-16],[29,-9],[29,0],[30,9],[31,14],[30,18],[30,22],[30,25],[28,28],[24,29],[23,30],[3,3],[19,29],[21,32],[21,33],[19,34],[13,26],[5,8],[16,35],[15,35],[13,35],[10,36],[2,13],[4,26],[4,38],[6,114],[4,35],[7,32],[11,29],[16,25],[20,23],[21,22],[20,25],[18,29],[16,31],[31,69],[16,35],[19,34],[21,33],[23,32],[25,29],[27,27],[29,22],[33,18],[35,14],[38,11],[38,9],[11,3],[28,5],[81,13],[122,15],[90,11],[157,18],[81,10],[80,12],[38,7],[25,5],[13,3],[35,10],[33,12],[29,16],[24,21],[18,27],[13,32],[10,35],[7,36],[0,1],[14,79],[8,40],[10,40],[12,38],[15,38],[17,36],[18,37],[20,36],[19,36],[38,66],[3,6],[85,142],[127,212],[236,394],[18,30],[40,73],[18,35],[25,53],[52,114],[7,15],[15,37],[14,37],[13,38],[13,40],[10,34],[1,6],[21,81],[27,123],[17,82],[22,119],[21,119],[12,80],[9,62],[2,17],[4,40],[2,40],[1,41],[0,41],[-2,58],[-1,24],[-8,124],[-16,206],[-12,123],[-3,29],[-7,53],[-6,41],[-8,40],[-9,40],[-3,13],[-27,97],[-2,9],[-13,39],[-14,39],[-16,38],[-15,35],[-2,3],[-18,37],[-19,37],[-10,17],[-10,19],[-21,35],[-23,33],[-24,33],[-27,30],[-28,26],[-26,21],[-5,4],[-32,23],[-32,22],[-100,64],[-33,21],[-30,22],[-29,23],[-25,23],[-20,26],[-15,28],[-7,31],[-1,33],[4,36],[8,37],[10,37],[11,38],[13,39],[83,236],[26,79],[12,40],[11,40],[2,7],[8,33],[8,39],[6,39],[5,39],[5,39],[6,79],[2,39],[1,39],[0,40],[-1,42],[-3,42],[-3,42],[-9,93],[-7,76],[-3,42],[-2,42],[-1,42],[1,42],[3,40],[5,40],[6,40],[7,40],[16,80],[26,120],[83,359],[16,80],[8,40],[3,16],[4,24],[5,40],[4,40],[1,40],[-1,41],[-5,42],[-6,41],[-8,41],[-10,41],[-11,40],[-13,40],[-15,38],[-17,37],[-18,36],[-20,36],[-39,64],[-3,6],[-25,38],[-20,32],[-1,0],[-111,172],[-43,70],[-21,36],[-19,35],[-18,37],[-15,37],[-12,37],[-7,39],[-4,39],[-1,39],[1,39],[4,36],[7,34],[10,31],[13,25],[18,18],[23,9],[27,2],[31,-4],[33,-7],[34,-9],[36,-12],[36,-13],[112,-41],[76,-27],[15,-4],[22,-8],[38,-10],[38,-8],[37,-5],[35,-1],[34,2],[33,5],[33,8],[31,11],[30,15],[31,20],[29,25],[24,23],[4,4],[27,29],[26,30],[50,63],[74,99],[47,66],[44,65],[20,32],[21,33],[19,33],[2,3],[17,31],[17,34],[17,38],[15,39],[14,39],[4,13],[23,67],[49,161],[94,314],[21,76],[3,10],[16,66],[9,38],[7,38],[6,40],[4,40],[3,41],[1,10],[3,89],[2,0]],[[32563,60230],[-790,-69],[-481,204],[-131,-113],[117,-226],[-229,-28],[-317,-51],[-268,257],[-394,107],[-340,-83]],[[35974,54948],[999,-4660]],[[36973,50288],[-3741,1097],[-2310,1855],[-2395,1042],[-606,32],[-239,-312],[-278,-23],[-354,202],[-796,1182]],[[26254,55363],[-24,59],[-32,76],[-16,38],[-17,36],[-19,36],[-19,33],[-22,30],[-24,27],[-25,21],[-28,15],[-30,11],[-30,5],[-30,0],[-32,-3],[-32,-5],[-31,-7],[-31,-9],[-30,-9],[-30,-7],[-30,-4],[-33,0],[-31,5],[-31,9],[-28,12],[-26,15],[-22,18],[-17,23],[-10,27],[-4,31],[1,33],[6,34],[11,33],[15,32],[22,31],[25,28],[28,27],[31,26],[31,25],[131,100],[32,26],[32,26],[29,28],[28,29],[27,31],[104,124],[27,30],[28,29],[30,27],[32,26],[33,24],[33,24],[34,23],[70,43],[71,41],[70,37],[1,1],[34,20],[33,21],[29,24],[24,24],[21,26],[18,29],[16,29],[13,30],[10,31],[7,32],[2,31],[-2,29],[-6,28],[-4,19],[-10,40],[-6,30],[-6,38],[-3,39],[-2,39],[0,40],[1,41],[3,97],[1,26],[1,40],[-1,41],[-1,41],[-3,41],[-6,39],[-7,39],[-19,93],[-5,23],[-8,39],[-6,39],[-4,39],[-3,38],[0,39],[1,38],[2,39],[5,38],[7,37],[11,36],[13,35],[14,35],[2,4],[15,29],[18,33],[1,2],[18,29],[21,29],[22,27],[25,24],[27,20],[30,16],[32,11],[35,9],[35,7],[104,18],[33,8],[29,9],[26,13],[21,18],[16,25],[9,29],[5,34],[2,36],[-2,38],[-4,39],[-7,39],[-9,40],[-8,26],[-1,2],[-29,90],[-11,39],[-9,38],[-8,38],[-5,36],[-1,35],[4,31],[10,28],[8,11]],[[27120,59316],[188,-193],[4,1],[831,153],[157,818]],[[42459,52269],[-509,-600],[-315,-465],[-27,-56],[115,-1114],[31,-98],[264,-245],[347,-240],[572,-107],[588,-593],[249,-373],[120,-459],[-278,-781],[-543,-460],[-165,-254],[-629,-641],[-2139,-3249],[-779,-218]],[[39361,42316],[-180,155],[-769,1019],[-844,970],[-440,559],[-164,2806]],[[36964,47825],[9,2463]],[[39144,55341],[218,-423],[161,-137],[250,-120],[968,-371],[25,5],[113,-49],[567,-140],[136,-70],[2,-23],[21,-100],[-18,-103],[-214,-221],[-41,-398],[8,-14],[158,-201],[937,-682],[24,-25]],[[27120,59316],[8,11],[22,18],[25,17],[28,15],[61,31],[30,16],[30,18],[29,21],[27,22],[45,39],[36,32],[28,22],[29,21],[34,20],[36,18],[70,33],[1,1],[35,17],[33,18],[30,21],[26,24],[19,25],[14,28],[11,31],[7,31],[3,32],[-1,31],[0,1],[-6,29],[-10,28],[-14,25],[-17,23],[-20,17],[-23,13],[-25,11],[-28,6],[-33,2],[-34,-3],[-35,-5],[-36,-8],[-106,-25],[-35,-6],[-33,-4],[-33,1],[-30,6],[-29,13],[-27,18],[-26,24],[-24,26],[-23,29],[-22,31],[-21,32],[-20,34],[-18,34],[-16,36],[-13,36],[-9,35],[-7,37],[-4,36],[-3,38],[-1,37],[1,37],[3,37],[4,37],[7,39],[10,38],[10,38],[12,38],[26,74],[28,74],[30,73],[16,36],[17,34],[19,34],[20,32],[24,32],[26,31],[28,29],[11,11],[18,18],[60,56],[34,30],[58,51],[93,80],[64,51],[32,25],[33,24],[33,23],[34,21],[34,21],[52,31]],[[36964,47825],[-2447,111],[-356,380],[-227,88],[-2652,474],[-1537,-220],[-3216,-652],[-1038,190],[-146,-349]],[[25345,47847],[-1,14],[0,82],[3,82],[2,32],[3,49],[4,40],[13,114],[1,5],[3,39],[1,38],[-3,38],[-5,33],[-8,32],[-11,32],[-14,31],[-15,30],[-17,28],[-23,32],[-25,30],[-27,30],[-3,3],[-25,25],[-29,28],[-146,140],[-58,57],[-76,81],[-62,66],[-28,29],[-29,27],[-29,26],[-30,24],[-28,20],[-35,23],[-20,14],[-26,19],[-24,20],[-22,27],[-18,28],[-14,30],[-9,30],[-3,30],[4,28],[13,26],[21,24],[25,23],[29,22],[32,21],[11,6],[23,14],[35,20],[146,79],[71,40],[35,21],[33,22],[31,24],[28,25],[24,27],[19,30],[13,31],[9,32],[4,31],[-1,31],[-9,28],[-16,25],[-23,22],[-28,20],[-31,19],[-34,18],[-35,17],[-148,66],[-36,17],[-36,18],[-34,20],[-33,21],[-28,21],[-25,24],[-23,24],[-19,25],[-15,26],[-10,26],[-4,26],[5,27],[12,27],[16,27],[20,27],[19,24],[48,60],[21,30],[20,30],[18,36],[15,36],[11,36],[7,36],[3,35],[-3,32],[-9,30],[-16,23],[-21,20],[-26,19],[-28,17],[-31,16],[-2,2],[-61,31],[-32,18],[-33,20],[-32,21],[-30,22],[-27,23],[-24,25],[-18,26],[-13,28],[-4,29],[3,30],[8,30],[12,30],[18,28],[21,26],[26,23],[30,19],[32,18],[35,16],[35,15],[73,28],[37,13],[76,24],[75,23],[38,10],[38,8],[39,8],[36,6],[145,18],[36,6],[25,5],[10,2],[34,10],[37,15],[35,17],[32,18],[2,2],[33,21],[33,23],[32,24],[30,26],[14,13],[15,14],[26,28],[23,30],[16,27],[13,29],[11,29],[7,31],[2,25],[2,14],[-1,40],[-3,41],[-6,41],[-7,41],[-8,42],[-9,41],[-21,83],[-11,41],[-12,40],[-14,40],[-14,38],[-15,36],[-30,68],[-13,33],[-10,31],[-5,30],[2,29],[10,27],[17,25],[22,24],[26,24],[28,23],[5,5],[86,66],[29,25],[29,27],[27,28],[22,29],[21,31],[19,32],[17,33],[16,34],[14,35],[13,35],[11,36],[8,35],[6,38],[6,42],[4,33],[6,37],[9,35],[13,33],[16,33],[18,31],[20,32],[13,20],[48,74],[20,33],[19,35],[18,36],[16,37],[32,74],[35,84],[12,28],[16,37],[17,37],[17,36],[20,35],[20,32],[23,32],[24,29],[27,27],[26,23],[27,22],[50,37],[5,4],[27,21],[25,21],[22,23],[19,27],[15,29],[9,30],[3,34],[-3,36],[-7,36],[-10,37],[-12,38],[-14,38],[-15,38],[-30,76],[-96,232],[-85,212]],[[39361,42316],[3659,-3138],[-102,-2027],[-2781,117],[-3502,-3353]],[[19354,39065],[36,-11],[33,-11],[35,-15],[35,-17],[35,-19],[34,-20],[34,-21],[67,-43],[134,-88],[4,-3],[64,-40],[35,-20],[33,-17],[31,-15],[132,-56],[7,-2],[35,-12],[35,-9],[36,-7],[38,-5],[38,-2],[32,1],[6,0],[13,1],[24,3],[36,5],[34,9],[31,13],[28,17],[22,22],[18,26],[14,29],[10,33],[4,37],[-1,31],[-3,31],[-2,14],[-8,50],[-2,34],[0,33],[3,33],[7,31],[10,27],[15,25],[22,20],[28,16],[31,13],[34,11],[36,9],[151,32],[38,9],[37,11],[36,13],[1,0],[34,16],[33,20],[7,5],[25,18],[31,25],[60,51],[30,24],[31,22],[31,18],[33,14],[33,6],[33,2],[35,-1],[35,-4],[37,-6],[36,-7],[111,-22],[34,-6],[4,-1],[37,-5],[40,-4],[40,-3],[40,-1],[22,-1],[18,0],[80,0],[80,3],[39,3],[39,3],[1,0],[37,5],[38,7],[36,10],[35,13],[28,16],[27,18],[25,20],[24,23],[22,24],[21,25],[23,32],[31,47],[31,48],[22,28],[23,25],[25,19],[23,10],[25,8],[81,16],[35,10],[36,12],[35,15],[36,15],[109,50],[85,39],[33,17],[32,20],[31,21],[25,18],[6,5],[31,23],[61,49],[59,51],[58,52],[28,26],[4,4],[22,24],[25,28],[22,30],[19,32],[16,35],[12,37],[10,39],[8,40],[6,40],[4,24],[9,75],[25,200],[4,32],[8,40],[9,40],[11,38],[12,34],[15,32],[18,30],[20,28],[26,28],[29,25],[31,24],[33,21],[0,1],[34,21],[70,40],[215,117],[71,40],[34,21],[35,22],[33,22],[33,24],[31,25],[30,27],[29,27],[5,6],[52,51],[83,88],[54,61],[26,30],[17,20],[8,11],[25,32],[23,32],[21,34],[19,34],[17,35],[15,36],[11,27],[4,10],[27,75],[38,113],[37,114],[36,114],[3,9],[20,68],[18,71],[3,9],[20,81],[38,162],[28,121],[17,81],[7,40],[2,11],[5,30],[6,40],[3,41],[1,40],[-2,39],[-5,40],[-6,39],[-4,21],[-4,18],[-8,39],[-29,118],[-42,156],[-22,78],[-11,38],[-9,26],[-4,12],[-13,38],[-15,36],[-17,36],[-20,34],[-22,34],[-24,33],[-9,11],[-15,21],[-52,62],[-53,61],[-28,30],[-10,10],[-18,19],[-29,29],[-28,27],[-40,35],[-18,16],[-60,50],[-60,49],[-48,37],[-14,11],[-62,46],[-32,23],[-32,21],[-34,21],[-69,40],[-141,76],[-34,19],[-5,4],[-29,17],[-32,21],[-30,23],[-28,24],[-24,28],[-19,29],[-16,32],[-11,34],[-9,34],[-5,33],[-1,33],[4,31],[10,28],[18,25],[25,22],[29,18],[33,15],[35,13],[38,8],[37,6],[39,2],[152,2],[34,3],[32,5],[27,9],[21,15],[15,22],[10,28],[5,32],[2,35],[0,37],[-2,39],[-8,162],[-1,41],[0,42],[2,42],[4,42],[4,42],[22,168],[5,42],[4,41],[3,41],[1,41],[-2,40],[-4,39],[-7,38],[-9,35],[-11,33],[-14,28],[-14,26],[-11,24],[-5,25],[4,24],[10,25],[16,25],[19,26],[8,9],[15,17],[25,26],[26,26],[28,25],[7,6],[22,19],[31,23],[33,24],[34,22],[23,15],[11,7],[71,41],[144,80],[47,26],[277,151],[71,39],[34,21],[33,20],[27,18],[5,4],[30,22],[26,24],[22,26],[16,28],[9,30],[3,32],[0,34],[-3,35],[0,4],[-4,32],[-11,75],[-5,38],[-4,40],[-1,21],[-1,20],[-2,41],[0,27]],[[54013,47369],[-3335,7152]],[[55000,57107],[2371,-418],[5531,837]],[[62902,57526],[1990,-640],[2357,-1065],[2705,-1627],[1865,-1247],[1987,-1023]],[[73806,51924],[33,-1804],[124,-2652],[1146,-1450],[-7112,-4032]],[[50103,54871],[-2322,-2930],[-225,-120],[-1099,573],[-449,378],[-36,24],[-47,38],[-853,79],[-1868,-545],[-376,76],[-369,-175]],[[51928,93889],[214,-306],[1297,-872],[209,-706],[53,-877],[-50,-572],[-392,-751],[-242,-867],[91,-221],[794,-1411],[10,-9],[819,-443],[215,-142],[1922,-381],[255,-106],[2317,-867],[2539,748]],[[61979,86106],[790,-2427],[-610,-4246],[-999,-1653],[-2692,-720],[-1010,-657],[-3330,-4871],[-320,-379]],[[38522,79366],[6,145],[2,82],[1,81],[0,32],[-1,50],[-2,40],[-3,41],[-5,41],[-7,42],[-8,41],[-1,8],[-16,75],[-20,82],[-11,41],[-24,81],[-13,40],[-23,64],[-5,15],[-44,118],[-152,394],[-51,128],[-11,28],[-33,78],[-17,38],[-18,38],[-35,71],[-2,3],[-58,110],[-138,257],[-60,109],[-42,70],[-2,3],[-20,31],[-23,33],[-25,31],[-27,28],[-31,25],[-32,23],[-27,16],[-8,5],[-35,19],[-36,19],[-75,35],[-75,34],[-228,101],[-113,52],[-74,36],[-36,19],[-36,20],[-35,22],[-34,24],[-33,26],[-32,26],[-32,27],[-31,28],[-62,57],[-91,86],[-29,29],[-27,30],[-27,29],[-24,30],[-20,30],[-17,32],[-10,32],[-2,33],[2,34],[10,71],[4,36],[0,38],[-2,38],[-5,39],[-7,39],[-8,39],[-9,39],[-30,119],[-32,119],[-34,122],[-1,2],[-43,154],[-46,158],[-24,79],[-25,78],[-27,77],[-37,98],[-11,33],[-10,33],[-6,33],[-3,39],[0,39],[3,40],[6,39],[7,40],[10,39],[11,38],[14,38],[16,36],[18,32],[21,30],[23,28],[26,26],[27,24],[29,21],[33,19],[35,17],[37,14],[22,7],[15,5],[77,23],[78,20],[234,58],[77,21],[39,11],[37,12],[38,13],[36,14],[36,16],[33,19],[33,20],[32,21],[31,23],[17,12],[108,80],[32,22],[34,23],[69,45],[70,43],[114,67],[28,17],[570,332],[462,272],[71,40],[29,16],[7,4],[35,18],[35,18],[36,15],[35,13],[34,10],[35,6],[28,0],[57,-2],[29,0],[33,5],[34,8],[34,12],[34,13],[70,30],[325,149],[72,34],[35,18],[35,18],[34,20],[7,4],[26,17],[32,23],[29,24],[29,27],[27,28],[26,29],[74,85],[29,34],[53,58],[27,28],[28,26],[29,25],[32,22],[33,20],[34,19],[35,18],[3,2],[68,31],[72,32],[73,31],[74,30],[41,15],[32,13],[38,13],[37,11],[39,12],[40,10],[63,14],[16,3],[120,24],[562,107],[442,87],[80,14],[40,7],[13,1],[27,4],[41,4],[40,3],[40,0],[39,-3],[39,-5],[36,-6],[3,-1],[39,-8],[39,-9],[40,-10],[78,-21],[77,-23],[38,-12],[38,-13],[15,-6],[22,-8],[37,-17],[34,-18],[34,-22],[31,-24],[30,-26],[28,-28],[27,-30],[24,-31],[21,-32],[17,-35],[12,-35],[9,-37],[6,-39],[4,-39],[3,-40],[9,-159],[3,-38],[5,-38],[7,-37],[10,-35],[13,-32],[17,-30],[20,-28],[20,-27],[19,-26],[15,-27],[10,-27],[2,-31],[-5,-33],[-9,-31],[-1,-3],[-13,-34],[-17,-36],[-18,-36],[-19,-36],[-21,-36],[-42,-72],[-45,-72],[-23,-35],[-24,-35],[-65,-89],[-21,-31],[-22,-35],[-3,-6],[-17,-31],[-19,-37],[-18,-38],[-34,-77],[-16,-38],[-15,-39],[-14,-40],[-13,-39],[-11,-40],[-7,-40],[-5,-41],[-2,-40],[0,-41],[1,-41],[2,-42],[9,-124],[53,-583],[22,-250],[9,-125],[1,-41],[1,-42],[0,-41],[-2,-42],[-4,-38],[-5,-39],[-7,-39],[-7,-38],[-9,-38],[-9,-38],[-10,-37],[-12,-37],[-12,-37],[-24,-68],[-4,-11],[-8,-22],[-9,-32],[-6,-32],[-1,-32],[5,-33],[11,-32],[15,-31],[18,-32],[5,-8],[15,-23],[21,-32],[47,-62],[48,-63],[51,-61],[47,-56],[4,-5],[1,0],[26,-30],[56,-59],[56,-57],[56,-56],[28,-26],[29,-26],[28,-23],[29,-21],[29,-18],[28,-14],[30,-8],[28,-1],[28,4],[56,10],[27,3],[27,-3],[27,-11],[27,-17],[26,-23],[26,-26],[78,-86],[27,-27],[28,-25],[29,-20],[31,-14],[30,-7],[32,0],[32,4],[32,8],[31,11],[29,14],[27,17],[23,20],[18,23],[11,26],[6,29],[2,30],[-1,33],[-5,33],[-7,33],[-10,34],[-13,37],[-17,37],[-17,36],[-56,106],[-17,35],[-15,35],[-11,34],[-7,33],[-1,33],[7,32],[13,32],[18,32],[21,31],[24,31],[102,126],[25,32],[23,34],[22,35],[19,36],[19,37],[35,75],[16,38],[31,76],[29,78],[14,39],[4,14],[8,25],[9,32],[3,8],[20,81],[18,82],[144,696],[16,82],[7,41],[7,41],[5,41],[4,41],[2,41],[-1,41],[-3,41],[-4,42],[-12,82],[-15,82],[-23,124],[-27,123],[-20,81],[-2,7],[-10,33],[-12,40],[-14,39],[-42,117],[-14,39],[-3,10],[-8,28],[-10,38],[-7,37],[-3,36],[3,35],[10,34],[15,33],[20,32],[22,32],[25,31],[32,39],[45,54],[26,31],[24,32],[22,33],[19,34],[15,35],[9,36],[6,38],[2,39],[0,39],[-1,35],[-10,99],[-3,27],[-7,40],[-8,40],[-3,12],[-6,30],[-11,41],[-47,163],[-11,41],[-10,40],[-8,41],[-6,41],[-3,40],[0,41],[4,41],[6,41],[7,40],[8,41],[48,205],[18,82],[8,40],[6,41],[4,40],[2,39],[-1,39],[-4,31],[-16,89],[-3,38],[-1,37],[2,36],[6,34],[11,31],[15,27],[17,18],[21,15],[46,30],[23,16],[25,23],[24,25],[22,28],[23,30],[67,92],[24,30],[26,29],[26,27],[29,26],[29,25],[31,24],[124,92],[10,8],[20,16],[30,24],[29,25],[28,26],[25,28],[25,32],[9,13],[14,21],[20,35],[19,37],[18,37],[16,39],[15,39],[13,39],[10,41],[9,41],[7,41],[5,42],[5,42],[3,42],[1,14],[1,28],[1,42],[0,42],[-2,127],[0,41],[1,41],[3,39],[5,39],[7,36],[12,35],[16,30],[38,57],[17,28],[13,29],[7,32],[1,1],[1,35],[-2,35],[-7,36],[-11,35],[-15,33],[-19,30],[-24,28],[-26,25],[-28,25],[-27,25],[-25,27],[-19,29],[-15,31],[-11,32],[-7,33],[-3,31],[3,29],[10,27],[18,23],[24,19],[29,19],[64,35],[32,19],[26,18],[24,20],[22,22],[20,23],[17,25],[12,26],[9,28],[6,29],[1,5],[2,24],[-2,36],[-5,37],[-8,37],[-9,37],[-12,42],[-32,109],[-9,38],[-8,38],[-5,38],[-2,40],[1,40],[3,40],[5,40],[6,37],[0,3],[7,40],[15,71],[1,9],[10,40],[10,39],[12,40],[17,52],[9,27],[42,117],[87,233],[29,78],[29,73],[1,4],[33,77],[17,37],[11,24],[25,51],[38,74],[39,74],[40,73],[22,36],[3,5],[19,29],[23,34],[25,33],[28,31],[30,29],[14,13],[17,15],[32,25],[16,12],[17,12],[34,22],[35,18],[35,14],[35,10],[34,5],[33,2],[30,-5],[27,-11],[21,-20],[18,-27],[15,-32],[13,-35],[11,-38],[14,-52],[18,-66],[12,-39],[13,-38],[15,-35],[18,-33],[22,-28],[23,-21],[26,-17],[29,-15],[9,-4],[22,-10],[32,-12],[101,-39],[35,-11],[35,-11],[34,-8],[35,-5],[33,0],[10,1],[23,2],[5,1],[29,7],[31,11],[29,16],[24,22],[17,25],[14,30],[10,33],[7,35],[5,36],[4,37],[1,38],[1,112],[3,35],[6,33],[10,31],[18,27],[23,25],[27,22],[30,20],[32,19],[34,17],[35,16],[36,15],[37,12],[35,10],[34,9],[105,26],[40,11],[40,12],[39,12],[78,27],[233,83],[78,25],[39,11],[40,10],[39,9],[40,7],[104,17],[16,3],[40,7],[39,8],[39,10],[38,12],[37,15],[37,17],[35,20],[36,21],[34,21],[34,23],[33,24],[33,24],[38,30],[19,15],[28,21],[30,19],[35,19],[37,16],[38,14],[39,13],[10,3],[29,8],[40,11],[80,20],[81,17],[41,8],[5,1],[35,5],[41,5],[41,3],[39,1],[40,-1],[40,-2],[25,-2],[54,-5],[119,-15],[198,-27],[42,-6],[77,-12],[78,-14],[39,-7],[77,-16],[116,-23],[15,-3],[101,-22],[77,-18],[77,-19],[38,-10],[119,-36],[23,-7],[36,-10],[35,-8],[36,-7],[39,-4],[40,-3],[40,0],[39,1],[1,0],[102,7],[17,2],[40,5],[40,6],[39,8],[39,9],[8,2],[32,7],[78,21],[29,8]],[[65857,85638],[-2056,249],[-1822,219]],[[51928,93889],[166,47],[156,46],[77,25],[37,14],[38,15],[36,17],[33,18],[33,20],[32,21],[31,22],[31,23],[30,24],[30,24],[28,26],[28,26],[26,28],[24,29],[23,32],[21,35],[18,35],[17,36],[15,38],[13,37],[11,38],[8,38],[4,33],[7,65],[5,31],[8,30],[13,30],[16,29],[20,27],[22,26],[24,24],[26,23],[28,20],[29,17],[30,14],[33,10],[35,8],[35,5],[70,9],[34,6],[33,8],[30,13],[29,19],[27,23],[25,26],[24,29],[23,31],[22,32],[42,67],[63,103],[59,105],[38,72],[18,36],[17,36],[46,105],[16,34],[18,31],[21,29],[24,26],[27,22],[30,21],[31,18],[32,17],[33,16],[34,14],[35,12],[35,11],[36,7],[38,5],[39,1],[38,0],[39,-3],[39,-4],[39,-6],[38,-8],[38,-9],[38,-13],[38,-14],[38,-16],[74,-34],[111,-54],[256,-130],[147,-73],[110,-53],[75,-33],[38,-15],[38,-13],[38,-13],[39,-12],[77,-23],[79,-20],[78,-19],[40,-8],[39,-8],[40,-6],[40,-4],[40,-4],[40,-2],[80,-2],[81,-1],[322,-2],[404,-4],[80,1],[40,1],[40,2],[40,4],[39,5],[26,4],[25,6],[39,10],[39,12],[38,14],[75,31],[76,32],[187,83],[75,30],[38,15],[22,7],[15,6],[38,10],[38,9],[39,5],[35,1],[36,-2],[35,-4],[73,-12],[71,-11],[36,-4],[36,-2],[35,1],[35,3],[35,7],[34,8],[48,12],[56,15],[35,8],[35,6],[39,4],[15,0],[23,1],[39,-2],[39,-3],[33,-6],[33,-7],[33,-8],[32,-11],[7,-3],[24,-10],[29,-15],[33,-21],[30,-25],[30,-27],[27,-29],[26,-30],[25,-31],[47,-64],[23,-32],[25,-29],[27,-25],[28,-23],[30,-22],[31,-20],[33,-19],[33,-18],[33,-17],[34,-17],[35,-15],[35,-14],[11,-3],[24,-9],[37,-10],[37,-8],[6,-1],[31,-6],[38,-5],[28,-3],[9,-1],[37,-1],[37,1],[36,3],[35,8],[33,11],[32,15],[18,10],[13,7],[31,19],[29,21],[29,22],[87,70],[30,21],[33,17],[34,15],[8,2],[27,8],[36,8],[37,3],[34,0],[24,-3],[11,-1],[34,-7],[34,-10],[34,-11],[34,-15],[3,-1],[37,-19],[36,-20],[36,-21],[108,-65],[36,-21],[37,-20],[37,-18],[37,-17],[38,-13],[38,-11],[39,-10],[78,-17],[22,-5],[18,-3],[80,-14],[79,-11],[40,-5],[40,-4],[40,-2],[39,-1],[39,3],[38,5],[38,8],[37,10],[38,12],[37,13],[36,14],[37,15],[35,17],[35,18],[35,20],[35,22],[34,22],[33,23],[67,48],[131,98],[98,74],[65,50],[63,52],[31,27],[61,55],[149,140],[60,55],[30,26],[31,26],[31,25],[33,23],[33,21],[34,17],[37,14],[38,10],[40,9],[40,6],[153,21],[8,1],[39,7],[37,8],[36,10],[33,15],[28,19],[24,24],[20,29],[17,32],[13,32],[2,3],[13,37],[12,38],[12,39],[21,79],[9,40],[7,33],[1,8],[4,17],[4,23],[7,41],[12,82],[11,83],[9,82],[5,51],[2,31],[2,41],[1,41],[-1,42],[-3,43],[-2,24],[-1,18],[-5,42],[-10,84],[-12,84],[-13,83],[-8,42],[0,3],[-8,38],[-10,40],[-11,40],[-14,39],[-17,36],[-18,36],[-20,35],[-40,64],[-46,74],[-20,35],[-19,35],[-17,37],[-14,37],[-12,39],[-11,39],[-9,39],[-7,35],[-10,46],[-38,202],[-17,81],[-10,39],[-10,39],[-11,38],[-12,38],[-17,48],[-6,15],[-9,31],[-6,32],[-1,33],[3,33],[8,32],[10,32],[13,31],[16,29],[17,25],[21,21],[24,16],[28,10],[32,3],[35,-2],[35,-4],[37,-7],[14,-3],[24,-6],[155,-39],[39,-9],[39,-7],[39,-6],[39,-4],[38,0],[38,1],[38,4],[34,4],[4,1],[38,5],[76,14],[113,23],[74,18],[122,29],[71,18],[45,12],[77,21],[57,19],[266,93],[15,6],[74,30],[37,16],[36,17],[36,18],[35,19],[32,17],[39,22],[141,80],[340,196],[10,6],[105,61],[70,42],[68,43],[34,22],[33,23],[31,22],[91,69],[30,22],[1,1],[30,20],[31,19],[32,18],[33,13],[25,8],[26,6],[27,4],[34,4],[34,1],[35,0],[35,-3],[34,-4],[35,-6],[31,-7],[31,-9],[30,-11],[30,-12],[37,-18],[35,-18],[1,0],[72,-41],[107,-64],[226,-141],[55,-34],[71,-42],[22,-13],[49,-29],[36,-19],[36,-19],[37,-18],[38,-15],[38,-15],[74,-25],[25,-8],[8,-156],[37,-769],[515,-1515],[400,-242],[1911,-2519],[602,-2472],[-122,-541],[-125,-449],[-1226,-1058],[-623,-339],[-1714,-2238],[-613,-789],[-10,-5],[-724,-698]],[[65857,85638],[1972,-5723],[36,-221],[2,-741],[5215,-1219],[2116,-1056],[-384,-3353],[-285,-2491]],[[74529,70834],[-879,-300],[-1621,-268],[-1414,87],[-1293,-3012],[-519,-396],[-1188,-610],[-1174,692],[-835,-564],[-53,-41],[-434,-154],[392,-305],[-75,-288],[-44,0],[-219,-223],[505,-647],[515,-26],[-90,-754],[-92,-531],[-1021,-3607],[-2088,-2361]],[[74529,70834],[1978,-1075],[420,-474]],[[76927,69285],[2585,-6194],[2080,-2260],[1733,-2029],[0,-34],[-198,-446],[-2262,-2010],[-942,-741],[-13,0],[-368,-320],[-820,-1548],[-137,-20],[-230,127],[-482,506],[-260,-142],[-102,-126],[-495,-10],[-75,-55],[-543,-259],[-66,-173],[-241,-536],[-2285,-1091]],[[93707,33012],[-505,3439],[-3236,4337],[-2598,3439],[-528,407],[-1722,1224],[-2075,491],[-2461,-1028],[-2145,-3033],[-917,-3973],[-650,-3098]],[[76927,69285],[7080,-3518],[5707,-4101],[748,-268],[1221,-98],[4543,859],[1811,-1747],[1643,-4259],[215,-861],[104,-417],[-88,-114],[-221,-32]],[[99690,54729],[-348,311],[57,178],[-48,103],[-334,-93],[-383,129],[-226,395],[-83,154],[-188,-15],[-221,207],[0,120],[-194,-46],[-1214,404],[-1181,280],[-578,-393],[-971,-777],[-605,-110],[-274,-528],[-25,-249],[-59,-227],[7,-19],[-181,-306],[-240,-208],[-195,-65],[-179,-111],[-147,-13],[-56,85],[-85,309],[-492,-254],[-298,-287],[327,-748],[755,-339],[847,-76],[334,-259],[490,-1627]],[[93702,50654],[-765,-1592],[177,-595],[250,-840],[3337,-5256],[542,-1084],[85,-255],[183,-759],[-1113,-2079],[-850,-1635],[-1841,-3547]],[[99690,54729],[-1199,-357],[-1027,-797],[-3241,-2516],[-521,-405]],[[93707,33012],[1016,-3915],[-603,-5653]]],"bbox":[23.993521719787704,64.27970915157884,25.51715002161071,64.91310464045897],"transform":{"scale":[0.000015236435382583887,0.000006334018228983548],"translate":[23.993521719787704,64.27970915157884]},"propertiesColumnar":{"format":"columnar/1","keys":["id","postinumeroalue","nimi","namn","euref_x","euref_y","pinta_ala","vuosi","kunta","he_vakiy","he_naiset","he_miehet","he_kika","he_0_2","he_3_6","he_7_12","he_13_15","he_16_17","he_18_19","he_20_24","he_25_29","he_30_34","he_35_39","he_40_44","he_45_49","he_50_54","he_55_59","he_60_64","he_65_69","he_70_74","he_75_79","he_80_84","he_85_","ko_ika18y","ko_perus","ko_koul","ko_yliop","ko_ammat","ko_al_kork","ko_yl_kork","hr_tuy","hr_ktu","hr_mtu","hr_pi_tul","hr_ke_tul","hr_hy_tul","hr_ovy","te_taly","te_takk","te_as_valj","te_yks","te_nuor","te_eil_np","te_laps","te_plap","te_aklap","te_klap","te_teini","te_yhlap","te_aik","te_elak","te_omis_as","te_vuok_as","te_muu_as","tr_kuty","tr_ktu","tr_mtu","tr_pi_tul","tr_ke_tul","tr_hy_tul","tr_ovy","ra_ke","ra_raky","ra_muut","ra_asrak","ra_asunn","ra_as_kpa","ra_pt_as","ra_kt_as","ra_muu_as","tp_tyopy","tp_alku_a","tp_jalo_bf","tp_palv_gu","tp_a_maat","tp_b_kaiv","tp_c_teol","tp_d_ener","tp_e_vesi","tp_f_rake","tp_g_kaup","tp_h_kulj","tp_i_majo","tp_j_info","tp_k_raho","tp_l_kiin","tp_m_erik","tp_n_hall","tp_o_julk","tp_p_koul","tp_q_terv","tp_r_taid","tp_s_muup","tp_t_koti","tp_u_kans","tp_x_tunt","pt_vakiy","pt_tyoll","pt_tyott","pt_0_14","pt_opisk","pt_elakel","pt_muut","city","pno","unemployment_rate","higher_education_rate","pensioner_share","ownership_rate","rental_rate","population_density","child_ratio","student_share","detached_house_share","youth_ratio_pct","gender_ratio","single_parent_hh_pct","families_with_children_pct","tech_sector_pct","healthcare_workers_pct","employment_rate","elderly_ratio_pct","avg_household_size","manufacturing_jobs_pct","public_sector_jobs_pct","service_sector_jobs_pct","new_construction_pct","foreign_language_pct","crime_index","property_price_sqm","transit_stop_density","air_quality_index","daycare_density","school_density","healthcare_density","restaurant_density","grocery_density","cycling_density","single_person_hh_pct","rental_price_sqm","price_to_rent_ratio","walkability_index","traffic_accident_rate","property_price_change_pct","school_quality_score","light_pollution","noise_pollution","voter_turnout_pct","party_diversity_index","broadband_coverage_pct","ev_charging_density","tree_canopy_pct","transit_reachability_score","sports_facility_density","water_proximity_m","avg_construction_year","income_history","population_history","unemployment_history","income_change_pct","population_change_pct","unemployment_change_pct","schools","crime_index_history","crime_index_change_pct","health_index","radon","municipality","lon","lat","flood_risk_pct","population_projection_pct","construction_activity","active_plan_count","political_lean_index","party_vote_kok_pct","party_vote_sdp_pct","party_vote_ps_pct","party_vote_kesk_pct","party_vote_vihr_pct","party_vote_vas_pct","party_vote_rkp_pct","foreign_language_municipal_pct","foreign_language_history","foreign_language_est_pct","low_income_pct","job_self_sufficiency","violent_crime_rate","property_crime_rate","grocery_count","healthcare_count","school_count","daycare_count","restaurant_count","property_price_history"],"cols":[[2496,2497,2494,2508,2495,2504,2505,2506,2507,2674,2675,2676,2677,2678,2679,2683,2680,2681,2682,2693,2684,2685,2686,2687,2688,2689,2690,2691,2692],["86160","86170","86100","86470","86110","86360","86400","86440","86460","92100","92120","92130","92140","92150","92160","92230","92180","92210","92220","92470","92240","92260","92320","92330","92350","92400","92430","92440","92450"],["Pirttikoski","Yppäri","Pyhäjoki Keskus","Lumimetsä","Parhalahti","Ilveskorpi","Vihanti Keskus","Lampinsaari","Alpua","Raahe Keskus","Ollinsaari - Mestauskallio","Isoholmi - Antinkangas","Pattijoki Keskus","Kummatti - Junnilanmäki","Saloinen","Mattilanperä","Lapaluoto","Arkkukari","Piehinki","Tuomioja","Lasikangas","Kopsa","Siikajoki Keskus","Karinkanta","Revonlahti","Ruukki Keskus","Paavola - Huumola","Saarikoski","Luohua"],["Pirttikoski","Yppäri","Pyhäjoki centrum","Lumimetsä","Parhalahti","Ilveskorpi","Vihanti centrum","Lampinsaari","Alpua","Brahestad centrum","Ollinsaari - Mestauskallio","Isoholmi - Antinkangas","Pattijoki centrum","Kummatti - Junnilanmäki","Saloinen","Mattilanperä","Lapaluoto","Arkkukari","Piehinki","Tuomioja","Lasikangas","Kopsa","Siikajoki centrum","Karinkanta","Revonlahti","Ruukki centrum","Paavola - Huumola","Saarikoski","Luohua"],[372302,361478,380663,415665,372391,406665,401520,409808,417989,379679,381606,381238,389340,379355,379130,385276,376741,377030,379106,402385,388747,388913,393408,402397,403679,409594,417130,424997,418337],[7144768,7143691,7148397,7135902,7155998,7140783,7151282,7144097,7144413,7175379,7173544,7176653,7177477,7173988,7169567,7164710,7173358,7167009,7159746,7164828,7169844,7158987,7188347,7195175,7181134,7172796,7165392,7167052,7154978],[57888370,102794283,235448947,79529473,37366548,55569720,345269925,20356381,112568656,9271222,9877463,2587653,188398957,3036350,34081301,32034432,1288915,26466680,106773687,127017908,28148674,120432161,161037244,87232882,161969652,114612394,223703128,12682168,131125151],[2026,2026,2026,2026,2026,2026,2026,2026,2026,2026,2026,2026,2026,2026,2026,2026,2026,2026,2026,2026,2026,2026,2026,2026,2026,2026,2026,2026,2026],["625","625","625","678","625","678","678","678","678","678","678","678","678","678","678","678","678","678","678","748","678","678","748","748","748","748","748","748","748"],[277,520,1746,153,348,190,1494,198,342,4348,2570,3034,6064,1280,1576,189,121,772,564,239,299,258,883,192,694,1587,808,35,321],[127,249,839,73,159,90,720,97,164,2267,1184,1559,2928,624,765,94,58,372,267,112,133,114,416,87,331,761,372,15,146],[150,271,907,80,189,100,774,101,178,2081,1386,1475,3136,656,811,95,63,400,297,127,166,144,467,105,363,826,436,20,175],[52,43,48,49,47,49,49,57,46,49,46,47,41,46,47,47,55,39,48,44,42,50,44,50,40,45,47,45,37],[4,18,41,5,7,4,35,1,12,61,55,45,178,27,27,5,2,17,9,8,7,0,26,1,17,44,16,2,19],[7,25,55,3,13,7,57,1,13,104,82,107,291,25,49,3,3,41,13,12,13,8,32,4,36,66,33,4,21],[11,57,114,10,23,9,95,12,28,205,170,241,614,51,118,12,3,98,34,26,36,19,67,16,83,133,60,2,40],[8,25,77,8,15,9,79,5,21,102,105,130,353,38,75,10,1,51,22,10,12,13,48,12,39,83,39,0,22],[6,19,48,5,7,1,39,5,7,88,67,78,216,32,49,1,0,50,18,3,6,7,32,3,22,32,24,0,11],[3,10,43,2,4,6,26,5,7,131,61,77,148,34,46,8,2,24,13,5,6,5,31,6,17,31,20,0,10],[9,16,63,1,10,4,44,2,10,277,94,109,230,87,45,5,1,24,12,6,8,4,44,3,25,38,25,1,6],[8,16,50,3,12,7,44,3,8,232,105,101,238,89,60,10,5,18,18,2,13,3,27,3,31,59,19,1,17],[14,19,74,6,21,11,54,0,16,224,127,130,367,75,48,3,5,25,24,10,11,8,26,3,32,82,27,3,9],[21,24,96,9,23,7,60,2,15,237,154,162,343,96,72,12,7,30,25,9,14,16,46,11,35,78,50,1,19],[14,30,98,9,25,12,84,9,13,244,151,184,401,91,92,13,8,53,33,28,24,19,41,13,55,91,54,2,20],[9,27,133,8,23,13,80,12,20,233,174,189,366,79,113,9,5,58,52,18,21,13,54,10,48,88,40,0,18],[14,35,90,8,21,7,49,11,18,261,161,173,368,79,112,18,3,47,54,10,23,10,43,8,40,95,32,0,15],[25,36,112,8,22,14,89,15,19,240,181,197,365,77,91,13,13,35,44,20,17,22,47,12,36,90,42,1,14],[26,30,101,13,30,18,104,22,30,251,174,173,315,85,100,25,13,35,28,10,16,16,67,18,33,121,68,8,18],[26,41,109,16,22,17,136,18,28,319,202,202,338,69,111,13,18,50,44,20,33,29,77,24,44,131,62,5,19],[22,25,145,14,27,25,147,30,35,350,187,252,332,79,146,9,13,48,50,16,19,31,69,16,51,127,73,3,19],[24,37,136,10,20,12,121,30,20,331,186,240,323,68,142,4,13,30,38,13,14,20,58,12,28,104,54,2,11],[9,16,75,10,8,2,65,10,8,235,85,139,159,51,51,7,3,20,17,8,3,7,24,9,14,49,30,0,3],[17,14,86,5,15,5,86,5,14,223,49,105,119,48,29,9,3,18,16,5,3,8,24,8,8,45,40,0,10],[241,376,1411,122,283,160,1189,174,261,3788,2091,2433,4412,1107,1258,158,112,515,468,180,225,211,678,156,497,1229,636,27,208],[65,83,315,31,68,35,322,49,68,943,532,447,718,413,256,31,32,94,100,38,37,51,151,47,100,303,156,null,49],[176,293,1096,91,215,125,867,125,193,2845,1559,1986,3694,694,1002,127,80,421,368,142,188,160,527,109,397,926,480,null,159],[8,13,39,1,2,4,17,3,8,133,44,70,99,30,27,2,0,18,7,3,4,4,19,1,9,24,15,null,6],[120,202,694,72,151,91,650,90,129,1654,1058,1124,2405,496,724,94,62,272,264,101,136,121,362,85,270,649,314,null,110],[45,60,280,16,54,23,175,29,44,799,366,587,950,135,218,27,16,107,84,32,43,30,118,20,91,205,114,null,36],[3,18,83,2,8,7,25,3,12,259,91,205,240,33,33,4,2,24,13,6,5,5,28,3,27,48,37,null,7],[241,376,1411,122,283,160,1189,174,261,3788,2091,2433,4412,1107,1258,158,112,515,468,180,225,211,678,156,497,1229,636,27,208],[27140,29582,27692,26217,27160,27949,26239,21708,26921,26876,26296,29512,29741,22149,27819,29361,22590,30895,27369,34944,29397,30421,30074,29033,29969,27226,28486,null,27570],[25533,26580,25115,23907,25884,25173,24169,19195,24424,24363,24987,27554,28481,20152,26911,28647,21199,29066,27120,27665,29117,28188,26388,23844,27489,24053,24125,null,24886],[57,76,288,30,75,36,239,61,55,791,441,354,664,352,193,30,33,87,87,28,44,27,126,42,86,247,133,null,53],[146,222,860,73,152,93,792,99,162,2446,1328,1599,2744,667,842,92,71,299,289,116,127,141,430,84,313,802,390,null,118],[38,78,263,19,56,31,158,14,44,551,322,480,1004,88,223,36,8,129,92,36,54,43,122,30,98,180,113,null,37],[6540632,11122768,39072745,3198490,7686163,4471822,31197994,3777277,7026446,101807250,54985535,71801649,131217945,24519373,34996583,4639033,2530058,15910863,12808565,6289886,6614280,6418894,20390144,4529205,14894445,33460452,18117176,null,5734624],[127,202,868,73,155,85,750,114,149,2599,1341,1462,2522,805,707,86,70,264,266,104,123,127,371,91,288,723,387,15,114],[2.1,2.6,2,2.1,2.2,2.2,2,1.7,2.3,1.6,1.9,2.1,2.4,1.6,2.2,2.2,1.7,2.9,2.1,2.3,2.4,2,2.4,2.1,2.4,2.1,2.1,null,2.8],[55.8,45.3,47.3,54,48.9,51.8,47.3,56.5,46,43.2,45.2,47.4,43.5,42,49.5,53,50.8,42.8,51.3,44.5,45.5,54.7,45,46.3,42.8,44,50.1,null,38.9],[41,48,380,31,51,25,362,54,52,1565,656,557,803,497,207,24,30,65,93,36,30,49,125,36,111,303,163,null,38],[2,4,53,2,6,2,39,3,4,406,151,83,157,124,23,2,5,4,9,4,4,3,12,1,24,35,17,null,1],[4,5,19,1,3,2,12,0,6,82,20,37,88,28,15,3,1,6,4,1,1,3,9,1,8,11,6,null,1],[20,53,175,12,36,14,112,10,27,316,230,317,724,108,169,19,6,84,48,27,37,19,73,13,74,151,70,null,36],[4,14,37,4,7,4,27,1,10,53,44,41,158,24,26,4,2,15,9,7,6,0,20,1,15,39,14,null,12],[7,22,68,4,17,7,48,2,14,114,88,121,304,38,54,5,3,31,18,11,14,7,35,4,28,69,30,null,19],[8,34,80,5,17,7,60,7,19,147,118,164,397,30,86,7,2,50,22,21,24,10,37,10,43,86,40,null,22],[10,24,85,7,17,7,65,9,17,134,123,157,372,40,87,10,1,56,25,12,14,13,43,7,38,78,38,null,20],[1,7,27,0,4,1,18,6,0,102,54,77,116,22,28,2,2,7,7,1,4,1,8,1,13,27,12,null,6],[43,59,315,21,57,32,255,36,49,1265,616,513,942,440,229,39,30,76,107,36,37,45,126,29,119,257,138,null,31],[64,90,381,40,63,39,384,68,74,1031,496,637,863,257,311,29,34,104,114,42,49,63,175,50,97,315,183,null,48],[121,180,625,69,142,76,592,100,135,1303,850,1239,2089,308,648,83,60,260,258,94,121,123,326,88,228,561,328,null,102],[4,13,229,2,11,8,148,11,7,1256,483,220,406,489,43,1,9,1,5,7,1,2,39,3,57,155,52,null,8],[2,9,14,2,2,1,10,3,7,40,8,3,27,8,16,2,1,3,3,3,1,2,6,0,3,7,7,null,4],[127,202,868,73,155,85,750,114,149,2599,1341,1462,2522,805,707,86,70,264,266,104,123,127,371,91,288,723,387,15,114],[50362,55800,45019,44219,50268,51733,41248,33627,47573,38265,40893,49407,52636,30695,49942,54001,36359,60643,48610,60937,54361,51085,55739,50175,52682,45718,47423,null,51706],[41850,50878,38790,39257,45796,45831,35483,32020,41377,30099,35912,43266,47973,24054,46687,52002,32407,55534,44090,50083,56153,44532,46015,38980,43990,37465,38322,null,46046],[18,45,202,21,28,21,217,45,32,855,397,231,372,389,63,12,22,33,40,20,18,19,64,28,72,208,91,null,33],[88,114,547,43,100,44,459,63,95,1461,790,1007,1724,379,557,55,43,183,183,71,85,90,236,51,167,435,238,null,61],[21,43,119,9,27,20,74,6,22,283,154,224,426,37,87,19,5,48,43,13,20,18,71,12,49,80,58,null,20],[6396008,11271684,39076391,3227976,7791562,4397299,30935912,3833452,7088435,99450694,54837169,72232671,132749145,24709474,35309038,4644075,2545159,16009667,12930231,6337456,6686436,6487742,20679296,4565922,15172457,33054073,18352734,null,5894450],[36,247,332,7,53,6,98,0,10,312,1,2,131,0,26,4,1,129,93,30,11,16,293,109,99,88,88,15,56],[192,330,977,100,251,129,866,123,250,1176,908,992,2379,349,1045,111,134,343,382,171,157,176,529,144,329,851,468,29,182],[27,71,182,8,73,11,194,18,45,280,149,78,256,78,295,20,49,39,75,21,14,25,88,23,38,137,52,2,19],[165,259,795,92,178,118,672,105,205,896,759,914,2123,271,750,91,85,304,307,150,143,151,441,121,291,714,416,27,163],[161,265,1107,89,182,118,940,166,196,3072,1802,1568,2711,1079,786,95,87,305,308,137,141,152,487,115,354,920,503,20,142],[112.8,110,90,107.4,102.3,102,87.8,98.2,99.1,68,80.2,96.8,102.5,65.5,108,113.2,84.2,119,104.9,101.3,107.6,107.6,96.8,96.3,99.3,87.2,96.5,92.3,102.5],[159,262,976,88,180,117,905,126,190,1042,935,1274,2674,417,780,92,87,296,304,135,140,149,474,115,348,881,483,19,142],[0,0,100,0,0,0,19,33,0,1856,856,288,0,657,0,0,0,4,0,0,0,0,0,0,0,26,4,0,0],[2,3,31,1,2,1,16,7,6,174,11,6,37,5,6,3,0,5,4,2,1,3,13,0,6,13,16,1,0],[15,96,446,37,79,46,327,1,41,3487,580,434,683,519,2866,53,172,59,14,76,31,80,256,109,98,757,174,6,53],[12,23,12,27,7,15,17,null,15,7,1,5,48,0,0,3,0,7,4,36,2,58,42,50,24,71,63,null,25],[0,26,154,8,59,1,80,null,9,561,228,38,179,104,2606,14,103,33,2,35,6,4,63,5,16,177,31,null,7],[3,47,280,2,13,30,230,null,17,2919,351,391,456,415,260,36,69,19,8,5,23,18,151,54,58,509,80,null,21],[12,23,12,27,7,15,17,null,15,7,1,5,48,0,0,3,0,7,4,36,2,58,42,50,24,71,63,null,25],[0,5,0,0,0,0,4,null,3,0,0,0,0,0,0,13,0,0,0,0,0,0,0,0,0,0,5,null,0],[0,2,70,0,47,0,50,null,3,340,50,6,82,104,2585,0,68,2,0,30,2,1,38,5,10,134,6,null,6],[0,0,0,0,0,0,0,null,0,27,0,0,9,0,1,0,35,0,0,0,0,0,0,0,0,0,0,null,0],[0,0,5,0,0,0,6,null,0,35,2,0,17,0,0,1,0,0,0,0,0,0,0,0,0,9,0,null,0],[0,19,79,8,12,1,20,null,3,159,176,32,71,0,20,0,0,31,2,5,4,3,25,0,6,34,20,null,1],[0,21,15,2,1,0,26,null,0,264,58,116,117,65,57,0,2,3,1,0,1,0,4,14,7,54,5,null,0],[0,2,5,0,0,5,19,null,7,330,25,43,23,8,7,16,60,2,2,4,0,18,3,0,11,15,25,null,0],[0,2,16,0,0,0,1,null,0,138,3,18,21,8,32,0,0,0,0,0,0,0,10,0,9,22,4,null,1],[0,0,2,0,0,0,0,null,0,93,8,4,9,0,0,0,0,0,0,0,0,0,0,3,2,3,0,null,2],[0,0,2,0,0,0,1,null,0,55,0,2,2,0,0,0,0,0,1,0,0,0,8,0,0,13,0,null,0],[0,0,3,0,0,1,3,null,0,39,27,5,1,14,0,0,0,0,0,1,0,0,0,0,0,15,0,null,0],[1,0,7,0,0,0,0,null,1,144,16,8,11,9,60,7,0,0,0,0,1,0,1,1,1,62,3,null,2],[1,1,21,0,3,0,4,null,1,240,92,17,11,5,2,0,7,0,0,0,2,0,1,0,0,39,0,null,5],[0,0,29,0,0,0,6,null,0,152,0,0,0,106,0,0,0,0,0,0,0,0,0,0,0,26,0,null,0],[0,11,49,0,0,0,39,null,0,199,33,61,112,87,55,9,0,12,0,0,1,0,24,0,14,107,11,null,9],[0,8,100,0,8,23,116,null,6,1096,68,104,100,87,35,4,0,1,0,0,15,0,83,36,12,122,26,null,1],[0,1,7,0,0,0,0,null,1,56,0,2,6,25,0,0,0,0,0,0,0,0,6,0,1,6,3,null,0],[1,1,24,0,1,1,15,null,1,113,21,11,43,1,12,0,0,1,4,0,3,0,11,0,1,25,3,null,1],[0,0,0,0,0,0,0,null,0,0,0,0,0,0,0,0,0,0,0,0,0,0,0,0,0,0,0,null,0],[0,0,0,0,0,0,0,null,0,0,0,0,0,0,0,0,0,0,0,0,0,0,0,0,0,0,0,null,0],[0,0,0,0,0,0,0,null,0,0,0,0,0,0,0,0,0,0,0,0,0,0,0,0,0,0,0,null,0],[277,520,1746,153,348,190,1494,198,342,4348,2570,3034,6064,1280,1576,189,121,772,564,239,299,258,883,192,694,1587,808,35,321],[115,191,623,56,132,74,480,45,107,1493,884,1155,2529,383,611,91,39,285,234,104,125,96,326,75,268,579,279,12,110],[10,25,94,5,13,3,68,18,22,284,199,136,241,148,65,11,9,27,33,9,13,13,40,4,26,79,35,2,14],[29,116,262,23,52,24,241,17,68,439,377,483,1319,125,244,26,8,190,71,53,64,35,156,28,163,303,135,8,93],[14,38,108,9,22,14,91,10,24,322,194,219,474,131,119,8,5,77,39,11,11,14,74,15,57,87,52,0,25],[103,137,602,58,101,70,586,103,114,1673,836,994,1392,406,519,49,57,178,171,58,79,97,265,68,158,517,296,12,67],[6,13,57,2,28,5,28,5,7,137,80,47,109,87,18,4,3,15,16,4,7,3,22,2,22,22,11,1,12],["raahe","raahe","raahe","raahe","raahe","raahe","raahe","raahe","raahe","raahe","raahe","raahe","raahe","raahe","raahe","raahe","raahe","raahe","raahe","raahe","raahe","raahe","raahe","raahe","raahe","raahe","raahe","raahe","raahe"],["86160","86170","86100","86470","86110","86360","86400","86440","86460","92100","92120","92130","92140","92150","92160","92230","92180","92210","92220","92470","92240","92260","92320","92330","92350","92400","92430","92440","92450"],[3.6,4.8,5.4,3.3,3.7,1.6,4.6,9.1,6.4,6.5,7.7,4.5,4,11.6,4.1,5.8,7.4,3.5,5.9,3.8,4.3,5,4.5,2.1,3.7,5,4.3,5.7,4.4],[19.9,20.7,25.7,14.8,21.9,18.8,16.8,18.4,21.5,27.9,21.9,32.6,27,15.2,20,19.6,16.1,25.4,20.7,21.1,21.3,16.6,21.5,14.7,23.7,20.6,23.7,null,20.7],[37.2,26.3,34.5,37.9,29,36.8,39.2,52,33.3,38.5,32.5,32.8,23,31.7,32.9,25.9,47.1,23.1,30.3,24.3,26.4,37.6,30,35.4,22.8,32.6,36.6,34.3,20.9],[95.3,89.1,72,94.5,91.6,89.4,78.9,87.7,90.6,50.1,63.4,84.7,82.8,38.3,91.7,96.5,85.7,98.5,97,90.4,98.4,96.9,87.9,96.7,79.2,77.6,84.8,null,89.5],[3.1,6.4,26.4,2.7,7.1,9.4,19.7,9.6,4.7,48.3,36,15,16.1,60.7,6.1,1.2,12.9,0.4,1.9,6.7,0.8,1.6,10.5,3.3,19.8,21.4,13.4,null,7],[5,5,7,2,9,3,4,10,3,469,260,1172,32,422,46,6,94,29,5,2,11,2,5,2,4,14,4,3,2],[4,8.3,5.5,5.2,5.7,5.8,6.2,1,7.3,3.8,5.3,5,7.7,4.1,4.8,4.2,4.1,7.5,3.9,8.4,6.7,3.1,6.6,2.6,7.6,6.9,6.1,17.1,12.5],[5.1,7.3,6.2,5.9,6.3,7.4,6.1,5.1,7,7.4,7.5,7.2,7.8,10.2,7.6,4.2,4.1,10,6.9,4.6,3.7,5.4,8.4,7.8,8.2,5.5,6.4,0,7.8],[98.8,98.9,88.2,98.9,98.9,99.2,96.3,75.9,96.9,33.9,51.9,81.2,98.6,38.6,99.2,96.8,100,97,98.7,98.5,99.3,98,97.3,100,98.3,95.8,96,95,100],[7.2,8.1,8.9,3.9,7.5,8.9,7.6,5.1,7.3,14.7,10.1,9.5,10.2,16.4,9.6,12.2,6.6,8.5,7.6,5.4,9,4.7,11.6,6.2,10.5,8.1,7.9,5.7,10.3],[0.85,0.92,0.93,0.91,0.84,0.9,0.93,0.96,0.92,1.09,0.85,1.06,0.93,0.95,0.94,0.99,0.92,0.93,0.9,0.88,0.8,0.79,0.89,0.83,0.91,0.92,0.85,0.75,0.83],[3.1,2.5,2.2,1.4,1.9,2.4,1.6,0,4,3.2,1.5,2.5,3.5,3.5,2.1,3.5,1.4,2.3,1.5,1,0.8,2.4,2.4,1.1,2.8,1.5,1.6,null,0.9],[15.7,26.2,20.2,16.4,23.2,16.5,14.9,8.8,18.1,12.2,17.2,21.7,28.7,13.4,23.9,22.1,8.6,31.8,18,26,30.1,15,19.7,14.3,25.7,20.9,18.1,null,31.6],[0,0,0.4,0,0,0,0,null,0,2.7,1.4,0.9,1.3,0,0,0,0,0,0,0,0,0,0,2.8,2,0.4,0,null,3.8],[0,8.3,22.4,0,10.1,50,35.5,null,14.6,31.4,11.7,24,14.6,16.8,1.2,7.5,0,1.7,0,0,48.4,0,32.4,33,12.2,16.1,14.9,null,1.9],[41.5,36.7,35.7,36.6,37.9,38.9,32.1,22.7,31.3,34.3,34.4,38.1,41.7,29.9,38.8,48.1,32.2,36.9,41.5,43.5,41.8,37.2,36.9,39.1,38.6,36.5,34.5,34.3,34.3],[35.4,25.6,31.6,35.9,26.4,32.1,37.1,47,30.7,33.5,27.6,30.9,21,24.6,30.4,22.2,41.3,21.5,29.3,25.9,24.1,36.8,28.5,35.9,20.9,28.7,32.1,28.6,19.3],[2.18,2.57,2.01,2.1,2.25,2.24,1.99,1.74,2.3,1.67,1.92,2.08,2.4,1.59,2.23,2.2,1.73,2.92,2.12,2.3,2.43,2.03,2.38,2.11,2.41,2.2,2.09,2.33,2.82],[0,27.1,34.5,21.6,74.7,2.2,24.5,null,22,16.1,39.3,8.8,26.2,20,90.9,26.4,59.9,55.9,14.3,46.1,19.4,5,24.6,4.6,16.3,23.4,17.8,null,13.2],[0,0,6.5,0,0,0,1.8,null,0,4.4,0,0,0,20.4,0,0,0,0,0,0,0,0,0,0,0,3.4,0,null,0],[20,49,62.8,5.4,16.5,65.2,70.3,null,41.5,83.7,60.5,90.1,66.8,80,9.1,67.9,40.1,32.2,57.1,6.6,74.2,22.5,59,49.5,59.2,67.2,46,null,39.6],[119.3,124.5,88.3,112.4,137.9,109.3,92.1,74.1,127.6,38.3,50.4,63.3,87.8,32.3,133,116.8,154,112.5,124,124.8,111.3,115.8,108.6,125.2,92.9,92.5,93,145,128.2],[1.3,0.2,3.5,0.6,5.9,0.5,0.8,1.3,0,3.8,6.9,3.4,1.2,11.4,1,0,1.5,0.7,2.7,0.4,0.6,0.3,1.6,0,1.5,2.4,0.3,0,1.3],[61.3,61.3,61.3,73.8,61.3,73.8,73.8,73.8,73.8,73.8,73.8,73.8,73.8,73.8,73.8,73.8,73.8,73.8,73.8,104.8,73.8,73.8,104.8,104.8,104.8,104.8,104.8,104.8,104.8],[null,null,1173,null,null,null,927,null,null,1495,668,916,1075,483,null,null,null,null,null,null,null,null,null,null,null,639,null,null,null],[0.3,0.4,0.2,0.1,0.9,0.3,0.2,0.1,0.1,4,3.4,12,0.5,8.2,1.7,0.3,1.6,1.2,0.3,0.2,0.3,0.2,0.4,0.2,0.2,0.7,0.3,0.1,0],[25.4,24.8,25.1,25.2,25.4,25.5,25.5,25,25,26,26.4,26.4,26.5,26,26,26.5,26,25.7,25.6,26.4,26.5,26.1,26.7,27.3,27.3,26,26.2,26,25],[0,0,0.0042,0,0,0,0,0,0,0.1079,0.2025,1.1594,0.0159,0.988,0.0587,0,0,0,0,0,0,0,0,0,0.0062,0,0,0,0],[0,0.0097,0.0085,0,0.0268,0,0.0029,0,0.0089,0.9707,0.1012,0.3865,0.0212,0.3293,0.0293,0.0312,0,0.0378,0,0,0,0,0.0062,0,0.0062,0.0262,0.0045,0,0.0076],[0,0,0.0127,0,0,0,0.0087,0,0,1.6179,0.1012,0,0.0212,0.3293,0,0,0,0,0,0,0,0,0,0,0,0.0175,0,0,0],[0,0.0097,0.0127,0,0,0,0.0029,0.0491,0,2.4808,0.1012,0.3865,0.0425,1.6467,0.0587,0,0,0,0,0,0,0,0.0186,0,0.0062,0.0175,0.0134,0,0],[0,0,0.0085,0,0,0,0,0,0.0089,0.2157,0.1012,0.3865,0.0159,0.6587,0,0,0,0,0,0,0,0,0,0,0,0.0087,0.0045,0,0],[0,0.107,0.4162,0,0.4014,0,0.0869,0.0982,0.0089,14.1297,4.2521,28.2109,0.9873,23.054,2.1419,0,3.1034,0.7557,0.2997,0,0,0.0166,0.1304,0,0.1111,0.6631,0.0894,0,0],[32.3,23.8,43.8,42.5,32.9,29.4,48.3,47.4,34.9,60.2,48.9,38.1,31.8,61.7,29.3,27.9,42.9,24.6,35,34.6,24.4,38.6,33.7,39.6,38.5,41.9,42.1,null,33.3],[null,null,null,null,null,null,null,null,null,null,null,null,null,null,null,null,null,null,null,null,null,null,null,null,null,null,null,null,null],[null,null,null,null,null,null,null,null,null,null,null,null,null,null,null,null,null,null,null,null,null,null,null,null,null,null,null,null,null],[76,78,80,76,80,76,78,78,76,93,86,91,81,93,83,76,82,80,79,76,76,76,78,76,78,80,78,76,76],[2.4,1.9,2.3,null,7.7,7,3.6,1.7,2.9,0.1,0.6,0.1,1.4,1,2.1,7.1,null,0.9,3,1.4,3.3,6.5,1.5,1.7,3.4,0.6,5.8,null,null],[null,null,null,null,null,null,null,null,null,-1.6,-41,-8.7,-15,-47.6,null,null,null,null,null,null,null,null,null,null,null,null,null,null,null],[null,null,55.6,null,null,null,null,null,null,57.8,null,null,null,null,null,null,null,null,null,null,null,null,null,null,null,60.5,null,null,null],[0.57,0.53,0.63,0.47,1.51,0.29,0.7,0.28,0.5,49.82,12.47,47.11,1.66,37.17,30.95,0.77,169.93,1.48,0.91,0.51,0.77,0.59,0.51,0.24,0.41,0.98,0.61,0.55,0.59],[40,40,40,40,40,40,40,40,40,40,40.5,41.7,40.1,42.4,40,40,40,40,40,40,40,40,40,40,40,40,40,40,40],[66.3,66.3,66.3,65.1,66.3,65.1,65.1,65.1,65.1,65.1,65.1,65.1,65.1,65.1,65.1,65.1,65.1,65.1,65.1,64.6,65.1,65.1,64.6,64.6,64.6,64.6,64.6,64.6,64.6],[0.627,0.627,0.627,0.647,0.627,0.647,0.647,0.647,0.647,0.647,0.647,0.647,0.647,0.647,0.647,0.647,0.647,0.647,0.647,0.608,0.647,0.647,0.608,0.608,0.608,0.608,0.608,0.608,0.608],[96,96,96,97,96,97,97,97,97,97,97,97,97,97,97,97,97,97,97,100,97,97,100,100,100,100,100,100,100],[0,0,0,0,0,0,0,0,0,0.2,0.1,0,0,0.3,0,0,0,0,0,0,0,0,0,0,0,0,0,0,0],[70,71.2,61.4,15,75.2,21.4,41.2,36.6,45.2,31.6,46,10,37.3,56.6,48.6,54.6,28.4,75.4,25.4,65.3,59.6,38.5,54.4,36.9,45.9,44.6,28.9,17,32.5],[null,null,null,null,null,null,null,null,null,null,null,null,null,null,null,null,null,null,null,null,null,null,null,null,null,null,null,null,null],[0.2,0.1,0.1,0,0.2,0.1,0.1,0.3,0.1,4.2,1.1,1.9,0.2,4,0.3,0.1,0,0.2,0,0,0.1,0,0.1,0,0,0.2,0.1,0.1,0.1],[710,1710,370,3640,2210,3620,1220,400,3130,440,1360,760,1620,1180,870,4710,350,940,1470,4560,4290,3900,530,1830,310,490,1260,830,5970],[1986,1986,1985,1983,1987,1983,1982,1981,1984,1978,1980,1981,1982,1978,1984,1983,1985,1983,1984,1977,1983,1983,1976,1977,1976,1976,1976,1978,1977],[[[2021,19996],[2022,20921],[2023,21119],[2024,22551],[2025,23452],[2026,25533]],[[2021,21916],[2022,21541],[2023,23798],[2024,24926],[2025,26058],[2026,26580]],[[2021,20934],[2022,21327],[2023,22305],[2024,23193],[2025,24172],[2026,25115]],[[2021,19672],[2022,19934],[2023,22613],[2024,20160],[2025,22488],[2026,23907]],[[2021,23316],[2022,23876],[2023,24152],[2024,24496],[2025,24309],[2026,25884]],[[2021,23539],[2022,22083],[2023,23336],[2024,24149],[2025,25743],[2026,25173]],[[2021,19996],[2022,20018],[2023,21311],[2024,21742],[2025,23219],[2026,24169]],[[2021,16877],[2022,17095],[2023,18276],[2024,19380],[2025,19092],[2026,19195]],[[2021,19471],[2022,19465],[2023,20773],[2024,21895],[2025,22817],[2026,24424]],[[2021,20391],[2022,20707],[2023,21320],[2024,22180],[2025,23387],[2026,24363]],[[2021,22021],[2022,22226],[2023,22642],[2024,22916],[2025,23863],[2026,24987]],[[2021,23893],[2022,23764],[2023,24320],[2024,25000],[2025,26413],[2026,27554]],[[2021,24140],[2022,24438],[2023,24829],[2024,25925],[2025,27273],[2026,28481]],[[2021,17538],[2022,17360],[2023,18354],[2024,18833],[2025,19526],[2026,20152]],[[2021,22910],[2022,23090],[2023,23644],[2024,24013],[2025,25606],[2026,26911]],[[2021,23178],[2022,24867],[2023,27015],[2024,26987],[2025,27450],[2026,28647]],[[2021,17402],[2022,18211],[2023,17839],[2024,18727],[2025,19978],[2026,21199]],[[2021,24719],[2022,24768],[2023,25210],[2024,27031],[2025,28213],[2026,29066]],[[2021,22986],[2022,23600],[2023,24269],[2024,24787],[2025,26080],[2026,27120]],[[2021,22588],[2022,23667],[2023,24514],[2024,25496],[2025,25731],[2026,27665]],[[2021,24182],[2022,25070],[2023,26226],[2024,27011],[2025,28605],[2026,29117]],[[2021,24981],[2022,24212],[2023,24230],[2024,26069],[2025,26551],[2026,28188]],[[2021,21845],[2022,21755],[2023,22773],[2024,24196],[2025,25478],[2026,26388]],[[2021,20364],[2022,20303],[2023,21075],[2024,21725],[2025,23460],[2026,23844]],[[2021,23998],[2022,23552],[2023,24280],[2024,25434],[2025,26295],[2026,27489]],[[2021,20362],[2022,20237],[2023,21181],[2024,21871],[2025,23309],[2026,24053]],[[2021,19713],[2022,19817],[2023,20522],[2024,21287],[2025,22514],[2026,24125]],[[2021,21700],[2022,22861]],[[2021,20062],[2022,20223],[2023,20741],[2024,21624],[2025,23838],[2026,24886]]],[[[2021,288],[2022,298],[2023,297],[2024,294],[2025,288],[2026,277]],[[2021,572],[2022,567],[2023,535],[2024,525],[2025,514],[2026,520]],[[2021,1803],[2022,1760],[2023,1770],[2024,1739],[2025,1738],[2026,1746]],[[2021,171],[2022,165],[2023,164],[2024,168],[2025,159],[2026,153]],[[2021,349],[2022,358],[2023,373],[2024,356],[2025,353],[2026,348]],[[2021,204],[2022,197],[2023,191],[2024,189],[2025,183],[2026,190]],[[2021,1634],[2022,1572],[2023,1564],[2024,1551],[2025,1522],[2026,1494]],[[2021,251],[2022,233],[2023,230],[2024,232],[2025,212],[2026,198]],[[2021,378],[2022,370],[2023,370],[2024,347],[2025,334],[2026,342]],[[2021,4310],[2022,4316],[2023,4300],[2024,4323],[2025,4301],[2026,4348]],[[2021,2798],[2022,2722],[2023,2761],[2024,2708],[2025,2633],[2026,2570]],[[2021,3097],[2022,3087],[2023,3103],[2024,3090],[2025,3064],[2026,3034]],[[2021,6301],[2022,6267],[2023,6210],[2024,6224],[2025,6137],[2026,6064]],[[2021,1306],[2022,1237],[2023,1258],[2024,1218],[2025,1256],[2026,1280]],[[2021,1715],[2022,1707],[2023,1669],[2024,1639],[2025,1631],[2026,1576]],[[2021,223],[2022,212],[2023,205],[2024,198],[2025,192],[2026,189]],[[2021,138],[2022,134],[2023,135],[2024,134],[2025,128],[2026,121]],[[2021,874],[2022,844],[2023,839],[2024,791],[2025,781],[2026,772]],[[2021,621],[2022,619],[2023,604],[2024,596],[2025,589],[2026,564]],[[2021,268],[2022,260],[2023,249],[2024,255],[2025,245],[2026,239]],[[2021,300],[2022,310],[2023,296],[2024,295],[2025,295],[2026,299]],[[2021,296],[2022,296],[2023,284],[2024,269],[2025,261],[2026,258]],[[2021,961],[2022,961],[2023,951],[2024,912],[2025,894],[2026,883]],[[2021,210],[2022,203],[2023,201],[2024,189],[2025,188],[2026,192]],[[2021,724],[2022,717],[2023,710],[2024,695],[2025,694],[2026,694]],[[2021,1674],[2022,1633],[2023,1659],[2024,1601],[2025,1580],[2026,1587]],[[2021,903],[2022,865],[2023,848],[2024,835],[2025,833],[2026,808]],[[2021,38],[2022,35],[2023,37],[2024,35],[2025,35],[2026,35]],[[2021,323],[2022,315],[2023,320],[2024,326],[2025,324],[2026,321]]],[[[2021,3.5],[2022,3],[2023,4],[2024,4.8],[2025,3.8],[2026,3.6]],[[2021,3],[2022,3.5],[2023,3.7],[2024,4.4],[2025,4.9],[2026,4.8]],[[2021,3.8],[2022,3.8],[2023,3.9],[2024,4.7],[2025,5.6],[2026,5.4]],[[2021,4.7],[2022,4.8],[2023,5.5],[2024,2.4],[2025,3.1],[2026,3.3]],[[2021,3.7],[2022,3.9],[2023,2.9],[2024,4.5],[2025,6.8],[2026,3.7]],[[2021,1.5],[2022,3],[2023,3.1],[2024,3.7],[2025,3.8],[2026,1.6]],[[2021,3.6],[2022,5],[2023,3.2],[2024,3.5],[2025,4.5],[2026,4.6]],[[2021,5.2],[2022,5.6],[2023,5.2],[2024,6.9],[2025,9.4],[2026,9.1]],[[2021,3.7],[2022,4.6],[2023,3.2],[2024,3.7],[2025,5.7],[2026,6.4]],[[2021,4.5],[2022,6.7],[2023,5.7],[2024,5.8],[2025,6.7],[2026,6.5]],[[2021,5.8],[2022,6.5],[2023,6],[2024,6.1],[2025,7.5],[2026,7.7]],[[2021,3.4],[2022,4.4],[2023,3.5],[2024,4.1],[2025,4.6],[2026,4.5]],[[2021,3.4],[2022,4.9],[2023,3.8],[2024,3.7],[2025,4.1],[2026,4]],[[2021,7.2],[2022,9.6],[2023,9.1],[2024,10.1],[2025,13.2],[2026,11.6]],[[2021,3],[2022,4.3],[2023,3.4],[2024,3.1],[2025,3.9],[2026,4.1]],[[2021,3.1],[2022,4.2],[2023,4.4],[2024,2.5],[2025,6.2],[2026,5.8]],[[2021,9.4],[2022,7.5],[2023,5.9],[2024,6.7],[2025,9.4],[2026,7.4]],[[2021,2.5],[2022,4.7],[2023,2.6],[2024,2.4],[2025,2.4],[2026,3.5]],[[2021,3.7],[2022,6],[2023,4.1],[2024,5.7],[2025,4.8],[2026,5.9]],[[2021,2.2],[2022,3.1],[2023,2.8],[2024,3.1],[2025,4.5],[2026,3.8]],[[2021,2.3],[2022,3.9],[2023,3.4],[2024,5.1],[2025,5.1],[2026,4.3]],[[2021,2],[2022,4.1],[2023,2.5],[2024,5.2],[2025,4.2],[2026,5]],[[2021,2.7],[2022,4.8],[2023,4.1],[2024,3.4],[2025,4.3],[2026,4.5]],[[2021,2.9],[2022,2],[2023,3.5],[2024,3.7],[2025,2.7],[2026,2.1]],[[2021,3.9],[2022,4.3],[2023,3.5],[2024,2.6],[2025,4.9],[2026,3.7]],[[2021,4.2],[2022,4.8],[2023,4.3],[2024,3.6],[2025,5.2],[2026,5]],[[2021,3.5],[2022,3.6],[2023,4],[2024,3.8],[2025,3.7],[2026,4.3]],[[2021,13.2],[2022,11.4],[2023,2.7],[2024,5.7],[2025,8.6],[2026,5.7]],[[2021,2.5],[2022,3.8],[2023,4.4],[2024,3.1],[2025,4],[2026,4.4]]],[27.7,21.3,20,21.5,11,6.9,20.9,13.7,25.4,19.5,13.5,15.3,18,14.9,17.5,23.6,21.8,17.6,18,22.5,20.4,12.8,20.8,17.1,14.5,18.1,22.4,5.4,24],[-3.8,-9.1,-3.2,-10.5,-0.3,-6.9,-8.6,-21.1,-9.5,0.9,-8.1,-2,-3.8,-2,-8.1,-15.2,-12.3,-11.7,-9.2,-10.8,-0.3,-12.8,-8.1,-8.6,-4.1,-5.2,-10.5,-7.9,-0.6],[2.9,60,42.1,-29.8,0,6.7,27.8,75,73,44.4,32.8,32.4,17.6,61.1,36.7,87.1,-21.3,40,59.5,72.7,87,150,66.7,-27.6,-5.1,19,22.9,-56.8,76],[null,null,[{"name":"Pyhäjoen lukio","score":55.6}],null,null,null,null,null,null,[{"name":"Raahen lukio","score":57.8}],null,null,null,null,null,null,null,null,null,null,null,null,null,null,null,[{"name":"Siikajoen lukio","score":60.5}],null,null,null],[[[2020,67.6],[2021,36.8],[2022,35.8],[2023,51],[2024,58.8],[2025,61.3]],[[2020,67.6],[2021,36.8],[2022,35.8],[2023,51],[2024,58.8],[2025,61.3]],[[2020,67.6],[2021,36.8],[2022,35.8],[2023,51],[2024,58.8],[2025,61.3]],[[2020,106.4],[2021,76],[2022,71.7],[2023,67.9],[2024,66],[2025,73.8]],[[2020,67.6],[2021,36.8],[2022,35.8],[2023,51],[2024,58.8],[2025,61.3]],[[2020,106.4],[2021,76],[2022,71.7],[2023,67.9],[2024,66],[2025,73.8]],[[2020,106.4],[2021,76],[2022,71.7],[2023,67.9],[2024,66],[2025,73.8]],[[2020,106.4],[2021,76],[2022,71.7],[2023,67.9],[2024,66],[2025,73.8]],[[2020,106.4],[2021,76],[2022,71.7],[2023,67.9],[2024,66],[2025,73.8]],[[2020,106.4],[2021,76],[2022,71.7],[2023,67.9],[2024,66],[2025,73.8]],[[2020,106.4],[2021,76],[2022,71.7],[2023,67.9],[2024,66],[2025,73.8]],[[2020,106.4],[2021,76],[2022,71.7],[2023,67.9],[2024,66],[2025,73.8]],[[2020,106.4],[2021,76],[2022,71.7],[2023,67.9],[2024,66],[2025,73.8]],[[2020,106.4],[2021,76],[2022,71.7],[2023,67.9],[2024,66],[2025,73.8]],[[2020,106.4],[2021,76],[2022,71.7],[2023,67.9],[2024,66],[2025,73.8]],[[2020,106.4],[2021,76],[2022,71.7],[2023,67.9],[2024,66],[2025,73.8]],[[2020,106.4],[2021,76],[2022,71.7],[2023,67.9],[2024,66],[2025,73.8]],[[2020,106.4],[2021,76],[2022,71.7],[2023,67.9],[2024,66],[2025,73.8]],[[2020,106.4],[2021,76],[2022,71.7],[2023,67.9],[2024,66],[2025,73.8]],[[2020,89.6],[2021,73.2],[2022,72.3],[2023,75],[2024,87.6],[2025,104.8]],[[2020,106.4],[2021,76],[2022,71.7],[2023,67.9],[2024,66],[2025,73.8]],[[2020,106.4],[2021,76],[2022,71.7],[2023,67.9],[2024,66],[2025,73.8]],[[2020,89.6],[2021,73.2],[2022,72.3],[2023,75],[2024,87.6],[2025,104.8]],[[2020,89.6],[2021,73.2],[2022,72.3],[2023,75],[2024,87.6],[2025,104.8]],[[2020,89.6],[2021,73.2],[2022,72.3],[2023,75],[2024,87.6],[2025,104.8]],[[2020,89.6],[2021,73.2],[2022,72.3],[2023,75],[2024,87.6],[2025,104.8]],[[2020,89.6],[2021,73.2],[2022,72.3],[2023,75],[2024,87.6],[2025,104.8]],[[2020,89.6],[2021,73.2],[2022,72.3],[2023,75],[2024,87.6],[2025,104.8]],[[2020,89.6],[2021,73.2],[2022,72.3],[2023,75],[2024,87.6],[2025,104.8]]],[-9.3,-9.3,-9.3,-30.6,-9.3,-30.6,-30.6,-30.6,-30.6,-30.6,-30.6,-30.6,-30.6,-30.6,-30.6,-30.6,-30.6,-30.6,-30.6,17,-30.6,-30.6,17,17,17,17,17,17,17],[96.9,96.9,96.9,124.7,96.9,124.7,124.7,124.7,124.7,124.7,124.7,124.7,124.7,124.7,124.7,124.7,124.7,124.7,124.7,109.9,124.7,124.7,109.9,109.9,109.9,109.9,109.9,109.9,109.9],[null,null,42,null,null,null,52,null,35,38,42,47,44,null,null,null,null,null,null,null,null,null,null,null,null,null,null,null,null],["Pyhäjoki","Pyhäjoki","Pyhäjoki","Raahe","Pyhäjoki","Raahe","Raahe","Raahe","Raahe","Raahe","Raahe","Raahe","Raahe","Raahe","Raahe","Raahe","Raahe","Raahe","Raahe","Siikajoki","Raahe","Raahe","Siikajoki","Siikajoki","Siikajoki","Siikajoki","Siikajoki","Siikajoki","Siikajoki"],[24.33191,24.07699,24.22922,25.22255,24.26617,25.06935,24.99825,25.1291,25.28637,24.43924,24.50564,24.50307,24.56609,24.47755,24.40877,24.61466,24.4127,24.3837,24.35854,24.97127,24.64671,24.65818,24.66289,24.91067,24.96407,25.10389,25.34047,25.44008,25.3021],[64.41392,64.41626,64.46109,64.32781,64.51509,64.36574,64.45316,64.41742,64.41042,64.68922,64.6751,64.69176,64.72783,64.67242,64.64287,64.60089,64.66206,64.60514,64.5484,64.60045,64.63076,64.5642,64.83205,64.88809,64.71884,64.66522,64.60774,64.62461,64.49713],[15.93,5.33,4.9,null,21.42,null,null,null,null,25.81,0.4,0.46,5.31,0.46,8.25,null,10.01,9.42,3.08,0,0,null,14.46,9.84,1.22,14.58,10.83,68.15,null],[-10.2,-10.2,-10.2,-12.3,-10.2,-12.3,-12.3,-12.3,-12.3,-12.3,-12.3,-12.3,-12.3,-12.3,-12.3,-12.3,-12.3,-12.3,-12.3,-14.9,-12.3,-12.3,-14.9,-14.9,-14.9,-14.9,-14.9,-14.9,-14.9],[24.6,24.6,24.6,11.5,24.6,11.5,11.5,11.5,11.5,11.5,11.5,11.5,11.5,11.5,11.5,11.5,11.5,11.5,11.5,4.8,11.5,11.5,4.8,4.8,4.8,4.8,4.8,4.8,4.8],[null,null,null,null,null,1,1,null,null,2,2,2,2,1,1,null,1,null,null,4,2,null,null,null,null,1,1,null,null],[59.3,59.3,59.3,58.1,59.3,58.1,58.1,58.1,58.1,58.1,58.1,58.1,58.1,58.1,58.1,58.1,58.1,58.1,58.1,62.1,58.1,58.1,62.1,62.1,62.1,62.1,62.1,62.1,62.1],[5.7,5.7,5.7,8.2,5.7,8.2,8.2,8.2,8.2,8.2,8.2,8.2,8.2,8.2,8.2,8.2,8.2,8.2,8.2,6.3,8.2,8.2,6.3,6.3,6.3,6.3,6.3,6.3,6.3],[10,10,10,13.9,10,13.9,13.9,13.9,13.9,13.9,13.9,13.9,13.9,13.9,13.9,13.9,13.9,13.9,13.9,8.5,13.9,13.9,8.5,8.5,8.5,8.5,8.5,8.5,8.5],[26.6,26.6,26.6,29.4,26.6,29.4,29.4,29.4,29.4,29.4,29.4,29.4,29.4,29.4,29.4,29.4,29.4,29.4,29.4,30.9,29.4,29.4,30.9,30.9,30.9,30.9,30.9,30.9,30.9],[39.9,39.9,39.9,28.3,39.9,28.3,28.3,28.3,28.3,28.3,28.3,28.3,28.3,28.3,28.3,28.3,28.3,28.3,28.3,40.6,28.3,28.3,40.6,40.6,40.6,40.6,40.6,40.6,40.6],[2.4,2.4,2.4,2.3,2.4,2.3,2.3,2.3,2.3,2.3,2.3,2.3,2.3,2.3,2.3,2.3,2.3,2.3,2.3,1.7,2.3,2.3,1.7,1.7,1.7,1.7,1.7,1.7,1.7],[8.5,8.5,8.5,12,8.5,12,12,12,12,12,12,12,12,12,12,12,12,12,12,5.9,12,12,5.9,5.9,5.9,5.9,5.9,5.9,5.9],[0.2,0.2,0.2,0.1,0.2,0.1,0.1,0.1,0.1,0.1,0.1,0.1,0.1,0.1,0.1,0.1,0.1,0.1,0.1,0.2,0.1,0.1,0.2,0.2,0.2,0.2,0.2,0.2,0.2],[3.8,3.8,3.8,4.8,3.8,4.8,4.8,4.8,4.8,4.8,4.8,4.8,4.8,4.8,4.8,4.8,4.8,4.8,4.8,1.8,4.8,4.8,1.8,1.8,1.8,1.8,1.8,1.8,1.8],[[[2020,1.3],[2021,2.1],[2022,1.8],[2023,1.9],[2024,1.9],[2025,1.6]],[[2020,0.2],[2021,0.3],[2022,0.3],[2023,0.3],[2024,0.3],[2025,0.3]],[[2020,3.5],[2021,5.7],[2022,4.9],[2023,5],[2024,5],[2025,4.4]],[[2020,0.6],[2021,0.7],[2022,0.7],[2023,0.8],[2024,0.9],[2025,1]],[[2020,5.9],[2021,9.6],[2022,8.3],[2023,8.5],[2024,8.5],[2025,7.5]],[[2020,0.5],[2021,0.6],[2022,0.6],[2023,0.7],[2024,0.7],[2025,0.8]],[[2020,0.8],[2021,0.9],[2022,1],[2023,1.1],[2024,1.2],[2025,1.3]],[[2020,1.3],[2021,1.5],[2022,1.6],[2023,1.7],[2024,1.9],[2025,2.1]],[[2020,0],[2021,0],[2022,0],[2023,0],[2024,0],[2025,0]],[[2020,3.8],[2021,4.3],[2022,4.6],[2023,5.1],[2024,5.6],[2025,6.1]],[[2020,6.9],[2021,7.8],[2022,8.3],[2023,9.2],[2024,10.1],[2025,11]],[[2020,3.4],[2021,3.9],[2022,4.1],[2023,4.5],[2024,5],[2025,5.4]],[[2020,1.2],[2021,1.4],[2022,1.4],[2023,1.6],[2024,1.8],[2025,1.9]],[[2020,11.4],[2021,12.9],[2022,13.7],[2023,15.2],[2024,16.7],[2025,18.2]],[[2020,1],[2021,1.1],[2022,1.2],[2023,1.3],[2024,1.5],[2025,1.6]],[[2020,0],[2021,0],[2022,0],[2023,0],[2024,0],[2025,0]],[[2020,1.5],[2021,1.7],[2022,1.8],[2023,2],[2024,2.2],[2025,2.4]],[[2020,0.7],[2021,0.8],[2022,0.8],[2023,0.9],[2024,1],[2025,1.1]],[[2020,2.7],[2021,3.1],[2022,3.2],[2023,3.6],[2024,4],[2025,4.3]],[[2020,0.4],[2021,0.5],[2022,0.5],[2023,0.5],[2024,0.5],[2025,0.5]],[[2020,0.6],[2021,0.7],[2022,0.7],[2023,0.8],[2024,0.9],[2025,1]],[[2020,0.3],[2021,0.3],[2022,0.4],[2023,0.4],[2024,0.4],[2025,0.5]],[[2020,1.6],[2021,1.8],[2022,1.8],[2023,1.8],[2024,2],[2025,1.9]],[[2020,0],[2021,0],[2022,0],[2023,0],[2024,0],[2025,0]],[[2020,1.5],[2021,1.7],[2022,1.7],[2023,1.7],[2024,1.9],[2025,1.8]],[[2020,2.4],[2021,2.7],[2022,2.7],[2023,2.7],[2024,3],[2025,2.9]],[[2020,0.3],[2021,0.3],[2022,0.3],[2023,0.3],[2024,0.4],[2025,0.4]],[[2020,0],[2021,0],[2022,0],[2023,0],[2024,0],[2025,0]],[[2020,1.3],[2021,1.5],[2022,1.5],[2023,1.5],[2024,1.6],[2025,1.6]]],[1.6,0.3,4.4,1,7.5,0.8,1.3,2.1,0,6.1,11,5.4,1.9,18.2,1.6,0,2.4,1.1,4.3,0.5,1,0.5,1.9,0,1.8,2.9,0.4,0,1.6],[23.7,20.2,20.4,24.6,26.5,22.5,20.1,35.1,21.1,20.9,21.1,14.5,15,31.8,15.3,19,29.5,16.9,18.6,15.6,19.6,12.8,18.6,26.9,17.3,20.1,20.9,null,25.5],[13,50.3,71.6,66.1,59.8,62.2,68.1,2.2,38.3,233.6,65.6,37.6,27,135.5,469.1,58.2,441,20.7,6,73.1,24.8,83.3,78.5,145.3,36.6,130.7,62.4,50,48.2],[3.2,3.2,3.2,6,3.2,6,6,6,6,6,6,6,6,6,6,6,6,6,6,5,6,6,5,5,5,5,5,5,5],[26.2,26.2,26.2,33.9,26.2,33.9,33.9,33.9,33.9,33.9,33.9,33.9,33.9,33.9,33.9,33.9,33.9,33.9,33.9,17.4,33.9,33.9,17.4,17.4,17.4,17.4,17.4,17.4,17.4],[0,0,2,0,0,0,0,0,1,2,1,1,3,2,0,0,0,0,0,0,0,0,0,0,0,1,1,0,0],[0,0,3,0,0,0,3,0,0,15,1,0,4,1,0,0,0,0,0,0,0,0,0,0,0,2,0,0,0],[0,1,2,0,1,0,1,0,1,9,1,1,4,1,1,1,0,1,0,0,0,0,1,0,1,3,1,0,1],[0,0,1,0,0,0,0,0,0,1,2,3,3,3,2,0,0,0,0,0,0,0,0,0,1,0,0,0,0],[0,1,3,0,0,0,1,1,0,23,1,1,8,5,2,0,0,0,0,0,0,0,3,0,1,2,3,0,0],[null,null,null,null,null,null,null,null,null,[[2020,1519],[2021,1452],[2022,1619],[2023,1338],[2024,1472],[2025,1495]],[[2020,1132],[2022,1114],[2024,668]],[[2020,1003],[2021,1021],[2022,956],[2023,951],[2024,1034],[2025,916]],[[2020,1265],[2021,1332],[2022,1126],[2023,1178],[2024,1448],[2025,1075]],[[2021,921],[2023,483]],null,null,null,null,null,null,null,null,null,null,null,null,null,null,null]]}}