{"type":"Topology","objects":{"neighborhoods":{"type":"GeometryCollection","geometries":[{"type":"MultiPolygon","arcs":[[[0,1,2,3]]],"properties":{"i":0}},{"type":"MultiPolygon","arcs":[[[4,5,6,7]]],"properties":{"i":1}},{"type":"MultiPolygon","arcs":[[[8,9,10,11]]],"properties":{"i":2}},{"type":"MultiPolygon","arcs":[[[12,-12,13,14]]],"properties":{"i":3}},{"type":"MultiPolygon","arcs":[[[15,-8,16,17]]],"properties":{"i":4}},{"type":"MultiPolygon","arcs":[[[-16,18,19,20,21,-5]]],"properties":{"i":5}},{"type":"MultiPolygon","arcs":[[[22,23,-15,24,-10,25,-19,-18,26,27]]],"properties":{"i":6}},{"type":"MultiPolygon","arcs":[[[-14,-11,-25]]],"properties":{"i":7}},{"type":"MultiPolygon","arcs":[[[-23,28,29,30,31]]],"properties":{"i":8}},{"type":"MultiPolygon","arcs":[[[-7,32,33,34,35,36,-27,-17]]],"properties":{"i":9}},{"type":"MultiPolygon","arcs":[[[37,38,-30,39,40,41,42,43,-4]]],"properties":{"i":10}},{"type":"MultiPolygon","arcs":[[[-29,-28,-37,44,-40]]],"properties":{"i":11}},{"type":"MultiPolygon","arcs":[[[-21,45,46]]],"properties":{"i":12}},{"type":"MultiPolygon","arcs":[[[-33,-6,-22,-47,47,48,49]]],"properties":{"i":13}},{"type":"MultiPolygon","arcs":[[[50,51,-34,-50]]],"properties":{"i":14}},{"type":"MultiPolygon","arcs":[[[52,53,54,55,-51,-49]]],"properties":{"i":15}},{"type":"MultiPolygon","arcs":[[[-56,56,57,58,59,60,61,-35,-52]]],"properties":{"i":16}},{"type":"MultiPolygon","arcs":[[[62,63,-59,64,65]]],"properties":{"i":17}},{"type":"MultiPolygon","arcs":[[[66,-57,-55]]],"properties":{"i":18}},{"type":"MultiPolygon","arcs":[[[67,68,-65,-58,-67,-54]]],"properties":{"i":19}},{"type":"MultiPolygon","arcs":[[[-36,-62,69,-41,-45]]],"properties":{"i":20}},{"type":"MultiPolygon","arcs":[[[-64,70,-60]]],"properties":{"i":21}},{"type":"MultiPolygon","arcs":[[[-42,-70,-61,-71,-63,71,72,73,74]]],"properties":{"i":22}},{"type":"MultiPolygon","arcs":[[[75,-72,-66,-69,76]]],"properties":{"i":23}},{"type":"MultiPolygon","arcs":[[[-73,-76,77,78]]],"properties":{"i":24}},{"type":"MultiPolygon","arcs":[[[-79,79,80,81,82,83,-1,-44,84,-74]]],"properties":{"i":25}},{"type":"MultiPolygon","arcs":[[[-75,-85,-43]]],"properties":{"i":26}},{"type":"MultiPolygon","arcs":[[[-81,85,86,87,88,89,90]]],"properties":{"i":27}},{"type":"MultiPolygon","arcs":[[[-82,-91,91]]],"properties":{"i":28}},{"type":"MultiPolygon","arcs":[[[-83,-92,-90,92,93,94,95]]],"properties":{"i":29}},{"type":"MultiPolygon","arcs":[[[96,97,98,99]]],"properties":{"i":30}},{"type":"MultiPolygon","arcs":[[[100,101,-98,102,103,104,105,106,107,108]]],"properties":{"i":31}},{"type":"MultiPolygon","arcs":[[[-99,-102,109,110]]],"properties":{"i":32}},{"type":"MultiPolygon","arcs":[[[-104,111,-38,-3,112]]],"properties":{"i":33}},{"type":"MultiPolygon","arcs":[[[-31,-39,-112,-103,-97,113]]],"properties":{"i":34}},{"type":"MultiPolygon","arcs":[[[114,-108,115,116,117,118]]],"properties":{"i":35}},{"type":"MultiPolygon","arcs":[[[119,-119,120,121,122]]],"properties":{"i":36}},{"type":"MultiPolygon","arcs":[[[-109,-115,-120,123,124,125]]],"properties":{"i":37}},{"type":"MultiPolygon","arcs":[[[-110,-101,-126,126,127]]],"properties":{"i":38}},{"type":"MultiPolygon","arcs":[[[-125,128,-127]]],"properties":{"i":39}},{"type":"MultiPolygon","arcs":[[[-116,-107,129,130]]],"properties":{"i":40}},{"type":"MultiPolygon","arcs":[[[131,132,-94,133,-130,-106]]],"properties":{"i":41}},{"type":"MultiPolygon","arcs":[[[134,-132,-105,-113,-2,-84,-96,135,136]]],"properties":{"i":42}},{"type":"MultiPolygon","arcs":[[[137,-137]]],"properties":{"i":43}},{"type":"MultiPolygon","arcs":[[[-138,-136,-95,-133,-135]]],"properties":{"i":44}},{"type":"MultiPolygon","arcs":[[[138,-117,-131,-134,-93,-89,139,140,141]]],"properties":{"i":45}},{"type":"MultiPolygon","arcs":[[[-88,142,143,-140]]],"properties":{"i":46}},{"type":"MultiPolygon","arcs":[[[144,-143,-87,145]]],"properties":{"i":47}},{"type":"MultiPolygon","arcs":[[[-141,-144,-145,146,147]]],"properties":{"i":48}},{"type":"MultiPolygon","arcs":[[[148,149,150,-142,-148]]],"properties":{"i":49}},{"type":"MultiPolygon","arcs":[[[-121,-118,-139,-151,151]]],"properties":{"i":50}},{"type":"MultiPolygon","arcs":[[[-152,-150,152,-122]]],"properties":{"i":51}}]}},"arcs":[[[44638,51191],[-32,5604]],[[44606,56795],[4936,-50],[480,-70],[2928,-1047],[224,-94],[387,-162]],[[53561,55372],[497,-1901],[39,-75],[253,-945]],[[54350,52451],[-1318,-1312],[-1267,-810],[-1976,51],[-4392,625],[-759,186]],[[39252,14052],[-1150,325],[-6,107],[-147,132],[-300,-83],[-966,432],[-1565,549]],[[35118,15514],[-413,2112],[-724,580],[-88,123],[-188,163],[-411,376],[-202,411],[-306,295],[-234,146]],[[32552,19720],[296,560],[82,155],[1358,1117],[553,358],[2246,121],[733,-330],[581,-358],[337,-228],[1463,-1342]],[[40201,19773],[5,-342],[-926,-4068],[-82,-1033],[38,-80],[16,-198]],[[53351,821],[-267,-8],[-233,38],[-24,1],[-194,77],[-151,60],[-84,70],[-1039,402],[-112,82],[-305,510]],[[50942,2053],[-994,684],[-830,797],[-504,1182],[-781,919],[187,1092],[881,300],[-151,1058],[165,864]],[[48915,8949],[2721,-941]],[[51636,8008],[-582,-1307],[333,-796],[1560,-1191],[731,102],[844,-194],[627,299],[345,-143],[39,-42],[112,-382],[7,-190],[-198,-860],[-440,-211],[3,-31],[-393,-285],[-564,-31],[-709,-1925]],[[59209,10985],[104,-699],[4,-29],[8,-47],[74,-145],[68,-133],[52,-101],[697,-696],[-830,41],[-259,-891],[-470,-2318],[59,-381],[1008,-2259],[1361,-1447],[-447,-76],[-383,-65],[-100,-17],[-33,-5],[-928,665],[-122,-313],[-400,-261],[-506,-488],[-297,-207],[-129,10],[-303,21],[-432,360],[-996,-429],[-634,-700],[-190,-40],[-655,-110],[-58,6],[-197,-18],[-513,141],[-411,467]],[[51636,8008],[365,1143],[-18,129],[76,787],[135,158],[856,771],[136,84],[346,104]],[[53532,11184],[1646,-49],[1443,-166],[1184,17],[497,51],[541,70],[366,-122]],[[39536,13456],[-258,501],[-26,95]],[[40201,19773],[871,1622],[483,803],[613,1345],[1547,42]],[[43715,23585],[896,-447],[3313,-2669],[-1177,-1258],[-913,-624],[-211,283],[-389,-214],[-2,-7],[-42,-77],[-63,-242],[-75,-245],[-14,-30],[-655,-278],[-1172,-547],[-546,-7],[-251,-154],[-343,-571],[-89,-198],[-129,-517],[-377,-252],[-339,-286],[-334,-909],[-607,-551],[-660,-329]],[[39536,13456],[-302,-591],[-137,-862],[-665,-655],[1410,-886],[41,-20],[34,-26],[143,-127],[157,-84],[-66,-366],[584,-678],[2243,-1053],[640,-1055],[17,-46],[-16,-182],[-567,-1614]],[[43052,5211],[-833,-983],[-1239,-237],[-1508,98],[-2243,-1074],[-175,-332],[-519,-582],[-366,-2101],[-1648,255],[-779,334],[-1094,2386],[-469,1232],[321,608],[-4,10],[-1405,1507],[-1353,-104],[-1443,-112],[-8,4]],[[28287,6120],[582,2058]],[[28869,8178],[1055,-10],[202,904],[-1757,1894],[-163,697],[1604,1979],[413,1268],[182,509],[1033,545],[1320,241],[2360,-691]],[[50366,27020],[2543,-1519],[159,-349],[45,-86],[108,-196],[168,-425],[679,-296],[2175,-16],[4,-2],[195,-23],[455,179],[35,8],[111,-13],[-28,-347],[520,-241],[-282,-753],[120,-264],[407,-918],[1369,-820],[83,-594],[-218,-1090]],[[59014,19255],[20,-724],[565,-999],[153,-238],[543,-800],[110,-122],[1134,-1260],[-1033,-713],[-1,-2],[-937,-2798],[-368,-603],[9,-11]],[[53532,11184],[-164,443],[-346,1354],[-62,290],[-126,99],[-105,67],[-104,54],[-64,23],[-722,530],[16,85],[22,47],[9,59],[-148,63],[-33,30],[-3,3],[-186,-37],[-23,-19],[-52,26],[-57,24],[-61,64],[-72,17],[-75,-32],[-45,-8],[-26,-1],[-57,-19],[-28,-64],[76,-173],[-9,-40],[-1142,-41],[-6,6],[-342,-76],[-554,-161],[-109,-65],[-7,-218],[35,-103],[61,-53],[23,-54],[18,-16],[61,-116],[-428,-151],[242,-417],[332,-75],[-304,-172],[55,-39],[198,-176],[280,-333],[-11,-43],[-535,76],[-499,182],[-288,-143],[-21,-45],[-5,-5],[-1,-1],[-24,-158],[429,-523],[-73,-555],[108,-292],[-88,-555],[423,-798]],[[50942,2053],[-1815,-628],[64,-339],[-1304,-109],[-1377,649],[38,917],[-132,292],[-204,319],[-1099,688],[-2,9],[-2059,1360]],[[43715,23585],[-194,980],[-236,1628],[71,61],[264,226]],[[43620,26480],[1727,-146],[1011,-91],[1124,-763],[634,200],[2250,1340]],[[50366,27020],[3897,5548]],[[54263,32568],[454,108],[247,182],[277,113],[1073,1115],[2074,120],[30,1],[568,195],[94,-71],[833,-190],[327,-571],[218,-77],[77,-68],[43,-34],[1057,131],[1887,711],[1772,667]],[[65294,34900],[448,-271]],[[65742,34629],[151,-790],[351,-751],[-515,-1567],[-239,-726],[1242,-1704],[402,-524],[594,-280],[2008,-1079],[-185,-845],[83,-1185],[450,-1693],[-920,-2596],[-449,-2110],[-1434,177],[-2628,965],[-2176,350],[-1668,21],[-286,-261],[-497,-1038],[-1012,262]],[[32552,19720],[-142,-43],[-207,-63],[-737,6]],[[31466,19620],[-776,784]],[[30690,20404],[242,904],[-90,398],[154,196],[236,463],[6,664],[3,156],[1,52],[-911,266],[-143,91],[-539,342],[-106,580],[108,201],[496,919],[859,846],[1249,2248],[1669,585],[413,530],[-63,477],[99,367],[217,233],[403,76],[320,-17],[344,-97],[773,12]],[[36430,30896],[2318,-221],[2095,-162],[686,-1],[1010,-243]],[[42539,30269],[305,-921],[135,-175],[5,-67],[216,-1174],[8,-84],[-49,-383],[461,-985]],[[54350,52451],[2712,-2516],[9,-16],[691,-807],[1517,-1150],[523,-410],[1098,-984],[475,-426],[372,-582],[111,-175]],[[61858,45385],[-220,-89],[-73,-62],[-522,-446],[219,-958],[20,-88],[-157,-545],[-604,-2100],[267,-856],[86,-180],[-188,-801],[192,-203],[80,-122],[241,-73],[999,-1127],[2056,-1982],[1040,-853]],[[54263,32568],[-79,23],[-1244,610],[-132,100],[-380,468],[-482,608],[-381,706],[-214,778],[-38,304],[-207,334],[-1140,134],[-752,-589],[-1227,-256],[5,-59],[576,-498],[-80,-167],[-318,196],[-555,119],[-361,-92],[-58,149],[-947,73],[-26,138],[486,507],[-69,71],[-144,131],[-223,132],[-418,-196],[255,-592],[-974,112],[-107,58],[-410,221],[-192,38],[-368,-58],[-234,-30]],[[43825,36041],[-2,6],[-427,587],[-929,430],[-582,-301],[-161,82],[-196,-93],[-1084,-14]],[[40444,36738],[-91,477],[-16,152],[-61,551],[241,340],[38,303],[42,98],[99,801],[-140,357],[9,154],[-612,786],[-65,79],[-1296,740],[593,848],[95,525],[-351,380],[-543,174],[-172,56],[-146,340],[148,83],[1023,574]],[[39239,44556],[165,-25],[652,87],[976,131],[117,-123],[1741,797],[265,71],[10,13],[311,344],[41,188],[5,27],[66,61],[456,424],[533,328],[-23,67],[-405,530],[-464,1403],[88,816],[62,197],[-62,219]],[[43773,50111],[392,490],[473,590]],[[42539,30269],[1068,1144],[323,-22],[940,258],[92,25],[19,35],[355,761],[-52,272],[-203,256],[-91,527],[-266,242],[-212,194],[-67,30],[-893,64],[-96,288],[-215,1203],[5,6],[528,427],[51,62]],[[28287,6120],[46,-1478],[-2605,-154],[-1544,-910],[-3327,-778],[-3349,5332],[42,269],[126,1213]],[[17676,9614],[-540,1308],[667,700],[3198,275],[1222,-60],[291,-111],[282,-381],[1680,-558],[146,-86],[514,-101],[866,-476],[128,-193],[24,-197],[836,-674],[143,-52],[1720,551],[16,-1381]],[[17676,9614],[-787,-163],[-1338,2125],[-137,172],[-648,809],[-94,118],[-161,200],[-196,16],[-1240,95],[-1047,1167],[-418,323],[-301,235],[157,453],[226,649]],[[11692,15813],[926,811],[3231,1888],[1221,-132],[1600,-193],[2669,183],[1423,-295],[830,-159],[874,363],[772,354],[29,159],[0,64]],[[25267,18856],[161,93],[360,97],[5,-1],[226,130],[28,34],[-45,171],[-70,61],[295,64],[49,113],[571,158],[1391,-677],[231,-138],[2350,261],[493,303],[154,95]],[[25267,18856],[-176,262],[-368,400],[-70,200],[-80,53],[-278,619],[-47,140],[-9,4],[-232,240],[-553,378],[67,417],[-41,584],[-699,510],[-38,28],[-91,54],[-514,103],[-112,331],[-7,68],[605,470],[991,195],[-299,797],[2,18],[83,355],[30,86],[176,58],[756,492]],[[24363,25718],[684,640],[1042,981],[1149,-456],[242,-835],[354,-786],[305,-581],[154,-304],[135,-960],[7,-878],[164,-1106],[68,-468],[33,-77],[247,-576],[36,10],[1707,82]],[[11692,15813],[-625,509],[-450,368],[-228,194],[-189,161],[-271,230],[-747,3468],[-1164,2290],[1110,2204]],[[9128,25237],[1581,488],[3397,1420],[1808,969]],[[15914,28114],[778,-283],[126,-11],[1450,-828],[946,205],[154,105],[227,49],[397,71],[682,285],[325,717],[488,-9],[433,-88],[302,89],[165,-70],[95,-167],[553,-123]],[[23035,28056],[-861,-357],[-275,-139],[1000,-1718],[1464,-124]],[[23035,28056],[-97,497],[-330,295],[-329,834],[-103,93],[-1,34],[39,98],[-565,940],[-2,58],[-83,548],[-119,278],[-2,9],[-40,110],[8,71],[-1197,897],[-599,255],[-54,16],[-53,277],[-33,56],[-106,92],[-321,180],[-76,32],[-935,-362],[-137,-2],[-457,-206],[-370,-187],[-301,-295]],[[16772,32674],[-1026,1664],[-1932,2209],[-5,16]],[[13809,36563],[1271,349],[191,98],[4400,-438],[863,773],[103,538],[47,39],[1277,-141],[1165,-685],[191,-198],[42,-17],[2189,387]],[[25548,37268],[114,-211],[1429,-561],[346,18],[619,-884],[-149,-209],[4,-94],[-48,-63],[-229,-952],[75,-81],[735,-217],[559,35],[594,196],[176,32],[150,-125],[390,-297],[27,-51],[230,-154],[123,-168],[106,-57],[56,-7],[533,-186],[228,-63],[1,-1],[206,-517],[395,-139],[422,110],[405,-59],[676,49],[331,318],[497,259],[571,685]],[[35120,33874],[25,-4]],[[35145,33870],[874,-603],[1314,-109],[107,-62],[246,-211],[-355,-784],[-582,-408],[2,-23],[-321,-774]],[[23885,43339],[999,389],[1987,-633],[1208,-1392],[61,-45],[1078,-2305]],[[29218,39353],[-408,-313],[-419,-256],[-826,-114],[-1586,-125],[-431,-1277]],[[13809,36563],[-2082,3155]],[[11727,39718],[2761,1596],[2894,1920],[701,219],[351,110],[364,-179],[623,-375],[76,-64],[333,-367],[227,-89],[119,-83],[556,33],[461,176],[127,-126],[5,-3],[135,27],[972,889],[273,-68],[254,1],[926,4]],[[15914,28114],[32,266],[353,721],[486,473],[-109,162],[-20,135],[-218,68],[-13,83],[347,2652]],[[9128,25237],[-1403,1207],[-841,1029],[-79,870],[564,3467],[-69,2496],[-2204,2062],[-2282,2911],[-37,349]],[[2777,39628],[87,94],[168,365],[158,343],[1087,1658],[167,134],[391,253],[1556,277],[1149,-569],[4187,-2465]],[[35145,33870],[1303,617],[412,45],[719,21],[571,180],[158,141],[5,543],[23,57],[64,43],[699,296],[461,136],[731,-14],[153,803]],[[29218,39353],[515,88],[362,-5],[520,-147],[83,-48],[670,-439],[197,-53],[100,-114],[306,-627],[157,-282],[-6,-156],[-63,-244],[-261,-597],[38,-202],[27,-165],[1087,-640],[161,-139],[103,-94],[255,-376],[525,-146],[246,-106],[425,-422],[455,-565]],[[23885,43339],[52,1779],[6,174]],[[23943,45292],[339,50],[1671,-203],[3286,273],[4,-1]],[[29243,45411],[859,-600],[203,-125],[244,-129],[1735,450],[1185,337],[536,347],[218,547],[71,179],[516,-21],[2053,-86]],[[36863,46310],[700,-518],[243,-180],[21,-157],[1412,-899]],[[18206,55038],[144,-264],[1137,-1970],[712,-154],[676,-545],[61,-197],[60,-139],[375,-954],[23,-117],[-877,-810],[-83,-2086],[881,-684],[453,-760],[145,-133],[1600,-539],[430,-394]],[[2777,39628],[-2283,2414],[-396,1388],[52,27],[31,14],[-106,2709],[-27,21],[-48,914],[484,1233],[317,736],[314,728],[972,4439],[792,132],[1752,925],[1636,-461],[2859,1067],[1778,697],[787,194],[357,73],[922,-114],[1568,-1016],[1944,-649],[1724,-61]],[[18206,55038],[931,993],[226,76],[210,70],[433,136],[2387,1012],[34,15],[104,104]],[[22531,57444],[2667,-1595],[2139,-1788],[56,-42],[1003,-2729],[237,-646],[319,-1473],[557,-429],[102,-79],[265,-149],[627,-1593],[-418,-502],[-842,-1008]],[[22531,57444],[-28,70],[1015,3278],[25,1608],[-375,1927],[-4,6],[-1287,3534],[2896,500]],[[24773,68367],[1056,-28],[3403,-93],[720,-345],[2449,-1902]],[[32401,65999],[5377,-1553],[341,-12],[2945,-99],[1006,-178]],[[42070,64157],[1221,-450]],[[43291,63707],[516,-3102],[799,-3810]],[[43773,50111],[-93,19],[-110,-6],[-2199,-120],[-333,-218],[-571,-413],[-748,86],[-1052,-372],[-506,-110],[0,-56],[-38,-214],[100,-464],[123,-255],[-1161,-996],[-34,-100],[-135,-400],[-153,-182]],[[24773,68367],[605,2138],[287,1016],[-650,801],[-342,420],[120,314],[71,23],[30,10],[45,71],[155,271],[676,1791],[-814,1178],[-2045,2955],[112,20],[6492,1674],[178,46],[938,716],[169,550],[129,418],[2915,2951],[1674,1019],[1122,683],[3943,-126],[386,-12]],[[40969,87294],[3084,-1999]],[[44053,85295],[3677,-7468],[167,-184]],[[47897,77643],[-229,-1500],[-87,-570]],[[47581,75573],[-1659,-1679]],[[45922,73894],[-3812,703],[-205,114],[-197,-80],[-180,49],[-411,1072],[-748,738],[-747,54],[-903,-538],[-287,-398],[-15,-488],[208,-11],[327,-171],[695,-725],[102,-452],[-323,-42],[-196,6],[-1101,-475],[18,-210],[-131,-222],[-56,-37],[-114,-683],[54,-435],[-1057,-568],[-5,-280],[57,-185],[-609,-2183],[-1596,-701],[-2289,-1747]],[[45922,73894],[-407,-432],[-376,-1012],[-1701,-535],[-1379,-1116],[235,-555],[-100,-108],[-238,-724],[18,-243],[61,-126],[-304,-229],[-468,-480],[-65,-42],[-220,-66],[-447,-326],[165,-704],[539,-273],[65,-57],[12,3],[333,-10],[214,-38],[4,-1],[715,-554],[-16,-83],[27,-69],[-40,-596],[390,-464],[-953,-31],[63,-646],[21,-220]],[[47581,75573],[2060,-2172],[4897,-5185],[204,-216]],[[54742,68000],[-151,-1909]],[[54591,66091],[-73,-51],[-280,-97],[-2004,-695],[-126,-44]],[[52108,65204],[-71,27],[-965,362],[-1992,63],[-2026,-86],[-3633,-1573],[-130,-290]],[[69369,36890],[-316,1777],[-200,1120]],[[68853,39787],[1535,1734],[17,13],[44,28],[952,552],[150,60],[447,77],[431,-243],[154,-375],[269,-211],[266,-48],[416,73],[331,-127],[54,-24],[1551,553],[11,7]],[[75481,41856],[628,-1122],[-1,-4],[64,-243],[-713,-614],[309,-688],[103,-24],[491,298],[1121,-378],[76,-82],[20,-45],[214,-117],[1364,-304],[80,8],[384,-362],[83,-71],[1181,225],[861,-1126],[46,-280],[59,-116],[-17,-136],[88,-179],[75,-120],[195,-168],[592,0],[144,46],[377,5],[786,791],[364,-162],[103,-308],[-530,-821],[-26,-349],[115,-131],[69,-99],[324,-607],[0,-349],[-86,-967]],[[84424,33257],[-1072,148],[-301,-24],[-827,-340],[-187,-112],[-1349,99],[-277,339],[-111,119],[-233,207],[-83,32],[-100,56],[-374,192],[-106,34],[-1635,-44],[-1012,-10],[-497,171],[-82,4],[-443,22],[-636,513],[-25,-5],[-873,262],[-2862,973],[-510,338],[-725,481],[-735,178]],[[81283,46378],[1157,-812],[592,-487],[245,-314],[165,-627]],[[83442,44138],[-485,-12],[-1606,226],[-478,-318],[301,-339],[-93,-515],[303,-126],[-724,-447],[-150,166],[-137,361],[-398,332],[-40,183],[-780,207],[-340,111],[196,1362],[-11,48],[17,197],[113,741],[16,39],[30,86],[-1291,592],[-790,-570],[-197,-339],[-258,-92],[-466,-505],[-187,78],[-131,88],[-105,19],[-84,-69],[-44,-256],[95,-256],[-164,-110],[-175,-93],[51,-855],[51,-2216]],[[68853,39787],[-2057,1759],[0,10],[-940,585],[-732,484],[20,766],[1623,29]],[[66767,43420],[1322,1374],[-1116,2266],[-518,1571],[696,1017],[498,258],[-168,639]],[[67481,50545],[1133,144],[943,417],[429,239],[731,-346],[584,-165],[692,801],[-559,1099],[-752,580],[-2966,2022]],[[67716,55336],[1179,1550],[1027,647],[-341,1112],[-34,811],[682,313],[-474,572],[-317,466]],[[69438,60807],[2208,412],[2181,1713]],[[73827,62932],[2568,386],[619,-498],[60,-58],[9,-11],[122,-1008],[205,-413],[226,-332],[113,-230],[238,-165],[328,-171],[167,-25],[270,-118],[516,-242],[87,-64],[280,-69],[185,-68],[1324,-1456],[468,-552]],[[81612,57838],[-1151,-1615],[-1474,-464],[-618,-473],[-770,223],[-408,-278],[365,-693],[634,-374],[218,-517],[425,-619],[1276,-112],[756,-599],[118,-607],[54,-527],[-680,-1991],[-64,-130],[-8,-89],[327,-2170],[533,-387],[138,-38]],[[83442,44138],[5,-6],[-35,-845],[-327,-1076],[168,-309],[138,-771],[168,-231],[1022,-597],[346,-333],[16,-9],[22,-25],[377,-506],[93,-146],[115,-79],[858,-1187],[268,-157],[19,-11],[177,-220],[730,-525],[321,-231]],[[87923,36874],[-51,-577],[-33,-374],[153,-319],[90,-451],[71,-158],[211,-252],[-1073,-631],[-137,-136],[-1457,-1452],[-281,-280],[-302,454],[-50,57],[-640,502]],[[66767,43420],[-2381,955],[-269,489],[-306,181],[-1953,340]],[[53561,55372],[1864,-25],[2194,-734],[2683,-2473],[1964,-1083],[2143,-1349],[266,4],[-256,612],[-440,806],[622,40],[78,-147],[-45,-205],[478,-91],[213,15],[353,-225],[257,27],[13,350],[1096,37],[437,-386]],[[69369,36890],[-3627,-2261]],[[87624,57992],[-1561,-836],[-1082,75],[-1529,-87],[-13,-8],[-978,171],[-849,531]],[[73827,62932],[-353,462],[-549,1990],[-102,277],[-107,546],[-91,1436]],[[72625,67643],[381,1266]],[[73006,68909],[826,755],[875,114],[873,-63],[315,-54],[866,-407],[278,-10],[95,-15],[242,-53],[140,-22],[383,-142],[14,-7],[746,-588]],[[78659,68417],[50,-285],[27,-156],[1880,-1824],[186,-569],[57,-38],[286,-332],[172,-66],[93,-194],[161,-382],[298,-297],[370,-255],[297,-270],[163,-128],[140,-307],[2544,-2939],[9,-7],[269,-238],[6,-37],[99,-174],[-182,-1010],[21,-121],[1048,-653],[167,-8],[381,18],[423,-153]],[[93404,55233],[-621,231],[-738,629],[-513,762],[-1483,1386],[-1497,4],[-193,-88],[-15,-3],[-264,-93],[-456,-69]],[[78659,68417],[1206,374],[1579,940],[119,167]],[[81563,69898],[1190,-24],[3738,-433],[860,-100],[9,-1],[16,-5],[1762,-536],[390,32],[172,14]],[[89700,68845],[-227,-653],[42,-269],[1,-2],[432,-462],[1762,-1572],[723,-918],[-415,-2138],[1154,-2407],[282,-588],[171,-1783],[352,-1290],[-143,-387],[-423,-1140],[-7,-3]],[[93404,55233],[1795,-4301]],[[95199,50932],[-351,-22],[-112,16],[-1106,199],[-1506,662],[-842,269],[-1798,-358],[-1373,-1469],[-362,-389],[-3,-6],[-168,-3216],[81,-353]],[[87659,46265],[-997,-323],[-326,19],[-378,34],[-59,-17],[-50,-4],[-675,-50],[-50,24],[-88,60],[-50,36],[-272,224],[-666,434],[-190,26],[-78,27],[-132,64],[-476,50],[-1889,-486],[0,-5]],[[87659,46265],[1,-5],[7,-4],[1813,369],[1449,346],[1011,-289],[190,32],[231,-192],[153,-503],[-142,-426],[267,-312],[1308,-527],[1108,7],[962,1777],[29,6]],[[96046,46544],[255,-569],[37,-141],[575,-1224],[370,-311],[75,-92],[19,-83],[109,-202],[348,-149],[465,-257],[27,-15],[594,-277],[56,-503],[1,-4],[17,-53],[-626,-1286],[-19,-278],[-41,-86],[92,-425],[-69,-1221],[-149,-62],[-415,143],[-621,237],[-1739,-504],[-347,-171],[-537,139],[-460,-260],[-81,-46],[-531,-81],[-540,5],[-239,79],[-1222,402],[-138,-690],[-1181,-668],[3,-11],[-227,-231],[-233,-30],[-116,17],[-484,-122],[-376,-95],[-40,-9],[-476,-459],[-259,-77]],[[95199,50932],[1840,-513],[690,-716],[21,-22],[941,-708],[642,-451],[666,-469],[-916,-853],[-961,-207],[-788,-171],[-1288,-278]],[[69438,60807],[-26,26],[-528,753],[-7,26],[-836,1410],[-164,463],[1,202],[-18,123],[-6,11],[-2,2],[-114,266],[-279,93],[-348,44],[-300,-14],[-74,63],[119,290],[410,59],[22,-22],[136,-16],[563,384],[-490,633],[-85,143],[-230,212],[-21,16],[-361,-148],[-196,-80],[-400,-23],[-1048,-300],[-630,76],[-790,69],[-313,85],[-260,-3],[-73,5],[-848,163],[-215,96],[-25,-3],[-359,323],[-2478,658],[-178,351],[-340,965]],[[58647,68208],[1344,-275],[2154,-474],[2485,-197],[1882,633],[157,-13],[1865,112],[4091,-351]],[[67716,55336],[-744,160],[-1428,943],[-1965,1808],[-674,750],[-615,817],[-1351,915],[-994,732]],[[59945,61461],[-788,610],[-1218,388],[-38,597],[-1066,882],[-956,547],[-726,689],[-224,270],[-338,647]],[[54742,68000],[360,22],[1421,89],[2060,128],[64,-31]],[[56155,60676],[1165,-572],[384,368],[652,689],[296,422],[351,-28],[942,-94]],[[52108,65204],[-353,-1392],[704,-745],[939,-647],[884,-972],[579,-184]],[[54861,61264],[-433,-1530],[-481,-322],[-1123,-624],[920,-1102],[285,-576],[299,202],[-149,762],[21,519],[992,1112],[213,444],[750,527]],[[54861,61264],[1294,-588]],[[70932,79586],[-89,-184],[-658,-2324],[1227,-683],[380,-368],[318,-142],[-198,-218],[151,-1202],[153,-141],[91,-126],[-158,-630],[-162,-917],[107,-310],[-2,-213],[-12,-358],[122,-2058],[804,-803]],[[47897,77643],[3704,-1153],[5862,-626],[680,680],[34,16],[176,342],[1607,1417],[-38,1621],[-151,687],[-704,-218],[315,2323],[746,3499]],[[60128,86231],[4067,-1497],[1648,-1506],[2869,-653]],[[68712,82575],[-5,-116],[51,-1232],[166,-333],[847,-850],[45,-41],[1116,-417]],[[44053,85295],[6852,2469],[1409,404],[-68,380],[125,23],[-19,230],[1030,503],[1757,558],[3751,-1407]],[[58890,88455],[512,-1089],[688,-878],[38,-257]],[[58797,92104],[-561,-711],[-69,-333],[717,-2500],[6,-105]],[[40969,87294],[-78,654],[-635,5343],[1821,1407],[0,6],[571,675],[4,4],[3563,3318],[3052,1298],[333,-299],[2488,-1012],[364,-286],[434,-341],[1024,-804],[75,-21],[114,-33],[1204,180],[964,-427],[161,-78],[301,-171],[149,-72],[225,-139],[266,-148],[256,-156],[860,-2159],[298,-1841],[14,-88]],[[58797,92104],[106,9],[1372,104],[1326,-234],[325,-196],[412,-73],[3648,-998],[4501,-282],[1123,-259],[1859,-1098],[1241,-888]],[[74710,88189],[-1584,-1205],[-2790,-1550],[-257,-45],[-73,-2],[-187,15],[-86,-34],[-45,-8],[-265,20],[-255,-54],[-49,-72],[-249,-1212],[-512,-286],[635,-406],[-281,-775]],[[74710,88189],[3886,-3151],[940,-763]],[[79536,84275],[35,-400],[145,-1706],[274,-26],[219,-80],[-7,-198],[-273,-99],[-457,-445],[-660,-355],[-247,-569],[453,-994],[-204,-250],[-282,-248],[-469,61],[-584,366],[-1081,49],[-267,-20],[-587,-308]],[[75544,79053],[-4612,533]],[[75544,79053],[388,-816],[640,-487],[667,-211],[260,-184],[405,-372],[296,-424],[-78,-189],[-222,-374],[-595,-1125],[-91,-131],[4349,-4842]],[[79536,84275],[894,-296],[2381,-327],[4079,1156],[2575,-359],[110,33],[892,-446],[1676,-2420],[90,-1279],[-1172,-2369],[991,-1404],[1277,125],[-921,-1902],[5,-23],[-449,-1353],[-103,-123],[-1203,-1438],[-1131,-1038],[-71,-1163],[244,-804]]],"bbox":[24.285349661451505,62.52645538507396,26.289534372014167,63.62504549359557],"transform":{"scale":[0.000020042047526101875,0.000010986010945325581],"translate":[24.285349661451505,62.52645538507396]},"propertiesColumnar":{"format":"columnar/1","keys":["id","postinumeroalue","nimi","namn","euref_x","euref_y","pinta_ala","vuosi","kunta","he_vakiy","he_naiset","he_miehet","he_kika","he_0_2","he_3_6","he_7_12","he_13_15","he_16_17","he_18_19","he_20_24","he_25_29","he_30_34","he_35_39","he_40_44","he_45_49","he_50_54","he_55_59","he_60_64","he_65_69","he_70_74","he_75_79","he_80_84","he_85_","ko_ika18y","ko_perus","ko_koul","ko_yliop","ko_ammat","ko_al_kork","ko_yl_kork","hr_tuy","hr_ktu","hr_mtu","hr_pi_tul","hr_ke_tul","hr_hy_tul","hr_ovy","te_taly","te_takk","te_as_valj","te_yks","te_nuor","te_eil_np","te_laps","te_plap","te_aklap","te_klap","te_teini","te_yhlap","te_aik","te_elak","te_omis_as","te_vuok_as","te_muu_as","tr_kuty","tr_ktu","tr_mtu","tr_pi_tul","tr_ke_tul","tr_hy_tul","tr_ovy","ra_ke","ra_raky","ra_muut","ra_asrak","ra_asunn","ra_as_kpa","ra_pt_as","ra_kt_as","ra_muu_as","tp_tyopy","tp_alku_a","tp_jalo_bf","tp_palv_gu","tp_a_maat","tp_b_kaiv","tp_c_teol","tp_d_ener","tp_e_vesi","tp_f_rake","tp_g_kaup","tp_h_kulj","tp_i_majo","tp_j_info","tp_k_raho","tp_l_kiin","tp_m_erik","tp_n_hall","tp_o_julk","tp_p_koul","tp_q_terv","tp_r_taid","tp_s_muup","tp_t_koti","tp_u_kans","tp_x_tunt","pt_vakiy","pt_tyoll","pt_tyott","pt_0_14","pt_opisk","pt_elakel","pt_muut","city","pno","unemployment_rate","higher_education_rate","pensioner_share","ownership_rate","rental_rate","population_density","child_ratio","student_share","detached_house_share","youth_ratio_pct","gender_ratio","single_parent_hh_pct","families_with_children_pct","tech_sector_pct","healthcare_workers_pct","employment_rate","elderly_ratio_pct","avg_household_size","manufacturing_jobs_pct","public_sector_jobs_pct","service_sector_jobs_pct","new_construction_pct","foreign_language_pct","crime_index","property_price_sqm","transit_stop_density","air_quality_index","daycare_density","school_density","healthcare_density","restaurant_density","grocery_density","cycling_density","single_person_hh_pct","rental_price_sqm","price_to_rent_ratio","walkability_index","traffic_accident_rate","property_price_change_pct","school_quality_score","light_pollution","noise_pollution","voter_turnout_pct","party_diversity_index","broadband_coverage_pct","ev_charging_density","tree_canopy_pct","transit_reachability_score","sports_facility_density","water_proximity_m","avg_construction_year","income_history","population_history","unemployment_history","income_change_pct","population_change_pct","unemployment_change_pct","schools","crime_index_history","crime_index_change_pct","health_index","radon","municipality","lon","lat","flood_risk_pct","population_projection_pct","construction_activity","active_plan_count","political_lean_index","party_vote_kok_pct","party_vote_sdp_pct","party_vote_ps_pct","party_vote_kesk_pct","party_vote_vihr_pct","party_vote_vas_pct","party_vote_rkp_pct","foreign_language_municipal_pct","foreign_language_history","foreign_language_est_pct","low_income_pct","job_self_sufficiency","property_price_history"],"cols":[[1288,1283,1218,1219,1284,1282,1279,1280,1281,1285,1286,1287,1289,1291,1292,1293,1294,1295,1296,1297,1298,1299,1300,1301,1302,1303,1304,1305,1306,1307,1328,1329,1330,1331,1332,1333,1334,1335,1336,1337,1338,1339,1340,1341,1342,1343,1344,1345,1346,1347,1348,1349],["43390","43240","41260","41270","43250","43220","43100","43130","43170","43270","43300","43340","43420","43440","43480","43490","43500","43520","43540","43560","43610","43640","43660","43700","43720","43800","43840","43900","43940","43960","44480","44500","44530","44580","44590","44610","44630","44640","44670","44680","44730","44740","44760","44770","44790","44800","44860","44880","44910","44920","44950","44970"],["Lokakylä","Lehtola","Hoikankylä","Lannevesi","Kolkanlahti","Mahlu","Saarijärvi Keskus","Tarvaala","Häkkilä","Kalmari","Kannonkoski Keskus","Kannonjärvi","Kukko","Pylkönmäki Keskus","Pääjärvi","Kangasaho","Karstula Keskus","Kiminki","Rantakylä-Pirttilahti","Vahanka","Aho","Humppi","Vastinki","Kyyjärvi Keskus","Kumpulainen","Kivijärvi Keskus-Sompala","Sompala","Kinnula Keskus","Muhola-Saarensalmi","Saarensalmi","Niinilahti","Viitasaari Keskus","Ilmolahti","Huopanankoski","Vuorilahti","Kärnä","Kumpumäki","Kymönkoski","Suovanlahti","Lahnanen","Löytänä","Keitelepohja-Kotvala","Keihärinkoski","Valkeisjärvi","Kotvala","Pihtipudas Keskus","Alvajärvi","Muurasjärvi","Elämäjärvi","Peninki","Kärväsjärvi","Korppinen"],["Lokakylä","Lehtola","Hoikankylä","Lannevesi","Kolkanlahti","Mahlu","Saarijärvi centrum","Tarvaala","Häkkilä","Kalmari","Kannonkoski centrum","Kannonjärvi","Kukko","Pylkönmäki centrum","Pääjärvi","Kangasaho","Karstula centrum","Kiminki","Rantakylä-Pirttilahti","Vahanka","Aho","Humppi","Vastinki","Kyyjärvi centrum","Kumpulainen","Kivijärvi centrum-Sompala","Sompala","Kinnula centrum","Muhola-Saarensalmi","Saarensalmi","Niinilahti","Viitasaari centrum","Ilmolahti","Huopanankoski","Vuorilahti","Kärnä","Kumpumäki","Kymönkoski","Suovanlahti","Lahnanen","Löytänä","Keitelepohja-Kotvala","Keihärinkoski","Valkeisjärvi","Kotvala","Pihtipudas centrum","Alvajärvi","Muurasjärvi","Elämäjärvi","Peninki","Kärväsjärvi","Korppinen"],[412910,398554,413814,418254,405823,397630,412268,413079,423378,399037,413221,411250,384722,382833,388766,377725,388309,383042,381621,372120,403003,393006,397541,374777,387581,397030,404115,400694,403240,411697,438849,437913,444022,425938,428324,442253,450509,451797,454830,457537,434088,428143,422974,417944,419115,424563,416743,414394,431342,438807,440224,448898],[6999593,6957036,6938184,6941303,6959248,6943887,6958824,6947627,6966426,6965424,6985903,6971455,6943920,6951759,6963437,6962163,6974130,6984017,6972252,6976082,6975408,6979360,6983571,6994452,6997073,7002655,6992157,7028328,7018758,7020321,6979384,6997300,6981807,6994192,6982151,7010996,7011398,6996954,6984478,6992365,7012594,7009285,7004417,7006309,7011056,7027450,7034584,7047464,7040594,7035635,7024094,7027328],[65712975,48418043,37106989,82012447,50625768,178905660,341385946,27434888,246986027,137620056,388631570,103191798,91535158,179661603,47216195,170904804,183390499,105891098,37067375,170112298,50558770,41729407,140553792,348380804,111735679,434487056,35832726,367557608,85245390,112149118,96159316,279204940,93605917,87634222,70745945,101903579,138810584,150634091,135324578,66956053,59829470,115534463,231453173,4562377,27157046,326235517,192753516,216379959,107318766,88878349,84464989,230357066],[2026,2026,2026,2026,2026,2026,2026,2026,2026,2026,2026,2026,2026,2026,2026,2026,2026,2026,2026,2026,2026,2026,2026,2026,2026,2026,2026,2026,2026,2026,2026,2026,2026,2026,2026,2026,2026,2026,2026,2026,2026,2026,2026,2026,2026,2026,2026,2026,2026,2026,2026,2026],["265","729","729","729","729","729","729","729","729","729","216","216","729","729","729","226","226","226","226","226","226","226","226","312","312","265","265","256","256","256","931","931","931","931","931","931","931","931","931","931","931","931","931","931","931","601","601","601","601","601","601","601"],[67,143,137,437,279,364,5787,397,209,402,988,138,49,429,114,140,2491,180,122,147,60,117,195,1037,77,850,57,1229,190,55,135,3838,166,199,65,135,141,300,133,53,76,180,262,0,41,2224,207,530,198,179,167,143],[34,65,69,208,130,166,3009,195,86,178,468,62,22,202,47,64,1298,84,61,67,30,56,92,514,33,400,27,593,76,28,62,2005,79,96,31,63,68,143,62,25,40,88,119,0,18,1184,96,258,92,83,70,59],[33,78,68,229,149,198,2778,202,123,224,520,76,27,227,67,76,1193,96,61,80,30,61,103,523,44,450,30,636,114,27,73,1833,87,103,34,72,73,157,71,28,36,92,143,0,23,1040,111,272,106,96,97,84],[53,54,45,51,51,54,51,45,56,52,53,51,46,51,54,53,53,53,47,56,62,53,54,52,64,53,45,48,53,57,55,53,50,49,60,57,58,53,57,49,59,47,53,0,53,51,53,48,49,50,51,53],[2,0,2,4,9,4,94,6,3,3,20,2,1,14,2,1,34,1,3,4,0,4,3,21,0,14,1,24,2,0,2,66,5,8,1,3,0,6,0,2,0,7,4,0,0,42,5,14,4,4,2,3],[6,3,5,11,11,9,161,11,5,7,27,0,2,20,0,2,60,6,4,2,0,2,4,30,3,27,4,68,3,2,4,112,8,8,0,1,2,8,3,2,0,5,4,0,4,62,5,15,5,1,3,1],[3,12,13,25,9,17,330,42,6,15,38,10,6,28,4,7,120,14,10,4,0,5,7,81,1,47,4,111,13,0,3,197,7,13,2,1,3,12,5,3,3,14,10,0,2,123,4,42,11,11,12,5],[1,3,5,11,5,9,177,19,6,18,34,4,3,11,3,6,76,5,7,2,0,2,6,46,2,19,2,39,9,4,4,100,4,5,2,1,6,9,3,3,1,5,11,0,0,71,5,26,8,12,8,7],[0,1,2,15,4,6,122,18,1,9,13,4,2,9,4,4,55,2,3,2,0,2,1,16,0,20,1,31,3,0,1,58,3,7,1,2,1,4,2,1,0,2,6,0,0,60,6,15,2,5,4,3],[1,1,5,8,7,7,118,9,0,5,21,4,0,4,1,2,56,3,3,2,1,3,4,15,1,18,3,20,4,1,1,65,3,1,0,3,0,4,2,0,2,3,3,0,0,51,4,6,4,3,3,0],[1,2,4,14,2,9,196,6,3,14,28,3,0,10,5,2,58,3,3,6,2,6,6,11,0,13,1,31,4,2,6,142,1,1,1,1,1,8,2,0,0,5,4,0,0,82,6,14,7,3,4,2],[0,0,4,10,11,14,176,12,2,10,24,8,1,9,2,0,83,2,3,7,0,0,7,21,0,26,3,39,6,2,3,132,6,7,1,4,1,5,3,3,0,14,7,0,1,73,10,12,9,4,0,3],[2,9,8,17,10,8,239,14,9,22,35,2,1,17,4,2,92,10,4,2,1,2,5,23,1,37,3,48,7,0,4,158,1,11,0,10,5,17,5,1,0,8,9,0,3,84,9,21,10,7,5,5],[2,6,11,21,8,13,262,24,8,15,36,2,3,17,7,7,140,5,5,2,0,6,6,50,1,32,3,44,2,0,4,193,10,7,4,3,13,13,6,2,0,13,9,0,1,79,5,27,8,11,5,9],[2,4,4,18,19,18,308,26,7,21,39,3,3,21,4,16,117,8,11,4,6,3,7,44,2,37,2,56,7,1,3,186,11,10,5,6,6,10,1,5,5,11,15,0,1,118,10,32,8,9,12,10],[4,8,8,32,15,9,290,27,9,18,41,13,1,16,5,6,113,8,5,12,4,5,10,68,0,32,3,37,9,1,7,184,8,8,1,5,5,14,5,1,3,2,15,0,3,108,5,38,14,8,11,11],[5,3,7,32,20,22,303,20,20,34,57,11,4,28,7,8,132,13,6,11,3,8,14,46,2,39,1,63,9,3,7,153,16,10,3,5,5,20,8,5,8,9,17,0,3,126,9,30,12,15,11,5],[6,12,12,32,26,28,355,33,18,39,87,10,2,26,13,15,165,10,8,13,9,16,16,67,6,73,3,76,16,8,16,225,10,10,4,13,12,22,16,0,11,16,21,0,3,155,16,41,19,14,13,13],[4,23,15,37,31,49,493,38,31,36,88,19,2,32,12,15,199,18,9,8,8,10,32,87,12,73,5,111,13,7,17,317,22,31,3,17,10,37,11,4,13,10,20,0,3,171,21,40,15,15,20,17],[4,19,7,46,38,48,535,36,24,33,114,15,9,44,8,14,238,19,8,12,7,14,17,112,7,83,4,101,23,9,18,358,13,19,9,20,16,32,15,8,11,10,34,0,6,212,34,40,13,14,17,12],[4,15,7,42,24,37,532,19,20,31,101,11,6,50,10,12,266,17,9,20,9,9,14,97,15,72,9,127,23,3,11,379,17,14,11,18,25,29,12,8,11,18,28,0,5,171,17,36,21,15,15,14],[11,16,11,34,15,26,488,16,21,31,90,9,1,30,11,13,222,15,14,15,1,5,19,97,15,74,3,90,17,6,9,336,12,17,10,11,17,26,22,2,6,9,23,0,2,160,16,38,11,11,14,12],[8,3,3,17,6,14,284,13,8,25,39,4,1,24,7,2,128,6,4,12,5,7,10,51,3,59,1,56,13,5,8,213,6,5,7,4,5,6,7,1,1,6,14,0,3,130,5,19,10,9,5,5],[1,3,4,11,9,17,324,8,8,16,56,4,1,19,5,6,137,15,3,7,4,8,7,54,6,55,1,57,7,1,7,264,3,7,0,7,8,18,5,2,1,13,8,0,1,146,15,24,7,8,3,6],[55,124,110,371,241,319,4903,301,188,350,856,118,35,347,101,120,2146,152,95,133,60,102,174,843,71,723,45,956,160,49,121,3305,139,158,59,127,129,261,120,42,72,147,227,0,35,1866,182,418,168,146,138,124],[19,26,21,77,52,91,1345,57,60,115,230,42,11,107,23,25,582,48,35,43,11,26,48,277,38,246,17,291,58,15,24,917,34,43,9,22,46,62,30,13,19,45,67,0,13,560,52,121,49,53,43,39],[36,98,89,294,189,228,3558,244,128,235,626,76,24,240,78,95,1564,104,60,90,49,76,126,566,33,477,28,665,102,34,97,2388,105,115,50,105,83,199,90,29,53,102,160,0,22,1306,130,297,119,93,95,85],[1,1,3,11,4,6,141,5,7,10,22,3,1,8,3,3,46,5,2,0,1,1,4,11,1,14,0,25,6,3,7,65,3,0,0,1,1,6,2,2,1,4,4,0,1,65,6,9,2,4,1,3],[29,66,65,167,121,165,2263,144,96,159,430,60,18,175,55,67,993,76,44,69,35,55,91,394,24,367,23,441,77,20,63,1549,66,88,30,80,66,147,56,21,41,71,114,0,17,876,91,223,97,60,72,63],[2,25,16,79,48,47,890,71,23,45,135,11,4,45,20,22,408,19,13,19,11,16,24,131,6,85,5,143,15,10,20,607,26,21,16,20,14,36,23,3,8,23,31,0,3,289,31,44,18,27,14,17],[4,6,5,37,16,10,264,24,2,21,39,2,1,12,0,3,117,4,1,2,2,4,7,30,2,11,0,56,4,1,7,167,10,6,4,4,2,10,9,3,3,4,11,0,1,76,2,21,2,2,8,2],[55,124,110,371,241,319,4903,301,188,350,856,118,35,347,101,120,2146,152,95,133,60,102,174,843,71,723,45,956,160,49,121,3305,139,158,59,127,129,261,120,42,72,147,227,0,35,1866,182,418,168,146,138,124],[23718,25028,25731,29045,27013,26441,25339,28940,23352,26829,24696,22808,27308,23721,25955,32504,25321,22925,26646,23957,24879,27077,26567,27341,25362,23525,23495,24812,22518,24693,25442,25242,33316,28454,25204,26591,24273,27451,26792,28890,26679,25254,25578,0,26905,25029,26154,27733,24269,26180,23918,26048],[22488,21983,24766,26109,24459,21450,22470,27619,19993,23468,21439,21027,20946,20391,22732,26025,22685,18528,22107,19313,23114,22668,23614,22768,18127,21721,22080,22302,19252,23475,22553,22599,27900,23637,21390,24037,21091,23621,24385,23305,23176,21971,23172,0,25786,22245,22676,23398,22785,22515,20379,23714],[15,39,28,80,50,86,1115,54,62,91,205,34,10,100,28,26,463,58,24,45,16,34,47,187,24,205,16,256,62,13,24,680,19,45,14,30,37,60,22,5,13,35,55,0,8,450,49,105,50,41,44,34],[32,70,69,219,158,181,3293,187,110,213,557,74,20,215,54,71,1440,79,57,75,38,54,102,578,35,461,24,596,81,31,78,2328,89,92,40,77,81,162,79,29,51,94,148,0,23,1225,111,238,99,85,79,75],[8,15,13,72,33,52,495,60,16,46,94,10,5,32,19,23,243,15,14,13,6,14,25,78,12,57,5,104,17,5,19,297,31,21,5,20,11,39,19,8,8,18,24,0,4,191,22,75,19,20,15,15],[1304504,3103465,2830397,10775644,6510250,8434644,124236937,8711008,4390206,9390259,21139616,2691398,955789,8231330,2621440,3900426,54338314,3484579,2531350,3186324,1492732,2761822,4622616,23048710,1800667,17008380,1057275,23720457,3602958,1209947,3078443,83423977,4630891,4495740,1487036,3377025,3131182,7164602,3215087,1213378,1920855,3712315,5806201,0,941676,46703450,4760013,11592415,4077197,3822208,3300643,3229980],[35,68,58,209,135,190,3194,170,113,203,533,73,20,220,58,67,1336,90,51,69,35,59,108,507,45,433,27,559,95,30,75,2183,80,96,35,75,81,152,69,26,43,78,131,0,24,1228,102,249,95,86,78,78],[1.9,2.1,2.4,2.1,2,1.9,1.8,2.3,1.8,2,1.8,1.9,null,1.9,2,2.1,1.8,2,2.4,2.1,1.7,2,1.8,2,1.7,1.9,null,2.2,2,1.8,1.8,1.7,2.1,2.1,1.9,1.8,1.7,2,1.9,null,1.8,2.3,2,0,null,1.8,2,2.1,2.1,2.1,2.1,1.8],[61.7,46.3,45.5,51.6,55.1,57.5,47.5,50.2,49.7,55.2,51.2,44.2,null,44.7,57.1,46.7,48.6,49.6,48.4,49.5,61.7,51.5,55.7,49.6,68.5,50.2,null,47.4,58.8,50.8,56.8,45.8,56.7,47.7,59.4,64.1,54.8,54.6,62.1,null,55.9,45.4,49.1,null,null,47.9,54.8,45.7,49.7,49,50.5,53.7],[17,17,17,79,45,79,1628,43,46,82,260,37,null,112,26,23,639,37,16,19,15,20,55,218,21,201,null,230,41,13,37,1154,28,33,15,32,39,57,26,null,18,26,51,0,null,661,37,100,32,32,28,38],[0,0,3,4,1,13,199,4,3,10,23,2,null,9,0,0,69,3,1,0,0,0,4,10,1,15,null,17,3,0,4,172,1,2,0,5,2,4,2,null,0,3,0,0,null,88,2,12,5,3,1,3],[0,3,2,5,0,1,62,6,2,4,7,1,null,1,1,1,20,1,1,1,0,1,1,2,0,6,null,12,2,0,1,27,1,0,0,0,0,1,0,null,0,2,2,0,null,22,1,1,1,0,0,0],[4,9,13,33,22,22,463,50,11,27,63,11,null,33,7,11,193,11,10,9,0,9,10,76,2,58,null,96,11,4,8,294,16,19,3,5,6,22,8,null,2,13,20,0,null,176,15,48,16,17,16,9],[2,0,2,4,9,3,79,6,2,3,18,1,null,10,2,1,31,1,3,4,0,3,2,17,0,14,null,19,2,0,1,58,4,6,1,2,0,6,0,null,0,5,4,0,null,37,3,13,3,3,1,2],[3,3,6,11,14,9,159,15,5,8,33,1,null,16,2,2,64,5,5,4,0,3,4,28,1,23,null,50,3,1,3,125,8,10,1,2,2,11,2,null,0,6,8,0,null,62,5,20,6,4,3,2],[2,8,8,17,7,12,231,29,6,9,27,6,null,15,3,5,95,9,5,3,0,4,6,47,1,36,null,60,9,0,3,137,5,7,2,1,3,10,3,null,2,9,9,0,null,84,3,28,7,9,10,4],[1,3,5,18,7,10,207,28,4,19,32,7,null,13,5,6,94,5,7,3,0,4,6,44,1,26,null,44,8,3,4,121,5,9,1,3,5,9,4,null,1,4,13,0,null,90,9,30,9,11,9,6],[1,0,0,3,2,5,126,14,1,6,12,1,null,8,1,2,34,1,0,0,0,2,0,14,0,7,null,10,3,2,1,71,0,5,0,1,0,2,1,null,1,2,1,0,null,40,3,9,3,4,1,1],[11,19,23,71,51,68,1151,58,46,85,181,25,null,69,22,24,433,27,14,19,15,22,48,151,10,135,null,160,24,8,27,767,29,28,8,27,22,53,18,null,18,26,33,0,null,451,26,90,36,28,23,32],[21,42,22,107,63,100,1595,63,58,93,295,38,null,122,31,35,714,52,28,41,20,29,51,283,34,246,null,305,60,18,43,1127,36,50,25,43,54,80,43,null,23,40,78,0,null,603,62,117,43,43,40,37],[34,66,54,187,128,167,2168,150,99,178,400,68,null,163,58,62,972,87,45,66,33,52,100,401,40,350,null,447,82,29,69,1433,79,78,32,68,74,143,66,null,40,71,119,0,null,813,92,217,81,81,69,75],[0,1,2,18,5,15,973,16,12,20,117,5,null,52,0,2,333,2,4,0,1,4,3,95,3,79,null,101,9,0,2,725,0,12,0,5,4,7,2,null,2,3,5,0,null,387,8,27,13,3,7,2],[1,1,2,4,2,8,53,4,2,5,16,0,null,5,0,3,31,1,2,3,1,3,5,11,2,4,null,11,4,1,4,25,1,6,3,2,3,2,1,null,1,4,7,0,null,28,2,5,1,2,2,1],[35,68,58,209,135,190,3194,170,113,203,533,73,20,220,58,67,1336,90,51,69,35,59,108,507,45,433,27,559,95,30,75,2183,80,96,35,75,81,152,69,26,43,78,131,0,24,1228,102,249,95,86,78,78],[37326,46041,49008,51903,47815,44601,38670,50708,39005,46604,39535,37166,null,36990,45397,58530,40295,39034,50546,46359,42649,47015,42828,44811,40020,38774,null,42365,38050,40433,41172,37940,58065,47219,42507,45310,38799,47218,46781,null,44776,47884,44470,null,null,37616,47038,46954,43112,45278,42449,41499],[28732,41898,45810,42458,45046,35399,30999,47610,32265,39573,32407,32385,null,30025,33584,42177,33097,34365,41705,39393,30182,37503,32593,35657,33849,32250,null,36068,32542,35088,34815,31215,51285,38118,32577,33526,33388,40595,41550,null,37462,39416,36538,null,null,30546,40759,37846,36612,37841,36041,34167],[16,21,9,42,23,61,1100,35,41,57,190,29,null,97,25,18,459,38,16,22,9,21,35,159,20,156,null,178,38,7,18,736,11,25,9,24,29,32,12,null,9,14,37,0,null,463,27,80,21,25,24,26],[14,40,42,126,91,97,1833,105,60,122,293,38,null,107,21,38,749,46,27,39,22,28,56,304,18,241,null,336,50,21,47,1267,50,61,23,36,45,93,46,null,28,55,77,0,null,675,65,137,65,54,46,43],[5,7,7,41,21,32,261,30,12,24,50,6,null,16,12,11,128,6,8,8,4,10,17,44,7,36,null,45,7,2,10,180,19,10,3,15,7,27,11,null,6,9,17,0,null,90,10,32,9,7,8,9],[1306424,3130788,2842452,10847821,6455051,8474264,123512050,8620431,4407550,9460702,21071924,2713089,null,8137878,2633042,3921539,53833996,3513061,2577821,3198750,1492732,2773899,4625374,22719212,1800917,16789018,null,23681850,3614727,1212997,3087875,82822768,4645214,4533036,1487731,3398229,3142688,7177094,3227887,null,1925365,3734916,5825609,0,null,46192275,4797920,11691529,4095681,3893942,3311019,3236905],[88,87,19,221,115,85,487,53,150,156,595,188,73,242,119,103,219,54,67,84,172,10,97,228,19,468,77,170,154,110,147,274,180,123,99,124,137,209,249,57,48,148,423,1,25,423,181,110,33,19,99,88],[52,106,72,287,276,270,2359,233,201,321,723,116,45,322,114,112,1250,149,84,114,59,134,184,672,86,563,44,630,139,59,129,1539,126,150,68,123,139,269,130,51,67,146,263,3,38,1123,160,342,146,119,118,125],[7,11,1,25,110,25,371,43,37,39,143,14,12,61,17,15,204,21,16,10,3,66,14,162,17,105,6,102,6,8,12,346,24,17,13,17,21,52,21,2,9,24,27,0,5,204,11,30,19,9,12,14],[45,95,71,262,166,245,1988,190,164,282,580,102,33,261,97,97,1046,128,68,104,56,68,170,510,69,458,38,528,133,51,117,1193,102,133,55,106,118,217,109,49,58,122,236,3,33,919,149,312,127,110,106,111],[44,88,75,258,157,256,3712,193,158,284,714,102,33,357,82,88,1712,138,70,96,51,74,146,663,72,640,39,695,123,43,105,2695,97,123,45,98,110,196,95,40,57,117,186,null,29,1567,134,330,131,115,104,96],[111.4,94,101.4,104,109.4,101.7,82.8,114.5,88.2,100.9,90.6,81.6,97,73.3,103.7,96.3,84.6,100.4,105.5,97.2,94.5,102.5,95.5,93.9,102.7,86.6,79.8,96.9,111.2,93.7,102.5,77.3,111.9,94.6,100.8,110.2,90.8,101.2,108.3,100,95.9,98.5,96.5,null,91.1,80.6,105.9,93.3,98.1,94.3,97,94.3],[43,87,75,255,152,245,2540,191,151,266,669,99,32,336,81,88,1550,133,70,94,51,71,144,634,70,545,38,667,122,42,100,1680,96,122,43,95,108,194,91,40,55,115,183,null,29,1414,131,316,129,113,100,95],[0,0,0,0,0,3,1062,0,0,10,9,0,0,4,0,0,105,0,0,0,0,0,0,10,0,57,0,7,0,0,3,935,0,0,0,0,0,0,0,0,0,0,0,null,0,95,0,0,0,0,0,0],[1,1,0,3,5,8,110,2,7,8,36,3,1,17,1,0,57,5,0,2,0,3,2,19,2,38,1,21,1,1,2,80,1,1,2,3,2,2,4,0,2,2,3,null,0,58,3,14,2,2,4,1],[1,23,13,34,40,49,2006,148,38,98,315,8,7,72,19,25,877,21,54,10,8,134,19,359,8,217,0,383,16,2,9,1734,11,32,1,25,9,55,27,4,2,32,20,0,0,981,36,80,35,38,9,12],[null,16,9,9,7,26,114,11,33,49,48,null,null,8,15,10,65,19,46,9,null,10,15,32,null,25,0,60,10,null,null,83,7,8,null,21,null,9,16,null,null,12,10,0,0,65,23,54,16,16,null,10],[null,3,2,9,13,12,420,7,2,24,74,null,null,11,3,12,248,2,2,1,null,118,4,148,null,36,0,38,1,null,null,339,4,13,null,2,null,31,8,null,null,4,8,0,0,172,2,3,10,11,null,2],[null,4,2,16,20,11,1472,130,3,25,193,null,null,53,1,3,564,0,6,0,null,6,0,179,null,156,0,285,5,null,null,1312,0,11,null,2,null,15,3,null,null,16,2,0,0,744,11,23,9,11,null,0],[null,16,9,9,7,26,114,11,33,49,48,null,null,8,15,10,65,19,46,9,null,10,15,32,null,25,0,60,10,null,null,83,7,8,null,21,null,9,16,null,null,12,10,0,0,65,23,54,16,16,null,10],[null,0,0,0,0,0,2,0,0,2,2,null,null,0,0,9,6,0,0,0,null,0,1,6,null,0,0,6,0,null,null,2,0,0,null,0,null,2,0,null,null,0,0,0,0,1,0,0,0,0,null,0],[null,3,0,1,13,0,275,4,2,15,59,null,null,0,0,3,201,1,0,0,null,114,0,133,null,10,0,9,0,null,null,269,1,0,null,2,null,27,7,null,null,1,0,0,0,93,1,0,0,0,null,2],[null,0,0,0,0,0,4,0,0,0,0,null,null,0,0,0,0,0,0,0,null,0,0,0,null,0,0,0,0,null,null,0,0,0,null,0,null,0,0,null,null,0,0,0,0,4,0,0,0,0,null,0],[null,0,0,0,0,0,22,0,0,0,2,null,null,1,0,0,4,0,0,0,null,0,0,0,null,10,0,0,0,null,null,14,0,0,null,0,null,0,0,null,null,0,0,0,0,0,0,0,0,0,null,0],[null,0,2,8,0,12,117,3,0,7,11,null,null,10,3,0,37,1,2,1,null,4,3,9,null,16,0,23,1,null,null,54,3,13,null,0,null,2,1,null,null,3,8,0,0,74,1,3,10,11,null,0],[null,0,1,0,3,1,201,1,0,3,16,null,null,8,0,1,58,0,2,0,null,4,0,31,null,25,0,34,0,null,null,278,0,2,null,0,null,0,0,null,null,0,1,0,0,142,0,5,1,4,null,0],[null,0,1,0,7,1,72,2,0,4,1,null,null,5,0,1,30,0,0,0,null,0,0,12,null,18,0,22,0,null,null,152,0,0,null,0,null,2,0,null,null,0,0,0,0,28,6,3,7,1,null,0],[null,0,0,0,0,0,60,1,1,0,26,null,null,1,0,0,18,0,0,0,null,1,0,16,null,5,0,9,0,null,null,58,0,0,null,0,null,0,0,null,null,0,0,0,0,32,0,1,1,0,null,0],[null,0,0,0,2,0,15,0,0,0,0,null,null,0,0,0,4,0,0,0,null,0,0,0,null,0,0,1,0,null,null,7,0,0,null,0,null,0,0,null,null,0,0,0,0,10,0,0,0,0,null,0],[null,0,0,0,0,0,10,0,0,0,9,null,null,0,0,0,0,0,0,0,null,0,0,11,null,0,0,1,0,null,null,9,0,0,null,0,null,0,0,null,null,0,0,0,0,9,0,0,0,0,null,0],[null,0,0,0,0,0,25,0,2,0,1,null,null,0,0,0,7,0,0,0,null,0,0,1,null,1,0,0,0,null,null,17,0,0,null,0,null,0,0,null,null,0,0,0,0,8,1,0,0,0,null,0],[null,2,0,1,0,2,81,13,0,0,3,null,null,1,0,0,33,0,0,0,null,1,0,6,null,9,0,9,0,null,null,54,0,0,null,2,null,1,2,null,null,0,0,0,0,35,1,4,0,0,null,0],[null,0,0,1,4,0,53,5,0,0,21,null,null,1,0,0,22,0,0,0,null,0,0,9,null,12,0,9,0,null,null,60,0,1,null,0,null,1,0,null,null,1,1,0,0,44,1,2,0,6,null,0],[null,0,0,0,0,0,99,0,0,0,9,null,null,1,0,0,31,0,0,0,null,0,0,12,null,14,0,19,0,null,null,62,0,0,null,0,null,0,0,null,null,0,0,0,0,46,0,0,0,0,null,0],[null,1,0,6,0,0,146,91,0,0,28,null,null,6,0,0,76,0,0,0,null,0,0,23,null,17,0,43,0,null,null,107,0,7,null,0,null,9,0,null,null,0,0,0,0,82,0,7,0,0,null,0],[null,1,0,8,0,7,596,17,0,18,76,null,null,29,0,0,243,0,0,0,null,0,0,46,null,49,0,119,0,null,null,450,0,1,null,0,null,1,0,null,null,15,0,0,0,248,0,0,0,0,null,0],[null,0,0,0,3,0,28,0,0,0,1,null,null,0,1,0,15,0,0,0,null,0,0,4,null,1,0,1,0,null,null,17,0,0,null,0,null,0,0,null,null,0,0,0,0,17,0,0,0,0,null,0],[null,0,0,0,1,0,86,0,0,0,2,null,null,1,0,0,27,0,4,0,null,0,0,8,null,5,0,18,5,null,null,41,0,0,null,0,null,1,1,null,null,0,0,0,0,43,2,1,0,0,null,0],[null,0,0,0,0,0,0,0,0,0,0,null,null,0,0,1,0,0,0,0,null,0,0,0,null,0,0,0,0,null,null,0,0,0,null,0,null,0,0,null,null,0,0,0,0,0,0,0,0,0,null,0],[null,0,0,0,0,0,0,0,0,0,0,null,null,0,0,0,0,0,0,0,null,0,0,0,null,0,0,0,0,null,null,0,0,0,null,0,null,0,0,null,null,0,0,0,0,0,0,0,0,0,null,0],[null,0,0,0,0,0,0,0,0,0,0,null,null,0,0,0,0,0,0,0,null,0,0,0,null,0,0,0,0,null,null,0,0,0,null,0,null,0,0,null,null,0,0,0,0,0,0,0,0,0,null,0],[67,143,137,437,279,364,5787,397,209,402,988,138,49,429,114,140,2491,180,122,147,60,117,195,1037,77,850,57,1229,190,55,135,3838,166,199,65,135,141,300,133,53,76,180,262,0,41,2224,207,530,198,179,167,143],[19,53,59,173,111,121,1861,166,71,160,336,46,16,126,47,58,853,59,46,48,23,48,79,344,17,271,20,389,57,16,47,1316,78,69,19,44,46,126,56,17,38,67,95,0,16,762,82,204,80,69,54,64],[2,5,7,22,24,30,418,21,19,22,54,12,0,27,5,6,119,6,1,11,4,3,12,34,2,44,4,62,10,4,7,199,5,11,2,13,6,5,2,2,1,9,19,0,2,116,6,26,11,8,12,5],[12,17,23,48,31,37,702,73,17,34,107,14,11,70,8,14,262,25,21,12,0,12,17,164,6,99,10,226,24,5,10,439,22,32,5,6,10,32,11,10,4,29,26,0,6,272,17,88,25,23,22,12],[1,5,8,27,12,16,330,32,6,28,40,7,4,19,7,7,138,8,9,5,1,5,6,44,0,42,4,67,10,3,7,149,7,8,2,4,3,12,3,1,0,7,10,0,0,128,11,37,7,11,9,8],[28,62,38,157,97,149,2305,98,87,151,434,54,18,174,45,53,1065,77,43,70,29,46,79,427,50,370,19,462,85,26,61,1651,50,69,36,63,75,119,60,22,33,64,107,0,15,880,88,167,68,64,63,52],[5,1,2,10,4,11,171,7,9,7,17,5,0,13,2,2,54,5,2,1,3,3,2,24,2,24,0,23,4,1,3,84,4,10,1,5,1,6,1,1,0,4,5,0,2,66,3,8,7,4,7,2],["saarijarvi_viitasaari","saarijarvi_viitasaari","saarijarvi_viitasaari","saarijarvi_viitasaari","saarijarvi_viitasaari","saarijarvi_viitasaari","saarijarvi_viitasaari","saarijarvi_viitasaari","saarijarvi_viitasaari","saarijarvi_viitasaari","saarijarvi_viitasaari","saarijarvi_viitasaari","saarijarvi_viitasaari","saarijarvi_viitasaari","saarijarvi_viitasaari","saarijarvi_viitasaari","saarijarvi_viitasaari","saarijarvi_viitasaari","saarijarvi_viitasaari","saarijarvi_viitasaari","saarijarvi_viitasaari","saarijarvi_viitasaari","saarijarvi_viitasaari","saarijarvi_viitasaari","saarijarvi_viitasaari","saarijarvi_viitasaari","saarijarvi_viitasaari","saarijarvi_viitasaari","saarijarvi_viitasaari","saarijarvi_viitasaari","saarijarvi_viitasaari","saarijarvi_viitasaari","saarijarvi_viitasaari","saarijarvi_viitasaari","saarijarvi_viitasaari","saarijarvi_viitasaari","saarijarvi_viitasaari","saarijarvi_viitasaari","saarijarvi_viitasaari","saarijarvi_viitasaari","saarijarvi_viitasaari","saarijarvi_viitasaari","saarijarvi_viitasaari","saarijarvi_viitasaari","saarijarvi_viitasaari","saarijarvi_viitasaari","saarijarvi_viitasaari","saarijarvi_viitasaari","saarijarvi_viitasaari","saarijarvi_viitasaari","saarijarvi_viitasaari","saarijarvi_viitasaari"],["43390","43240","41260","41270","43250","43220","43100","43130","43170","43270","43300","43340","43420","43440","43480","43490","43500","43520","43540","43560","43610","43640","43660","43700","43720","43800","43840","43900","43940","43960","44480","44500","44530","44580","44590","44610","44630","44640","44670","44680","44730","44740","44760","44770","44790","44800","44860","44880","44910","44920","44950","44970"],[3,3.5,5.1,5,8.6,8.2,7.2,5.3,9.1,5.5,5.5,8.7,0,6.3,4.4,4.3,4.8,3.3,0.8,7.5,6.7,2.6,6.2,3.3,2.6,5.2,7,5,5.3,7.3,5.2,5.2,3,5.5,3.1,9.6,4.3,1.7,1.5,3.8,1.3,5,7.3,null,4.9,5.2,2.9,4.9,5.6,4.5,7.2,3.5],[10.9,25,19.1,31.3,26.6,17.9,23.5,31.6,13.3,18.9,20.3,11,14.3,16.4,19.8,20.8,24.5,15.1,14.7,15.8,21.7,19.6,17.8,19.1,11.3,13.3,11.1,20.8,11.9,22.4,22.3,23.4,25.9,17.1,33.9,18.9,12.4,17.6,26.7,14.3,15.3,18.4,18.5,null,11.4,19.6,18.1,15.6,11.9,19.9,15.9,15.3],[41.8,43.4,27.7,35.9,34.8,40.9,39.8,24.7,41.6,37.6,43.9,39.1,36.7,40.6,39.5,37.9,42.8,42.8,35.2,47.6,48.3,39.3,40.5,41.2,64.9,43.5,33.3,37.6,44.7,47.3,45.2,43,30.1,34.7,55.4,46.7,53.2,39.7,45.1,41.5,43.4,35.6,40.8,null,36.6,39.6,42.5,31.5,34.3,35.8,37.7,36.4],[97.1,97.1,93.1,89.5,94.8,87.9,67.9,88.2,87.6,87.7,75,93.2,null,74.1,100,92.5,72.8,96.7,88.2,95.7,94.3,88.1,92.6,79.1,88.9,80.8,null,80,86.3,96.7,92,65.6,98.8,81.2,91.4,90.7,91.4,94.1,95.7,null,93,91,90.8,null,null,66.2,90.2,87.1,85.3,94.2,88.5,96.2],[0,1.5,3.4,8.6,3.7,7.9,30.5,9.4,10.6,9.9,22,6.8,null,23.6,0,3,24.9,2.2,7.8,0,2.9,6.8,2.8,18.7,6.7,18.2,null,18.1,9.5,0,2.7,33.2,0,12.5,0,6.7,4.9,4.6,2.9,null,4.7,3.8,3.8,null,null,31.5,7.8,10.8,13.7,3.5,9,2.6],[1,3,4,5,6,2,17,14,1,3,3,1,1,2,2,1,14,2,3,1,1,3,1,3,1,2,2,3,2,0,1,14,2,2,1,1,1,2,1,1,1,2,1,0,2,7,1,2,2,2,2,1],[11.9,2.1,5.1,3.4,7.2,3.6,4.4,4.3,3.8,2.5,4.8,1.4,6.1,7.9,1.8,2.1,3.8,3.9,5.7,4.1,0,5.1,3.6,4.9,3.9,4.8,8.8,7.5,2.6,3.6,4.4,4.6,7.8,8,1.5,3,1.4,4.7,2.3,7.5,0,6.7,3.1,null,9.8,4.7,4.8,5.5,4.5,2.8,3,2.8],[1.5,3.5,5.8,6.2,4.3,4.4,5.7,8.1,2.9,7,4,5.1,8.2,4.4,6.1,5,5.5,4.4,7.4,3.4,1.7,4.3,3.1,4.2,0,4.9,7,5.5,5.3,5.5,5.2,3.9,4.2,4,3.1,3,2.1,4,2.3,1.9,0,3.9,3.8,null,0,5.8,5.3,7,3.5,6.1,5.4,5.6],[97.7,98.9,100,98.8,96.8,95.7,68.4,99,95.6,93.7,93.7,97.1,97,94.1,98.8,100,90.5,96.4,100,97.9,100,95.9,98.6,95.6,97.2,85.2,97.4,96,99.2,97.7,95.2,62.3,99,99.2,95.6,96.9,98.2,99,95.8,100,96.5,98.3,98.4,null,100,90.2,97.8,95.8,98.5,98.3,96.2,99],[3,2.1,9.5,7.3,7.2,8.2,8.5,6.8,2.4,7.2,7.4,10.9,2,5.4,7,2.9,7.9,4.4,7.4,10.2,5,7.7,8.7,4.5,1.3,6.7,12.3,7.3,7.4,9.1,7.4,8.8,6,4.5,3.1,5.9,1.4,5.7,5.3,5.7,2.6,12.2,5.3,null,2.4,9.3,9.7,6,10.1,5.6,4.2,3.5],[1.03,0.83,1.01,0.91,0.87,0.84,1.08,0.97,0.7,0.79,0.9,0.82,0.81,0.89,0.7,0.84,1.09,0.88,1,0.84,1,0.92,0.89,0.98,0.75,0.89,0.9,0.93,0.67,1.04,0.85,1.09,0.91,0.93,0.91,0.88,0.93,0.91,0.87,0.89,1.11,0.96,0.83,null,0.78,1.14,0.86,0.95,0.87,0.86,0.72,0.7],[0,4.4,3.4,2.4,0,0.5,1.9,3.5,1.8,2,1.3,1.4,null,0.5,1.7,1.5,1.5,1.1,2,1.4,0,1.7,0.9,0.4,0,1.4,null,2.1,2.1,0,1.3,1.2,1.2,0,0,0,0,0.7,0,null,0,2.6,1.5,null,null,1.8,1,0.4,1.1,0,0,0],[11.4,13.2,22.4,15.8,16.3,11.6,14.5,29.4,9.7,13.3,11.8,15.1,null,15,12.1,16.4,14.4,12.2,19.6,13,0,15.3,9.3,15,4.4,13.4,null,17.2,11.6,13.3,10.7,13.5,20,19.8,8.6,6.7,7.4,14.5,11.6,null,4.7,16.7,15.3,null,null,14.3,14.7,19.3,16.8,19.8,20.5,11.5],[null,0,0,0,5,0,0.7,0,0,0,0,null,null,0,0,0,0.5,0,0,0,null,0,0,0,null,0,null,0.3,0,null,null,0.4,0,0,null,0,null,0,0,null,null,0,0,null,null,1,0,0,0,0,null,0],[null,4.3,0,23.5,0,14.3,29.7,11.5,0,18.4,24.1,null,null,40.3,0,0,27.7,0,0,0,null,0,0,12.8,null,22.6,null,31.1,0,null,null,26,0,3.1,null,0,null,1.8,0,null,null,46.9,0,null,null,25.3,0,0,0,0,null,0],[28.4,37.1,43.1,39.6,39.8,33.2,32.2,41.8,34,39.8,34,33.3,32.7,29.4,41.2,41.4,34.2,32.8,37.7,32.7,38.3,41,40.5,33.2,22.1,31.9,35.1,31.7,30,29.1,34.8,34.3,47,34.7,29.2,32.6,32.6,42,42.1,32.1,50,37.2,36.3,null,39,34.3,39.6,38.5,40.4,38.5,32.3,44.8],[41.8,39.2,23.4,34.3,33,39,37.4,23.2,38.8,33.8,40.5,31.2,36.7,38.9,36,33.6,39.8,40,31.1,44.9,43.3,36.8,34.4,39.6,59.7,40.4,31.6,35.1,43.7,43.6,39.3,40.4,30.7,31.2,56.9,44.4,50.4,37,45.9,39.6,39.5,31.1,40.8,null,41.5,36.8,42,29.6,31.3,31.8,32.3,34.3],[1.91,2.1,2.36,2.09,2.07,1.92,1.81,2.34,1.85,1.98,1.85,1.89,2.45,1.95,1.97,2.09,1.86,2,2.39,2.13,1.71,1.98,1.81,2.05,1.71,1.96,2.11,2.2,2,1.83,1.8,1.76,2.08,2.07,1.86,1.8,1.74,1.97,1.93,2.04,1.77,2.31,2,null,1.71,1.81,2.03,2.13,2.08,2.08,2.14,1.83],[null,13,15.4,26.5,32.5,24.5,20.9,4.7,5.3,24.5,23.5,null,null,15.3,15.8,48,28.3,9.5,3.7,10,null,88.1,21.1,41.2,null,16.6,null,9.9,6.2,null,null,19.6,36.4,40.6,null,8,null,56.4,29.6,null,null,12.5,40,null,null,17.5,5.6,3.8,28.6,28.9,null,16.7],[null,0,0,0,0,0,4.9,0,0,0,2.9,null,null,1.4,0,0,3.5,0,0,0,null,0,0,3.3,null,6.5,null,5,0,null,null,3.6,0,0,null,0,null,0,0,null,null,0,0,null,null,4.7,0,0,0,0,null,0],[null,17.4,15.4,47.1,50,22.4,73.4,87.8,7.9,25.5,61.3,null,null,73.6,5.3,12,64.3,0,11.1,0,null,4.5,0,49.9,null,71.9,null,74.4,31.2,null,null,75.7,0,34.4,null,8,null,27.3,11.1,null,null,50,10,null,null,75.8,30.6,28.7,25.7,28.9,null,0],[118.2,120.5,96,111.2,175.8,105.5,63.6,120.7,127.2,113,101.3,113.7,136.4,90.2,139,127.3,73,108,120,118.8,115.7,181.1,126,101.4,119.4,88,112.8,90.6,113,137.2,122.9,57.1,129.9,122,151.1,125.5,126.4,137.2,136.8,127.5,117.5,124.8,141.4,null,131,71.7,119.4,103.6,111.5,103.5,113.5,130.2],[2.6,1.4,0,0,0.3,2.2,1.3,0.8,0.9,1.1,2,0,0,0.8,2.3,1.3,1.3,0,3.5,1.2,0,1.6,1.3,2.3,0,1.3,1.8,0.5,0.5,0,1.5,2,1.2,1,0,0,0,1.5,0.7,0,0,0.5,0,11.1,0,1.1,0.9,0.2,1,1,0,0.6],[48.7,36.6,44.8,48.7,59.1,47.2,75.3,61.2,42.8,44.8,54.8,45.6,25.3,46.9,45.2,26.8,64,31.4,30.8,45.6,33.4,35.4,32,83.1,47.2,60.9,75.8,62.9,54.1,156.3,54.6,126.6,76.5,76.1,62.8,79.5,51.3,52,35.8,66.4,35.8,68.5,66,205.2,86.2,87.1,35.8,56.3,60.4,51.3,64.7,35.8],[null,null,null,null,null,null,903,null,null,null,673,null,null,null,null,null,719,null,null,null,null,null,null,1061,null,null,null,541,null,null,null,514,null,null,null,null,null,null,null,null,null,null,null,null,null,658,null,null,null,null,null,null],[0,0,0,0.4,0.5,0.2,0.5,0.7,0.1,0.3,0.1,0.1,0.2,0.1,0.3,0,0.4,0.2,0,0.1,0.1,0.6,0.2,0.3,0,0.1,0.3,0.2,0.5,0.2,0.1,0.4,0.1,0.2,0.1,0.1,0.1,0.2,0.1,0,0.4,0.2,0.1,0,0.7,0.2,0.2,0.2,0.2,0,0,0],[24.8,23.5,23.3,23.5,23.8,23,23.3,23.3,23.9,23.7,24.6,24,22.6,22.6,22.9,22.6,23.3,23.8,23.1,23.1,23.9,23.7,23.7,23.7,23.5,23.6,24.7,23.8,23.9,23.8,24.8,25,24.9,24.8,24.3,25.6,24.8,25.2,25.2,24.8,24.8,24.3,24.9,24.8,24,24.4,24.3,24.5,24.8,24.9,24.8,24.4],[0,0,0,0,0,0,0,0,0,0,0,0,0,0,0,0,0,0,0,0,0,0,0,0,0,0,0,0,0,0,0,0,0,0,0,0,0,0,0,0,0,0,0,0,0,0,0,0,0,0,0,0],[0,0,0,0,0,0,0,0,0,0,0,0,0,0,0,0,0,0,0,0,0,0,0,0,0,0,0,0,0,0,0,0,0,0,0,0,0,0,0,0,0,0,0,0,0,0,0,0,0,0,0,0],[0,0,0,0,0,0,0,0,0,0,0,0,0,0,0,0,0,0,0,0,0,0,0,0,0,0,0,0,0,0,0,0,0,0,0,0,0,0,0,0,0,0,0,0,0,0,0,0,0,0,0,0],[0,0,0,0,0,0,0,0,0,0,0,0,0,0,0,0,0,0,0,0,0,0,0,0,0,0,0,0,0,0,0,0,0,0,0,0,0,0,0,0,0,0,0,0,0,0,0,0,0,0,0,0],[0,0,0,0,0,0,0,0,0,0,0,0,0,0,0,0,0,0,0,0,0,0,0,0,0,0,0,0,0,0,0,0,0,0,0,0,0,0,0,0,0,0,0,0,0,0,0,0,0,0,0,0],[0,0,0,0,0,0,0.3,0.4,0,0,0.1,0,0,0.1,0,0,0.8,0,0,0,0,0,0,0.1,0,0.1,0,0.1,0,0,0,0.6,0,0,0,0,0,0,0,0,0,0,0,0,0,0.3,0,0,0,0,0,0],[48.6,25,29.3,37.8,33.3,41.6,51,25.3,40.7,40.4,48.8,50.7,null,50.9,44.8,34.3,47.8,41.1,31.4,27.5,42.9,33.9,50.9,43,46.7,46.4,null,41.1,43.2,43.3,49.3,52.9,35,34.4,42.9,42.7,48.1,37.5,37.7,null,41.9,33.3,38.9,null,null,53.8,36.3,40.2,33.7,37.2,35.9,48.7],[null,null,null,null,null,null,null,null,null,null,null,null,null,null,null,null,null,null,null,null,null,null,null,null,null,null,null,null,null,null,null,null,null,null,null,null,null,null,null,null,null,null,null,null,null,null,null,null,null,null,null,null],[null,null,null,null,null,null,null,null,null,null,null,null,null,null,null,null,null,null,null,null,null,null,null,null,null,null,null,null,null,null,null,null,null,null,null,null,null,null,null,null,null,null,null,null,null,null,null,null,null,null,null,null],[76,76,76,76,76,76,79,80,76,76,78,76,76,78,76,76,80,76,76,76,76,76,76,78,76,78,76,78,76,76,76,80,76,76,76,76,76,76,76,76,76,76,76,76,76,79,76,76,76,76,76,76],[null,null,null,1.5,7.2,1.8,1.8,2.5,1.6,3.3,4,9.7,null,1.6,null,null,1.1,1.9,2.7,4.5,null,14.2,6.8,2.9,null,1.6,5.8,0.8,5.3,null,7.4,3.6,18.1,1.7,10.3,2.5,2.4,1.1,2.5,null,39.5,7.4,null,null,null,2.8,4.8,0.6,8.4,null,4,null],[null,null,null,null,null,null,4.9,null,null,null,null,null,null,null,null,null,-22.6,null,null,null,null,null,null,null,null,null,null,null,null,null,null,-41.5,null,null,null,null,null,null,null,null,null,null,null,null,null,-22.5,null,null,null,null,null,null],[null,null,null,null,null,null,56.4,null,null,null,null,null,null,null,null,null,61.4,null,null,null,null,null,null,null,null,null,null,56.1,null,null,null,58.4,null,null,null,null,null,null,null,null,null,null,null,null,null,57.6,null,null,null,null,null,null],[0.07,0.01,0,0,0.08,0.01,0.29,0.24,0,0,0.1,0.01,0,0.02,0,0.01,0.11,0.04,0,0.01,0.02,0.48,0.04,0.2,0.11,0.13,0.15,0.03,0.01,0.01,0.05,0.47,0.03,0.06,0,0.04,0.03,0.11,0,0,0.15,0.01,0.03,0,0,0.36,0.03,0.04,0.06,0.04,0.06,0.01],[40,40,40,40,40,40,40,40,40,40,40,40,40,40,40,40,40,40,40,40,40,40,40,40,40,40,40,40,40,40,40,40,40,40,40,40,40,40,40,40,40,40,40,40,40,40,40,40,40,40,40,40],[61.5,64.4,64.4,64.4,64.4,64.4,64.4,64.4,64.4,64.4,61.9,61.9,64.4,64.4,64.4,62.8,62.8,62.8,62.8,62.8,62.8,62.8,62.8,62.8,62.8,61.5,61.5,63.3,63.3,63.3,61.1,61.1,61.1,61.1,61.1,61.1,61.1,61.1,61.1,61.1,61.1,61.1,61.1,61.1,61.1,62.3,62.3,62.3,62.3,62.3,62.3,62.3],[0.574,0.631,0.631,0.631,0.631,0.631,0.631,0.631,0.631,0.631,0.672,0.672,0.631,0.631,0.631,0.62,0.62,0.62,0.62,0.62,0.62,0.62,0.62,0.59,0.59,0.574,0.574,0.577,0.577,0.577,0.655,0.655,0.655,0.655,0.655,0.655,0.655,0.655,0.655,0.655,0.655,0.655,0.655,0.655,0.655,0.573,0.573,0.573,0.573,0.573,0.573,0.573],[75,49,49,49,49,49,49,49,49,49,71,71,49,49,49,82,82,82,82,82,82,82,82,86,86,75,75,17,17,17,23,23,23,23,23,23,23,23,23,23,23,23,23,23,23,75,75,75,75,75,75,75],[0,0,0,0,0,0,0,0,0,0,0,0,0,0,0,0,0,0,0,0,0,0,0,0,0,0,0,0,0,0,0,0,0,0,0,0,0,0,0,0,0,0,0,0,0,0,0,0,0,0,0,0],[30.6,51.6,71.8,33.6,76.2,49.9,44.2,32.9,58.9,37.7,42.5,31.4,39.4,41.2,40.2,54.9,40.7,45,62.6,17.8,55.2,32.8,44.9,43.4,58,47.1,28.8,36.5,54.2,40.6,71.4,39.3,42.2,64,75,31,68.8,47.6,47.3,57.8,61.6,43.2,43.8,26.7,25.6,47.6,37.4,42.5,65.6,51.2,38.2,56.8],[null,null,null,null,null,null,null,null,null,null,null,null,null,null,null,null,null,null,null,null,null,null,null,null,null,null,null,null,null,null,null,null,null,null,null,null,null,null,null,null,null,null,null,null,null,null,null,null,null,null,null,null],[0,0,0,0.1,0.2,0,0.1,0.1,0,0,0.1,0,0,0.1,0,0,0.1,0,0,0,0,0,0,0,0,0.1,0,0,0,0,0,0.1,0,0,0,0,0,0,0,0,0,0,0,0,0.1,0.1,0,0.1,0,0,0,0],[0,0,0,0,0,0,0,0,0,0,0,0,0,0,0,0,0,0,0,0,0,0,0,0,0,0,0,0,0,0,0,0,0,0,0,0,0,0,0,0,0,0,0,0,0,0,0,0,0,0,0,0],[1976,1979,1978,1979,1981,1978,1977,1979,1979,1979,1973,1974,1980,1978,1980,1978,1976,1977,1978,1978,1978,1981,1978,1977,1978,1975,1976,1980,1981,1982,1978,1975,1978,1978,1979,1978,1978,1978,1978,1978,1978,1978,1979,1973,1978,1976,1978,1978,1978,1978,1978,1979],[[[2021,18384],[2022,19179],[2023,18275],[2024,19448],[2025,22476],[2026,22488]],[[2021,19592],[2022,17886],[2023,19770],[2024,20546],[2025,21181],[2026,21983]],[[2021,21872],[2022,20448],[2023,22756],[2024,22361],[2025,24364],[2026,24766]],[[2021,19706],[2022,20134],[2023,20813],[2024,22943],[2025,23443],[2026,26109]],[[2021,20379],[2022,20421],[2023,21728],[2024,22615],[2025,24086],[2026,24459]],[[2021,18689],[2022,18930],[2023,19374],[2024,20071],[2025,21235],[2026,21450]],[[2021,19306],[2022,19394],[2023,19611],[2024,20351],[2025,21556],[2026,22470]],[[2021,23108],[2022,23720],[2023,24298],[2024,24664],[2025,26734],[2026,27619]],[[2021,17351],[2022,17913],[2023,18058],[2024,17522],[2025,19906],[2026,19993]],[[2021,18268],[2022,18987],[2023,19901],[2024,20244],[2025,21962],[2026,23468]],[[2021,18362],[2022,18194],[2023,18630],[2024,18908],[2025,20236],[2026,21439]],[[2021,17222],[2022,17806],[2023,18063],[2024,19412],[2025,20394],[2026,21027]],[[2021,18683],[2022,18847],[2023,18782],[2024,18221],[2025,20245],[2026,20946]],[[2021,17512],[2022,17591],[2023,17260],[2024,17844],[2025,19666],[2026,20391]],[[2021,19357],[2022,19284],[2023,19933],[2024,21754],[2025,21532],[2026,22732]],[[2021,21038],[2022,21251],[2023,22407],[2024,25538],[2025,25162],[2026,26025]],[[2021,18854],[2022,19004],[2023,19944],[2024,20573],[2025,21475],[2026,22685]],[[2021,15967],[2022,16019],[2023,17558],[2024,17000],[2025,17088],[2026,18528]],[[2021,17917],[2022,18368],[2023,18922],[2024,19190],[2025,20693],[2026,22107]],[[2021,17183],[2022,17095],[2023,17451],[2024,18843],[2025,19620],[2026,19313]],[[2021,18638],[2022,18836],[2023,20876],[2024,20286],[2025,24013],[2026,23114]],[[2021,17697],[2022,17990],[2023,21020],[2024,20311],[2025,20962],[2026,22668]],[[2021,19347],[2022,17315],[2023,18212],[2024,19550],[2025,21409],[2026,23614]],[[2021,18452],[2022,18836],[2023,19860],[2024,21007],[2025,22001],[2026,22768]],[[2021,15593],[2022,15763],[2023,15061],[2024,14802],[2025,16320],[2026,18127]],[[2021,17794],[2022,18185],[2023,18726],[2024,19259],[2025,20670],[2026,21721]],[[2021,18002],[2022,18746],[2023,20490],[2024,20698],[2025,22359],[2026,22080]],[[2021,18540],[2022,18856],[2023,19122],[2024,19990],[2025,21303],[2026,22302]],[[2021,14364],[2022,16371],[2023,16506],[2024,17036],[2025,18328],[2026,19252]],[[2021,18270],[2022,17796],[2023,17934],[2024,19879],[2025,20837],[2026,23475]],[[2021,21093],[2022,20085],[2023,19716],[2024,22444],[2025,22272],[2026,22553]],[[2021,18780],[2022,19205],[2023,19702],[2024,20259],[2025,21250],[2026,22599]],[[2021,22594],[2022,23074],[2023,23386],[2024,23469],[2025,25202],[2026,27900]],[[2021,19620],[2022,18311],[2023,19971],[2024,19725],[2025,21886],[2026,23637]],[[2021,18699],[2022,17800],[2023,18876],[2024,18624],[2025,20339],[2026,21390]],[[2021,20336],[2022,19941],[2023,20791],[2024,19182],[2025,20733],[2026,24037]],[[2021,17784],[2022,18555],[2023,18538],[2024,18463],[2025,20525],[2026,21091]],[[2021,19758],[2022,20530],[2023,20314],[2024,21911],[2025,23822],[2026,23621]],[[2021,21024],[2022,20267],[2023,22390],[2024,23766],[2025,26327],[2026,24385]],[[2021,21484],[2022,21954],[2023,21586],[2024,23317],[2025,20455],[2026,23305]],[[2021,19569],[2022,19860],[2023,19959],[2024,20023],[2025,22022],[2026,23176]],[[2021,18205],[2022,17740],[2023,18174],[2024,19683],[2025,20265],[2026,21971]],[[2021,17135],[2022,19213],[2023,19850],[2024,20283],[2025,21062],[2026,23172]],null,[[2021,20194],[2022,22831],[2023,24304],[2024,25385],[2025,22707],[2026,25786]],[[2021,18422],[2022,18788],[2023,19335],[2024,20125],[2025,21381],[2026,22245]],[[2021,20596],[2022,21387],[2023,20612],[2024,21784],[2025,21681],[2026,22676]],[[2021,18414],[2022,18713],[2023,19050],[2024,20996],[2025,22969],[2026,23398]],[[2021,17446],[2022,18572],[2023,19903],[2024,20968],[2025,21832],[2026,22785]],[[2021,20361],[2022,18571],[2023,20006],[2024,20957],[2025,22757],[2026,22515]],[[2021,16792],[2022,17433],[2023,18897],[2024,20826],[2025,21276],[2026,20379]],[[2021,21496],[2022,19033],[2023,19717],[2024,20522],[2025,20673],[2026,23714]]],[[[2021,77],[2022,76],[2023,77],[2024,73],[2025,73],[2026,67]],[[2021,155],[2022,143],[2023,145],[2024,148],[2025,146],[2026,143]],[[2021,143],[2022,141],[2023,146],[2024,142],[2025,138],[2026,137]],[[2021,495],[2022,483],[2023,468],[2024,463],[2025,450],[2026,437]],[[2021,299],[2022,286],[2023,269],[2024,280],[2025,283],[2026,279]],[[2021,410],[2022,401],[2023,393],[2024,388],[2025,373],[2026,364]],[[2021,5965],[2022,5953],[2023,5894],[2024,5812],[2025,5730],[2026,5787]],[[2021,404],[2022,397],[2023,404],[2024,394],[2025,397],[2026,397]],[[2021,232],[2022,228],[2023,221],[2024,216],[2025,210],[2026,209]],[[2021,472],[2022,441],[2023,448],[2024,439],[2025,416],[2026,402]],[[2021,1113],[2022,1097],[2023,1082],[2024,1055],[2025,1008],[2026,988]],[[2021,168],[2022,161],[2023,163],[2024,152],[2025,148],[2026,138]],[[2021,51],[2022,51],[2023,51],[2024,50],[2025,49],[2026,49]],[[2021,492],[2022,491],[2023,480],[2024,459],[2025,455],[2026,429]],[[2021,132],[2022,128],[2023,123],[2024,117],[2025,114],[2026,114]],[[2021,149],[2022,150],[2023,148],[2024,151],[2025,145],[2026,140]],[[2021,2703],[2022,2648],[2023,2597],[2024,2513],[2025,2509],[2026,2491]],[[2021,219],[2022,212],[2023,204],[2024,188],[2025,183],[2026,180]],[[2021,143],[2022,141],[2023,132],[2024,128],[2025,120],[2026,122]],[[2021,167],[2022,162],[2023,158],[2024,156],[2025,148],[2026,147]],[[2021,83],[2022,78],[2023,73],[2024,71],[2025,68],[2026,60]],[[2021,133],[2022,124],[2023,120],[2024,119],[2025,118],[2026,117]],[[2021,232],[2022,223],[2023,220],[2024,221],[2025,210],[2026,195]],[[2021,1174],[2022,1152],[2023,1098],[2024,1069],[2025,1056],[2026,1037]],[[2021,99],[2022,95],[2023,94],[2024,87],[2025,80],[2026,77]],[[2021,937],[2022,947],[2023,925],[2024,906],[2025,875],[2026,850]],[[2021,52],[2022,56],[2023,61],[2024,58],[2025,56],[2026,57]],[[2021,1324],[2022,1316],[2023,1304],[2024,1283],[2025,1256],[2026,1229]],[[2021,226],[2022,215],[2023,212],[2024,204],[2025,194],[2026,190]],[[2021,60],[2022,60],[2023,60],[2024,62],[2025,60],[2026,55]],[[2021,142],[2022,137],[2023,140],[2024,135],[2025,132],[2026,135]],[[2021,4084],[2022,4065],[2023,4036],[2024,3958],[2025,3906],[2026,3838]],[[2021,165],[2022,164],[2023,166],[2024,171],[2025,170],[2026,166]],[[2021,210],[2022,203],[2023,210],[2024,202],[2025,204],[2026,199]],[[2021,65],[2022,60],[2023,62],[2024,65],[2025,67],[2026,65]],[[2021,150],[2022,139],[2023,141],[2024,139],[2025,137],[2026,135]],[[2021,158],[2022,149],[2023,145],[2024,142],[2025,146],[2026,141]],[[2021,342],[2022,342],[2023,348],[2024,333],[2025,315],[2026,300]],[[2021,153],[2022,147],[2023,137],[2024,135],[2025,138],[2026,133]],[[2021,50],[2022,45],[2023,46],[2024,49],[2025,46],[2026,53]],[[2021,95],[2022,92],[2023,87],[2024,86],[2025,79],[2026,76]],[[2021,188],[2022,190],[2023,186],[2024,183],[2025,188],[2026,180]],[[2021,281],[2022,273],[2023,262],[2024,260],[2025,250],[2026,262]],[[2021,10],[2022,9],[2023,4],[2024,5],[2025,6],[2026,0]],[[2021,40],[2022,40],[2023,44],[2024,44],[2025,40],[2026,41]],[[2021,2423],[2022,2349],[2023,2327],[2024,2265],[2025,2238],[2026,2224]],[[2021,219],[2022,225],[2023,213],[2024,207],[2025,209],[2026,207]],[[2021,574],[2022,566],[2023,567],[2024,555],[2025,538],[2026,530]],[[2021,214],[2022,206],[2023,207],[2024,204],[2025,201],[2026,198]],[[2021,210],[2022,207],[2023,191],[2024,189],[2025,188],[2026,179]],[[2021,181],[2022,173],[2023,169],[2024,177],[2025,173],[2026,167]],[[2021,165],[2022,160],[2023,154],[2024,148],[2025,146],[2026,143]]],[[[2021,2.6],[2022,6.6],[2023,2.6],[2024,4.1],[2025,5.5],[2026,3]],[[2021,7.7],[2022,6.3],[2023,5.5],[2024,3.4],[2025,5.5],[2026,3.5]],[[2021,2.8],[2022,5.7],[2023,4.1],[2024,2.1],[2025,8],[2026,5.1]],[[2021,5.7],[2022,5.2],[2023,6],[2024,3.5],[2025,4.4],[2026,5]],[[2021,8.7],[2022,7.7],[2023,8.2],[2024,7.1],[2025,8.1],[2026,8.6]],[[2021,6.1],[2022,7],[2023,8.7],[2024,6.7],[2025,6.7],[2026,8.2]],[[2021,6.8],[2022,7.2],[2023,6.3],[2024,6.1],[2025,7.1],[2026,7.2]],[[2021,7.2],[2022,6],[2023,5],[2024,4.6],[2025,5],[2026,5.3]],[[2021,12.1],[2022,8.3],[2023,9],[2024,8.8],[2025,12.9],[2026,9.1]],[[2021,5.5],[2022,5.9],[2023,6],[2024,5.5],[2025,5],[2026,5.5]],[[2021,5.2],[2022,4.1],[2023,5.1],[2024,4.8],[2025,4.6],[2026,5.5]],[[2021,6],[2022,7.5],[2023,6.7],[2024,9.2],[2025,9.5],[2026,8.7]],[[2021,5.9],[2022,3.9],[2023,2],[2024,0],[2025,0],[2026,0]],[[2021,6.9],[2022,8.8],[2023,6],[2024,4.8],[2025,7.5],[2026,6.3]],[[2021,6.1],[2022,4.7],[2023,3.3],[2024,4.3],[2025,3.5],[2026,4.4]],[[2021,8.1],[2022,3.3],[2023,4.7],[2024,4.6],[2025,5.5],[2026,4.3]],[[2021,5.8],[2022,5.9],[2023,4.6],[2024,4.4],[2025,4.6],[2026,4.8]],[[2021,4.6],[2022,5.7],[2023,4.9],[2024,3.7],[2025,2.7],[2026,3.3]],[[2021,4.2],[2022,7.1],[2023,4.5],[2024,3.9],[2025,3.3],[2026,0.8]],[[2021,6],[2022,8.6],[2023,7],[2024,7.1],[2025,5.4],[2026,7.5]],[[2021,7.2],[2022,12.8],[2023,5.5],[2024,5.6],[2025,10.3],[2026,6.7]],[[2021,9.8],[2022,9.7],[2023,5],[2024,6.7],[2025,5.9],[2026,2.6]],[[2021,3.4],[2022,5.4],[2023,4.1],[2024,6.3],[2025,8.6],[2026,6.2]],[[2021,4.3],[2022,5],[2023,3.1],[2024,2.9],[2025,3],[2026,3.3]],[[2021,4],[2022,5.3],[2023,3.2],[2024,2.3],[2025,3.8],[2026,2.6]],[[2021,4.9],[2022,4.9],[2023,4.9],[2024,5.6],[2025,5.1],[2026,5.2]],[[2021,0],[2022,7.1],[2023,6.6],[2024,5.2],[2025,1.8],[2026,7]],[[2021,5],[2022,5.1],[2023,4.8],[2024,4.5],[2025,4.7],[2026,5]],[[2021,3.5],[2022,2.3],[2023,5.7],[2024,4.9],[2025,7.2],[2026,5.3]],[[2021,6.7],[2022,5],[2023,1.7],[2024,4.8],[2025,6.7],[2026,7.3]],[[2021,4.9],[2022,10.2],[2023,7.1],[2024,7.4],[2025,9.1],[2026,5.2]],[[2021,5],[2022,5.1],[2023,4.4],[2024,4.1],[2025,5.3],[2026,5.2]],[[2021,3.6],[2022,2.4],[2023,3.6],[2024,4.7],[2025,7.6],[2026,3]],[[2021,8.1],[2022,8.4],[2023,7.1],[2024,4.5],[2025,6.4],[2026,5.5]],[[2021,3.1],[2022,5],[2023,3.2],[2024,4.6],[2025,1.5],[2026,3.1]],[[2021,6.7],[2022,5],[2023,7.1],[2024,9.4],[2025,8.8],[2026,9.6]],[[2021,4.4],[2022,6],[2023,3.4],[2024,1.4],[2025,3.4],[2026,4.3]],[[2021,4.1],[2022,5],[2023,2.3],[2024,2.7],[2025,2.9],[2026,1.7]],[[2021,0],[2022,1.4],[2023,2.2],[2024,1.5],[2025,2.2],[2026,1.5]],[[2021,2],[2022,2.2],[2023,4.3],[2024,6.1],[2025,2.2],[2026,3.8]],[[2021,4.2],[2022,2.2],[2023,2.3],[2024,3.5],[2025,5.1],[2026,1.3]],[[2021,7.4],[2022,7.4],[2023,6.5],[2024,4.9],[2025,4.8],[2026,5]],[[2021,6.4],[2022,8.8],[2023,7.6],[2024,5.8],[2025,5.6],[2026,7.3]],null,[[2021,0],[2022,0],[2023,9.1],[2024,9.1],[2025,2.5],[2026,4.9]],[[2021,5.5],[2022,5.1],[2023,4.7],[2024,4.8],[2025,6.1],[2026,5.2]],[[2021,2.3],[2022,2.2],[2023,2.8],[2024,2.4],[2025,4.8],[2026,2.9]],[[2021,3.8],[2022,4.1],[2023,4.2],[2024,4.7],[2025,5.4],[2026,4.9]],[[2021,6.1],[2022,3.4],[2023,3.9],[2024,4.9],[2025,6.5],[2026,5.6]],[[2021,1],[2022,2.4],[2023,2.6],[2024,1.6],[2025,4.3],[2026,4.5]],[[2021,8.8],[2022,7.5],[2023,10.1],[2024,11.3],[2025,8.7],[2026,7.2]],[[2021,4.8],[2022,4.4],[2023,3.9],[2024,5.4],[2025,6.2],[2026,3.5]]],[22.3,12.2,13.2,32.5,20,14.8,16.4,19.5,15.2,28.5,16.8,22.1,12.1,16.4,17.4,23.7,20.3,16,23.4,12.4,24,28.1,22.1,23.4,16.3,22.1,22.7,20.3,34,28.5,6.9,20.3,23.5,20.5,14.4,18.2,18.6,19.6,16,8.5,18.4,20.7,35.2,null,27.7,20.8,10.1,27.1,30.6,10.6,21.4,10.3],[-13,-7.7,-4.2,-11.7,-6.7,-11.2,-3,-1.7,-9.9,-14.8,-11.2,-17.9,-3.9,-12.8,-13.6,-6,-7.8,-17.8,-14.7,-12,-27.7,-12,-15.9,-11.7,-22.2,-9.3,9.6,-7.2,-15.9,-8.3,-4.9,-6,0.6,-5.2,0,-10,-10.8,-12.3,-13.1,6,-20,-4.3,-6.8,-100,2.5,-8.2,-5.5,-7.7,-7.5,-14.8,-7.7,-13.3],[15.4,-54.5,82.1,-12.3,-1.1,34.4,5.9,-26.4,-24.8,0,5.8,45,-100,-8.7,-27.9,-46.9,-17.2,-28.3,-81,25,-6.9,-73.5,82.4,-23.3,-35,6.1,null,0,51.4,9,6.1,4,-16.7,-32.1,0,43.3,-2.3,-58.5,null,90,-69,-32.4,14.1,null,null,-5.5,26.1,28.9,-8.2,350,-18.2,-27.1],[null,null,null,null,null,null,[{"name":"Saarijärven lukio","score":56.4}],null,null,null,null,null,null,null,null,null,[{"name":"Karstulan lukio","score":61.4}],null,null,null,null,null,null,null,null,null,null,[{"name":"Kinnulan lukio","score":56.1}],null,null,null,[{"name":"Viitasaaren lukio","score":58.4}],null,null,null,null,null,null,null,null,null,null,null,null,null,[{"name":"Pihtiputaan lukio","score":57.6}],null,null,null,null,null,null],[[[2020,57.8],[2021,54.3],[2022,43.6],[2023,57.9],[2024,51.4],[2025,48.7]],[[2020,56.1],[2021,30.6],[2022,32.4],[2023,31.2],[2024,32.9],[2025,36.6]],[[2020,68.6],[2021,37.5],[2022,39.7],[2023,38.2],[2024,40.3],[2025,44.8]],[[2020,74.6],[2021,40.8],[2022,43.1],[2023,41.5],[2024,43.8],[2025,48.7]],[[2020,90.5],[2021,49.5],[2022,52.3],[2023,50.4],[2024,53.1],[2025,59.1]],[[2020,72.3],[2021,39.5],[2022,41.8],[2023,40.2],[2024,42.4],[2025,47.2]],[[2020,115.3],[2021,63],[2022,66.7],[2023,64.2],[2024,67.7],[2025,75.3]],[[2020,93.7],[2021,51.2],[2022,54.2],[2023,52.2],[2024,55],[2025,61.2]],[[2020,65.5],[2021,35.8],[2022,37.9],[2023,36.5],[2024,38.5],[2025,42.8]],[[2020,68.6],[2021,37.5],[2022,39.7],[2023,38.2],[2024,40.3],[2025,44.8]],[[2020,81.1],[2021,63.9],[2022,62.8],[2023,47],[2024,49.1],[2025,54.8]],[[2020,67.5],[2021,53.2],[2022,52.2],[2023,39.1],[2024,40.8],[2025,45.6]],[[2020,38.7],[2021,21.2],[2022,22.4],[2023,21.6],[2024,22.7],[2025,25.3]],[[2020,71.8],[2021,39.3],[2022,41.5],[2023,40],[2024,42.2],[2025,46.9]],[[2020,69.2],[2021,37.8],[2022,40],[2023,38.5],[2024,40.6],[2025,45.2]],[[2020,36.1],[2021,28.2],[2022,26.2],[2023,23.2],[2024,25.4],[2025,26.8]],[[2020,86.1],[2021,67.2],[2022,62.6],[2023,55.4],[2024,60.7],[2025,64]],[[2020,42.2],[2021,33],[2022,30.7],[2023,27.2],[2024,29.8],[2025,31.4]],[[2020,41.4],[2021,32.4],[2022,30.1],[2023,26.6],[2024,29.2],[2025,30.8]],[[2020,61.3],[2021,47.9],[2022,44.6],[2023,39.4],[2024,43.2],[2025,45.6]],[[2020,44.9],[2021,35.1],[2022,32.7],[2023,28.9],[2024,31.7],[2025,33.4]],[[2020,47.6],[2021,37.2],[2022,34.6],[2023,30.6],[2024,33.6],[2025,35.4]],[[2020,43],[2021,33.6],[2022,31.3],[2023,27.7],[2024,30.3],[2025,32]],[[2020,73.6],[2021,78.7],[2022,84.5],[2023,55.3],[2024,41.1],[2025,83.1]],[[2020,41.8],[2021,44.7],[2022,48],[2023,31.4],[2024,23.3],[2025,47.2]],[[2020,72.2],[2021,68],[2022,54.5],[2023,72.4],[2024,64.2],[2025,60.9]],[[2020,89.9],[2021,84.6],[2022,67.8],[2023,90.1],[2024,80],[2025,75.8]],[[2020,59.2],[2021,57.3],[2022,50.3],[2023,99.4],[2024,47.8],[2025,62.9]],[[2020,50.9],[2021,49.3],[2022,43.2],[2023,85.5],[2024,41.1],[2025,54.1]],[[2020,147.1],[2021,142.5],[2022,124.9],[2023,247.1],[2024,118.9],[2025,156.3]],[[2020,49.8],[2021,54.8],[2022,65.1],[2023,61.4],[2024,50.2],[2025,54.6]],[[2020,115.5],[2021,127.1],[2022,150.8],[2023,142.3],[2024,116.3],[2025,126.6]],[[2020,69.8],[2021,76.8],[2022,91.1],[2023,86],[2024,70.3],[2025,76.5]],[[2020,69.4],[2021,76.4],[2022,90.7],[2023,85.5],[2024,69.9],[2025,76.1]],[[2020,57.3],[2021,63],[2022,74.8],[2023,70.6],[2024,57.7],[2025,62.8]],[[2020,72.5],[2021,79.8],[2022,94.7],[2023,89.4],[2024,73],[2025,79.5]],[[2020,46.8],[2021,51.5],[2022,61.1],[2023,57.7],[2024,47.1],[2025,51.3]],[[2020,47.4],[2021,52.2],[2022,62],[2023,58.5],[2024,47.8],[2025,52]],[[2020,32.7],[2021,35.9],[2022,42.7],[2023,40.2],[2024,32.9],[2025,35.8]],[[2020,60.6],[2021,66.7],[2022,79.1],[2023,74.6],[2024,61],[2025,66.4]],[[2020,32.7],[2021,35.9],[2022,42.7],[2023,40.2],[2024,32.9],[2025,35.8]],[[2020,62.5],[2021,68.8],[2022,81.6],[2023,77],[2024,62.9],[2025,68.5]],[[2020,60.2],[2021,66.3],[2022,78.6],[2023,74.2],[2024,60.6],[2025,66]],[[2020,187.2],[2021,206],[2022,244.5],[2023,230.7],[2024,188.5],[2025,205.2]],[[2020,78.6],[2021,86.5],[2022,102.7],[2023,96.9],[2024,79.2],[2025,86.2]],[[2020,77.5],[2021,120.6],[2022,92.7],[2023,79.6],[2024,78.7],[2025,87.1]],[[2020,31.9],[2021,49.6],[2022,38.1],[2023,32.7],[2024,32.3],[2025,35.8]],[[2020,50.1],[2021,78],[2022,59.9],[2023,51.5],[2024,50.9],[2025,56.3]],[[2020,53.8],[2021,83.7],[2022,64.3],[2023,55.2],[2024,54.6],[2025,60.4]],[[2020,45.7],[2021,71.1],[2022,54.6],[2023,46.9],[2024,46.3],[2025,51.3]],[[2020,57.6],[2021,89.6],[2022,68.9],[2023,59.1],[2024,58.5],[2025,64.7]],[[2020,31.9],[2021,49.6],[2022,38.1],[2023,32.7],[2024,32.3],[2025,35.8]]],[-15.7,-34.8,-34.7,-34.7,-34.7,-34.7,-34.7,-34.7,-34.7,-34.7,-32.4,-32.4,-34.6,-34.7,-34.7,-25.8,-25.7,-25.6,-25.6,-25.6,-25.6,-25.6,-25.6,12.9,12.9,-15.7,-15.7,6.2,6.3,6.3,9.6,9.6,9.6,9.7,9.6,9.7,9.6,9.7,9.5,9.6,9.5,9.6,9.6,9.6,9.7,12.4,12.2,12.4,12.3,12.3,12.3,12.2],[115.5,102.8,102.8,102.8,102.8,102.8,102.8,102.8,102.8,102.8,113.7,113.7,102.8,102.8,102.8,108.1,108.1,108.1,108.1,108.1,108.1,108.1,108.1,103.6,103.6,115.5,115.5,119,119,119,114.2,114.2,114.2,114.2,114.2,114.2,114.2,114.2,114.2,114.2,114.2,114.2,114.2,114.2,114.2,114.1,114.1,114.1,114.1,114.1,114.1,114.1],[null,null,null,140,159,null,141,152,93,127,null,null,null,null,null,null,130,null,124,null,null,null,null,71,null,133,null,72,null,null,null,80,null,null,null,null,null,null,null,null,null,null,null,null,null,115,null,81,null,null,null,null],["Kivijärvi","Saarijärvi","Saarijärvi","Saarijärvi","Saarijärvi","Saarijärvi","Saarijärvi","Saarijärvi","Saarijärvi","Saarijärvi","Kannonkoski","Kannonkoski","Saarijärvi","Saarijärvi","Saarijärvi","Karstula","Karstula","Karstula","Karstula","Karstula","Karstula","Karstula","Karstula","Kyyjärvi","Kyyjärvi","Kivijärvi","Kivijärvi","Kinnula","Kinnula","Kinnula","Viitasaari","Viitasaari","Viitasaari","Viitasaari","Viitasaari","Viitasaari","Viitasaari","Viitasaari","Viitasaari","Viitasaari","Viitasaari","Viitasaari","Viitasaari","Viitasaari","Viitasaari","Pihtipudas","Pihtipudas","Pihtipudas","Pihtipudas","Pihtipudas","Pihtipudas","Pihtipudas"],[25.30618,25.01461,25.33414,25.41597,25.13744,25.00922,25.27853,25.29852,25.49673,25.01157,25.27992,25.2201,24.76231,24.77767,24.8026,24.68476,24.83062,24.71811,24.67918,24.48542,25.10768,24.90097,24.97797,24.55533,24.76582,24.96106,25.10553,24.98541,25.09608,25.18763,25.84635,25.80051,25.92003,25.53786,25.56221,25.88619,26.02519,25.99133,26.09254,26.15652,25.61925,25.57348,25.46479,25.37628,25.40505,25.57287,25.39818,25.33092,25.60795,25.7696,25.79559,25.95994],[63.11329,62.72402,62.56958,62.58729,62.71987,62.62637,62.68664,62.6666,62.82699,62.80182,62.96931,62.89232,62.62483,62.69461,62.76533,62.77671,62.86332,62.97302,62.85796,62.89716,62.89818,62.91736,62.96762,63.04331,63.08412,63.11142,63.04524,63.35255,63.29734,63.26928,62.93571,63.07244,62.96512,63.07099,62.97686,63.22092,63.21775,63.09174,62.99263,63.05405,63.24205,63.22343,63.15034,63.17363,63.21826,63.35171,63.43937,63.55609,63.48772,63.43455,63.33023,63.37403],[null,null,null,null,null,null,null,null,null,null,null,null,null,null,null,null,null,null,null,null,null,null,null,1.44,null,null,null,null,null,null,null,null,null,null,null,null,null,null,null,null,null,null,null,null,null,null,null,null,null,null,null,null],[-10.1,-14.2,-14.2,-14.2,-14.2,-14.2,-14.2,-14.2,-14.2,-14.2,-17.6,-17.6,-14.2,-14.2,-14.2,-22.1,-22.1,-22.1,-22.1,-22.1,-22.1,-22.1,-22.1,-30.9,-30.9,-10.1,-10.1,-14.6,-14.6,-14.6,-15.1,-15.1,-15.1,-15.1,-15.1,-15.1,-15.1,-15.1,-15.1,-15.1,-15.1,-15.1,-15.1,-15.1,-15.1,-17.1,-17.1,-17.1,-17.1,-17.1,-17.1,-17.1],[2.1,2.1,2.1,2.1,2.1,2.1,2.1,2.1,2.1,2.1,6.2,6.2,2.1,2.1,2.1,2,2,2,2,2,2,2,2,1.8,1.8,2.1,2.1,5.4,5.4,5.4,2.3,2.3,2.3,2.3,2.3,2.3,2.3,2.3,2.3,2.3,2.3,2.3,2.3,2.3,2.3,4.7,4.7,4.7,4.7,4.7,4.7,4.7],[null,null,null,null,null,null,1,null,null,null,null,null,null,null,null,null,null,null,null,null,null,null,null,null,null,1,null,null,null,null,null,null,null,null,null,null,null,null,null,null,null,null,null,null,null,null,null,null,null,null,null,null],[61.2,60.8,60.8,60.8,60.8,60.8,60.8,60.8,60.8,60.8,59.8,59.8,60.8,60.8,60.8,62.4,62.4,62.4,62.4,62.4,62.4,62.4,62.4,63.2,63.2,61.2,61.2,60.8,60.8,60.8,55.8,55.8,55.8,55.8,55.8,55.8,55.8,55.8,55.8,55.8,55.8,55.8,55.8,55.8,55.8,58.3,58.3,58.3,58.3,58.3,58.3,58.3],[6.4,7.7,7.7,7.7,7.7,7.7,7.7,7.7,7.7,7.7,11.8,11.8,7.7,7.7,7.7,15.2,15.2,15.2,15.2,15.2,15.2,15.2,15.2,7.9,7.9,6.4,6.4,5.3,5.3,5.3,7.9,7.9,7.9,7.9,7.9,7.9,7.9,7.9,7.9,7.9,7.9,7.9,7.9,7.9,7.9,4.7,4.7,4.7,4.7,4.7,4.7,4.7],[15.4,16.6,16.6,16.6,16.6,16.6,16.6,16.6,16.6,16.6,22.8,22.8,16.6,16.6,16.6,14.6,14.6,14.6,14.6,14.6,14.6,14.6,14.6,8.9,8.9,15.4,15.4,13.4,13.4,13.4,31.2,31.2,31.2,31.2,31.2,31.2,31.2,31.2,31.2,31.2,31.2,31.2,31.2,31.2,31.2,18.7,18.7,18.7,18.7,18.7,18.7,18.7],[23.5,25.9,25.9,25.9,25.9,25.9,25.9,25.9,25.9,25.9,24.7,24.7,25.9,25.9,25.9,23.2,23.2,23.2,23.2,23.2,23.2,23.2,23.2,23,23,23.5,23.5,23,23,23,20.5,20.5,20.5,20.5,20.5,20.5,20.5,20.5,20.5,20.5,20.5,20.5,20.5,20.5,20.5,19.5,19.5,19.5,19.5,19.5,19.5,19.5],[48.9,36.5,36.5,36.5,36.5,36.5,36.5,36.5,36.5,36.5,33.4,33.4,36.5,36.5,36.5,36.2,36.2,36.2,36.2,36.2,36.2,36.2,36.2,49,49,48.9,48.9,50.6,50.6,50.6,24.6,24.6,24.6,24.6,24.6,24.6,24.6,24.6,24.6,24.6,24.6,24.6,24.6,24.6,24.6,47.6,47.6,47.6,47.6,47.6,47.6,47.6],[0.8,2.2,2.2,2.2,2.2,2.2,2.2,2.2,2.2,2.2,2.1,2.1,2.2,2.2,2.2,1.7,1.7,1.7,1.7,1.7,1.7,1.7,1.7,0.6,0.6,0.8,0.8,0.4,0.4,0.4,2.3,2.3,2.3,2.3,2.3,2.3,2.3,2.3,2.3,2.3,2.3,2.3,2.3,2.3,2.3,1.4,1.4,1.4,1.4,1.4,1.4,1.4],[0.5,2.7,2.7,2.7,2.7,2.7,2.7,2.7,2.7,2.7,1.8,1.8,2.7,2.7,2.7,1.6,1.6,1.6,1.6,1.6,1.6,1.6,1.6,1.2,1.2,0.5,0.5,2,2,2,4.2,4.2,4.2,4.2,4.2,4.2,4.2,4.2,4.2,4.2,4.2,4.2,4.2,4.2,4.2,2.5,2.5,2.5,2.5,2.5,2.5,2.5],[0.2,0.1,0.1,0.1,0.1,0.1,0.1,0.1,0.1,0.1,0.1,0.1,0.1,0.1,0.1,0.2,0.2,0.2,0.2,0.2,0.2,0.2,0.2,null,null,0.2,0.2,0.1,0.1,0.1,0.1,0.1,0.1,0.1,0.1,0.1,0.1,0.1,0.1,0.1,0.1,0.1,0.1,0.1,0.1,0,0,0,0,0,0,0],[1.5,2.8,2.8,2.8,2.8,2.8,2.8,2.8,2.8,2.8,1.7,1.7,2.8,2.8,2.8,2.8,2.8,2.8,2.8,2.8,2.8,2.8,2.8,2.7,2.7,1.5,1.5,1.6,1.6,1.6,2.5,2.5,2.5,2.5,2.5,2.5,2.5,2.5,2.5,2.5,2.5,2.5,2.5,2.5,2.5,2,2,2,2,2,2,2],["[[2020, 2.6], [2021, 4.0], [2022, 3.6], [2023, 3.8], [2024, 4.4], [2025, 3.0]]","[[2020, 1.4], [2021, 1.5], [2022, 1.5], [2023, 1.9], [2024, 3.3], [2025, 3.3]]","[[2020, 0.0], [2021, 0.0], [2022, 0.0], [2023, 0.0], [2024, 0.0], [2025, 0.0]]","[[2020, 0.0], [2021, 0.0], [2022, 0.0], [2023, 0.0], [2024, 0.0], [2025, 0.0]]","[[2020, 0.3], [2021, 0.3], [2022, 0.3], [2023, 0.4], [2024, 0.7], [2025, 0.7]]","[[2020, 2.2], [2021, 2.4], [2022, 2.4], [2023, 2.9], [2024, 5.1], [2025, 5.1]]","[[2020, 1.3], [2021, 1.4], [2022, 1.4], [2023, 1.7], [2024, 3.0], [2025, 3.0]]","[[2020, 0.8], [2021, 0.9], [2022, 0.9], [2023, 1.1], [2024, 1.9], [2025, 1.9]]","[[2020, 0.9], [2021, 1.0], [2022, 1.0], [2023, 1.2], [2024, 2.1], [2025, 2.1]]","[[2020, 1.1], [2021, 1.2], [2022, 1.2], [2023, 1.5], [2024, 2.6], [2025, 2.6]]","[[2020, 2.0], [2021, 1.9], [2022, 1.9], [2023, 1.7], [2024, 1.8], [2025, 1.8]]","[[2020, 0.0], [2021, 0.0], [2022, 0.0], [2023, 0.0], [2024, 0.0], [2025, 0.0]]","[[2020, 0.0], [2021, 0.0], [2022, 0.0], [2023, 0.0], [2024, 0.0], [2025, 0.0]]","[[2020, 0.8], [2021, 0.9], [2022, 0.9], [2023, 1.1], [2024, 1.9], [2025, 1.9]]","[[2020, 2.3], [2021, 2.5], [2022, 2.5], [2023, 3.1], [2024, 5.4], [2025, 5.4]]","[[2020, 1.3], [2021, 1.3], [2022, 1.5], [2023, 2.3], [2024, 2.2], [2025, 2.8]]","[[2020, 1.3], [2021, 1.3], [2022, 1.5], [2023, 2.3], [2024, 2.2], [2025, 2.8]]","[[2020, 0.0], [2021, 0.0], [2022, 0.0], [2023, 0.0], [2024, 0.0], [2025, 0.0]]","[[2020, 3.5], [2021, 3.5], [2022, 4.0], [2023, 6.2], [2024, 5.9], [2025, 7.5]]","[[2020, 1.2], [2021, 1.2], [2022, 1.4], [2023, 2.1], [2024, 2.0], [2025, 2.6]]","[[2020, 0.0], [2021, 0.0], [2022, 0.0], [2023, 0.0], [2024, 0.0], [2025, 0.0]]","[[2020, 1.6], [2021, 1.6], [2022, 1.8], [2023, 2.8], [2024, 2.7], [2025, 3.4]]","[[2020, 1.3], [2021, 1.3], [2022, 1.5], [2023, 2.3], [2024, 2.2], [2025, 2.8]]","[[2020, 2.3], [2021, 1.8], [2022, 1.9], [2023, 2.8], [2024, 2.7], [2025, 3.0]]","[[2020, 0.0], [2021, 0.0], [2022, 0.0], [2023, 0.0], [2024, 0.0], [2025, 0.0]]","[[2020, 1.3], [2021, 2.0], [2022, 1.8], [2023, 1.9], [2024, 2.2], [2025, 1.5]]","[[2020, 1.8], [2021, 2.8], [2022, 2.5], [2023, 2.6], [2024, 3.0], [2025, 2.1]]","[[2020, 0.5], [2021, 0.4], [2022, 0.5], [2023, 1.0], [2024, 1.2], [2025, 1.6]]","[[2020, 0.5], [2021, 0.4], [2022, 0.5], [2023, 1.0], [2024, 1.2], [2025, 1.6]]","[[2020, 0.0], [2021, 0.0], [2022, 0.0], [2023, 0.0], [2024, 0.0], [2025, 0.0]]","[[2020, 1.5], [2021, 1.6], [2022, 1.9], [2023, 2.4], [2024, 2.3], [2025, 2.3]]","[[2020, 2.0], [2021, 2.1], [2022, 2.5], [2023, 3.2], [2024, 3.1], [2025, 3.1]]","[[2020, 1.2], [2021, 1.3], [2022, 1.5], [2023, 1.9], [2024, 1.9], [2025, 1.9]]","[[2020, 1.0], [2021, 1.1], [2022, 1.2], [2023, 1.6], [2024, 1.6], [2025, 1.6]]","[[2020, 0.0], [2021, 0.0], [2022, 0.0], [2023, 0.0], [2024, 0.0], [2025, 0.0]]","[[2020, 0.0], [2021, 0.0], [2022, 0.0], [2023, 0.0], [2024, 0.0], [2025, 0.0]]","[[2020, 0.0], [2021, 0.0], [2022, 0.0], [2023, 0.0], [2024, 0.0], [2025, 0.0]]","[[2020, 1.5], [2021, 1.6], [2022, 1.9], [2023, 2.4], [2024, 2.3], [2025, 2.3]]","[[2020, 0.7], [2021, 0.7], [2022, 0.9], [2023, 1.1], [2024, 1.1], [2025, 1.1]]","[[2020, 0.0], [2021, 0.0], [2022, 0.0], [2023, 0.0], [2024, 0.0], [2025, 0.0]]","[[2020, 0.0], [2021, 0.0], [2022, 0.0], [2023, 0.0], [2024, 0.0], [2025, 0.0]]","[[2020, 0.5], [2021, 0.5], [2022, 0.6], [2023, 0.8], [2024, 0.8], [2025, 0.8]]","[[2020, 0.0], [2021, 0.0], [2022, 0.0], [2023, 0.0], [2024, 0.0], [2025, 0.0]]","[[2020, 11.1], [2021, 11.8], [2022, 13.9], [2023, 18.0], [2024, 17.3], [2025, 17.3]]","[[2020, 0.0], [2021, 0.0], [2022, 0.0], [2023, 0.0], [2024, 0.0], [2025, 0.0]]","[[2020, 1.1], [2021, 1.2], [2022, 1.1], [2023, 1.8], [2024, 2.0], [2025, 2.4]]","[[2020, 0.9], [2021, 1.0], [2022, 0.9], [2023, 1.5], [2024, 1.6], [2025, 2.0]]","[[2020, 0.2], [2021, 0.2], [2022, 0.2], [2023, 0.3], [2024, 0.4], [2025, 0.4]]","[[2020, 1.0], [2021, 1.1], [2022, 1.0], [2023, 1.7], [2024, 1.8], [2025, 2.2]]","[[2020, 1.0], [2021, 1.1], [2022, 1.0], [2023, 1.7], [2024, 1.8], [2025, 2.2]]","[[2020, 0.0], [2021, 0.0], [2022, 0.0], [2023, 0.0], [2024, 0.0], [2025, 0.0]]","[[2020, 0.6], [2021, 0.7], [2022, 0.6], [2023, 1.0], [2024, 1.1], [2025, 1.3]]"],[3,3.3,0,0,0.7,5.1,3,1.9,2.1,2.6,1.8,0,0,1.9,5.4,2.8,2.8,0,7.5,2.6,0,3.4,2.8,3,0,1.5,2.1,1.6,1.6,0,2.3,3.1,1.9,1.6,0,0,0,2.3,1.1,0,0,0.8,0,17.3,0,2.4,2,0.4,2.2,2.2,0,1.3],[27.3,31.5,25.5,21.6,20.7,27,22.7,17.9,33,26,23.9,28.8,28.6,28.8,27.7,21.7,21.6,38.2,25.3,33.8,26.7,33.3,27,22.2,33.8,28.4,35.6,26.8,38.8,26.5,19.8,20.6,13.7,28.5,23.7,23.6,28.7,23,18.3,11.9,18.1,23.8,24.2,null,22.9,24.1,26.9,25.1,29.8,28.1,31.9,27.4],[5.3,43.4,22,19.7,36,40.5,107.8,89.2,53.5,61.3,93.8,17.4,43.8,57.1,40.4,43.1,102.8,35.6,117.4,20.8,34.8,279.2,24.1,104.4,47.1,80.1,0,98.5,28.1,12.5,19.1,131.8,14.1,46.4,5.3,56.8,19.6,43.7,48.2,23.5,5.3,47.8,21.1,null,0,128.7,43.9,39.2,43.8,55.1,16.7,18.8],[null,null,null,null,null,null,[[2020,861],[2021,784],[2022,943],[2023,916],[2024,813],[2025,903]],null,null,null,null,null,null,null,null,null,[[2020,929],[2021,819],[2022,720],[2023,806],[2025,719]],null,null,null,null,null,null,null,null,null,null,null,null,null,null,[[2020,879],[2021,907],[2022,899],[2023,747],[2024,790],[2025,514]],null,null,null,null,null,null,null,null,null,null,null,null,null,[[2020,849],[2021,878],[2023,569],[2024,658]],null,null,null,null,null,null]]}}