{"type":"Topology","objects":{"neighborhoods":{"type":"GeometryCollection","geometries":[{"type":"MultiPolygon","arcs":[[[0,1]]],"properties":{"i":0}},{"type":"MultiPolygon","arcs":[[[-1,2,3,4,5,6]]],"properties":{"i":1}},{"type":"MultiPolygon","arcs":[[[7,8,9,-5,10]]],"properties":{"i":2}},{"type":"MultiPolygon","arcs":[[[11,12,13,14,15,16]]],"properties":{"i":3}},{"type":"MultiPolygon","arcs":[[[17,-15,18,-6,-10]]],"properties":{"i":4}},{"type":"MultiPolygon","arcs":[[[-16,-18,-9,19]]],"properties":{"i":5}},{"type":"MultiPolygon","arcs":[[[20,21,22,-13,23]]],"properties":{"i":6}},{"type":"MultiPolygon","arcs":[[[-24,-12,24,25]]],"properties":{"i":7}},{"type":"MultiPolygon","arcs":[[[26,-22]]],"properties":{"i":8}},{"type":"MultiPolygon","arcs":[[[27,28,29,30,31,32,33,34,-11,-4,35]]],"properties":{"i":9}},{"type":"MultiPolygon","arcs":[[[36,-28]]],"properties":{"i":10}},{"type":"MultiPolygon","arcs":[[[-30,37]]],"properties":{"i":11}},{"type":"MultiPolygon","arcs":[[[38,39,-32,40,41,42,43],[44]]],"properties":{"i":12}},{"type":"MultiPolygon","arcs":[[[45,-42]]],"properties":{"i":13}},{"type":"MultiPolygon","arcs":[[[-40,46,-33]]],"properties":{"i":14}},{"type":"MultiPolygon","arcs":[[[-39,47,-34,-47]]],"properties":{"i":15}},{"type":"MultiPolygon","arcs":[[[48,-25,-17,-20,-8,-35,-48,-44]]],"properties":{"i":16}},{"type":"MultiPolygon","arcs":[[[-45]]],"properties":{"i":17}}]}},"arcs":[[[59067,83553],[162,3954],[-2750,2657],[-1278,2276],[-207,1989],[-376,341],[-1434,245]],[[53184,95015],[1419,1304],[-248,1205],[-490,1058],[1528,8],[6097,126],[2582,1115],[202,168],[458,-419],[474,-252],[1828,-1902],[324,-741],[1041,-1067],[1305,-986],[703,-3464],[2372,-1179],[1428,-841],[-723,-256],[-2112,-749],[-818,-291],[-702,-440],[-1187,-360],[-1593,-432],[-490,-975],[-3909,-1174],[-1715,262],[-1862,-1130],[-29,-50]],[[59067,83553],[-397,-794],[-1158,-2321],[313,-733],[1537,-794],[399,-1162],[508,-1838],[921,-1930],[-977,-2046],[-1117,-81],[232,-4385],[-910,-1268]],[[58418,66201],[-633,808],[-1253,1147],[-1944,2735],[-1655,-2216],[-421,-1256],[-367,-1212],[-1070,-1337]],[[51075,64870],[-2015,1264],[-4058,1511],[-192,1374]],[[44810,69019],[-976,1604],[-730,1755],[-803,1304],[-2248,2713],[-837,1204],[-199,200],[-112,249],[-417,578],[-762,1481],[-1185,1499],[-279,431],[-51,-5],[-206,585],[319,1652],[235,2648],[1224,3920]],[[37783,90837],[2657,2480],[1491,350],[1598,-32],[806,59],[2187,826],[2282,1011],[10,1],[1007,-647],[1556,-899],[1807,1029]],[[46932,61390],[-1008,-70],[-1264,694],[-1166,1317],[-1029,639]],[[42465,63970],[-39,926],[-279,2961]],[[42147,67857],[1575,642],[1088,520]],[[51075,64870],[228,-3027],[424,-2311],[245,-2870],[488,-510],[-395,-803],[-336,37],[-123,198],[-311,967],[-33,100],[-184,288],[-36,56],[-164,256],[-65,341],[-24,124],[-139,266],[-18,35],[-377,727],[-506,870],[-362,355],[-1,1],[-115,81],[-94,120],[-165,94],[-375,-142],[-1485,1082],[-220,185]],[[29017,53638],[-24,66],[52,1716],[-2048,4204],[-343,640],[-805,1196],[-1204,862]],[[24645,62322],[-650,793],[-516,973],[-76,981],[465,183],[-51,159],[-199,182],[-372,1942],[-151,585],[-459,843],[-463,685],[15,85],[453,1416],[-691,1239],[-540,172],[-266,145],[-202,315],[-369,336],[-78,170],[-276,761],[3,138],[-1163,2435],[-83,172],[-327,1177],[-450,628],[-827,811],[-610,84]],[[16762,79732],[89,2051],[-119,715],[53,144],[24,467],[813,2161],[-22,89],[-2,7],[-71,844],[-772,466],[-35,25],[-603,432],[-452,251],[-141,339],[-25,139],[-97,155],[-481,522],[-745,2056],[-49,238],[-330,956],[1671,467],[1023,286],[1247,349],[952,-829],[443,-386],[1504,-1044],[2039,-395]],[[22676,90237],[-1236,-1392],[991,-2658],[2102,-771],[2358,-994],[2111,-2870],[2285,-1247],[1239,-1902],[3628,-4315],[329,-698],[575,-970]],[[37058,72420],[-2480,-2144],[193,-1206],[-336,-317],[-422,-127],[-255,-106],[196,-727],[2,0],[932,150],[207,-1380],[-51,-634],[548,-1976],[160,-680],[378,-365],[1480,-1767],[280,-1442]],[[37890,59699],[-2705,-68],[-1312,-615],[191,-787],[-41,-693],[-504,-768],[-1833,-1108],[-2042,-1547],[-627,-475]],[[42147,67857],[-1117,2808],[-889,759],[-1770,893],[-1313,103]],[[22676,90237],[313,176],[1347,-85],[542,-377],[2821,-1335],[1799,-300],[34,7],[1109,215],[675,278],[1732,1852],[4218,701],[5,-19],[512,-513]],[[42465,63970],[-92,-1682],[-1151,-870],[-463,-300],[-818,-1056],[-253,-327],[-373,-419],[-1425,383]],[[14039,58241],[-2194,1030],[-302,690],[-1183,2139],[2,6],[10,419],[2,128],[5,232],[13,579],[1305,1494]],[[11697,64958],[1254,2632],[-368,430],[-338,9],[-915,-507],[-492,416],[-160,74],[137,1136],[696,824],[759,351],[477,1286],[30,22],[1541,-935],[485,-170],[347,1020],[-396,440],[-6,6],[-828,1167],[-538,1093],[452,286],[-315,477],[349,186],[-7,423],[-741,269],[-348,-158],[-428,287],[-286,-232],[-487,643],[31,128],[-243,572],[-242,1719]],[[11117,78852],[105,77],[598,437],[697,-233],[449,288],[2258,846],[805,-399],[540,-240],[193,104]],[[24645,62322],[-1690,125],[-609,110],[-957,441],[-244,380],[-245,508],[-590,-260],[-733,-995],[-1165,-291],[-20,-2],[-816,-566],[-2504,-1251],[-1033,-2280]],[[29017,53638],[-1,-360],[0,-2]],[[29016,53276],[-1008,-699],[-2241,813],[-1474,-318],[-1823,-361],[-1273,-642],[-4218,4217],[-1912,1591],[-1028,364]],[[11697,64958],[-862,971],[-1162,660],[-389,585],[-375,564],[-811,395],[-285,113],[-903,-99],[-6750,-749],[-71,179],[-13,32],[-76,155],[364,470],[1892,2439],[178,229],[1392,1060],[-274,423],[-92,265],[-117,758],[-199,536],[43,629],[66,968],[337,130],[617,772],[53,15],[487,160],[629,204],[151,-27],[302,50],[294,387],[-4,19],[1533,1123],[179,1158],[1586,-675],[310,-132],[702,-10],[688,137]],[[80495,41404],[70,-1016],[987,-122],[-362,-1687],[-601,-2033],[1200,-633],[1309,-439],[1019,-839],[1329,-680],[717,-407],[489,-138],[189,226],[499,-48],[239,-573],[623,-495],[552,-1560],[660,-827],[573,-416],[436,-87],[294,914],[4284,-438],[998,136],[45,1383],[-648,593],[-2021,592],[-472,611],[-395,525],[-1433,691],[-1957,1705],[-53,299],[717,322],[1044,-286],[-123,1056],[-163,340],[-1284,-283],[278,1510],[-33,872],[-53,1394]],[[89448,41566],[1553,-1108],[368,-271],[1792,-1320],[2978,-1432],[1358,-251],[671,-125],[76,-1100],[184,-2624],[99,-1420],[411,-1436],[616,-2533],[5,-24],[7,-7],[433,-430],[-148,-589],[-183,-730],[-367,84],[-282,66],[-70,67],[-1606,1535],[-204,194],[-1875,-840],[347,-901],[617,-1379],[437,-641],[134,-111],[-54,-533],[-1271,-1156],[-50,-45],[-39,-16],[-593,-232],[-14,-6],[-298,-784],[14,-132],[80,-757],[34,-327],[-308,-530],[39,-3272],[-71,-401],[-102,-582],[-564,-1398],[231,-3332],[-1540,-2454],[-802,1484],[-537,308],[-1270,730],[-1032,42],[-612,221],[-342,-200],[-549,-614],[-795,-792],[-1127,-385],[-575,-118]],[[84652,8959],[-271,507],[-1201,2236],[617,484],[-239,699],[-915,883],[-1476,412],[-2103,-601],[-1557,-1145],[-748,-787],[-665,-252],[-427,1],[-1038,-63],[-778,-152],[-1049,-1206],[-126,-144]],[[72676,9831],[-111,-93],[-32,-275],[-35,-301],[-95,-826],[-162,-600],[-602,-625],[-1075,1],[-872,-99],[-23,-2],[-1450,-750],[-3644,364],[-742,-290],[-742,-290],[-597,-1876],[-829,-2607],[-651,816],[-735,923],[-561,520],[-1732,2983],[-157,863]],[[57829,7667],[786,2692],[189,1916],[24,246],[84,853],[-1003,526],[304,1095],[712,3474],[668,2037],[37,2559],[281,693],[250,619],[175,1474],[-47,118],[-402,436],[12,88],[289,2012],[521,365],[297,734],[-47,195],[-176,729],[143,365],[408,1045]],[[61334,31938],[1444,-498],[2967,1],[2606,1381],[275,706],[196,197],[315,196],[-5,25],[-15,48],[-28,66],[-18,32],[-20,32],[-60,78],[-153,271],[-507,643],[-987,720],[-668,488],[-63,61],[-111,130],[-383,517],[-1118,1438],[-1720,1325],[-729,-97],[-39,-710],[619,-704],[310,-627],[190,-326],[144,-196],[216,-231],[182,-510],[416,-654],[839,-1041],[214,-64],[229,85],[139,-213],[-61,-194],[-477,24],[-494,-403],[-44,-58],[-42,-16],[-311,-128],[-1019,207],[-1138,1733],[-212,90],[-316,64],[-512,-184],[-1211,920]],[[60174,36562],[-538,1906],[-8,10],[-1367,1594],[-265,525],[52,326],[226,355],[-4,296],[-568,597],[-216,734],[-126,446],[-338,348],[-1240,660],[-848,601]],[[54934,44960],[-1712,2364],[-2675,2375],[-1691,2711],[-17,78],[-1152,2901],[-496,1721],[-59,1443],[-76,347],[-31,127],[-627,1232],[356,755],[178,376]],[[58418,66201],[76,-98],[301,-658],[219,-681],[160,-840],[18,-96],[1895,-3398],[903,-1620],[627,-346],[4093,-2267],[547,107],[509,-728],[472,-196],[1346,-980],[368,-404],[1,-3],[626,-1370],[2073,-2818],[1476,-1683],[3172,-3622],[3195,-3096]],[[80495,41404],[6838,1235],[2115,-1073]],[[84652,8959],[-383,-856],[-7,-7],[-670,-1834],[-1228,-3085],[-1736,-1080],[-281,528],[-751,1126],[-1428,825],[-15,31],[-859,445],[-17,1],[-803,60],[-23,-2],[-783,179],[111,912],[-1087,1313],[-1037,1438],[-979,878]],[[49000,42750],[1081,-1721],[341,-311],[335,-170],[975,-279],[1475,333],[218,-320],[712,-1374],[526,-489],[84,-70],[725,-741],[1722,-2178],[2315,-1741]],[[59509,33689],[1825,-1750],[0,-1]],[[57829,7667],[-637,-593],[-1,-3],[-333,-518],[-585,-1155],[-2552,-2235],[-1345,-1081],[-1611,817]],[[50765,2899],[478,2512],[222,1588],[-834,1763],[-799,397],[82,1143],[-1387,1869],[-1610,81],[-1120,94],[-642,1043],[397,126],[149,574],[-830,85],[-685,-794],[-365,-262],[-1243,-393],[-1142,-539],[-1798,170],[-1023,24],[335,1584],[362,876],[1597,147],[-67,636],[-475,460],[-2115,713],[-486,592],[413,849],[-1821,1006]],[[36358,19243],[706,1403],[1318,2557],[82,166],[291,590],[47,202],[293,1269],[-100,3106],[-330,640],[-1218,2366],[-144,1105],[-94,725],[-87,468],[-189,1017],[-62,205],[-51,671],[-199,665],[-71,239],[-116,958],[-1972,4134],[-819,1846],[-647,4384]],[[32996,47959],[1526,97],[985,-383],[283,-611],[2175,-2629],[1829,-2753],[1175,-78],[1035,1210],[828,766],[1138,-286],[569,-28],[836,231],[1028,591],[944,-597],[208,-170],[274,-161],[1171,-408]],[[39609,35760],[263,-229],[-1,-162],[-319,193],[-172,-223],[421,-394],[398,-304],[290,-684],[1831,-535],[578,221],[-2260,1061],[-136,646],[-318,187],[47,265],[-343,289],[-138,-122],[0,-83],[-141,-126]],[[50765,2899],[-192,-2156],[-596,-689],[-884,-54],[-1978,1337],[-691,445],[-343,590],[-624,817],[-471,392],[-520,111],[-936,-409],[-1150,-501],[-1382,-550],[-797,-317],[-993,-63],[-191,60],[-1257,4247],[-1551,1373],[-1188,5550],[1337,6161]],[[59509,33689],[553,2389],[112,484]],[[49000,42750],[443,341],[1587,-28],[1438,-1041],[1262,1015],[1204,1923]],[[32996,47959],[-234,632],[-1710,2518],[-721,305],[-212,90],[-264,192],[-707,724],[-132,856]]],"bbox":[25.997261506488872,62.43758552412354,27.541495144875906,63.0914755227426],"transform":{"scale":[0.000015442490808778428,0.000006538965375844331],"translate":[25.997261506488872,62.43758552412354]},"propertiesColumnar":{"format":"columnar/1","keys":["id","postinumeroalue","nimi","namn","euref_x","euref_y","pinta_ala","vuosi","kunta","he_vakiy","he_naiset","he_miehet","he_kika","he_0_2","he_3_6","he_7_12","he_13_15","he_16_17","he_18_19","he_20_24","he_25_29","he_30_34","he_35_39","he_40_44","he_45_49","he_50_54","he_55_59","he_60_64","he_65_69","he_70_74","he_75_79","he_80_84","he_85_","ko_ika18y","ko_perus","ko_koul","ko_yliop","ko_ammat","ko_al_kork","ko_yl_kork","hr_tuy","hr_ktu","hr_mtu","hr_pi_tul","hr_ke_tul","hr_hy_tul","hr_ovy","te_taly","te_takk","te_as_valj","te_yks","te_nuor","te_eil_np","te_laps","te_plap","te_aklap","te_klap","te_teini","te_yhlap","te_aik","te_elak","te_omis_as","te_vuok_as","te_muu_as","tr_kuty","tr_ktu","tr_mtu","tr_pi_tul","tr_ke_tul","tr_hy_tul","tr_ovy","ra_ke","ra_raky","ra_muut","ra_asrak","ra_asunn","ra_as_kpa","ra_pt_as","ra_kt_as","ra_muu_as","tp_tyopy","tp_alku_a","tp_jalo_bf","tp_palv_gu","tp_a_maat","tp_b_kaiv","tp_c_teol","tp_d_ener","tp_e_vesi","tp_f_rake","tp_g_kaup","tp_h_kulj","tp_i_majo","tp_j_info","tp_k_raho","tp_l_kiin","tp_m_erik","tp_n_hall","tp_o_julk","tp_p_koul","tp_q_terv","tp_r_taid","tp_s_muup","tp_t_koti","tp_u_kans","tp_x_tunt","pt_vakiy","pt_tyoll","pt_tyott","pt_0_14","pt_opisk","pt_elakel","pt_muut","city","pno","unemployment_rate","higher_education_rate","pensioner_share","ownership_rate","rental_rate","population_density","child_ratio","student_share","detached_house_share","youth_ratio_pct","gender_ratio","single_parent_hh_pct","families_with_children_pct","tech_sector_pct","healthcare_workers_pct","employment_rate","elderly_ratio_pct","avg_household_size","manufacturing_jobs_pct","public_sector_jobs_pct","service_sector_jobs_pct","new_construction_pct","foreign_language_pct","crime_index","property_price_sqm","transit_stop_density","air_quality_index","daycare_density","school_density","healthcare_density","restaurant_density","grocery_density","cycling_density","single_person_hh_pct","rental_price_sqm","price_to_rent_ratio","walkability_index","traffic_accident_rate","property_price_change_pct","school_quality_score","light_pollution","noise_pollution","voter_turnout_pct","party_diversity_index","broadband_coverage_pct","ev_charging_density","tree_canopy_pct","transit_reachability_score","sports_facility_density","water_proximity_m","avg_construction_year","income_history","population_history","unemployment_history","income_change_pct","population_change_pct","unemployment_change_pct","schools","crime_index_history","crime_index_change_pct","health_index","radon","municipality","lon","lat","flood_risk_pct","population_projection_pct","construction_activity","active_plan_count","political_lean_index","party_vote_kok_pct","party_vote_sdp_pct","party_vote_ps_pct","party_vote_kesk_pct","party_vote_vihr_pct","party_vote_vas_pct","party_vote_rkp_pct","foreign_language_municipal_pct","foreign_language_history","foreign_language_est_pct","low_income_pct","job_self_sufficiency","violent_crime_rate","property_crime_rate","grocery_count","healthcare_count","school_count","daycare_count","restaurant_count","property_price_history"],"cols":[[2104,2129,2130,2131,2132,2133,2134,2135,2136,2260,2261,2262,2263,2264,2265,2266,2267,2268],["71640","72210","72220","72300","72310","72330","72350","72360","72380","77600","77630","77690","77700","77770","77800","77910","77930","77960"],["Talluskylä","Tervo Keskus-Eliaksela","Eliaksela","Vesanto Keskus","Niinivesi","Tiitilänkylä","Pienola","Närhilä","Horontaipale","Suonenjoki Keskus","Lempyy","Suontee","Rautalampi Keskus","Myhinpää","Iisvesi","Vaajasalmi","Kerkonjoensuu","Pakarila"],["Talluskylä","Tervo Keskus-Eliaksela","Eliaksela","Vesanto centrum","Niinivesi","Tiitilänkylä","Pienola","Närhilä","Horontaipale","Suonenjoki centrum","Lempyy","Suontee","Rautalampi centrum","Myhinpää","Iisvesi","Vaajasalmi","Kerkonjoensuu","Pakarila"],[498436,487210,486606,469387,475100,478929,462702,465718,456202,506602,518462,511395,485978,482407,500975,491826,479490,481174],[6989792,6981856,6968258,6976290,6984337,6971068,6974646,6965348,6975848,6944621,6950121,6928882,6943295,6929989,6948877,6953128,6961435,6947837],[105277606,294358327,32163151,226680603,95906386,42473782,100988799,61282555,61075270,860930789,53151054,48049662,405757842,96258251,21868621,27740564,171677795,1359523],[2026,2026,2026,2026,2026,2026,2026,2026,2026,2026,2026,2026,2026,2026,2026,2026,2026,2026],["844","844","844","921","921","921","921","921","921","778","778","778","686","686","778","686","686","686"],[178,1059,54,1125,183,90,235,97,93,5909,224,96,2292,105,473,96,337,3],[78,535,26,567,78,41,113,39,44,2996,103,48,1163,42,205,45,167,null],[100,524,28,558,105,49,122,58,49,2913,121,48,1129,63,268,51,170,null],[58,55,50,55,57,59,56,62,58,51,44,54,51,63,50,56,55,null],[2,10,0,15,2,1,3,0,0,83,11,1,38,0,9,1,3,null],[5,25,2,20,2,1,5,3,0,146,10,7,47,0,22,0,5,null],[4,59,6,46,6,2,9,2,1,348,15,5,135,2,24,3,12,null],[1,27,0,33,1,2,7,2,4,185,8,3,71,3,12,2,10,null],[2,6,1,22,2,0,4,0,2,128,1,0,60,0,6,0,7,null],[0,7,0,18,4,0,2,0,1,81,3,0,66,1,4,1,4,null],[3,21,1,31,3,5,6,1,2,169,5,1,66,1,6,5,4,null],[3,29,1,41,12,0,4,1,1,212,10,3,68,4,14,4,9,null],[5,35,2,42,4,3,6,3,2,265,16,3,91,1,33,4,11,null],[8,50,2,45,3,2,7,3,2,289,13,4,101,1,28,2,12,null],[10,52,4,64,8,1,12,4,3,358,15,3,123,4,26,4,17,null],[6,52,3,41,12,2,13,2,2,343,20,5,129,6,36,6,21,null],[10,59,5,65,13,11,8,3,6,331,14,3,125,3,22,8,18,null],[9,70,6,80,14,5,17,5,18,382,15,8,169,6,30,10,25,null],[23,95,4,72,16,12,31,7,19,493,18,9,185,12,43,6,39,null],[27,119,6,101,17,13,25,17,8,507,11,8,167,17,52,11,38,null],[30,129,6,126,21,6,26,18,8,546,13,11,212,16,38,11,37,null],[15,97,2,121,27,13,21,11,7,471,10,12,203,14,34,8,39,null],[7,49,0,60,9,10,11,7,2,288,9,8,103,9,17,6,16,null],[8,68,3,82,7,1,18,8,5,284,7,2,133,5,17,4,10,null],[164,932,45,989,170,84,207,90,86,5019,179,80,1941,100,400,90,300,3],[57,244,10,343,52,20,65,36,21,1225,21,19,505,39,117,13,80,null],[107,688,35,646,118,64,142,54,65,3794,158,61,1436,61,283,77,220,null],[1,17,3,27,4,2,5,1,3,122,6,1,63,2,3,5,6,null],[77,462,26,441,84,35,100,38,39,2486,97,27,905,41,199,42,154,null],[23,156,6,136,21,17,25,11,13,889,46,26,351,12,62,22,48,null],[6,53,0,42,9,10,12,4,10,297,9,7,117,6,19,8,12,null],[164,932,45,989,170,84,207,90,86,5019,179,80,1941,100,400,90,300,3],[25868,25483,32137,24664,24736,25787,26900,23133,29174,26727,28886,25626,25138,23901,26026,26663,24631,null],[22366,21961,24715,21405,20873,23112,21181,18217,26446,23634,29375,24401,22466,20593,23565,25193,21017,null],[43,214,10,246,49,20,55,29,19,1061,32,25,485,32,84,19,92,null],[100,615,25,648,98,52,123,53,52,3317,111,46,1236,58,271,56,174,null],[21,103,10,95,23,12,29,8,15,641,36,9,220,10,45,15,34,null],[4242398,23750079,1446171,24392660,4205169,2166115,5568230,2081955,2509006,134141124,5170521,2050052,48792124,2390112,10410471,2399714,7389163,null],[100,596,27,630,104,47,127,54,53,3237,100,51,1237,60,255,52,187,2],[1.8,1.7,null,1.7,1.8,1.9,1.9,1.8,1.8,1.8,2.2,1.9,1.8,1.8,1.8,1.8,1.8,null],[54.4,52.9,null,50,63,62.8,59.8,56.9,62,46.5,49.1,62.5,48,62.4,45.1,60.8,56.3,null],[48,291,null,331,47,13,61,23,24,1569,27,24,602,25,131,19,84,null],[1,22,null,31,5,2,1,1,1,191,1,0,94,2,19,2,4,null],[0,6,null,10,2,0,1,0,0,62,4,0,20,0,5,2,2,null],[9,75,null,78,9,5,14,2,4,524,27,6,191,3,37,6,21,null],[2,9,null,13,2,1,3,0,0,77,10,1,33,0,7,1,3,null],[5,27,null,24,4,2,4,2,0,172,14,3,63,0,22,1,6,null],[3,48,null,34,4,2,6,2,1,247,11,3,85,2,17,3,9,null],[3,27,null,41,3,2,9,1,4,234,8,2,83,3,15,2,13,null],[0,29,null,15,2,3,4,0,1,132,3,2,39,0,7,1,5,null],[24,187,null,203,36,14,40,11,27,1195,40,19,453,18,104,20,62,null],[69,337,null,351,59,28,76,41,22,1533,33,26,600,39,117,26,104,null],[95,450,null,441,98,41,115,52,49,2253,97,46,873,55,177,47,158,null],[5,137,null,181,2,4,9,0,3,951,2,3,339,2,74,2,19,null],[0,9,null,8,4,2,3,2,1,33,1,2,25,3,4,3,10,null],[100,596,27,630,104,47,127,54,53,3237,100,51,1237,60,255,52,187,2],[42476,39264,null,37977,40517,46135,44025,38555,47425,41404,51896,40730,39152,39857,40109,46159,39756,null],[37265,32855,null,30957,34465,39663,35277,31174,37739,33243,52043,37453,31998,39715,33485,45374,35010,null],[25,211,null,233,30,10,43,21,12,1018,17,15,424,20,79,13,65,null],[61,318,null,345,63,31,65,30,31,1844,68,29,696,31,148,31,102,null],[14,67,null,52,11,6,19,3,10,375,15,7,117,9,28,8,20,null],[4247615,23401201,null,23925565,4213745,2168367,5591157,2081955,2513508,134024902,5189577,2077228,48431026,2391419,10227775,2400291,7434445,null],[175,545,64,193,125,51,129,137,92,1114,71,72,792,231,60,105,275,5],[163,697,51,648,160,78,196,83,93,2641,138,91,1291,109,324,78,311,4],[14,109,4,115,11,5,16,6,8,358,12,7,172,5,75,9,27,0],[149,588,47,533,149,73,180,77,85,2283,126,84,1119,104,249,69,284,4],[142,764,37,813,152,63,162,73,75,3880,112,67,1565,82,327,61,248,null],[89.6,87.6,121.4,82.7,102.3,112.8,107.8,98.8,100,81.5,106.8,117,82.7,103.9,78.3,105.5,95.5,null],[139,678,36,716,148,62,161,73,74,2445,111,66,1353,81,276,57,229,null],[0,64,0,71,0,0,0,0,0,1368,0,0,157,0,45,4,9,null],[3,22,1,26,4,1,1,0,1,67,1,1,55,1,6,0,10,null],[14,279,8,351,37,4,39,5,14,1957,17,10,720,5,213,6,35,1],[5,38,null,28,14,null,15,null,11,134,2,6,99,null,27,null,19,null],[6,9,null,10,3,null,13,null,2,491,8,0,120,null,132,null,5,null],[3,232,null,313,20,null,11,null,1,1332,7,4,501,null,54,null,11,null],[5,38,null,28,14,null,15,null,11,134,2,6,99,null,27,null,19,null],[2,2,null,0,1,null,0,null,0,0,0,0,0,null,0,null,0,null],[0,0,null,1,0,null,0,null,0,328,1,0,86,null,128,null,1,null],[1,0,null,0,0,null,0,null,0,3,0,0,0,null,0,null,0,null],[0,0,null,0,0,null,0,null,2,17,0,0,7,null,0,null,0,null],[3,7,null,9,2,null,13,null,0,143,7,0,27,null,4,null,4,null],[1,15,null,61,1,null,1,null,0,227,0,0,68,null,0,null,1,null],[1,17,null,10,2,null,7,null,0,71,0,0,33,null,2,null,0,null],[0,15,null,11,0,null,0,null,0,65,0,0,26,null,1,null,0,null],[0,3,null,0,0,null,0,null,0,12,0,0,1,null,0,null,0,null],[0,9,null,9,0,null,0,null,0,5,0,0,6,null,0,null,0,null],[0,3,null,1,0,null,0,null,0,26,0,0,3,null,0,null,0,null],[0,3,null,9,0,null,0,null,0,73,0,3,8,null,0,null,0,null],[0,9,null,28,1,null,1,null,0,91,1,1,26,null,1,null,0,null],[0,23,null,21,0,null,0,null,0,70,0,0,24,null,0,null,0,null],[0,18,null,31,0,null,0,null,0,148,6,0,47,null,9,null,3,null],[1,110,null,120,15,null,0,null,0,481,0,0,223,null,41,null,3,null],[0,3,null,2,1,null,0,null,0,26,0,0,10,null,0,null,2,null],[0,4,null,10,0,null,2,null,1,37,0,0,26,null,0,null,2,null],[0,0,null,0,0,null,0,null,0,0,0,0,0,null,0,null,0,null],[0,0,null,0,0,null,0,null,0,0,0,0,0,null,0,null,0,null],[0,0,null,0,0,null,0,null,0,0,0,0,0,null,0,null,0,null],[178,1059,54,1125,183,90,235,97,93,5909,224,96,2292,105,473,96,337,3],[53,356,22,338,66,32,73,22,45,2197,103,29,823,23,176,37,112,null],[10,53,2,64,6,1,12,5,7,237,14,6,95,9,29,5,15,null],[12,114,8,97,11,5,23,6,3,695,41,16,262,3,63,4,25,null],[3,26,3,60,7,3,9,1,6,305,6,0,144,3,15,5,14,null],[96,494,19,531,88,45,112,62,32,2326,56,43,901,65,178,42,161,null],[4,16,0,35,5,4,6,1,0,149,4,2,67,2,12,3,10,null],["sisa_savo","sisa_savo","sisa_savo","sisa_savo","sisa_savo","sisa_savo","sisa_savo","sisa_savo","sisa_savo","sisa_savo","sisa_savo","sisa_savo","sisa_savo","sisa_savo","sisa_savo","sisa_savo","sisa_savo","sisa_savo"],["71640","72210","72220","72300","72310","72330","72350","72360","72380","77600","77630","77690","77700","77770","77800","77910","77930","77960"],[5.6,5,3.7,5.7,3.3,1.1,5.1,5.2,7.5,4,6.2,6.2,4.1,8.6,6.1,5.2,4.5,null],[17.7,22.4,13.3,18,17.6,32.1,17.9,16.7,26.7,23.6,30.7,41.2,24.1,18,20.2,33.3,20,null],[53.9,46.6,35.2,47.2,48.1,50,47.7,63.9,34.4,39.4,25,44.8,39.3,61.9,37.6,43.8,47.8,null],[95,75.5,null,70,94.2,87.2,90.6,96.3,92.5,69.6,97,90.2,70.6,91.7,69.4,90.4,84.5,null],[5,23,null,28.7,1.9,8.5,7.1,0,5.7,29.4,2,5.9,27.4,3.3,29,3.8,10.2,null],[2,4,2,5,2,2,2,2,2,7,4,2,6,1,22,3,2,2],[3.9,3.3,3.7,3.1,2.2,2.2,3.4,3.1,0,3.9,9.4,8.3,3.7,0,6.6,1,2.4,null],[1.7,2.5,5.6,5.3,3.8,3.3,3.8,1,6.5,5.2,2.7,0,6.3,2.9,3.2,5.2,4.2,null],[97.9,88.7,97.3,88.1,97.4,98.4,99.4,100,98.7,63,99.1,98.5,86.5,98.8,84.4,93.4,92.3,null],[3.4,5.4,3.7,8,10.4,5.6,5.1,2.1,4.3,7.8,8,4.2,8.7,5.7,5.1,10.4,5,null],[0.78,1.02,0.93,1.02,0.74,0.84,0.93,0.67,0.9,1.03,0.85,1,1.03,0.67,0.76,0.88,0.98,null],[0,1,null,1.6,1.9,0,0.8,0,0,1.9,4,0,1.6,0,2,3.8,1.1,null],[9,12.6,null,12.4,8.7,10.6,11,3.7,7.5,16.2,27,11.8,15.4,5,14.5,11.5,11.2,null],[0,1.1,null,0,0,null,0,null,0,0.6,0,0,0.1,null,0,null,0,null],[7.1,39.4,null,34.2,40.5,null,0,null,0,24.6,0,0,31,null,19.2,null,8.6,null],[29.8,33.6,40.7,30,36.1,35.6,31.1,22.7,48.4,37.2,46,30.2,35.9,21.9,37.2,38.5,33.2,null],[48.9,43.6,31.5,43.6,44.3,47.8,43,62.9,32.3,35.5,22.3,42.7,35.7,58.1,33.4,41.7,41.5,null],[1.78,1.78,2,1.79,1.76,1.91,1.85,1.8,1.75,1.83,2.24,1.88,1.85,1.75,1.85,1.85,1.8,1.5],[42.9,3.2,null,2.8,8.1,null,33.3,null,14.3,25.1,47.1,0,16.7,null,62,null,14.3,null],[0,8.2,null,6,0,null,0,null,0,3.6,0,0,3.3,null,0,null,0,null],[21.4,83.2,null,89.2,54.1,null,28.2,null,7.1,68.1,41.2,40,69.6,null,25.4,null,31.4,null],[114.8,91.2,137.8,79.7,105.3,123.8,121,113.7,124,68.1,123.2,135.8,82.5,132.9,99.1,127.9,125.4,null],[1.6,1.8,0,1.3,1.5,1.1,2.4,0,4.6,2.3,1,0.9,3,0.9,1,0,0,0],[54,54,54,37.5,37.5,37.5,37.5,37.5,37.5,91.3,91.3,91.3,80.6,80.6,91.3,80.6,80.6,80.6],[null,760,null,548,null,null,null,null,null,834,null,null,653,null,null,null,null,null],[0,0.3,0,0.2,0.3,0.3,0.2,0.3,0,0.3,0.3,0,0.3,0,0.9,0.6,0.2,0.7],[22.2,22,22.2,24.1,23,23.5,25.2,24.8,25.3,21.8,22.6,21.7,22.8,23.7,21.7,22,23.2,23.5],[0,0,0,0.0044,0,0,0,0,0,0.0012,0,0,0.0049,0,0,0,0.0058,0],[0,0.0034,0,0.0176,0,0,0,0,0,0.0023,0.0188,0,0.0049,0,0.0457,0,0.0058,0],[0,0.0068,0,0.0132,0,0,0,0,0,0.0058,0,0,0.0074,0,0,0,0,0],[0,0.0102,0,0.0132,0,0,0,0,0,0.0128,0,0,0.0197,0,0.0457,0,0.0058,0],[0,0.0068,0,0.0044,0,0,0,0,0,0.0023,0,0,0.0049,0,0,0,0.0058,0],[0,0.0849,0,0.1147,0,0,0,0,0,0.2021,0.0188,0,0.0986,0,0.503,0,0,0],[48,48.8,null,52.5,45.2,27.7,48,42.6,45.3,48.5,27,47.1,48.7,41.7,51.4,36.5,44.9,null],[null,null,null,null,null,null,null,null,null,null,null,null,null,null,null,null,null,null],[null,null,null,null,null,null,null,null,null,null,null,null,null,null,null,null,null,null],[24,60,24,61,31,31,29,31,24,60,42,24,61,24,61,34,45,35],[null,2.8,null,1.2,1.8,null,4.3,3.4,null,2.3,4.5,null,1.9,null,0.7,null,4,null],[null,null,null,null,null,null,null,null,null,0.6,null,null,-14.5,null,null,null,null,null],[null,null,null,53.2,null,null,null,null,null,56.3,null,null,52.1,null,null,null,null,null],[0.01,0.05,0,0.07,0,0,0,0,0,0.22,0.22,0,0.08,0,0.64,0,0,0],[40,40,40,40,40,40,40,40,40,40,40,40,40,40,40,40,40,40],[66.8,66.8,66.8,64.8,64.8,64.8,64.8,64.8,64.8,59.5,59.5,59.5,64.9,64.9,59.5,64.9,64.9,64.9],[0.685,0.685,0.685,0.682,0.682,0.682,0.682,0.682,0.682,0.686,0.686,0.686,0.695,0.695,0.686,0.695,0.695,0.695],[21,21,21,14,14,14,14,14,14,67,67,67,53,53,67,53,53,53],[0,0,0,0,0,0,0,0,0,0,0,0,0,0,0,0,0,0],[31.8,24.2,34.4,56.2,15.8,32,55.4,26.4,26.6,44.9,53.4,33.2,45.4,72.8,31,15.2,46.9,50.6],[null,null,null,null,null,null,null,null,null,null,null,null,null,null,null,null,null,null],[0,0.1,0,0.1,0.1,0.1,0,0,0,0,0,0,0.1,0,0.2,0,0,0],[490,300,620,540,520,290,510,300,490,340,320,230,260,240,150,330,350,100],[1976,1975,1977,1971,1972,1973,1973,1973,1973,1975,1977,1978,1972,1974,1976,1974,1974,1969],[[[2021,18909],[2022,17998],[2023,19577],[2024,18679],[2025,21563],[2026,22366]],[[2021,18586],[2022,19029],[2023,19394],[2024,20072],[2025,20901],[2026,21961]],[[2021,17742],[2022,17151],[2023,17861],[2024,18282],[2025,19861],[2026,24715]],[[2021,18019],[2022,17984],[2023,18627],[2024,19113],[2025,20219],[2026,21405]],[[2021,16978],[2022,17993],[2023,18728],[2024,19108],[2025,21430],[2026,20873]],[[2021,15340],[2022,16836],[2023,16818],[2024,18458],[2025,19753],[2026,23112]],[[2021,18533],[2022,18946],[2023,18675],[2024,19467],[2025,20402],[2026,21181]],[[2021,15900],[2022,16728],[2023,16983],[2024,16829],[2025,17000],[2026,18217]],[[2021,18013],[2022,18298],[2023,19715],[2024,23605],[2025,22884],[2026,26446]],[[2021,19842],[2022,20029],[2023,20550],[2024,21310],[2025,22347],[2026,23634]],[[2021,23429],[2022,23235],[2023,24735],[2024,25216],[2025,27822],[2026,29375]],[[2021,21197],[2022,20256],[2023,21310],[2024,22624],[2025,21672],[2026,24401]],[[2021,18269],[2022,18962],[2023,19268],[2024,20087],[2025,21571],[2026,22466]],[[2021,17124],[2022,15958],[2023,18064],[2024,18416],[2025,18694],[2026,20593]],[[2021,18974],[2022,19314],[2023,19724],[2024,20839],[2025,22088],[2026,23565]],[[2021,19103],[2022,20412],[2023,21725],[2024,22623],[2025,24161],[2026,25193]],[[2021,17253],[2022,18020],[2023,18658],[2024,19552],[2025,20364],[2026,21017]],null],[[[2021,191],[2022,191],[2023,191],[2024,187],[2025,178],[2026,178]],[[2021,1089],[2022,1074],[2023,1054],[2024,1030],[2025,1017],[2026,1059]],[[2021,62],[2022,63],[2023,57],[2024,58],[2025,60],[2026,54]],[[2021,1234],[2022,1203],[2023,1184],[2024,1144],[2025,1155],[2026,1125]],[[2021,208],[2022,206],[2023,197],[2024,197],[2025,191],[2026,183]],[[2021,101],[2022,95],[2023,92],[2024,91],[2025,85],[2026,90]],[[2021,253],[2022,249],[2023,243],[2024,238],[2025,244],[2026,235]],[[2021,89],[2022,92],[2023,93],[2024,92],[2025,95],[2026,97]],[[2021,114],[2022,108],[2023,110],[2024,102],[2025,99],[2026,93]],[[2021,6335],[2022,6200],[2023,6156],[2024,6036],[2025,5972],[2026,5909]],[[2021,214],[2022,200],[2023,220],[2024,222],[2025,223],[2026,224]],[[2021,99],[2022,106],[2023,107],[2024,104],[2025,107],[2026,96]],[[2021,2433],[2022,2378],[2023,2372],[2024,2322],[2025,2300],[2026,2292]],[[2021,102],[2022,108],[2023,109],[2024,101],[2025,108],[2026,105]],[[2021,537],[2022,524],[2023,502],[2024,480],[2025,481],[2026,473]],[[2021,92],[2022,95],[2023,93],[2024,99],[2025,97],[2026,96]],[[2021,376],[2022,365],[2023,350],[2024,337],[2025,322],[2026,337]],[[2021,4],[2022,4],[2023,4],[2024,2],[2025,3],[2026,3]]],[[[2021,3.1],[2022,4.7],[2023,3.1],[2024,3.2],[2025,4.5],[2026,5.6]],[[2021,4.8],[2022,3.7],[2023,4.3],[2024,4.9],[2025,5.2],[2026,5]],[[2021,1.6],[2022,4.8],[2023,7],[2024,5.2],[2025,6.7],[2026,3.7]],[[2021,4.5],[2022,4.8],[2023,4.6],[2024,4.7],[2025,4.3],[2026,5.7]],[[2021,4.3],[2022,6.3],[2023,4.1],[2024,3],[2025,4.2],[2026,3.3]],[[2021,5.9],[2022,4.2],[2023,2.2],[2024,1.1],[2025,1.2],[2026,1.1]],[[2021,4.7],[2022,4.4],[2023,1.2],[2024,1.3],[2025,4.1],[2026,5.1]],[[2021,5.6],[2022,2.2],[2023,3.2],[2024,2.2],[2025,3.2],[2026,5.2]],[[2021,8.8],[2022,3.7],[2023,5.5],[2024,7.8],[2025,5.1],[2026,7.5]],[[2021,3.8],[2022,3.7],[2023,3.2],[2024,3.6],[2025,4.2],[2026,4]],[[2021,4.7],[2022,7],[2023,4.1],[2024,5],[2025,5.8],[2026,6.2]],[[2021,7.1],[2022,4.7],[2023,2.8],[2024,6.7],[2025,7.5],[2026,6.2]],[[2021,4.4],[2022,4.2],[2023,3.7],[2024,4.5],[2025,4.6],[2026,4.1]],[[2021,5.9],[2022,5.6],[2023,6.4],[2024,9.9],[2025,8.3],[2026,8.6]],[[2021,5.4],[2022,6.1],[2023,2.8],[2024,4.2],[2025,5.4],[2026,6.1]],[[2021,3.3],[2022,6.3],[2023,3.2],[2024,3],[2025,5.2],[2026,5.2]],[[2021,4],[2022,4.1],[2023,3.4],[2024,4.5],[2025,3.7],[2026,4.5]],null],[18.3,18.2,39.3,18.8,22.9,50.7,14.3,14.6,46.8,19.1,25.4,15.1,23,20.3,24.2,31.9,21.8,null],[-6.8,-2.8,-12.9,-8.8,-12,-10.9,-7.1,9,-18.4,-6.7,4.7,-3,-5.8,2.9,-11.9,4.3,-10.4,-25],[80.6,4.2,131.2,26.7,-23.3,-81.4,8.5,-7.1,-14.8,5.3,31.9,-12.7,-6.8,45.8,13,57.6,12.5,null],[null,null,null,[{"name":"Vesannon yhtenäiskoulun lukio","score":53.2}],null,null,null,null,null,[{"name":"Suonenjoen lukio","score":56.3}],null,null,[{"name":"Rautalammin lukio","score":52.1}],null,null,null,null,null],[[[2020,72.5],[2021,77],[2022,47.2],[2023,38.9],[2024,43.9],[2025,54]],[[2020,72.5],[2021,77],[2022,47.2],[2023,38.9],[2024,43.9],[2025,54]],[[2020,72.5],[2021,77],[2022,47.2],[2023,38.9],[2024,43.9],[2025,54]],[[2020,39.6],[2021,39.7],[2022,43.3],[2023,26.4],[2024,29.2],[2025,37.5]],[[2020,39.6],[2021,39.7],[2022,43.3],[2023,26.4],[2024,29.2],[2025,37.5]],[[2020,39.6],[2021,39.7],[2022,43.3],[2023,26.4],[2024,29.2],[2025,37.5]],[[2020,39.6],[2021,39.7],[2022,43.3],[2023,26.4],[2024,29.2],[2025,37.5]],[[2020,39.6],[2021,39.7],[2022,43.3],[2023,26.4],[2024,29.2],[2025,37.5]],[[2020,39.6],[2021,39.7],[2022,43.3],[2023,26.4],[2024,29.2],[2025,37.5]],[[2020,177.6],[2021,70.8],[2022,83.7],[2023,91.1],[2024,94.7],[2025,91.3]],[[2020,177.6],[2021,70.8],[2022,83.7],[2023,91.1],[2024,94.7],[2025,91.3]],[[2020,177.6],[2021,70.8],[2022,83.7],[2023,91.1],[2024,94.7],[2025,91.3]],[[2020,85.2],[2021,39.2],[2022,56.3],[2023,48.8],[2024,72.9],[2025,80.6]],[[2020,85.2],[2021,39.2],[2022,56.3],[2023,48.8],[2024,72.9],[2025,80.6]],[[2020,177.6],[2021,70.8],[2022,83.7],[2023,91.1],[2024,94.7],[2025,91.3]],[[2020,85.2],[2021,39.2],[2022,56.3],[2023,48.8],[2024,72.9],[2025,80.6]],[[2020,85.2],[2021,39.2],[2022,56.3],[2023,48.8],[2024,72.9],[2025,80.6]],[[2020,85.2],[2021,39.2],[2022,56.3],[2023,48.8],[2024,72.9],[2025,80.6]]],[-25.5,-25.5,-25.5,-5.3,-5.3,-5.3,-5.3,-5.3,-5.3,-48.6,-48.6,-48.6,-5.4,-5.4,-48.6,-5.4,-5.4,-5.4],[120.1,120.1,120.1,130.6,130.6,130.6,130.6,130.6,130.6,121.2,121.2,121.2,114.7,114.7,121.2,114.7,114.7,114.7],[46,55,null,66,null,null,null,82,null,52,null,null,57,null,94,null,52,null],["Tervo","Tervo","Tervo","Vesanto","Vesanto","Vesanto","Vesanto","Vesanto","Vesanto","Suonenjoki","Suonenjoki","Suonenjoki","Rautalampi","Rautalampi","Suonenjoki","Rautalampi","Rautalampi","Rautalampi"],[26.9772,26.75354,26.75195,26.37807,26.53248,26.57966,26.24891,26.34675,26.13273,27.10692,27.36309,27.21662,26.71618,26.66941,27.00219,26.85416,26.63356,26.62118],[63.03976,62.96555,62.83209,62.92135,62.96727,62.86578,62.89538,62.8186,62.91167,62.66101,62.66809,62.49216,62.61695,62.49722,62.66715,62.70092,62.77774,62.66679],[null,null,null,null,null,null,null,null,null,null,null,null,null,null,null,null,null,null],[-20.9,-20.9,-20.9,-15.6,-15.6,-15.6,-15.6,-15.6,-15.6,-14.6,-14.6,-14.6,-18,-18,-14.6,-18,-18,-18],[8.5,8.5,8.5,2.2,2.2,2.2,2.2,2.2,2.2,6,6,6,2.8,2.8,6,2.8,2.8,2.8],[null,null,null,1,1,null,1,1,null,null,null,null,null,null,1,null,null,null],[61.6,61.6,61.6,60.9,60.9,60.9,60.9,60.9,60.9,61.7,61.7,61.7,59.9,59.9,61.7,59.9,59.9,59.9],[10.5,10.5,10.5,11.2,11.2,11.2,11.2,11.2,11.2,13.6,13.6,13.6,13.8,13.8,13.6,13.8,13.8,13.8],[13.6,13.6,13.6,15.2,15.2,15.2,15.2,15.2,15.2,13.7,13.7,13.7,14.5,14.5,13.7,14.5,14.5,14.5],[22.8,22.8,22.8,20.6,20.6,20.6,20.6,20.6,20.6,23.7,23.7,23.7,19.6,19.6,23.7,19.6,19.6,19.6],[33,33,33,33.2,33.2,33.2,33.2,33.2,33.2,22.6,22.6,22.6,23.9,23.9,22.6,23.9,23.9,23.9],[2.4,2.4,2.4,1.6,1.6,1.6,1.6,1.6,1.6,2.9,2.9,2.9,6.7,6.7,2.9,6.7,6.7,6.7],[3,3,3,3.7,3.7,3.7,3.7,3.7,3.7,5.3,5.3,5.3,4.3,4.3,5.3,4.3,4.3,4.3],[null,null,null,null,null,null,null,null,null,0.1,0.1,0.1,0.1,0.1,0.1,0.1,0.1,0.1],[2.6,2.6,2.6,3.6,3.6,3.6,3.6,3.6,3.6,4.5,4.5,4.5,5.1,5.1,4.5,5.1,5.1,5.1],[[[2020,1.6],[2021,1.6],[2022,1.9],[2023,2.4],[2024,2.6],[2025,2.6]],[[2020,1.8],[2021,1.8],[2022,2.1],[2023,2.7],[2024,2.9],[2025,2.9]],[[2020,0],[2021,0],[2022,0],[2023,0],[2024,0],[2025,0]],[[2020,1.3],[2021,1.2],[2022,1.2],[2023,2.1],[2024,2.6],[2025,2.9]],[[2020,1.5],[2021,1.4],[2022,1.4],[2023,2.4],[2024,3],[2025,3.4]],[[2020,1.1],[2021,1],[2022,1],[2023,1.8],[2024,2.2],[2025,2.5]],[[2020,2.4],[2021,2.2],[2022,2.2],[2023,3.9],[2024,4.8],[2025,5.4]],[[2020,0],[2021,0],[2022,0],[2023,0],[2024,0],[2025,0]],[[2020,4.6],[2021,4.3],[2022,4.3],[2023,7.5],[2024,9.2],[2025,10.3]],[[2020,2.3],[2021,2.4],[2022,2.5],[2023,3.9],[2024,4.4],[2025,4.7]],[[2020,1],[2021,1],[2022,1.1],[2023,1.7],[2024,1.9],[2025,2]],[[2020,0.9],[2021,0.9],[2022,1],[2023,1.5],[2024,1.7],[2025,1.8]],[[2020,3],[2021,3],[2022,3.4],[2023,4.4],[2024,5.3],[2025,6.4]],[[2020,0.9],[2021,0.9],[2022,1],[2023,1.3],[2024,1.6],[2025,1.9]],[[2020,1],[2021,1],[2022,1.1],[2023,1.7],[2024,1.9],[2025,2]],[[2020,0],[2021,0],[2022,0],[2023,0],[2024,0],[2025,0]],[[2020,0],[2021,0],[2022,0],[2023,0],[2024,0],[2025,0]],[[2020,0],[2021,0],[2022,0],[2023,0],[2024,0],[2025,0]]],[2.6,2.9,0,2.9,3.4,2.5,5.4,0,10.3,4.7,2,1.8,6.4,1.9,2,0,0,0],[26.2,23,22.2,24.9,28.8,23.8,26.6,32.2,22.1,21.1,17.9,31.2,25,32,21,21.1,30.7,null],[26.4,78.4,36.4,103.8,56.1,12.5,53.4,22.7,31.1,89.1,16.5,34.5,87.5,21.7,121,16.2,31.2,null],[null,null,null,null,null,null,null,null,null,7.9,7.9,7.9,8.5,8.5,7.9,8.5,8.5,8.5],[null,null,null,null,null,null,null,null,null,29.8,29.8,29.8,29.4,29.4,29.8,29.4,29.4,29.4],[0,2,0,1,0,0,0,0,0,2,0,0,2,0,0,0,1,0],[0,2,0,3,0,0,0,0,0,5,0,0,3,0,0,0,0,0],[0,1,0,4,0,0,0,0,0,2,1,0,2,0,1,0,1,0],[0,0,0,1,0,0,0,0,0,1,0,0,2,0,0,0,1,0],[0,3,0,3,0,0,0,0,0,11,0,0,8,0,1,0,1,0],[null,null,null,null,null,null,null,null,null,[[2020,829],[2021,805],[2022,835],[2023,787],[2024,836],[2025,834]],null,null,[[2020,764],[2021,899],[2023,653]],null,null,null,null,null]]}}