{"type":"Topology","objects":{"neighborhoods":{"type":"GeometryCollection","geometries":[{"type":"MultiPolygon","arcs":[[[0,1,2,3,4,5]]],"properties":{"i":0}},{"type":"MultiPolygon","arcs":[[[6,7,8,9,10,11,12]]],"properties":{"i":1}},{"type":"MultiPolygon","arcs":[[[13,14,-13,15,16,17,18]]],"properties":{"i":2}},{"type":"MultiPolygon","arcs":[[[-19,19,20,21,22]]],"properties":{"i":3}},{"type":"MultiPolygon","arcs":[[[23,24,25,26,27,28,-8,29]]],"properties":{"i":4}},{"type":"MultiPolygon","arcs":[[[-30,-7,-15,30]]],"properties":{"i":5}},{"type":"MultiPolygon","arcs":[[[31,32,33,-26]]],"properties":{"i":6}},{"type":"MultiPolygon","arcs":[[[-28,34,35,36,-10,37]]],"properties":{"i":7}},{"type":"MultiPolygon","arcs":[[[-33,38]]],"properties":{"i":8}},{"type":"MultiPolygon","arcs":[[[39,40,-36]]],"properties":{"i":9}},{"type":"MultiPolygon","arcs":[[[-11,-37,-41,41,42]]],"properties":{"i":10}},{"type":"MultiPolygon","arcs":[[[-38,-9,-29]]],"properties":{"i":11}},{"type":"MultiPolygon","arcs":[[[-16,-12,-43,43,44]]],"properties":{"i":12}},{"type":"MultiPolygon","arcs":[[[45,-24,-31,-14,-23]]],"properties":{"i":13}},{"type":"MultiPolygon","arcs":[[[-45,46,47,48,49,-17]]],"properties":{"i":14}},{"type":"MultiPolygon","arcs":[[[50,51]],[[52,53,-48,54,55,-6]]],"properties":{"i":15}},{"type":"MultiPolygon","arcs":[[[56,57,-1,-56]]],"properties":{"i":16}},{"type":"MultiPolygon","arcs":[[[58,-51,59,-2,-58]]],"properties":{"i":17}},{"type":"MultiPolygon","arcs":[[[60,61,-53,-5,62]]],"properties":{"i":18}},{"type":"MultiPolygon","arcs":[[[63,-49,-54,-62,64]]],"properties":{"i":19}},{"type":"MultiPolygon","arcs":[[[65,66,-20,-18,-50,-64]]],"properties":{"i":20}},{"type":"MultiPolygon","arcs":[[[-66,-65,-61,67,68,69,70]]],"properties":{"i":21}},{"type":"MultiPolygon","arcs":[[[-21,-67,-71,71]]],"properties":{"i":22}},{"type":"MultiPolygon","arcs":[[[-69,72,73]]],"properties":{"i":23}},{"type":"MultiPolygon","arcs":[[[-73,-68,-63,-4,74]]],"properties":{"i":24}}]}},"arcs":[[[25672,84893],[1059,679],[2050,2232],[-18,200],[15,891],[-102,1916],[48,115],[-7835,2559]],[[20889,93485],[-69,1461]],[[20820,94946],[6469,1594],[2297,298],[132,17],[26,176],[18,126],[-201,217],[228,89],[1029,102],[5714,423],[8531,2011],[1448,-1380],[3213,-3668],[160,-1103]],[[49884,93848],[-39,-68],[-1765,-3082],[-1102,-1971],[677,-1061]],[[47655,87666],[-4098,-7104]],[[43557,80562],[-3739,-856],[-4686,-1388],[-1823,554],[-4925,1416],[-640,212],[-534,411],[-514,750],[-415,1023],[-3,71],[19,654],[27,526],[-652,958]],[[48341,35745],[-390,-2821],[89,-411],[-3,-662]],[[48037,31851],[-4152,-1876],[-2706,-548],[-2688,-676],[-3491,-31],[-1882,-300],[-1034,-577],[-174,-101],[-380,-434],[-141,-198],[-554,-613],[-3032,-3118]],[[27803,23379],[-2167,1318],[-3600,-357],[-2245,189],[-3277,439]],[[16514,24968],[-138,230],[-1790,4161],[570,2549]],[[15156,31908],[571,295],[53,70],[191,240]],[[15971,32513],[1747,208],[1069,586],[2710,1522],[992,556],[500,140],[1368,533],[2035,-48],[161,-3],[590,255],[1588,-757],[551,-32],[159,-3],[4012,918],[1132,1716],[115,433]],[[34700,38537],[8960,-1654],[1617,-408],[1050,506],[820,-87],[1194,-1149]],[[69679,34576],[-3700,-3046],[-6127,587]],[[59852,32117],[690,1492],[-1511,1055],[-4713,1199],[-3473,1389],[-2504,-1507]],[[34700,38537],[-602,1142],[1232,684],[4185,2321],[2836,875],[789,243],[714,219],[882,331],[574,-28],[1068,-28],[481,330],[-237,124],[-896,357],[-511,230],[-1670,499],[-2372,754],[-3023,2260]],[[38150,48850],[1749,572],[5410,2669]],[[45309,52091],[3916,-2455],[3850,29],[10014,-976]],[[63089,48689],[358,-789],[1341,-4228],[-96,-2219],[231,-1494],[3277,-4129],[1479,-1254]],[[63089,48689],[228,331]],[[63317,49020],[2171,737],[8130,387],[5920,-1809],[3270,-1241],[10241,-4781],[1840,-1086]],[[94889,41227],[1762,-1940],[7,-8],[-1028,-781]],[[95630,38498],[-11399,-2419],[-6465,-2204],[-699,-58],[-2178,-114],[-4169,790],[-1041,83]],[[52120,29975],[252,-1051],[-5701,-2221],[-1883,-5543],[369,-881],[198,-622],[3190,-4607],[1487,-534],[5857,-2319]],[[55889,12197],[-829,-2929],[-708,-2344],[-7438,-5345],[-289,51],[-9235,1803],[-4026,-508],[-2463,-686],[-271,63],[-2658,1036],[-1979,811],[-1564,688],[-188,94],[-124,74],[-667,283],[-1560,661]],[[21890,5949],[-570,3179],[-6982,1117],[-4068,1259],[-4261,1351],[-1052,-249],[-571,-271],[-664,-229],[-73,-16],[-42,-6],[-214,183],[-181,102],[-675,284],[-160,24],[-286,-21],[-20,-2],[8,-10],[44,-76],[13,-32],[18,-42],[35,-92],[0,-5]],[[2189,12397],[-2,5],[-37,85],[-31,66],[-44,68],[-42,53],[-55,69],[-56,69],[-73,88],[-3,4],[-67,119],[-48,131],[-42,181],[-53,174],[-37,157],[-45,146],[-113,148],[-16,17],[-105,111],[-180,157],[-75,159],[-64,146],[-65,156],[-129,170],[-90,112],[-104,93],[-84,67],[-114,108],[-83,95],[-51,76],[-34,63],[-27,67],[-22,80],[0,80],[15,69],[5,23],[14,61],[28,90],[34,73],[41,90],[49,91],[60,89],[26,34],[48,65],[72,81],[33,36],[84,135],[79,131],[81,154],[54,130],[52,134],[26,97],[19,86],[28,135],[11,82],[11,98],[0,6],[13,94],[4,41],[4,37],[2,70],[1,107],[-11,106],[-3,82],[5,72],[20,106],[21,68],[29,105],[12,54],[3,16],[14,93],[1,85],[-5,97],[-1,64],[0,7],[2,51],[-3,60],[0,17],[4,36],[4,37],[2,11],[5,29],[9,54],[9,67],[3,19],[18,82],[8,72],[-3,77],[-1,72],[-7,55],[-19,78],[-43,81],[-44,78],[-1,3],[-10,32],[-8,25],[-14,97],[-1,86],[-2,53],[-2,69],[-5,95],[-1,27],[0,5],[-3,31],[-8,113],[-4,75],[3,62],[1,8],[6,46],[-1,53],[-3,14],[-9,44],[-19,108],[-53,156],[-25,130],[35,126],[84,129],[110,124],[69,77],[162,170],[11,12],[96,110],[92,122],[11,14],[57,70],[20,25]],[[1709,22298],[120,-22],[462,-97],[1712,-279],[512,-123],[1,0],[471,-86],[53,48],[957,784],[61,308],[834,320],[348,64],[1119,135],[15,0],[48,-10],[1949,-1082],[2348,-1693],[290,-396],[232,-149]],[[13241,20020],[201,-373],[3985,725],[3094,1356],[710,737],[6572,914]],[[48037,31851],[588,-153],[736,-294],[178,-75],[2376,-1217],[205,-137]],[[59852,32117],[-1000,-646],[-3255,-1084],[-3213,-288],[-264,-124]],[[21890,5949],[-2967,-460],[-555,-155]],[[18368,5334],[-2972,240],[-321,75],[-274,74],[-4137,-266],[-166,18],[-386,231],[-680,-387],[-2866,-605],[4,-10],[37,-105],[10,-46],[3,-43],[-3,-25],[-6,-26],[-10,-23],[-13,-21],[-19,-23],[-16,-18],[-48,-33],[-142,-98],[-39,-26],[-48,-35],[-48,-40],[-36,-40],[-48,-43],[-32,-41],[-25,-35],[-4,-7]],[[6083,3976],[2,7],[58,76],[84,83],[48,39],[87,63],[142,97],[48,33],[35,41],[23,44],[9,51],[-4,44],[-10,45],[-36,105],[-56,107],[-46,70],[-39,70],[-66,115],[-167,218],[-81,120],[-56,90],[-62,77],[-52,47],[-53,41],[-107,53],[-94,43],[-149,43],[-134,33],[-144,22],[-2,0],[-9,1],[-52,8],[-72,11],[-54,8],[-4,0],[-16,4],[-97,20],[0,1],[-121,51],[-94,49],[-14,7],[-37,18],[-43,22],[-71,60],[-83,72],[-49,45],[-59,64],[-5,6],[-50,52],[-10,11],[-2,3],[-54,69],[-3,5],[-7,12],[-37,64],[-5,8],[-40,74],[-5,9],[-19,39],[-13,24],[-6,10],[-46,79],[-4,8],[-32,60],[-3,6],[-56,82],[-39,60],[-39,51],[-40,50],[-42,55],[-12,17],[-21,28],[-17,23],[-10,14],[0,1],[-30,42],[-5,7],[-27,68],[-4,13],[-7,25],[-2,6],[-4,14],[-17,94],[-6,50],[12,84],[15,77],[22,82],[22,84],[47,112],[59,87],[11,18],[31,46],[9,15],[58,82],[48,75],[64,123],[45,90],[60,111],[5,8],[48,74],[2,6],[4,16],[27,108],[-17,69],[-5,20],[-44,63],[-7,9],[-73,103],[-116,118],[-106,113],[-89,84],[-77,82],[-103,125],[-90,100],[-63,63],[-52,41],[-56,37],[-93,71],[-72,43],[-52,26],[-53,23],[-85,28],[-88,26],[-85,18],[-104,26],[-88,22],[-65,20],[-62,24],[-36,16],[-43,22],[-36,25],[-37,35],[-56,44],[-23,33],[-53,53],[-40,52],[-37,49],[-57,63],[-36,56],[-30,30],[-37,25],[-39,28],[-39,19],[-40,32],[-53,31],[-33,41],[-20,35],[-21,41],[-4,37],[3,43],[12,35],[19,31],[22,29],[37,36],[17,17],[39,51],[15,19],[28,50],[28,50],[18,45],[9,31],[18,101],[23,102],[19,113],[15,149],[15,56],[37,87],[13,30],[3,7],[37,86],[29,109],[10,84],[-7,54],[-11,30]],[[1709,22298],[47,57],[100,93],[19,28],[31,46],[27,40],[5,7],[24,42],[4,7],[50,92],[5,9],[12,27],[36,75],[3,6],[29,66],[50,88],[54,113],[52,89],[57,89],[57,90],[31,89],[8,19],[5,13],[10,26],[63,97],[85,119],[39,57],[68,75],[73,91],[92,122],[19,19],[47,50],[88,91],[6,6],[50,48],[3,3],[62,57],[19,64],[-13,54],[-6,30],[-7,33],[-4,19],[1,3],[13,30],[20,43],[4,7],[29,63],[28,81],[15,80],[35,91],[9,25],[44,149],[39,153],[19,115],[1,20],[4,113],[-38,127],[-34,76],[-21,47],[-74,132],[-132,173],[-87,99],[-76,52],[-116,52],[-147,37],[-8,2],[-1,1],[-180,55],[-8,2],[-43,15],[-91,32],[-9,4],[-121,56]],[[2184,26479],[-6,3],[-60,28],[-51,23],[-12,6],[-41,30],[-84,48],[-103,91],[-50,66],[-9,16],[6,3],[291,154],[17,11],[309,201],[11,8],[330,142],[54,26],[15,8],[915,224],[706,465],[127,297],[484,14],[230,-30],[104,15],[48,-5],[350,74],[699,-398],[946,-206],[319,117],[5696,2922],[1611,1053]],[[15036,31885],[120,23]],[[16514,24968],[-400,-324],[-803,-305],[-29,11],[-468,129],[-263,-6],[-110,-45],[-185,95],[-206,51],[-13,-3],[-112,-72],[-38,-200],[11,-39],[188,-162],[10,-2212],[-703,-1686],[-152,-180]],[[18368,5334],[-1204,-1137],[-792,-1293],[262,-1732],[654,-419],[713,-33],[189,13],[89,-165],[53,-98],[-33,-185],[-54,-65],[-5,-5],[-27,15],[-13,7],[-46,20],[-45,17],[-5,1],[-31,11],[-1,0],[-12,2],[-30,4],[-4,0],[-86,0],[-78,-6],[-51,-13],[-77,-25],[-96,-30],[-170,-45],[-104,-38],[-119,-49],[-58,-16],[-68,-10],[-48,-4],[-74,6],[-30,-2],[-28,-3],[-43,-9],[-6,-1],[-48,-10],[-50,-3],[-56,2],[-70,6],[-53,4],[-50,-3],[-48,-11],[-35,-12],[-46,-9],[-1,0],[-58,-9],[-66,-2],[-47,9],[-34,19],[-30,20],[-19,17],[-23,24],[-29,36],[-26,49],[-29,37],[-30,35],[-10,13],[-30,50],[-12,24],[-12,23],[-14,26],[-16,23],[-29,24],[-19,15],[-36,25],[-4,3],[-24,22],[-2,2],[-29,35],[-33,40],[-19,40],[-5,19],[-4,13],[-11,25],[-14,25],[-18,22],[-32,15],[-42,8],[-41,-1],[-38,-12],[-31,-20],[-11,-6],[-18,-11],[-26,-18],[-7,-3],[-18,-9],[-42,-13],[-9,-1],[-42,-7],[-55,-7],[-40,-3],[-16,-1],[-67,5],[-85,14],[-4,0],[-93,20],[-23,3],[-51,7],[-52,2],[-4,0],[-63,-5],[-75,-5],[-91,-6],[-1,0],[-17,1],[-102,6],[-1,0],[-1,0],[-66,-9],[-7,-1],[-85,-23],[-58,-20],[-59,-21],[-78,-15],[-23,-2],[-75,-9],[-86,-7],[-1,0],[-75,-2],[-61,1],[-85,10],[-57,16],[-42,22],[-3,1],[-35,25],[-39,24],[-52,26],[-2,1],[-57,26],[-6,3],[-42,23],[-52,18],[-90,29],[-78,28],[-71,27],[-62,31],[-2,1],[-39,31],[-4,3],[-5,5],[-37,44],[-4,4],[-29,44],[-26,31],[-71,70],[-22,23],[-5,6],[-15,17],[-17,20],[-65,61],[-32,31],[-43,27],[-58,27],[-165,67],[-208,59],[-129,48],[-77,29],[-20,7],[-7,3],[-157,69],[-164,79],[-254,145],[-264,160],[-328,175],[-272,141],[-159,87],[-195,88],[-151,44],[-224,62],[-156,41],[-68,17],[-215,62],[-274,87],[-1,1],[-189,53],[-298,87],[-223,63],[-7,2],[-229,52],[-3,1],[-11,2],[-87,18],[-148,26],[-179,31],[-133,19],[-139,5],[-15,1],[-73,1],[-2,0],[-141,-8],[-95,5],[-4,0],[-4,1],[-197,27],[-3,1],[-81,20],[-140,35],[-26,7],[-147,42],[-5,2],[-176,71],[-81,43],[-65,39],[-68,60],[-2,3],[-35,57],[-3,4],[-25,81],[-15,74],[-7,123],[2,9],[9,52],[1,7],[4,8],[29,66]],[[2184,26479],[-7,3],[-124,57],[-125,78],[-35,31],[-68,59],[-49,67],[-54,98],[-68,138],[-48,132],[-82,188],[-26,52],[-26,52],[-88,172],[-9,20],[-97,203],[-42,150],[-4,16],[-9,82],[-67,189],[-66,120],[-112,193],[-123,209],[-115,188],[-102,135],[-121,147],[-4,5],[-43,52],[-58,60],[-58,60],[-5,4],[-65,75],[-118,111],[-66,58],[-2,3],[-58,99],[-23,89],[-6,76],[0,3],[0,72],[-3,104],[1,102],[-2,87],[-6,73],[-1,17],[1,94],[7,46],[3,19],[18,192],[12,213],[3,78],[13,85],[22,68],[26,55],[32,45],[1,1],[42,44],[46,37],[42,27],[39,26],[10,11],[16,19],[6,10],[17,29],[13,49],[3,14],[22,98]],[[394,31668],[1461,0],[126,-83],[27,-37],[91,-80],[22,-27],[278,-426],[38,-9],[709,-289],[3336,-96],[863,64],[2025,527],[1657,521],[279,19],[1191,55],[2539,78]],[[394,31668],[9,42],[24,107],[2,8],[13,94],[3,21],[13,157],[-4,91],[-1,72],[-7,111],[13,145],[38,117],[7,56],[9,113],[3,106],[2,128],[-3,78],[1,31],[1,28],[1,28],[1,5],[14,67],[1,4],[35,72],[26,42],[36,45],[6,5],[42,35],[4,3],[59,38],[26,25],[16,28],[39,106],[5,10],[27,55],[17,22],[18,24],[43,39],[56,43],[65,44],[55,36],[59,35],[56,29],[81,37],[146,63],[88,39],[21,9],[421,160],[29,12],[36,14],[80,32],[22,9],[111,57],[34,23],[27,17],[10,11],[27,26],[78,74],[81,97],[29,32],[84,94],[29,30],[192,198],[64,72],[71,64],[52,45],[13,9],[105,70],[10,6],[121,73],[32,15],[95,44],[8,3],[15,6],[104,42],[23,10],[117,39],[104,30],[110,28],[78,15],[68,6],[83,4],[43,-2],[32,-2],[4,-1],[73,-13],[25,-7],[49,-12],[59,-20],[72,-33],[82,-43],[88,-48],[2,0],[59,-18],[70,-12],[3,-1],[1,0],[55,0],[59,7],[52,16],[105,44],[137,74],[307,186],[56,42],[42,49],[19,60],[10,82],[-23,83],[-49,109],[-4,8],[-46,109],[-7,15],[-32,68],[-43,78],[-43,67],[-5,10],[-36,80],[-5,11],[-56,125],[-30,122],[-15,62],[-11,43],[-7,31],[-1,9],[-11,109],[-2,18],[-7,118],[-3,105],[-7,83],[-1,59],[1,62],[6,41],[6,38],[20,35],[23,31],[32,32],[40,30],[52,31],[150,72],[195,95],[149,87],[38,28],[31,23],[17,13],[38,31],[32,36],[9,10],[18,29],[14,23],[10,41],[-6,49],[-17,56],[-7,29],[-8,39],[-3,68],[-20,70],[-4,20],[-3,19],[-3,18],[0,5],[3,34],[0,5],[13,29],[25,40],[27,34],[13,27],[17,50],[8,49],[4,43],[7,44],[1,7],[7,45],[12,38],[2,6],[15,42],[2,4],[2,6],[15,33],[2,4],[20,39],[26,44],[26,37],[23,29],[19,29],[28,32],[44,40],[50,21],[74,4],[85,-16],[59,-26],[55,-39],[47,-40],[28,-39],[38,-84],[27,-64],[17,-40],[8,-19],[28,-52],[39,-59],[16,-18],[21,-22],[19,-15],[12,-10],[20,-16],[26,-8],[33,-11],[11,-3],[55,-11],[1,0],[32,-3],[36,-5],[1,0],[66,0],[61,7],[30,6],[34,8],[64,20],[3,1],[56,14],[68,17],[12,2],[46,8],[14,2],[80,11],[88,18],[61,16],[73,23],[52,25],[46,25],[4,2],[63,41],[55,38],[6,4],[55,39],[52,39],[50,43],[10,12],[40,46],[9,11],[19,26],[10,14],[16,22],[49,64],[63,71],[36,41],[32,34],[5,4],[21,17],[5,4],[5,4],[24,14],[1,1],[14,8],[48,18],[123,32],[13,3],[37,8],[70,15],[44,11],[58,13],[91,20],[62,21],[45,24],[80,51],[15,13],[45,35],[74,46],[26,16],[58,36],[52,31],[56,25],[60,22],[54,19],[7,2],[77,21],[57,14],[3,1],[52,8],[89,11],[23,2],[98,10],[1,0],[31,3],[115,10],[101,15],[154,21],[76,13],[75,11],[52,10],[65,23],[49,17],[40,18],[39,29],[36,27],[29,27],[8,9],[11,12],[16,35],[16,33],[23,62],[25,99],[29,140],[12,55]],[[11210,40873],[1,0],[1,3],[15,68],[9,62],[7,39],[-11,41],[-10,23],[-33,35],[-46,47],[-50,45],[-66,40],[-6,4],[1725,431],[1792,-858],[104,-228],[-3,-13],[869,-4314],[464,-2637],[-16,-1115],[15,-33]],[[11210,40873],[16,71],[9,62],[7,39],[-11,41],[-13,27],[-30,31],[-46,47],[-50,46],[-59,35],[-7,4],[-65,43],[-50,35],[-56,51],[-36,37],[-30,37],[-14,35],[-12,44],[-11,38],[-8,43],[-6,29],[0,14],[1,17],[0,20],[-17,30],[-20,22],[-13,12],[-31,30],[-50,49],[-53,55],[-46,56],[-37,51],[-49,70],[-17,21],[-30,18],[-33,29],[-26,41],[-17,46],[-10,35],[6,49],[25,76],[20,64],[25,83],[39,62],[45,44],[60,35],[51,27],[4,1],[63,13],[11,3],[96,10],[98,3],[66,-2],[49,2],[9,2],[53,11],[7,1],[62,32],[88,64],[55,43],[69,64],[45,42],[62,47],[78,48],[66,33],[59,27],[29,15],[31,15],[21,10],[89,35],[153,61],[92,44],[100,56],[109,64],[94,70],[53,45],[40,41],[21,16],[50,35],[19,14],[98,56],[88,37],[97,38],[106,41],[166,66],[115,54],[75,38],[42,23],[20,12],[50,39],[8,8],[43,42],[54,47],[14,13],[53,54],[42,45],[55,66],[36,46],[42,37],[92,75],[42,29],[49,31],[62,33],[72,35],[65,31],[78,36],[76,31],[69,16],[9,1],[94,11],[25,3],[75,2],[109,-2],[4,0],[22,1],[85,2],[13,0],[135,7],[98,8],[97,14],[90,19],[47,12],[22,5],[36,9],[107,37],[11,4],[19,9],[27,13],[19,9],[88,52],[59,50],[7,11],[9,14],[23,37],[6,43],[0,37],[-4,45],[3,58],[13,37],[10,25],[29,48],[23,30],[26,29],[29,34],[23,39],[22,39],[13,35],[20,54],[12,74],[6,60],[6,86],[10,46],[0,6],[4,58],[2,18],[13,75],[19,55],[13,56],[16,35],[26,54],[29,43],[29,42],[39,39],[40,33],[75,58],[2,1],[29,22],[28,20],[68,59],[35,31],[42,37],[3,3],[100,67],[62,47],[29,25],[43,50],[16,43],[16,31],[39,46],[36,41],[33,43],[32,48],[19,47],[23,54],[6,41],[-3,33],[0,39],[-7,35],[6,29],[13,42],[20,24],[19,23],[30,33],[16,31],[23,29],[12,35],[10,39],[10,37],[3,33],[0,6],[0,27],[3,50],[12,43],[3,6],[18,42],[2,4],[39,38],[27,44],[5,42],[3,66],[-6,43],[-34,70],[-36,41],[-3,3],[-29,24],[-41,35],[-26,35],[-24,27],[-1,3],[-20,40],[-2,4],[-12,35],[0,4],[2,32],[4,6],[19,32],[9,33],[19,75],[17,59],[-1,38],[6,74],[-7,78],[0,37],[0,46],[3,53],[-11,66],[0,31],[-5,21],[-5,21],[-3,14],[-1,49],[7,33],[13,29],[13,33],[13,33],[13,37],[19,52],[9,43],[17,54],[9,54],[0,37],[0,21],[0,3],[-10,42],[-7,31],[-10,45],[-20,45],[-17,41],[-14,68],[-12,35],[-3,55],[-1,7],[-1,13],[7,48],[-4,47],[1,62],[15,99],[10,58],[17,53],[54,85],[64,73],[78,103],[54,66],[39,58],[8,12],[16,27],[23,38],[37,68],[18,33]],[[17385,50943],[24,44],[30,51],[11,26],[767,-297],[492,-89],[1054,29],[2758,-113],[1013,519],[121,57],[658,-301],[2272,-1132],[599,-86],[954,293],[2142,-51],[6232,-558],[50,-35],[1588,-450]],[[95630,38498],[-1806,-5129],[-2536,-3431],[-726,-1225],[-8117,-8445],[-11724,-3982],[-4,-3],[-20,-2],[-7573,-2685],[-3455,-2266],[-1350,1996],[-2430,-1129]],[[17385,50943],[23,44],[60,125],[59,125],[30,74],[19,66],[11,60],[3,18],[5,33],[3,37],[2,19],[2,20],[6,60],[5,43],[-1,66],[0,6],[-6,30],[-3,13],[-1,4],[-1,3],[-20,48],[-18,40],[-33,42],[-38,36],[-63,39],[-64,38],[-76,50],[-113,76],[-31,29],[-44,42],[-4,3],[-14,21],[-10,13],[-20,30],[-16,39],[-8,25],[-2,5],[-4,13],[-4,24],[-3,18],[-1,15],[-3,38],[-4,22],[0,4],[-3,9],[-19,56],[-21,68],[-5,14],[-34,92],[-11,34],[-6,20],[-2,4],[-11,24],[-19,35],[-18,29],[-51,84],[-39,63],[-22,38],[-22,36],[-4,6],[-36,50],[-16,14],[-38,20],[-37,28],[-29,29],[-22,23],[-5,9],[-8,15],[-5,8],[-14,41],[-8,35],[-1,11],[-6,43],[-2,11],[-8,29],[-17,56],[-9,31],[-5,13],[-5,31],[-4,24],[-4,71],[5,48],[24,65],[33,73],[19,45],[6,23],[8,27],[7,24],[9,47],[0,52],[-1,35],[-1,97],[1,24],[0,13],[-1,2],[-9,37],[-13,58],[-4,46],[3,45],[36,99],[37,79],[42,88],[10,22],[20,41],[2,10],[7,35],[-5,25],[-11,31],[-18,28],[-38,42],[-49,61],[-34,38],[-52,61],[-27,45],[-21,45],[-11,35],[-14,44],[-3,7],[-14,28],[-23,34],[-7,10],[-28,46],[-48,76],[-57,98],[-1,3],[-18,43],[-1,2],[-9,64],[-15,87],[-8,50],[-15,85],[-14,110],[-1,8],[-5,72],[-4,43],[-2,23],[-2,25],[3,32],[14,29],[7,9],[6,8],[6,8],[30,26],[42,34],[38,30],[50,44],[33,35],[26,40],[13,27],[10,20],[8,35],[5,36],[2,34],[-3,46],[-5,25],[-2,6],[-4,25],[-2,8],[2,23],[4,26],[15,29],[26,32],[0,1],[25,21],[12,10],[43,41],[8,8],[26,26],[26,31],[6,7],[36,37],[5,9],[23,35],[12,31],[4,10],[16,35],[2,31],[-2,35],[-2,10],[-11,60],[-2,9],[-9,66],[-15,75],[-1,7],[-4,66],[-1,7],[12,89],[11,76],[4,14],[20,70],[6,18],[36,97],[37,87],[41,82],[36,65],[5,5],[20,23],[5,5],[17,16],[8,5],[16,12],[24,14],[7,4],[8,4],[21,11],[17,8],[29,13],[9,4],[55,24],[4,1],[50,18],[84,18],[16,3],[33,5],[2,0],[72,9],[7,1],[2,1],[43,11],[22,5],[9,3],[41,15],[14,5],[27,10],[11,5],[38,20],[9,4],[51,30],[11,8],[30,24],[32,39],[15,26],[27,55],[8,29],[12,39],[9,39],[14,59],[1,10],[8,51],[1,7],[3,50],[-5,31],[-10,47],[-8,31],[-5,16],[-20,65],[-5,15],[-31,98],[-5,14],[-13,38],[-5,12],[-10,52],[-2,23],[-2,21],[-2,20],[-4,33],[1,13],[4,29],[6,30],[5,33],[10,40],[11,29],[2,3],[1,2],[12,27],[22,36],[14,20],[14,17],[25,26],[11,24],[3,14],[6,25],[7,33],[3,13],[5,30],[1,17],[1,21],[1,8],[2,33],[2,33],[0,8],[1,54],[1,16],[6,64],[0,4],[4,42],[1,10],[1,8],[2,24],[-4,43],[-7,35],[-6,23],[-3,9],[0,2],[-16,46],[-14,57],[-13,67],[-2,11],[-3,20],[-3,16],[2,48],[1,11],[3,34],[10,44],[2,12],[23,62],[6,16],[10,30],[6,25],[6,30],[-1,35],[7,37],[12,16],[5,6],[9,11],[60,68],[10,6],[38,23],[6,9]],[[18000,61042],[10,7],[13,27],[12,20],[61,-7],[85,-10],[2621,-311],[344,-37],[1897,694],[629,393],[530,254],[1442,-904],[400,-246],[31,-19],[939,-572],[122,-65],[3311,1284],[5594,413]],[[36041,61963],[292,-180],[-42,-113],[-152,-1172],[7932,-4157]],[[44071,56341],[-36,-848],[-84,-276],[440,-691],[667,-2018],[251,-417]],[[15113,95129],[-664,-1414],[-1606,-441],[-117,-32],[11,41],[10,69],[-4,16],[-6,37],[-9,21],[-1,4],[-17,39],[-13,15],[-16,12],[-20,14]],[[12661,93510],[-1,1],[-9,5],[-11,7],[-28,14],[-20,8],[-2,1],[-22,7],[-4,1],[-1,0],[-30,6],[-33,4],[-17,-1],[-13,0],[-20,-2],[-40,-6],[-71,-21],[-47,-11],[-36,-4],[-17,-1],[-35,-3],[-40,1],[-5,0],[-43,6],[-5,0],[-32,13],[-32,19],[-21,24],[-13,20],[-17,42],[-13,43],[-13,27],[-20,23],[-33,18],[-49,22],[-66,26],[-107,44],[-77,34],[-62,25],[-26,11],[-47,20],[-1,1],[-32,14],[-28,13],[-30,19],[-30,25],[-28,32],[-24,35],[-20,33],[-6,33],[-4,31],[7,26],[10,29],[24,39],[33,44],[40,43],[37,39],[57,45],[27,33],[14,35],[1,4],[12,33],[-3,29],[-18,32],[-21,22],[-91,95],[-60,60],[-76,64],[-17,12],[-40,29],[-79,64],[-43,41],[-29,27],[-2,2],[-27,40],[-26,43],[-63,62],[-1,0],[-37,23],[-23,14],[-50,30],[-3,1],[-70,29],[-60,25],[-63,41],[-23,16],[-17,13],[-56,40],[-34,24],[-20,12],[-104,60],[-97,38],[-35,13],[-61,24],[-26,9],[-61,22],[-34,11],[-89,30],[-136,42],[20,15],[16,12],[313,227],[476,346],[493,357],[62,45],[3886,-1551]],[[43557,80562],[1093,-1069],[2328,-985],[146,-60],[3491,-3995],[0,-4],[-74,-170],[206,-2213],[-193,-513]],[[50554,71553],[-545,-112],[-1305,-790],[-173,-99],[-945,-597],[-5366,-2057],[-126,-36],[-6011,-1570],[-2278,-1618],[450,-1107],[1293,-1133],[493,-471]],[[18000,61042],[11,16],[15,28],[13,34],[6,28],[12,53],[28,53],[41,45],[32,39],[26,27],[40,45],[10,29],[6,18],[27,91],[30,105],[18,78],[12,50],[7,54],[-1,14],[-1,11],[-1,11],[4,8],[10,24],[4,10],[22,35],[26,29],[37,34],[29,34],[40,41],[40,39],[13,40],[-10,37],[-25,30],[-3,4],[-54,26],[-3,2],[-53,41],[-46,54],[-15,36],[-1,7],[-1,25],[-3,37],[0,33],[-6,37],[-13,47],[-7,48],[4,31],[6,27],[21,36],[36,23],[52,29],[45,23],[63,33],[30,21],[6,5],[35,47],[3,5],[40,66],[37,74],[23,60],[36,78],[20,60],[3,6],[34,74],[4,9],[17,35],[35,43],[7,8],[9,9],[32,33],[5,6],[10,7],[20,15],[13,11],[66,45],[77,62],[62,51],[37,56],[16,26],[12,21],[12,30],[3,9],[6,17],[6,16],[3,10],[2,36],[-2,9],[-5,29],[-3,13],[-10,25],[-23,56],[-42,66],[-53,58],[-40,47],[-73,75],[-15,20],[-20,25],[-4,5],[-44,50],[-53,63],[-3,4],[-38,51],[-44,67],[-43,63],[-35,52],[-32,47],[-12,18],[-27,42],[-4,6],[-43,79],[-36,57],[-46,60],[-45,54],[-12,15],[-12,14],[-6,8],[-14,17],[-9,13],[-17,22],[-50,53],[-27,34],[-20,26],[-40,62],[-5,6],[-30,52],[-7,12],[-12,16],[-23,36],[-43,70],[-26,48],[-17,41],[-6,14],[-11,25],[-6,14],[-26,48],[-16,29],[-4,8],[-8,16],[-5,9],[-19,35],[-8,15],[0,1],[-36,64],[-29,58],[-17,45],[-28,76],[-23,75],[-7,57],[3,64],[10,58],[1,11],[6,63],[-2,47],[-4,56],[-1,19],[-2,36],[-1,18],[4,50],[3,99],[-1,25],[-1,18],[-1,23],[-3,20],[-3,23],[-6,23],[-6,23],[-15,54],[-14,50],[-5,21],[-23,54],[-17,31],[-33,59],[-4,7],[-12,20],[-13,23],[-20,33],[-23,25],[-26,27],[-5,4],[-38,32],[-10,9],[-27,21],[-33,20],[-32,23],[-1,0],[-7,4],[-36,21],[-46,19],[-56,20],[-24,7],[-31,9],[-24,7],[-5,1],[-131,46],[-51,25],[-17,8],[-1,1],[-33,20],[-40,31],[-3,9],[-6,14],[-3,9],[-8,36],[-3,25],[0,23],[0,29],[4,37],[6,22],[7,23],[10,37],[27,68],[13,35],[2,4],[12,16],[4,6],[24,22],[28,24],[32,27],[31,29],[26,35],[23,33],[17,27],[10,33],[10,39],[3,31],[7,31],[0,35],[0,29],[-16,68],[-20,58],[-20,55],[-12,48],[-5,30],[0,7],[3,20],[1,9],[13,37],[17,33],[20,37],[24,53],[2,4],[20,34],[14,15],[14,16],[10,12],[45,29],[41,24],[12,6],[30,12],[12,5],[51,12],[5,1],[63,5],[2,0],[53,21],[33,19],[30,14],[13,21],[30,41],[20,41],[15,39],[4,10],[14,36],[47,49],[66,45],[46,21],[63,20],[76,29],[76,31],[93,29],[157,44],[98,21],[18,4],[80,12],[5,1],[117,3],[111,-8],[86,-10],[11,-2],[62,-11],[51,-5],[78,-7],[112,-10],[76,2],[69,5],[84,9],[50,6],[72,17],[60,20],[76,37],[46,35],[27,31],[23,33],[20,66],[13,72],[1,134],[-3,87],[-1,6],[-14,80],[-1,4],[-1,4],[-11,66],[-7,40],[-4,41],[4,37],[-5,68],[-8,62],[-13,54],[-20,49],[-26,89],[-40,114],[-47,110],[-52,120],[-41,86],[-42,82],[-14,68],[-2,84],[2,67],[2,66],[-4,49],[-17,31],[-44,51],[-41,39],[-34,29],[-24,32],[-27,52],[-21,53],[-21,62],[-11,45],[-11,70],[-13,111],[-8,83],[7,48],[25,31],[42,45],[52,44],[69,40],[56,33],[56,19],[92,28],[63,12],[109,12],[76,-2],[170,-9],[11,-1],[108,-12],[233,-40],[219,-65],[32,-10],[187,-85],[101,-69],[60,-49],[86,-119],[16,-27],[52,-88],[81,-90],[88,-58],[7,-3],[80,-37],[140,-61],[16,-7],[245,-109],[154,-73],[121,-94],[195,-165],[158,-125],[148,-90],[100,-42],[82,-20],[42,-11],[55,-8],[11,-1],[76,-4],[218,10],[349,0],[232,18],[175,35],[138,34],[76,27],[63,29],[213,119],[144,102],[69,58],[74,104],[37,139],[-8,115],[-35,105],[-79,131],[-61,97],[-62,86],[-4,7],[-41,67],[-47,74],[-3,6],[-58,90],[-58,85],[-41,53],[-20,54],[-2,35],[4,37],[13,70],[13,38],[3,10],[5,6],[16,23],[7,5],[19,14],[10,7],[72,46],[78,45],[10,6],[14,8],[78,39],[43,23],[142,66],[7,2],[153,56],[61,35],[48,48],[26,51],[6,35],[12,78],[20,152],[24,182],[11,101],[13,42],[12,26],[26,73],[2,72],[-18,43],[-34,68],[-48,99],[-11,22],[0,17],[-1,23],[1,7],[7,55],[24,51],[38,75],[62,85],[94,101],[59,63],[39,43],[13,21],[28,78],[16,62],[6,13],[14,28],[6,13],[35,54],[62,85],[16,45],[4,20],[11,47],[5,90],[9,81],[-5,66],[-18,47],[-16,41],[-22,44],[-10,20],[-33,47],[-41,51],[-58,62],[-71,72],[-24,43],[-31,49],[-133,230],[-140,218],[-164,234],[-113,183],[-92,139],[-18,23],[-40,51],[-61,70],[-6,6],[-74,71],[-22,17],[-59,48],[-90,61],[-89,59],[-104,69],[-6,5],[-76,65],[-9,8],[-51,59],[-21,39],[-7,27],[3,31],[12,54],[3,29],[-7,31],[-11,30],[-31,54],[-38,88],[-18,76],[-12,101],[4,145],[-2,115],[-19,109],[-17,73],[-28,72],[-38,65],[-31,54],[-65,73],[-1,3],[-75,90],[-2,2],[-50,69],[-35,48],[-82,111],[-68,92],[-58,78],[-75,92],[-71,88],[-51,60],[-61,57],[-41,35],[-16,14],[-31,43],[-65,97],[-96,148],[-78,90],[-65,88],[-31,41],[-18,70],[-14,66],[-9,101],[5,85],[-1,82],[-3,37],[-25,47],[-31,35],[-44,43],[-71,62],[-108,96],[-114,109],[-56,52],[-112,97],[-102,88],[-52,51],[-33,64],[-2,10],[-1,4],[-9,42],[7,31],[40,72],[48,70],[2,16],[5,38],[-12,53],[-62,124],[-66,71],[-104,130],[-69,132],[-107,185],[-88,173],[-44,57],[-23,21],[-48,43],[-80,57],[-79,50],[-2,1],[-70,39],[-11,3],[-81,20],[-140,21],[-213,16],[-72,5],[-120,8],[-115,15],[-48,6],[-163,26],[-5,2],[-82,25],[-65,35],[-66,46],[-92,85],[-99,100],[-49,99],[-32,109],[-21,143],[-13,72],[-28,111],[-56,95],[-85,102],[-105,97],[-43,42],[-118,149],[-178,205],[-121,132],[-138,114],[-1,0],[-41,28]],[[18625,84627],[-13,8],[-14,9],[-88,54],[12,7],[55,27],[3217,1594],[749,-349],[191,-81],[747,-293],[264,-103],[783,-207],[766,-305],[378,-95]],[[18625,84627],[-28,18],[-126,77],[-211,172],[-95,99],[-56,73],[-59,64],[-66,50],[-12,7],[-64,41],[-69,45],[-1,0],[-86,38],[-13,6],[-103,42],[-103,48],[-67,42],[-72,45],[-75,64],[-20,29],[-78,134],[-16,46],[-20,29],[-33,35],[-50,33],[-53,31],[-29,14],[-20,9],[-18,8],[-95,40],[-51,24],[-72,34],[0,1],[-66,39],[-17,14],[-47,37],[-16,13],[-74,51],[-1,1],[-95,62],[-1,0],[-36,27],[-66,48],[-86,81],[-63,74],[-69,73],[-23,39],[-13,66],[-25,99],[-10,72],[-6,46],[-8,93],[4,66],[11,94],[0,56],[4,47],[-6,73],[-6,88],[-18,147],[-9,107],[4,68],[11,54],[24,65],[40,60],[55,93],[13,20],[17,27],[27,43],[24,62],[1,35],[4,41],[14,54],[20,45],[17,41],[17,33],[41,50],[10,37],[7,35],[-13,35],[-43,41],[-46,23],[-63,27],[-8,4],[-19,11],[-4,3],[-9,6],[-53,34],[-36,40],[-1,5],[-8,41],[-1,5],[11,31],[7,58],[-1,49],[-15,44],[-33,45],[-32,42],[-60,82],[-42,87],[-26,70],[-19,64],[-13,71],[-15,74],[-12,77],[-9,74],[16,70],[8,11],[20,29],[5,8],[15,15],[10,10],[7,7],[13,20],[13,21],[24,42],[24,52],[24,69],[11,47],[4,76],[-6,50],[-7,41],[-13,37],[-16,29],[-15,22],[-18,40],[-6,25],[3,16],[14,23],[21,64],[4,43],[-5,44],[-1,7],[-15,39]],[[15939,90601],[-1,1],[-3,10],[-1,1],[3128,888],[188,178],[1622,1768],[5,7],[4,5],[8,26]],[[15939,90601],[-5,11],[-13,19],[-4,5],[-38,29],[-5,3],[-45,31],[-1,0],[-17,9],[-23,12],[-59,34],[-36,20],[-4,2],[-63,31],[-61,32],[-15,7],[-1,1],[-126,79],[-138,89],[-140,87],[-53,35],[-33,20],[-23,14],[-6,2],[-63,33],[-23,10],[-47,20],[-12,3],[-47,14],[-55,10],[-56,6],[-2,1],[-40,-1],[-7,-1],[-50,-6],[-83,-15],[-70,-10],[-106,-14],[-60,-4],[-64,-4],[-53,2],[-19,2],[-68,7],[-93,10],[-86,16],[-78,21],[-3,1],[-24,8],[-46,15],[-60,17],[-60,23],[-46,24],[-54,29],[-56,37],[-43,37],[-27,31],[-26,44],[-22,44],[-11,40],[0,56],[17,115],[7,79],[-3,109],[0,7],[-6,90],[-9,54],[-4,24],[-1,2],[-12,33],[-24,40],[-29,39],[-30,33],[-30,25],[-43,37],[-50,51],[-53,56],[-34,33],[-30,39],[-39,48],[-34,31],[-30,27],[-52,39],[-1,0],[-30,22],[-56,40],[-53,49],[-22,33],[-23,39],[-15,36],[-8,57],[2,60],[17,79],[44,179],[5,42],[2,43],[-4,18],[-3,19],[-6,15],[-4,9],[-15,35],[-15,19],[-16,12],[-19,14]],[[15113,95129],[5707,-183]],[[66803,71408],[-3836,-921],[-5461,-1348]],[[57506,69139],[-1632,507],[-2535,610],[-640,171],[-1270,636],[-42,23],[-680,373],[-153,94]],[[47655,87666],[9335,-1524],[6250,2672],[2463,-1490],[-3423,-6942],[-563,-527],[-672,-297],[290,-976],[5468,-7174]],[[58167,61195],[-2048,281],[-318,137],[-210,138],[-139,541],[-115,96],[-533,64],[-192,12],[-27,-1],[-2341,-428],[-475,-29],[-1042,354],[-887,-391],[-1460,-1176],[-269,-179],[-266,-328],[-206,-244],[-2201,-911],[-1367,-2790]],[[57506,69139],[-551,-1175],[249,-1778],[180,-214],[396,-673],[131,-521],[26,-118],[193,-271],[808,-690],[184,-216],[-330,-852],[9,-109],[-634,-1327]],[[58167,61195],[127,-476],[139,-194],[1668,-842],[901,-891],[229,-272],[1307,-238],[320,-138],[489,-310]],[[63347,57834],[223,-720],[-8,-267],[84,-686],[213,-727],[-1785,-1285],[49,-488],[283,-2816],[399,-575],[68,-121],[378,-953],[66,-176]],[[66803,71408],[39,-14],[8135,1508]],[[74977,72902],[2138,-1409],[4312,-3468],[496,-399],[2122,-907],[2520,-2397]],[[86565,64322],[125,-317]],[[86690,64005],[-4992,-1269],[-3676,-1733],[-601,39],[-362,123],[-1596,544],[-581,-79],[-2618,-358],[-560,-184],[-802,-497],[53,-394],[176,-546],[311,-313],[49,-261],[25,-127],[-21,-109],[-124,-630],[-90,-367],[-175,-407],[-86,-166],[-2418,277],[-1618,489],[-649,195],[-2988,-398]],[[86690,64005],[3476,-2226],[5380,-2589],[2927,-3237],[1526,-2782],[-1707,-5391],[-3403,-6553]],[[74977,72902],[396,419],[1271,1357],[378,212],[5359,1298],[1193,2538],[226,739],[0,359],[-35,367],[-2469,6320],[169,3263],[0,6]],[[81465,89780],[20,-9],[3313,-1424],[837,-410],[3304,-2562],[5787,-4365],[-154,-963],[649,-1721],[4744,-2497],[-1869,-867],[-46,-35],[-1866,-2037],[-1671,-2018],[615,-1166],[-1528,-1689],[-5544,-2469],[-1491,-1226]],[[49884,93848],[10824,2171],[3064,-1046],[14936,2773],[2178,-7319],[579,-647]]],"bbox":[23.642877676118456,66.16527539931161,25.01816759571901,67.03586411245885],"transform":{"scale":[0.000013753036726372806,0.000008705974191214335],"translate":[23.642877676118456,66.16527539931161]},"propertiesColumnar":{"format":"columnar/1","keys":["id","postinumeroalue","nimi","namn","euref_x","euref_y","pinta_ala","vuosi","kunta","he_vakiy","he_naiset","he_miehet","he_kika","he_0_2","he_3_6","he_7_12","he_13_15","he_16_17","he_18_19","he_20_24","he_25_29","he_30_34","he_35_39","he_40_44","he_45_49","he_50_54","he_55_59","he_60_64","he_65_69","he_70_74","he_75_79","he_80_84","he_85_","ko_ika18y","ko_perus","ko_koul","ko_yliop","ko_ammat","ko_al_kork","ko_yl_kork","hr_tuy","hr_ktu","hr_mtu","hr_pi_tul","hr_ke_tul","hr_hy_tul","hr_ovy","te_taly","te_takk","te_as_valj","te_yks","te_nuor","te_eil_np","te_laps","te_plap","te_aklap","te_klap","te_teini","te_yhlap","te_aik","te_elak","te_omis_as","te_vuok_as","te_muu_as","tr_kuty","tr_ktu","tr_mtu","tr_pi_tul","tr_ke_tul","tr_hy_tul","tr_ovy","ra_ke","ra_raky","ra_muut","ra_asrak","ra_asunn","ra_as_kpa","ra_pt_as","ra_kt_as","ra_muu_as","tp_tyopy","tp_alku_a","tp_jalo_bf","tp_palv_gu","tp_a_maat","tp_b_kaiv","tp_c_teol","tp_d_ener","tp_e_vesi","tp_f_rake","tp_g_kaup","tp_h_kulj","tp_i_majo","tp_j_info","tp_k_raho","tp_l_kiin","tp_m_erik","tp_n_hall","tp_o_julk","tp_p_koul","tp_q_terv","tp_r_taid","tp_s_muup","tp_t_koti","tp_u_kans","tp_x_tunt","pt_vakiy","pt_tyoll","pt_tyott","pt_0_14","pt_opisk","pt_elakel","pt_muut","city","pno","unemployment_rate","higher_education_rate","pensioner_share","ownership_rate","rental_rate","population_density","child_ratio","student_share","detached_house_share","youth_ratio_pct","gender_ratio","single_parent_hh_pct","families_with_children_pct","tech_sector_pct","healthcare_workers_pct","employment_rate","elderly_ratio_pct","avg_household_size","manufacturing_jobs_pct","public_sector_jobs_pct","service_sector_jobs_pct","new_construction_pct","foreign_language_pct","crime_index","property_price_sqm","transit_stop_density","air_quality_index","daycare_density","school_density","healthcare_density","restaurant_density","grocery_density","cycling_density","single_person_hh_pct","rental_price_sqm","price_to_rent_ratio","walkability_index","traffic_accident_rate","property_price_change_pct","school_quality_score","light_pollution","noise_pollution","voter_turnout_pct","party_diversity_index","broadband_coverage_pct","ev_charging_density","tree_canopy_pct","transit_reachability_score","sports_facility_density","water_proximity_m","avg_construction_year","income_history","population_history","unemployment_history","income_change_pct","population_change_pct","unemployment_change_pct","schools","crime_index_history","crime_index_change_pct","health_index","radon","municipality","lon","lat","flood_risk_pct","population_projection_pct","construction_activity","active_plan_count","political_lean_index","party_vote_kok_pct","party_vote_sdp_pct","party_vote_ps_pct","party_vote_kesk_pct","party_vote_vihr_pct","party_vote_vas_pct","party_vote_rkp_pct","foreign_language_municipal_pct","foreign_language_history","foreign_language_est_pct","low_income_pct","job_self_sufficiency","violent_crime_rate","property_crime_rate"],"cols":[[2807,2799,2800,2801,2790,2802,2791,2793,2792,2794,2795,2798,2796,2803,2797,2804,2805,2806,2808,2809,2810,2811,2849,2854,2855],["95750","95660","95670","95675","95600","95680","95610","95620","95615","95630","95635","95655","95640","95690","95645","95700","95710","95720","95760","95770","95780","95790","97250","97330","97335"],["Orajärvi","Kantomaanpää","Pessalompolo","Meltosjärvi","Ylitornio Keskus","Lohijärvi","Kainuunkylä","Aavasaksa","Pekanpää","Kuivakangas","Kaulinranta","Etelä-Portimojärvi","Juoksenki","Mellakoski","Turtola","Pello Keskus","Naamijoki","Jarhoinen","Konttajärvi","Lankojärvi","Sirkkakoski","Lampsijärvi","Raanujärvi","Rattosjärvi","Ruuhivaara"],["Orajärvi","Kantomaanpää","Pessalompolo","Meltosjärvi","Övertorneå centrum","Lohijärvi","Kainuunkylä","Aavasaksa","Pekanpää","Kuivakangas","Kaulinranta","Etelä-Portimojärvi","Juoksenki","Mellakoski","Turtola","Pello centrum","Naamijoki","Jarhoinen","Konttajärvi","Lankojärvi","Sirkkakoski","Lampsijärvi","Raanujärvi","Rattosjärvi","Ruuhivaara"],[374779,369254,381915,399015,364232,383575,356965,355965,356773,353656,355388,360814,366727,390791,369982,375356,366785,363491,385944,380048,384322,395495,400745,405364,392429],[7426906,7371434,7381303,7380958,7357173,7373454,7350348,7367101,7344728,7370528,7376008,7363532,7382365,7364406,7395196,7412680,7428098,7431919,7416534,7402980,7395006,7403453,7390971,7413984,7417452],[228329035,174909365,225625484,208350945,543315233,35606631,59750196,51459069,23969018,21355017,63863293,22914918,208411872,433638299,166885996,269410351,46422434,14919977,164124528,118508700,118713197,165740628,286201965,168734373,314053817],[2026,2026,2026,2026,2026,2026,2026,2026,2026,2026,2026,2026,2026,2026,2026,2026,2026,2026,2026,2026,2026,2026,2026,2026,2026],["854","976","976","976","976","976","976","976","976","976","976","976","854","976","854","854","854","854","854","854","854","854","976","854","854"],[105,143,92,91,1858,53,203,341,86,122,229,114,174,156,240,2037,36,43,81,150,97,75,187,45,61],[47,58,39,40,954,26,96,164,45,60,106,47,80,70,111,1012,17,22,42,72,46,37,89,23,25],[58,85,53,51,904,27,107,177,41,62,123,67,94,86,129,1025,19,21,39,78,51,38,98,22,36],[49,63,59,65,53,58,52,56,54,53,52,50,61,56,52,55,58,48,59,58,59,57,54,57,59],[3,0,3,0,32,2,4,0,0,3,5,1,2,3,3,30,0,2,1,2,1,1,4,0,0],[5,3,1,0,44,0,7,4,2,3,6,2,2,5,10,43,0,2,0,2,1,1,4,0,0],[9,2,3,2,86,2,9,10,5,3,10,4,4,4,15,100,2,0,1,1,4,2,7,4,2],[3,3,2,2,65,0,8,13,2,4,7,7,1,3,7,43,0,2,1,4,0,0,4,1,2],[2,1,2,0,25,0,0,4,0,7,5,5,1,3,1,28,0,1,1,1,0,1,6,0,0],[2,0,0,0,31,0,3,8,2,1,3,1,0,3,3,31,0,1,2,3,0,2,2,0,0],[1,2,2,3,63,1,5,11,3,5,9,2,1,4,5,55,2,3,2,7,1,3,7,0,2],[4,1,1,1,66,1,6,14,0,2,6,5,4,1,7,57,1,1,3,4,2,2,2,0,3],[7,0,3,0,72,2,9,8,4,5,7,2,9,7,12,87,0,0,0,7,3,4,8,0,2],[2,3,4,1,66,2,13,10,3,2,14,6,6,3,10,79,2,0,3,2,6,2,8,1,1],[3,4,4,8,85,7,10,18,3,8,10,6,4,4,12,92,2,4,1,7,5,3,10,3,3],[3,6,3,4,93,4,5,18,4,1,13,9,3,10,7,76,0,4,4,4,2,1,5,3,1],[4,9,3,3,101,0,7,17,3,5,10,9,7,6,15,81,2,2,7,9,4,2,3,1,2],[10,13,7,9,114,2,24,16,12,7,14,6,14,8,20,121,1,3,11,12,7,9,18,7,4],[5,22,9,6,165,6,23,35,12,14,26,14,28,16,22,191,7,4,5,14,19,6,21,10,12],[15,22,8,4,194,2,18,49,10,19,20,9,31,25,29,214,6,5,10,24,14,13,20,3,9],[10,12,6,11,180,5,20,38,6,15,24,12,18,21,26,248,4,5,11,16,11,5,23,6,7],[8,19,11,12,146,9,17,27,8,4,20,8,12,17,19,215,6,3,8,10,7,7,14,2,2],[4,11,10,14,95,5,7,23,4,9,5,2,13,7,8,117,0,0,6,8,5,4,10,4,3],[5,10,10,11,135,3,8,18,3,5,15,4,14,6,9,129,1,1,4,13,5,7,11,0,6],[83,134,81,87,1606,49,175,310,77,102,196,95,164,138,204,1793,34,36,77,140,91,70,162,40,57],[22,40,24,28,429,8,43,107,16,14,51,33,40,41,45,482,4,12,21,38,18,22,43,7,25],[61,94,57,59,1177,41,132,203,61,88,145,62,124,97,159,1311,30,24,56,102,73,48,119,33,32],[1,4,0,0,35,0,5,8,2,4,6,2,3,2,6,42,3,2,1,2,2,2,4,1,2],[47,69,47,35,759,29,96,133,42,54,92,42,80,82,98,846,19,17,35,76,55,38,85,22,25],[9,15,5,18,297,9,24,49,16,24,38,15,33,12,45,326,7,3,19,23,15,7,25,6,4],[4,6,5,6,86,3,7,13,1,6,9,3,8,1,10,97,1,2,1,1,1,1,5,4,1],[83,134,81,87,1606,49,175,310,77,102,196,95,164,138,204,1793,34,36,77,140,91,70,162,40,57],[24759,26271,25386,24089,27632,27914,26425,25057,29612,27844,26301,26356,26617,24183,25954,26263,30206,25288,25136,23041,24200,23864,26721,24345,20959],[22456,20751,21514,20257,23714,23215,24190,22095,26998,26609,22132,24433,21377,20379,22966,23624,27105,18877,22098,21133,21775,21036,23069,21756,18048],[25,33,21,30,307,12,43,82,16,16,49,25,44,35,40,341,8,12,21,40,23,19,50,13,20],[47,86,49,47,1078,27,102,193,45,69,118,52,97,91,143,1249,20,21,46,88,61,43,90,22,32],[11,15,11,10,221,10,30,35,16,17,29,18,23,12,21,203,6,3,10,12,7,8,22,5,5],[2054961,3520325,2056226,2095700,44376964,1367795,4624451,7767686,2280086,2840115,5154946,2503859,4365151,3337274,5294608,47089107,1026989,910364,1935502,3225708,2202218,1670490,4328862,973793,1194675],[48,80,49,63,974,31,96,177,43,62,118,55,102,79,123,1067,19,21,46,86,55,43,98,28,33],[2.2,1.8,1.9,1.4,1.8,1.7,2.1,1.9,2,2,1.9,2.1,1.7,2,2,1.8,null,null,1.8,1.7,1.8,1.7,1.9,null,1.8],[46.9,55.6,48.9,61.2,51,56.6,50.5,53.9,53,55.3,49.8,49.8,54.6,51.5,49.3,52.2,null,null,60.2,57.6,53.2,51.4,48.3,null,48.2],[15,34,22,40,467,17,32,69,14,25,53,21,45,27,53,471,null,null,24,45,25,19,45,null,16],[2,1,0,2,65,1,0,4,1,2,2,1,2,2,7,51,null,null,1,1,1,1,5,null,0],[1,0,0,0,12,0,2,5,0,0,1,2,2,0,1,20,null,null,0,1,0,0,2,null,0],[9,5,8,2,134,2,12,21,5,9,15,10,5,9,19,132,null,null,4,5,4,4,13,null,3],[3,0,3,0,30,2,4,0,0,2,5,1,2,3,3,28,null,null,1,2,1,1,4,null,0],[4,3,3,0,53,2,6,4,2,3,7,3,3,6,8,57,null,null,1,2,1,2,6,null,0],[5,2,2,2,60,2,5,6,3,2,8,3,3,3,11,69,null,null,1,1,3,2,6,null,2],[3,3,4,2,68,0,6,14,2,7,8,8,2,4,7,53,null,null,2,3,0,1,8,null,2],[1,1,0,0,30,0,1,3,0,2,0,0,1,1,0,28,null,null,0,1,1,0,4,null,0],[10,22,10,19,341,9,31,52,16,17,40,20,34,20,40,317,null,null,14,27,22,11,31,null,6],[29,53,31,42,504,20,53,105,23,36,63,27,63,51,64,624,null,null,28,54,29,28,57,null,24],[43,77,44,49,659,25,88,160,42,58,103,51,97,75,111,797,null,null,42,82,48,40,87,null,31],[4,2,3,10,286,5,3,14,0,4,13,3,3,2,11,251,null,null,1,1,4,2,9,null,1],[1,1,2,4,29,1,5,3,1,0,2,1,2,2,1,19,null,null,3,3,3,1,2,null,1],[48,80,49,63,974,31,96,177,43,62,118,55,102,79,123,1067,19,21,46,86,55,43,98,28,33],[42947,44019,42284,33323,44338,44122,48335,44237,53025,46242,44019,45875,42797,42608,43455,43050,null,null,42134,37628,40095,38940,44421,null,36204],[40505,34495,36630,26739,34421,32496,45130,36653,45897,48428,33847,38557,36108,37155,34938,36111,null,null,34911,33768,38390,35919,37585,null,24701],[10,23,16,23,303,11,23,47,5,12,37,17,34,26,30,282,null,null,13,34,18,12,37,null,15],[34,45,26,32,537,13,58,110,26,44,66,29,48,46,79,665,null,null,27,45,33,29,49,null,16],[4,12,7,8,134,7,15,20,12,6,15,9,20,7,14,120,null,null,6,7,4,2,12,null,2],[2061464,3521520,2071938,2099359,43184900,1367795,4640194,7830011,2280086,2867014,5194189,2523131,4365318,3366069,5344922,45934726,null,null,1938184,3235977,2205217,1674437,4353275,null,1194745],[28,101,321,69,224,51,37,87,64,36,125,14,157,138,151,189,38,18,66,105,190,114,365,74,23],[81,137,105,109,986,49,149,312,83,91,173,76,187,139,181,1185,34,30,69,135,78,81,150,50,50],[8,15,14,15,196,8,13,63,15,13,23,8,18,26,35,205,3,3,9,13,19,8,23,2,7],[73,122,91,94,790,41,136,249,68,78,150,68,169,113,146,980,31,27,60,122,59,73,127,48,43],[69,119,85,108,1240,44,138,251,62,86,147,69,160,110,160,1354,29,28,64,121,65,63,133,47,41],[97.5,96.6,89.2,81.8,89.9,92.4,102.6,98.8,102,98,96.6,96.5,93,95.9,91.4,91.5,92.1,98,99.4,92.7,90,84.8,86.9,91.3,88.7],[68,115,82,107,1055,43,138,248,62,76,140,67,159,108,158,1111,29,27,64,120,62,62,128,45,40],[0,2,0,0,114,0,0,0,0,8,1,0,0,0,0,154,0,0,0,0,0,0,0,0,0],[1,2,3,1,71,1,0,3,0,2,6,2,1,2,2,89,0,1,0,1,3,1,5,2,1],[14,12,11,12,790,1,24,70,10,17,30,7,18,13,48,826,14,6,8,11,17,3,21,1,6],[4,8,4,0,25,null,22,9,6,5,1,null,6,11,5,39,10,null,null,1,5,null,6,null,null],[8,3,3,0,120,null,0,26,3,10,16,null,2,0,29,110,4,null,null,3,3,null,2,null,null],[2,1,3,12,645,null,2,35,1,2,13,null,10,2,14,677,0,null,null,7,9,null,13,null,null],[4,8,4,0,25,null,22,9,6,5,1,null,6,11,5,39,10,null,null,1,5,null,6,null,null],[0,0,0,0,0,null,0,0,0,0,0,null,0,0,0,0,0,null,null,0,0,null,0,null,null],[8,0,0,0,54,null,0,1,3,2,0,null,2,0,28,58,3,null,null,1,1,null,2,null,null],[0,0,0,0,7,null,0,0,0,0,0,null,0,0,0,22,0,null,null,0,0,null,0,null,null],[0,0,2,0,4,null,0,0,0,0,0,null,0,0,1,4,0,null,null,0,0,null,0,null,null],[0,3,1,0,55,null,0,25,0,8,16,null,0,0,0,26,1,null,null,2,2,null,0,null,null],[2,0,0,0,79,null,0,0,0,0,1,null,6,0,1,76,0,null,null,4,0,null,0,null,null],[0,0,0,0,15,null,0,23,1,2,7,null,3,0,5,94,0,null,null,1,0,null,4,null,null],[0,0,3,8,30,null,0,8,0,0,0,null,0,0,0,44,0,null,null,0,1,null,3,null,null],[0,0,0,0,6,null,0,0,0,0,0,null,0,1,0,14,0,null,null,0,0,null,0,null,null],[0,0,0,0,10,null,1,0,0,0,0,null,0,0,0,4,0,null,null,0,0,null,0,null,null],[0,0,0,0,1,null,0,1,0,0,0,null,0,0,2,3,0,null,null,0,0,null,1,null,null],[0,1,0,0,9,null,0,1,0,0,3,null,0,0,1,19,0,null,null,0,0,null,0,null,null],[0,0,0,0,50,null,1,1,0,0,2,null,0,0,0,42,0,null,null,2,8,null,2,null,null],[0,0,0,0,57,null,0,0,0,0,0,null,0,0,0,35,0,null,null,0,0,null,0,null,null],[0,0,0,0,49,null,0,0,0,0,0,null,0,1,0,47,0,null,null,0,0,null,3,null,null],[0,0,0,0,290,null,0,0,0,0,0,null,0,0,4,276,0,null,null,0,0,null,0,null,null],[0,0,0,0,9,null,0,0,0,0,0,null,0,0,0,2,0,null,null,0,0,null,0,null,null],[0,0,0,4,40,null,0,1,0,0,0,null,1,0,1,21,0,null,null,0,0,null,0,null,null],[0,0,0,0,0,null,0,0,0,0,0,null,0,0,0,0,0,null,null,0,0,null,0,null,null],[0,0,0,0,0,null,0,0,0,0,0,null,0,0,0,0,0,null,null,0,0,null,0,null,null],[0,0,1,0,0,null,0,0,0,0,0,null,0,0,0,0,0,null,null,0,0,null,0,null,null],[105,143,92,91,1858,53,203,341,86,122,229,114,174,156,240,2037,36,43,81,150,97,75,187,45,61],[31,50,28,18,626,21,90,114,28,43,78,43,56,42,90,656,14,18,28,56,36,25,63,17,20],[2,3,3,9,100,2,8,10,5,2,14,8,5,10,15,83,2,1,1,4,9,2,10,7,1],[19,7,8,4,203,4,25,23,8,12,26,14,9,14,32,199,2,5,2,7,6,4,17,5,4],[6,3,3,0,84,0,4,18,7,10,13,4,5,6,6,74,0,5,6,8,2,2,14,0,1],[44,79,48,58,811,23,73,160,36,52,92,39,94,81,91,982,17,13,43,73,44,39,80,15,33],[3,1,2,2,34,3,3,16,2,3,6,6,5,3,6,43,1,1,1,2,0,3,3,1,2],["torniolaakso","torniolaakso","torniolaakso","torniolaakso","torniolaakso","torniolaakso","torniolaakso","torniolaakso","torniolaakso","torniolaakso","torniolaakso","torniolaakso","torniolaakso","torniolaakso","torniolaakso","torniolaakso","torniolaakso","torniolaakso","torniolaakso","torniolaakso","torniolaakso","torniolaakso","torniolaakso","torniolaakso","torniolaakso"],["95750","95660","95670","95675","95600","95680","95610","95620","95615","95630","95635","95655","95640","95690","95645","95700","95710","95720","95760","95770","95780","95790","97250","97330","97335"],[1.9,2.1,3.3,9.9,5.4,3.8,3.9,2.9,5.8,1.6,6.1,7,2.9,6.4,6.2,4.1,5.6,2.3,1.2,2.7,9.3,2.7,5.3,15.6,1.6],[15.7,15.7,12.3,27.6,23.8,24.5,17.7,20,22.1,29.4,24,18.9,25,9.4,27,23.6,23.5,13.9,26,17.1,17.6,11.4,18.5,25,8.8],[41.9,55.2,52.2,63.7,43.6,43.4,36,46.9,41.9,42.6,40.2,34.2,54,51.9,37.9,48.2,47.2,30.2,53.1,48.7,45.4,52,42.8,33.3,54.1],[89.6,96.2,89.8,77.8,67.7,80.6,91.7,90.4,97.7,93.5,87.3,92.7,95.1,94.9,90.2,74.7,null,null,91.3,95.3,87.3,93,88.8,null,93.9],[8.3,2.5,6.1,15.9,29.4,16.1,3.1,7.9,0,6.5,11,5.5,2.9,2.5,8.9,23.5,null,null,2.2,1.2,7.3,4.7,9.2,null,3],[0,1,0,0,3,1,3,7,4,6,4,5,1,0,1,8,1,3,0,1,1,0,1,0,0],[7.6,2.1,4.3,0,4.1,3.8,5.4,1.2,2.3,4.9,4.8,2.6,2.3,5.1,5.4,3.6,0,9.3,1.2,2.7,2.1,2.7,4.3,0,0],[5.7,2.1,3.3,0,4.5,0,2,5.3,8.1,8.2,5.7,3.5,2.9,3.8,2.5,3.6,0,11.6,7.4,5.3,2.1,2.7,7.5,0,1.6],[98.6,96.6,96.5,99.1,85.1,97.7,100,98.8,100,88.4,95.2,97.1,99.4,98.2,98.8,82.1,100,96.4,100,99.2,95.4,98.4,96.2,95.7,97.6],[6.7,2.1,3.3,4.4,8.6,3.8,6.9,9.7,5.8,6.6,7.9,7,2.9,5.1,6.2,7,8.3,11.6,8.6,9.3,3.1,9.3,5.9,0,8.2],[0.81,0.68,0.74,0.78,1.06,0.96,0.9,0.93,1.1,0.97,0.86,0.7,0.85,0.81,0.86,0.99,0.89,1.05,1.08,0.92,0.9,0.97,0.91,1.05,0.69],[2.1,0,0,0,1.2,0,2.1,2.8,0,0,0.8,3.6,2,0,0.8,1.9,null,null,0,1.2,0,0,2,null,0],[18.8,6.2,16.3,3.2,13.8,6.5,12.5,11.9,11.6,14.5,12.7,18.2,4.9,11.4,15.4,12.4,null,null,8.7,5.8,7.3,9.3,13.3,null,9.1],[0,0,0,0,0.8,null,0,0,0,0,0,null,0,7.7,0,1.7,0,null,null,0,0,null,0,null,null],[0,0,0,0,36.7,null,0,0,0,0,0,null,0,0,8.3,33.4,0,null,null,0,0,null,0,null,null],[29.5,35,30.4,19.8,33.7,39.6,44.3,33.4,32.6,35.2,34.1,37.7,32.2,26.9,37.5,32.2,38.9,41.9,34.6,37.3,37.1,33.3,33.7,37.8,32.8],[40,51.7,48.9,57.1,40.4,45.3,34.5,45.5,36,42.6,36.7,30.7,50.6,48.7,37.9,45.3,47.2,32.6,48.1,47.3,43.3,48,41.7,33.3,44.3],[2.19,1.79,1.88,1.44,1.91,1.71,2.11,1.93,2,1.97,1.94,2.07,1.71,1.97,1.95,1.91,1.89,2.05,1.76,1.74,1.76,1.74,1.91,1.61,1.85],[57.1,25,27.3,0,15.2,null,0,37.1,30,58.8,53.3,null,11.1,0,60.4,13.3,28.6,null,null,27.3,17.6,null,9.5,null,null],[0,0,0,0,7.2,null,0,0,0,0,0,null,0,0,0,4.2,0,null,null,0,0,null,0,null,null],[14.3,8.3,27.3,100,81.6,null,8.3,50,10,11.8,43.3,null,55.6,15.4,29.2,82,0,null,null,63.6,52.9,null,61.9,null,null],[117.4,115.1,123.5,100.9,79.5,111.4,108,124.3,133.9,105.8,117.7,110.1,116.9,126.4,113.1,87.5,117.2,107.1,107.8,111.6,120,128.6,112.8,106.4,122],[0,0,0,0,4.1,0,1,2.4,1,0.7,0.4,0.9,0.5,0.6,0.8,1.3,0,0,0,0.6,0,0,0.6,1.9,0],[63.9,103.2,103.2,103.2,103.2,103.2,103.2,103.2,103.2,103.2,103.2,103.2,63.9,103.2,63.9,63.9,63.9,63.9,63.9,63.9,63.9,63.9,103.2,63.9,63.9],[null,null,null,null,511,null,null,null,null,null,null,null,null,null,null,null,null,null,null,null,null,null,null,null,null],[0.1,0.1,0,0,0.1,0.1,0.4,0.8,0.7,1,0.6,0.2,0.1,0,0.2,0.2,0,0.3,0.1,0.2,0.1,0.1,0.1,0.1,0],[18.9,19.2,19.9,19.8,19.5,19.7,19.5,19.5,19.5,19.6,19.5,19.4,19.4,19.8,19.4,19.1,19.4,19.4,19,19.5,20.9,19.8,21.6,18.8,19],[0,0,0,0,0,0,0,0,0,0,0,0,0,0,0,0,0,0,0,0,0,0,0,0,0],[0,0,0,0,0,0,0,0,0,0,0,0,0,0,0,0,0,0,0,0,0,0,0,0,0],[0,0,0,0,0,0,0,0,0,0,0,0,0,0,0,0,0,0,0,0,0,0,0,0,0],[0,0,0,0,0,0,0,0.1,0,0,0,0,0,0,0,0,0,0,0,0,0,0,0,0,0],[0,0,0,0,0,0,0,0,0,0,0,0,0,0,0,0,0,0,0,0,0,0,0,0,0],[0,0,0,0,0.1,0,0.1,0.1,0,0,0,0,0,0,0,0.3,0,0,0,0,0,0,0,0,0],[31.2,42.5,44.9,63.5,47.9,54.8,33.3,39,32.6,40.3,44.9,38.2,44.1,34.2,43.1,44.1,null,null,52.2,52.3,45.5,44.2,45.9,null,48.5],[null,null,null,null,null,null,null,null,null,null,null,null,null,null,null,null,null,null,null,null,null,null,null,null,null],[null,null,null,null,null,null,null,null,null,null,null,null,null,null,null,null,null,null,null,null,null,null,null,null,null],[76,76,76,76,78,76,78,79,76,76,76,76,76,76,76,79,76,76,76,76,76,76,76,76,76],[9.5,4.7,7.2,null,1.4,null,6.6,3.9,7.8,5.5,5.8,null,3.8,10.7,5.6,1.1,null,null,null,2.2,null,null,5.3,null,null],[null,null,null,null,null,null,null,null,null,null,null,null,null,null,null,null,null,null,null,null,null,null,null,null,null],[null,null,null,null,57.4,null,null,null,null,null,null,null,null,null,null,53.9,null,null,null,null,null,null,null,null,null],[0.72,0.46,0.38,0.42,0.82,0.44,1.08,1.28,1.6,0.87,0.56,0.67,0.49,0.57,0.57,0.76,0.67,0.66,0.53,0.6,0.49,0.5,0.36,0.43,0.54],[40,40,40,40,40,40,40,40,40,40,40,40,40,40,40,40,40,40,40,40,40,40,40,40,40],[58.7,53.7,53.7,53.7,53.7,53.7,53.7,53.7,53.7,53.7,53.7,53.7,58.7,53.7,58.7,58.7,58.7,58.7,58.7,58.7,58.7,58.7,53.7,58.7,58.7],[0.635,0.633,0.633,0.633,0.633,0.633,0.633,0.633,0.633,0.633,0.633,0.633,0.635,0.633,0.635,0.635,0.635,0.635,0.635,0.635,0.635,0.635,0.633,0.635,0.635],[33,43,43,43,43,43,43,43,43,43,43,43,33,43,33,33,33,33,33,33,33,33,43,33,33],[0,0,0,0,0,0,0,0,0,0,0,0,0,0,0,0,0,0,0,0,0,0,0,0,0],[43.1,53.9,52.2,54,47.8,35.6,54.4,55,23.2,26.6,56.6,17.6,52.8,38.6,43.5,60.5,48.2,27.4,45.8,44.4,50.8,66.9,39,65.6,48.5],[null,null,null,null,null,null,null,null,null,null,null,null,null,null,null,null,null,null,null,null,null,null,null,null,null],[0,0,0,0,0,0,0,0.1,0,0,0,0,0,0,0,0.1,0.1,0,0,0,0.1,0,0,0,0],[0,0,0,0,0,0,0,0,0,0,0,0,0,0,0,0,0,0,0,0,0,0,0,0,0],[1977,1978,1978,1977,1977,1978,1978,1979,1979,1978,1978,1978,1977,1979,1977,1976,1977,1977,1977,1977,1977,1978,1978,1977,1977],[[[2021,18660],[2022,17861],[2023,19706],[2024,20540],[2025,20681],[2026,22456]],[[2021,17068],[2022,17656],[2023,17489],[2024,18378],[2025,19914],[2026,20751]],[[2021,14983],[2022,15851],[2023,17323],[2024,17517],[2025,19603],[2026,21514]],[[2021,15974],[2022,16732],[2023,17842],[2024,18955],[2025,19016],[2026,20257]],[[2021,20296],[2022,20666],[2023,21177],[2024,21428],[2025,22652],[2026,23714]],[[2021,15249],[2022,17164],[2023,18212],[2024,17680],[2025,18612],[2026,23215]],[[2021,18862],[2022,20515],[2023,19375],[2024,21462],[2025,22781],[2026,24190]],[[2021,18541],[2022,18561],[2023,19069],[2024,19225],[2025,20676],[2026,22095]],[[2021,22030],[2022,22863],[2023,23759],[2024,25344],[2025,25408],[2026,26998]],[[2021,21920],[2022,21051],[2023,23687],[2024,24604],[2025,25475],[2026,26609]],[[2021,20194],[2022,20307],[2023,20102],[2024,20943],[2025,22918],[2026,22132]],[[2021,17630],[2022,17014],[2023,19459],[2024,19570],[2025,21710],[2026,24433]],[[2021,17205],[2022,16907],[2023,17402],[2024,19667],[2025,21101],[2026,21377]],[[2021,17688],[2022,18053],[2023,18535],[2024,18263],[2025,19258],[2026,20379]],[[2021,19589],[2022,19512],[2023,20519],[2024,20307],[2025,20879],[2026,22966]],[[2021,19664],[2022,20005],[2023,20386],[2024,21242],[2025,22261],[2026,23624]],[[2021,20605],[2022,21866],[2023,20868],[2024,21349],[2025,24655],[2026,27105]],[[2021,15814],[2022,18116],[2023,16295],[2024,18566],[2025,16302],[2026,18877]],[[2021,17762],[2022,17566],[2023,18293],[2024,18177],[2025,19092],[2026,22098]],[[2021,17293],[2022,17658],[2023,18842],[2024,20429],[2025,22818],[2026,21133]],[[2021,19521],[2022,18867],[2023,20160],[2024,21562],[2025,21022],[2026,21775]],[[2021,18392],[2022,17472],[2023,17197],[2024,18550],[2025,20064],[2026,21036]],[[2021,17662],[2022,18204],[2023,18831],[2024,21341],[2025,22955],[2026,23069]],[[2021,18312],[2022,17564],[2023,19979],[2024,19020],[2025,20517],[2026,21756]],[[2021,15834],[2022,14891],[2023,16374],[2024,16372],[2025,17635],[2026,18048]]],[[[2021,108],[2022,109],[2023,110],[2024,106],[2025,109],[2026,105]],[[2021,151],[2022,147],[2023,147],[2024,142],[2025,144],[2026,143]],[[2021,96],[2022,97],[2023,95],[2024,90],[2025,93],[2026,92]],[[2021,124],[2022,104],[2023,99],[2024,91],[2025,92],[2026,91]],[[2021,1960],[2022,1947],[2023,1910],[2024,1899],[2025,1903],[2026,1858]],[[2021,43],[2022,49],[2023,51],[2024,52],[2025,51],[2026,53]],[[2021,208],[2022,201],[2023,196],[2024,193],[2025,195],[2026,203]],[[2021,379],[2022,379],[2023,372],[2024,355],[2025,341],[2026,341]],[[2021,98],[2022,96],[2023,90],[2024,92],[2025,88],[2026,86]],[[2021,145],[2022,134],[2023,121],[2024,120],[2025,125],[2026,122]],[[2021,237],[2022,241],[2023,231],[2024,233],[2025,221],[2026,229]],[[2021,110],[2022,109],[2023,112],[2024,117],[2025,115],[2026,114]],[[2021,194],[2022,189],[2023,196],[2024,179],[2025,177],[2026,174]],[[2021,159],[2022,165],[2023,173],[2024,166],[2025,158],[2026,156]],[[2021,263],[2022,251],[2023,249],[2024,251],[2025,248],[2026,240]],[[2021,2145],[2022,2104],[2023,2096],[2024,2097],[2025,2090],[2026,2037]],[[2021,33],[2022,33],[2023,34],[2024,32],[2025,34],[2026,36]],[[2021,41],[2022,39],[2023,42],[2024,40],[2025,42],[2026,43]],[[2021,96],[2022,91],[2023,91],[2024,88],[2025,84],[2026,81]],[[2021,164],[2022,158],[2023,156],[2024,158],[2025,157],[2026,150]],[[2021,99],[2022,97],[2023,95],[2024,91],[2025,93],[2026,97]],[[2021,82],[2022,81],[2023,85],[2024,88],[2025,80],[2026,75]],[[2021,174],[2022,178],[2023,181],[2024,182],[2025,186],[2026,187]],[[2021,45],[2022,52],[2023,49],[2024,42],[2025,41],[2026,45]],[[2021,65],[2022,63],[2023,61],[2024,61],[2025,60],[2026,61]]],[[[2021,2.8],[2022,1.8],[2023,0.9],[2024,1.9],[2025,2.8],[2026,1.9]],[[2021,2.6],[2022,3.4],[2023,3.4],[2024,4.2],[2025,2.8],[2026,2.1]],[[2021,3.1],[2022,3.1],[2023,2.1],[2024,0],[2025,1.1],[2026,3.3]],[[2021,6.5],[2022,4.8],[2023,3],[2024,4.4],[2025,8.7],[2026,9.9]],[[2021,4.9],[2022,5.4],[2023,4.8],[2024,4.1],[2025,4.7],[2026,5.4]],[[2021,4.7],[2022,6.1],[2023,5.9],[2024,9.6],[2025,11.8],[2026,3.8]],[[2021,4.8],[2022,3.5],[2023,6.6],[2024,3.6],[2025,6.7],[2026,3.9]],[[2021,7.9],[2022,8.7],[2023,5.9],[2024,5.9],[2025,5],[2026,2.9]],[[2021,4.1],[2022,2.1],[2023,3.3],[2024,4.3],[2025,6.8],[2026,5.8]],[[2021,5.5],[2022,3],[2023,5.8],[2024,5],[2025,2.4],[2026,1.6]],[[2021,5.5],[2022,5.8],[2023,3.9],[2024,3.4],[2025,6.3],[2026,6.1]],[[2021,9.1],[2022,4.6],[2023,7.1],[2024,7.7],[2025,7],[2026,7]],[[2021,8.2],[2022,9.5],[2023,6.6],[2024,6.7],[2025,5.6],[2026,2.9]],[[2021,4.4],[2022,5.5],[2023,5.8],[2024,4.8],[2025,7],[2026,6.4]],[[2021,6.1],[2022,6.8],[2023,5.6],[2024,7.2],[2025,6.5],[2026,6.2]],[[2021,4.7],[2022,4.6],[2023,4.3],[2024,3.4],[2025,3.5],[2026,4.1]],[[2021,9.1],[2022,9.1],[2023,2.9],[2024,12.5],[2025,8.8],[2026,5.6]],[[2021,14.6],[2022,5.1],[2023,9.5],[2024,0],[2025,2.4],[2026,2.3]],[[2021,2.1],[2022,3.3],[2023,1.1],[2024,3.4],[2025,4.8],[2026,1.2]],[[2021,7.3],[2022,7],[2023,5.8],[2024,6.3],[2025,5.7],[2026,2.7]],[[2021,9.1],[2022,10.3],[2023,4.2],[2024,4.4],[2025,7.5],[2026,9.3]],[[2021,7.3],[2022,4.9],[2023,7.1],[2024,3.4],[2025,0],[2026,2.7]],[[2021,7.5],[2022,6.2],[2023,6.6],[2024,5.5],[2025,8.1],[2026,5.3]],[[2021,4.4],[2022,1.9],[2023,2],[2024,9.5],[2025,14.6],[2026,15.6]],[[2021,4.6],[2022,6.3],[2023,6.6],[2024,1.6],[2025,0],[2026,1.6]]],[20.3,21.6,43.6,26.8,16.8,52.2,28.2,19.2,22.6,21.4,9.6,38.6,24.2,15.2,17.2,20.1,31.5,19.4,24.4,22.2,11.5,14.4,30.6,18.8,14],[-2.8,-5.3,-4.2,-26.6,-5.2,23.3,-2.4,-10,-12.2,-15.9,-3.4,3.6,-10.3,-1.9,-8.7,-5,9.1,4.9,-15.6,-8.5,-2,-8.5,7.5,0,-6.2],[-32.1,-19.2,6.5,52.3,10.2,-19.1,-18.8,-63.3,41.5,-70.9,10.9,-23.1,-64.6,45.5,1.6,-12.8,-38.5,-84.2,-42.9,-63,2.2,-63,-29.3,254.5,-65.2],[null,null,null,null,[{"name":"Ylitornion yhteiskoulun lukio","score":57.4}],null,null,null,null,null,null,null,null,null,null,[{"name":"Pellon lukio","score":53.9}],null,null,null,null,null,null,null,null,null],[[[2020,83.6],[2021,76.5],[2022,63.2],[2023,75],[2024,64.6],[2025,63.9]],[[2020,119.6],[2021,87.7],[2022,75.5],[2023,84.5],[2024,82.5],[2025,103.2]],[[2020,119.6],[2021,87.7],[2022,75.5],[2023,84.5],[2024,82.5],[2025,103.2]],[[2020,119.6],[2021,87.7],[2022,75.5],[2023,84.5],[2024,82.5],[2025,103.2]],[[2020,119.6],[2021,87.7],[2022,75.5],[2023,84.5],[2024,82.5],[2025,103.2]],[[2020,119.6],[2021,87.7],[2022,75.5],[2023,84.5],[2024,82.5],[2025,103.2]],[[2020,119.6],[2021,87.7],[2022,75.5],[2023,84.5],[2024,82.5],[2025,103.2]],[[2020,119.6],[2021,87.7],[2022,75.5],[2023,84.5],[2024,82.5],[2025,103.2]],[[2020,119.6],[2021,87.7],[2022,75.5],[2023,84.5],[2024,82.5],[2025,103.2]],[[2020,119.6],[2021,87.7],[2022,75.5],[2023,84.5],[2024,82.5],[2025,103.2]],[[2020,119.6],[2021,87.7],[2022,75.5],[2023,84.5],[2024,82.5],[2025,103.2]],[[2020,119.6],[2021,87.7],[2022,75.5],[2023,84.5],[2024,82.5],[2025,103.2]],[[2020,83.6],[2021,76.5],[2022,63.2],[2023,75],[2024,64.6],[2025,63.9]],[[2020,119.6],[2021,87.7],[2022,75.5],[2023,84.5],[2024,82.5],[2025,103.2]],[[2020,83.6],[2021,76.5],[2022,63.2],[2023,75],[2024,64.6],[2025,63.9]],[[2020,83.6],[2021,76.5],[2022,63.2],[2023,75],[2024,64.6],[2025,63.9]],[[2020,83.6],[2021,76.5],[2022,63.2],[2023,75],[2024,64.6],[2025,63.9]],[[2020,83.6],[2021,76.5],[2022,63.2],[2023,75],[2024,64.6],[2025,63.9]],[[2020,83.6],[2021,76.5],[2022,63.2],[2023,75],[2024,64.6],[2025,63.9]],[[2020,83.6],[2021,76.5],[2022,63.2],[2023,75],[2024,64.6],[2025,63.9]],[[2020,83.6],[2021,76.5],[2022,63.2],[2023,75],[2024,64.6],[2025,63.9]],[[2020,83.6],[2021,76.5],[2022,63.2],[2023,75],[2024,64.6],[2025,63.9]],[[2020,119.6],[2021,87.7],[2022,75.5],[2023,84.5],[2024,82.5],[2025,103.2]],[[2020,83.6],[2021,76.5],[2022,63.2],[2023,75],[2024,64.6],[2025,63.9]],[[2020,83.6],[2021,76.5],[2022,63.2],[2023,75],[2024,64.6],[2025,63.9]]],[-23.6,-13.7,-13.7,-13.7,-13.7,-13.7,-13.7,-13.7,-13.7,-13.7,-13.7,-13.7,-23.6,-13.7,-23.6,-23.6,-23.6,-23.6,-23.6,-23.6,-23.6,-23.6,-13.7,-23.6,-23.6],[105.2,106,106,106,106,106,106,106,106,106,106,106,105.2,106,105.2,105.2,105.2,105.2,105.2,105.2,105.2,105.2,106,105.2,105.2],[null,null,null,null,161,null,null,null,null,null,null,null,null,null,null,109,null,null,null,null,null,null,null,null,null],["Pello","Ylitornio","Ylitornio","Ylitornio","Ylitornio","Ylitornio","Ylitornio","Ylitornio","Ylitornio","Ylitornio","Ylitornio","Ylitornio","Pello","Ylitornio","Pello","Pello","Pello","Pello","Pello","Pello","Pello","Pello","Ylitornio","Pello","Pello"],[24.10009,24.062,24.33321,24.6966,23.77809,24.367,23.70691,23.71493,23.81935,23.6734,23.7285,23.86887,23.87323,24.55856,23.89705,23.91515,23.88307,23.83971,24.39866,24.33609,24.40702,24.57934,24.66695,24.83217,24.59083],[66.94219,66.44384,66.52995,66.52215,66.31964,66.44731,66.23551,66.38124,66.17945,66.41903,66.48882,66.368,66.55768,66.39027,66.65571,66.81729,66.92954,66.96615,66.83416,66.72767,66.66525,66.70907,66.65357,66.83103,66.89864],[null,null,null,null,1.92,null,22.77,16.17,28.43,27.8,8.98,null,3.19,null,1.74,6.51,3.31,4.51,null,null,null,null,null,null,null],[-12,-11.5,-11.5,-11.5,-11.5,-11.5,-11.5,-11.5,-11.5,-11.5,-11.5,-11.5,-12,-11.5,-12,-12,-12,-12,-12,-12,-12,-12,-11.5,-12,-12],[3.8,2.4,2.4,2.4,2.4,2.4,2.4,2.4,2.4,2.4,2.4,2.4,3.8,2.4,3.8,3.8,3.8,3.8,3.8,3.8,3.8,3.8,2.4,3.8,3.8],[null,null,null,null,2,null,2,2,2,2,2,null,2,null,2,2,2,2,null,null,null,null,null,null,null],[49.2,55.9,55.9,55.9,55.9,55.9,55.9,55.9,55.9,55.9,55.9,55.9,49.2,55.9,49.2,49.2,49.2,49.2,49.2,49.2,49.2,49.2,55.9,49.2,49.2],[8.6,6.5,6.5,6.5,6.5,6.5,6.5,6.5,6.5,6.5,6.5,6.5,8.6,6.5,8.6,8.6,8.6,8.6,8.6,8.6,8.6,8.6,6.5,8.6,8.6],[10.3,12.3,12.3,12.3,12.3,12.3,12.3,12.3,12.3,12.3,12.3,12.3,10.3,12.3,10.3,10.3,10.3,10.3,10.3,10.3,10.3,10.3,12.3,10.3,10.3],[18.5,24.9,24.9,24.9,24.9,24.9,24.9,24.9,24.9,24.9,24.9,24.9,18.5,24.9,18.5,18.5,18.5,18.5,18.5,18.5,18.5,18.5,24.9,18.5,18.5],[30.8,35.4,35.4,35.4,35.4,35.4,35.4,35.4,35.4,35.4,35.4,35.4,30.8,35.4,30.8,30.8,30.8,30.8,30.8,30.8,30.8,30.8,35.4,30.8,30.8],[0.9,1,1,1,1,1,1,1,1,1,1,1,0.9,1,0.9,0.9,0.9,0.9,0.9,0.9,0.9,0.9,1,0.9,0.9],[28.9,14.8,14.8,14.8,14.8,14.8,14.8,14.8,14.8,14.8,14.8,14.8,28.9,14.8,28.9,28.9,28.9,28.9,28.9,28.9,28.9,28.9,14.8,28.9,28.9],[null,0.2,0.2,0.2,0.2,0.2,0.2,0.2,0.2,0.2,0.2,0.2,null,0.2,null,null,null,null,null,null,null,null,0.2,null,null],[3.4,4.3,4.3,4.3,4.3,4.3,4.3,4.3,4.3,4.3,4.3,4.3,3.4,4.3,3.4,3.4,3.4,3.4,3.4,3.4,3.4,3.4,4.3,3.4,3.4],["[[2020, 0.0], [2021, 0.0], [2022, 0.0], [2023, 0.0], [2024, 0.0], [2025, 0.0]]","[[2020, 0.0], [2021, 0.0], [2022, 0.0], [2023, 0.0], [2024, 0.0], [2025, 0.0]]","[[2020, 0.0], [2021, 0.0], [2022, 0.0], [2023, 0.0], [2024, 0.0], [2025, 0.0]]","[[2020, 0.0], [2021, 0.0], [2022, 0.0], [2023, 0.0], [2024, 0.0], [2025, 0.0]]","[[2020, 4.1], [2021, 4.1], [2022, 4.8], [2023, 6.1], [2024, 6.6], [2025, 7.1]]","[[2020, 0.0], [2021, 0.0], [2022, 0.0], [2023, 0.0], [2024, 0.0], [2025, 0.0]]","[[2020, 1.0], [2021, 1.0], [2022, 1.2], [2023, 1.5], [2024, 1.6], [2025, 1.7]]","[[2020, 2.4], [2021, 2.4], [2022, 2.8], [2023, 3.6], [2024, 3.8], [2025, 4.1]]","[[2020, 1.0], [2021, 1.0], [2022, 1.2], [2023, 1.5], [2024, 1.6], [2025, 1.7]]","[[2020, 0.7], [2021, 0.7], [2022, 0.8], [2023, 1.0], [2024, 1.1], [2025, 1.2]]","[[2020, 0.4], [2021, 0.4], [2022, 0.5], [2023, 0.6], [2024, 0.6], [2025, 0.7]]","[[2020, 0.9], [2021, 0.9], [2022, 1.0], [2023, 1.3], [2024, 1.4], [2025, 1.5]]","[[2020, 0.5], [2021, 0.6], [2022, 0.7], [2023, 1.1], [2024, 1.3], [2025, 1.7]]","[[2020, 0.6], [2021, 0.6], [2022, 0.7], [2023, 0.9], [2024, 1.0], [2025, 1.0]]","[[2020, 0.8], [2021, 1.0], [2022, 1.0], [2023, 1.8], [2024, 2.1], [2025, 2.7]]","[[2020, 1.3], [2021, 1.6], [2022, 1.7], [2023, 2.9], [2024, 3.4], [2025, 4.4]]","[[2020, 0.0], [2021, 0.0], [2022, 0.0], [2023, 0.0], [2024, 0.0], [2025, 0.0]]","[[2020, 0.0], [2021, 0.0], [2022, 0.0], [2023, 0.0], [2024, 0.0], [2025, 0.0]]","[[2020, 0.0], [2021, 0.0], [2022, 0.0], [2023, 0.0], [2024, 0.0], [2025, 0.0]]","[[2020, 0.6], [2021, 0.7], [2022, 0.8], [2023, 1.3], [2024, 1.6], [2025, 2.0]]","[[2020, 0.0], [2021, 0.0], [2022, 0.0], [2023, 0.0], [2024, 0.0], [2025, 0.0]]","[[2020, 0.0], [2021, 0.0], [2022, 0.0], [2023, 0.0], [2024, 0.0], [2025, 0.0]]","[[2020, 0.6], [2021, 0.6], [2022, 0.7], [2023, 0.9], [2024, 1.0], [2025, 1.0]]","[[2020, 1.9], [2021, 2.3], [2022, 2.5], [2023, 4.2], [2024, 4.9], [2025, 6.5]]","[[2020, 0.0], [2021, 0.0], [2022, 0.0], [2023, 0.0], [2024, 0.0], [2025, 0.0]]"],[0,0,0,0,7.1,0,1.7,4.1,1.7,1.2,0.7,1.5,1.7,1,2.7,4.4,0,0,0,2,0,0,1,6.5,0],[30.1,24.6,25.9,34.5,19.1,24.5,24.6,26.5,20.8,15.7,25,26.3,26.8,25.4,19.6,19,23.5,33.3,27.3,28.6,25.3,27.1,30.9,32.5,35.1],[45.2,24,39.3,66.7,126.2,4.8,26.7,61.4,35.7,39.5,38.5,16.3,32.1,31,53.3,125.9,100,33.3,28.6,19.6,47.2,12,33.3,5.9,30],[4.9,5.6,5.6,5.6,5.6,5.6,5.6,5.6,5.6,5.6,5.6,5.6,4.9,5.6,4.9,4.9,4.9,4.9,4.9,4.9,4.9,4.9,5.6,4.9,4.9],[14.3,20.7,20.7,20.7,20.7,20.7,20.7,20.7,20.7,20.7,20.7,20.7,14.3,20.7,14.3,14.3,14.3,14.3,14.3,14.3,14.3,14.3,20.7,14.3,14.3]]}}