{"type":"FeatureCollection","features":[{"type":"Feature","geometry":{"type":"Polygon","coordinates":[[[29.497917,65.21875],[29.502083,65.21875],[29.502083,65.222917],[29.497917,65.222917],[29.497917,65.21875]]]},"properties":{"radiance":5.15}},{"type":"Feature","geometry":{"type":"Polygon","coordinates":[[[29.502083,65.21875],[29.50625,65.21875],[29.50625,65.222917],[29.502083,65.222917],[29.502083,65.21875]]]},"properties":{"radiance":5.21}},{"type":"Feature","geometry":{"type":"Polygon","coordinates":[[[28.552083,64.94375],[28.55625,64.94375],[28.55625,64.947917],[28.552083,64.947917],[28.552083,64.94375]]]},"properties":{"radiance":7.98}},{"type":"Feature","geometry":{"type":"Polygon","coordinates":[[[28.852083,64.897917],[28.85625,64.897917],[28.85625,64.902083],[28.852083,64.902083],[28.852083,64.897917]]]},"properties":{"radiance":5.06}},{"type":"Feature","geometry":{"type":"Polygon","coordinates":[[[28.85625,64.897917],[28.860417,64.897917],[28.860417,64.902083],[28.85625,64.902083],[28.85625,64.897917]]]},"properties":{"radiance":5.18}},{"type":"Feature","geometry":{"type":"Polygon","coordinates":[[[28.877083,64.89375],[28.88125,64.89375],[28.88125,64.897917],[28.877083,64.897917],[28.877083,64.89375]]]},"properties":{"radiance":5.78}},{"type":"Feature","geometry":{"type":"Polygon","coordinates":[[[28.88125,64.89375],[28.885417,64.89375],[28.885417,64.897917],[28.88125,64.897917],[28.88125,64.89375]]]},"properties":{"radiance":5.6}},{"type":"Feature","geometry":{"type":"Polygon","coordinates":[[[28.889583,64.89375],[28.89375,64.89375],[28.89375,64.897917],[28.889583,64.897917],[28.889583,64.89375]]]},"properties":{"radiance":5.33}},{"type":"Feature","geometry":{"type":"Polygon","coordinates":[[[28.88125,64.889583],[28.885417,64.889583],[28.885417,64.89375],[28.88125,64.89375],[28.88125,64.889583]]]},"properties":{"radiance":7.08}},{"type":"Feature","geometry":{"type":"Polygon","coordinates":[[[28.885417,64.889583],[28.889583,64.889583],[28.889583,64.89375],[28.885417,64.89375],[28.885417,64.889583]]]},"properties":{"radiance":6}},{"type":"Feature","geometry":{"type":"Polygon","coordinates":[[[28.889583,64.889583],[28.89375,64.889583],[28.89375,64.89375],[28.889583,64.89375],[28.889583,64.889583]]]},"properties":{"radiance":6.16}},{"type":"Feature","geometry":{"type":"Polygon","coordinates":[[[28.89375,64.889583],[28.897917,64.889583],[28.897917,64.89375],[28.89375,64.89375],[28.89375,64.889583]]]},"properties":{"radiance":9.12}},{"type":"Feature","geometry":{"type":"Polygon","coordinates":[[[28.897917,64.889583],[28.902083,64.889583],[28.902083,64.89375],[28.897917,64.89375],[28.897917,64.889583]]]},"properties":{"radiance":7.52}},{"type":"Feature","geometry":{"type":"Polygon","coordinates":[[[28.902083,64.889583],[28.90625,64.889583],[28.90625,64.89375],[28.902083,64.89375],[28.902083,64.889583]]]},"properties":{"radiance":6.56}},{"type":"Feature","geometry":{"type":"Polygon","coordinates":[[[28.90625,64.889583],[28.910417,64.889583],[28.910417,64.89375],[28.90625,64.89375],[28.90625,64.889583]]]},"properties":{"radiance":5.06}},{"type":"Feature","geometry":{"type":"Polygon","coordinates":[[[28.910417,64.889583],[28.914583,64.889583],[28.914583,64.89375],[28.910417,64.89375],[28.910417,64.889583]]]},"properties":{"radiance":5.84}},{"type":"Feature","geometry":{"type":"Polygon","coordinates":[[[28.914583,64.889583],[28.91875,64.889583],[28.91875,64.89375],[28.914583,64.89375],[28.914583,64.889583]]]},"properties":{"radiance":5.4}},{"type":"Feature","geometry":{"type":"Polygon","coordinates":[[[28.91875,64.889583],[28.922917,64.889583],[28.922917,64.89375],[28.91875,64.89375],[28.91875,64.889583]]]},"properties":{"radiance":5.29}},{"type":"Feature","geometry":{"type":"Polygon","coordinates":[[[28.889583,64.885417],[28.89375,64.885417],[28.89375,64.889583],[28.889583,64.889583],[28.889583,64.885417]]]},"properties":{"radiance":8.38}},{"type":"Feature","geometry":{"type":"Polygon","coordinates":[[[28.89375,64.885417],[28.897917,64.885417],[28.897917,64.889583],[28.89375,64.889583],[28.89375,64.885417]]]},"properties":{"radiance":8.74}},{"type":"Feature","geometry":{"type":"Polygon","coordinates":[[[28.897917,64.885417],[28.902083,64.885417],[28.902083,64.889583],[28.897917,64.889583],[28.897917,64.885417]]]},"properties":{"radiance":8.58}},{"type":"Feature","geometry":{"type":"Polygon","coordinates":[[[28.902083,64.885417],[28.90625,64.885417],[28.90625,64.889583],[28.902083,64.889583],[28.902083,64.885417]]]},"properties":{"radiance":12.93}},{"type":"Feature","geometry":{"type":"Polygon","coordinates":[[[28.90625,64.885417],[28.910417,64.885417],[28.910417,64.889583],[28.90625,64.889583],[28.90625,64.885417]]]},"properties":{"radiance":13.77}},{"type":"Feature","geometry":{"type":"Polygon","coordinates":[[[28.910417,64.885417],[28.914583,64.885417],[28.914583,64.889583],[28.910417,64.889583],[28.910417,64.885417]]]},"properties":{"radiance":38.75}},{"type":"Feature","geometry":{"type":"Polygon","coordinates":[[[28.914583,64.885417],[28.91875,64.885417],[28.91875,64.889583],[28.914583,64.889583],[28.914583,64.885417]]]},"properties":{"radiance":10.03}},{"type":"Feature","geometry":{"type":"Polygon","coordinates":[[[28.91875,64.885417],[28.922917,64.885417],[28.922917,64.889583],[28.91875,64.889583],[28.91875,64.885417]]]},"properties":{"radiance":10.91}},{"type":"Feature","geometry":{"type":"Polygon","coordinates":[[[28.922917,64.885417],[28.927083,64.885417],[28.927083,64.889583],[28.922917,64.889583],[28.922917,64.885417]]]},"properties":{"radiance":6.59}},{"type":"Feature","geometry":{"type":"Polygon","coordinates":[[[28.889583,64.88125],[28.89375,64.88125],[28.89375,64.885417],[28.889583,64.885417],[28.889583,64.88125]]]},"properties":{"radiance":5.86}},{"type":"Feature","geometry":{"type":"Polygon","coordinates":[[[28.89375,64.88125],[28.897917,64.88125],[28.897917,64.885417],[28.89375,64.885417],[28.89375,64.88125]]]},"properties":{"radiance":7.82}},{"type":"Feature","geometry":{"type":"Polygon","coordinates":[[[28.897917,64.88125],[28.902083,64.88125],[28.902083,64.885417],[28.897917,64.885417],[28.897917,64.88125]]]},"properties":{"radiance":8.07}},{"type":"Feature","geometry":{"type":"Polygon","coordinates":[[[28.902083,64.88125],[28.90625,64.88125],[28.90625,64.885417],[28.902083,64.885417],[28.902083,64.88125]]]},"properties":{"radiance":8.82}},{"type":"Feature","geometry":{"type":"Polygon","coordinates":[[[28.90625,64.88125],[28.910417,64.88125],[28.910417,64.885417],[28.90625,64.885417],[28.90625,64.88125]]]},"properties":{"radiance":9.23}},{"type":"Feature","geometry":{"type":"Polygon","coordinates":[[[28.910417,64.88125],[28.914583,64.88125],[28.914583,64.885417],[28.910417,64.885417],[28.910417,64.88125]]]},"properties":{"radiance":9.04}},{"type":"Feature","geometry":{"type":"Polygon","coordinates":[[[28.914583,64.88125],[28.91875,64.88125],[28.91875,64.885417],[28.914583,64.885417],[28.914583,64.88125]]]},"properties":{"radiance":11.48}},{"type":"Feature","geometry":{"type":"Polygon","coordinates":[[[28.91875,64.88125],[28.922917,64.88125],[28.922917,64.885417],[28.91875,64.885417],[28.91875,64.88125]]]},"properties":{"radiance":8.52}},{"type":"Feature","geometry":{"type":"Polygon","coordinates":[[[28.922917,64.88125],[28.927083,64.88125],[28.927083,64.885417],[28.922917,64.885417],[28.922917,64.88125]]]},"properties":{"radiance":9.55}},{"type":"Feature","geometry":{"type":"Polygon","coordinates":[[[28.927083,64.88125],[28.93125,64.88125],[28.93125,64.885417],[28.927083,64.885417],[28.927083,64.88125]]]},"properties":{"radiance":6.33}},{"type":"Feature","geometry":{"type":"Polygon","coordinates":[[[28.93125,64.88125],[28.935417,64.88125],[28.935417,64.885417],[28.93125,64.885417],[28.93125,64.88125]]]},"properties":{"radiance":6.6}},{"type":"Feature","geometry":{"type":"Polygon","coordinates":[[[28.935417,64.88125],[28.939583,64.88125],[28.939583,64.885417],[28.935417,64.885417],[28.935417,64.88125]]]},"properties":{"radiance":6.41}},{"type":"Feature","geometry":{"type":"Polygon","coordinates":[[[28.897917,64.877083],[28.902083,64.877083],[28.902083,64.88125],[28.897917,64.88125],[28.897917,64.877083]]]},"properties":{"radiance":5.4}},{"type":"Feature","geometry":{"type":"Polygon","coordinates":[[[28.91875,64.877083],[28.922917,64.877083],[28.922917,64.88125],[28.91875,64.88125],[28.91875,64.877083]]]},"properties":{"radiance":5.61}},{"type":"Feature","geometry":{"type":"Polygon","coordinates":[[[28.922917,64.877083],[28.927083,64.877083],[28.927083,64.88125],[28.922917,64.88125],[28.922917,64.877083]]]},"properties":{"radiance":6.15}},{"type":"Feature","geometry":{"type":"Polygon","coordinates":[[[28.927083,64.877083],[28.93125,64.877083],[28.93125,64.88125],[28.927083,64.88125],[28.927083,64.877083]]]},"properties":{"radiance":7.76}},{"type":"Feature","geometry":{"type":"Polygon","coordinates":[[[28.93125,64.877083],[28.935417,64.877083],[28.935417,64.88125],[28.93125,64.88125],[28.93125,64.877083]]]},"properties":{"radiance":7.64}},{"type":"Feature","geometry":{"type":"Polygon","coordinates":[[[28.935417,64.877083],[28.939583,64.877083],[28.939583,64.88125],[28.935417,64.88125],[28.935417,64.877083]]]},"properties":{"radiance":10.42}},{"type":"Feature","geometry":{"type":"Polygon","coordinates":[[[28.939583,64.877083],[28.94375,64.877083],[28.94375,64.88125],[28.939583,64.88125],[28.939583,64.877083]]]},"properties":{"radiance":8.75}},{"type":"Feature","geometry":{"type":"Polygon","coordinates":[[[28.94375,64.877083],[28.947917,64.877083],[28.947917,64.88125],[28.94375,64.88125],[28.94375,64.877083]]]},"properties":{"radiance":8.72}},{"type":"Feature","geometry":{"type":"Polygon","coordinates":[[[28.947917,64.877083],[28.952083,64.877083],[28.952083,64.88125],[28.947917,64.88125],[28.947917,64.877083]]]},"properties":{"radiance":7.3}},{"type":"Feature","geometry":{"type":"Polygon","coordinates":[[[28.94375,64.872917],[28.947917,64.872917],[28.947917,64.877083],[28.94375,64.877083],[28.94375,64.872917]]]},"properties":{"radiance":5.9}},{"type":"Feature","geometry":{"type":"Polygon","coordinates":[[[28.947917,64.872917],[28.952083,64.872917],[28.952083,64.877083],[28.947917,64.877083],[28.947917,64.872917]]]},"properties":{"radiance":5.25}},{"type":"Feature","geometry":{"type":"Polygon","coordinates":[[[28.95625,64.85625],[28.960417,64.85625],[28.960417,64.860417],[28.95625,64.860417],[28.95625,64.85625]]]},"properties":{"radiance":5.79}},{"type":"Feature","geometry":{"type":"Polygon","coordinates":[[[28.960417,64.85625],[28.964583,64.85625],[28.964583,64.860417],[28.960417,64.860417],[28.960417,64.85625]]]},"properties":{"radiance":5.09}},{"type":"Feature","geometry":{"type":"Polygon","coordinates":[[[28.235417,64.747917],[28.239583,64.747917],[28.239583,64.752083],[28.235417,64.752083],[28.235417,64.747917]]]},"properties":{"radiance":5.68}},{"type":"Feature","geometry":{"type":"Polygon","coordinates":[[[28.239583,64.747917],[28.24375,64.747917],[28.24375,64.752083],[28.239583,64.752083],[28.239583,64.747917]]]},"properties":{"radiance":6.95}},{"type":"Feature","geometry":{"type":"Polygon","coordinates":[[[28.235417,64.74375],[28.239583,64.74375],[28.239583,64.747917],[28.235417,64.747917],[28.235417,64.74375]]]},"properties":{"radiance":8.74}},{"type":"Feature","geometry":{"type":"Polygon","coordinates":[[[28.239583,64.74375],[28.24375,64.74375],[28.24375,64.747917],[28.239583,64.747917],[28.239583,64.74375]]]},"properties":{"radiance":9.53}},{"type":"Feature","geometry":{"type":"Polygon","coordinates":[[[28.247917,64.74375],[28.252083,64.74375],[28.252083,64.747917],[28.247917,64.747917],[28.247917,64.74375]]]},"properties":{"radiance":5.15}},{"type":"Feature","geometry":{"type":"Polygon","coordinates":[[[28.23125,64.739583],[28.235417,64.739583],[28.235417,64.74375],[28.23125,64.74375],[28.23125,64.739583]]]},"properties":{"radiance":5.77}},{"type":"Feature","geometry":{"type":"Polygon","coordinates":[[[28.235417,64.739583],[28.239583,64.739583],[28.239583,64.74375],[28.235417,64.74375],[28.235417,64.739583]]]},"properties":{"radiance":5.46}},{"type":"Feature","geometry":{"type":"Polygon","coordinates":[[[28.239583,64.739583],[28.24375,64.739583],[28.24375,64.74375],[28.239583,64.74375],[28.239583,64.739583]]]},"properties":{"radiance":10.77}},{"type":"Feature","geometry":{"type":"Polygon","coordinates":[[[28.24375,64.739583],[28.247917,64.739583],[28.247917,64.74375],[28.24375,64.74375],[28.24375,64.739583]]]},"properties":{"radiance":5.53}},{"type":"Feature","geometry":{"type":"Polygon","coordinates":[[[28.460417,64.702083],[28.464583,64.702083],[28.464583,64.70625],[28.460417,64.70625],[28.460417,64.702083]]]},"properties":{"radiance":6.33}},{"type":"Feature","geometry":{"type":"Polygon","coordinates":[[[28.464583,64.702083],[28.46875,64.702083],[28.46875,64.70625],[28.464583,64.70625],[28.464583,64.702083]]]},"properties":{"radiance":5.91}},{"type":"Feature","geometry":{"type":"Polygon","coordinates":[[[28.45625,64.697917],[28.460417,64.697917],[28.460417,64.702083],[28.45625,64.702083],[28.45625,64.697917]]]},"properties":{"radiance":5.72}},{"type":"Feature","geometry":{"type":"Polygon","coordinates":[[[28.460417,64.697917],[28.464583,64.697917],[28.464583,64.702083],[28.460417,64.702083],[28.460417,64.697917]]]},"properties":{"radiance":5.24}},{"type":"Feature","geometry":{"type":"Polygon","coordinates":[[[28.464583,64.697917],[28.46875,64.697917],[28.46875,64.702083],[28.464583,64.702083],[28.464583,64.697917]]]},"properties":{"radiance":5.78}},{"type":"Feature","geometry":{"type":"Polygon","coordinates":[[[28.46875,64.697917],[28.472917,64.697917],[28.472917,64.702083],[28.46875,64.702083],[28.46875,64.697917]]]},"properties":{"radiance":5.74}},{"type":"Feature","geometry":{"type":"Polygon","coordinates":[[[28.464583,64.69375],[28.46875,64.69375],[28.46875,64.697917],[28.464583,64.697917],[28.464583,64.69375]]]},"properties":{"radiance":5.62}},{"type":"Feature","geometry":{"type":"Polygon","coordinates":[[[28.46875,64.69375],[28.472917,64.69375],[28.472917,64.697917],[28.46875,64.697917],[28.46875,64.69375]]]},"properties":{"radiance":6.64}},{"type":"Feature","geometry":{"type":"Polygon","coordinates":[[[28.46875,64.689583],[28.472917,64.689583],[28.472917,64.69375],[28.46875,64.69375],[28.46875,64.689583]]]},"properties":{"radiance":6.78}},{"type":"Feature","geometry":{"type":"Polygon","coordinates":[[[28.472917,64.689583],[28.477083,64.689583],[28.477083,64.69375],[28.472917,64.69375],[28.472917,64.689583]]]},"properties":{"radiance":5.07}},{"type":"Feature","geometry":{"type":"Polygon","coordinates":[[[28.46875,64.685417],[28.472917,64.685417],[28.472917,64.689583],[28.46875,64.689583],[28.46875,64.685417]]]},"properties":{"radiance":5.44}},{"type":"Feature","geometry":{"type":"Polygon","coordinates":[[[28.48125,64.685417],[28.485417,64.685417],[28.485417,64.689583],[28.48125,64.689583],[28.48125,64.685417]]]},"properties":{"radiance":6.47}},{"type":"Feature","geometry":{"type":"Polygon","coordinates":[[[28.46875,64.68125],[28.472917,64.68125],[28.472917,64.685417],[28.46875,64.685417],[28.46875,64.68125]]]},"properties":{"radiance":6.38}},{"type":"Feature","geometry":{"type":"Polygon","coordinates":[[[28.472917,64.68125],[28.477083,64.68125],[28.477083,64.685417],[28.472917,64.685417],[28.472917,64.68125]]]},"properties":{"radiance":8.59}},{"type":"Feature","geometry":{"type":"Polygon","coordinates":[[[28.477083,64.68125],[28.48125,64.68125],[28.48125,64.685417],[28.477083,64.685417],[28.477083,64.68125]]]},"properties":{"radiance":8.82}},{"type":"Feature","geometry":{"type":"Polygon","coordinates":[[[28.485417,64.68125],[28.489583,64.68125],[28.489583,64.685417],[28.485417,64.685417],[28.485417,64.68125]]]},"properties":{"radiance":6.59}},{"type":"Feature","geometry":{"type":"Polygon","coordinates":[[[28.489583,64.68125],[28.49375,64.68125],[28.49375,64.685417],[28.489583,64.685417],[28.489583,64.68125]]]},"properties":{"radiance":5.63}},{"type":"Feature","geometry":{"type":"Polygon","coordinates":[[[28.49375,64.68125],[28.497917,64.68125],[28.497917,64.685417],[28.49375,64.685417],[28.49375,64.68125]]]},"properties":{"radiance":6.53}},{"type":"Feature","geometry":{"type":"Polygon","coordinates":[[[28.497917,64.68125],[28.502083,64.68125],[28.502083,64.685417],[28.497917,64.685417],[28.497917,64.68125]]]},"properties":{"radiance":6.44}},{"type":"Feature","geometry":{"type":"Polygon","coordinates":[[[28.464583,64.677083],[28.46875,64.677083],[28.46875,64.68125],[28.464583,64.68125],[28.464583,64.677083]]]},"properties":{"radiance":7.38}},{"type":"Feature","geometry":{"type":"Polygon","coordinates":[[[28.46875,64.677083],[28.472917,64.677083],[28.472917,64.68125],[28.46875,64.68125],[28.46875,64.677083]]]},"properties":{"radiance":8.8}},{"type":"Feature","geometry":{"type":"Polygon","coordinates":[[[28.472917,64.677083],[28.477083,64.677083],[28.477083,64.68125],[28.472917,64.68125],[28.472917,64.677083]]]},"properties":{"radiance":9.12}},{"type":"Feature","geometry":{"type":"Polygon","coordinates":[[[28.477083,64.677083],[28.48125,64.677083],[28.48125,64.68125],[28.477083,64.68125],[28.477083,64.677083]]]},"properties":{"radiance":9.14}},{"type":"Feature","geometry":{"type":"Polygon","coordinates":[[[28.48125,64.677083],[28.485417,64.677083],[28.485417,64.68125],[28.48125,64.68125],[28.48125,64.677083]]]},"properties":{"radiance":9.35}},{"type":"Feature","geometry":{"type":"Polygon","coordinates":[[[28.485417,64.677083],[28.489583,64.677083],[28.489583,64.68125],[28.485417,64.68125],[28.485417,64.677083]]]},"properties":{"radiance":9.8}},{"type":"Feature","geometry":{"type":"Polygon","coordinates":[[[28.489583,64.677083],[28.49375,64.677083],[28.49375,64.68125],[28.489583,64.68125],[28.489583,64.677083]]]},"properties":{"radiance":10.5}},{"type":"Feature","geometry":{"type":"Polygon","coordinates":[[[28.49375,64.677083],[28.497917,64.677083],[28.497917,64.68125],[28.49375,64.68125],[28.49375,64.677083]]]},"properties":{"radiance":16.49}},{"type":"Feature","geometry":{"type":"Polygon","coordinates":[[[28.497917,64.677083],[28.502083,64.677083],[28.502083,64.68125],[28.497917,64.68125],[28.497917,64.677083]]]},"properties":{"radiance":8.86}},{"type":"Feature","geometry":{"type":"Polygon","coordinates":[[[28.502083,64.677083],[28.50625,64.677083],[28.50625,64.68125],[28.502083,64.68125],[28.502083,64.677083]]]},"properties":{"radiance":6.58}},{"type":"Feature","geometry":{"type":"Polygon","coordinates":[[[29.985417,64.547917],[29.989583,64.547917],[29.989583,64.552083],[29.985417,64.552083],[29.985417,64.547917]]]},"properties":{"radiance":6.77}},{"type":"Feature","geometry":{"type":"Polygon","coordinates":[[[29.989583,64.547917],[29.99375,64.547917],[29.99375,64.552083],[29.989583,64.552083],[29.989583,64.547917]]]},"properties":{"radiance":5.42}},{"type":"Feature","geometry":{"type":"Polygon","coordinates":[[[29.947917,64.54375],[29.952083,64.54375],[29.952083,64.547917],[29.947917,64.547917],[29.947917,64.54375]]]},"properties":{"radiance":6.74}},{"type":"Feature","geometry":{"type":"Polygon","coordinates":[[[29.952083,64.54375],[29.95625,64.54375],[29.95625,64.547917],[29.952083,64.547917],[29.952083,64.54375]]]},"properties":{"radiance":8.29}},{"type":"Feature","geometry":{"type":"Polygon","coordinates":[[[29.95625,64.54375],[29.960417,64.54375],[29.960417,64.547917],[29.95625,64.547917],[29.95625,64.54375]]]},"properties":{"radiance":7.9}},{"type":"Feature","geometry":{"type":"Polygon","coordinates":[[[29.960417,64.54375],[29.964583,64.54375],[29.964583,64.547917],[29.960417,64.547917],[29.960417,64.54375]]]},"properties":{"radiance":8.47}},{"type":"Feature","geometry":{"type":"Polygon","coordinates":[[[29.964583,64.54375],[29.96875,64.54375],[29.96875,64.547917],[29.964583,64.547917],[29.964583,64.54375]]]},"properties":{"radiance":5.72}},{"type":"Feature","geometry":{"type":"Polygon","coordinates":[[[29.96875,64.54375],[29.972917,64.54375],[29.972917,64.547917],[29.96875,64.547917],[29.96875,64.54375]]]},"properties":{"radiance":8.21}},{"type":"Feature","geometry":{"type":"Polygon","coordinates":[[[29.972917,64.54375],[29.977083,64.54375],[29.977083,64.547917],[29.972917,64.547917],[29.972917,64.54375]]]},"properties":{"radiance":12.28}},{"type":"Feature","geometry":{"type":"Polygon","coordinates":[[[29.977083,64.54375],[29.98125,64.54375],[29.98125,64.547917],[29.977083,64.547917],[29.977083,64.54375]]]},"properties":{"radiance":14.36}},{"type":"Feature","geometry":{"type":"Polygon","coordinates":[[[29.98125,64.54375],[29.985417,64.54375],[29.985417,64.547917],[29.98125,64.547917],[29.98125,64.54375]]]},"properties":{"radiance":16.69}},{"type":"Feature","geometry":{"type":"Polygon","coordinates":[[[29.985417,64.54375],[29.989583,64.54375],[29.989583,64.547917],[29.985417,64.547917],[29.985417,64.54375]]]},"properties":{"radiance":16.24}},{"type":"Feature","geometry":{"type":"Polygon","coordinates":[[[29.989583,64.54375],[29.99375,64.54375],[29.99375,64.547917],[29.989583,64.547917],[29.989583,64.54375]]]},"properties":{"radiance":13.56}},{"type":"Feature","geometry":{"type":"Polygon","coordinates":[[[29.939583,64.539583],[29.94375,64.539583],[29.94375,64.54375],[29.939583,64.54375],[29.939583,64.539583]]]},"properties":{"radiance":5.5}},{"type":"Feature","geometry":{"type":"Polygon","coordinates":[[[29.94375,64.539583],[29.947917,64.539583],[29.947917,64.54375],[29.94375,64.54375],[29.94375,64.539583]]]},"properties":{"radiance":5.22}},{"type":"Feature","geometry":{"type":"Polygon","coordinates":[[[29.947917,64.539583],[29.952083,64.539583],[29.952083,64.54375],[29.947917,64.54375],[29.947917,64.539583]]]},"properties":{"radiance":8.38}},{"type":"Feature","geometry":{"type":"Polygon","coordinates":[[[29.952083,64.539583],[29.95625,64.539583],[29.95625,64.54375],[29.952083,64.54375],[29.952083,64.539583]]]},"properties":{"radiance":26.66}},{"type":"Feature","geometry":{"type":"Polygon","coordinates":[[[29.95625,64.539583],[29.960417,64.539583],[29.960417,64.54375],[29.95625,64.54375],[29.95625,64.539583]]]},"properties":{"radiance":9.68}},{"type":"Feature","geometry":{"type":"Polygon","coordinates":[[[29.96875,64.539583],[29.972917,64.539583],[29.972917,64.54375],[29.96875,64.54375],[29.96875,64.539583]]]},"properties":{"radiance":7.92}},{"type":"Feature","geometry":{"type":"Polygon","coordinates":[[[29.460417,64.152083],[29.464583,64.152083],[29.464583,64.15625],[29.460417,64.15625],[29.460417,64.152083]]]},"properties":{"radiance":5.27}},{"type":"Feature","geometry":{"type":"Polygon","coordinates":[[[29.447917,64.147917],[29.452083,64.147917],[29.452083,64.152083],[29.447917,64.152083],[29.447917,64.147917]]]},"properties":{"radiance":6.99}},{"type":"Feature","geometry":{"type":"Polygon","coordinates":[[[29.452083,64.147917],[29.45625,64.147917],[29.45625,64.152083],[29.452083,64.152083],[29.452083,64.147917]]]},"properties":{"radiance":7.29}},{"type":"Feature","geometry":{"type":"Polygon","coordinates":[[[29.45625,64.147917],[29.460417,64.147917],[29.460417,64.152083],[29.45625,64.152083],[29.45625,64.147917]]]},"properties":{"radiance":97.91}},{"type":"Feature","geometry":{"type":"Polygon","coordinates":[[[29.460417,64.147917],[29.464583,64.147917],[29.464583,64.152083],[29.460417,64.152083],[29.460417,64.147917]]]},"properties":{"radiance":97.58}},{"type":"Feature","geometry":{"type":"Polygon","coordinates":[[[29.464583,64.147917],[29.46875,64.147917],[29.46875,64.152083],[29.464583,64.152083],[29.464583,64.147917]]]},"properties":{"radiance":68.08}},{"type":"Feature","geometry":{"type":"Polygon","coordinates":[[[29.46875,64.147917],[29.472917,64.147917],[29.472917,64.152083],[29.46875,64.152083],[29.46875,64.147917]]]},"properties":{"radiance":45.82}},{"type":"Feature","geometry":{"type":"Polygon","coordinates":[[[29.452083,64.14375],[29.45625,64.14375],[29.45625,64.147917],[29.452083,64.147917],[29.452083,64.14375]]]},"properties":{"radiance":123.14}},{"type":"Feature","geometry":{"type":"Polygon","coordinates":[[[29.45625,64.14375],[29.460417,64.14375],[29.460417,64.147917],[29.45625,64.147917],[29.45625,64.14375]]]},"properties":{"radiance":138.29}},{"type":"Feature","geometry":{"type":"Polygon","coordinates":[[[29.460417,64.14375],[29.464583,64.14375],[29.464583,64.147917],[29.460417,64.147917],[29.460417,64.14375]]]},"properties":{"radiance":140.47}},{"type":"Feature","geometry":{"type":"Polygon","coordinates":[[[29.464583,64.14375],[29.46875,64.14375],[29.46875,64.147917],[29.464583,64.147917],[29.464583,64.14375]]]},"properties":{"radiance":126.18}},{"type":"Feature","geometry":{"type":"Polygon","coordinates":[[[29.46875,64.14375],[29.472917,64.14375],[29.472917,64.147917],[29.46875,64.147917],[29.46875,64.14375]]]},"properties":{"radiance":59.39}},{"type":"Feature","geometry":{"type":"Polygon","coordinates":[[[29.452083,64.139583],[29.45625,64.139583],[29.45625,64.14375],[29.452083,64.14375],[29.452083,64.139583]]]},"properties":{"radiance":5.63}},{"type":"Feature","geometry":{"type":"Polygon","coordinates":[[[29.45625,64.139583],[29.460417,64.139583],[29.460417,64.14375],[29.45625,64.14375],[29.45625,64.139583]]]},"properties":{"radiance":65.89}},{"type":"Feature","geometry":{"type":"Polygon","coordinates":[[[29.460417,64.139583],[29.464583,64.139583],[29.464583,64.14375],[29.460417,64.14375],[29.460417,64.139583]]]},"properties":{"radiance":101.79}},{"type":"Feature","geometry":{"type":"Polygon","coordinates":[[[29.464583,64.139583],[29.46875,64.139583],[29.46875,64.14375],[29.464583,64.14375],[29.464583,64.139583]]]},"properties":{"radiance":26.14}},{"type":"Feature","geometry":{"type":"Polygon","coordinates":[[[29.46875,64.139583],[29.472917,64.139583],[29.472917,64.14375],[29.46875,64.14375],[29.46875,64.139583]]]},"properties":{"radiance":7.11}},{"type":"Feature","geometry":{"type":"Polygon","coordinates":[[[29.472917,64.139583],[29.477083,64.139583],[29.477083,64.14375],[29.472917,64.14375],[29.472917,64.139583]]]},"properties":{"radiance":6.57}},{"type":"Feature","geometry":{"type":"Polygon","coordinates":[[[29.48125,64.139583],[29.485417,64.139583],[29.485417,64.14375],[29.48125,64.14375],[29.48125,64.139583]]]},"properties":{"radiance":5.24}},{"type":"Feature","geometry":{"type":"Polygon","coordinates":[[[29.485417,64.139583],[29.489583,64.139583],[29.489583,64.14375],[29.485417,64.14375],[29.485417,64.139583]]]},"properties":{"radiance":5.98}},{"type":"Feature","geometry":{"type":"Polygon","coordinates":[[[29.447917,64.135417],[29.452083,64.135417],[29.452083,64.139583],[29.447917,64.139583],[29.447917,64.135417]]]},"properties":{"radiance":5.79}},{"type":"Feature","geometry":{"type":"Polygon","coordinates":[[[29.452083,64.135417],[29.45625,64.135417],[29.45625,64.139583],[29.452083,64.139583],[29.452083,64.135417]]]},"properties":{"radiance":10.1}},{"type":"Feature","geometry":{"type":"Polygon","coordinates":[[[29.45625,64.135417],[29.460417,64.135417],[29.460417,64.139583],[29.45625,64.139583],[29.45625,64.135417]]]},"properties":{"radiance":6.38}},{"type":"Feature","geometry":{"type":"Polygon","coordinates":[[[29.460417,64.135417],[29.464583,64.135417],[29.464583,64.139583],[29.460417,64.139583],[29.460417,64.135417]]]},"properties":{"radiance":8.92}},{"type":"Feature","geometry":{"type":"Polygon","coordinates":[[[29.464583,64.135417],[29.46875,64.135417],[29.46875,64.139583],[29.464583,64.139583],[29.464583,64.135417]]]},"properties":{"radiance":11.52}},{"type":"Feature","geometry":{"type":"Polygon","coordinates":[[[29.46875,64.135417],[29.472917,64.135417],[29.472917,64.139583],[29.46875,64.139583],[29.46875,64.135417]]]},"properties":{"radiance":13.22}},{"type":"Feature","geometry":{"type":"Polygon","coordinates":[[[29.472917,64.135417],[29.477083,64.135417],[29.477083,64.139583],[29.472917,64.139583],[29.472917,64.135417]]]},"properties":{"radiance":41.19}},{"type":"Feature","geometry":{"type":"Polygon","coordinates":[[[29.477083,64.135417],[29.48125,64.135417],[29.48125,64.139583],[29.477083,64.139583],[29.477083,64.135417]]]},"properties":{"radiance":36.87}},{"type":"Feature","geometry":{"type":"Polygon","coordinates":[[[29.48125,64.135417],[29.485417,64.135417],[29.485417,64.139583],[29.48125,64.139583],[29.48125,64.135417]]]},"properties":{"radiance":58.94}},{"type":"Feature","geometry":{"type":"Polygon","coordinates":[[[29.485417,64.135417],[29.489583,64.135417],[29.489583,64.139583],[29.485417,64.139583],[29.485417,64.135417]]]},"properties":{"radiance":19.53}},{"type":"Feature","geometry":{"type":"Polygon","coordinates":[[[29.489583,64.135417],[29.49375,64.135417],[29.49375,64.139583],[29.489583,64.139583],[29.489583,64.135417]]]},"properties":{"radiance":38.07}},{"type":"Feature","geometry":{"type":"Polygon","coordinates":[[[29.49375,64.135417],[29.497917,64.135417],[29.497917,64.139583],[29.49375,64.139583],[29.49375,64.135417]]]},"properties":{"radiance":19.11}},{"type":"Feature","geometry":{"type":"Polygon","coordinates":[[[29.45625,64.13125],[29.460417,64.13125],[29.460417,64.135417],[29.45625,64.135417],[29.45625,64.13125]]]},"properties":{"radiance":7.2}},{"type":"Feature","geometry":{"type":"Polygon","coordinates":[[[29.460417,64.13125],[29.464583,64.13125],[29.464583,64.135417],[29.460417,64.135417],[29.460417,64.13125]]]},"properties":{"radiance":8.27}},{"type":"Feature","geometry":{"type":"Polygon","coordinates":[[[29.464583,64.13125],[29.46875,64.13125],[29.46875,64.135417],[29.464583,64.135417],[29.464583,64.13125]]]},"properties":{"radiance":13.63}},{"type":"Feature","geometry":{"type":"Polygon","coordinates":[[[29.46875,64.13125],[29.472917,64.13125],[29.472917,64.135417],[29.46875,64.135417],[29.46875,64.13125]]]},"properties":{"radiance":36.97}},{"type":"Feature","geometry":{"type":"Polygon","coordinates":[[[29.472917,64.13125],[29.477083,64.13125],[29.477083,64.135417],[29.472917,64.135417],[29.472917,64.13125]]]},"properties":{"radiance":49.73}},{"type":"Feature","geometry":{"type":"Polygon","coordinates":[[[29.477083,64.13125],[29.48125,64.13125],[29.48125,64.135417],[29.477083,64.135417],[29.477083,64.13125]]]},"properties":{"radiance":87.91}},{"type":"Feature","geometry":{"type":"Polygon","coordinates":[[[29.48125,64.13125],[29.485417,64.13125],[29.485417,64.135417],[29.48125,64.135417],[29.48125,64.13125]]]},"properties":{"radiance":88.35}},{"type":"Feature","geometry":{"type":"Polygon","coordinates":[[[29.485417,64.13125],[29.489583,64.13125],[29.489583,64.135417],[29.485417,64.135417],[29.485417,64.13125]]]},"properties":{"radiance":93.27}},{"type":"Feature","geometry":{"type":"Polygon","coordinates":[[[29.489583,64.13125],[29.49375,64.13125],[29.49375,64.135417],[29.489583,64.135417],[29.489583,64.13125]]]},"properties":{"radiance":36.54}},{"type":"Feature","geometry":{"type":"Polygon","coordinates":[[[29.49375,64.13125],[29.497917,64.13125],[29.497917,64.135417],[29.49375,64.135417],[29.49375,64.13125]]]},"properties":{"radiance":6.62}},{"type":"Feature","geometry":{"type":"Polygon","coordinates":[[[29.497917,64.13125],[29.502083,64.13125],[29.502083,64.135417],[29.497917,64.135417],[29.497917,64.13125]]]},"properties":{"radiance":6.19}},{"type":"Feature","geometry":{"type":"Polygon","coordinates":[[[29.502083,64.13125],[29.50625,64.13125],[29.50625,64.135417],[29.502083,64.135417],[29.502083,64.13125]]]},"properties":{"radiance":6.13}},{"type":"Feature","geometry":{"type":"Polygon","coordinates":[[[29.50625,64.13125],[29.510417,64.13125],[29.510417,64.135417],[29.50625,64.135417],[29.50625,64.13125]]]},"properties":{"radiance":7.51}},{"type":"Feature","geometry":{"type":"Polygon","coordinates":[[[29.510417,64.13125],[29.514583,64.13125],[29.514583,64.135417],[29.510417,64.135417],[29.510417,64.13125]]]},"properties":{"radiance":9.27}},{"type":"Feature","geometry":{"type":"Polygon","coordinates":[[[29.514583,64.13125],[29.51875,64.13125],[29.51875,64.135417],[29.514583,64.135417],[29.514583,64.13125]]]},"properties":{"radiance":9.37}},{"type":"Feature","geometry":{"type":"Polygon","coordinates":[[[29.51875,64.13125],[29.522917,64.13125],[29.522917,64.135417],[29.51875,64.135417],[29.51875,64.13125]]]},"properties":{"radiance":6.09}},{"type":"Feature","geometry":{"type":"Polygon","coordinates":[[[29.464583,64.127083],[29.46875,64.127083],[29.46875,64.13125],[29.464583,64.13125],[29.464583,64.127083]]]},"properties":{"radiance":8.41}},{"type":"Feature","geometry":{"type":"Polygon","coordinates":[[[29.46875,64.127083],[29.472917,64.127083],[29.472917,64.13125],[29.46875,64.13125],[29.46875,64.127083]]]},"properties":{"radiance":9.62}},{"type":"Feature","geometry":{"type":"Polygon","coordinates":[[[29.472917,64.127083],[29.477083,64.127083],[29.477083,64.13125],[29.472917,64.13125],[29.472917,64.127083]]]},"properties":{"radiance":9.37}},{"type":"Feature","geometry":{"type":"Polygon","coordinates":[[[29.477083,64.127083],[29.48125,64.127083],[29.48125,64.13125],[29.477083,64.13125],[29.477083,64.127083]]]},"properties":{"radiance":23.18}},{"type":"Feature","geometry":{"type":"Polygon","coordinates":[[[29.48125,64.127083],[29.485417,64.127083],[29.485417,64.13125],[29.48125,64.13125],[29.48125,64.127083]]]},"properties":{"radiance":17.78}},{"type":"Feature","geometry":{"type":"Polygon","coordinates":[[[29.485417,64.127083],[29.489583,64.127083],[29.489583,64.13125],[29.485417,64.13125],[29.485417,64.127083]]]},"properties":{"radiance":12.87}},{"type":"Feature","geometry":{"type":"Polygon","coordinates":[[[29.489583,64.127083],[29.49375,64.127083],[29.49375,64.13125],[29.489583,64.13125],[29.489583,64.127083]]]},"properties":{"radiance":6.79}},{"type":"Feature","geometry":{"type":"Polygon","coordinates":[[[29.49375,64.127083],[29.497917,64.127083],[29.497917,64.13125],[29.49375,64.13125],[29.49375,64.127083]]]},"properties":{"radiance":7.04}},{"type":"Feature","geometry":{"type":"Polygon","coordinates":[[[29.497917,64.127083],[29.502083,64.127083],[29.502083,64.13125],[29.497917,64.13125],[29.497917,64.127083]]]},"properties":{"radiance":6.85}},{"type":"Feature","geometry":{"type":"Polygon","coordinates":[[[29.502083,64.127083],[29.50625,64.127083],[29.50625,64.13125],[29.502083,64.13125],[29.502083,64.127083]]]},"properties":{"radiance":13.75}},{"type":"Feature","geometry":{"type":"Polygon","coordinates":[[[29.50625,64.127083],[29.510417,64.127083],[29.510417,64.13125],[29.50625,64.13125],[29.50625,64.127083]]]},"properties":{"radiance":29.99}},{"type":"Feature","geometry":{"type":"Polygon","coordinates":[[[29.510417,64.127083],[29.514583,64.127083],[29.514583,64.13125],[29.510417,64.13125],[29.510417,64.127083]]]},"properties":{"radiance":30.52}},{"type":"Feature","geometry":{"type":"Polygon","coordinates":[[[29.514583,64.127083],[29.51875,64.127083],[29.51875,64.13125],[29.514583,64.13125],[29.514583,64.127083]]]},"properties":{"radiance":20.96}},{"type":"Feature","geometry":{"type":"Polygon","coordinates":[[[29.51875,64.127083],[29.522917,64.127083],[29.522917,64.13125],[29.51875,64.13125],[29.51875,64.127083]]]},"properties":{"radiance":8.32}},{"type":"Feature","geometry":{"type":"Polygon","coordinates":[[[29.522917,64.127083],[29.527083,64.127083],[29.527083,64.13125],[29.522917,64.13125],[29.522917,64.127083]]]},"properties":{"radiance":8.28}},{"type":"Feature","geometry":{"type":"Polygon","coordinates":[[[29.527083,64.127083],[29.53125,64.127083],[29.53125,64.13125],[29.527083,64.13125],[29.527083,64.127083]]]},"properties":{"radiance":6.64}},{"type":"Feature","geometry":{"type":"Polygon","coordinates":[[[29.535417,64.127083],[29.539583,64.127083],[29.539583,64.13125],[29.535417,64.13125],[29.535417,64.127083]]]},"properties":{"radiance":6.12}},{"type":"Feature","geometry":{"type":"Polygon","coordinates":[[[29.477083,64.122917],[29.48125,64.122917],[29.48125,64.127083],[29.477083,64.127083],[29.477083,64.122917]]]},"properties":{"radiance":7.68}},{"type":"Feature","geometry":{"type":"Polygon","coordinates":[[[29.49375,64.122917],[29.497917,64.122917],[29.497917,64.127083],[29.49375,64.127083],[29.49375,64.122917]]]},"properties":{"radiance":5.62}},{"type":"Feature","geometry":{"type":"Polygon","coordinates":[[[29.497917,64.122917],[29.502083,64.122917],[29.502083,64.127083],[29.497917,64.127083],[29.497917,64.122917]]]},"properties":{"radiance":8.26}},{"type":"Feature","geometry":{"type":"Polygon","coordinates":[[[29.502083,64.122917],[29.50625,64.122917],[29.50625,64.127083],[29.502083,64.127083],[29.502083,64.122917]]]},"properties":{"radiance":14.78}},{"type":"Feature","geometry":{"type":"Polygon","coordinates":[[[29.50625,64.122917],[29.510417,64.122917],[29.510417,64.127083],[29.50625,64.127083],[29.50625,64.122917]]]},"properties":{"radiance":17.48}},{"type":"Feature","geometry":{"type":"Polygon","coordinates":[[[29.510417,64.122917],[29.514583,64.122917],[29.514583,64.127083],[29.510417,64.127083],[29.510417,64.122917]]]},"properties":{"radiance":14.97}},{"type":"Feature","geometry":{"type":"Polygon","coordinates":[[[29.514583,64.122917],[29.51875,64.122917],[29.51875,64.127083],[29.514583,64.127083],[29.514583,64.122917]]]},"properties":{"radiance":23.69}},{"type":"Feature","geometry":{"type":"Polygon","coordinates":[[[29.51875,64.122917],[29.522917,64.122917],[29.522917,64.127083],[29.51875,64.127083],[29.51875,64.122917]]]},"properties":{"radiance":6.46}},{"type":"Feature","geometry":{"type":"Polygon","coordinates":[[[29.522917,64.122917],[29.527083,64.122917],[29.527083,64.127083],[29.522917,64.127083],[29.522917,64.122917]]]},"properties":{"radiance":6.98}},{"type":"Feature","geometry":{"type":"Polygon","coordinates":[[[29.527083,64.122917],[29.53125,64.122917],[29.53125,64.127083],[29.527083,64.127083],[29.527083,64.122917]]]},"properties":{"radiance":7.4}},{"type":"Feature","geometry":{"type":"Polygon","coordinates":[[[29.53125,64.122917],[29.535417,64.122917],[29.535417,64.127083],[29.53125,64.127083],[29.53125,64.122917]]]},"properties":{"radiance":5.75}},{"type":"Feature","geometry":{"type":"Polygon","coordinates":[[[29.56875,64.122917],[29.572917,64.122917],[29.572917,64.127083],[29.56875,64.127083],[29.56875,64.122917]]]},"properties":{"radiance":5.68}},{"type":"Feature","geometry":{"type":"Polygon","coordinates":[[[29.572917,64.122917],[29.577083,64.122917],[29.577083,64.127083],[29.572917,64.127083],[29.572917,64.122917]]]},"properties":{"radiance":6.07}},{"type":"Feature","geometry":{"type":"Polygon","coordinates":[[[29.497917,64.11875],[29.502083,64.11875],[29.502083,64.122917],[29.497917,64.122917],[29.497917,64.11875]]]},"properties":{"radiance":7.09}},{"type":"Feature","geometry":{"type":"Polygon","coordinates":[[[29.502083,64.11875],[29.50625,64.11875],[29.50625,64.122917],[29.502083,64.122917],[29.502083,64.11875]]]},"properties":{"radiance":7.32}},{"type":"Feature","geometry":{"type":"Polygon","coordinates":[[[29.50625,64.11875],[29.510417,64.11875],[29.510417,64.122917],[29.50625,64.122917],[29.50625,64.11875]]]},"properties":{"radiance":5.65}},{"type":"Feature","geometry":{"type":"Polygon","coordinates":[[[29.510417,64.11875],[29.514583,64.11875],[29.514583,64.122917],[29.510417,64.122917],[29.510417,64.11875]]]},"properties":{"radiance":12.55}},{"type":"Feature","geometry":{"type":"Polygon","coordinates":[[[29.514583,64.11875],[29.51875,64.11875],[29.51875,64.122917],[29.514583,64.122917],[29.514583,64.11875]]]},"properties":{"radiance":5.88}},{"type":"Feature","geometry":{"type":"Polygon","coordinates":[[[29.51875,64.11875],[29.522917,64.11875],[29.522917,64.122917],[29.51875,64.122917],[29.51875,64.11875]]]},"properties":{"radiance":5.43}},{"type":"Feature","geometry":{"type":"Polygon","coordinates":[[[29.522917,64.11875],[29.527083,64.11875],[29.527083,64.122917],[29.522917,64.122917],[29.522917,64.11875]]]},"properties":{"radiance":5.13}},{"type":"Feature","geometry":{"type":"Polygon","coordinates":[[[29.527083,64.11875],[29.53125,64.11875],[29.53125,64.122917],[29.527083,64.122917],[29.527083,64.11875]]]},"properties":{"radiance":5.7}},{"type":"Feature","geometry":{"type":"Polygon","coordinates":[[[29.53125,64.11875],[29.535417,64.11875],[29.535417,64.122917],[29.53125,64.122917],[29.53125,64.11875]]]},"properties":{"radiance":5.56}},{"type":"Feature","geometry":{"type":"Polygon","coordinates":[[[29.539583,64.11875],[29.54375,64.11875],[29.54375,64.122917],[29.539583,64.122917],[29.539583,64.11875]]]},"properties":{"radiance":5.22}},{"type":"Feature","geometry":{"type":"Polygon","coordinates":[[[29.54375,64.11875],[29.547917,64.11875],[29.547917,64.122917],[29.54375,64.122917],[29.54375,64.11875]]]},"properties":{"radiance":5.4}}]}