{"type":"FeatureCollection","features":[{"type":"Feature","geometry":{"type":"Polygon","coordinates":[[[23.76875,62.252083],[23.772917,62.252083],[23.772917,62.25625],[23.76875,62.25625],[23.76875,62.252083]]]},"properties":{"radiance":5.94}},{"type":"Feature","geometry":{"type":"Polygon","coordinates":[[[23.772917,62.252083],[23.777083,62.252083],[23.777083,62.25625],[23.772917,62.25625],[23.772917,62.252083]]]},"properties":{"radiance":7.3}},{"type":"Feature","geometry":{"type":"Polygon","coordinates":[[[23.764583,62.247917],[23.76875,62.247917],[23.76875,62.252083],[23.764583,62.252083],[23.764583,62.247917]]]},"properties":{"radiance":5.4}},{"type":"Feature","geometry":{"type":"Polygon","coordinates":[[[23.76875,62.247917],[23.772917,62.247917],[23.772917,62.252083],[23.76875,62.252083],[23.76875,62.247917]]]},"properties":{"radiance":9.03}},{"type":"Feature","geometry":{"type":"Polygon","coordinates":[[[23.772917,62.247917],[23.777083,62.247917],[23.777083,62.252083],[23.772917,62.252083],[23.772917,62.247917]]]},"properties":{"radiance":10.13}},{"type":"Feature","geometry":{"type":"Polygon","coordinates":[[[23.777083,62.247917],[23.78125,62.247917],[23.78125,62.252083],[23.777083,62.252083],[23.777083,62.247917]]]},"properties":{"radiance":11.1}},{"type":"Feature","geometry":{"type":"Polygon","coordinates":[[[23.78125,62.247917],[23.785417,62.247917],[23.785417,62.252083],[23.78125,62.252083],[23.78125,62.247917]]]},"properties":{"radiance":5.52}},{"type":"Feature","geometry":{"type":"Polygon","coordinates":[[[23.747917,62.24375],[23.752083,62.24375],[23.752083,62.247917],[23.747917,62.247917],[23.747917,62.24375]]]},"properties":{"radiance":7.12}},{"type":"Feature","geometry":{"type":"Polygon","coordinates":[[[23.752083,62.24375],[23.75625,62.24375],[23.75625,62.247917],[23.752083,62.247917],[23.752083,62.24375]]]},"properties":{"radiance":5.73}},{"type":"Feature","geometry":{"type":"Polygon","coordinates":[[[23.75625,62.24375],[23.760417,62.24375],[23.760417,62.247917],[23.75625,62.247917],[23.75625,62.24375]]]},"properties":{"radiance":7.08}},{"type":"Feature","geometry":{"type":"Polygon","coordinates":[[[23.760417,62.24375],[23.764583,62.24375],[23.764583,62.247917],[23.760417,62.247917],[23.760417,62.24375]]]},"properties":{"radiance":8.07}},{"type":"Feature","geometry":{"type":"Polygon","coordinates":[[[23.764583,62.24375],[23.76875,62.24375],[23.76875,62.247917],[23.764583,62.247917],[23.764583,62.24375]]]},"properties":{"radiance":10.63}},{"type":"Feature","geometry":{"type":"Polygon","coordinates":[[[23.76875,62.24375],[23.772917,62.24375],[23.772917,62.247917],[23.76875,62.247917],[23.76875,62.24375]]]},"properties":{"radiance":10.45}},{"type":"Feature","geometry":{"type":"Polygon","coordinates":[[[23.772917,62.24375],[23.777083,62.24375],[23.777083,62.247917],[23.772917,62.247917],[23.772917,62.24375]]]},"properties":{"radiance":17.12}},{"type":"Feature","geometry":{"type":"Polygon","coordinates":[[[23.777083,62.24375],[23.78125,62.24375],[23.78125,62.247917],[23.777083,62.247917],[23.777083,62.24375]]]},"properties":{"radiance":9.05}},{"type":"Feature","geometry":{"type":"Polygon","coordinates":[[[23.78125,62.24375],[23.785417,62.24375],[23.785417,62.247917],[23.78125,62.247917],[23.78125,62.24375]]]},"properties":{"radiance":5.72}},{"type":"Feature","geometry":{"type":"Polygon","coordinates":[[[23.785417,62.24375],[23.789583,62.24375],[23.789583,62.247917],[23.785417,62.247917],[23.785417,62.24375]]]},"properties":{"radiance":5.04}},{"type":"Feature","geometry":{"type":"Polygon","coordinates":[[[23.752083,62.239583],[23.75625,62.239583],[23.75625,62.24375],[23.752083,62.24375],[23.752083,62.239583]]]},"properties":{"radiance":9.14}},{"type":"Feature","geometry":{"type":"Polygon","coordinates":[[[23.75625,62.239583],[23.760417,62.239583],[23.760417,62.24375],[23.75625,62.24375],[23.75625,62.239583]]]},"properties":{"radiance":9.09}},{"type":"Feature","geometry":{"type":"Polygon","coordinates":[[[23.760417,62.239583],[23.764583,62.239583],[23.764583,62.24375],[23.760417,62.24375],[23.760417,62.239583]]]},"properties":{"radiance":9.61}},{"type":"Feature","geometry":{"type":"Polygon","coordinates":[[[23.764583,62.239583],[23.76875,62.239583],[23.76875,62.24375],[23.764583,62.24375],[23.764583,62.239583]]]},"properties":{"radiance":12.39}},{"type":"Feature","geometry":{"type":"Polygon","coordinates":[[[23.76875,62.239583],[23.772917,62.239583],[23.772917,62.24375],[23.76875,62.24375],[23.76875,62.239583]]]},"properties":{"radiance":12.22}},{"type":"Feature","geometry":{"type":"Polygon","coordinates":[[[23.772917,62.239583],[23.777083,62.239583],[23.777083,62.24375],[23.772917,62.24375],[23.772917,62.239583]]]},"properties":{"radiance":11.73}},{"type":"Feature","geometry":{"type":"Polygon","coordinates":[[[23.777083,62.239583],[23.78125,62.239583],[23.78125,62.24375],[23.777083,62.24375],[23.777083,62.239583]]]},"properties":{"radiance":6.88}},{"type":"Feature","geometry":{"type":"Polygon","coordinates":[[[23.78125,62.239583],[23.785417,62.239583],[23.785417,62.24375],[23.78125,62.24375],[23.78125,62.239583]]]},"properties":{"radiance":6.31}},{"type":"Feature","geometry":{"type":"Polygon","coordinates":[[[23.785417,62.239583],[23.789583,62.239583],[23.789583,62.24375],[23.785417,62.24375],[23.785417,62.239583]]]},"properties":{"radiance":5.45}},{"type":"Feature","geometry":{"type":"Polygon","coordinates":[[[23.760417,62.235417],[23.764583,62.235417],[23.764583,62.239583],[23.760417,62.239583],[23.760417,62.235417]]]},"properties":{"radiance":5.3}},{"type":"Feature","geometry":{"type":"Polygon","coordinates":[[[23.764583,62.235417],[23.76875,62.235417],[23.76875,62.239583],[23.764583,62.239583],[23.764583,62.235417]]]},"properties":{"radiance":25.25}},{"type":"Feature","geometry":{"type":"Polygon","coordinates":[[[23.76875,62.235417],[23.772917,62.235417],[23.772917,62.239583],[23.76875,62.239583],[23.76875,62.235417]]]},"properties":{"radiance":10.13}},{"type":"Feature","geometry":{"type":"Polygon","coordinates":[[[23.772917,62.235417],[23.777083,62.235417],[23.777083,62.239583],[23.772917,62.239583],[23.772917,62.235417]]]},"properties":{"radiance":10.97}},{"type":"Feature","geometry":{"type":"Polygon","coordinates":[[[23.777083,62.235417],[23.78125,62.235417],[23.78125,62.239583],[23.777083,62.239583],[23.777083,62.235417]]]},"properties":{"radiance":6.5}},{"type":"Feature","geometry":{"type":"Polygon","coordinates":[[[23.78125,62.235417],[23.785417,62.235417],[23.785417,62.239583],[23.78125,62.239583],[23.78125,62.235417]]]},"properties":{"radiance":6.28}},{"type":"Feature","geometry":{"type":"Polygon","coordinates":[[[23.785417,62.235417],[23.789583,62.235417],[23.789583,62.239583],[23.785417,62.239583],[23.785417,62.235417]]]},"properties":{"radiance":5.52}},{"type":"Feature","geometry":{"type":"Polygon","coordinates":[[[23.802083,62.23125],[23.80625,62.23125],[23.80625,62.235417],[23.802083,62.235417],[23.802083,62.23125]]]},"properties":{"radiance":5.91}},{"type":"Feature","geometry":{"type":"Polygon","coordinates":[[[23.80625,62.23125],[23.810417,62.23125],[23.810417,62.235417],[23.80625,62.235417],[23.80625,62.23125]]]},"properties":{"radiance":5.74}},{"type":"Feature","geometry":{"type":"Polygon","coordinates":[[[23.810417,62.23125],[23.814583,62.23125],[23.814583,62.235417],[23.810417,62.235417],[23.810417,62.23125]]]},"properties":{"radiance":6.43}},{"type":"Feature","geometry":{"type":"Polygon","coordinates":[[[23.814583,62.23125],[23.81875,62.23125],[23.81875,62.235417],[23.814583,62.235417],[23.814583,62.23125]]]},"properties":{"radiance":5.12}},{"type":"Feature","geometry":{"type":"Polygon","coordinates":[[[24.472917,61.989583],[24.477083,61.989583],[24.477083,61.99375],[24.472917,61.99375],[24.472917,61.989583]]]},"properties":{"radiance":5.68}},{"type":"Feature","geometry":{"type":"Polygon","coordinates":[[[24.477083,61.989583],[24.48125,61.989583],[24.48125,61.99375],[24.477083,61.99375],[24.477083,61.989583]]]},"properties":{"radiance":6.33}},{"type":"Feature","geometry":{"type":"Polygon","coordinates":[[[24.05625,61.98125],[24.060417,61.98125],[24.060417,61.985417],[24.05625,61.985417],[24.05625,61.98125]]]},"properties":{"radiance":5.66}},{"type":"Feature","geometry":{"type":"Polygon","coordinates":[[[24.060417,61.98125],[24.064583,61.98125],[24.064583,61.985417],[24.060417,61.985417],[24.060417,61.98125]]]},"properties":{"radiance":6.59}},{"type":"Feature","geometry":{"type":"Polygon","coordinates":[[[24.064583,61.98125],[24.06875,61.98125],[24.06875,61.985417],[24.064583,61.985417],[24.064583,61.98125]]]},"properties":{"radiance":6.57}},{"type":"Feature","geometry":{"type":"Polygon","coordinates":[[[24.06875,61.98125],[24.072917,61.98125],[24.072917,61.985417],[24.06875,61.985417],[24.06875,61.98125]]]},"properties":{"radiance":6.99}},{"type":"Feature","geometry":{"type":"Polygon","coordinates":[[[24.052083,61.977083],[24.05625,61.977083],[24.05625,61.98125],[24.052083,61.98125],[24.052083,61.977083]]]},"properties":{"radiance":7.12}},{"type":"Feature","geometry":{"type":"Polygon","coordinates":[[[24.05625,61.977083],[24.060417,61.977083],[24.060417,61.98125],[24.05625,61.98125],[24.05625,61.977083]]]},"properties":{"radiance":5.54}},{"type":"Feature","geometry":{"type":"Polygon","coordinates":[[[24.060417,61.977083],[24.064583,61.977083],[24.064583,61.98125],[24.060417,61.98125],[24.060417,61.977083]]]},"properties":{"radiance":8.84}},{"type":"Feature","geometry":{"type":"Polygon","coordinates":[[[24.064583,61.977083],[24.06875,61.977083],[24.06875,61.98125],[24.064583,61.98125],[24.064583,61.977083]]]},"properties":{"radiance":11.47}},{"type":"Feature","geometry":{"type":"Polygon","coordinates":[[[24.06875,61.977083],[24.072917,61.977083],[24.072917,61.98125],[24.06875,61.98125],[24.06875,61.977083]]]},"properties":{"radiance":11.62}},{"type":"Feature","geometry":{"type":"Polygon","coordinates":[[[24.064583,61.972917],[24.06875,61.972917],[24.06875,61.977083],[24.064583,61.977083],[24.064583,61.972917]]]},"properties":{"radiance":5.77}},{"type":"Feature","geometry":{"type":"Polygon","coordinates":[[[24.44375,61.902083],[24.447917,61.902083],[24.447917,61.90625],[24.44375,61.90625],[24.44375,61.902083]]]},"properties":{"radiance":5.78}},{"type":"Feature","geometry":{"type":"Polygon","coordinates":[[[24.447917,61.902083],[24.452083,61.902083],[24.452083,61.90625],[24.447917,61.90625],[24.447917,61.902083]]]},"properties":{"radiance":18.29}},{"type":"Feature","geometry":{"type":"Polygon","coordinates":[[[24.452083,61.902083],[24.45625,61.902083],[24.45625,61.90625],[24.452083,61.90625],[24.452083,61.902083]]]},"properties":{"radiance":13.88}},{"type":"Feature","geometry":{"type":"Polygon","coordinates":[[[23.710417,61.88125],[23.714583,61.88125],[23.714583,61.885417],[23.710417,61.885417],[23.710417,61.88125]]]},"properties":{"radiance":6.51}},{"type":"Feature","geometry":{"type":"Polygon","coordinates":[[[23.714583,61.88125],[23.71875,61.88125],[23.71875,61.885417],[23.714583,61.885417],[23.714583,61.88125]]]},"properties":{"radiance":5.6}},{"type":"Feature","geometry":{"type":"Polygon","coordinates":[[[23.71875,61.88125],[23.722917,61.88125],[23.722917,61.885417],[23.71875,61.885417],[23.71875,61.88125]]]},"properties":{"radiance":17.58}},{"type":"Feature","geometry":{"type":"Polygon","coordinates":[[[23.722917,61.88125],[23.727083,61.88125],[23.727083,61.885417],[23.722917,61.885417],[23.722917,61.88125]]]},"properties":{"radiance":29.68}},{"type":"Feature","geometry":{"type":"Polygon","coordinates":[[[23.702083,61.877083],[23.70625,61.877083],[23.70625,61.88125],[23.702083,61.88125],[23.702083,61.877083]]]},"properties":{"radiance":5.13}},{"type":"Feature","geometry":{"type":"Polygon","coordinates":[[[23.710417,61.877083],[23.714583,61.877083],[23.714583,61.88125],[23.710417,61.88125],[23.710417,61.877083]]]},"properties":{"radiance":7.51}},{"type":"Feature","geometry":{"type":"Polygon","coordinates":[[[23.714583,61.877083],[23.71875,61.877083],[23.71875,61.88125],[23.714583,61.88125],[23.714583,61.877083]]]},"properties":{"radiance":8.14}},{"type":"Feature","geometry":{"type":"Polygon","coordinates":[[[23.71875,61.877083],[23.722917,61.877083],[23.722917,61.88125],[23.71875,61.88125],[23.71875,61.877083]]]},"properties":{"radiance":7.53}},{"type":"Feature","geometry":{"type":"Polygon","coordinates":[[[23.722917,61.877083],[23.727083,61.877083],[23.727083,61.88125],[23.722917,61.88125],[23.722917,61.877083]]]},"properties":{"radiance":6.64}},{"type":"Feature","geometry":{"type":"Polygon","coordinates":[[[23.714583,61.872917],[23.71875,61.872917],[23.71875,61.877083],[23.714583,61.877083],[23.714583,61.872917]]]},"properties":{"radiance":20.57}},{"type":"Feature","geometry":{"type":"Polygon","coordinates":[[[23.71875,61.872917],[23.722917,61.872917],[23.722917,61.877083],[23.71875,61.877083],[23.71875,61.872917]]]},"properties":{"radiance":7.47}},{"type":"Feature","geometry":{"type":"Polygon","coordinates":[[[23.722917,61.872917],[23.727083,61.872917],[23.727083,61.877083],[23.722917,61.877083],[23.722917,61.872917]]]},"properties":{"radiance":6.13}},{"type":"Feature","geometry":{"type":"Polygon","coordinates":[[[23.727083,61.872917],[23.73125,61.872917],[23.73125,61.877083],[23.727083,61.877083],[23.727083,61.872917]]]},"properties":{"radiance":5.11}},{"type":"Feature","geometry":{"type":"Polygon","coordinates":[[[23.73125,61.872917],[23.735417,61.872917],[23.735417,61.877083],[23.73125,61.877083],[23.73125,61.872917]]]},"properties":{"radiance":5.22}},{"type":"Feature","geometry":{"type":"Polygon","coordinates":[[[23.71875,61.86875],[23.722917,61.86875],[23.722917,61.872917],[23.71875,61.872917],[23.71875,61.86875]]]},"properties":{"radiance":5.4}},{"type":"Feature","geometry":{"type":"Polygon","coordinates":[[[23.722917,61.86875],[23.727083,61.86875],[23.727083,61.872917],[23.722917,61.872917],[23.722917,61.86875]]]},"properties":{"radiance":5.28}},{"type":"Feature","geometry":{"type":"Polygon","coordinates":[[[23.727083,61.86875],[23.73125,61.86875],[23.73125,61.872917],[23.727083,61.872917],[23.727083,61.86875]]]},"properties":{"radiance":6.12}},{"type":"Feature","geometry":{"type":"Polygon","coordinates":[[[23.71875,61.864583],[23.722917,61.864583],[23.722917,61.86875],[23.71875,61.86875],[23.71875,61.864583]]]},"properties":{"radiance":5.06}},{"type":"Feature","geometry":{"type":"Polygon","coordinates":[[[23.727083,61.864583],[23.73125,61.864583],[23.73125,61.86875],[23.727083,61.86875],[23.727083,61.864583]]]},"properties":{"radiance":5.49}},{"type":"Feature","geometry":{"type":"Polygon","coordinates":[[[23.722917,61.860417],[23.727083,61.860417],[23.727083,61.864583],[23.722917,61.864583],[23.722917,61.860417]]]},"properties":{"radiance":5.11}},{"type":"Feature","geometry":{"type":"Polygon","coordinates":[[[24.372917,61.810417],[24.377083,61.810417],[24.377083,61.814583],[24.372917,61.814583],[24.372917,61.810417]]]},"properties":{"radiance":16.23}},{"type":"Feature","geometry":{"type":"Polygon","coordinates":[[[24.377083,61.810417],[24.38125,61.810417],[24.38125,61.814583],[24.377083,61.814583],[24.377083,61.810417]]]},"properties":{"radiance":19.53}},{"type":"Feature","geometry":{"type":"Polygon","coordinates":[[[24.38125,61.810417],[24.385417,61.810417],[24.385417,61.814583],[24.38125,61.814583],[24.38125,61.810417]]]},"properties":{"radiance":22.5}},{"type":"Feature","geometry":{"type":"Polygon","coordinates":[[[24.385417,61.810417],[24.389583,61.810417],[24.389583,61.814583],[24.385417,61.814583],[24.385417,61.810417]]]},"properties":{"radiance":9.52}},{"type":"Feature","geometry":{"type":"Polygon","coordinates":[[[24.372917,61.80625],[24.377083,61.80625],[24.377083,61.810417],[24.372917,61.810417],[24.372917,61.80625]]]},"properties":{"radiance":20.37}},{"type":"Feature","geometry":{"type":"Polygon","coordinates":[[[24.377083,61.80625],[24.38125,61.80625],[24.38125,61.810417],[24.377083,61.810417],[24.377083,61.80625]]]},"properties":{"radiance":18.19}},{"type":"Feature","geometry":{"type":"Polygon","coordinates":[[[24.38125,61.80625],[24.385417,61.80625],[24.385417,61.810417],[24.38125,61.810417],[24.38125,61.80625]]]},"properties":{"radiance":37.53}},{"type":"Feature","geometry":{"type":"Polygon","coordinates":[[[24.385417,61.80625],[24.389583,61.80625],[24.389583,61.810417],[24.385417,61.810417],[24.385417,61.80625]]]},"properties":{"radiance":17.02}},{"type":"Feature","geometry":{"type":"Polygon","coordinates":[[[24.389583,61.80625],[24.39375,61.80625],[24.39375,61.810417],[24.389583,61.810417],[24.389583,61.80625]]]},"properties":{"radiance":14.36}},{"type":"Feature","geometry":{"type":"Polygon","coordinates":[[[24.39375,61.80625],[24.397917,61.80625],[24.397917,61.810417],[24.39375,61.810417],[24.39375,61.80625]]]},"properties":{"radiance":5.14}},{"type":"Feature","geometry":{"type":"Polygon","coordinates":[[[24.352083,61.69375],[24.35625,61.69375],[24.35625,61.697917],[24.352083,61.697917],[24.352083,61.69375]]]},"properties":{"radiance":5.74}},{"type":"Feature","geometry":{"type":"Polygon","coordinates":[[[24.35625,61.69375],[24.360417,61.69375],[24.360417,61.697917],[24.35625,61.697917],[24.35625,61.69375]]]},"properties":{"radiance":5.62}}]}