{"type":"FeatureCollection","features":[{"type":"Feature","geometry":{"type":"Polygon","coordinates":[[[25.53125,62.01875],[25.535417,62.01875],[25.535417,62.022917],[25.53125,62.022917],[25.53125,62.01875]]]},"properties":{"radiance":6.79}},{"type":"Feature","geometry":{"type":"Polygon","coordinates":[[[25.535417,62.01875],[25.539583,62.01875],[25.539583,62.022917],[25.535417,62.022917],[25.535417,62.01875]]]},"properties":{"radiance":5.37}},{"type":"Feature","geometry":{"type":"Polygon","coordinates":[[[25.547917,62.01875],[25.552083,62.01875],[25.552083,62.022917],[25.547917,62.022917],[25.547917,62.01875]]]},"properties":{"radiance":11.12}},{"type":"Feature","geometry":{"type":"Polygon","coordinates":[[[25.552083,62.01875],[25.55625,62.01875],[25.55625,62.022917],[25.552083,62.022917],[25.552083,62.01875]]]},"properties":{"radiance":10.45}},{"type":"Feature","geometry":{"type":"Polygon","coordinates":[[[25.55625,62.01875],[25.560417,62.01875],[25.560417,62.022917],[25.55625,62.022917],[25.55625,62.01875]]]},"properties":{"radiance":13.07}},{"type":"Feature","geometry":{"type":"Polygon","coordinates":[[[25.560417,62.01875],[25.564583,62.01875],[25.564583,62.022917],[25.560417,62.022917],[25.560417,62.01875]]]},"properties":{"radiance":10.23}},{"type":"Feature","geometry":{"type":"Polygon","coordinates":[[[25.564583,62.01875],[25.56875,62.01875],[25.56875,62.022917],[25.564583,62.022917],[25.564583,62.01875]]]},"properties":{"radiance":8.36}},{"type":"Feature","geometry":{"type":"Polygon","coordinates":[[[25.572917,62.01875],[25.577083,62.01875],[25.577083,62.022917],[25.572917,62.022917],[25.572917,62.01875]]]},"properties":{"radiance":5.17}},{"type":"Feature","geometry":{"type":"Polygon","coordinates":[[[25.577083,62.01875],[25.58125,62.01875],[25.58125,62.022917],[25.577083,62.022917],[25.577083,62.01875]]]},"properties":{"radiance":5.1}},{"type":"Feature","geometry":{"type":"Polygon","coordinates":[[[25.54375,62.014583],[25.547917,62.014583],[25.547917,62.01875],[25.54375,62.01875],[25.54375,62.014583]]]},"properties":{"radiance":16.68}},{"type":"Feature","geometry":{"type":"Polygon","coordinates":[[[25.547917,62.014583],[25.552083,62.014583],[25.552083,62.01875],[25.547917,62.01875],[25.547917,62.014583]]]},"properties":{"radiance":32.76}},{"type":"Feature","geometry":{"type":"Polygon","coordinates":[[[25.552083,62.014583],[25.55625,62.014583],[25.55625,62.01875],[25.552083,62.01875],[25.552083,62.014583]]]},"properties":{"radiance":30.62}},{"type":"Feature","geometry":{"type":"Polygon","coordinates":[[[25.55625,62.014583],[25.560417,62.014583],[25.560417,62.01875],[25.55625,62.01875],[25.55625,62.014583]]]},"properties":{"radiance":31.2}},{"type":"Feature","geometry":{"type":"Polygon","coordinates":[[[25.572917,62.014583],[25.577083,62.014583],[25.577083,62.01875],[25.572917,62.01875],[25.572917,62.014583]]]},"properties":{"radiance":5.49}},{"type":"Feature","geometry":{"type":"Polygon","coordinates":[[[25.54375,62.010417],[25.547917,62.010417],[25.547917,62.014583],[25.54375,62.014583],[25.54375,62.010417]]]},"properties":{"radiance":5.62}},{"type":"Feature","geometry":{"type":"Polygon","coordinates":[[[25.552083,62.010417],[25.55625,62.010417],[25.55625,62.014583],[25.552083,62.014583],[25.552083,62.010417]]]},"properties":{"radiance":9.13}},{"type":"Feature","geometry":{"type":"Polygon","coordinates":[[[25.55625,62.010417],[25.560417,62.010417],[25.560417,62.014583],[25.55625,62.014583],[25.55625,62.010417]]]},"properties":{"radiance":6.6}},{"type":"Feature","geometry":{"type":"Polygon","coordinates":[[[26.102083,61.747917],[26.10625,61.747917],[26.10625,61.752083],[26.102083,61.752083],[26.102083,61.747917]]]},"properties":{"radiance":6.24}},{"type":"Feature","geometry":{"type":"Polygon","coordinates":[[[26.10625,61.747917],[26.110417,61.747917],[26.110417,61.752083],[26.10625,61.752083],[26.10625,61.747917]]]},"properties":{"radiance":7.38}},{"type":"Feature","geometry":{"type":"Polygon","coordinates":[[[26.110417,61.747917],[26.114583,61.747917],[26.114583,61.752083],[26.110417,61.752083],[26.110417,61.747917]]]},"properties":{"radiance":7.12}},{"type":"Feature","geometry":{"type":"Polygon","coordinates":[[[26.114583,61.747917],[26.11875,61.747917],[26.11875,61.752083],[26.114583,61.752083],[26.114583,61.747917]]]},"properties":{"radiance":6.25}},{"type":"Feature","geometry":{"type":"Polygon","coordinates":[[[26.09375,61.74375],[26.097917,61.74375],[26.097917,61.747917],[26.09375,61.747917],[26.09375,61.74375]]]},"properties":{"radiance":6.27}},{"type":"Feature","geometry":{"type":"Polygon","coordinates":[[[26.097917,61.74375],[26.102083,61.74375],[26.102083,61.747917],[26.097917,61.747917],[26.097917,61.74375]]]},"properties":{"radiance":6.46}},{"type":"Feature","geometry":{"type":"Polygon","coordinates":[[[26.102083,61.74375],[26.10625,61.74375],[26.10625,61.747917],[26.102083,61.747917],[26.102083,61.74375]]]},"properties":{"radiance":6.11}},{"type":"Feature","geometry":{"type":"Polygon","coordinates":[[[26.10625,61.74375],[26.110417,61.74375],[26.110417,61.747917],[26.10625,61.747917],[26.10625,61.74375]]]},"properties":{"radiance":10.9}},{"type":"Feature","geometry":{"type":"Polygon","coordinates":[[[26.110417,61.74375],[26.114583,61.74375],[26.114583,61.747917],[26.110417,61.747917],[26.110417,61.74375]]]},"properties":{"radiance":10.53}},{"type":"Feature","geometry":{"type":"Polygon","coordinates":[[[26.114583,61.74375],[26.11875,61.74375],[26.11875,61.747917],[26.114583,61.747917],[26.114583,61.74375]]]},"properties":{"radiance":7.9}},{"type":"Feature","geometry":{"type":"Polygon","coordinates":[[[26.11875,61.74375],[26.122917,61.74375],[26.122917,61.747917],[26.11875,61.747917],[26.11875,61.74375]]]},"properties":{"radiance":6.21}},{"type":"Feature","geometry":{"type":"Polygon","coordinates":[[[26.09375,61.739583],[26.097917,61.739583],[26.097917,61.74375],[26.09375,61.74375],[26.09375,61.739583]]]},"properties":{"radiance":5.48}},{"type":"Feature","geometry":{"type":"Polygon","coordinates":[[[26.097917,61.739583],[26.102083,61.739583],[26.102083,61.74375],[26.097917,61.74375],[26.097917,61.739583]]]},"properties":{"radiance":6.58}},{"type":"Feature","geometry":{"type":"Polygon","coordinates":[[[26.102083,61.739583],[26.10625,61.739583],[26.10625,61.74375],[26.102083,61.74375],[26.102083,61.739583]]]},"properties":{"radiance":7.36}},{"type":"Feature","geometry":{"type":"Polygon","coordinates":[[[26.10625,61.739583],[26.110417,61.739583],[26.110417,61.74375],[26.10625,61.74375],[26.10625,61.739583]]]},"properties":{"radiance":6.9}},{"type":"Feature","geometry":{"type":"Polygon","coordinates":[[[26.110417,61.739583],[26.114583,61.739583],[26.114583,61.74375],[26.110417,61.74375],[26.110417,61.739583]]]},"properties":{"radiance":7.6}},{"type":"Feature","geometry":{"type":"Polygon","coordinates":[[[26.114583,61.739583],[26.11875,61.739583],[26.11875,61.74375],[26.114583,61.74375],[26.114583,61.739583]]]},"properties":{"radiance":8.63}},{"type":"Feature","geometry":{"type":"Polygon","coordinates":[[[26.11875,61.739583],[26.122917,61.739583],[26.122917,61.74375],[26.11875,61.74375],[26.11875,61.739583]]]},"properties":{"radiance":5.04}},{"type":"Feature","geometry":{"type":"Polygon","coordinates":[[[26.110417,61.735417],[26.114583,61.735417],[26.114583,61.739583],[26.110417,61.739583],[26.110417,61.735417]]]},"properties":{"radiance":5.57}},{"type":"Feature","geometry":{"type":"Polygon","coordinates":[[[26.060417,61.714583],[26.064583,61.714583],[26.064583,61.71875],[26.060417,61.71875],[26.060417,61.714583]]]},"properties":{"radiance":5.5}},{"type":"Feature","geometry":{"type":"Polygon","coordinates":[[[26.064583,61.714583],[26.06875,61.714583],[26.06875,61.71875],[26.064583,61.71875],[26.064583,61.714583]]]},"properties":{"radiance":6.16}},{"type":"Feature","geometry":{"type":"Polygon","coordinates":[[[26.00625,61.589583],[26.010417,61.589583],[26.010417,61.59375],[26.00625,61.59375],[26.00625,61.589583]]]},"properties":{"radiance":6.57}}]}