{"type":"FeatureCollection","features":[{"type":"Feature","geometry":{"type":"Polygon","coordinates":[[[27.614583,65.627083],[27.61875,65.627083],[27.61875,65.63125],[27.614583,65.63125],[27.614583,65.627083]]]},"properties":{"radiance":5.75}},{"type":"Feature","geometry":{"type":"Polygon","coordinates":[[[27.61875,65.627083],[27.622917,65.627083],[27.622917,65.63125],[27.61875,65.63125],[27.61875,65.627083]]]},"properties":{"radiance":29.58}},{"type":"Feature","geometry":{"type":"Polygon","coordinates":[[[27.622917,65.627083],[27.627083,65.627083],[27.627083,65.63125],[27.622917,65.63125],[27.622917,65.627083]]]},"properties":{"radiance":50.37}},{"type":"Feature","geometry":{"type":"Polygon","coordinates":[[[27.627083,65.627083],[27.63125,65.627083],[27.63125,65.63125],[27.627083,65.63125],[27.627083,65.627083]]]},"properties":{"radiance":11.68}},{"type":"Feature","geometry":{"type":"Polygon","coordinates":[[[27.63125,65.627083],[27.635417,65.627083],[27.635417,65.63125],[27.63125,65.63125],[27.63125,65.627083]]]},"properties":{"radiance":10.32}},{"type":"Feature","geometry":{"type":"Polygon","coordinates":[[[27.635417,65.627083],[27.639583,65.627083],[27.639583,65.63125],[27.635417,65.63125],[27.635417,65.627083]]]},"properties":{"radiance":8.29}},{"type":"Feature","geometry":{"type":"Polygon","coordinates":[[[27.610417,65.622917],[27.614583,65.622917],[27.614583,65.627083],[27.610417,65.627083],[27.610417,65.622917]]]},"properties":{"radiance":5.77}},{"type":"Feature","geometry":{"type":"Polygon","coordinates":[[[27.614583,65.622917],[27.61875,65.622917],[27.61875,65.627083],[27.614583,65.627083],[27.614583,65.622917]]]},"properties":{"radiance":7.23}},{"type":"Feature","geometry":{"type":"Polygon","coordinates":[[[27.61875,65.622917],[27.622917,65.622917],[27.622917,65.627083],[27.61875,65.627083],[27.61875,65.622917]]]},"properties":{"radiance":9.7}},{"type":"Feature","geometry":{"type":"Polygon","coordinates":[[[27.622917,65.622917],[27.627083,65.622917],[27.627083,65.627083],[27.622917,65.627083],[27.622917,65.622917]]]},"properties":{"radiance":30.91}},{"type":"Feature","geometry":{"type":"Polygon","coordinates":[[[27.627083,65.622917],[27.63125,65.622917],[27.63125,65.627083],[27.627083,65.627083],[27.627083,65.622917]]]},"properties":{"radiance":11.55}},{"type":"Feature","geometry":{"type":"Polygon","coordinates":[[[27.63125,65.622917],[27.635417,65.622917],[27.635417,65.627083],[27.63125,65.627083],[27.63125,65.622917]]]},"properties":{"radiance":30.58}},{"type":"Feature","geometry":{"type":"Polygon","coordinates":[[[27.635417,65.622917],[27.639583,65.622917],[27.639583,65.627083],[27.635417,65.627083],[27.635417,65.622917]]]},"properties":{"radiance":11.44}},{"type":"Feature","geometry":{"type":"Polygon","coordinates":[[[27.639583,65.622917],[27.64375,65.622917],[27.64375,65.627083],[27.639583,65.627083],[27.639583,65.622917]]]},"properties":{"radiance":9.14}},{"type":"Feature","geometry":{"type":"Polygon","coordinates":[[[27.614583,65.61875],[27.61875,65.61875],[27.61875,65.622917],[27.614583,65.622917],[27.614583,65.61875]]]},"properties":{"radiance":7}},{"type":"Feature","geometry":{"type":"Polygon","coordinates":[[[27.61875,65.61875],[27.622917,65.61875],[27.622917,65.622917],[27.61875,65.622917],[27.61875,65.61875]]]},"properties":{"radiance":6.93}},{"type":"Feature","geometry":{"type":"Polygon","coordinates":[[[27.622917,65.61875],[27.627083,65.61875],[27.627083,65.622917],[27.622917,65.622917],[27.622917,65.61875]]]},"properties":{"radiance":5.89}},{"type":"Feature","geometry":{"type":"Polygon","coordinates":[[[27.627083,65.61875],[27.63125,65.61875],[27.63125,65.622917],[27.627083,65.622917],[27.627083,65.61875]]]},"properties":{"radiance":10.49}},{"type":"Feature","geometry":{"type":"Polygon","coordinates":[[[27.63125,65.61875],[27.635417,65.61875],[27.635417,65.622917],[27.63125,65.622917],[27.63125,65.61875]]]},"properties":{"radiance":8.91}},{"type":"Feature","geometry":{"type":"Polygon","coordinates":[[[27.635417,65.61875],[27.639583,65.61875],[27.639583,65.622917],[27.635417,65.622917],[27.635417,65.61875]]]},"properties":{"radiance":7}},{"type":"Feature","geometry":{"type":"Polygon","coordinates":[[[27.639583,65.61875],[27.64375,65.61875],[27.64375,65.622917],[27.639583,65.622917],[27.639583,65.61875]]]},"properties":{"radiance":5.45}},{"type":"Feature","geometry":{"type":"Polygon","coordinates":[[[27.30625,65.397917],[27.310417,65.397917],[27.310417,65.402083],[27.30625,65.402083],[27.30625,65.397917]]]},"properties":{"radiance":7.89}},{"type":"Feature","geometry":{"type":"Polygon","coordinates":[[[26.95625,65.39375],[26.960417,65.39375],[26.960417,65.397917],[26.95625,65.397917],[26.95625,65.39375]]]},"properties":{"radiance":5.01}},{"type":"Feature","geometry":{"type":"Polygon","coordinates":[[[26.964583,65.39375],[26.96875,65.39375],[26.96875,65.397917],[26.964583,65.397917],[26.964583,65.39375]]]},"properties":{"radiance":9.11}},{"type":"Feature","geometry":{"type":"Polygon","coordinates":[[[26.96875,65.39375],[26.972917,65.39375],[26.972917,65.397917],[26.96875,65.397917],[26.96875,65.39375]]]},"properties":{"radiance":8.18}},{"type":"Feature","geometry":{"type":"Polygon","coordinates":[[[26.972917,65.39375],[26.977083,65.39375],[26.977083,65.397917],[26.972917,65.397917],[26.972917,65.39375]]]},"properties":{"radiance":7.15}},{"type":"Feature","geometry":{"type":"Polygon","coordinates":[[[26.977083,65.39375],[26.98125,65.39375],[26.98125,65.397917],[26.977083,65.397917],[26.977083,65.39375]]]},"properties":{"radiance":6.35}},{"type":"Feature","geometry":{"type":"Polygon","coordinates":[[[26.98125,65.39375],[26.985417,65.39375],[26.985417,65.397917],[26.98125,65.397917],[26.98125,65.39375]]]},"properties":{"radiance":5.91}},{"type":"Feature","geometry":{"type":"Polygon","coordinates":[[[26.960417,65.389583],[26.964583,65.389583],[26.964583,65.39375],[26.960417,65.39375],[26.960417,65.389583]]]},"properties":{"radiance":13.08}},{"type":"Feature","geometry":{"type":"Polygon","coordinates":[[[26.964583,65.389583],[26.96875,65.389583],[26.96875,65.39375],[26.964583,65.39375],[26.964583,65.389583]]]},"properties":{"radiance":59.76}},{"type":"Feature","geometry":{"type":"Polygon","coordinates":[[[26.96875,65.389583],[26.972917,65.389583],[26.972917,65.39375],[26.96875,65.39375],[26.96875,65.389583]]]},"properties":{"radiance":55.64}},{"type":"Feature","geometry":{"type":"Polygon","coordinates":[[[26.972917,65.389583],[26.977083,65.389583],[26.977083,65.39375],[26.972917,65.39375],[26.972917,65.389583]]]},"properties":{"radiance":23.09}},{"type":"Feature","geometry":{"type":"Polygon","coordinates":[[[26.977083,65.389583],[26.98125,65.389583],[26.98125,65.39375],[26.977083,65.39375],[26.977083,65.389583]]]},"properties":{"radiance":27.6}},{"type":"Feature","geometry":{"type":"Polygon","coordinates":[[[26.98125,65.389583],[26.985417,65.389583],[26.985417,65.39375],[26.98125,65.39375],[26.98125,65.389583]]]},"properties":{"radiance":10.96}},{"type":"Feature","geometry":{"type":"Polygon","coordinates":[[[26.985417,65.389583],[26.989583,65.389583],[26.989583,65.39375],[26.985417,65.39375],[26.985417,65.389583]]]},"properties":{"radiance":6.24}},{"type":"Feature","geometry":{"type":"Polygon","coordinates":[[[26.972917,65.385417],[26.977083,65.385417],[26.977083,65.389583],[26.972917,65.389583],[26.972917,65.385417]]]},"properties":{"radiance":23.77}},{"type":"Feature","geometry":{"type":"Polygon","coordinates":[[[26.977083,65.385417],[26.98125,65.385417],[26.98125,65.389583],[26.977083,65.389583],[26.977083,65.385417]]]},"properties":{"radiance":10.4}},{"type":"Feature","geometry":{"type":"Polygon","coordinates":[[[26.98125,65.385417],[26.985417,65.385417],[26.985417,65.389583],[26.98125,65.389583],[26.98125,65.385417]]]},"properties":{"radiance":8.38}},{"type":"Feature","geometry":{"type":"Polygon","coordinates":[[[26.985417,65.385417],[26.989583,65.385417],[26.989583,65.389583],[26.985417,65.389583],[26.985417,65.385417]]]},"properties":{"radiance":9.04}},{"type":"Feature","geometry":{"type":"Polygon","coordinates":[[[26.985417,65.38125],[26.989583,65.38125],[26.989583,65.385417],[26.985417,65.385417],[26.985417,65.38125]]]},"properties":{"radiance":5.25}},{"type":"Feature","geometry":{"type":"Polygon","coordinates":[[[26.989583,65.377083],[26.99375,65.377083],[26.99375,65.38125],[26.989583,65.38125],[26.989583,65.377083]]]},"properties":{"radiance":6.01}},{"type":"Feature","geometry":{"type":"Polygon","coordinates":[[[26.99375,65.377083],[26.997917,65.377083],[26.997917,65.38125],[26.99375,65.38125],[26.99375,65.377083]]]},"properties":{"radiance":8.22}},{"type":"Feature","geometry":{"type":"Polygon","coordinates":[[[26.997917,65.377083],[27.002083,65.377083],[27.002083,65.38125],[26.997917,65.38125],[26.997917,65.377083]]]},"properties":{"radiance":9.6}},{"type":"Feature","geometry":{"type":"Polygon","coordinates":[[[27.002083,65.377083],[27.00625,65.377083],[27.00625,65.38125],[27.002083,65.38125],[27.002083,65.377083]]]},"properties":{"radiance":10.23}},{"type":"Feature","geometry":{"type":"Polygon","coordinates":[[[26.977083,65.372917],[26.98125,65.372917],[26.98125,65.377083],[26.977083,65.377083],[26.977083,65.372917]]]},"properties":{"radiance":9.11}},{"type":"Feature","geometry":{"type":"Polygon","coordinates":[[[26.98125,65.372917],[26.985417,65.372917],[26.985417,65.377083],[26.98125,65.377083],[26.98125,65.372917]]]},"properties":{"radiance":9.97}},{"type":"Feature","geometry":{"type":"Polygon","coordinates":[[[26.985417,65.372917],[26.989583,65.372917],[26.989583,65.377083],[26.985417,65.377083],[26.985417,65.372917]]]},"properties":{"radiance":7.83}},{"type":"Feature","geometry":{"type":"Polygon","coordinates":[[[26.989583,65.372917],[26.99375,65.372917],[26.99375,65.377083],[26.989583,65.377083],[26.989583,65.372917]]]},"properties":{"radiance":9.24}},{"type":"Feature","geometry":{"type":"Polygon","coordinates":[[[26.99375,65.372917],[26.997917,65.372917],[26.997917,65.377083],[26.99375,65.377083],[26.99375,65.372917]]]},"properties":{"radiance":13.36}},{"type":"Feature","geometry":{"type":"Polygon","coordinates":[[[26.997917,65.372917],[27.002083,65.372917],[27.002083,65.377083],[26.997917,65.377083],[26.997917,65.372917]]]},"properties":{"radiance":7.31}},{"type":"Feature","geometry":{"type":"Polygon","coordinates":[[[27.00625,65.372917],[27.010417,65.372917],[27.010417,65.377083],[27.00625,65.377083],[27.00625,65.372917]]]},"properties":{"radiance":8.57}},{"type":"Feature","geometry":{"type":"Polygon","coordinates":[[[27.010417,65.372917],[27.014583,65.372917],[27.014583,65.377083],[27.010417,65.377083],[27.010417,65.372917]]]},"properties":{"radiance":5.49}},{"type":"Feature","geometry":{"type":"Polygon","coordinates":[[[26.972917,65.36875],[26.977083,65.36875],[26.977083,65.372917],[26.972917,65.372917],[26.972917,65.36875]]]},"properties":{"radiance":14.97}},{"type":"Feature","geometry":{"type":"Polygon","coordinates":[[[26.977083,65.36875],[26.98125,65.36875],[26.98125,65.372917],[26.977083,65.372917],[26.977083,65.36875]]]},"properties":{"radiance":17.27}},{"type":"Feature","geometry":{"type":"Polygon","coordinates":[[[26.98125,65.36875],[26.985417,65.36875],[26.985417,65.372917],[26.98125,65.372917],[26.98125,65.36875]]]},"properties":{"radiance":12.43}},{"type":"Feature","geometry":{"type":"Polygon","coordinates":[[[26.985417,65.36875],[26.989583,65.36875],[26.989583,65.372917],[26.985417,65.372917],[26.985417,65.36875]]]},"properties":{"radiance":12.7}},{"type":"Feature","geometry":{"type":"Polygon","coordinates":[[[26.989583,65.36875],[26.99375,65.36875],[26.99375,65.372917],[26.989583,65.372917],[26.989583,65.36875]]]},"properties":{"radiance":10.66}},{"type":"Feature","geometry":{"type":"Polygon","coordinates":[[[26.99375,65.36875],[26.997917,65.36875],[26.997917,65.372917],[26.99375,65.372917],[26.99375,65.36875]]]},"properties":{"radiance":9.78}},{"type":"Feature","geometry":{"type":"Polygon","coordinates":[[[26.997917,65.36875],[27.002083,65.36875],[27.002083,65.372917],[26.997917,65.372917],[26.997917,65.36875]]]},"properties":{"radiance":9.53}},{"type":"Feature","geometry":{"type":"Polygon","coordinates":[[[27.002083,65.36875],[27.00625,65.36875],[27.00625,65.372917],[27.002083,65.372917],[27.002083,65.36875]]]},"properties":{"radiance":5.34}},{"type":"Feature","geometry":{"type":"Polygon","coordinates":[[[26.972917,65.364583],[26.977083,65.364583],[26.977083,65.36875],[26.972917,65.36875],[26.972917,65.364583]]]},"properties":{"radiance":12.92}},{"type":"Feature","geometry":{"type":"Polygon","coordinates":[[[26.977083,65.364583],[26.98125,65.364583],[26.98125,65.36875],[26.977083,65.36875],[26.977083,65.364583]]]},"properties":{"radiance":13.75}},{"type":"Feature","geometry":{"type":"Polygon","coordinates":[[[26.98125,65.364583],[26.985417,65.364583],[26.985417,65.36875],[26.98125,65.36875],[26.98125,65.364583]]]},"properties":{"radiance":12.84}},{"type":"Feature","geometry":{"type":"Polygon","coordinates":[[[26.985417,65.364583],[26.989583,65.364583],[26.989583,65.36875],[26.985417,65.36875],[26.985417,65.364583]]]},"properties":{"radiance":14.9}},{"type":"Feature","geometry":{"type":"Polygon","coordinates":[[[26.989583,65.364583],[26.99375,65.364583],[26.99375,65.36875],[26.989583,65.36875],[26.989583,65.364583]]]},"properties":{"radiance":12.53}},{"type":"Feature","geometry":{"type":"Polygon","coordinates":[[[26.99375,65.364583],[26.997917,65.364583],[26.997917,65.36875],[26.99375,65.36875],[26.99375,65.364583]]]},"properties":{"radiance":14.4}},{"type":"Feature","geometry":{"type":"Polygon","coordinates":[[[26.997917,65.364583],[27.002083,65.364583],[27.002083,65.36875],[26.997917,65.36875],[26.997917,65.364583]]]},"properties":{"radiance":12.33}},{"type":"Feature","geometry":{"type":"Polygon","coordinates":[[[27.002083,65.364583],[27.00625,65.364583],[27.00625,65.36875],[27.002083,65.36875],[27.002083,65.364583]]]},"properties":{"radiance":11.82}},{"type":"Feature","geometry":{"type":"Polygon","coordinates":[[[27.00625,65.364583],[27.010417,65.364583],[27.010417,65.36875],[27.00625,65.36875],[27.00625,65.364583]]]},"properties":{"radiance":6.89}},{"type":"Feature","geometry":{"type":"Polygon","coordinates":[[[27.010417,65.364583],[27.014583,65.364583],[27.014583,65.36875],[27.010417,65.36875],[27.010417,65.364583]]]},"properties":{"radiance":6.59}},{"type":"Feature","geometry":{"type":"Polygon","coordinates":[[[27.014583,65.364583],[27.01875,65.364583],[27.01875,65.36875],[27.014583,65.36875],[27.014583,65.364583]]]},"properties":{"radiance":5.92}},{"type":"Feature","geometry":{"type":"Polygon","coordinates":[[[27.022917,65.364583],[27.027083,65.364583],[27.027083,65.36875],[27.022917,65.36875],[27.022917,65.364583]]]},"properties":{"radiance":5.95}},{"type":"Feature","geometry":{"type":"Polygon","coordinates":[[[27.027083,65.364583],[27.03125,65.364583],[27.03125,65.36875],[27.027083,65.36875],[27.027083,65.364583]]]},"properties":{"radiance":5.58}},{"type":"Feature","geometry":{"type":"Polygon","coordinates":[[[26.972917,65.360417],[26.977083,65.360417],[26.977083,65.364583],[26.972917,65.364583],[26.972917,65.360417]]]},"properties":{"radiance":9.66}},{"type":"Feature","geometry":{"type":"Polygon","coordinates":[[[26.977083,65.360417],[26.98125,65.360417],[26.98125,65.364583],[26.977083,65.364583],[26.977083,65.360417]]]},"properties":{"radiance":15.38}},{"type":"Feature","geometry":{"type":"Polygon","coordinates":[[[26.98125,65.360417],[26.985417,65.360417],[26.985417,65.364583],[26.98125,65.364583],[26.98125,65.360417]]]},"properties":{"radiance":14.89}},{"type":"Feature","geometry":{"type":"Polygon","coordinates":[[[26.985417,65.360417],[26.989583,65.360417],[26.989583,65.364583],[26.985417,65.364583],[26.985417,65.360417]]]},"properties":{"radiance":23.51}},{"type":"Feature","geometry":{"type":"Polygon","coordinates":[[[26.989583,65.360417],[26.99375,65.360417],[26.99375,65.364583],[26.989583,65.364583],[26.989583,65.360417]]]},"properties":{"radiance":23.62}},{"type":"Feature","geometry":{"type":"Polygon","coordinates":[[[26.99375,65.360417],[26.997917,65.360417],[26.997917,65.364583],[26.99375,65.364583],[26.99375,65.360417]]]},"properties":{"radiance":14.03}},{"type":"Feature","geometry":{"type":"Polygon","coordinates":[[[26.997917,65.360417],[27.002083,65.360417],[27.002083,65.364583],[26.997917,65.364583],[26.997917,65.360417]]]},"properties":{"radiance":15.5}},{"type":"Feature","geometry":{"type":"Polygon","coordinates":[[[27.002083,65.360417],[27.00625,65.360417],[27.00625,65.364583],[27.002083,65.364583],[27.002083,65.360417]]]},"properties":{"radiance":15.05}},{"type":"Feature","geometry":{"type":"Polygon","coordinates":[[[27.00625,65.360417],[27.010417,65.360417],[27.010417,65.364583],[27.00625,65.364583],[27.00625,65.360417]]]},"properties":{"radiance":21.75}},{"type":"Feature","geometry":{"type":"Polygon","coordinates":[[[27.010417,65.360417],[27.014583,65.360417],[27.014583,65.364583],[27.010417,65.364583],[27.010417,65.360417]]]},"properties":{"radiance":22.37}},{"type":"Feature","geometry":{"type":"Polygon","coordinates":[[[27.014583,65.360417],[27.01875,65.360417],[27.01875,65.364583],[27.014583,65.364583],[27.014583,65.360417]]]},"properties":{"radiance":8.19}},{"type":"Feature","geometry":{"type":"Polygon","coordinates":[[[26.96875,65.35625],[26.972917,65.35625],[26.972917,65.360417],[26.96875,65.360417],[26.96875,65.35625]]]},"properties":{"radiance":7.2}},{"type":"Feature","geometry":{"type":"Polygon","coordinates":[[[26.972917,65.35625],[26.977083,65.35625],[26.977083,65.360417],[26.972917,65.360417],[26.972917,65.35625]]]},"properties":{"radiance":18.5}},{"type":"Feature","geometry":{"type":"Polygon","coordinates":[[[26.977083,65.35625],[26.98125,65.35625],[26.98125,65.360417],[26.977083,65.360417],[26.977083,65.35625]]]},"properties":{"radiance":11.04}},{"type":"Feature","geometry":{"type":"Polygon","coordinates":[[[26.98125,65.35625],[26.985417,65.35625],[26.985417,65.360417],[26.98125,65.360417],[26.98125,65.35625]]]},"properties":{"radiance":18.66}},{"type":"Feature","geometry":{"type":"Polygon","coordinates":[[[26.985417,65.35625],[26.989583,65.35625],[26.989583,65.360417],[26.985417,65.360417],[26.985417,65.35625]]]},"properties":{"radiance":18.47}},{"type":"Feature","geometry":{"type":"Polygon","coordinates":[[[26.989583,65.35625],[26.99375,65.35625],[26.99375,65.360417],[26.989583,65.360417],[26.989583,65.35625]]]},"properties":{"radiance":11.08}},{"type":"Feature","geometry":{"type":"Polygon","coordinates":[[[26.99375,65.35625],[26.997917,65.35625],[26.997917,65.360417],[26.99375,65.360417],[26.99375,65.35625]]]},"properties":{"radiance":10.08}},{"type":"Feature","geometry":{"type":"Polygon","coordinates":[[[26.997917,65.35625],[27.002083,65.35625],[27.002083,65.360417],[26.997917,65.360417],[26.997917,65.35625]]]},"properties":{"radiance":10.41}},{"type":"Feature","geometry":{"type":"Polygon","coordinates":[[[27.010417,65.35625],[27.014583,65.35625],[27.014583,65.360417],[27.010417,65.360417],[27.010417,65.35625]]]},"properties":{"radiance":6.51}},{"type":"Feature","geometry":{"type":"Polygon","coordinates":[[[26.96875,65.352083],[26.972917,65.352083],[26.972917,65.35625],[26.96875,65.35625],[26.96875,65.352083]]]},"properties":{"radiance":8.84}},{"type":"Feature","geometry":{"type":"Polygon","coordinates":[[[26.972917,65.352083],[26.977083,65.352083],[26.977083,65.35625],[26.972917,65.35625],[26.972917,65.352083]]]},"properties":{"radiance":9.26}},{"type":"Feature","geometry":{"type":"Polygon","coordinates":[[[26.977083,65.352083],[26.98125,65.352083],[26.98125,65.35625],[26.977083,65.35625],[26.977083,65.352083]]]},"properties":{"radiance":9.35}},{"type":"Feature","geometry":{"type":"Polygon","coordinates":[[[26.98125,65.352083],[26.985417,65.352083],[26.985417,65.35625],[26.98125,65.35625],[26.98125,65.352083]]]},"properties":{"radiance":5.51}},{"type":"Feature","geometry":{"type":"Polygon","coordinates":[[[26.96875,65.347917],[26.972917,65.347917],[26.972917,65.352083],[26.96875,65.352083],[26.96875,65.347917]]]},"properties":{"radiance":7.43}},{"type":"Feature","geometry":{"type":"Polygon","coordinates":[[[26.972917,65.347917],[26.977083,65.347917],[26.977083,65.352083],[26.972917,65.352083],[26.972917,65.347917]]]},"properties":{"radiance":7.64}},{"type":"Feature","geometry":{"type":"Polygon","coordinates":[[[26.977083,65.347917],[26.98125,65.347917],[26.98125,65.352083],[26.977083,65.352083],[26.977083,65.347917]]]},"properties":{"radiance":7.88}},{"type":"Feature","geometry":{"type":"Polygon","coordinates":[[[26.95625,65.34375],[26.960417,65.34375],[26.960417,65.347917],[26.95625,65.347917],[26.95625,65.34375]]]},"properties":{"radiance":5.39}},{"type":"Feature","geometry":{"type":"Polygon","coordinates":[[[26.972917,65.34375],[26.977083,65.34375],[26.977083,65.347917],[26.972917,65.347917],[26.972917,65.34375]]]},"properties":{"radiance":5.2}},{"type":"Feature","geometry":{"type":"Polygon","coordinates":[[[27.627083,64.877083],[27.63125,64.877083],[27.63125,64.88125],[27.627083,64.88125],[27.627083,64.877083]]]},"properties":{"radiance":7.24}},{"type":"Feature","geometry":{"type":"Polygon","coordinates":[[[27.647917,64.877083],[27.652083,64.877083],[27.652083,64.88125],[27.647917,64.88125],[27.647917,64.877083]]]},"properties":{"radiance":6.45}},{"type":"Feature","geometry":{"type":"Polygon","coordinates":[[[27.652083,64.877083],[27.65625,64.877083],[27.65625,64.88125],[27.652083,64.88125],[27.652083,64.877083]]]},"properties":{"radiance":6.39}},{"type":"Feature","geometry":{"type":"Polygon","coordinates":[[[27.70625,64.877083],[27.710417,64.877083],[27.710417,64.88125],[27.70625,64.88125],[27.70625,64.877083]]]},"properties":{"radiance":8.15}},{"type":"Feature","geometry":{"type":"Polygon","coordinates":[[[27.635417,64.872917],[27.639583,64.872917],[27.639583,64.877083],[27.635417,64.877083],[27.635417,64.872917]]]},"properties":{"radiance":5.52}},{"type":"Feature","geometry":{"type":"Polygon","coordinates":[[[27.639583,64.872917],[27.64375,64.872917],[27.64375,64.877083],[27.639583,64.877083],[27.639583,64.872917]]]},"properties":{"radiance":5.9}},{"type":"Feature","geometry":{"type":"Polygon","coordinates":[[[27.64375,64.872917],[27.647917,64.872917],[27.647917,64.877083],[27.64375,64.877083],[27.64375,64.872917]]]},"properties":{"radiance":6.62}},{"type":"Feature","geometry":{"type":"Polygon","coordinates":[[[27.647917,64.872917],[27.652083,64.872917],[27.652083,64.877083],[27.647917,64.877083],[27.647917,64.872917]]]},"properties":{"radiance":5.56}},{"type":"Feature","geometry":{"type":"Polygon","coordinates":[[[27.652083,64.872917],[27.65625,64.872917],[27.65625,64.877083],[27.652083,64.877083],[27.652083,64.872917]]]},"properties":{"radiance":5.67}},{"type":"Feature","geometry":{"type":"Polygon","coordinates":[[[27.65625,64.872917],[27.660417,64.872917],[27.660417,64.877083],[27.65625,64.877083],[27.65625,64.872917]]]},"properties":{"radiance":13.2}},{"type":"Feature","geometry":{"type":"Polygon","coordinates":[[[27.660417,64.872917],[27.664583,64.872917],[27.664583,64.877083],[27.660417,64.877083],[27.660417,64.872917]]]},"properties":{"radiance":9.08}},{"type":"Feature","geometry":{"type":"Polygon","coordinates":[[[27.664583,64.872917],[27.66875,64.872917],[27.66875,64.877083],[27.664583,64.877083],[27.664583,64.872917]]]},"properties":{"radiance":7.85}},{"type":"Feature","geometry":{"type":"Polygon","coordinates":[[[27.66875,64.872917],[27.672917,64.872917],[27.672917,64.877083],[27.66875,64.877083],[27.66875,64.872917]]]},"properties":{"radiance":9.3}},{"type":"Feature","geometry":{"type":"Polygon","coordinates":[[[27.672917,64.872917],[27.677083,64.872917],[27.677083,64.877083],[27.672917,64.877083],[27.672917,64.872917]]]},"properties":{"radiance":7.24}},{"type":"Feature","geometry":{"type":"Polygon","coordinates":[[[27.677083,64.872917],[27.68125,64.872917],[27.68125,64.877083],[27.677083,64.877083],[27.677083,64.872917]]]},"properties":{"radiance":9.13}},{"type":"Feature","geometry":{"type":"Polygon","coordinates":[[[27.68125,64.872917],[27.685417,64.872917],[27.685417,64.877083],[27.68125,64.877083],[27.68125,64.872917]]]},"properties":{"radiance":7.85}},{"type":"Feature","geometry":{"type":"Polygon","coordinates":[[[27.685417,64.872917],[27.689583,64.872917],[27.689583,64.877083],[27.685417,64.877083],[27.685417,64.872917]]]},"properties":{"radiance":7.94}},{"type":"Feature","geometry":{"type":"Polygon","coordinates":[[[27.689583,64.872917],[27.69375,64.872917],[27.69375,64.877083],[27.689583,64.877083],[27.689583,64.872917]]]},"properties":{"radiance":6.45}},{"type":"Feature","geometry":{"type":"Polygon","coordinates":[[[27.69375,64.872917],[27.697917,64.872917],[27.697917,64.877083],[27.69375,64.877083],[27.69375,64.872917]]]},"properties":{"radiance":7.23}},{"type":"Feature","geometry":{"type":"Polygon","coordinates":[[[27.639583,64.86875],[27.64375,64.86875],[27.64375,64.872917],[27.639583,64.872917],[27.639583,64.86875]]]},"properties":{"radiance":11.03}},{"type":"Feature","geometry":{"type":"Polygon","coordinates":[[[27.64375,64.86875],[27.647917,64.86875],[27.647917,64.872917],[27.64375,64.872917],[27.64375,64.86875]]]},"properties":{"radiance":5.82}},{"type":"Feature","geometry":{"type":"Polygon","coordinates":[[[27.647917,64.86875],[27.652083,64.86875],[27.652083,64.872917],[27.647917,64.872917],[27.647917,64.86875]]]},"properties":{"radiance":6.67}},{"type":"Feature","geometry":{"type":"Polygon","coordinates":[[[27.652083,64.86875],[27.65625,64.86875],[27.65625,64.872917],[27.652083,64.872917],[27.652083,64.86875]]]},"properties":{"radiance":7.1}},{"type":"Feature","geometry":{"type":"Polygon","coordinates":[[[27.65625,64.86875],[27.660417,64.86875],[27.660417,64.872917],[27.65625,64.872917],[27.65625,64.86875]]]},"properties":{"radiance":15.8}},{"type":"Feature","geometry":{"type":"Polygon","coordinates":[[[27.660417,64.86875],[27.664583,64.86875],[27.664583,64.872917],[27.660417,64.872917],[27.660417,64.86875]]]},"properties":{"radiance":15.46}},{"type":"Feature","geometry":{"type":"Polygon","coordinates":[[[27.664583,64.86875],[27.66875,64.86875],[27.66875,64.872917],[27.664583,64.872917],[27.664583,64.86875]]]},"properties":{"radiance":15.95}},{"type":"Feature","geometry":{"type":"Polygon","coordinates":[[[27.66875,64.86875],[27.672917,64.86875],[27.672917,64.872917],[27.66875,64.872917],[27.66875,64.86875]]]},"properties":{"radiance":11.68}},{"type":"Feature","geometry":{"type":"Polygon","coordinates":[[[27.672917,64.86875],[27.677083,64.86875],[27.677083,64.872917],[27.672917,64.872917],[27.672917,64.86875]]]},"properties":{"radiance":28.5}},{"type":"Feature","geometry":{"type":"Polygon","coordinates":[[[27.677083,64.86875],[27.68125,64.86875],[27.68125,64.872917],[27.677083,64.872917],[27.677083,64.86875]]]},"properties":{"radiance":8.14}},{"type":"Feature","geometry":{"type":"Polygon","coordinates":[[[27.68125,64.86875],[27.685417,64.86875],[27.685417,64.872917],[27.68125,64.872917],[27.68125,64.86875]]]},"properties":{"radiance":6.74}},{"type":"Feature","geometry":{"type":"Polygon","coordinates":[[[27.685417,64.86875],[27.689583,64.86875],[27.689583,64.872917],[27.685417,64.872917],[27.685417,64.86875]]]},"properties":{"radiance":10.1}},{"type":"Feature","geometry":{"type":"Polygon","coordinates":[[[27.689583,64.86875],[27.69375,64.86875],[27.69375,64.872917],[27.689583,64.872917],[27.689583,64.86875]]]},"properties":{"radiance":16.29}},{"type":"Feature","geometry":{"type":"Polygon","coordinates":[[[27.702083,64.86875],[27.70625,64.86875],[27.70625,64.872917],[27.702083,64.872917],[27.702083,64.86875]]]},"properties":{"radiance":6.01}},{"type":"Feature","geometry":{"type":"Polygon","coordinates":[[[27.70625,64.86875],[27.710417,64.86875],[27.710417,64.872917],[27.70625,64.872917],[27.70625,64.86875]]]},"properties":{"radiance":7.74}},{"type":"Feature","geometry":{"type":"Polygon","coordinates":[[[27.64375,64.864583],[27.647917,64.864583],[27.647917,64.86875],[27.64375,64.86875],[27.64375,64.864583]]]},"properties":{"radiance":5.32}},{"type":"Feature","geometry":{"type":"Polygon","coordinates":[[[27.664583,64.864583],[27.66875,64.864583],[27.66875,64.86875],[27.664583,64.86875],[27.664583,64.864583]]]},"properties":{"radiance":5.65}},{"type":"Feature","geometry":{"type":"Polygon","coordinates":[[[27.66875,64.864583],[27.672917,64.864583],[27.672917,64.86875],[27.66875,64.86875],[27.66875,64.864583]]]},"properties":{"radiance":24.35}},{"type":"Feature","geometry":{"type":"Polygon","coordinates":[[[27.672917,64.864583],[27.677083,64.864583],[27.677083,64.86875],[27.672917,64.86875],[27.672917,64.864583]]]},"properties":{"radiance":8.24}},{"type":"Feature","geometry":{"type":"Polygon","coordinates":[[[27.677083,64.864583],[27.68125,64.864583],[27.68125,64.86875],[27.677083,64.86875],[27.677083,64.864583]]]},"properties":{"radiance":12.57}},{"type":"Feature","geometry":{"type":"Polygon","coordinates":[[[27.68125,64.864583],[27.685417,64.864583],[27.685417,64.86875],[27.68125,64.86875],[27.68125,64.864583]]]},"properties":{"radiance":12.14}},{"type":"Feature","geometry":{"type":"Polygon","coordinates":[[[27.685417,64.864583],[27.689583,64.864583],[27.689583,64.86875],[27.685417,64.86875],[27.685417,64.864583]]]},"properties":{"radiance":11.58}},{"type":"Feature","geometry":{"type":"Polygon","coordinates":[[[27.689583,64.864583],[27.69375,64.864583],[27.69375,64.86875],[27.689583,64.86875],[27.689583,64.864583]]]},"properties":{"radiance":15.92}},{"type":"Feature","geometry":{"type":"Polygon","coordinates":[[[27.93125,64.68125],[27.935417,64.68125],[27.935417,64.685417],[27.93125,64.685417],[27.93125,64.68125]]]},"properties":{"radiance":6.68}},{"type":"Feature","geometry":{"type":"Polygon","coordinates":[[[27.935417,64.68125],[27.939583,64.68125],[27.939583,64.685417],[27.935417,64.685417],[27.935417,64.68125]]]},"properties":{"radiance":5.87}}]}