{"type":"FeatureCollection","features":[{"type":"Feature","geometry":{"type":"Polygon","coordinates":[[[23.510417,60.614583],[23.514583,60.614583],[23.514583,60.61875],[23.510417,60.61875],[23.510417,60.614583]]]},"properties":{"radiance":5.73}},{"type":"Feature","geometry":{"type":"Polygon","coordinates":[[[23.514583,60.614583],[23.51875,60.614583],[23.51875,60.61875],[23.514583,60.61875],[23.514583,60.614583]]]},"properties":{"radiance":5.78}},{"type":"Feature","geometry":{"type":"Polygon","coordinates":[[[23.522917,60.614583],[23.527083,60.614583],[23.527083,60.61875],[23.522917,60.61875],[23.522917,60.614583]]]},"properties":{"radiance":5.09}},{"type":"Feature","geometry":{"type":"Polygon","coordinates":[[[23.527083,60.614583],[23.53125,60.614583],[23.53125,60.61875],[23.527083,60.61875],[23.527083,60.614583]]]},"properties":{"radiance":5.51}},{"type":"Feature","geometry":{"type":"Polygon","coordinates":[[[23.552083,60.460417],[23.55625,60.460417],[23.55625,60.464583],[23.552083,60.464583],[23.552083,60.460417]]]},"properties":{"radiance":5.59}},{"type":"Feature","geometry":{"type":"Polygon","coordinates":[[[23.60625,60.44375],[23.610417,60.44375],[23.610417,60.447917],[23.60625,60.447917],[23.60625,60.44375]]]},"properties":{"radiance":5.58}},{"type":"Feature","geometry":{"type":"Polygon","coordinates":[[[23.610417,60.44375],[23.614583,60.44375],[23.614583,60.447917],[23.610417,60.447917],[23.610417,60.44375]]]},"properties":{"radiance":9.25}},{"type":"Feature","geometry":{"type":"Polygon","coordinates":[[[23.614583,60.44375],[23.61875,60.44375],[23.61875,60.447917],[23.614583,60.447917],[23.614583,60.44375]]]},"properties":{"radiance":14.2}},{"type":"Feature","geometry":{"type":"Polygon","coordinates":[[[23.61875,60.44375],[23.622917,60.44375],[23.622917,60.447917],[23.61875,60.447917],[23.61875,60.44375]]]},"properties":{"radiance":11.48}},{"type":"Feature","geometry":{"type":"Polygon","coordinates":[[[23.614583,60.439583],[23.61875,60.439583],[23.61875,60.44375],[23.614583,60.44375],[23.614583,60.439583]]]},"properties":{"radiance":9.54}},{"type":"Feature","geometry":{"type":"Polygon","coordinates":[[[23.61875,60.439583],[23.622917,60.439583],[23.622917,60.44375],[23.61875,60.44375],[23.61875,60.439583]]]},"properties":{"radiance":8.76}},{"type":"Feature","geometry":{"type":"Polygon","coordinates":[[[23.622917,60.439583],[23.627083,60.439583],[23.627083,60.44375],[23.622917,60.44375],[23.622917,60.439583]]]},"properties":{"radiance":6.79}},{"type":"Feature","geometry":{"type":"Polygon","coordinates":[[[23.214583,60.435417],[23.21875,60.435417],[23.21875,60.439583],[23.214583,60.439583],[23.214583,60.435417]]]},"properties":{"radiance":5.76}},{"type":"Feature","geometry":{"type":"Polygon","coordinates":[[[23.21875,60.435417],[23.222917,60.435417],[23.222917,60.439583],[23.21875,60.439583],[23.21875,60.435417]]]},"properties":{"radiance":6.37}},{"type":"Feature","geometry":{"type":"Polygon","coordinates":[[[23.222917,60.435417],[23.227083,60.435417],[23.227083,60.439583],[23.222917,60.439583],[23.222917,60.435417]]]},"properties":{"radiance":5.37}},{"type":"Feature","geometry":{"type":"Polygon","coordinates":[[[23.252083,60.435417],[23.25625,60.435417],[23.25625,60.439583],[23.252083,60.439583],[23.252083,60.435417]]]},"properties":{"radiance":5.87}},{"type":"Feature","geometry":{"type":"Polygon","coordinates":[[[23.25625,60.435417],[23.260417,60.435417],[23.260417,60.439583],[23.25625,60.439583],[23.25625,60.435417]]]},"properties":{"radiance":5.44}},{"type":"Feature","geometry":{"type":"Polygon","coordinates":[[[23.260417,60.435417],[23.264583,60.435417],[23.264583,60.439583],[23.260417,60.439583],[23.260417,60.435417]]]},"properties":{"radiance":5.55}},{"type":"Feature","geometry":{"type":"Polygon","coordinates":[[[23.264583,60.435417],[23.26875,60.435417],[23.26875,60.439583],[23.264583,60.439583],[23.264583,60.435417]]]},"properties":{"radiance":5.02}},{"type":"Feature","geometry":{"type":"Polygon","coordinates":[[[23.210417,60.43125],[23.214583,60.43125],[23.214583,60.435417],[23.210417,60.435417],[23.210417,60.43125]]]},"properties":{"radiance":7}},{"type":"Feature","geometry":{"type":"Polygon","coordinates":[[[23.214583,60.43125],[23.21875,60.43125],[23.21875,60.435417],[23.214583,60.435417],[23.214583,60.43125]]]},"properties":{"radiance":7.02}},{"type":"Feature","geometry":{"type":"Polygon","coordinates":[[[23.21875,60.43125],[23.222917,60.43125],[23.222917,60.435417],[23.21875,60.435417],[23.21875,60.43125]]]},"properties":{"radiance":5.7}},{"type":"Feature","geometry":{"type":"Polygon","coordinates":[[[23.202083,60.427083],[23.20625,60.427083],[23.20625,60.43125],[23.202083,60.43125],[23.202083,60.427083]]]},"properties":{"radiance":5.27}},{"type":"Feature","geometry":{"type":"Polygon","coordinates":[[[23.20625,60.427083],[23.210417,60.427083],[23.210417,60.43125],[23.20625,60.43125],[23.20625,60.427083]]]},"properties":{"radiance":6.82}},{"type":"Feature","geometry":{"type":"Polygon","coordinates":[[[23.210417,60.427083],[23.214583,60.427083],[23.214583,60.43125],[23.210417,60.43125],[23.210417,60.427083]]]},"properties":{"radiance":7.77}},{"type":"Feature","geometry":{"type":"Polygon","coordinates":[[[23.214583,60.427083],[23.21875,60.427083],[23.21875,60.43125],[23.214583,60.43125],[23.214583,60.427083]]]},"properties":{"radiance":6.46}},{"type":"Feature","geometry":{"type":"Polygon","coordinates":[[[23.039583,60.422917],[23.04375,60.422917],[23.04375,60.427083],[23.039583,60.427083],[23.039583,60.422917]]]},"properties":{"radiance":6.26}},{"type":"Feature","geometry":{"type":"Polygon","coordinates":[[[23.04375,60.422917],[23.047917,60.422917],[23.047917,60.427083],[23.04375,60.427083],[23.04375,60.422917]]]},"properties":{"radiance":6.46}},{"type":"Feature","geometry":{"type":"Polygon","coordinates":[[[23.047917,60.422917],[23.052083,60.422917],[23.052083,60.427083],[23.047917,60.427083],[23.047917,60.422917]]]},"properties":{"radiance":5.99}},{"type":"Feature","geometry":{"type":"Polygon","coordinates":[[[23.160417,60.422917],[23.164583,60.422917],[23.164583,60.427083],[23.160417,60.427083],[23.160417,60.422917]]]},"properties":{"radiance":5.42}},{"type":"Feature","geometry":{"type":"Polygon","coordinates":[[[23.152083,60.41875],[23.15625,60.41875],[23.15625,60.422917],[23.152083,60.422917],[23.152083,60.41875]]]},"properties":{"radiance":7.1}},{"type":"Feature","geometry":{"type":"Polygon","coordinates":[[[23.15625,60.41875],[23.160417,60.41875],[23.160417,60.422917],[23.15625,60.422917],[23.15625,60.41875]]]},"properties":{"radiance":11.94}},{"type":"Feature","geometry":{"type":"Polygon","coordinates":[[[23.160417,60.41875],[23.164583,60.41875],[23.164583,60.422917],[23.160417,60.422917],[23.160417,60.41875]]]},"properties":{"radiance":11.07}},{"type":"Feature","geometry":{"type":"Polygon","coordinates":[[[23.164583,60.41875],[23.16875,60.41875],[23.16875,60.422917],[23.164583,60.422917],[23.164583,60.41875]]]},"properties":{"radiance":7.37}},{"type":"Feature","geometry":{"type":"Polygon","coordinates":[[[23.16875,60.41875],[23.172917,60.41875],[23.172917,60.422917],[23.16875,60.422917],[23.16875,60.41875]]]},"properties":{"radiance":10}},{"type":"Feature","geometry":{"type":"Polygon","coordinates":[[[23.15625,60.414583],[23.160417,60.414583],[23.160417,60.41875],[23.15625,60.41875],[23.15625,60.414583]]]},"properties":{"radiance":7.71}},{"type":"Feature","geometry":{"type":"Polygon","coordinates":[[[23.160417,60.414583],[23.164583,60.414583],[23.164583,60.41875],[23.160417,60.41875],[23.160417,60.414583]]]},"properties":{"radiance":6.67}},{"type":"Feature","geometry":{"type":"Polygon","coordinates":[[[23.064583,60.410417],[23.06875,60.410417],[23.06875,60.414583],[23.064583,60.414583],[23.064583,60.410417]]]},"properties":{"radiance":5.07}},{"type":"Feature","geometry":{"type":"Polygon","coordinates":[[[23.06875,60.410417],[23.072917,60.410417],[23.072917,60.414583],[23.06875,60.414583],[23.06875,60.410417]]]},"properties":{"radiance":5.22}},{"type":"Feature","geometry":{"type":"Polygon","coordinates":[[[23.077083,60.410417],[23.08125,60.410417],[23.08125,60.414583],[23.077083,60.414583],[23.077083,60.410417]]]},"properties":{"radiance":5.13}},{"type":"Feature","geometry":{"type":"Polygon","coordinates":[[[23.08125,60.410417],[23.085417,60.410417],[23.085417,60.414583],[23.08125,60.414583],[23.08125,60.410417]]]},"properties":{"radiance":5.34}},{"type":"Feature","geometry":{"type":"Polygon","coordinates":[[[23.085417,60.410417],[23.089583,60.410417],[23.089583,60.414583],[23.085417,60.414583],[23.085417,60.410417]]]},"properties":{"radiance":6.5}},{"type":"Feature","geometry":{"type":"Polygon","coordinates":[[[23.089583,60.410417],[23.09375,60.410417],[23.09375,60.414583],[23.089583,60.414583],[23.089583,60.410417]]]},"properties":{"radiance":6.79}},{"type":"Feature","geometry":{"type":"Polygon","coordinates":[[[23.177083,60.410417],[23.18125,60.410417],[23.18125,60.414583],[23.177083,60.414583],[23.177083,60.410417]]]},"properties":{"radiance":5.32}},{"type":"Feature","geometry":{"type":"Polygon","coordinates":[[[23.18125,60.410417],[23.185417,60.410417],[23.185417,60.414583],[23.18125,60.414583],[23.18125,60.410417]]]},"properties":{"radiance":5.9}},{"type":"Feature","geometry":{"type":"Polygon","coordinates":[[[23.185417,60.410417],[23.189583,60.410417],[23.189583,60.414583],[23.185417,60.414583],[23.185417,60.410417]]]},"properties":{"radiance":5.29}},{"type":"Feature","geometry":{"type":"Polygon","coordinates":[[[23.06875,60.40625],[23.072917,60.40625],[23.072917,60.410417],[23.06875,60.410417],[23.06875,60.40625]]]},"properties":{"radiance":5.59}},{"type":"Feature","geometry":{"type":"Polygon","coordinates":[[[23.072917,60.40625],[23.077083,60.40625],[23.077083,60.410417],[23.072917,60.410417],[23.072917,60.40625]]]},"properties":{"radiance":6.3}},{"type":"Feature","geometry":{"type":"Polygon","coordinates":[[[23.077083,60.40625],[23.08125,60.40625],[23.08125,60.410417],[23.077083,60.410417],[23.077083,60.40625]]]},"properties":{"radiance":6.4}},{"type":"Feature","geometry":{"type":"Polygon","coordinates":[[[23.08125,60.40625],[23.085417,60.40625],[23.085417,60.410417],[23.08125,60.410417],[23.08125,60.40625]]]},"properties":{"radiance":7.83}},{"type":"Feature","geometry":{"type":"Polygon","coordinates":[[[23.085417,60.40625],[23.089583,60.40625],[23.089583,60.410417],[23.085417,60.410417],[23.085417,60.40625]]]},"properties":{"radiance":8.42}},{"type":"Feature","geometry":{"type":"Polygon","coordinates":[[[23.089583,60.40625],[23.09375,60.40625],[23.09375,60.410417],[23.089583,60.410417],[23.089583,60.40625]]]},"properties":{"radiance":8.67}},{"type":"Feature","geometry":{"type":"Polygon","coordinates":[[[23.09375,60.40625],[23.097917,60.40625],[23.097917,60.410417],[23.09375,60.410417],[23.09375,60.40625]]]},"properties":{"radiance":7.7}},{"type":"Feature","geometry":{"type":"Polygon","coordinates":[[[23.097917,60.40625],[23.102083,60.40625],[23.102083,60.410417],[23.097917,60.410417],[23.097917,60.40625]]]},"properties":{"radiance":6.1}},{"type":"Feature","geometry":{"type":"Polygon","coordinates":[[[23.127083,60.40625],[23.13125,60.40625],[23.13125,60.410417],[23.127083,60.410417],[23.127083,60.40625]]]},"properties":{"radiance":6.3}},{"type":"Feature","geometry":{"type":"Polygon","coordinates":[[[23.13125,60.40625],[23.135417,60.40625],[23.135417,60.410417],[23.13125,60.410417],[23.13125,60.40625]]]},"properties":{"radiance":5.76}},{"type":"Feature","geometry":{"type":"Polygon","coordinates":[[[23.135417,60.40625],[23.139583,60.40625],[23.139583,60.410417],[23.135417,60.410417],[23.135417,60.40625]]]},"properties":{"radiance":5.75}},{"type":"Feature","geometry":{"type":"Polygon","coordinates":[[[23.139583,60.40625],[23.14375,60.40625],[23.14375,60.410417],[23.139583,60.410417],[23.139583,60.40625]]]},"properties":{"radiance":5.67}},{"type":"Feature","geometry":{"type":"Polygon","coordinates":[[[23.14375,60.40625],[23.147917,60.40625],[23.147917,60.410417],[23.14375,60.410417],[23.14375,60.40625]]]},"properties":{"radiance":6.02}},{"type":"Feature","geometry":{"type":"Polygon","coordinates":[[[23.160417,60.40625],[23.164583,60.40625],[23.164583,60.410417],[23.160417,60.410417],[23.160417,60.40625]]]},"properties":{"radiance":5.32}},{"type":"Feature","geometry":{"type":"Polygon","coordinates":[[[23.164583,60.40625],[23.16875,60.40625],[23.16875,60.410417],[23.164583,60.410417],[23.164583,60.40625]]]},"properties":{"radiance":7.47}},{"type":"Feature","geometry":{"type":"Polygon","coordinates":[[[23.16875,60.40625],[23.172917,60.40625],[23.172917,60.410417],[23.16875,60.410417],[23.16875,60.40625]]]},"properties":{"radiance":7.88}},{"type":"Feature","geometry":{"type":"Polygon","coordinates":[[[23.172917,60.40625],[23.177083,60.40625],[23.177083,60.410417],[23.172917,60.410417],[23.172917,60.40625]]]},"properties":{"radiance":7.9}},{"type":"Feature","geometry":{"type":"Polygon","coordinates":[[[23.177083,60.40625],[23.18125,60.40625],[23.18125,60.410417],[23.177083,60.410417],[23.177083,60.40625]]]},"properties":{"radiance":7.58}},{"type":"Feature","geometry":{"type":"Polygon","coordinates":[[[23.18125,60.40625],[23.185417,60.40625],[23.185417,60.410417],[23.18125,60.410417],[23.18125,60.40625]]]},"properties":{"radiance":7.58}},{"type":"Feature","geometry":{"type":"Polygon","coordinates":[[[23.185417,60.40625],[23.189583,60.40625],[23.189583,60.410417],[23.185417,60.410417],[23.185417,60.40625]]]},"properties":{"radiance":7.03}},{"type":"Feature","geometry":{"type":"Polygon","coordinates":[[[23.189583,60.40625],[23.19375,60.40625],[23.19375,60.410417],[23.189583,60.410417],[23.189583,60.40625]]]},"properties":{"radiance":6.7}},{"type":"Feature","geometry":{"type":"Polygon","coordinates":[[[23.064583,60.402083],[23.06875,60.402083],[23.06875,60.40625],[23.064583,60.40625],[23.064583,60.402083]]]},"properties":{"radiance":5.28}},{"type":"Feature","geometry":{"type":"Polygon","coordinates":[[[23.06875,60.402083],[23.072917,60.402083],[23.072917,60.40625],[23.06875,60.40625],[23.06875,60.402083]]]},"properties":{"radiance":6.64}},{"type":"Feature","geometry":{"type":"Polygon","coordinates":[[[23.072917,60.402083],[23.077083,60.402083],[23.077083,60.40625],[23.072917,60.40625],[23.072917,60.402083]]]},"properties":{"radiance":7.14}},{"type":"Feature","geometry":{"type":"Polygon","coordinates":[[[23.077083,60.402083],[23.08125,60.402083],[23.08125,60.40625],[23.077083,60.40625],[23.077083,60.402083]]]},"properties":{"radiance":8.14}},{"type":"Feature","geometry":{"type":"Polygon","coordinates":[[[23.08125,60.402083],[23.085417,60.402083],[23.085417,60.40625],[23.08125,60.40625],[23.08125,60.402083]]]},"properties":{"radiance":8.33}},{"type":"Feature","geometry":{"type":"Polygon","coordinates":[[[23.085417,60.402083],[23.089583,60.402083],[23.089583,60.40625],[23.085417,60.40625],[23.085417,60.402083]]]},"properties":{"radiance":9.35}},{"type":"Feature","geometry":{"type":"Polygon","coordinates":[[[23.089583,60.402083],[23.09375,60.402083],[23.09375,60.40625],[23.089583,60.40625],[23.089583,60.402083]]]},"properties":{"radiance":9.6}},{"type":"Feature","geometry":{"type":"Polygon","coordinates":[[[23.09375,60.402083],[23.097917,60.402083],[23.097917,60.40625],[23.09375,60.40625],[23.09375,60.402083]]]},"properties":{"radiance":10.7}},{"type":"Feature","geometry":{"type":"Polygon","coordinates":[[[23.097917,60.402083],[23.102083,60.402083],[23.102083,60.40625],[23.097917,60.40625],[23.097917,60.402083]]]},"properties":{"radiance":9.28}},{"type":"Feature","geometry":{"type":"Polygon","coordinates":[[[23.102083,60.402083],[23.10625,60.402083],[23.10625,60.40625],[23.102083,60.40625],[23.102083,60.402083]]]},"properties":{"radiance":7.1}},{"type":"Feature","geometry":{"type":"Polygon","coordinates":[[[23.10625,60.402083],[23.110417,60.402083],[23.110417,60.40625],[23.10625,60.40625],[23.10625,60.402083]]]},"properties":{"radiance":7.84}},{"type":"Feature","geometry":{"type":"Polygon","coordinates":[[[23.110417,60.402083],[23.114583,60.402083],[23.114583,60.40625],[23.110417,60.40625],[23.110417,60.402083]]]},"properties":{"radiance":8}},{"type":"Feature","geometry":{"type":"Polygon","coordinates":[[[23.114583,60.402083],[23.11875,60.402083],[23.11875,60.40625],[23.114583,60.40625],[23.114583,60.402083]]]},"properties":{"radiance":7.52}},{"type":"Feature","geometry":{"type":"Polygon","coordinates":[[[23.11875,60.402083],[23.122917,60.402083],[23.122917,60.40625],[23.11875,60.40625],[23.11875,60.402083]]]},"properties":{"radiance":6.94}},{"type":"Feature","geometry":{"type":"Polygon","coordinates":[[[23.122917,60.402083],[23.127083,60.402083],[23.127083,60.40625],[23.122917,60.40625],[23.122917,60.402083]]]},"properties":{"radiance":7.64}},{"type":"Feature","geometry":{"type":"Polygon","coordinates":[[[23.127083,60.402083],[23.13125,60.402083],[23.13125,60.40625],[23.127083,60.40625],[23.127083,60.402083]]]},"properties":{"radiance":8.22}},{"type":"Feature","geometry":{"type":"Polygon","coordinates":[[[23.13125,60.402083],[23.135417,60.402083],[23.135417,60.40625],[23.13125,60.40625],[23.13125,60.402083]]]},"properties":{"radiance":10.02}},{"type":"Feature","geometry":{"type":"Polygon","coordinates":[[[23.135417,60.402083],[23.139583,60.402083],[23.139583,60.40625],[23.135417,60.40625],[23.135417,60.402083]]]},"properties":{"radiance":9.71}},{"type":"Feature","geometry":{"type":"Polygon","coordinates":[[[23.139583,60.402083],[23.14375,60.402083],[23.14375,60.40625],[23.139583,60.40625],[23.139583,60.402083]]]},"properties":{"radiance":9.18}},{"type":"Feature","geometry":{"type":"Polygon","coordinates":[[[23.14375,60.402083],[23.147917,60.402083],[23.147917,60.40625],[23.14375,60.40625],[23.14375,60.402083]]]},"properties":{"radiance":8.53}},{"type":"Feature","geometry":{"type":"Polygon","coordinates":[[[23.147917,60.402083],[23.152083,60.402083],[23.152083,60.40625],[23.147917,60.40625],[23.147917,60.402083]]]},"properties":{"radiance":7.37}},{"type":"Feature","geometry":{"type":"Polygon","coordinates":[[[23.152083,60.402083],[23.15625,60.402083],[23.15625,60.40625],[23.152083,60.40625],[23.152083,60.402083]]]},"properties":{"radiance":7.11}},{"type":"Feature","geometry":{"type":"Polygon","coordinates":[[[23.15625,60.402083],[23.160417,60.402083],[23.160417,60.40625],[23.15625,60.40625],[23.15625,60.402083]]]},"properties":{"radiance":8.97}},{"type":"Feature","geometry":{"type":"Polygon","coordinates":[[[23.160417,60.402083],[23.164583,60.402083],[23.164583,60.40625],[23.160417,60.40625],[23.160417,60.402083]]]},"properties":{"radiance":10.75}},{"type":"Feature","geometry":{"type":"Polygon","coordinates":[[[23.164583,60.402083],[23.16875,60.402083],[23.16875,60.40625],[23.164583,60.40625],[23.164583,60.402083]]]},"properties":{"radiance":10.26}},{"type":"Feature","geometry":{"type":"Polygon","coordinates":[[[23.16875,60.402083],[23.172917,60.402083],[23.172917,60.40625],[23.16875,60.40625],[23.16875,60.402083]]]},"properties":{"radiance":9.16}},{"type":"Feature","geometry":{"type":"Polygon","coordinates":[[[23.172917,60.402083],[23.177083,60.402083],[23.177083,60.40625],[23.172917,60.40625],[23.172917,60.402083]]]},"properties":{"radiance":8.35}},{"type":"Feature","geometry":{"type":"Polygon","coordinates":[[[23.177083,60.402083],[23.18125,60.402083],[23.18125,60.40625],[23.177083,60.40625],[23.177083,60.402083]]]},"properties":{"radiance":8.04}},{"type":"Feature","geometry":{"type":"Polygon","coordinates":[[[23.18125,60.402083],[23.185417,60.402083],[23.185417,60.40625],[23.18125,60.40625],[23.18125,60.402083]]]},"properties":{"radiance":8.21}},{"type":"Feature","geometry":{"type":"Polygon","coordinates":[[[23.185417,60.402083],[23.189583,60.402083],[23.189583,60.40625],[23.185417,60.40625],[23.185417,60.402083]]]},"properties":{"radiance":8.25}},{"type":"Feature","geometry":{"type":"Polygon","coordinates":[[[23.189583,60.402083],[23.19375,60.402083],[23.19375,60.40625],[23.189583,60.40625],[23.189583,60.402083]]]},"properties":{"radiance":6.01}},{"type":"Feature","geometry":{"type":"Polygon","coordinates":[[[23.064583,60.397917],[23.06875,60.397917],[23.06875,60.402083],[23.064583,60.402083],[23.064583,60.397917]]]},"properties":{"radiance":8.78}},{"type":"Feature","geometry":{"type":"Polygon","coordinates":[[[23.06875,60.397917],[23.072917,60.397917],[23.072917,60.402083],[23.06875,60.402083],[23.06875,60.397917]]]},"properties":{"radiance":12.26}},{"type":"Feature","geometry":{"type":"Polygon","coordinates":[[[23.072917,60.397917],[23.077083,60.397917],[23.077083,60.402083],[23.072917,60.402083],[23.072917,60.397917]]]},"properties":{"radiance":13.43}},{"type":"Feature","geometry":{"type":"Polygon","coordinates":[[[23.077083,60.397917],[23.08125,60.397917],[23.08125,60.402083],[23.077083,60.402083],[23.077083,60.397917]]]},"properties":{"radiance":14.7}},{"type":"Feature","geometry":{"type":"Polygon","coordinates":[[[23.08125,60.397917],[23.085417,60.397917],[23.085417,60.402083],[23.08125,60.402083],[23.08125,60.397917]]]},"properties":{"radiance":13.78}},{"type":"Feature","geometry":{"type":"Polygon","coordinates":[[[23.085417,60.397917],[23.089583,60.397917],[23.089583,60.402083],[23.085417,60.402083],[23.085417,60.397917]]]},"properties":{"radiance":11.99}},{"type":"Feature","geometry":{"type":"Polygon","coordinates":[[[23.089583,60.397917],[23.09375,60.397917],[23.09375,60.402083],[23.089583,60.402083],[23.089583,60.397917]]]},"properties":{"radiance":12.75}},{"type":"Feature","geometry":{"type":"Polygon","coordinates":[[[23.09375,60.397917],[23.097917,60.397917],[23.097917,60.402083],[23.09375,60.402083],[23.09375,60.397917]]]},"properties":{"radiance":15.68}},{"type":"Feature","geometry":{"type":"Polygon","coordinates":[[[23.097917,60.397917],[23.102083,60.397917],[23.102083,60.402083],[23.097917,60.402083],[23.097917,60.397917]]]},"properties":{"radiance":17.93}},{"type":"Feature","geometry":{"type":"Polygon","coordinates":[[[23.102083,60.397917],[23.10625,60.397917],[23.10625,60.402083],[23.102083,60.402083],[23.102083,60.397917]]]},"properties":{"radiance":17.11}},{"type":"Feature","geometry":{"type":"Polygon","coordinates":[[[23.10625,60.397917],[23.110417,60.397917],[23.110417,60.402083],[23.10625,60.402083],[23.10625,60.397917]]]},"properties":{"radiance":11.1}},{"type":"Feature","geometry":{"type":"Polygon","coordinates":[[[23.110417,60.397917],[23.114583,60.397917],[23.114583,60.402083],[23.110417,60.402083],[23.110417,60.397917]]]},"properties":{"radiance":13.04}},{"type":"Feature","geometry":{"type":"Polygon","coordinates":[[[23.114583,60.397917],[23.11875,60.397917],[23.11875,60.402083],[23.114583,60.402083],[23.114583,60.397917]]]},"properties":{"radiance":13.48}},{"type":"Feature","geometry":{"type":"Polygon","coordinates":[[[23.11875,60.397917],[23.122917,60.397917],[23.122917,60.402083],[23.11875,60.402083],[23.11875,60.397917]]]},"properties":{"radiance":17.86}},{"type":"Feature","geometry":{"type":"Polygon","coordinates":[[[23.122917,60.397917],[23.127083,60.397917],[23.127083,60.402083],[23.122917,60.402083],[23.122917,60.397917]]]},"properties":{"radiance":23.44}},{"type":"Feature","geometry":{"type":"Polygon","coordinates":[[[23.127083,60.397917],[23.13125,60.397917],[23.13125,60.402083],[23.127083,60.402083],[23.127083,60.397917]]]},"properties":{"radiance":22.88}},{"type":"Feature","geometry":{"type":"Polygon","coordinates":[[[23.13125,60.397917],[23.135417,60.397917],[23.135417,60.402083],[23.13125,60.402083],[23.13125,60.397917]]]},"properties":{"radiance":17.77}},{"type":"Feature","geometry":{"type":"Polygon","coordinates":[[[23.135417,60.397917],[23.139583,60.397917],[23.139583,60.402083],[23.135417,60.402083],[23.135417,60.397917]]]},"properties":{"radiance":17.4}},{"type":"Feature","geometry":{"type":"Polygon","coordinates":[[[23.139583,60.397917],[23.14375,60.397917],[23.14375,60.402083],[23.139583,60.402083],[23.139583,60.397917]]]},"properties":{"radiance":12.7}},{"type":"Feature","geometry":{"type":"Polygon","coordinates":[[[23.14375,60.397917],[23.147917,60.397917],[23.147917,60.402083],[23.14375,60.402083],[23.14375,60.397917]]]},"properties":{"radiance":11.55}},{"type":"Feature","geometry":{"type":"Polygon","coordinates":[[[23.147917,60.397917],[23.152083,60.397917],[23.152083,60.402083],[23.147917,60.402083],[23.147917,60.397917]]]},"properties":{"radiance":11.08}},{"type":"Feature","geometry":{"type":"Polygon","coordinates":[[[23.152083,60.397917],[23.15625,60.397917],[23.15625,60.402083],[23.152083,60.402083],[23.152083,60.397917]]]},"properties":{"radiance":12.61}},{"type":"Feature","geometry":{"type":"Polygon","coordinates":[[[23.15625,60.397917],[23.160417,60.397917],[23.160417,60.402083],[23.15625,60.402083],[23.15625,60.397917]]]},"properties":{"radiance":12.14}},{"type":"Feature","geometry":{"type":"Polygon","coordinates":[[[23.160417,60.397917],[23.164583,60.397917],[23.164583,60.402083],[23.160417,60.402083],[23.160417,60.397917]]]},"properties":{"radiance":12.71}},{"type":"Feature","geometry":{"type":"Polygon","coordinates":[[[23.164583,60.397917],[23.16875,60.397917],[23.16875,60.402083],[23.164583,60.402083],[23.164583,60.397917]]]},"properties":{"radiance":10.77}},{"type":"Feature","geometry":{"type":"Polygon","coordinates":[[[23.16875,60.397917],[23.172917,60.397917],[23.172917,60.402083],[23.16875,60.402083],[23.16875,60.397917]]]},"properties":{"radiance":10.27}},{"type":"Feature","geometry":{"type":"Polygon","coordinates":[[[23.172917,60.397917],[23.177083,60.397917],[23.177083,60.402083],[23.172917,60.402083],[23.172917,60.397917]]]},"properties":{"radiance":8.45}},{"type":"Feature","geometry":{"type":"Polygon","coordinates":[[[23.177083,60.397917],[23.18125,60.397917],[23.18125,60.402083],[23.177083,60.402083],[23.177083,60.397917]]]},"properties":{"radiance":8.67}},{"type":"Feature","geometry":{"type":"Polygon","coordinates":[[[23.18125,60.397917],[23.185417,60.397917],[23.185417,60.402083],[23.18125,60.402083],[23.18125,60.397917]]]},"properties":{"radiance":8.29}},{"type":"Feature","geometry":{"type":"Polygon","coordinates":[[[23.185417,60.397917],[23.189583,60.397917],[23.189583,60.402083],[23.185417,60.402083],[23.185417,60.397917]]]},"properties":{"radiance":7.35}},{"type":"Feature","geometry":{"type":"Polygon","coordinates":[[[23.189583,60.397917],[23.19375,60.397917],[23.19375,60.402083],[23.189583,60.402083],[23.189583,60.397917]]]},"properties":{"radiance":7.19}},{"type":"Feature","geometry":{"type":"Polygon","coordinates":[[[23.035417,60.39375],[23.039583,60.39375],[23.039583,60.397917],[23.035417,60.397917],[23.035417,60.39375]]]},"properties":{"radiance":5.56}},{"type":"Feature","geometry":{"type":"Polygon","coordinates":[[[23.039583,60.39375],[23.04375,60.39375],[23.04375,60.397917],[23.039583,60.397917],[23.039583,60.39375]]]},"properties":{"radiance":5.48}},{"type":"Feature","geometry":{"type":"Polygon","coordinates":[[[23.064583,60.39375],[23.06875,60.39375],[23.06875,60.397917],[23.064583,60.397917],[23.064583,60.39375]]]},"properties":{"radiance":5.78}},{"type":"Feature","geometry":{"type":"Polygon","coordinates":[[[23.06875,60.39375],[23.072917,60.39375],[23.072917,60.397917],[23.06875,60.397917],[23.06875,60.39375]]]},"properties":{"radiance":6.85}},{"type":"Feature","geometry":{"type":"Polygon","coordinates":[[[23.072917,60.39375],[23.077083,60.39375],[23.077083,60.397917],[23.072917,60.397917],[23.072917,60.39375]]]},"properties":{"radiance":11.36}},{"type":"Feature","geometry":{"type":"Polygon","coordinates":[[[23.077083,60.39375],[23.08125,60.39375],[23.08125,60.397917],[23.077083,60.397917],[23.077083,60.39375]]]},"properties":{"radiance":13.42}},{"type":"Feature","geometry":{"type":"Polygon","coordinates":[[[23.08125,60.39375],[23.085417,60.39375],[23.085417,60.397917],[23.08125,60.397917],[23.08125,60.39375]]]},"properties":{"radiance":13.92}},{"type":"Feature","geometry":{"type":"Polygon","coordinates":[[[23.085417,60.39375],[23.089583,60.39375],[23.089583,60.397917],[23.085417,60.397917],[23.085417,60.39375]]]},"properties":{"radiance":13.68}},{"type":"Feature","geometry":{"type":"Polygon","coordinates":[[[23.089583,60.39375],[23.09375,60.39375],[23.09375,60.397917],[23.089583,60.397917],[23.089583,60.39375]]]},"properties":{"radiance":14.22}},{"type":"Feature","geometry":{"type":"Polygon","coordinates":[[[23.09375,60.39375],[23.097917,60.39375],[23.097917,60.397917],[23.09375,60.397917],[23.09375,60.39375]]]},"properties":{"radiance":20.08}},{"type":"Feature","geometry":{"type":"Polygon","coordinates":[[[23.097917,60.39375],[23.102083,60.39375],[23.102083,60.397917],[23.097917,60.397917],[23.097917,60.39375]]]},"properties":{"radiance":20.15}},{"type":"Feature","geometry":{"type":"Polygon","coordinates":[[[23.102083,60.39375],[23.10625,60.39375],[23.10625,60.397917],[23.102083,60.397917],[23.102083,60.39375]]]},"properties":{"radiance":22.55}},{"type":"Feature","geometry":{"type":"Polygon","coordinates":[[[23.10625,60.39375],[23.110417,60.39375],[23.110417,60.397917],[23.10625,60.397917],[23.10625,60.39375]]]},"properties":{"radiance":35.75}},{"type":"Feature","geometry":{"type":"Polygon","coordinates":[[[23.110417,60.39375],[23.114583,60.39375],[23.114583,60.397917],[23.110417,60.397917],[23.110417,60.39375]]]},"properties":{"radiance":23.27}},{"type":"Feature","geometry":{"type":"Polygon","coordinates":[[[23.114583,60.39375],[23.11875,60.39375],[23.11875,60.397917],[23.114583,60.397917],[23.114583,60.39375]]]},"properties":{"radiance":30.55}},{"type":"Feature","geometry":{"type":"Polygon","coordinates":[[[23.11875,60.39375],[23.122917,60.39375],[23.122917,60.397917],[23.11875,60.397917],[23.11875,60.39375]]]},"properties":{"radiance":29.79}},{"type":"Feature","geometry":{"type":"Polygon","coordinates":[[[23.122917,60.39375],[23.127083,60.39375],[23.127083,60.397917],[23.122917,60.397917],[23.122917,60.39375]]]},"properties":{"radiance":30.2}},{"type":"Feature","geometry":{"type":"Polygon","coordinates":[[[23.127083,60.39375],[23.13125,60.39375],[23.13125,60.397917],[23.127083,60.397917],[23.127083,60.39375]]]},"properties":{"radiance":28.71}},{"type":"Feature","geometry":{"type":"Polygon","coordinates":[[[23.13125,60.39375],[23.135417,60.39375],[23.135417,60.397917],[23.13125,60.397917],[23.13125,60.39375]]]},"properties":{"radiance":23.2}},{"type":"Feature","geometry":{"type":"Polygon","coordinates":[[[23.135417,60.39375],[23.139583,60.39375],[23.139583,60.397917],[23.135417,60.397917],[23.135417,60.39375]]]},"properties":{"radiance":17.63}},{"type":"Feature","geometry":{"type":"Polygon","coordinates":[[[23.139583,60.39375],[23.14375,60.39375],[23.14375,60.397917],[23.139583,60.397917],[23.139583,60.39375]]]},"properties":{"radiance":17.72}},{"type":"Feature","geometry":{"type":"Polygon","coordinates":[[[23.14375,60.39375],[23.147917,60.39375],[23.147917,60.397917],[23.14375,60.397917],[23.14375,60.39375]]]},"properties":{"radiance":18.37}},{"type":"Feature","geometry":{"type":"Polygon","coordinates":[[[23.147917,60.39375],[23.152083,60.39375],[23.152083,60.397917],[23.147917,60.397917],[23.147917,60.39375]]]},"properties":{"radiance":13.59}},{"type":"Feature","geometry":{"type":"Polygon","coordinates":[[[23.152083,60.39375],[23.15625,60.39375],[23.15625,60.397917],[23.152083,60.397917],[23.152083,60.39375]]]},"properties":{"radiance":13.56}},{"type":"Feature","geometry":{"type":"Polygon","coordinates":[[[23.15625,60.39375],[23.160417,60.39375],[23.160417,60.397917],[23.15625,60.397917],[23.15625,60.39375]]]},"properties":{"radiance":16.66}},{"type":"Feature","geometry":{"type":"Polygon","coordinates":[[[23.160417,60.39375],[23.164583,60.39375],[23.164583,60.397917],[23.160417,60.397917],[23.160417,60.39375]]]},"properties":{"radiance":12.33}},{"type":"Feature","geometry":{"type":"Polygon","coordinates":[[[23.164583,60.39375],[23.16875,60.39375],[23.16875,60.397917],[23.164583,60.397917],[23.164583,60.39375]]]},"properties":{"radiance":7.59}},{"type":"Feature","geometry":{"type":"Polygon","coordinates":[[[23.16875,60.39375],[23.172917,60.39375],[23.172917,60.397917],[23.16875,60.397917],[23.16875,60.39375]]]},"properties":{"radiance":6.55}},{"type":"Feature","geometry":{"type":"Polygon","coordinates":[[[23.172917,60.39375],[23.177083,60.39375],[23.177083,60.397917],[23.172917,60.397917],[23.172917,60.39375]]]},"properties":{"radiance":6.65}},{"type":"Feature","geometry":{"type":"Polygon","coordinates":[[[23.177083,60.39375],[23.18125,60.39375],[23.18125,60.397917],[23.177083,60.397917],[23.177083,60.39375]]]},"properties":{"radiance":6.63}},{"type":"Feature","geometry":{"type":"Polygon","coordinates":[[[23.18125,60.39375],[23.185417,60.39375],[23.185417,60.397917],[23.18125,60.397917],[23.18125,60.39375]]]},"properties":{"radiance":7.09}},{"type":"Feature","geometry":{"type":"Polygon","coordinates":[[[23.185417,60.39375],[23.189583,60.39375],[23.189583,60.397917],[23.185417,60.397917],[23.185417,60.39375]]]},"properties":{"radiance":6.35}},{"type":"Feature","geometry":{"type":"Polygon","coordinates":[[[23.03125,60.389583],[23.035417,60.389583],[23.035417,60.39375],[23.03125,60.39375],[23.03125,60.389583]]]},"properties":{"radiance":6.97}},{"type":"Feature","geometry":{"type":"Polygon","coordinates":[[[23.035417,60.389583],[23.039583,60.389583],[23.039583,60.39375],[23.035417,60.39375],[23.035417,60.389583]]]},"properties":{"radiance":8.54}},{"type":"Feature","geometry":{"type":"Polygon","coordinates":[[[23.039583,60.389583],[23.04375,60.389583],[23.04375,60.39375],[23.039583,60.39375],[23.039583,60.389583]]]},"properties":{"radiance":9.56}},{"type":"Feature","geometry":{"type":"Polygon","coordinates":[[[23.04375,60.389583],[23.047917,60.389583],[23.047917,60.39375],[23.04375,60.39375],[23.04375,60.389583]]]},"properties":{"radiance":8.92}},{"type":"Feature","geometry":{"type":"Polygon","coordinates":[[[23.047917,60.389583],[23.052083,60.389583],[23.052083,60.39375],[23.047917,60.39375],[23.047917,60.389583]]]},"properties":{"radiance":6.12}},{"type":"Feature","geometry":{"type":"Polygon","coordinates":[[[23.077083,60.389583],[23.08125,60.389583],[23.08125,60.39375],[23.077083,60.39375],[23.077083,60.389583]]]},"properties":{"radiance":6.32}},{"type":"Feature","geometry":{"type":"Polygon","coordinates":[[[23.085417,60.389583],[23.089583,60.389583],[23.089583,60.39375],[23.085417,60.39375],[23.085417,60.389583]]]},"properties":{"radiance":7.65}},{"type":"Feature","geometry":{"type":"Polygon","coordinates":[[[23.089583,60.389583],[23.09375,60.389583],[23.09375,60.39375],[23.089583,60.39375],[23.089583,60.389583]]]},"properties":{"radiance":15.14}},{"type":"Feature","geometry":{"type":"Polygon","coordinates":[[[23.09375,60.389583],[23.097917,60.389583],[23.097917,60.39375],[23.09375,60.39375],[23.09375,60.389583]]]},"properties":{"radiance":19.44}},{"type":"Feature","geometry":{"type":"Polygon","coordinates":[[[23.097917,60.389583],[23.102083,60.389583],[23.102083,60.39375],[23.097917,60.39375],[23.097917,60.389583]]]},"properties":{"radiance":39.71}},{"type":"Feature","geometry":{"type":"Polygon","coordinates":[[[23.102083,60.389583],[23.10625,60.389583],[23.10625,60.39375],[23.102083,60.39375],[23.102083,60.389583]]]},"properties":{"radiance":33.78}},{"type":"Feature","geometry":{"type":"Polygon","coordinates":[[[23.10625,60.389583],[23.110417,60.389583],[23.110417,60.39375],[23.10625,60.39375],[23.10625,60.389583]]]},"properties":{"radiance":41.72}},{"type":"Feature","geometry":{"type":"Polygon","coordinates":[[[23.110417,60.389583],[23.114583,60.389583],[23.114583,60.39375],[23.110417,60.39375],[23.110417,60.389583]]]},"properties":{"radiance":40.83}},{"type":"Feature","geometry":{"type":"Polygon","coordinates":[[[23.114583,60.389583],[23.11875,60.389583],[23.11875,60.39375],[23.114583,60.39375],[23.114583,60.389583]]]},"properties":{"radiance":40.62}},{"type":"Feature","geometry":{"type":"Polygon","coordinates":[[[23.11875,60.389583],[23.122917,60.389583],[23.122917,60.39375],[23.11875,60.39375],[23.11875,60.389583]]]},"properties":{"radiance":48.13}},{"type":"Feature","geometry":{"type":"Polygon","coordinates":[[[23.122917,60.389583],[23.127083,60.389583],[23.127083,60.39375],[23.122917,60.39375],[23.122917,60.389583]]]},"properties":{"radiance":43.52}},{"type":"Feature","geometry":{"type":"Polygon","coordinates":[[[23.127083,60.389583],[23.13125,60.389583],[23.13125,60.39375],[23.127083,60.39375],[23.127083,60.389583]]]},"properties":{"radiance":47.82}},{"type":"Feature","geometry":{"type":"Polygon","coordinates":[[[23.13125,60.389583],[23.135417,60.389583],[23.135417,60.39375],[23.13125,60.39375],[23.13125,60.389583]]]},"properties":{"radiance":43.29}},{"type":"Feature","geometry":{"type":"Polygon","coordinates":[[[23.135417,60.389583],[23.139583,60.389583],[23.139583,60.39375],[23.135417,60.39375],[23.135417,60.389583]]]},"properties":{"radiance":37.99}},{"type":"Feature","geometry":{"type":"Polygon","coordinates":[[[23.139583,60.389583],[23.14375,60.389583],[23.14375,60.39375],[23.139583,60.39375],[23.139583,60.389583]]]},"properties":{"radiance":26.21}},{"type":"Feature","geometry":{"type":"Polygon","coordinates":[[[23.14375,60.389583],[23.147917,60.389583],[23.147917,60.39375],[23.14375,60.39375],[23.14375,60.389583]]]},"properties":{"radiance":26.58}},{"type":"Feature","geometry":{"type":"Polygon","coordinates":[[[23.147917,60.389583],[23.152083,60.389583],[23.152083,60.39375],[23.147917,60.39375],[23.147917,60.389583]]]},"properties":{"radiance":25.34}},{"type":"Feature","geometry":{"type":"Polygon","coordinates":[[[23.152083,60.389583],[23.15625,60.389583],[23.15625,60.39375],[23.152083,60.39375],[23.152083,60.389583]]]},"properties":{"radiance":19.34}},{"type":"Feature","geometry":{"type":"Polygon","coordinates":[[[23.15625,60.389583],[23.160417,60.389583],[23.160417,60.39375],[23.15625,60.39375],[23.15625,60.389583]]]},"properties":{"radiance":20.39}},{"type":"Feature","geometry":{"type":"Polygon","coordinates":[[[23.160417,60.389583],[23.164583,60.389583],[23.164583,60.39375],[23.160417,60.39375],[23.160417,60.389583]]]},"properties":{"radiance":13.96}},{"type":"Feature","geometry":{"type":"Polygon","coordinates":[[[23.164583,60.389583],[23.16875,60.389583],[23.16875,60.39375],[23.164583,60.39375],[23.164583,60.389583]]]},"properties":{"radiance":7.45}},{"type":"Feature","geometry":{"type":"Polygon","coordinates":[[[23.16875,60.389583],[23.172917,60.389583],[23.172917,60.39375],[23.16875,60.39375],[23.16875,60.389583]]]},"properties":{"radiance":6.84}},{"type":"Feature","geometry":{"type":"Polygon","coordinates":[[[23.172917,60.389583],[23.177083,60.389583],[23.177083,60.39375],[23.172917,60.39375],[23.172917,60.389583]]]},"properties":{"radiance":6.39}},{"type":"Feature","geometry":{"type":"Polygon","coordinates":[[[23.177083,60.389583],[23.18125,60.389583],[23.18125,60.39375],[23.177083,60.39375],[23.177083,60.389583]]]},"properties":{"radiance":5.35}},{"type":"Feature","geometry":{"type":"Polygon","coordinates":[[[23.18125,60.389583],[23.185417,60.389583],[23.185417,60.39375],[23.18125,60.39375],[23.18125,60.389583]]]},"properties":{"radiance":5.05}},{"type":"Feature","geometry":{"type":"Polygon","coordinates":[[[23.572917,60.389583],[23.577083,60.389583],[23.577083,60.39375],[23.572917,60.39375],[23.572917,60.389583]]]},"properties":{"radiance":6.12}},{"type":"Feature","geometry":{"type":"Polygon","coordinates":[[[23.577083,60.389583],[23.58125,60.389583],[23.58125,60.39375],[23.577083,60.39375],[23.577083,60.389583]]]},"properties":{"radiance":6.03}},{"type":"Feature","geometry":{"type":"Polygon","coordinates":[[[23.58125,60.389583],[23.585417,60.389583],[23.585417,60.39375],[23.58125,60.39375],[23.58125,60.389583]]]},"properties":{"radiance":7.11}},{"type":"Feature","geometry":{"type":"Polygon","coordinates":[[[23.585417,60.389583],[23.589583,60.389583],[23.589583,60.39375],[23.585417,60.39375],[23.585417,60.389583]]]},"properties":{"radiance":5.05}},{"type":"Feature","geometry":{"type":"Polygon","coordinates":[[[23.03125,60.385417],[23.035417,60.385417],[23.035417,60.389583],[23.03125,60.389583],[23.03125,60.385417]]]},"properties":{"radiance":9}},{"type":"Feature","geometry":{"type":"Polygon","coordinates":[[[23.035417,60.385417],[23.039583,60.385417],[23.039583,60.389583],[23.035417,60.389583],[23.035417,60.385417]]]},"properties":{"radiance":8.2}},{"type":"Feature","geometry":{"type":"Polygon","coordinates":[[[23.039583,60.385417],[23.04375,60.385417],[23.04375,60.389583],[23.039583,60.389583],[23.039583,60.385417]]]},"properties":{"radiance":10.26}},{"type":"Feature","geometry":{"type":"Polygon","coordinates":[[[23.04375,60.385417],[23.047917,60.385417],[23.047917,60.389583],[23.04375,60.389583],[23.04375,60.385417]]]},"properties":{"radiance":5.73}},{"type":"Feature","geometry":{"type":"Polygon","coordinates":[[[23.047917,60.385417],[23.052083,60.385417],[23.052083,60.389583],[23.047917,60.389583],[23.047917,60.385417]]]},"properties":{"radiance":5.95}},{"type":"Feature","geometry":{"type":"Polygon","coordinates":[[[23.052083,60.385417],[23.05625,60.385417],[23.05625,60.389583],[23.052083,60.389583],[23.052083,60.385417]]]},"properties":{"radiance":5.46}},{"type":"Feature","geometry":{"type":"Polygon","coordinates":[[[23.05625,60.385417],[23.060417,60.385417],[23.060417,60.389583],[23.05625,60.389583],[23.05625,60.385417]]]},"properties":{"radiance":5.39}},{"type":"Feature","geometry":{"type":"Polygon","coordinates":[[[23.060417,60.385417],[23.064583,60.385417],[23.064583,60.389583],[23.060417,60.389583],[23.060417,60.385417]]]},"properties":{"radiance":6.21}},{"type":"Feature","geometry":{"type":"Polygon","coordinates":[[[23.064583,60.385417],[23.06875,60.385417],[23.06875,60.389583],[23.064583,60.389583],[23.064583,60.385417]]]},"properties":{"radiance":6.23}},{"type":"Feature","geometry":{"type":"Polygon","coordinates":[[[23.06875,60.385417],[23.072917,60.385417],[23.072917,60.389583],[23.06875,60.389583],[23.06875,60.385417]]]},"properties":{"radiance":5.62}},{"type":"Feature","geometry":{"type":"Polygon","coordinates":[[[23.089583,60.385417],[23.09375,60.385417],[23.09375,60.389583],[23.089583,60.389583],[23.089583,60.385417]]]},"properties":{"radiance":9.31}},{"type":"Feature","geometry":{"type":"Polygon","coordinates":[[[23.09375,60.385417],[23.097917,60.385417],[23.097917,60.389583],[23.09375,60.389583],[23.09375,60.385417]]]},"properties":{"radiance":22.78}},{"type":"Feature","geometry":{"type":"Polygon","coordinates":[[[23.097917,60.385417],[23.102083,60.385417],[23.102083,60.389583],[23.097917,60.389583],[23.097917,60.385417]]]},"properties":{"radiance":29.17}},{"type":"Feature","geometry":{"type":"Polygon","coordinates":[[[23.102083,60.385417],[23.10625,60.385417],[23.10625,60.389583],[23.102083,60.389583],[23.102083,60.385417]]]},"properties":{"radiance":36.53}},{"type":"Feature","geometry":{"type":"Polygon","coordinates":[[[23.10625,60.385417],[23.110417,60.385417],[23.110417,60.389583],[23.10625,60.389583],[23.10625,60.385417]]]},"properties":{"radiance":45.94}},{"type":"Feature","geometry":{"type":"Polygon","coordinates":[[[23.110417,60.385417],[23.114583,60.385417],[23.114583,60.389583],[23.110417,60.389583],[23.110417,60.385417]]]},"properties":{"radiance":53.2}},{"type":"Feature","geometry":{"type":"Polygon","coordinates":[[[23.114583,60.385417],[23.11875,60.385417],[23.11875,60.389583],[23.114583,60.389583],[23.114583,60.385417]]]},"properties":{"radiance":57.74}},{"type":"Feature","geometry":{"type":"Polygon","coordinates":[[[23.11875,60.385417],[23.122917,60.385417],[23.122917,60.389583],[23.11875,60.389583],[23.11875,60.385417]]]},"properties":{"radiance":64.8}},{"type":"Feature","geometry":{"type":"Polygon","coordinates":[[[23.122917,60.385417],[23.127083,60.385417],[23.127083,60.389583],[23.122917,60.389583],[23.122917,60.385417]]]},"properties":{"radiance":65.32}},{"type":"Feature","geometry":{"type":"Polygon","coordinates":[[[23.127083,60.385417],[23.13125,60.385417],[23.13125,60.389583],[23.127083,60.389583],[23.127083,60.385417]]]},"properties":{"radiance":63.21}},{"type":"Feature","geometry":{"type":"Polygon","coordinates":[[[23.13125,60.385417],[23.135417,60.385417],[23.135417,60.389583],[23.13125,60.389583],[23.13125,60.385417]]]},"properties":{"radiance":46.39}},{"type":"Feature","geometry":{"type":"Polygon","coordinates":[[[23.135417,60.385417],[23.139583,60.385417],[23.139583,60.389583],[23.135417,60.389583],[23.135417,60.385417]]]},"properties":{"radiance":37.69}},{"type":"Feature","geometry":{"type":"Polygon","coordinates":[[[23.139583,60.385417],[23.14375,60.385417],[23.14375,60.389583],[23.139583,60.389583],[23.139583,60.385417]]]},"properties":{"radiance":28.92}},{"type":"Feature","geometry":{"type":"Polygon","coordinates":[[[23.14375,60.385417],[23.147917,60.385417],[23.147917,60.389583],[23.14375,60.389583],[23.14375,60.385417]]]},"properties":{"radiance":19.63}},{"type":"Feature","geometry":{"type":"Polygon","coordinates":[[[23.147917,60.385417],[23.152083,60.385417],[23.152083,60.389583],[23.147917,60.389583],[23.147917,60.385417]]]},"properties":{"radiance":20.16}},{"type":"Feature","geometry":{"type":"Polygon","coordinates":[[[23.152083,60.385417],[23.15625,60.385417],[23.15625,60.389583],[23.152083,60.389583],[23.152083,60.385417]]]},"properties":{"radiance":19.07}},{"type":"Feature","geometry":{"type":"Polygon","coordinates":[[[23.15625,60.385417],[23.160417,60.385417],[23.160417,60.389583],[23.15625,60.389583],[23.15625,60.385417]]]},"properties":{"radiance":17.68}},{"type":"Feature","geometry":{"type":"Polygon","coordinates":[[[23.160417,60.385417],[23.164583,60.385417],[23.164583,60.389583],[23.160417,60.389583],[23.160417,60.385417]]]},"properties":{"radiance":14.09}},{"type":"Feature","geometry":{"type":"Polygon","coordinates":[[[23.164583,60.385417],[23.16875,60.385417],[23.16875,60.389583],[23.164583,60.389583],[23.164583,60.385417]]]},"properties":{"radiance":10.55}},{"type":"Feature","geometry":{"type":"Polygon","coordinates":[[[23.16875,60.385417],[23.172917,60.385417],[23.172917,60.389583],[23.16875,60.389583],[23.16875,60.385417]]]},"properties":{"radiance":7.86}},{"type":"Feature","geometry":{"type":"Polygon","coordinates":[[[23.172917,60.385417],[23.177083,60.385417],[23.177083,60.389583],[23.172917,60.389583],[23.172917,60.385417]]]},"properties":{"radiance":5.61}},{"type":"Feature","geometry":{"type":"Polygon","coordinates":[[[23.177083,60.385417],[23.18125,60.385417],[23.18125,60.389583],[23.177083,60.389583],[23.177083,60.385417]]]},"properties":{"radiance":5.07}},{"type":"Feature","geometry":{"type":"Polygon","coordinates":[[[23.21875,60.385417],[23.222917,60.385417],[23.222917,60.389583],[23.21875,60.389583],[23.21875,60.385417]]]},"properties":{"radiance":5.5}},{"type":"Feature","geometry":{"type":"Polygon","coordinates":[[[23.222917,60.385417],[23.227083,60.385417],[23.227083,60.389583],[23.222917,60.389583],[23.222917,60.385417]]]},"properties":{"radiance":7.79}},{"type":"Feature","geometry":{"type":"Polygon","coordinates":[[[23.227083,60.385417],[23.23125,60.385417],[23.23125,60.389583],[23.227083,60.389583],[23.227083,60.385417]]]},"properties":{"radiance":7.81}},{"type":"Feature","geometry":{"type":"Polygon","coordinates":[[[23.614583,60.385417],[23.61875,60.385417],[23.61875,60.389583],[23.614583,60.389583],[23.614583,60.385417]]]},"properties":{"radiance":6.61}},{"type":"Feature","geometry":{"type":"Polygon","coordinates":[[[23.060417,60.38125],[23.064583,60.38125],[23.064583,60.385417],[23.060417,60.385417],[23.060417,60.38125]]]},"properties":{"radiance":6.48}},{"type":"Feature","geometry":{"type":"Polygon","coordinates":[[[23.064583,60.38125],[23.06875,60.38125],[23.06875,60.385417],[23.064583,60.385417],[23.064583,60.38125]]]},"properties":{"radiance":5.56}},{"type":"Feature","geometry":{"type":"Polygon","coordinates":[[[23.09375,60.38125],[23.097917,60.38125],[23.097917,60.385417],[23.09375,60.385417],[23.09375,60.38125]]]},"properties":{"radiance":8.95}},{"type":"Feature","geometry":{"type":"Polygon","coordinates":[[[23.097917,60.38125],[23.102083,60.38125],[23.102083,60.385417],[23.097917,60.385417],[23.097917,60.38125]]]},"properties":{"radiance":21.83}},{"type":"Feature","geometry":{"type":"Polygon","coordinates":[[[23.102083,60.38125],[23.10625,60.38125],[23.10625,60.385417],[23.102083,60.385417],[23.102083,60.38125]]]},"properties":{"radiance":27.02}},{"type":"Feature","geometry":{"type":"Polygon","coordinates":[[[23.10625,60.38125],[23.110417,60.38125],[23.110417,60.385417],[23.10625,60.385417],[23.10625,60.38125]]]},"properties":{"radiance":30.98}},{"type":"Feature","geometry":{"type":"Polygon","coordinates":[[[23.110417,60.38125],[23.114583,60.38125],[23.114583,60.385417],[23.110417,60.385417],[23.110417,60.38125]]]},"properties":{"radiance":38.91}},{"type":"Feature","geometry":{"type":"Polygon","coordinates":[[[23.114583,60.38125],[23.11875,60.38125],[23.11875,60.385417],[23.114583,60.385417],[23.114583,60.38125]]]},"properties":{"radiance":40.04}},{"type":"Feature","geometry":{"type":"Polygon","coordinates":[[[23.11875,60.38125],[23.122917,60.38125],[23.122917,60.385417],[23.11875,60.385417],[23.11875,60.38125]]]},"properties":{"radiance":44.08}},{"type":"Feature","geometry":{"type":"Polygon","coordinates":[[[23.122917,60.38125],[23.127083,60.38125],[23.127083,60.385417],[23.122917,60.385417],[23.122917,60.38125]]]},"properties":{"radiance":51.41}},{"type":"Feature","geometry":{"type":"Polygon","coordinates":[[[23.127083,60.38125],[23.13125,60.38125],[23.13125,60.385417],[23.127083,60.385417],[23.127083,60.38125]]]},"properties":{"radiance":44.69}},{"type":"Feature","geometry":{"type":"Polygon","coordinates":[[[23.13125,60.38125],[23.135417,60.38125],[23.135417,60.385417],[23.13125,60.385417],[23.13125,60.38125]]]},"properties":{"radiance":43.51}},{"type":"Feature","geometry":{"type":"Polygon","coordinates":[[[23.135417,60.38125],[23.139583,60.38125],[23.139583,60.385417],[23.135417,60.385417],[23.135417,60.38125]]]},"properties":{"radiance":25.81}},{"type":"Feature","geometry":{"type":"Polygon","coordinates":[[[23.139583,60.38125],[23.14375,60.38125],[23.14375,60.385417],[23.139583,60.385417],[23.139583,60.38125]]]},"properties":{"radiance":24.07}},{"type":"Feature","geometry":{"type":"Polygon","coordinates":[[[23.14375,60.38125],[23.147917,60.38125],[23.147917,60.385417],[23.14375,60.385417],[23.14375,60.38125]]]},"properties":{"radiance":17.71}},{"type":"Feature","geometry":{"type":"Polygon","coordinates":[[[23.147917,60.38125],[23.152083,60.38125],[23.152083,60.385417],[23.147917,60.385417],[23.147917,60.38125]]]},"properties":{"radiance":14.75}},{"type":"Feature","geometry":{"type":"Polygon","coordinates":[[[23.152083,60.38125],[23.15625,60.38125],[23.15625,60.385417],[23.152083,60.385417],[23.152083,60.38125]]]},"properties":{"radiance":14.48}},{"type":"Feature","geometry":{"type":"Polygon","coordinates":[[[23.15625,60.38125],[23.160417,60.38125],[23.160417,60.385417],[23.15625,60.385417],[23.15625,60.38125]]]},"properties":{"radiance":13.85}},{"type":"Feature","geometry":{"type":"Polygon","coordinates":[[[23.160417,60.38125],[23.164583,60.38125],[23.164583,60.385417],[23.160417,60.385417],[23.160417,60.38125]]]},"properties":{"radiance":11.56}},{"type":"Feature","geometry":{"type":"Polygon","coordinates":[[[23.164583,60.38125],[23.16875,60.38125],[23.16875,60.385417],[23.164583,60.385417],[23.164583,60.38125]]]},"properties":{"radiance":9.79}},{"type":"Feature","geometry":{"type":"Polygon","coordinates":[[[23.16875,60.38125],[23.172917,60.38125],[23.172917,60.385417],[23.16875,60.385417],[23.16875,60.38125]]]},"properties":{"radiance":8.39}},{"type":"Feature","geometry":{"type":"Polygon","coordinates":[[[23.172917,60.38125],[23.177083,60.38125],[23.177083,60.385417],[23.172917,60.385417],[23.172917,60.38125]]]},"properties":{"radiance":5.72}},{"type":"Feature","geometry":{"type":"Polygon","coordinates":[[[23.18125,60.38125],[23.185417,60.38125],[23.185417,60.385417],[23.18125,60.385417],[23.18125,60.38125]]]},"properties":{"radiance":5.2}},{"type":"Feature","geometry":{"type":"Polygon","coordinates":[[[23.20625,60.38125],[23.210417,60.38125],[23.210417,60.385417],[23.20625,60.385417],[23.20625,60.38125]]]},"properties":{"radiance":7.01}},{"type":"Feature","geometry":{"type":"Polygon","coordinates":[[[23.214583,60.38125],[23.21875,60.38125],[23.21875,60.385417],[23.214583,60.385417],[23.214583,60.38125]]]},"properties":{"radiance":14.31}},{"type":"Feature","geometry":{"type":"Polygon","coordinates":[[[23.21875,60.38125],[23.222917,60.38125],[23.222917,60.385417],[23.21875,60.385417],[23.21875,60.38125]]]},"properties":{"radiance":20.68}},{"type":"Feature","geometry":{"type":"Polygon","coordinates":[[[23.222917,60.38125],[23.227083,60.38125],[23.227083,60.385417],[23.222917,60.385417],[23.222917,60.38125]]]},"properties":{"radiance":20.58}},{"type":"Feature","geometry":{"type":"Polygon","coordinates":[[[23.30625,60.38125],[23.310417,60.38125],[23.310417,60.385417],[23.30625,60.385417],[23.30625,60.38125]]]},"properties":{"radiance":5.72}},{"type":"Feature","geometry":{"type":"Polygon","coordinates":[[[23.310417,60.38125],[23.314583,60.38125],[23.314583,60.385417],[23.310417,60.385417],[23.310417,60.38125]]]},"properties":{"radiance":8.91}},{"type":"Feature","geometry":{"type":"Polygon","coordinates":[[[23.314583,60.38125],[23.31875,60.38125],[23.31875,60.385417],[23.314583,60.385417],[23.314583,60.38125]]]},"properties":{"radiance":10.29}},{"type":"Feature","geometry":{"type":"Polygon","coordinates":[[[23.31875,60.38125],[23.322917,60.38125],[23.322917,60.385417],[23.31875,60.385417],[23.31875,60.38125]]]},"properties":{"radiance":9.92}},{"type":"Feature","geometry":{"type":"Polygon","coordinates":[[[23.322917,60.38125],[23.327083,60.38125],[23.327083,60.385417],[23.322917,60.385417],[23.322917,60.38125]]]},"properties":{"radiance":6.84}},{"type":"Feature","geometry":{"type":"Polygon","coordinates":[[[23.44375,60.38125],[23.447917,60.38125],[23.447917,60.385417],[23.44375,60.385417],[23.44375,60.38125]]]},"properties":{"radiance":5.4}},{"type":"Feature","geometry":{"type":"Polygon","coordinates":[[[23.447917,60.38125],[23.452083,60.38125],[23.452083,60.385417],[23.447917,60.385417],[23.447917,60.38125]]]},"properties":{"radiance":5.89}},{"type":"Feature","geometry":{"type":"Polygon","coordinates":[[[23.60625,60.38125],[23.610417,60.38125],[23.610417,60.385417],[23.60625,60.385417],[23.60625,60.38125]]]},"properties":{"radiance":13.66}},{"type":"Feature","geometry":{"type":"Polygon","coordinates":[[[23.610417,60.38125],[23.614583,60.38125],[23.614583,60.385417],[23.610417,60.385417],[23.610417,60.38125]]]},"properties":{"radiance":20.5}},{"type":"Feature","geometry":{"type":"Polygon","coordinates":[[[23.614583,60.38125],[23.61875,60.38125],[23.61875,60.385417],[23.614583,60.385417],[23.614583,60.38125]]]},"properties":{"radiance":15.99}},{"type":"Feature","geometry":{"type":"Polygon","coordinates":[[[23.61875,60.38125],[23.622917,60.38125],[23.622917,60.385417],[23.61875,60.385417],[23.61875,60.38125]]]},"properties":{"radiance":9.62}},{"type":"Feature","geometry":{"type":"Polygon","coordinates":[[[23.09375,60.377083],[23.097917,60.377083],[23.097917,60.38125],[23.09375,60.38125],[23.09375,60.377083]]]},"properties":{"radiance":8.1}},{"type":"Feature","geometry":{"type":"Polygon","coordinates":[[[23.097917,60.377083],[23.102083,60.377083],[23.102083,60.38125],[23.097917,60.38125],[23.097917,60.377083]]]},"properties":{"radiance":16.19}},{"type":"Feature","geometry":{"type":"Polygon","coordinates":[[[23.102083,60.377083],[23.10625,60.377083],[23.10625,60.38125],[23.102083,60.38125],[23.102083,60.377083]]]},"properties":{"radiance":21.36}},{"type":"Feature","geometry":{"type":"Polygon","coordinates":[[[23.10625,60.377083],[23.110417,60.377083],[23.110417,60.38125],[23.10625,60.38125],[23.10625,60.377083]]]},"properties":{"radiance":24.74}},{"type":"Feature","geometry":{"type":"Polygon","coordinates":[[[23.110417,60.377083],[23.114583,60.377083],[23.114583,60.38125],[23.110417,60.38125],[23.110417,60.377083]]]},"properties":{"radiance":24.64}},{"type":"Feature","geometry":{"type":"Polygon","coordinates":[[[23.114583,60.377083],[23.11875,60.377083],[23.11875,60.38125],[23.114583,60.38125],[23.114583,60.377083]]]},"properties":{"radiance":26.71}},{"type":"Feature","geometry":{"type":"Polygon","coordinates":[[[23.11875,60.377083],[23.122917,60.377083],[23.122917,60.38125],[23.11875,60.38125],[23.11875,60.377083]]]},"properties":{"radiance":24.42}},{"type":"Feature","geometry":{"type":"Polygon","coordinates":[[[23.122917,60.377083],[23.127083,60.377083],[23.127083,60.38125],[23.122917,60.38125],[23.122917,60.377083]]]},"properties":{"radiance":26.24}},{"type":"Feature","geometry":{"type":"Polygon","coordinates":[[[23.127083,60.377083],[23.13125,60.377083],[23.13125,60.38125],[23.127083,60.38125],[23.127083,60.377083]]]},"properties":{"radiance":24.54}},{"type":"Feature","geometry":{"type":"Polygon","coordinates":[[[23.13125,60.377083],[23.135417,60.377083],[23.135417,60.38125],[23.13125,60.38125],[23.13125,60.377083]]]},"properties":{"radiance":21.13}},{"type":"Feature","geometry":{"type":"Polygon","coordinates":[[[23.135417,60.377083],[23.139583,60.377083],[23.139583,60.38125],[23.135417,60.38125],[23.135417,60.377083]]]},"properties":{"radiance":17.06}},{"type":"Feature","geometry":{"type":"Polygon","coordinates":[[[23.139583,60.377083],[23.14375,60.377083],[23.14375,60.38125],[23.139583,60.38125],[23.139583,60.377083]]]},"properties":{"radiance":11.36}},{"type":"Feature","geometry":{"type":"Polygon","coordinates":[[[23.14375,60.377083],[23.147917,60.377083],[23.147917,60.38125],[23.14375,60.38125],[23.14375,60.377083]]]},"properties":{"radiance":9.72}},{"type":"Feature","geometry":{"type":"Polygon","coordinates":[[[23.147917,60.377083],[23.152083,60.377083],[23.152083,60.38125],[23.147917,60.38125],[23.147917,60.377083]]]},"properties":{"radiance":9.23}},{"type":"Feature","geometry":{"type":"Polygon","coordinates":[[[23.152083,60.377083],[23.15625,60.377083],[23.15625,60.38125],[23.152083,60.38125],[23.152083,60.377083]]]},"properties":{"radiance":11.05}},{"type":"Feature","geometry":{"type":"Polygon","coordinates":[[[23.15625,60.377083],[23.160417,60.377083],[23.160417,60.38125],[23.15625,60.38125],[23.15625,60.377083]]]},"properties":{"radiance":10.63}},{"type":"Feature","geometry":{"type":"Polygon","coordinates":[[[23.160417,60.377083],[23.164583,60.377083],[23.164583,60.38125],[23.160417,60.38125],[23.160417,60.377083]]]},"properties":{"radiance":9.09}},{"type":"Feature","geometry":{"type":"Polygon","coordinates":[[[23.164583,60.377083],[23.16875,60.377083],[23.16875,60.38125],[23.164583,60.38125],[23.164583,60.377083]]]},"properties":{"radiance":8.98}},{"type":"Feature","geometry":{"type":"Polygon","coordinates":[[[23.16875,60.377083],[23.172917,60.377083],[23.172917,60.38125],[23.16875,60.38125],[23.16875,60.377083]]]},"properties":{"radiance":6.95}},{"type":"Feature","geometry":{"type":"Polygon","coordinates":[[[23.172917,60.377083],[23.177083,60.377083],[23.177083,60.38125],[23.172917,60.38125],[23.172917,60.377083]]]},"properties":{"radiance":6.19}},{"type":"Feature","geometry":{"type":"Polygon","coordinates":[[[23.177083,60.377083],[23.18125,60.377083],[23.18125,60.38125],[23.177083,60.38125],[23.177083,60.377083]]]},"properties":{"radiance":5.19}},{"type":"Feature","geometry":{"type":"Polygon","coordinates":[[[23.20625,60.377083],[23.210417,60.377083],[23.210417,60.38125],[23.20625,60.38125],[23.20625,60.377083]]]},"properties":{"radiance":6.03}},{"type":"Feature","geometry":{"type":"Polygon","coordinates":[[[23.210417,60.377083],[23.214583,60.377083],[23.214583,60.38125],[23.210417,60.38125],[23.210417,60.377083]]]},"properties":{"radiance":11.29}},{"type":"Feature","geometry":{"type":"Polygon","coordinates":[[[23.214583,60.377083],[23.21875,60.377083],[23.21875,60.38125],[23.214583,60.38125],[23.214583,60.377083]]]},"properties":{"radiance":9.58}},{"type":"Feature","geometry":{"type":"Polygon","coordinates":[[[23.21875,60.377083],[23.222917,60.377083],[23.222917,60.38125],[23.21875,60.38125],[23.21875,60.377083]]]},"properties":{"radiance":6.38}},{"type":"Feature","geometry":{"type":"Polygon","coordinates":[[[23.222917,60.377083],[23.227083,60.377083],[23.227083,60.38125],[23.222917,60.38125],[23.222917,60.377083]]]},"properties":{"radiance":8.45}},{"type":"Feature","geometry":{"type":"Polygon","coordinates":[[[23.310417,60.377083],[23.314583,60.377083],[23.314583,60.38125],[23.310417,60.38125],[23.310417,60.377083]]]},"properties":{"radiance":5.46}},{"type":"Feature","geometry":{"type":"Polygon","coordinates":[[[23.314583,60.377083],[23.31875,60.377083],[23.31875,60.38125],[23.314583,60.38125],[23.314583,60.377083]]]},"properties":{"radiance":10.47}},{"type":"Feature","geometry":{"type":"Polygon","coordinates":[[[23.31875,60.377083],[23.322917,60.377083],[23.322917,60.38125],[23.31875,60.38125],[23.31875,60.377083]]]},"properties":{"radiance":10.64}},{"type":"Feature","geometry":{"type":"Polygon","coordinates":[[[23.322917,60.377083],[23.327083,60.377083],[23.327083,60.38125],[23.322917,60.38125],[23.322917,60.377083]]]},"properties":{"radiance":11.39}},{"type":"Feature","geometry":{"type":"Polygon","coordinates":[[[23.327083,60.377083],[23.33125,60.377083],[23.33125,60.38125],[23.327083,60.38125],[23.327083,60.377083]]]},"properties":{"radiance":8.59}},{"type":"Feature","geometry":{"type":"Polygon","coordinates":[[[23.33125,60.377083],[23.335417,60.377083],[23.335417,60.38125],[23.33125,60.38125],[23.33125,60.377083]]]},"properties":{"radiance":6.94}},{"type":"Feature","geometry":{"type":"Polygon","coordinates":[[[23.60625,60.377083],[23.610417,60.377083],[23.610417,60.38125],[23.60625,60.38125],[23.60625,60.377083]]]},"properties":{"radiance":11.98}},{"type":"Feature","geometry":{"type":"Polygon","coordinates":[[[23.610417,60.377083],[23.614583,60.377083],[23.614583,60.38125],[23.610417,60.38125],[23.610417,60.377083]]]},"properties":{"radiance":17.39}},{"type":"Feature","geometry":{"type":"Polygon","coordinates":[[[23.614583,60.377083],[23.61875,60.377083],[23.61875,60.38125],[23.614583,60.38125],[23.614583,60.377083]]]},"properties":{"radiance":18.55}},{"type":"Feature","geometry":{"type":"Polygon","coordinates":[[[23.61875,60.377083],[23.622917,60.377083],[23.622917,60.38125],[23.61875,60.38125],[23.61875,60.377083]]]},"properties":{"radiance":8.8}},{"type":"Feature","geometry":{"type":"Polygon","coordinates":[[[23.097917,60.372917],[23.102083,60.372917],[23.102083,60.377083],[23.097917,60.377083],[23.097917,60.372917]]]},"properties":{"radiance":5.61}},{"type":"Feature","geometry":{"type":"Polygon","coordinates":[[[23.102083,60.372917],[23.10625,60.372917],[23.10625,60.377083],[23.102083,60.377083],[23.102083,60.372917]]]},"properties":{"radiance":14.71}},{"type":"Feature","geometry":{"type":"Polygon","coordinates":[[[23.10625,60.372917],[23.110417,60.372917],[23.110417,60.377083],[23.10625,60.377083],[23.10625,60.372917]]]},"properties":{"radiance":18.65}},{"type":"Feature","geometry":{"type":"Polygon","coordinates":[[[23.110417,60.372917],[23.114583,60.372917],[23.114583,60.377083],[23.110417,60.377083],[23.110417,60.372917]]]},"properties":{"radiance":21.07}},{"type":"Feature","geometry":{"type":"Polygon","coordinates":[[[23.114583,60.372917],[23.11875,60.372917],[23.11875,60.377083],[23.114583,60.377083],[23.114583,60.372917]]]},"properties":{"radiance":20.1}},{"type":"Feature","geometry":{"type":"Polygon","coordinates":[[[23.11875,60.372917],[23.122917,60.372917],[23.122917,60.377083],[23.11875,60.377083],[23.11875,60.372917]]]},"properties":{"radiance":21.47}},{"type":"Feature","geometry":{"type":"Polygon","coordinates":[[[23.122917,60.372917],[23.127083,60.372917],[23.127083,60.377083],[23.122917,60.377083],[23.122917,60.372917]]]},"properties":{"radiance":21.84}},{"type":"Feature","geometry":{"type":"Polygon","coordinates":[[[23.127083,60.372917],[23.13125,60.372917],[23.13125,60.377083],[23.127083,60.377083],[23.127083,60.372917]]]},"properties":{"radiance":19.16}},{"type":"Feature","geometry":{"type":"Polygon","coordinates":[[[23.13125,60.372917],[23.135417,60.372917],[23.135417,60.377083],[23.13125,60.377083],[23.13125,60.372917]]]},"properties":{"radiance":16.43}},{"type":"Feature","geometry":{"type":"Polygon","coordinates":[[[23.135417,60.372917],[23.139583,60.372917],[23.139583,60.377083],[23.135417,60.377083],[23.135417,60.372917]]]},"properties":{"radiance":11.36}},{"type":"Feature","geometry":{"type":"Polygon","coordinates":[[[23.139583,60.372917],[23.14375,60.372917],[23.14375,60.377083],[23.139583,60.377083],[23.139583,60.372917]]]},"properties":{"radiance":6.01}},{"type":"Feature","geometry":{"type":"Polygon","coordinates":[[[23.14375,60.372917],[23.147917,60.372917],[23.147917,60.377083],[23.14375,60.377083],[23.14375,60.372917]]]},"properties":{"radiance":6.06}},{"type":"Feature","geometry":{"type":"Polygon","coordinates":[[[23.147917,60.372917],[23.152083,60.372917],[23.152083,60.377083],[23.147917,60.377083],[23.147917,60.372917]]]},"properties":{"radiance":6}},{"type":"Feature","geometry":{"type":"Polygon","coordinates":[[[23.152083,60.372917],[23.15625,60.372917],[23.15625,60.377083],[23.152083,60.377083],[23.152083,60.372917]]]},"properties":{"radiance":6.36}},{"type":"Feature","geometry":{"type":"Polygon","coordinates":[[[23.15625,60.372917],[23.160417,60.372917],[23.160417,60.377083],[23.15625,60.377083],[23.15625,60.372917]]]},"properties":{"radiance":7.52}},{"type":"Feature","geometry":{"type":"Polygon","coordinates":[[[23.160417,60.372917],[23.164583,60.372917],[23.164583,60.377083],[23.160417,60.377083],[23.160417,60.372917]]]},"properties":{"radiance":8.4}},{"type":"Feature","geometry":{"type":"Polygon","coordinates":[[[23.164583,60.372917],[23.16875,60.372917],[23.16875,60.377083],[23.164583,60.377083],[23.164583,60.372917]]]},"properties":{"radiance":7.44}},{"type":"Feature","geometry":{"type":"Polygon","coordinates":[[[23.16875,60.372917],[23.172917,60.372917],[23.172917,60.377083],[23.16875,60.377083],[23.16875,60.372917]]]},"properties":{"radiance":6.26}},{"type":"Feature","geometry":{"type":"Polygon","coordinates":[[[23.347917,60.372917],[23.352083,60.372917],[23.352083,60.377083],[23.347917,60.377083],[23.347917,60.372917]]]},"properties":{"radiance":8.41}},{"type":"Feature","geometry":{"type":"Polygon","coordinates":[[[23.35625,60.372917],[23.360417,60.372917],[23.360417,60.377083],[23.35625,60.377083],[23.35625,60.372917]]]},"properties":{"radiance":5.34}},{"type":"Feature","geometry":{"type":"Polygon","coordinates":[[[23.360417,60.372917],[23.364583,60.372917],[23.364583,60.377083],[23.360417,60.377083],[23.360417,60.372917]]]},"properties":{"radiance":5.09}},{"type":"Feature","geometry":{"type":"Polygon","coordinates":[[[23.697917,60.372917],[23.702083,60.372917],[23.702083,60.377083],[23.697917,60.377083],[23.697917,60.372917]]]},"properties":{"radiance":5.38}},{"type":"Feature","geometry":{"type":"Polygon","coordinates":[[[23.702083,60.372917],[23.70625,60.372917],[23.70625,60.377083],[23.702083,60.377083],[23.702083,60.372917]]]},"properties":{"radiance":5.48}},{"type":"Feature","geometry":{"type":"Polygon","coordinates":[[[23.097917,60.36875],[23.102083,60.36875],[23.102083,60.372917],[23.097917,60.372917],[23.097917,60.36875]]]},"properties":{"radiance":8.31}},{"type":"Feature","geometry":{"type":"Polygon","coordinates":[[[23.102083,60.36875],[23.10625,60.36875],[23.10625,60.372917],[23.102083,60.372917],[23.102083,60.36875]]]},"properties":{"radiance":10.79}},{"type":"Feature","geometry":{"type":"Polygon","coordinates":[[[23.10625,60.36875],[23.110417,60.36875],[23.110417,60.372917],[23.10625,60.372917],[23.10625,60.36875]]]},"properties":{"radiance":12.07}},{"type":"Feature","geometry":{"type":"Polygon","coordinates":[[[23.110417,60.36875],[23.114583,60.36875],[23.114583,60.372917],[23.110417,60.372917],[23.110417,60.36875]]]},"properties":{"radiance":14.57}},{"type":"Feature","geometry":{"type":"Polygon","coordinates":[[[23.114583,60.36875],[23.11875,60.36875],[23.11875,60.372917],[23.114583,60.372917],[23.114583,60.36875]]]},"properties":{"radiance":15.64}},{"type":"Feature","geometry":{"type":"Polygon","coordinates":[[[23.11875,60.36875],[23.122917,60.36875],[23.122917,60.372917],[23.11875,60.372917],[23.11875,60.36875]]]},"properties":{"radiance":17.87}},{"type":"Feature","geometry":{"type":"Polygon","coordinates":[[[23.122917,60.36875],[23.127083,60.36875],[23.127083,60.372917],[23.122917,60.372917],[23.122917,60.36875]]]},"properties":{"radiance":17.25}},{"type":"Feature","geometry":{"type":"Polygon","coordinates":[[[23.127083,60.36875],[23.13125,60.36875],[23.13125,60.372917],[23.127083,60.372917],[23.127083,60.36875]]]},"properties":{"radiance":13.86}},{"type":"Feature","geometry":{"type":"Polygon","coordinates":[[[23.13125,60.36875],[23.135417,60.36875],[23.135417,60.372917],[23.13125,60.372917],[23.13125,60.36875]]]},"properties":{"radiance":11.91}},{"type":"Feature","geometry":{"type":"Polygon","coordinates":[[[23.135417,60.36875],[23.139583,60.36875],[23.139583,60.372917],[23.135417,60.372917],[23.135417,60.36875]]]},"properties":{"radiance":6.44}},{"type":"Feature","geometry":{"type":"Polygon","coordinates":[[[23.139583,60.36875],[23.14375,60.36875],[23.14375,60.372917],[23.139583,60.372917],[23.139583,60.36875]]]},"properties":{"radiance":5.51}},{"type":"Feature","geometry":{"type":"Polygon","coordinates":[[[23.147917,60.36875],[23.152083,60.36875],[23.152083,60.372917],[23.147917,60.372917],[23.147917,60.36875]]]},"properties":{"radiance":5.53}},{"type":"Feature","geometry":{"type":"Polygon","coordinates":[[[23.152083,60.36875],[23.15625,60.36875],[23.15625,60.372917],[23.152083,60.372917],[23.152083,60.36875]]]},"properties":{"radiance":5.36}},{"type":"Feature","geometry":{"type":"Polygon","coordinates":[[[23.15625,60.36875],[23.160417,60.36875],[23.160417,60.372917],[23.15625,60.372917],[23.15625,60.36875]]]},"properties":{"radiance":7.08}},{"type":"Feature","geometry":{"type":"Polygon","coordinates":[[[23.160417,60.36875],[23.164583,60.36875],[23.164583,60.372917],[23.160417,60.372917],[23.160417,60.36875]]]},"properties":{"radiance":8.39}},{"type":"Feature","geometry":{"type":"Polygon","coordinates":[[[23.164583,60.36875],[23.16875,60.36875],[23.16875,60.372917],[23.164583,60.372917],[23.164583,60.36875]]]},"properties":{"radiance":6.68}},{"type":"Feature","geometry":{"type":"Polygon","coordinates":[[[23.16875,60.36875],[23.172917,60.36875],[23.172917,60.372917],[23.16875,60.372917],[23.16875,60.36875]]]},"properties":{"radiance":5.33}},{"type":"Feature","geometry":{"type":"Polygon","coordinates":[[[23.702083,60.36875],[23.70625,60.36875],[23.70625,60.372917],[23.702083,60.372917],[23.702083,60.36875]]]},"properties":{"radiance":5.36}},{"type":"Feature","geometry":{"type":"Polygon","coordinates":[[[23.852083,60.36875],[23.85625,60.36875],[23.85625,60.372917],[23.852083,60.372917],[23.852083,60.36875]]]},"properties":{"radiance":5.78}},{"type":"Feature","geometry":{"type":"Polygon","coordinates":[[[23.85625,60.36875],[23.860417,60.36875],[23.860417,60.372917],[23.85625,60.372917],[23.85625,60.36875]]]},"properties":{"radiance":6.97}},{"type":"Feature","geometry":{"type":"Polygon","coordinates":[[[23.860417,60.36875],[23.864583,60.36875],[23.864583,60.372917],[23.860417,60.372917],[23.860417,60.36875]]]},"properties":{"radiance":6.43}},{"type":"Feature","geometry":{"type":"Polygon","coordinates":[[[23.864583,60.36875],[23.86875,60.36875],[23.86875,60.372917],[23.864583,60.372917],[23.864583,60.36875]]]},"properties":{"radiance":5.43}},{"type":"Feature","geometry":{"type":"Polygon","coordinates":[[[23.085417,60.364583],[23.089583,60.364583],[23.089583,60.36875],[23.085417,60.36875],[23.085417,60.364583]]]},"properties":{"radiance":8.26}},{"type":"Feature","geometry":{"type":"Polygon","coordinates":[[[23.089583,60.364583],[23.09375,60.364583],[23.09375,60.36875],[23.089583,60.36875],[23.089583,60.364583]]]},"properties":{"radiance":9.89}},{"type":"Feature","geometry":{"type":"Polygon","coordinates":[[[23.09375,60.364583],[23.097917,60.364583],[23.097917,60.36875],[23.09375,60.36875],[23.09375,60.364583]]]},"properties":{"radiance":9.21}},{"type":"Feature","geometry":{"type":"Polygon","coordinates":[[[23.097917,60.364583],[23.102083,60.364583],[23.102083,60.36875],[23.097917,60.36875],[23.097917,60.364583]]]},"properties":{"radiance":10.74}},{"type":"Feature","geometry":{"type":"Polygon","coordinates":[[[23.102083,60.364583],[23.10625,60.364583],[23.10625,60.36875],[23.102083,60.36875],[23.102083,60.364583]]]},"properties":{"radiance":9.5}},{"type":"Feature","geometry":{"type":"Polygon","coordinates":[[[23.10625,60.364583],[23.110417,60.364583],[23.110417,60.36875],[23.10625,60.36875],[23.10625,60.364583]]]},"properties":{"radiance":9.12}},{"type":"Feature","geometry":{"type":"Polygon","coordinates":[[[23.110417,60.364583],[23.114583,60.364583],[23.114583,60.36875],[23.110417,60.36875],[23.110417,60.364583]]]},"properties":{"radiance":8.19}},{"type":"Feature","geometry":{"type":"Polygon","coordinates":[[[23.114583,60.364583],[23.11875,60.364583],[23.11875,60.36875],[23.114583,60.36875],[23.114583,60.364583]]]},"properties":{"radiance":9.31}},{"type":"Feature","geometry":{"type":"Polygon","coordinates":[[[23.11875,60.364583],[23.122917,60.364583],[23.122917,60.36875],[23.11875,60.36875],[23.11875,60.364583]]]},"properties":{"radiance":9.48}},{"type":"Feature","geometry":{"type":"Polygon","coordinates":[[[23.122917,60.364583],[23.127083,60.364583],[23.127083,60.36875],[23.122917,60.36875],[23.122917,60.364583]]]},"properties":{"radiance":13.28}},{"type":"Feature","geometry":{"type":"Polygon","coordinates":[[[23.127083,60.364583],[23.13125,60.364583],[23.13125,60.36875],[23.127083,60.36875],[23.127083,60.364583]]]},"properties":{"radiance":8.36}},{"type":"Feature","geometry":{"type":"Polygon","coordinates":[[[23.13125,60.364583],[23.135417,60.364583],[23.135417,60.36875],[23.13125,60.36875],[23.13125,60.364583]]]},"properties":{"radiance":6.31}},{"type":"Feature","geometry":{"type":"Polygon","coordinates":[[[23.135417,60.364583],[23.139583,60.364583],[23.139583,60.36875],[23.135417,60.36875],[23.135417,60.364583]]]},"properties":{"radiance":6.28}},{"type":"Feature","geometry":{"type":"Polygon","coordinates":[[[23.08125,60.360417],[23.085417,60.360417],[23.085417,60.364583],[23.08125,60.364583],[23.08125,60.360417]]]},"properties":{"radiance":5.36}},{"type":"Feature","geometry":{"type":"Polygon","coordinates":[[[23.085417,60.360417],[23.089583,60.360417],[23.089583,60.364583],[23.085417,60.364583],[23.085417,60.360417]]]},"properties":{"radiance":11.07}},{"type":"Feature","geometry":{"type":"Polygon","coordinates":[[[23.089583,60.360417],[23.09375,60.360417],[23.09375,60.364583],[23.089583,60.364583],[23.089583,60.360417]]]},"properties":{"radiance":12.08}},{"type":"Feature","geometry":{"type":"Polygon","coordinates":[[[23.09375,60.360417],[23.097917,60.360417],[23.097917,60.364583],[23.09375,60.364583],[23.09375,60.360417]]]},"properties":{"radiance":11.07}},{"type":"Feature","geometry":{"type":"Polygon","coordinates":[[[23.097917,60.360417],[23.102083,60.360417],[23.102083,60.364583],[23.097917,60.364583],[23.097917,60.360417]]]},"properties":{"radiance":10.62}},{"type":"Feature","geometry":{"type":"Polygon","coordinates":[[[23.102083,60.360417],[23.10625,60.360417],[23.10625,60.364583],[23.102083,60.364583],[23.102083,60.360417]]]},"properties":{"radiance":7.8}},{"type":"Feature","geometry":{"type":"Polygon","coordinates":[[[23.10625,60.360417],[23.110417,60.360417],[23.110417,60.364583],[23.10625,60.364583],[23.10625,60.360417]]]},"properties":{"radiance":7.49}},{"type":"Feature","geometry":{"type":"Polygon","coordinates":[[[23.110417,60.360417],[23.114583,60.360417],[23.114583,60.364583],[23.110417,60.364583],[23.110417,60.360417]]]},"properties":{"radiance":6.26}},{"type":"Feature","geometry":{"type":"Polygon","coordinates":[[[23.114583,60.360417],[23.11875,60.360417],[23.11875,60.364583],[23.114583,60.364583],[23.114583,60.360417]]]},"properties":{"radiance":5.22}},{"type":"Feature","geometry":{"type":"Polygon","coordinates":[[[23.11875,60.360417],[23.122917,60.360417],[23.122917,60.364583],[23.11875,60.364583],[23.11875,60.360417]]]},"properties":{"radiance":5.34}},{"type":"Feature","geometry":{"type":"Polygon","coordinates":[[[23.122917,60.360417],[23.127083,60.360417],[23.127083,60.364583],[23.122917,60.364583],[23.122917,60.360417]]]},"properties":{"radiance":5.48}},{"type":"Feature","geometry":{"type":"Polygon","coordinates":[[[23.114583,60.35625],[23.11875,60.35625],[23.11875,60.360417],[23.114583,60.360417],[23.114583,60.35625]]]},"properties":{"radiance":5.4}},{"type":"Feature","geometry":{"type":"Polygon","coordinates":[[[23.114583,60.352083],[23.11875,60.352083],[23.11875,60.35625],[23.114583,60.35625],[23.114583,60.352083]]]},"properties":{"radiance":6.15}},{"type":"Feature","geometry":{"type":"Polygon","coordinates":[[[23.11875,60.352083],[23.122917,60.352083],[23.122917,60.35625],[23.11875,60.35625],[23.11875,60.352083]]]},"properties":{"radiance":6.24}},{"type":"Feature","geometry":{"type":"Polygon","coordinates":[[[23.11875,60.347917],[23.122917,60.347917],[23.122917,60.352083],[23.11875,60.352083],[23.11875,60.347917]]]},"properties":{"radiance":6.68}},{"type":"Feature","geometry":{"type":"Polygon","coordinates":[[[23.272917,60.347917],[23.277083,60.347917],[23.277083,60.352083],[23.272917,60.352083],[23.272917,60.347917]]]},"properties":{"radiance":5.4}},{"type":"Feature","geometry":{"type":"Polygon","coordinates":[[[23.902083,60.34375],[23.90625,60.34375],[23.90625,60.347917],[23.902083,60.347917],[23.902083,60.34375]]]},"properties":{"radiance":6.33}},{"type":"Feature","geometry":{"type":"Polygon","coordinates":[[[23.90625,60.34375],[23.910417,60.34375],[23.910417,60.347917],[23.90625,60.347917],[23.90625,60.34375]]]},"properties":{"radiance":8.62}},{"type":"Feature","geometry":{"type":"Polygon","coordinates":[[[23.910417,60.34375],[23.914583,60.34375],[23.914583,60.347917],[23.910417,60.347917],[23.910417,60.34375]]]},"properties":{"radiance":7.08}},{"type":"Feature","geometry":{"type":"Polygon","coordinates":[[[23.914583,60.34375],[23.91875,60.34375],[23.91875,60.347917],[23.914583,60.347917],[23.914583,60.34375]]]},"properties":{"radiance":5.78}},{"type":"Feature","geometry":{"type":"Polygon","coordinates":[[[23.90625,60.339583],[23.910417,60.339583],[23.910417,60.34375],[23.90625,60.34375],[23.90625,60.339583]]]},"properties":{"radiance":5.05}},{"type":"Feature","geometry":{"type":"Polygon","coordinates":[[[23.910417,60.339583],[23.914583,60.339583],[23.914583,60.34375],[23.910417,60.34375],[23.910417,60.339583]]]},"properties":{"radiance":7.86}},{"type":"Feature","geometry":{"type":"Polygon","coordinates":[[[23.914583,60.339583],[23.91875,60.339583],[23.91875,60.34375],[23.914583,60.34375],[23.914583,60.339583]]]},"properties":{"radiance":6.75}},{"type":"Feature","geometry":{"type":"Polygon","coordinates":[[[23.810417,60.33125],[23.814583,60.33125],[23.814583,60.335417],[23.810417,60.335417],[23.810417,60.33125]]]},"properties":{"radiance":5.19}},{"type":"Feature","geometry":{"type":"Polygon","coordinates":[[[23.93125,60.33125],[23.935417,60.33125],[23.935417,60.335417],[23.93125,60.335417],[23.93125,60.33125]]]},"properties":{"radiance":5.51}},{"type":"Feature","geometry":{"type":"Polygon","coordinates":[[[23.93125,60.327083],[23.935417,60.327083],[23.935417,60.33125],[23.93125,60.33125],[23.93125,60.327083]]]},"properties":{"radiance":5.99}},{"type":"Feature","geometry":{"type":"Polygon","coordinates":[[[23.935417,60.327083],[23.939583,60.327083],[23.939583,60.33125],[23.935417,60.33125],[23.935417,60.327083]]]},"properties":{"radiance":5.44}},{"type":"Feature","geometry":{"type":"Polygon","coordinates":[[[23.089583,60.285417],[23.09375,60.285417],[23.09375,60.289583],[23.089583,60.289583],[23.089583,60.285417]]]},"properties":{"radiance":62.25}},{"type":"Feature","geometry":{"type":"Polygon","coordinates":[[[23.09375,60.285417],[23.097917,60.285417],[23.097917,60.289583],[23.09375,60.289583],[23.09375,60.285417]]]},"properties":{"radiance":84.96}},{"type":"Feature","geometry":{"type":"Polygon","coordinates":[[[23.097917,60.285417],[23.102083,60.285417],[23.102083,60.289583],[23.097917,60.289583],[23.097917,60.285417]]]},"properties":{"radiance":120.73}},{"type":"Feature","geometry":{"type":"Polygon","coordinates":[[[23.102083,60.285417],[23.10625,60.285417],[23.10625,60.289583],[23.102083,60.289583],[23.102083,60.285417]]]},"properties":{"radiance":63.99}},{"type":"Feature","geometry":{"type":"Polygon","coordinates":[[[23.09375,60.28125],[23.097917,60.28125],[23.097917,60.285417],[23.09375,60.285417],[23.09375,60.28125]]]},"properties":{"radiance":38.52}},{"type":"Feature","geometry":{"type":"Polygon","coordinates":[[[23.097917,60.28125],[23.102083,60.28125],[23.102083,60.285417],[23.097917,60.285417],[23.097917,60.28125]]]},"properties":{"radiance":117.19}},{"type":"Feature","geometry":{"type":"Polygon","coordinates":[[[23.102083,60.28125],[23.10625,60.28125],[23.10625,60.285417],[23.102083,60.285417],[23.102083,60.28125]]]},"properties":{"radiance":27.63}},{"type":"Feature","geometry":{"type":"Polygon","coordinates":[[[23.10625,60.28125],[23.110417,60.28125],[23.110417,60.285417],[23.10625,60.285417],[23.10625,60.28125]]]},"properties":{"radiance":32.82}},{"type":"Feature","geometry":{"type":"Polygon","coordinates":[[[23.777083,60.28125],[23.78125,60.28125],[23.78125,60.285417],[23.777083,60.285417],[23.777083,60.28125]]]},"properties":{"radiance":13.32}},{"type":"Feature","geometry":{"type":"Polygon","coordinates":[[[23.79375,60.28125],[23.797917,60.28125],[23.797917,60.285417],[23.79375,60.285417],[23.79375,60.28125]]]},"properties":{"radiance":8}},{"type":"Feature","geometry":{"type":"Polygon","coordinates":[[[23.772917,60.277083],[23.777083,60.277083],[23.777083,60.28125],[23.772917,60.28125],[23.772917,60.277083]]]},"properties":{"radiance":284.42}},{"type":"Feature","geometry":{"type":"Polygon","coordinates":[[[23.777083,60.277083],[23.78125,60.277083],[23.78125,60.28125],[23.777083,60.28125],[23.777083,60.277083]]]},"properties":{"radiance":447.59}},{"type":"Feature","geometry":{"type":"Polygon","coordinates":[[[23.78125,60.277083],[23.785417,60.277083],[23.785417,60.28125],[23.78125,60.28125],[23.78125,60.277083]]]},"properties":{"radiance":181.63}},{"type":"Feature","geometry":{"type":"Polygon","coordinates":[[[23.785417,60.277083],[23.789583,60.277083],[23.789583,60.28125],[23.785417,60.28125],[23.785417,60.277083]]]},"properties":{"radiance":181.56}},{"type":"Feature","geometry":{"type":"Polygon","coordinates":[[[23.76875,60.272917],[23.772917,60.272917],[23.772917,60.277083],[23.76875,60.277083],[23.76875,60.272917]]]},"properties":{"radiance":39.83}},{"type":"Feature","geometry":{"type":"Polygon","coordinates":[[[23.772917,60.272917],[23.777083,60.272917],[23.777083,60.277083],[23.772917,60.277083],[23.772917,60.272917]]]},"properties":{"radiance":565.64}},{"type":"Feature","geometry":{"type":"Polygon","coordinates":[[[23.777083,60.272917],[23.78125,60.272917],[23.78125,60.277083],[23.777083,60.277083],[23.777083,60.272917]]]},"properties":{"radiance":816.77}},{"type":"Feature","geometry":{"type":"Polygon","coordinates":[[[23.78125,60.272917],[23.785417,60.272917],[23.785417,60.277083],[23.78125,60.277083],[23.78125,60.272917]]]},"properties":{"radiance":624.48}},{"type":"Feature","geometry":{"type":"Polygon","coordinates":[[[23.785417,60.272917],[23.789583,60.272917],[23.789583,60.277083],[23.785417,60.277083],[23.785417,60.272917]]]},"properties":{"radiance":242.05}},{"type":"Feature","geometry":{"type":"Polygon","coordinates":[[[23.789583,60.272917],[23.79375,60.272917],[23.79375,60.277083],[23.789583,60.277083],[23.789583,60.272917]]]},"properties":{"radiance":138.86}},{"type":"Feature","geometry":{"type":"Polygon","coordinates":[[[23.76875,60.26875],[23.772917,60.26875],[23.772917,60.272917],[23.76875,60.272917],[23.76875,60.26875]]]},"properties":{"radiance":301.28}},{"type":"Feature","geometry":{"type":"Polygon","coordinates":[[[23.772917,60.26875],[23.777083,60.26875],[23.777083,60.272917],[23.772917,60.272917],[23.772917,60.26875]]]},"properties":{"radiance":271.15}},{"type":"Feature","geometry":{"type":"Polygon","coordinates":[[[23.777083,60.26875],[23.78125,60.26875],[23.78125,60.272917],[23.777083,60.272917],[23.777083,60.26875]]]},"properties":{"radiance":426.58}},{"type":"Feature","geometry":{"type":"Polygon","coordinates":[[[23.78125,60.26875],[23.785417,60.26875],[23.785417,60.272917],[23.78125,60.272917],[23.78125,60.26875]]]},"properties":{"radiance":374.65}},{"type":"Feature","geometry":{"type":"Polygon","coordinates":[[[23.785417,60.26875],[23.789583,60.26875],[23.789583,60.272917],[23.785417,60.272917],[23.785417,60.26875]]]},"properties":{"radiance":262.88}},{"type":"Feature","geometry":{"type":"Polygon","coordinates":[[[23.789583,60.26875],[23.79375,60.26875],[23.79375,60.272917],[23.789583,60.272917],[23.789583,60.26875]]]},"properties":{"radiance":71.39}},{"type":"Feature","geometry":{"type":"Polygon","coordinates":[[[23.79375,60.26875],[23.797917,60.26875],[23.797917,60.272917],[23.79375,60.272917],[23.79375,60.26875]]]},"properties":{"radiance":6.46}},{"type":"Feature","geometry":{"type":"Polygon","coordinates":[[[22.952083,60.25625],[22.95625,60.25625],[22.95625,60.260417],[22.952083,60.260417],[22.952083,60.25625]]]},"properties":{"radiance":5.23}},{"type":"Feature","geometry":{"type":"Polygon","coordinates":[[[23.002083,60.247917],[23.00625,60.247917],[23.00625,60.252083],[23.002083,60.252083],[23.002083,60.247917]]]},"properties":{"radiance":67.55}},{"type":"Feature","geometry":{"type":"Polygon","coordinates":[[[22.997917,60.24375],[23.002083,60.24375],[23.002083,60.247917],[22.997917,60.247917],[22.997917,60.24375]]]},"properties":{"radiance":7.79}},{"type":"Feature","geometry":{"type":"Polygon","coordinates":[[[23.00625,60.24375],[23.010417,60.24375],[23.010417,60.247917],[23.00625,60.247917],[23.00625,60.24375]]]},"properties":{"radiance":5.49}},{"type":"Feature","geometry":{"type":"Polygon","coordinates":[[[23.010417,60.24375],[23.014583,60.24375],[23.014583,60.247917],[23.010417,60.247917],[23.010417,60.24375]]]},"properties":{"radiance":5.38}},{"type":"Feature","geometry":{"type":"Polygon","coordinates":[[[23.01875,60.24375],[23.022917,60.24375],[23.022917,60.247917],[23.01875,60.247917],[23.01875,60.24375]]]},"properties":{"radiance":6.77}},{"type":"Feature","geometry":{"type":"Polygon","coordinates":[[[22.985417,60.239583],[22.989583,60.239583],[22.989583,60.24375],[22.985417,60.24375],[22.985417,60.239583]]]},"properties":{"radiance":5.24}},{"type":"Feature","geometry":{"type":"Polygon","coordinates":[[[22.989583,60.239583],[22.99375,60.239583],[22.99375,60.24375],[22.989583,60.24375],[22.989583,60.239583]]]},"properties":{"radiance":6.12}},{"type":"Feature","geometry":{"type":"Polygon","coordinates":[[[22.99375,60.239583],[22.997917,60.239583],[22.997917,60.24375],[22.99375,60.24375],[22.99375,60.239583]]]},"properties":{"radiance":16.21}},{"type":"Feature","geometry":{"type":"Polygon","coordinates":[[[22.997917,60.239583],[23.002083,60.239583],[23.002083,60.24375],[22.997917,60.24375],[22.997917,60.239583]]]},"properties":{"radiance":42.16}},{"type":"Feature","geometry":{"type":"Polygon","coordinates":[[[23.00625,60.239583],[23.010417,60.239583],[23.010417,60.24375],[23.00625,60.24375],[23.00625,60.239583]]]},"properties":{"radiance":6.7}},{"type":"Feature","geometry":{"type":"Polygon","coordinates":[[[22.977083,60.235417],[22.98125,60.235417],[22.98125,60.239583],[22.977083,60.239583],[22.977083,60.235417]]]},"properties":{"radiance":7.21}},{"type":"Feature","geometry":{"type":"Polygon","coordinates":[[[22.989583,60.235417],[22.99375,60.235417],[22.99375,60.239583],[22.989583,60.239583],[22.989583,60.235417]]]},"properties":{"radiance":113.73}},{"type":"Feature","geometry":{"type":"Polygon","coordinates":[[[22.99375,60.235417],[22.997917,60.235417],[22.997917,60.239583],[22.99375,60.239583],[22.99375,60.235417]]]},"properties":{"radiance":130.18}},{"type":"Feature","geometry":{"type":"Polygon","coordinates":[[[22.997917,60.235417],[23.002083,60.235417],[23.002083,60.239583],[22.997917,60.239583],[22.997917,60.235417]]]},"properties":{"radiance":765.95}},{"type":"Feature","geometry":{"type":"Polygon","coordinates":[[[23.002083,60.235417],[23.00625,60.235417],[23.00625,60.239583],[23.002083,60.239583],[23.002083,60.235417]]]},"properties":{"radiance":922.79}},{"type":"Feature","geometry":{"type":"Polygon","coordinates":[[[23.00625,60.235417],[23.010417,60.235417],[23.010417,60.239583],[23.00625,60.239583],[23.00625,60.235417]]]},"properties":{"radiance":854.37}},{"type":"Feature","geometry":{"type":"Polygon","coordinates":[[[23.010417,60.235417],[23.014583,60.235417],[23.014583,60.239583],[23.010417,60.239583],[23.010417,60.235417]]]},"properties":{"radiance":57.4}},{"type":"Feature","geometry":{"type":"Polygon","coordinates":[[[23.014583,60.235417],[23.01875,60.235417],[23.01875,60.239583],[23.014583,60.239583],[23.014583,60.235417]]]},"properties":{"radiance":12.92}},{"type":"Feature","geometry":{"type":"Polygon","coordinates":[[[23.01875,60.235417],[23.022917,60.235417],[23.022917,60.239583],[23.01875,60.239583],[23.01875,60.235417]]]},"properties":{"radiance":6.82}},{"type":"Feature","geometry":{"type":"Polygon","coordinates":[[[22.98125,60.23125],[22.985417,60.23125],[22.985417,60.235417],[22.98125,60.235417],[22.98125,60.23125]]]},"properties":{"radiance":8.75}},{"type":"Feature","geometry":{"type":"Polygon","coordinates":[[[22.985417,60.23125],[22.989583,60.23125],[22.989583,60.235417],[22.985417,60.235417],[22.985417,60.23125]]]},"properties":{"radiance":11.68}},{"type":"Feature","geometry":{"type":"Polygon","coordinates":[[[22.989583,60.23125],[22.99375,60.23125],[22.99375,60.235417],[22.989583,60.235417],[22.989583,60.23125]]]},"properties":{"radiance":146.56}},{"type":"Feature","geometry":{"type":"Polygon","coordinates":[[[22.99375,60.23125],[22.997917,60.23125],[22.997917,60.235417],[22.99375,60.235417],[22.99375,60.23125]]]},"properties":{"radiance":802.1}},{"type":"Feature","geometry":{"type":"Polygon","coordinates":[[[22.997917,60.23125],[23.002083,60.23125],[23.002083,60.235417],[22.997917,60.235417],[22.997917,60.23125]]]},"properties":{"radiance":1516.11}},{"type":"Feature","geometry":{"type":"Polygon","coordinates":[[[23.002083,60.23125],[23.00625,60.23125],[23.00625,60.235417],[23.002083,60.235417],[23.002083,60.23125]]]},"properties":{"radiance":1924.68}},{"type":"Feature","geometry":{"type":"Polygon","coordinates":[[[23.00625,60.23125],[23.010417,60.23125],[23.010417,60.235417],[23.00625,60.235417],[23.00625,60.23125]]]},"properties":{"radiance":1304.73}},{"type":"Feature","geometry":{"type":"Polygon","coordinates":[[[23.010417,60.23125],[23.014583,60.23125],[23.014583,60.235417],[23.010417,60.235417],[23.010417,60.23125]]]},"properties":{"radiance":488.67}},{"type":"Feature","geometry":{"type":"Polygon","coordinates":[[[23.014583,60.23125],[23.01875,60.23125],[23.01875,60.235417],[23.014583,60.235417],[23.014583,60.23125]]]},"properties":{"radiance":51.53}},{"type":"Feature","geometry":{"type":"Polygon","coordinates":[[[23.01875,60.23125],[23.022917,60.23125],[23.022917,60.235417],[23.01875,60.235417],[23.01875,60.23125]]]},"properties":{"radiance":12.02}},{"type":"Feature","geometry":{"type":"Polygon","coordinates":[[[23.022917,60.23125],[23.027083,60.23125],[23.027083,60.235417],[23.022917,60.235417],[23.022917,60.23125]]]},"properties":{"radiance":7.75}},{"type":"Feature","geometry":{"type":"Polygon","coordinates":[[[22.989583,60.227083],[22.99375,60.227083],[22.99375,60.23125],[22.989583,60.23125],[22.989583,60.227083]]]},"properties":{"radiance":5.68}},{"type":"Feature","geometry":{"type":"Polygon","coordinates":[[[22.99375,60.227083],[22.997917,60.227083],[22.997917,60.23125],[22.99375,60.23125],[22.99375,60.227083]]]},"properties":{"radiance":696.04}},{"type":"Feature","geometry":{"type":"Polygon","coordinates":[[[22.997917,60.227083],[23.002083,60.227083],[23.002083,60.23125],[22.997917,60.23125],[22.997917,60.227083]]]},"properties":{"radiance":1183.67}},{"type":"Feature","geometry":{"type":"Polygon","coordinates":[[[23.002083,60.227083],[23.00625,60.227083],[23.00625,60.23125],[23.002083,60.23125],[23.002083,60.227083]]]},"properties":{"radiance":958.36}},{"type":"Feature","geometry":{"type":"Polygon","coordinates":[[[23.00625,60.227083],[23.010417,60.227083],[23.010417,60.23125],[23.00625,60.23125],[23.00625,60.227083]]]},"properties":{"radiance":72.4}},{"type":"Feature","geometry":{"type":"Polygon","coordinates":[[[23.010417,60.227083],[23.014583,60.227083],[23.014583,60.23125],[23.010417,60.23125],[23.010417,60.227083]]]},"properties":{"radiance":41.24}},{"type":"Feature","geometry":{"type":"Polygon","coordinates":[[[23.014583,60.227083],[23.01875,60.227083],[23.01875,60.23125],[23.014583,60.23125],[23.014583,60.227083]]]},"properties":{"radiance":35.07}},{"type":"Feature","geometry":{"type":"Polygon","coordinates":[[[23.01875,60.227083],[23.022917,60.227083],[23.022917,60.23125],[23.01875,60.23125],[23.01875,60.227083]]]},"properties":{"radiance":7.12}},{"type":"Feature","geometry":{"type":"Polygon","coordinates":[[[23.022917,60.227083],[23.027083,60.227083],[23.027083,60.23125],[23.022917,60.23125],[23.022917,60.227083]]]},"properties":{"radiance":8.26}},{"type":"Feature","geometry":{"type":"Polygon","coordinates":[[[23.03125,60.227083],[23.035417,60.227083],[23.035417,60.23125],[23.03125,60.23125],[23.03125,60.227083]]]},"properties":{"radiance":5.17}}]}