{"type":"FeatureCollection","features":[{"type":"Feature","geometry":{"type":"Polygon","coordinates":[[[27.239583,61.514583],[27.24375,61.514583],[27.24375,61.51875],[27.239583,61.51875],[27.239583,61.514583]]]},"properties":{"radiance":6}},{"type":"Feature","geometry":{"type":"Polygon","coordinates":[[[27.24375,61.514583],[27.247917,61.514583],[27.247917,61.51875],[27.24375,61.51875],[27.24375,61.514583]]]},"properties":{"radiance":5.69}},{"type":"Feature","geometry":{"type":"Polygon","coordinates":[[[27.235417,61.510417],[27.239583,61.510417],[27.239583,61.514583],[27.235417,61.514583],[27.235417,61.510417]]]},"properties":{"radiance":5.09}},{"type":"Feature","geometry":{"type":"Polygon","coordinates":[[[27.239583,61.510417],[27.24375,61.510417],[27.24375,61.514583],[27.239583,61.514583],[27.239583,61.510417]]]},"properties":{"radiance":6.59}},{"type":"Feature","geometry":{"type":"Polygon","coordinates":[[[27.24375,61.510417],[27.247917,61.510417],[27.247917,61.514583],[27.24375,61.514583],[27.24375,61.510417]]]},"properties":{"radiance":5.09}},{"type":"Feature","geometry":{"type":"Polygon","coordinates":[[[26.747917,61.48125],[26.752083,61.48125],[26.752083,61.485417],[26.747917,61.485417],[26.747917,61.48125]]]},"properties":{"radiance":6.05}},{"type":"Feature","geometry":{"type":"Polygon","coordinates":[[[27.25625,61.48125],[27.260417,61.48125],[27.260417,61.485417],[27.25625,61.485417],[27.25625,61.48125]]]},"properties":{"radiance":7.61}},{"type":"Feature","geometry":{"type":"Polygon","coordinates":[[[27.260417,61.48125],[27.264583,61.48125],[27.264583,61.485417],[27.260417,61.485417],[27.260417,61.48125]]]},"properties":{"radiance":7.7}},{"type":"Feature","geometry":{"type":"Polygon","coordinates":[[[27.264583,61.48125],[27.26875,61.48125],[27.26875,61.485417],[27.264583,61.485417],[27.264583,61.48125]]]},"properties":{"radiance":20.58}},{"type":"Feature","geometry":{"type":"Polygon","coordinates":[[[27.26875,61.48125],[27.272917,61.48125],[27.272917,61.485417],[27.26875,61.485417],[27.26875,61.48125]]]},"properties":{"radiance":10.07}},{"type":"Feature","geometry":{"type":"Polygon","coordinates":[[[27.252083,61.477083],[27.25625,61.477083],[27.25625,61.48125],[27.252083,61.48125],[27.252083,61.477083]]]},"properties":{"radiance":5.91}},{"type":"Feature","geometry":{"type":"Polygon","coordinates":[[[27.25625,61.477083],[27.260417,61.477083],[27.260417,61.48125],[27.25625,61.48125],[27.25625,61.477083]]]},"properties":{"radiance":13.19}},{"type":"Feature","geometry":{"type":"Polygon","coordinates":[[[27.260417,61.477083],[27.264583,61.477083],[27.264583,61.48125],[27.260417,61.48125],[27.260417,61.477083]]]},"properties":{"radiance":31.86}},{"type":"Feature","geometry":{"type":"Polygon","coordinates":[[[27.264583,61.477083],[27.26875,61.477083],[27.26875,61.48125],[27.264583,61.48125],[27.264583,61.477083]]]},"properties":{"radiance":33.38}},{"type":"Feature","geometry":{"type":"Polygon","coordinates":[[[27.26875,61.477083],[27.272917,61.477083],[27.272917,61.48125],[27.26875,61.48125],[27.26875,61.477083]]]},"properties":{"radiance":31.58}},{"type":"Feature","geometry":{"type":"Polygon","coordinates":[[[27.272917,61.477083],[27.277083,61.477083],[27.277083,61.48125],[27.272917,61.48125],[27.272917,61.477083]]]},"properties":{"radiance":20.49}},{"type":"Feature","geometry":{"type":"Polygon","coordinates":[[[27.277083,61.477083],[27.28125,61.477083],[27.28125,61.48125],[27.277083,61.48125],[27.277083,61.477083]]]},"properties":{"radiance":6.1}},{"type":"Feature","geometry":{"type":"Polygon","coordinates":[[[27.260417,61.472917],[27.264583,61.472917],[27.264583,61.477083],[27.260417,61.477083],[27.260417,61.472917]]]},"properties":{"radiance":12.99}},{"type":"Feature","geometry":{"type":"Polygon","coordinates":[[[27.264583,61.472917],[27.26875,61.472917],[27.26875,61.477083],[27.264583,61.477083],[27.264583,61.472917]]]},"properties":{"radiance":16.59}},{"type":"Feature","geometry":{"type":"Polygon","coordinates":[[[27.26875,61.472917],[27.272917,61.472917],[27.272917,61.477083],[27.26875,61.477083],[27.26875,61.472917]]]},"properties":{"radiance":18.24}},{"type":"Feature","geometry":{"type":"Polygon","coordinates":[[[27.272917,61.472917],[27.277083,61.472917],[27.277083,61.477083],[27.272917,61.477083],[27.272917,61.472917]]]},"properties":{"radiance":5.44}},{"type":"Feature","geometry":{"type":"Polygon","coordinates":[[[26.877083,61.435417],[26.88125,61.435417],[26.88125,61.439583],[26.877083,61.439583],[26.877083,61.435417]]]},"properties":{"radiance":5.11}},{"type":"Feature","geometry":{"type":"Polygon","coordinates":[[[26.86875,61.43125],[26.872917,61.43125],[26.872917,61.435417],[26.86875,61.435417],[26.86875,61.43125]]]},"properties":{"radiance":5.29}},{"type":"Feature","geometry":{"type":"Polygon","coordinates":[[[26.872917,61.43125],[26.877083,61.43125],[26.877083,61.435417],[26.872917,61.435417],[26.872917,61.43125]]]},"properties":{"radiance":10.04}},{"type":"Feature","geometry":{"type":"Polygon","coordinates":[[[26.877083,61.43125],[26.88125,61.43125],[26.88125,61.435417],[26.877083,61.435417],[26.877083,61.43125]]]},"properties":{"radiance":7.6}},{"type":"Feature","geometry":{"type":"Polygon","coordinates":[[[26.86875,61.427083],[26.872917,61.427083],[26.872917,61.43125],[26.86875,61.43125],[26.86875,61.427083]]]},"properties":{"radiance":9.61}},{"type":"Feature","geometry":{"type":"Polygon","coordinates":[[[26.872917,61.427083],[26.877083,61.427083],[26.877083,61.43125],[26.872917,61.43125],[26.872917,61.427083]]]},"properties":{"radiance":10.87}},{"type":"Feature","geometry":{"type":"Polygon","coordinates":[[[26.877083,61.427083],[26.88125,61.427083],[26.88125,61.43125],[26.877083,61.43125],[26.877083,61.427083]]]},"properties":{"radiance":12.97}},{"type":"Feature","geometry":{"type":"Polygon","coordinates":[[[26.864583,61.422917],[26.86875,61.422917],[26.86875,61.427083],[26.864583,61.427083],[26.864583,61.422917]]]},"properties":{"radiance":5.17}},{"type":"Feature","geometry":{"type":"Polygon","coordinates":[[[26.86875,61.422917],[26.872917,61.422917],[26.872917,61.427083],[26.86875,61.427083],[26.86875,61.422917]]]},"properties":{"radiance":5.61}},{"type":"Feature","geometry":{"type":"Polygon","coordinates":[[[26.872917,61.422917],[26.877083,61.422917],[26.877083,61.427083],[26.872917,61.427083],[26.872917,61.422917]]]},"properties":{"radiance":5.76}},{"type":"Feature","geometry":{"type":"Polygon","coordinates":[[[26.877083,61.422917],[26.88125,61.422917],[26.88125,61.427083],[26.877083,61.427083],[26.877083,61.422917]]]},"properties":{"radiance":10.28}},{"type":"Feature","geometry":{"type":"Polygon","coordinates":[[[26.88125,61.422917],[26.885417,61.422917],[26.885417,61.427083],[26.88125,61.427083],[26.88125,61.422917]]]},"properties":{"radiance":7.42}},{"type":"Feature","geometry":{"type":"Polygon","coordinates":[[[26.885417,61.422917],[26.889583,61.422917],[26.889583,61.427083],[26.885417,61.427083],[26.885417,61.422917]]]},"properties":{"radiance":6.7}},{"type":"Feature","geometry":{"type":"Polygon","coordinates":[[[26.860417,61.41875],[26.864583,61.41875],[26.864583,61.422917],[26.860417,61.422917],[26.860417,61.41875]]]},"properties":{"radiance":6.95}},{"type":"Feature","geometry":{"type":"Polygon","coordinates":[[[26.864583,61.41875],[26.86875,61.41875],[26.86875,61.422917],[26.864583,61.422917],[26.864583,61.41875]]]},"properties":{"radiance":9.27}},{"type":"Feature","geometry":{"type":"Polygon","coordinates":[[[26.86875,61.41875],[26.872917,61.41875],[26.872917,61.422917],[26.86875,61.422917],[26.86875,61.41875]]]},"properties":{"radiance":8.49}},{"type":"Feature","geometry":{"type":"Polygon","coordinates":[[[26.872917,61.41875],[26.877083,61.41875],[26.877083,61.422917],[26.872917,61.422917],[26.872917,61.41875]]]},"properties":{"radiance":9.9}},{"type":"Feature","geometry":{"type":"Polygon","coordinates":[[[26.877083,61.41875],[26.88125,61.41875],[26.88125,61.422917],[26.877083,61.422917],[26.877083,61.41875]]]},"properties":{"radiance":9.8}},{"type":"Feature","geometry":{"type":"Polygon","coordinates":[[[26.88125,61.41875],[26.885417,61.41875],[26.885417,61.422917],[26.88125,61.422917],[26.88125,61.41875]]]},"properties":{"radiance":10.74}},{"type":"Feature","geometry":{"type":"Polygon","coordinates":[[[26.885417,61.41875],[26.889583,61.41875],[26.889583,61.422917],[26.885417,61.422917],[26.885417,61.41875]]]},"properties":{"radiance":9.77}},{"type":"Feature","geometry":{"type":"Polygon","coordinates":[[[26.889583,61.41875],[26.89375,61.41875],[26.89375,61.422917],[26.889583,61.422917],[26.889583,61.41875]]]},"properties":{"radiance":5.23}},{"type":"Feature","geometry":{"type":"Polygon","coordinates":[[[26.86875,61.414583],[26.872917,61.414583],[26.872917,61.41875],[26.86875,61.41875],[26.86875,61.414583]]]},"properties":{"radiance":7.21}},{"type":"Feature","geometry":{"type":"Polygon","coordinates":[[[26.872917,61.414583],[26.877083,61.414583],[26.877083,61.41875],[26.872917,61.41875],[26.872917,61.414583]]]},"properties":{"radiance":13.26}},{"type":"Feature","geometry":{"type":"Polygon","coordinates":[[[26.877083,61.414583],[26.88125,61.414583],[26.88125,61.41875],[26.877083,61.41875],[26.877083,61.414583]]]},"properties":{"radiance":14.27}},{"type":"Feature","geometry":{"type":"Polygon","coordinates":[[[26.88125,61.414583],[26.885417,61.414583],[26.885417,61.41875],[26.88125,61.41875],[26.88125,61.414583]]]},"properties":{"radiance":15.08}},{"type":"Feature","geometry":{"type":"Polygon","coordinates":[[[26.885417,61.414583],[26.889583,61.414583],[26.889583,61.41875],[26.885417,61.41875],[26.885417,61.414583]]]},"properties":{"radiance":11.18}},{"type":"Feature","geometry":{"type":"Polygon","coordinates":[[[26.86875,61.410417],[26.872917,61.410417],[26.872917,61.414583],[26.86875,61.414583],[26.86875,61.410417]]]},"properties":{"radiance":10.24}},{"type":"Feature","geometry":{"type":"Polygon","coordinates":[[[26.872917,61.410417],[26.877083,61.410417],[26.877083,61.414583],[26.872917,61.414583],[26.872917,61.410417]]]},"properties":{"radiance":11.29}},{"type":"Feature","geometry":{"type":"Polygon","coordinates":[[[26.877083,61.410417],[26.88125,61.410417],[26.88125,61.414583],[26.877083,61.414583],[26.877083,61.410417]]]},"properties":{"radiance":16.53}},{"type":"Feature","geometry":{"type":"Polygon","coordinates":[[[26.88125,61.410417],[26.885417,61.410417],[26.885417,61.414583],[26.88125,61.414583],[26.88125,61.410417]]]},"properties":{"radiance":9.91}},{"type":"Feature","geometry":{"type":"Polygon","coordinates":[[[27.347917,61.410417],[27.352083,61.410417],[27.352083,61.414583],[27.347917,61.414583],[27.347917,61.410417]]]},"properties":{"radiance":6.04}},{"type":"Feature","geometry":{"type":"Polygon","coordinates":[[[27.34375,61.40625],[27.347917,61.40625],[27.347917,61.410417],[27.34375,61.410417],[27.34375,61.40625]]]},"properties":{"radiance":6.49}},{"type":"Feature","geometry":{"type":"Polygon","coordinates":[[[27.347917,61.40625],[27.352083,61.40625],[27.352083,61.410417],[27.347917,61.410417],[27.347917,61.40625]]]},"properties":{"radiance":5.97}}]}