{"type":"FeatureCollection","features":[{"type":"Feature","geometry":{"type":"Polygon","coordinates":[[[23.939583,64.285417],[23.94375,64.285417],[23.94375,64.289583],[23.939583,64.289583],[23.939583,64.285417]]]},"properties":{"radiance":6.18}},{"type":"Feature","geometry":{"type":"Polygon","coordinates":[[[23.94375,64.285417],[23.947917,64.285417],[23.947917,64.289583],[23.94375,64.289583],[23.94375,64.285417]]]},"properties":{"radiance":7.43}},{"type":"Feature","geometry":{"type":"Polygon","coordinates":[[[23.947917,64.285417],[23.952083,64.285417],[23.952083,64.289583],[23.947917,64.289583],[23.947917,64.285417]]]},"properties":{"radiance":6.22}},{"type":"Feature","geometry":{"type":"Polygon","coordinates":[[[23.939583,64.28125],[23.94375,64.28125],[23.94375,64.285417],[23.939583,64.285417],[23.939583,64.28125]]]},"properties":{"radiance":6.63}},{"type":"Feature","geometry":{"type":"Polygon","coordinates":[[[23.94375,64.28125],[23.947917,64.28125],[23.947917,64.285417],[23.94375,64.285417],[23.94375,64.28125]]]},"properties":{"radiance":6.77}},{"type":"Feature","geometry":{"type":"Polygon","coordinates":[[[23.947917,64.28125],[23.952083,64.28125],[23.952083,64.285417],[23.947917,64.285417],[23.947917,64.28125]]]},"properties":{"radiance":6.34}},{"type":"Feature","geometry":{"type":"Polygon","coordinates":[[[23.952083,64.28125],[23.95625,64.28125],[23.95625,64.285417],[23.952083,64.285417],[23.952083,64.28125]]]},"properties":{"radiance":10.63}},{"type":"Feature","geometry":{"type":"Polygon","coordinates":[[[23.94375,64.277083],[23.947917,64.277083],[23.947917,64.28125],[23.94375,64.28125],[23.94375,64.277083]]]},"properties":{"radiance":6.08}},{"type":"Feature","geometry":{"type":"Polygon","coordinates":[[[23.947917,64.277083],[23.952083,64.277083],[23.952083,64.28125],[23.947917,64.28125],[23.947917,64.277083]]]},"properties":{"radiance":6.82}},{"type":"Feature","geometry":{"type":"Polygon","coordinates":[[[23.952083,64.277083],[23.95625,64.277083],[23.95625,64.28125],[23.952083,64.28125],[23.952083,64.277083]]]},"properties":{"radiance":5.92}},{"type":"Feature","geometry":{"type":"Polygon","coordinates":[[[24.789583,64.277083],[24.79375,64.277083],[24.79375,64.28125],[24.789583,64.28125],[24.789583,64.277083]]]},"properties":{"radiance":5.51}},{"type":"Feature","geometry":{"type":"Polygon","coordinates":[[[24.79375,64.277083],[24.797917,64.277083],[24.797917,64.28125],[24.79375,64.28125],[24.79375,64.277083]]]},"properties":{"radiance":5.16}},{"type":"Feature","geometry":{"type":"Polygon","coordinates":[[[24.797917,64.277083],[24.802083,64.277083],[24.802083,64.28125],[24.797917,64.28125],[24.797917,64.277083]]]},"properties":{"radiance":6.45}},{"type":"Feature","geometry":{"type":"Polygon","coordinates":[[[24.80625,64.277083],[24.810417,64.277083],[24.810417,64.28125],[24.80625,64.28125],[24.80625,64.277083]]]},"properties":{"radiance":7.28}},{"type":"Feature","geometry":{"type":"Polygon","coordinates":[[[24.814583,64.277083],[24.81875,64.277083],[24.81875,64.28125],[24.814583,64.28125],[24.814583,64.277083]]]},"properties":{"radiance":5.81}},{"type":"Feature","geometry":{"type":"Polygon","coordinates":[[[24.81875,64.277083],[24.822917,64.277083],[24.822917,64.28125],[24.81875,64.28125],[24.81875,64.277083]]]},"properties":{"radiance":6.1}},{"type":"Feature","geometry":{"type":"Polygon","coordinates":[[[24.822917,64.277083],[24.827083,64.277083],[24.827083,64.28125],[24.822917,64.28125],[24.822917,64.277083]]]},"properties":{"radiance":5.95}},{"type":"Feature","geometry":{"type":"Polygon","coordinates":[[[24.827083,64.277083],[24.83125,64.277083],[24.83125,64.28125],[24.827083,64.28125],[24.827083,64.277083]]]},"properties":{"radiance":7.03}},{"type":"Feature","geometry":{"type":"Polygon","coordinates":[[[24.83125,64.277083],[24.835417,64.277083],[24.835417,64.28125],[24.83125,64.28125],[24.83125,64.277083]]]},"properties":{"radiance":7.88}},{"type":"Feature","geometry":{"type":"Polygon","coordinates":[[[24.835417,64.277083],[24.839583,64.277083],[24.839583,64.28125],[24.835417,64.28125],[24.835417,64.277083]]]},"properties":{"radiance":8.81}},{"type":"Feature","geometry":{"type":"Polygon","coordinates":[[[24.839583,64.277083],[24.84375,64.277083],[24.84375,64.28125],[24.839583,64.28125],[24.839583,64.277083]]]},"properties":{"radiance":7.77}},{"type":"Feature","geometry":{"type":"Polygon","coordinates":[[[24.84375,64.277083],[24.847917,64.277083],[24.847917,64.28125],[24.84375,64.28125],[24.84375,64.277083]]]},"properties":{"radiance":5.27}},{"type":"Feature","geometry":{"type":"Polygon","coordinates":[[[23.939583,64.272917],[23.94375,64.272917],[23.94375,64.277083],[23.939583,64.277083],[23.939583,64.272917]]]},"properties":{"radiance":7.05}},{"type":"Feature","geometry":{"type":"Polygon","coordinates":[[[23.94375,64.272917],[23.947917,64.272917],[23.947917,64.277083],[23.94375,64.277083],[23.94375,64.272917]]]},"properties":{"radiance":7.27}},{"type":"Feature","geometry":{"type":"Polygon","coordinates":[[[23.947917,64.272917],[23.952083,64.272917],[23.952083,64.277083],[23.947917,64.277083],[23.947917,64.272917]]]},"properties":{"radiance":13.55}},{"type":"Feature","geometry":{"type":"Polygon","coordinates":[[[24.797917,64.272917],[24.802083,64.272917],[24.802083,64.277083],[24.797917,64.277083],[24.797917,64.272917]]]},"properties":{"radiance":5.45}},{"type":"Feature","geometry":{"type":"Polygon","coordinates":[[[24.802083,64.272917],[24.80625,64.272917],[24.80625,64.277083],[24.802083,64.277083],[24.802083,64.272917]]]},"properties":{"radiance":9.52}},{"type":"Feature","geometry":{"type":"Polygon","coordinates":[[[24.80625,64.272917],[24.810417,64.272917],[24.810417,64.277083],[24.80625,64.277083],[24.80625,64.272917]]]},"properties":{"radiance":50.29}},{"type":"Feature","geometry":{"type":"Polygon","coordinates":[[[24.810417,64.272917],[24.814583,64.272917],[24.814583,64.277083],[24.810417,64.277083],[24.810417,64.272917]]]},"properties":{"radiance":48.73}},{"type":"Feature","geometry":{"type":"Polygon","coordinates":[[[24.814583,64.272917],[24.81875,64.272917],[24.81875,64.277083],[24.814583,64.277083],[24.814583,64.272917]]]},"properties":{"radiance":48.12}},{"type":"Feature","geometry":{"type":"Polygon","coordinates":[[[24.81875,64.272917],[24.822917,64.272917],[24.822917,64.277083],[24.81875,64.277083],[24.81875,64.272917]]]},"properties":{"radiance":46.39}},{"type":"Feature","geometry":{"type":"Polygon","coordinates":[[[24.822917,64.272917],[24.827083,64.272917],[24.827083,64.277083],[24.822917,64.277083],[24.822917,64.272917]]]},"properties":{"radiance":40.9}},{"type":"Feature","geometry":{"type":"Polygon","coordinates":[[[24.827083,64.272917],[24.83125,64.272917],[24.83125,64.277083],[24.827083,64.277083],[24.827083,64.272917]]]},"properties":{"radiance":12.09}},{"type":"Feature","geometry":{"type":"Polygon","coordinates":[[[24.83125,64.272917],[24.835417,64.272917],[24.835417,64.277083],[24.83125,64.277083],[24.83125,64.272917]]]},"properties":{"radiance":12.77}},{"type":"Feature","geometry":{"type":"Polygon","coordinates":[[[24.835417,64.272917],[24.839583,64.272917],[24.839583,64.277083],[24.835417,64.277083],[24.835417,64.272917]]]},"properties":{"radiance":22.15}},{"type":"Feature","geometry":{"type":"Polygon","coordinates":[[[24.839583,64.272917],[24.84375,64.272917],[24.84375,64.277083],[24.839583,64.277083],[24.839583,64.272917]]]},"properties":{"radiance":13.44}},{"type":"Feature","geometry":{"type":"Polygon","coordinates":[[[24.84375,64.272917],[24.847917,64.272917],[24.847917,64.277083],[24.84375,64.277083],[24.84375,64.272917]]]},"properties":{"radiance":7.07}},{"type":"Feature","geometry":{"type":"Polygon","coordinates":[[[23.93125,64.26875],[23.935417,64.26875],[23.935417,64.272917],[23.93125,64.272917],[23.93125,64.26875]]]},"properties":{"radiance":5.56}},{"type":"Feature","geometry":{"type":"Polygon","coordinates":[[[23.935417,64.26875],[23.939583,64.26875],[23.939583,64.272917],[23.935417,64.272917],[23.935417,64.26875]]]},"properties":{"radiance":5.44}},{"type":"Feature","geometry":{"type":"Polygon","coordinates":[[[23.939583,64.26875],[23.94375,64.26875],[23.94375,64.272917],[23.939583,64.272917],[23.939583,64.26875]]]},"properties":{"radiance":9.02}},{"type":"Feature","geometry":{"type":"Polygon","coordinates":[[[23.94375,64.26875],[23.947917,64.26875],[23.947917,64.272917],[23.94375,64.272917],[23.94375,64.26875]]]},"properties":{"radiance":19.38}},{"type":"Feature","geometry":{"type":"Polygon","coordinates":[[[23.947917,64.26875],[23.952083,64.26875],[23.952083,64.272917],[23.947917,64.272917],[23.947917,64.26875]]]},"properties":{"radiance":11.36}},{"type":"Feature","geometry":{"type":"Polygon","coordinates":[[[23.952083,64.26875],[23.95625,64.26875],[23.95625,64.272917],[23.952083,64.272917],[23.952083,64.26875]]]},"properties":{"radiance":8.49}},{"type":"Feature","geometry":{"type":"Polygon","coordinates":[[[23.95625,64.26875],[23.960417,64.26875],[23.960417,64.272917],[23.95625,64.272917],[23.95625,64.26875]]]},"properties":{"radiance":5.26}},{"type":"Feature","geometry":{"type":"Polygon","coordinates":[[[24.797917,64.26875],[24.802083,64.26875],[24.802083,64.272917],[24.797917,64.272917],[24.797917,64.26875]]]},"properties":{"radiance":6.52}},{"type":"Feature","geometry":{"type":"Polygon","coordinates":[[[24.802083,64.26875],[24.80625,64.26875],[24.80625,64.272917],[24.802083,64.272917],[24.802083,64.26875]]]},"properties":{"radiance":24.02}},{"type":"Feature","geometry":{"type":"Polygon","coordinates":[[[24.80625,64.26875],[24.810417,64.26875],[24.810417,64.272917],[24.80625,64.272917],[24.80625,64.26875]]]},"properties":{"radiance":92.29}},{"type":"Feature","geometry":{"type":"Polygon","coordinates":[[[24.810417,64.26875],[24.814583,64.26875],[24.814583,64.272917],[24.810417,64.272917],[24.810417,64.26875]]]},"properties":{"radiance":102.49}},{"type":"Feature","geometry":{"type":"Polygon","coordinates":[[[24.814583,64.26875],[24.81875,64.26875],[24.81875,64.272917],[24.814583,64.272917],[24.814583,64.26875]]]},"properties":{"radiance":108.65}},{"type":"Feature","geometry":{"type":"Polygon","coordinates":[[[24.81875,64.26875],[24.822917,64.26875],[24.822917,64.272917],[24.81875,64.272917],[24.81875,64.26875]]]},"properties":{"radiance":95.38}},{"type":"Feature","geometry":{"type":"Polygon","coordinates":[[[24.822917,64.26875],[24.827083,64.26875],[24.827083,64.272917],[24.822917,64.272917],[24.822917,64.26875]]]},"properties":{"radiance":87.3}},{"type":"Feature","geometry":{"type":"Polygon","coordinates":[[[24.827083,64.26875],[24.83125,64.26875],[24.83125,64.272917],[24.827083,64.272917],[24.827083,64.26875]]]},"properties":{"radiance":62.03}},{"type":"Feature","geometry":{"type":"Polygon","coordinates":[[[24.83125,64.26875],[24.835417,64.26875],[24.835417,64.272917],[24.83125,64.272917],[24.83125,64.26875]]]},"properties":{"radiance":54.04}},{"type":"Feature","geometry":{"type":"Polygon","coordinates":[[[24.835417,64.26875],[24.839583,64.26875],[24.839583,64.272917],[24.835417,64.272917],[24.835417,64.26875]]]},"properties":{"radiance":46.74}},{"type":"Feature","geometry":{"type":"Polygon","coordinates":[[[24.839583,64.26875],[24.84375,64.26875],[24.84375,64.272917],[24.839583,64.272917],[24.839583,64.26875]]]},"properties":{"radiance":17.01}},{"type":"Feature","geometry":{"type":"Polygon","coordinates":[[[24.84375,64.26875],[24.847917,64.26875],[24.847917,64.272917],[24.84375,64.272917],[24.84375,64.26875]]]},"properties":{"radiance":13.29}},{"type":"Feature","geometry":{"type":"Polygon","coordinates":[[[24.847917,64.26875],[24.852083,64.26875],[24.852083,64.272917],[24.847917,64.272917],[24.847917,64.26875]]]},"properties":{"radiance":12.41}},{"type":"Feature","geometry":{"type":"Polygon","coordinates":[[[24.852083,64.26875],[24.85625,64.26875],[24.85625,64.272917],[24.852083,64.272917],[24.852083,64.26875]]]},"properties":{"radiance":11.45}},{"type":"Feature","geometry":{"type":"Polygon","coordinates":[[[24.85625,64.26875],[24.860417,64.26875],[24.860417,64.272917],[24.85625,64.272917],[24.85625,64.26875]]]},"properties":{"radiance":5.91}},{"type":"Feature","geometry":{"type":"Polygon","coordinates":[[[24.864583,64.26875],[24.86875,64.26875],[24.86875,64.272917],[24.864583,64.272917],[24.864583,64.26875]]]},"properties":{"radiance":5.74}},{"type":"Feature","geometry":{"type":"Polygon","coordinates":[[[24.86875,64.26875],[24.872917,64.26875],[24.872917,64.272917],[24.86875,64.272917],[24.86875,64.26875]]]},"properties":{"radiance":5.27}},{"type":"Feature","geometry":{"type":"Polygon","coordinates":[[[23.93125,64.264583],[23.935417,64.264583],[23.935417,64.26875],[23.93125,64.26875],[23.93125,64.264583]]]},"properties":{"radiance":6.47}},{"type":"Feature","geometry":{"type":"Polygon","coordinates":[[[23.935417,64.264583],[23.939583,64.264583],[23.939583,64.26875],[23.935417,64.26875],[23.935417,64.264583]]]},"properties":{"radiance":10.85}},{"type":"Feature","geometry":{"type":"Polygon","coordinates":[[[23.939583,64.264583],[23.94375,64.264583],[23.94375,64.26875],[23.939583,64.26875],[23.939583,64.264583]]]},"properties":{"radiance":14.62}},{"type":"Feature","geometry":{"type":"Polygon","coordinates":[[[23.94375,64.264583],[23.947917,64.264583],[23.947917,64.26875],[23.94375,64.26875],[23.94375,64.264583]]]},"properties":{"radiance":22.98}},{"type":"Feature","geometry":{"type":"Polygon","coordinates":[[[23.947917,64.264583],[23.952083,64.264583],[23.952083,64.26875],[23.947917,64.26875],[23.947917,64.264583]]]},"properties":{"radiance":12.11}},{"type":"Feature","geometry":{"type":"Polygon","coordinates":[[[23.952083,64.264583],[23.95625,64.264583],[23.95625,64.26875],[23.952083,64.26875],[23.952083,64.264583]]]},"properties":{"radiance":11.03}},{"type":"Feature","geometry":{"type":"Polygon","coordinates":[[[23.95625,64.264583],[23.960417,64.264583],[23.960417,64.26875],[23.95625,64.26875],[23.95625,64.264583]]]},"properties":{"radiance":12.04}},{"type":"Feature","geometry":{"type":"Polygon","coordinates":[[[23.960417,64.264583],[23.964583,64.264583],[23.964583,64.26875],[23.960417,64.26875],[23.960417,64.264583]]]},"properties":{"radiance":13.84}},{"type":"Feature","geometry":{"type":"Polygon","coordinates":[[[23.964583,64.264583],[23.96875,64.264583],[23.96875,64.26875],[23.964583,64.26875],[23.964583,64.264583]]]},"properties":{"radiance":15.37}},{"type":"Feature","geometry":{"type":"Polygon","coordinates":[[[23.96875,64.264583],[23.972917,64.264583],[23.972917,64.26875],[23.96875,64.26875],[23.96875,64.264583]]]},"properties":{"radiance":10.06}},{"type":"Feature","geometry":{"type":"Polygon","coordinates":[[[24.797917,64.264583],[24.802083,64.264583],[24.802083,64.26875],[24.797917,64.26875],[24.797917,64.264583]]]},"properties":{"radiance":11.8}},{"type":"Feature","geometry":{"type":"Polygon","coordinates":[[[24.802083,64.264583],[24.80625,64.264583],[24.80625,64.26875],[24.802083,64.26875],[24.802083,64.264583]]]},"properties":{"radiance":17.87}},{"type":"Feature","geometry":{"type":"Polygon","coordinates":[[[24.80625,64.264583],[24.810417,64.264583],[24.810417,64.26875],[24.80625,64.26875],[24.80625,64.264583]]]},"properties":{"radiance":23.31}},{"type":"Feature","geometry":{"type":"Polygon","coordinates":[[[24.810417,64.264583],[24.814583,64.264583],[24.814583,64.26875],[24.810417,64.26875],[24.810417,64.264583]]]},"properties":{"radiance":32.15}},{"type":"Feature","geometry":{"type":"Polygon","coordinates":[[[24.814583,64.264583],[24.81875,64.264583],[24.81875,64.26875],[24.814583,64.26875],[24.814583,64.264583]]]},"properties":{"radiance":83.99}},{"type":"Feature","geometry":{"type":"Polygon","coordinates":[[[24.81875,64.264583],[24.822917,64.264583],[24.822917,64.26875],[24.81875,64.26875],[24.81875,64.264583]]]},"properties":{"radiance":69.26}},{"type":"Feature","geometry":{"type":"Polygon","coordinates":[[[24.822917,64.264583],[24.827083,64.264583],[24.827083,64.26875],[24.822917,64.26875],[24.822917,64.264583]]]},"properties":{"radiance":56.4}},{"type":"Feature","geometry":{"type":"Polygon","coordinates":[[[24.827083,64.264583],[24.83125,64.264583],[24.83125,64.26875],[24.827083,64.26875],[24.827083,64.264583]]]},"properties":{"radiance":29.71}},{"type":"Feature","geometry":{"type":"Polygon","coordinates":[[[24.83125,64.264583],[24.835417,64.264583],[24.835417,64.26875],[24.83125,64.26875],[24.83125,64.264583]]]},"properties":{"radiance":49.41}},{"type":"Feature","geometry":{"type":"Polygon","coordinates":[[[24.835417,64.264583],[24.839583,64.264583],[24.839583,64.26875],[24.835417,64.26875],[24.835417,64.264583]]]},"properties":{"radiance":15.58}},{"type":"Feature","geometry":{"type":"Polygon","coordinates":[[[24.839583,64.264583],[24.84375,64.264583],[24.84375,64.26875],[24.839583,64.26875],[24.839583,64.264583]]]},"properties":{"radiance":13.54}},{"type":"Feature","geometry":{"type":"Polygon","coordinates":[[[24.84375,64.264583],[24.847917,64.264583],[24.847917,64.26875],[24.84375,64.26875],[24.84375,64.264583]]]},"properties":{"radiance":34.47}},{"type":"Feature","geometry":{"type":"Polygon","coordinates":[[[24.847917,64.264583],[24.852083,64.264583],[24.852083,64.26875],[24.847917,64.26875],[24.847917,64.264583]]]},"properties":{"radiance":9.36}},{"type":"Feature","geometry":{"type":"Polygon","coordinates":[[[24.885417,64.264583],[24.889583,64.264583],[24.889583,64.26875],[24.885417,64.26875],[24.885417,64.264583]]]},"properties":{"radiance":5.39}},{"type":"Feature","geometry":{"type":"Polygon","coordinates":[[[24.902083,64.264583],[24.90625,64.264583],[24.90625,64.26875],[24.902083,64.26875],[24.902083,64.264583]]]},"properties":{"radiance":5.06}},{"type":"Feature","geometry":{"type":"Polygon","coordinates":[[[23.93125,64.260417],[23.935417,64.260417],[23.935417,64.264583],[23.93125,64.264583],[23.93125,64.260417]]]},"properties":{"radiance":14.44}},{"type":"Feature","geometry":{"type":"Polygon","coordinates":[[[23.935417,64.260417],[23.939583,64.260417],[23.939583,64.264583],[23.935417,64.264583],[23.935417,64.260417]]]},"properties":{"radiance":14.13}},{"type":"Feature","geometry":{"type":"Polygon","coordinates":[[[23.939583,64.260417],[23.94375,64.260417],[23.94375,64.264583],[23.939583,64.264583],[23.939583,64.260417]]]},"properties":{"radiance":45.4}},{"type":"Feature","geometry":{"type":"Polygon","coordinates":[[[23.94375,64.260417],[23.947917,64.260417],[23.947917,64.264583],[23.94375,64.264583],[23.94375,64.260417]]]},"properties":{"radiance":28.36}},{"type":"Feature","geometry":{"type":"Polygon","coordinates":[[[23.947917,64.260417],[23.952083,64.260417],[23.952083,64.264583],[23.947917,64.264583],[23.947917,64.260417]]]},"properties":{"radiance":76.51}},{"type":"Feature","geometry":{"type":"Polygon","coordinates":[[[23.952083,64.260417],[23.95625,64.260417],[23.95625,64.264583],[23.952083,64.264583],[23.952083,64.260417]]]},"properties":{"radiance":75.08}},{"type":"Feature","geometry":{"type":"Polygon","coordinates":[[[23.95625,64.260417],[23.960417,64.260417],[23.960417,64.264583],[23.95625,64.264583],[23.95625,64.260417]]]},"properties":{"radiance":25.58}},{"type":"Feature","geometry":{"type":"Polygon","coordinates":[[[23.960417,64.260417],[23.964583,64.260417],[23.964583,64.264583],[23.960417,64.264583],[23.960417,64.260417]]]},"properties":{"radiance":16.23}},{"type":"Feature","geometry":{"type":"Polygon","coordinates":[[[23.964583,64.260417],[23.96875,64.260417],[23.96875,64.264583],[23.964583,64.264583],[23.964583,64.260417]]]},"properties":{"radiance":7.51}},{"type":"Feature","geometry":{"type":"Polygon","coordinates":[[[23.96875,64.260417],[23.972917,64.260417],[23.972917,64.264583],[23.96875,64.264583],[23.96875,64.260417]]]},"properties":{"radiance":12.64}},{"type":"Feature","geometry":{"type":"Polygon","coordinates":[[[24.789583,64.260417],[24.79375,64.260417],[24.79375,64.264583],[24.789583,64.264583],[24.789583,64.260417]]]},"properties":{"radiance":5.19}},{"type":"Feature","geometry":{"type":"Polygon","coordinates":[[[24.810417,64.260417],[24.814583,64.260417],[24.814583,64.264583],[24.810417,64.264583],[24.810417,64.260417]]]},"properties":{"radiance":5.5}},{"type":"Feature","geometry":{"type":"Polygon","coordinates":[[[24.814583,64.260417],[24.81875,64.260417],[24.81875,64.264583],[24.814583,64.264583],[24.814583,64.260417]]]},"properties":{"radiance":6.32}},{"type":"Feature","geometry":{"type":"Polygon","coordinates":[[[24.81875,64.260417],[24.822917,64.260417],[24.822917,64.264583],[24.81875,64.264583],[24.81875,64.260417]]]},"properties":{"radiance":6.87}},{"type":"Feature","geometry":{"type":"Polygon","coordinates":[[[24.822917,64.260417],[24.827083,64.260417],[24.827083,64.264583],[24.822917,64.264583],[24.822917,64.260417]]]},"properties":{"radiance":7.58}},{"type":"Feature","geometry":{"type":"Polygon","coordinates":[[[24.827083,64.260417],[24.83125,64.260417],[24.83125,64.264583],[24.827083,64.264583],[24.827083,64.260417]]]},"properties":{"radiance":7.6}},{"type":"Feature","geometry":{"type":"Polygon","coordinates":[[[24.83125,64.260417],[24.835417,64.260417],[24.835417,64.264583],[24.83125,64.264583],[24.83125,64.260417]]]},"properties":{"radiance":6.62}},{"type":"Feature","geometry":{"type":"Polygon","coordinates":[[[23.914583,64.25625],[23.91875,64.25625],[23.91875,64.260417],[23.914583,64.260417],[23.914583,64.25625]]]},"properties":{"radiance":5.23}},{"type":"Feature","geometry":{"type":"Polygon","coordinates":[[[23.91875,64.25625],[23.922917,64.25625],[23.922917,64.260417],[23.91875,64.260417],[23.91875,64.25625]]]},"properties":{"radiance":5.04}},{"type":"Feature","geometry":{"type":"Polygon","coordinates":[[[23.922917,64.25625],[23.927083,64.25625],[23.927083,64.260417],[23.922917,64.260417],[23.922917,64.25625]]]},"properties":{"radiance":9.42}},{"type":"Feature","geometry":{"type":"Polygon","coordinates":[[[23.927083,64.25625],[23.93125,64.25625],[23.93125,64.260417],[23.927083,64.260417],[23.927083,64.25625]]]},"properties":{"radiance":10.85}},{"type":"Feature","geometry":{"type":"Polygon","coordinates":[[[23.93125,64.25625],[23.935417,64.25625],[23.935417,64.260417],[23.93125,64.260417],[23.93125,64.25625]]]},"properties":{"radiance":14.91}},{"type":"Feature","geometry":{"type":"Polygon","coordinates":[[[23.935417,64.25625],[23.939583,64.25625],[23.939583,64.260417],[23.935417,64.260417],[23.935417,64.25625]]]},"properties":{"radiance":15.93}},{"type":"Feature","geometry":{"type":"Polygon","coordinates":[[[23.939583,64.25625],[23.94375,64.25625],[23.94375,64.260417],[23.939583,64.260417],[23.939583,64.25625]]]},"properties":{"radiance":20.51}},{"type":"Feature","geometry":{"type":"Polygon","coordinates":[[[23.94375,64.25625],[23.947917,64.25625],[23.947917,64.260417],[23.94375,64.260417],[23.94375,64.25625]]]},"properties":{"radiance":47.57}},{"type":"Feature","geometry":{"type":"Polygon","coordinates":[[[23.947917,64.25625],[23.952083,64.25625],[23.952083,64.260417],[23.947917,64.260417],[23.947917,64.25625]]]},"properties":{"radiance":44.14}},{"type":"Feature","geometry":{"type":"Polygon","coordinates":[[[23.952083,64.25625],[23.95625,64.25625],[23.95625,64.260417],[23.952083,64.260417],[23.952083,64.25625]]]},"properties":{"radiance":51.94}},{"type":"Feature","geometry":{"type":"Polygon","coordinates":[[[23.95625,64.25625],[23.960417,64.25625],[23.960417,64.260417],[23.95625,64.260417],[23.95625,64.25625]]]},"properties":{"radiance":56.38}},{"type":"Feature","geometry":{"type":"Polygon","coordinates":[[[23.960417,64.25625],[23.964583,64.25625],[23.964583,64.260417],[23.960417,64.260417],[23.960417,64.25625]]]},"properties":{"radiance":10.42}},{"type":"Feature","geometry":{"type":"Polygon","coordinates":[[[23.964583,64.25625],[23.96875,64.25625],[23.96875,64.260417],[23.964583,64.260417],[23.964583,64.25625]]]},"properties":{"radiance":8.11}},{"type":"Feature","geometry":{"type":"Polygon","coordinates":[[[24.777083,64.25625],[24.78125,64.25625],[24.78125,64.260417],[24.777083,64.260417],[24.777083,64.25625]]]},"properties":{"radiance":5.13}},{"type":"Feature","geometry":{"type":"Polygon","coordinates":[[[24.797917,64.25625],[24.802083,64.25625],[24.802083,64.260417],[24.797917,64.260417],[24.797917,64.25625]]]},"properties":{"radiance":6.39}},{"type":"Feature","geometry":{"type":"Polygon","coordinates":[[[24.810417,64.25625],[24.814583,64.25625],[24.814583,64.260417],[24.810417,64.260417],[24.810417,64.25625]]]},"properties":{"radiance":6.17}},{"type":"Feature","geometry":{"type":"Polygon","coordinates":[[[24.814583,64.25625],[24.81875,64.25625],[24.81875,64.260417],[24.814583,64.260417],[24.814583,64.25625]]]},"properties":{"radiance":5.64}},{"type":"Feature","geometry":{"type":"Polygon","coordinates":[[[24.81875,64.25625],[24.822917,64.25625],[24.822917,64.260417],[24.81875,64.260417],[24.81875,64.25625]]]},"properties":{"radiance":6.26}},{"type":"Feature","geometry":{"type":"Polygon","coordinates":[[[24.822917,64.25625],[24.827083,64.25625],[24.827083,64.260417],[24.822917,64.260417],[24.822917,64.25625]]]},"properties":{"radiance":5.17}},{"type":"Feature","geometry":{"type":"Polygon","coordinates":[[[24.827083,64.25625],[24.83125,64.25625],[24.83125,64.260417],[24.827083,64.260417],[24.827083,64.25625]]]},"properties":{"radiance":5.74}},{"type":"Feature","geometry":{"type":"Polygon","coordinates":[[[24.83125,64.25625],[24.835417,64.25625],[24.835417,64.260417],[24.83125,64.260417],[24.83125,64.25625]]]},"properties":{"radiance":5.31}},{"type":"Feature","geometry":{"type":"Polygon","coordinates":[[[23.889583,64.252083],[23.89375,64.252083],[23.89375,64.25625],[23.889583,64.25625],[23.889583,64.252083]]]},"properties":{"radiance":5.23}},{"type":"Feature","geometry":{"type":"Polygon","coordinates":[[[23.902083,64.252083],[23.90625,64.252083],[23.90625,64.25625],[23.902083,64.25625],[23.902083,64.252083]]]},"properties":{"radiance":5.33}},{"type":"Feature","geometry":{"type":"Polygon","coordinates":[[[23.910417,64.252083],[23.914583,64.252083],[23.914583,64.25625],[23.910417,64.25625],[23.910417,64.252083]]]},"properties":{"radiance":13.46}},{"type":"Feature","geometry":{"type":"Polygon","coordinates":[[[23.914583,64.252083],[23.91875,64.252083],[23.91875,64.25625],[23.914583,64.25625],[23.914583,64.252083]]]},"properties":{"radiance":10.85}},{"type":"Feature","geometry":{"type":"Polygon","coordinates":[[[23.91875,64.252083],[23.922917,64.252083],[23.922917,64.25625],[23.91875,64.25625],[23.91875,64.252083]]]},"properties":{"radiance":12.62}},{"type":"Feature","geometry":{"type":"Polygon","coordinates":[[[23.922917,64.252083],[23.927083,64.252083],[23.927083,64.25625],[23.922917,64.25625],[23.922917,64.252083]]]},"properties":{"radiance":15.17}},{"type":"Feature","geometry":{"type":"Polygon","coordinates":[[[23.927083,64.252083],[23.93125,64.252083],[23.93125,64.25625],[23.927083,64.25625],[23.927083,64.252083]]]},"properties":{"radiance":12.78}},{"type":"Feature","geometry":{"type":"Polygon","coordinates":[[[23.93125,64.252083],[23.935417,64.252083],[23.935417,64.25625],[23.93125,64.25625],[23.93125,64.252083]]]},"properties":{"radiance":16.05}},{"type":"Feature","geometry":{"type":"Polygon","coordinates":[[[23.935417,64.252083],[23.939583,64.252083],[23.939583,64.25625],[23.935417,64.25625],[23.935417,64.252083]]]},"properties":{"radiance":14.67}},{"type":"Feature","geometry":{"type":"Polygon","coordinates":[[[23.939583,64.252083],[23.94375,64.252083],[23.94375,64.25625],[23.939583,64.25625],[23.939583,64.252083]]]},"properties":{"radiance":16.63}},{"type":"Feature","geometry":{"type":"Polygon","coordinates":[[[23.94375,64.252083],[23.947917,64.252083],[23.947917,64.25625],[23.94375,64.25625],[23.94375,64.252083]]]},"properties":{"radiance":14.94}},{"type":"Feature","geometry":{"type":"Polygon","coordinates":[[[23.947917,64.252083],[23.952083,64.252083],[23.952083,64.25625],[23.947917,64.25625],[23.947917,64.252083]]]},"properties":{"radiance":16.87}},{"type":"Feature","geometry":{"type":"Polygon","coordinates":[[[23.952083,64.252083],[23.95625,64.252083],[23.95625,64.25625],[23.952083,64.25625],[23.952083,64.252083]]]},"properties":{"radiance":11.78}},{"type":"Feature","geometry":{"type":"Polygon","coordinates":[[[23.95625,64.252083],[23.960417,64.252083],[23.960417,64.25625],[23.95625,64.25625],[23.95625,64.252083]]]},"properties":{"radiance":11.02}},{"type":"Feature","geometry":{"type":"Polygon","coordinates":[[[23.960417,64.252083],[23.964583,64.252083],[23.964583,64.25625],[23.960417,64.25625],[23.960417,64.252083]]]},"properties":{"radiance":11.09}},{"type":"Feature","geometry":{"type":"Polygon","coordinates":[[[23.964583,64.252083],[23.96875,64.252083],[23.96875,64.25625],[23.964583,64.25625],[23.964583,64.252083]]]},"properties":{"radiance":5.1}},{"type":"Feature","geometry":{"type":"Polygon","coordinates":[[[24.81875,64.252083],[24.822917,64.252083],[24.822917,64.25625],[24.81875,64.25625],[24.81875,64.252083]]]},"properties":{"radiance":6.96}},{"type":"Feature","geometry":{"type":"Polygon","coordinates":[[[24.822917,64.252083],[24.827083,64.252083],[24.827083,64.25625],[24.822917,64.25625],[24.822917,64.252083]]]},"properties":{"radiance":5.14}},{"type":"Feature","geometry":{"type":"Polygon","coordinates":[[[24.827083,64.252083],[24.83125,64.252083],[24.83125,64.25625],[24.827083,64.25625],[24.827083,64.252083]]]},"properties":{"radiance":5.45}},{"type":"Feature","geometry":{"type":"Polygon","coordinates":[[[24.83125,64.252083],[24.835417,64.252083],[24.835417,64.25625],[24.83125,64.25625],[24.83125,64.252083]]]},"properties":{"radiance":5.79}},{"type":"Feature","geometry":{"type":"Polygon","coordinates":[[[24.835417,64.252083],[24.839583,64.252083],[24.839583,64.25625],[24.835417,64.25625],[24.835417,64.252083]]]},"properties":{"radiance":5.12}},{"type":"Feature","geometry":{"type":"Polygon","coordinates":[[[23.872917,64.247917],[23.877083,64.247917],[23.877083,64.252083],[23.872917,64.252083],[23.872917,64.247917]]]},"properties":{"radiance":5.39}},{"type":"Feature","geometry":{"type":"Polygon","coordinates":[[[23.877083,64.247917],[23.88125,64.247917],[23.88125,64.252083],[23.877083,64.252083],[23.877083,64.247917]]]},"properties":{"radiance":8.2}},{"type":"Feature","geometry":{"type":"Polygon","coordinates":[[[23.88125,64.247917],[23.885417,64.247917],[23.885417,64.252083],[23.88125,64.252083],[23.88125,64.247917]]]},"properties":{"radiance":6.8}},{"type":"Feature","geometry":{"type":"Polygon","coordinates":[[[23.885417,64.247917],[23.889583,64.247917],[23.889583,64.252083],[23.885417,64.252083],[23.885417,64.247917]]]},"properties":{"radiance":8.95}},{"type":"Feature","geometry":{"type":"Polygon","coordinates":[[[23.889583,64.247917],[23.89375,64.247917],[23.89375,64.252083],[23.889583,64.252083],[23.889583,64.247917]]]},"properties":{"radiance":7.91}},{"type":"Feature","geometry":{"type":"Polygon","coordinates":[[[23.89375,64.247917],[23.897917,64.247917],[23.897917,64.252083],[23.89375,64.252083],[23.89375,64.247917]]]},"properties":{"radiance":6.94}},{"type":"Feature","geometry":{"type":"Polygon","coordinates":[[[23.897917,64.247917],[23.902083,64.247917],[23.902083,64.252083],[23.897917,64.252083],[23.897917,64.247917]]]},"properties":{"radiance":5.4}},{"type":"Feature","geometry":{"type":"Polygon","coordinates":[[[23.90625,64.247917],[23.910417,64.247917],[23.910417,64.252083],[23.90625,64.252083],[23.90625,64.247917]]]},"properties":{"radiance":8.53}},{"type":"Feature","geometry":{"type":"Polygon","coordinates":[[[23.910417,64.247917],[23.914583,64.247917],[23.914583,64.252083],[23.910417,64.252083],[23.910417,64.247917]]]},"properties":{"radiance":12.14}},{"type":"Feature","geometry":{"type":"Polygon","coordinates":[[[23.914583,64.247917],[23.91875,64.247917],[23.91875,64.252083],[23.914583,64.252083],[23.914583,64.247917]]]},"properties":{"radiance":16.04}},{"type":"Feature","geometry":{"type":"Polygon","coordinates":[[[23.91875,64.247917],[23.922917,64.247917],[23.922917,64.252083],[23.91875,64.252083],[23.91875,64.247917]]]},"properties":{"radiance":18.44}},{"type":"Feature","geometry":{"type":"Polygon","coordinates":[[[23.922917,64.247917],[23.927083,64.247917],[23.927083,64.252083],[23.922917,64.252083],[23.922917,64.247917]]]},"properties":{"radiance":13.85}},{"type":"Feature","geometry":{"type":"Polygon","coordinates":[[[23.927083,64.247917],[23.93125,64.247917],[23.93125,64.252083],[23.927083,64.252083],[23.927083,64.247917]]]},"properties":{"radiance":8.73}},{"type":"Feature","geometry":{"type":"Polygon","coordinates":[[[23.93125,64.247917],[23.935417,64.247917],[23.935417,64.252083],[23.93125,64.252083],[23.93125,64.247917]]]},"properties":{"radiance":9.1}},{"type":"Feature","geometry":{"type":"Polygon","coordinates":[[[23.94375,64.247917],[23.947917,64.247917],[23.947917,64.252083],[23.94375,64.252083],[23.94375,64.247917]]]},"properties":{"radiance":5.08}},{"type":"Feature","geometry":{"type":"Polygon","coordinates":[[[23.952083,64.247917],[23.95625,64.247917],[23.95625,64.252083],[23.952083,64.252083],[23.952083,64.247917]]]},"properties":{"radiance":5.48}},{"type":"Feature","geometry":{"type":"Polygon","coordinates":[[[23.95625,64.247917],[23.960417,64.247917],[23.960417,64.252083],[23.95625,64.252083],[23.95625,64.247917]]]},"properties":{"radiance":6.89}},{"type":"Feature","geometry":{"type":"Polygon","coordinates":[[[23.960417,64.247917],[23.964583,64.247917],[23.964583,64.252083],[23.960417,64.252083],[23.960417,64.247917]]]},"properties":{"radiance":5.14}},{"type":"Feature","geometry":{"type":"Polygon","coordinates":[[[23.964583,64.247917],[23.96875,64.247917],[23.96875,64.252083],[23.964583,64.252083],[23.964583,64.247917]]]},"properties":{"radiance":5.34}},{"type":"Feature","geometry":{"type":"Polygon","coordinates":[[[23.885417,64.24375],[23.889583,64.24375],[23.889583,64.247917],[23.885417,64.247917],[23.885417,64.24375]]]},"properties":{"radiance":10.01}},{"type":"Feature","geometry":{"type":"Polygon","coordinates":[[[23.91875,64.24375],[23.922917,64.24375],[23.922917,64.247917],[23.91875,64.247917],[23.91875,64.24375]]]},"properties":{"radiance":5.56}},{"type":"Feature","geometry":{"type":"Polygon","coordinates":[[[23.922917,64.24375],[23.927083,64.24375],[23.927083,64.247917],[23.922917,64.247917],[23.922917,64.24375]]]},"properties":{"radiance":5.8}},{"type":"Feature","geometry":{"type":"Polygon","coordinates":[[[23.80625,64.235417],[23.810417,64.235417],[23.810417,64.239583],[23.80625,64.239583],[23.80625,64.235417]]]},"properties":{"radiance":8.34}},{"type":"Feature","geometry":{"type":"Polygon","coordinates":[[[23.810417,64.235417],[23.814583,64.235417],[23.814583,64.239583],[23.810417,64.239583],[23.810417,64.235417]]]},"properties":{"radiance":10.74}},{"type":"Feature","geometry":{"type":"Polygon","coordinates":[[[23.814583,64.235417],[23.81875,64.235417],[23.81875,64.239583],[23.814583,64.239583],[23.814583,64.235417]]]},"properties":{"radiance":5.66}},{"type":"Feature","geometry":{"type":"Polygon","coordinates":[[[23.81875,64.235417],[23.822917,64.235417],[23.822917,64.239583],[23.81875,64.239583],[23.81875,64.235417]]]},"properties":{"radiance":10.09}},{"type":"Feature","geometry":{"type":"Polygon","coordinates":[[[23.802083,64.23125],[23.80625,64.23125],[23.80625,64.235417],[23.802083,64.235417],[23.802083,64.23125]]]},"properties":{"radiance":12.93}},{"type":"Feature","geometry":{"type":"Polygon","coordinates":[[[23.80625,64.23125],[23.810417,64.23125],[23.810417,64.235417],[23.80625,64.235417],[23.80625,64.23125]]]},"properties":{"radiance":42.68}},{"type":"Feature","geometry":{"type":"Polygon","coordinates":[[[23.810417,64.23125],[23.814583,64.23125],[23.814583,64.235417],[23.810417,64.235417],[23.810417,64.23125]]]},"properties":{"radiance":47.72}},{"type":"Feature","geometry":{"type":"Polygon","coordinates":[[[23.814583,64.23125],[23.81875,64.23125],[23.81875,64.235417],[23.814583,64.235417],[23.814583,64.23125]]]},"properties":{"radiance":42.21}},{"type":"Feature","geometry":{"type":"Polygon","coordinates":[[[23.81875,64.23125],[23.822917,64.23125],[23.822917,64.235417],[23.81875,64.235417],[23.81875,64.23125]]]},"properties":{"radiance":12.61}},{"type":"Feature","geometry":{"type":"Polygon","coordinates":[[[23.822917,64.23125],[23.827083,64.23125],[23.827083,64.235417],[23.822917,64.235417],[23.822917,64.23125]]]},"properties":{"radiance":10.62}},{"type":"Feature","geometry":{"type":"Polygon","coordinates":[[[23.797917,64.227083],[23.802083,64.227083],[23.802083,64.23125],[23.797917,64.23125],[23.797917,64.227083]]]},"properties":{"radiance":5.26}},{"type":"Feature","geometry":{"type":"Polygon","coordinates":[[[23.802083,64.227083],[23.80625,64.227083],[23.80625,64.23125],[23.802083,64.23125],[23.802083,64.227083]]]},"properties":{"radiance":18.09}},{"type":"Feature","geometry":{"type":"Polygon","coordinates":[[[23.80625,64.227083],[23.810417,64.227083],[23.810417,64.23125],[23.80625,64.23125],[23.80625,64.227083]]]},"properties":{"radiance":11.25}},{"type":"Feature","geometry":{"type":"Polygon","coordinates":[[[23.810417,64.227083],[23.814583,64.227083],[23.814583,64.23125],[23.810417,64.23125],[23.810417,64.227083]]]},"properties":{"radiance":9.51}},{"type":"Feature","geometry":{"type":"Polygon","coordinates":[[[23.814583,64.227083],[23.81875,64.227083],[23.81875,64.23125],[23.814583,64.23125],[23.814583,64.227083]]]},"properties":{"radiance":11.53}},{"type":"Feature","geometry":{"type":"Polygon","coordinates":[[[23.81875,64.227083],[23.822917,64.227083],[23.822917,64.23125],[23.81875,64.23125],[23.81875,64.227083]]]},"properties":{"radiance":6.41}},{"type":"Feature","geometry":{"type":"Polygon","coordinates":[[[23.69375,64.222917],[23.697917,64.222917],[23.697917,64.227083],[23.69375,64.227083],[23.69375,64.222917]]]},"properties":{"radiance":6.07}},{"type":"Feature","geometry":{"type":"Polygon","coordinates":[[[23.697917,64.222917],[23.702083,64.222917],[23.702083,64.227083],[23.697917,64.227083],[23.697917,64.222917]]]},"properties":{"radiance":8.56}},{"type":"Feature","geometry":{"type":"Polygon","coordinates":[[[23.702083,64.222917],[23.70625,64.222917],[23.70625,64.227083],[23.702083,64.227083],[23.702083,64.222917]]]},"properties":{"radiance":9.14}},{"type":"Feature","geometry":{"type":"Polygon","coordinates":[[[23.70625,64.222917],[23.710417,64.222917],[23.710417,64.227083],[23.70625,64.227083],[23.70625,64.222917]]]},"properties":{"radiance":11.12}},{"type":"Feature","geometry":{"type":"Polygon","coordinates":[[[23.710417,64.222917],[23.714583,64.222917],[23.714583,64.227083],[23.710417,64.227083],[23.710417,64.222917]]]},"properties":{"radiance":9.23}},{"type":"Feature","geometry":{"type":"Polygon","coordinates":[[[23.69375,64.21875],[23.697917,64.21875],[23.697917,64.222917],[23.69375,64.222917],[23.69375,64.21875]]]},"properties":{"radiance":13.18}},{"type":"Feature","geometry":{"type":"Polygon","coordinates":[[[23.697917,64.21875],[23.702083,64.21875],[23.702083,64.222917],[23.697917,64.222917],[23.697917,64.21875]]]},"properties":{"radiance":6.91}},{"type":"Feature","geometry":{"type":"Polygon","coordinates":[[[23.702083,64.21875],[23.70625,64.21875],[23.70625,64.222917],[23.702083,64.222917],[23.702083,64.21875]]]},"properties":{"radiance":8.77}},{"type":"Feature","geometry":{"type":"Polygon","coordinates":[[[23.70625,64.21875],[23.710417,64.21875],[23.710417,64.222917],[23.70625,64.222917],[23.70625,64.21875]]]},"properties":{"radiance":9.01}},{"type":"Feature","geometry":{"type":"Polygon","coordinates":[[[23.710417,64.21875],[23.714583,64.21875],[23.714583,64.222917],[23.710417,64.222917],[23.710417,64.21875]]]},"properties":{"radiance":5.83}},{"type":"Feature","geometry":{"type":"Polygon","coordinates":[[[23.797917,64.21875],[23.802083,64.21875],[23.802083,64.222917],[23.797917,64.222917],[23.797917,64.21875]]]},"properties":{"radiance":8.74}},{"type":"Feature","geometry":{"type":"Polygon","coordinates":[[[23.760417,64.214583],[23.764583,64.214583],[23.764583,64.21875],[23.760417,64.21875],[23.760417,64.214583]]]},"properties":{"radiance":5}},{"type":"Feature","geometry":{"type":"Polygon","coordinates":[[[23.76875,64.214583],[23.772917,64.214583],[23.772917,64.21875],[23.76875,64.21875],[23.76875,64.214583]]]},"properties":{"radiance":6.1}},{"type":"Feature","geometry":{"type":"Polygon","coordinates":[[[24.03125,64.202083],[24.035417,64.202083],[24.035417,64.20625],[24.03125,64.20625],[24.03125,64.202083]]]},"properties":{"radiance":5.45}},{"type":"Feature","geometry":{"type":"Polygon","coordinates":[[[24.052083,64.197917],[24.05625,64.197917],[24.05625,64.202083],[24.052083,64.202083],[24.052083,64.197917]]]},"properties":{"radiance":10.09}},{"type":"Feature","geometry":{"type":"Polygon","coordinates":[[[24.052083,64.18125],[24.05625,64.18125],[24.05625,64.185417],[24.052083,64.185417],[24.052083,64.18125]]]},"properties":{"radiance":5.7}},{"type":"Feature","geometry":{"type":"Polygon","coordinates":[[[24.05625,64.18125],[24.060417,64.18125],[24.060417,64.185417],[24.05625,64.185417],[24.05625,64.18125]]]},"properties":{"radiance":7.53}},{"type":"Feature","geometry":{"type":"Polygon","coordinates":[[[24.060417,64.18125],[24.064583,64.18125],[24.064583,64.185417],[24.060417,64.185417],[24.060417,64.18125]]]},"properties":{"radiance":7.8}},{"type":"Feature","geometry":{"type":"Polygon","coordinates":[[[24.064583,64.18125],[24.06875,64.18125],[24.06875,64.185417],[24.064583,64.185417],[24.064583,64.18125]]]},"properties":{"radiance":6.4}},{"type":"Feature","geometry":{"type":"Polygon","coordinates":[[[24.05625,64.177083],[24.060417,64.177083],[24.060417,64.18125],[24.05625,64.18125],[24.05625,64.177083]]]},"properties":{"radiance":5.6}},{"type":"Feature","geometry":{"type":"Polygon","coordinates":[[[24.060417,64.177083],[24.064583,64.177083],[24.064583,64.18125],[24.060417,64.18125],[24.060417,64.177083]]]},"properties":{"radiance":7.12}},{"type":"Feature","geometry":{"type":"Polygon","coordinates":[[[24.064583,64.172917],[24.06875,64.172917],[24.06875,64.177083],[24.064583,64.177083],[24.064583,64.172917]]]},"properties":{"radiance":5.55}},{"type":"Feature","geometry":{"type":"Polygon","coordinates":[[[24.06875,64.172917],[24.072917,64.172917],[24.072917,64.177083],[24.06875,64.177083],[24.06875,64.172917]]]},"properties":{"radiance":5.56}},{"type":"Feature","geometry":{"type":"Polygon","coordinates":[[[24.297917,64.164583],[24.302083,64.164583],[24.302083,64.16875],[24.297917,64.16875],[24.297917,64.164583]]]},"properties":{"radiance":5.37}},{"type":"Feature","geometry":{"type":"Polygon","coordinates":[[[24.302083,64.164583],[24.30625,64.164583],[24.30625,64.16875],[24.302083,64.16875],[24.302083,64.164583]]]},"properties":{"radiance":5.52}},{"type":"Feature","geometry":{"type":"Polygon","coordinates":[[[24.30625,64.164583],[24.310417,64.164583],[24.310417,64.16875],[24.30625,64.16875],[24.30625,64.164583]]]},"properties":{"radiance":5.55}},{"type":"Feature","geometry":{"type":"Polygon","coordinates":[[[24.289583,64.160417],[24.29375,64.160417],[24.29375,64.164583],[24.289583,64.164583],[24.289583,64.160417]]]},"properties":{"radiance":5.62}},{"type":"Feature","geometry":{"type":"Polygon","coordinates":[[[24.29375,64.160417],[24.297917,64.160417],[24.297917,64.164583],[24.29375,64.164583],[24.29375,64.160417]]]},"properties":{"radiance":7.07}},{"type":"Feature","geometry":{"type":"Polygon","coordinates":[[[24.297917,64.160417],[24.302083,64.160417],[24.302083,64.164583],[24.297917,64.164583],[24.297917,64.160417]]]},"properties":{"radiance":8.19}},{"type":"Feature","geometry":{"type":"Polygon","coordinates":[[[24.302083,64.160417],[24.30625,64.160417],[24.30625,64.164583],[24.302083,64.164583],[24.302083,64.160417]]]},"properties":{"radiance":7.06}},{"type":"Feature","geometry":{"type":"Polygon","coordinates":[[[24.30625,64.160417],[24.310417,64.160417],[24.310417,64.164583],[24.30625,64.164583],[24.30625,64.160417]]]},"properties":{"radiance":5.73}},{"type":"Feature","geometry":{"type":"Polygon","coordinates":[[[24.29375,64.15625],[24.297917,64.15625],[24.297917,64.160417],[24.29375,64.160417],[24.29375,64.15625]]]},"properties":{"radiance":6.73}},{"type":"Feature","geometry":{"type":"Polygon","coordinates":[[[24.297917,64.15625],[24.302083,64.15625],[24.302083,64.160417],[24.297917,64.160417],[24.297917,64.15625]]]},"properties":{"radiance":6.69}},{"type":"Feature","geometry":{"type":"Polygon","coordinates":[[[24.302083,64.15625],[24.30625,64.15625],[24.30625,64.160417],[24.302083,64.160417],[24.302083,64.15625]]]},"properties":{"radiance":9.78}},{"type":"Feature","geometry":{"type":"Polygon","coordinates":[[[24.30625,64.15625],[24.310417,64.15625],[24.310417,64.160417],[24.30625,64.160417],[24.30625,64.15625]]]},"properties":{"radiance":8.61}},{"type":"Feature","geometry":{"type":"Polygon","coordinates":[[[24.310417,64.15625],[24.314583,64.15625],[24.314583,64.160417],[24.310417,64.160417],[24.310417,64.15625]]]},"properties":{"radiance":8.47}},{"type":"Feature","geometry":{"type":"Polygon","coordinates":[[[24.314583,64.15625],[24.31875,64.15625],[24.31875,64.160417],[24.314583,64.160417],[24.314583,64.15625]]]},"properties":{"radiance":6.56}},{"type":"Feature","geometry":{"type":"Polygon","coordinates":[[[24.310417,64.152083],[24.314583,64.152083],[24.314583,64.15625],[24.310417,64.15625],[24.310417,64.152083]]]},"properties":{"radiance":5.49}},{"type":"Feature","geometry":{"type":"Polygon","coordinates":[[[24.539583,64.089583],[24.54375,64.089583],[24.54375,64.09375],[24.539583,64.09375],[24.539583,64.089583]]]},"properties":{"radiance":7.11}},{"type":"Feature","geometry":{"type":"Polygon","coordinates":[[[24.547917,64.089583],[24.552083,64.089583],[24.552083,64.09375],[24.547917,64.09375],[24.547917,64.089583]]]},"properties":{"radiance":7.21}},{"type":"Feature","geometry":{"type":"Polygon","coordinates":[[[24.560417,64.089583],[24.564583,64.089583],[24.564583,64.09375],[24.560417,64.09375],[24.560417,64.089583]]]},"properties":{"radiance":5.09}},{"type":"Feature","geometry":{"type":"Polygon","coordinates":[[[24.539583,64.085417],[24.54375,64.085417],[24.54375,64.089583],[24.539583,64.089583],[24.539583,64.085417]]]},"properties":{"radiance":10.88}},{"type":"Feature","geometry":{"type":"Polygon","coordinates":[[[24.54375,64.085417],[24.547917,64.085417],[24.547917,64.089583],[24.54375,64.089583],[24.54375,64.085417]]]},"properties":{"radiance":12.73}},{"type":"Feature","geometry":{"type":"Polygon","coordinates":[[[24.547917,64.085417],[24.552083,64.085417],[24.552083,64.089583],[24.547917,64.089583],[24.547917,64.085417]]]},"properties":{"radiance":12.25}},{"type":"Feature","geometry":{"type":"Polygon","coordinates":[[[24.552083,64.085417],[24.55625,64.085417],[24.55625,64.089583],[24.552083,64.089583],[24.552083,64.085417]]]},"properties":{"radiance":10.61}},{"type":"Feature","geometry":{"type":"Polygon","coordinates":[[[24.55625,64.085417],[24.560417,64.085417],[24.560417,64.089583],[24.55625,64.089583],[24.55625,64.085417]]]},"properties":{"radiance":5.2}},{"type":"Feature","geometry":{"type":"Polygon","coordinates":[[[24.560417,64.085417],[24.564583,64.085417],[24.564583,64.089583],[24.560417,64.089583],[24.560417,64.085417]]]},"properties":{"radiance":8.76}},{"type":"Feature","geometry":{"type":"Polygon","coordinates":[[[24.564583,64.085417],[24.56875,64.085417],[24.56875,64.089583],[24.564583,64.089583],[24.564583,64.085417]]]},"properties":{"radiance":5.92}},{"type":"Feature","geometry":{"type":"Polygon","coordinates":[[[24.56875,64.085417],[24.572917,64.085417],[24.572917,64.089583],[24.56875,64.089583],[24.56875,64.085417]]]},"properties":{"radiance":5.84}},{"type":"Feature","geometry":{"type":"Polygon","coordinates":[[[24.51875,64.08125],[24.522917,64.08125],[24.522917,64.085417],[24.51875,64.085417],[24.51875,64.08125]]]},"properties":{"radiance":7.16}},{"type":"Feature","geometry":{"type":"Polygon","coordinates":[[[24.522917,64.08125],[24.527083,64.08125],[24.527083,64.085417],[24.522917,64.085417],[24.522917,64.08125]]]},"properties":{"radiance":8.57}},{"type":"Feature","geometry":{"type":"Polygon","coordinates":[[[24.527083,64.08125],[24.53125,64.08125],[24.53125,64.085417],[24.527083,64.085417],[24.527083,64.08125]]]},"properties":{"radiance":9.02}},{"type":"Feature","geometry":{"type":"Polygon","coordinates":[[[24.53125,64.08125],[24.535417,64.08125],[24.535417,64.085417],[24.53125,64.085417],[24.53125,64.08125]]]},"properties":{"radiance":8.68}},{"type":"Feature","geometry":{"type":"Polygon","coordinates":[[[24.535417,64.08125],[24.539583,64.08125],[24.539583,64.085417],[24.535417,64.085417],[24.535417,64.08125]]]},"properties":{"radiance":8.82}},{"type":"Feature","geometry":{"type":"Polygon","coordinates":[[[24.539583,64.08125],[24.54375,64.08125],[24.54375,64.085417],[24.539583,64.085417],[24.539583,64.08125]]]},"properties":{"radiance":7.18}},{"type":"Feature","geometry":{"type":"Polygon","coordinates":[[[24.54375,64.08125],[24.547917,64.08125],[24.547917,64.085417],[24.54375,64.085417],[24.54375,64.08125]]]},"properties":{"radiance":9.47}},{"type":"Feature","geometry":{"type":"Polygon","coordinates":[[[24.547917,64.08125],[24.552083,64.08125],[24.552083,64.085417],[24.547917,64.085417],[24.547917,64.08125]]]},"properties":{"radiance":10.91}},{"type":"Feature","geometry":{"type":"Polygon","coordinates":[[[24.514583,64.077083],[24.51875,64.077083],[24.51875,64.08125],[24.514583,64.08125],[24.514583,64.077083]]]},"properties":{"radiance":7.82}},{"type":"Feature","geometry":{"type":"Polygon","coordinates":[[[24.51875,64.077083],[24.522917,64.077083],[24.522917,64.08125],[24.51875,64.08125],[24.51875,64.077083]]]},"properties":{"radiance":9.52}},{"type":"Feature","geometry":{"type":"Polygon","coordinates":[[[24.522917,64.077083],[24.527083,64.077083],[24.527083,64.08125],[24.522917,64.08125],[24.522917,64.077083]]]},"properties":{"radiance":11.28}},{"type":"Feature","geometry":{"type":"Polygon","coordinates":[[[24.527083,64.077083],[24.53125,64.077083],[24.53125,64.08125],[24.527083,64.08125],[24.527083,64.077083]]]},"properties":{"radiance":10.54}},{"type":"Feature","geometry":{"type":"Polygon","coordinates":[[[24.53125,64.077083],[24.535417,64.077083],[24.535417,64.08125],[24.53125,64.08125],[24.53125,64.077083]]]},"properties":{"radiance":21.72}},{"type":"Feature","geometry":{"type":"Polygon","coordinates":[[[24.535417,64.077083],[24.539583,64.077083],[24.539583,64.08125],[24.535417,64.08125],[24.535417,64.077083]]]},"properties":{"radiance":8.09}},{"type":"Feature","geometry":{"type":"Polygon","coordinates":[[[24.539583,64.077083],[24.54375,64.077083],[24.54375,64.08125],[24.539583,64.08125],[24.539583,64.077083]]]},"properties":{"radiance":8.22}},{"type":"Feature","geometry":{"type":"Polygon","coordinates":[[[24.54375,64.077083],[24.547917,64.077083],[24.547917,64.08125],[24.54375,64.08125],[24.54375,64.077083]]]},"properties":{"radiance":6.99}},{"type":"Feature","geometry":{"type":"Polygon","coordinates":[[[24.514583,64.072917],[24.51875,64.072917],[24.51875,64.077083],[24.514583,64.077083],[24.514583,64.072917]]]},"properties":{"radiance":38.57}},{"type":"Feature","geometry":{"type":"Polygon","coordinates":[[[24.51875,64.072917],[24.522917,64.072917],[24.522917,64.077083],[24.51875,64.077083],[24.51875,64.072917]]]},"properties":{"radiance":12.69}},{"type":"Feature","geometry":{"type":"Polygon","coordinates":[[[24.522917,64.072917],[24.527083,64.072917],[24.527083,64.077083],[24.522917,64.077083],[24.522917,64.072917]]]},"properties":{"radiance":24.04}},{"type":"Feature","geometry":{"type":"Polygon","coordinates":[[[24.527083,64.072917],[24.53125,64.072917],[24.53125,64.077083],[24.527083,64.077083],[24.527083,64.072917]]]},"properties":{"radiance":69.98}},{"type":"Feature","geometry":{"type":"Polygon","coordinates":[[[24.53125,64.072917],[24.535417,64.072917],[24.535417,64.077083],[24.53125,64.077083],[24.53125,64.072917]]]},"properties":{"radiance":72.18}},{"type":"Feature","geometry":{"type":"Polygon","coordinates":[[[24.535417,64.072917],[24.539583,64.072917],[24.539583,64.077083],[24.535417,64.077083],[24.535417,64.072917]]]},"properties":{"radiance":77.59}},{"type":"Feature","geometry":{"type":"Polygon","coordinates":[[[24.539583,64.072917],[24.54375,64.072917],[24.54375,64.077083],[24.539583,64.077083],[24.539583,64.072917]]]},"properties":{"radiance":39.38}},{"type":"Feature","geometry":{"type":"Polygon","coordinates":[[[24.54375,64.072917],[24.547917,64.072917],[24.547917,64.077083],[24.54375,64.077083],[24.54375,64.072917]]]},"properties":{"radiance":23.38}},{"type":"Feature","geometry":{"type":"Polygon","coordinates":[[[24.547917,64.072917],[24.552083,64.072917],[24.552083,64.077083],[24.547917,64.077083],[24.547917,64.072917]]]},"properties":{"radiance":11.24}},{"type":"Feature","geometry":{"type":"Polygon","coordinates":[[[24.552083,64.072917],[24.55625,64.072917],[24.55625,64.077083],[24.552083,64.077083],[24.552083,64.072917]]]},"properties":{"radiance":9.76}},{"type":"Feature","geometry":{"type":"Polygon","coordinates":[[[24.55625,64.072917],[24.560417,64.072917],[24.560417,64.077083],[24.55625,64.077083],[24.55625,64.072917]]]},"properties":{"radiance":7.64}},{"type":"Feature","geometry":{"type":"Polygon","coordinates":[[[24.522917,64.06875],[24.527083,64.06875],[24.527083,64.072917],[24.522917,64.072917],[24.522917,64.06875]]]},"properties":{"radiance":8.32}},{"type":"Feature","geometry":{"type":"Polygon","coordinates":[[[24.527083,64.06875],[24.53125,64.06875],[24.53125,64.072917],[24.527083,64.072917],[24.527083,64.06875]]]},"properties":{"radiance":58.39}},{"type":"Feature","geometry":{"type":"Polygon","coordinates":[[[24.53125,64.06875],[24.535417,64.06875],[24.535417,64.072917],[24.53125,64.072917],[24.53125,64.06875]]]},"properties":{"radiance":82.23}},{"type":"Feature","geometry":{"type":"Polygon","coordinates":[[[24.535417,64.06875],[24.539583,64.06875],[24.539583,64.072917],[24.535417,64.072917],[24.535417,64.06875]]]},"properties":{"radiance":103.79}},{"type":"Feature","geometry":{"type":"Polygon","coordinates":[[[24.539583,64.06875],[24.54375,64.06875],[24.54375,64.072917],[24.539583,64.072917],[24.539583,64.06875]]]},"properties":{"radiance":76.69}},{"type":"Feature","geometry":{"type":"Polygon","coordinates":[[[24.54375,64.06875],[24.547917,64.06875],[24.547917,64.072917],[24.54375,64.072917],[24.54375,64.06875]]]},"properties":{"radiance":77.41}},{"type":"Feature","geometry":{"type":"Polygon","coordinates":[[[24.547917,64.06875],[24.552083,64.06875],[24.552083,64.072917],[24.547917,64.072917],[24.547917,64.06875]]]},"properties":{"radiance":54.48}},{"type":"Feature","geometry":{"type":"Polygon","coordinates":[[[24.552083,64.06875],[24.55625,64.06875],[24.55625,64.072917],[24.552083,64.072917],[24.552083,64.06875]]]},"properties":{"radiance":39.43}},{"type":"Feature","geometry":{"type":"Polygon","coordinates":[[[24.55625,64.06875],[24.560417,64.06875],[24.560417,64.072917],[24.55625,64.072917],[24.55625,64.06875]]]},"properties":{"radiance":13.24}},{"type":"Feature","geometry":{"type":"Polygon","coordinates":[[[24.560417,64.06875],[24.564583,64.06875],[24.564583,64.072917],[24.560417,64.072917],[24.560417,64.06875]]]},"properties":{"radiance":14.77}},{"type":"Feature","geometry":{"type":"Polygon","coordinates":[[[24.564583,64.06875],[24.56875,64.06875],[24.56875,64.072917],[24.564583,64.072917],[24.564583,64.06875]]]},"properties":{"radiance":42.01}},{"type":"Feature","geometry":{"type":"Polygon","coordinates":[[[24.56875,64.06875],[24.572917,64.06875],[24.572917,64.072917],[24.56875,64.072917],[24.56875,64.06875]]]},"properties":{"radiance":13.33}},{"type":"Feature","geometry":{"type":"Polygon","coordinates":[[[24.572917,64.06875],[24.577083,64.06875],[24.577083,64.072917],[24.572917,64.072917],[24.572917,64.06875]]]},"properties":{"radiance":17.93}},{"type":"Feature","geometry":{"type":"Polygon","coordinates":[[[24.577083,64.06875],[24.58125,64.06875],[24.58125,64.072917],[24.577083,64.072917],[24.577083,64.06875]]]},"properties":{"radiance":12.98}},{"type":"Feature","geometry":{"type":"Polygon","coordinates":[[[24.58125,64.06875],[24.585417,64.06875],[24.585417,64.072917],[24.58125,64.072917],[24.58125,64.06875]]]},"properties":{"radiance":10.68}},{"type":"Feature","geometry":{"type":"Polygon","coordinates":[[[24.589583,64.06875],[24.59375,64.06875],[24.59375,64.072917],[24.589583,64.072917],[24.589583,64.06875]]]},"properties":{"radiance":8.12}},{"type":"Feature","geometry":{"type":"Polygon","coordinates":[[[24.51875,64.064583],[24.522917,64.064583],[24.522917,64.06875],[24.51875,64.06875],[24.51875,64.064583]]]},"properties":{"radiance":6.46}},{"type":"Feature","geometry":{"type":"Polygon","coordinates":[[[24.527083,64.064583],[24.53125,64.064583],[24.53125,64.06875],[24.527083,64.06875],[24.527083,64.064583]]]},"properties":{"radiance":12.32}},{"type":"Feature","geometry":{"type":"Polygon","coordinates":[[[24.53125,64.064583],[24.535417,64.064583],[24.535417,64.06875],[24.53125,64.06875],[24.53125,64.064583]]]},"properties":{"radiance":54.77}},{"type":"Feature","geometry":{"type":"Polygon","coordinates":[[[24.535417,64.064583],[24.539583,64.064583],[24.539583,64.06875],[24.535417,64.06875],[24.535417,64.064583]]]},"properties":{"radiance":59.07}},{"type":"Feature","geometry":{"type":"Polygon","coordinates":[[[24.539583,64.064583],[24.54375,64.064583],[24.54375,64.06875],[24.539583,64.06875],[24.539583,64.064583]]]},"properties":{"radiance":59.44}},{"type":"Feature","geometry":{"type":"Polygon","coordinates":[[[24.54375,64.064583],[24.547917,64.064583],[24.547917,64.06875],[24.54375,64.06875],[24.54375,64.064583]]]},"properties":{"radiance":52.34}},{"type":"Feature","geometry":{"type":"Polygon","coordinates":[[[24.547917,64.064583],[24.552083,64.064583],[24.552083,64.06875],[24.547917,64.06875],[24.547917,64.064583]]]},"properties":{"radiance":33.08}},{"type":"Feature","geometry":{"type":"Polygon","coordinates":[[[24.552083,64.064583],[24.55625,64.064583],[24.55625,64.06875],[24.552083,64.06875],[24.552083,64.064583]]]},"properties":{"radiance":48.28}},{"type":"Feature","geometry":{"type":"Polygon","coordinates":[[[24.55625,64.064583],[24.560417,64.064583],[24.560417,64.06875],[24.55625,64.06875],[24.55625,64.064583]]]},"properties":{"radiance":65.45}},{"type":"Feature","geometry":{"type":"Polygon","coordinates":[[[24.560417,64.064583],[24.564583,64.064583],[24.564583,64.06875],[24.560417,64.06875],[24.560417,64.064583]]]},"properties":{"radiance":61.91}},{"type":"Feature","geometry":{"type":"Polygon","coordinates":[[[24.564583,64.064583],[24.56875,64.064583],[24.56875,64.06875],[24.564583,64.06875],[24.564583,64.064583]]]},"properties":{"radiance":78.54}},{"type":"Feature","geometry":{"type":"Polygon","coordinates":[[[24.56875,64.064583],[24.572917,64.064583],[24.572917,64.06875],[24.56875,64.06875],[24.56875,64.064583]]]},"properties":{"radiance":59.48}},{"type":"Feature","geometry":{"type":"Polygon","coordinates":[[[24.572917,64.064583],[24.577083,64.064583],[24.577083,64.06875],[24.572917,64.06875],[24.572917,64.064583]]]},"properties":{"radiance":49.5}},{"type":"Feature","geometry":{"type":"Polygon","coordinates":[[[24.577083,64.064583],[24.58125,64.064583],[24.58125,64.06875],[24.577083,64.06875],[24.577083,64.064583]]]},"properties":{"radiance":15.93}},{"type":"Feature","geometry":{"type":"Polygon","coordinates":[[[24.58125,64.064583],[24.585417,64.064583],[24.585417,64.06875],[24.58125,64.06875],[24.58125,64.064583]]]},"properties":{"radiance":15.06}},{"type":"Feature","geometry":{"type":"Polygon","coordinates":[[[24.585417,64.064583],[24.589583,64.064583],[24.589583,64.06875],[24.585417,64.06875],[24.585417,64.064583]]]},"properties":{"radiance":5.89}},{"type":"Feature","geometry":{"type":"Polygon","coordinates":[[[24.535417,64.060417],[24.539583,64.060417],[24.539583,64.064583],[24.535417,64.064583],[24.535417,64.060417]]]},"properties":{"radiance":6.21}},{"type":"Feature","geometry":{"type":"Polygon","coordinates":[[[24.539583,64.060417],[24.54375,64.060417],[24.54375,64.064583],[24.539583,64.064583],[24.539583,64.060417]]]},"properties":{"radiance":9.45}},{"type":"Feature","geometry":{"type":"Polygon","coordinates":[[[24.54375,64.060417],[24.547917,64.060417],[24.547917,64.064583],[24.54375,64.064583],[24.54375,64.060417]]]},"properties":{"radiance":12.46}},{"type":"Feature","geometry":{"type":"Polygon","coordinates":[[[24.547917,64.060417],[24.552083,64.060417],[24.552083,64.064583],[24.547917,64.064583],[24.547917,64.060417]]]},"properties":{"radiance":15.34}},{"type":"Feature","geometry":{"type":"Polygon","coordinates":[[[24.552083,64.060417],[24.55625,64.060417],[24.55625,64.064583],[24.552083,64.064583],[24.552083,64.060417]]]},"properties":{"radiance":29.49}},{"type":"Feature","geometry":{"type":"Polygon","coordinates":[[[24.55625,64.060417],[24.560417,64.060417],[24.560417,64.064583],[24.55625,64.064583],[24.55625,64.060417]]]},"properties":{"radiance":25.73}},{"type":"Feature","geometry":{"type":"Polygon","coordinates":[[[24.560417,64.060417],[24.564583,64.060417],[24.564583,64.064583],[24.560417,64.064583],[24.560417,64.060417]]]},"properties":{"radiance":74.93}},{"type":"Feature","geometry":{"type":"Polygon","coordinates":[[[24.564583,64.060417],[24.56875,64.060417],[24.56875,64.064583],[24.564583,64.064583],[24.564583,64.060417]]]},"properties":{"radiance":59.64}},{"type":"Feature","geometry":{"type":"Polygon","coordinates":[[[24.56875,64.060417],[24.572917,64.060417],[24.572917,64.064583],[24.56875,64.064583],[24.56875,64.060417]]]},"properties":{"radiance":11.56}},{"type":"Feature","geometry":{"type":"Polygon","coordinates":[[[24.572917,64.060417],[24.577083,64.060417],[24.577083,64.064583],[24.572917,64.064583],[24.572917,64.060417]]]},"properties":{"radiance":9.9}},{"type":"Feature","geometry":{"type":"Polygon","coordinates":[[[24.577083,64.060417],[24.58125,64.060417],[24.58125,64.064583],[24.577083,64.064583],[24.577083,64.060417]]]},"properties":{"radiance":14.93}},{"type":"Feature","geometry":{"type":"Polygon","coordinates":[[[24.58125,64.060417],[24.585417,64.060417],[24.585417,64.064583],[24.58125,64.064583],[24.58125,64.060417]]]},"properties":{"radiance":7.38}},{"type":"Feature","geometry":{"type":"Polygon","coordinates":[[[24.589583,64.060417],[24.59375,64.060417],[24.59375,64.064583],[24.589583,64.064583],[24.589583,64.060417]]]},"properties":{"radiance":5.01}},{"type":"Feature","geometry":{"type":"Polygon","coordinates":[[[24.55625,64.05625],[24.560417,64.05625],[24.560417,64.060417],[24.55625,64.060417],[24.55625,64.05625]]]},"properties":{"radiance":10.23}},{"type":"Feature","geometry":{"type":"Polygon","coordinates":[[[24.560417,64.05625],[24.564583,64.05625],[24.564583,64.060417],[24.560417,64.060417],[24.560417,64.05625]]]},"properties":{"radiance":8.21}},{"type":"Feature","geometry":{"type":"Polygon","coordinates":[[[24.564583,64.05625],[24.56875,64.05625],[24.56875,64.060417],[24.564583,64.060417],[24.564583,64.05625]]]},"properties":{"radiance":5.71}},{"type":"Feature","geometry":{"type":"Polygon","coordinates":[[[24.514583,63.910417],[24.51875,63.910417],[24.51875,63.914583],[24.514583,63.914583],[24.514583,63.910417]]]},"properties":{"radiance":6.44}},{"type":"Feature","geometry":{"type":"Polygon","coordinates":[[[24.514583,63.90625],[24.51875,63.90625],[24.51875,63.910417],[24.514583,63.910417],[24.514583,63.90625]]]},"properties":{"radiance":17.69}},{"type":"Feature","geometry":{"type":"Polygon","coordinates":[[[24.51875,63.90625],[24.522917,63.90625],[24.522917,63.910417],[24.51875,63.910417],[24.51875,63.90625]]]},"properties":{"radiance":13.58}},{"type":"Feature","geometry":{"type":"Polygon","coordinates":[[[24.522917,63.90625],[24.527083,63.90625],[24.527083,63.910417],[24.522917,63.910417],[24.522917,63.90625]]]},"properties":{"radiance":11.12}}]}