{"type":"FeatureCollection","features":[{"type":"Feature","geometry":{"type":"Polygon","coordinates":[[[22.989583,60.222917],[22.99375,60.222917],[22.99375,60.227083],[22.989583,60.227083],[22.989583,60.222917]]]},"properties":{"radiance":7.21}},{"type":"Feature","geometry":{"type":"Polygon","coordinates":[[[22.99375,60.222917],[22.997917,60.222917],[22.997917,60.227083],[22.99375,60.227083],[22.99375,60.222917]]]},"properties":{"radiance":9.4}},{"type":"Feature","geometry":{"type":"Polygon","coordinates":[[[22.997917,60.222917],[23.002083,60.222917],[23.002083,60.227083],[22.997917,60.227083],[22.997917,60.222917]]]},"properties":{"radiance":10.71}},{"type":"Feature","geometry":{"type":"Polygon","coordinates":[[[23.002083,60.222917],[23.00625,60.222917],[23.00625,60.227083],[23.002083,60.227083],[23.002083,60.222917]]]},"properties":{"radiance":5.25}},{"type":"Feature","geometry":{"type":"Polygon","coordinates":[[[23.00625,60.222917],[23.010417,60.222917],[23.010417,60.227083],[23.00625,60.227083],[23.00625,60.222917]]]},"properties":{"radiance":84.11}},{"type":"Feature","geometry":{"type":"Polygon","coordinates":[[[23.010417,60.222917],[23.014583,60.222917],[23.014583,60.227083],[23.010417,60.227083],[23.010417,60.222917]]]},"properties":{"radiance":12.29}},{"type":"Feature","geometry":{"type":"Polygon","coordinates":[[[23.014583,60.222917],[23.01875,60.222917],[23.01875,60.227083],[23.014583,60.227083],[23.014583,60.222917]]]},"properties":{"radiance":12.28}},{"type":"Feature","geometry":{"type":"Polygon","coordinates":[[[23.027083,60.222917],[23.03125,60.222917],[23.03125,60.227083],[23.027083,60.227083],[23.027083,60.222917]]]},"properties":{"radiance":5.25}},{"type":"Feature","geometry":{"type":"Polygon","coordinates":[[[24.00625,60.222917],[24.010417,60.222917],[24.010417,60.227083],[24.00625,60.227083],[24.00625,60.222917]]]},"properties":{"radiance":11.01}},{"type":"Feature","geometry":{"type":"Polygon","coordinates":[[[24.010417,60.222917],[24.014583,60.222917],[24.014583,60.227083],[24.010417,60.227083],[24.010417,60.222917]]]},"properties":{"radiance":13.74}},{"type":"Feature","geometry":{"type":"Polygon","coordinates":[[[24.014583,60.222917],[24.01875,60.222917],[24.01875,60.227083],[24.014583,60.227083],[24.014583,60.222917]]]},"properties":{"radiance":21}},{"type":"Feature","geometry":{"type":"Polygon","coordinates":[[[24.01875,60.222917],[24.022917,60.222917],[24.022917,60.227083],[24.01875,60.227083],[24.01875,60.222917]]]},"properties":{"radiance":32.19}},{"type":"Feature","geometry":{"type":"Polygon","coordinates":[[[24.022917,60.222917],[24.027083,60.222917],[24.027083,60.227083],[24.022917,60.227083],[24.022917,60.222917]]]},"properties":{"radiance":25.77}},{"type":"Feature","geometry":{"type":"Polygon","coordinates":[[[24.027083,60.222917],[24.03125,60.222917],[24.03125,60.227083],[24.027083,60.227083],[24.027083,60.222917]]]},"properties":{"radiance":18.6}},{"type":"Feature","geometry":{"type":"Polygon","coordinates":[[[24.03125,60.222917],[24.035417,60.222917],[24.035417,60.227083],[24.03125,60.227083],[24.03125,60.222917]]]},"properties":{"radiance":12.44}},{"type":"Feature","geometry":{"type":"Polygon","coordinates":[[[24.035417,60.222917],[24.039583,60.222917],[24.039583,60.227083],[24.035417,60.227083],[24.035417,60.222917]]]},"properties":{"radiance":9.98}},{"type":"Feature","geometry":{"type":"Polygon","coordinates":[[[24.039583,60.222917],[24.04375,60.222917],[24.04375,60.227083],[24.039583,60.227083],[24.039583,60.222917]]]},"properties":{"radiance":6.67}},{"type":"Feature","geometry":{"type":"Polygon","coordinates":[[[24.04375,60.222917],[24.047917,60.222917],[24.047917,60.227083],[24.04375,60.227083],[24.04375,60.222917]]]},"properties":{"radiance":8.6}},{"type":"Feature","geometry":{"type":"Polygon","coordinates":[[[22.989583,60.21875],[22.99375,60.21875],[22.99375,60.222917],[22.989583,60.222917],[22.989583,60.21875]]]},"properties":{"radiance":7.74}},{"type":"Feature","geometry":{"type":"Polygon","coordinates":[[[22.99375,60.21875],[22.997917,60.21875],[22.997917,60.222917],[22.99375,60.222917],[22.99375,60.21875]]]},"properties":{"radiance":6.54}},{"type":"Feature","geometry":{"type":"Polygon","coordinates":[[[22.997917,60.21875],[23.002083,60.21875],[23.002083,60.222917],[22.997917,60.222917],[22.997917,60.21875]]]},"properties":{"radiance":10.54}},{"type":"Feature","geometry":{"type":"Polygon","coordinates":[[[24.010417,60.21875],[24.014583,60.21875],[24.014583,60.222917],[24.010417,60.222917],[24.010417,60.21875]]]},"properties":{"radiance":8.8}},{"type":"Feature","geometry":{"type":"Polygon","coordinates":[[[24.014583,60.21875],[24.01875,60.21875],[24.01875,60.222917],[24.014583,60.222917],[24.014583,60.21875]]]},"properties":{"radiance":10.15}},{"type":"Feature","geometry":{"type":"Polygon","coordinates":[[[24.01875,60.21875],[24.022917,60.21875],[24.022917,60.222917],[24.01875,60.222917],[24.01875,60.21875]]]},"properties":{"radiance":9.08}},{"type":"Feature","geometry":{"type":"Polygon","coordinates":[[[24.022917,60.21875],[24.027083,60.21875],[24.027083,60.222917],[24.022917,60.222917],[24.022917,60.21875]]]},"properties":{"radiance":13.87}},{"type":"Feature","geometry":{"type":"Polygon","coordinates":[[[24.027083,60.21875],[24.03125,60.21875],[24.03125,60.222917],[24.027083,60.222917],[24.027083,60.21875]]]},"properties":{"radiance":11.87}},{"type":"Feature","geometry":{"type":"Polygon","coordinates":[[[23.114583,60.210417],[23.11875,60.210417],[23.11875,60.214583],[23.114583,60.214583],[23.114583,60.210417]]]},"properties":{"radiance":6.68}},{"type":"Feature","geometry":{"type":"Polygon","coordinates":[[[23.097917,60.20625],[23.102083,60.20625],[23.102083,60.210417],[23.097917,60.210417],[23.097917,60.20625]]]},"properties":{"radiance":6.02}},{"type":"Feature","geometry":{"type":"Polygon","coordinates":[[[23.102083,60.20625],[23.10625,60.20625],[23.10625,60.210417],[23.102083,60.210417],[23.102083,60.20625]]]},"properties":{"radiance":5.92}},{"type":"Feature","geometry":{"type":"Polygon","coordinates":[[[23.10625,60.20625],[23.110417,60.20625],[23.110417,60.210417],[23.10625,60.210417],[23.10625,60.20625]]]},"properties":{"radiance":7.11}},{"type":"Feature","geometry":{"type":"Polygon","coordinates":[[[23.110417,60.20625],[23.114583,60.20625],[23.114583,60.210417],[23.110417,60.210417],[23.110417,60.20625]]]},"properties":{"radiance":9.59}},{"type":"Feature","geometry":{"type":"Polygon","coordinates":[[[23.114583,60.20625],[23.11875,60.20625],[23.11875,60.210417],[23.114583,60.210417],[23.114583,60.20625]]]},"properties":{"radiance":11.13}},{"type":"Feature","geometry":{"type":"Polygon","coordinates":[[[23.11875,60.20625],[23.122917,60.20625],[23.122917,60.210417],[23.11875,60.210417],[23.11875,60.20625]]]},"properties":{"radiance":9.8}},{"type":"Feature","geometry":{"type":"Polygon","coordinates":[[[23.122917,60.20625],[23.127083,60.20625],[23.127083,60.210417],[23.122917,60.210417],[23.122917,60.20625]]]},"properties":{"radiance":8.81}},{"type":"Feature","geometry":{"type":"Polygon","coordinates":[[[23.127083,60.20625],[23.13125,60.20625],[23.13125,60.210417],[23.127083,60.210417],[23.127083,60.20625]]]},"properties":{"radiance":6.94}},{"type":"Feature","geometry":{"type":"Polygon","coordinates":[[[23.13125,60.20625],[23.135417,60.20625],[23.135417,60.210417],[23.13125,60.210417],[23.13125,60.20625]]]},"properties":{"radiance":5.38}},{"type":"Feature","geometry":{"type":"Polygon","coordinates":[[[23.997917,60.20625],[24.002083,60.20625],[24.002083,60.210417],[23.997917,60.210417],[23.997917,60.20625]]]},"properties":{"radiance":5.04}},{"type":"Feature","geometry":{"type":"Polygon","coordinates":[[[24.002083,60.20625],[24.00625,60.20625],[24.00625,60.210417],[24.002083,60.210417],[24.002083,60.20625]]]},"properties":{"radiance":5.5}},{"type":"Feature","geometry":{"type":"Polygon","coordinates":[[[23.09375,60.202083],[23.097917,60.202083],[23.097917,60.20625],[23.09375,60.20625],[23.09375,60.202083]]]},"properties":{"radiance":5.05}},{"type":"Feature","geometry":{"type":"Polygon","coordinates":[[[23.097917,60.202083],[23.102083,60.202083],[23.102083,60.20625],[23.097917,60.20625],[23.097917,60.202083]]]},"properties":{"radiance":5.38}},{"type":"Feature","geometry":{"type":"Polygon","coordinates":[[[23.10625,60.202083],[23.110417,60.202083],[23.110417,60.20625],[23.10625,60.20625],[23.10625,60.202083]]]},"properties":{"radiance":6.71}},{"type":"Feature","geometry":{"type":"Polygon","coordinates":[[[23.110417,60.202083],[23.114583,60.202083],[23.114583,60.20625],[23.110417,60.20625],[23.110417,60.202083]]]},"properties":{"radiance":8.08}},{"type":"Feature","geometry":{"type":"Polygon","coordinates":[[[23.114583,60.202083],[23.11875,60.202083],[23.11875,60.20625],[23.114583,60.20625],[23.114583,60.202083]]]},"properties":{"radiance":14.62}},{"type":"Feature","geometry":{"type":"Polygon","coordinates":[[[23.11875,60.202083],[23.122917,60.202083],[23.122917,60.20625],[23.11875,60.20625],[23.11875,60.202083]]]},"properties":{"radiance":12.41}},{"type":"Feature","geometry":{"type":"Polygon","coordinates":[[[23.122917,60.202083],[23.127083,60.202083],[23.127083,60.20625],[23.122917,60.20625],[23.122917,60.202083]]]},"properties":{"radiance":8.32}},{"type":"Feature","geometry":{"type":"Polygon","coordinates":[[[23.127083,60.202083],[23.13125,60.202083],[23.13125,60.20625],[23.127083,60.20625],[23.127083,60.202083]]]},"properties":{"radiance":7.06}},{"type":"Feature","geometry":{"type":"Polygon","coordinates":[[[23.13125,60.202083],[23.135417,60.202083],[23.135417,60.20625],[23.13125,60.20625],[23.13125,60.202083]]]},"properties":{"radiance":6.63}},{"type":"Feature","geometry":{"type":"Polygon","coordinates":[[[23.997917,60.202083],[24.002083,60.202083],[24.002083,60.20625],[23.997917,60.20625],[23.997917,60.202083]]]},"properties":{"radiance":5.16}},{"type":"Feature","geometry":{"type":"Polygon","coordinates":[[[23.114583,60.197917],[23.11875,60.197917],[23.11875,60.202083],[23.114583,60.202083],[23.114583,60.197917]]]},"properties":{"radiance":5.39}},{"type":"Feature","geometry":{"type":"Polygon","coordinates":[[[23.11875,60.197917],[23.122917,60.197917],[23.122917,60.202083],[23.11875,60.202083],[23.11875,60.197917]]]},"properties":{"radiance":6.24}},{"type":"Feature","geometry":{"type":"Polygon","coordinates":[[[23.122917,60.197917],[23.127083,60.197917],[23.127083,60.202083],[23.122917,60.202083],[23.122917,60.197917]]]},"properties":{"radiance":6.76}},{"type":"Feature","geometry":{"type":"Polygon","coordinates":[[[23.127083,60.197917],[23.13125,60.197917],[23.13125,60.202083],[23.127083,60.202083],[23.127083,60.197917]]]},"properties":{"radiance":7.05}},{"type":"Feature","geometry":{"type":"Polygon","coordinates":[[[23.927083,60.197917],[23.93125,60.197917],[23.93125,60.202083],[23.927083,60.202083],[23.927083,60.197917]]]},"properties":{"radiance":12.79}},{"type":"Feature","geometry":{"type":"Polygon","coordinates":[[[23.935417,60.197917],[23.939583,60.197917],[23.939583,60.202083],[23.935417,60.202083],[23.935417,60.197917]]]},"properties":{"radiance":22.46}},{"type":"Feature","geometry":{"type":"Polygon","coordinates":[[[23.939583,60.197917],[23.94375,60.197917],[23.94375,60.202083],[23.939583,60.202083],[23.939583,60.197917]]]},"properties":{"radiance":10.14}},{"type":"Feature","geometry":{"type":"Polygon","coordinates":[[[23.989583,60.197917],[23.99375,60.197917],[23.99375,60.202083],[23.989583,60.202083],[23.989583,60.197917]]]},"properties":{"radiance":7.1}},{"type":"Feature","geometry":{"type":"Polygon","coordinates":[[[23.99375,60.197917],[23.997917,60.197917],[23.997917,60.202083],[23.99375,60.202083],[23.99375,60.197917]]]},"properties":{"radiance":8.39}},{"type":"Feature","geometry":{"type":"Polygon","coordinates":[[[23.997917,60.197917],[24.002083,60.197917],[24.002083,60.202083],[23.997917,60.202083],[23.997917,60.197917]]]},"properties":{"radiance":6.42}},{"type":"Feature","geometry":{"type":"Polygon","coordinates":[[[23.93125,60.19375],[23.935417,60.19375],[23.935417,60.197917],[23.93125,60.197917],[23.93125,60.19375]]]},"properties":{"radiance":28.81}},{"type":"Feature","geometry":{"type":"Polygon","coordinates":[[[23.935417,60.19375],[23.939583,60.19375],[23.939583,60.197917],[23.935417,60.197917],[23.935417,60.19375]]]},"properties":{"radiance":46.35}},{"type":"Feature","geometry":{"type":"Polygon","coordinates":[[[23.939583,60.19375],[23.94375,60.19375],[23.94375,60.197917],[23.939583,60.197917],[23.939583,60.19375]]]},"properties":{"radiance":57.96}},{"type":"Feature","geometry":{"type":"Polygon","coordinates":[[[23.94375,60.19375],[23.947917,60.19375],[23.947917,60.197917],[23.94375,60.197917],[23.94375,60.19375]]]},"properties":{"radiance":44.89}},{"type":"Feature","geometry":{"type":"Polygon","coordinates":[[[23.947917,60.19375],[23.952083,60.19375],[23.952083,60.197917],[23.947917,60.197917],[23.947917,60.19375]]]},"properties":{"radiance":18.26}},{"type":"Feature","geometry":{"type":"Polygon","coordinates":[[[23.985417,60.19375],[23.989583,60.19375],[23.989583,60.197917],[23.985417,60.197917],[23.985417,60.19375]]]},"properties":{"radiance":5.26}},{"type":"Feature","geometry":{"type":"Polygon","coordinates":[[[23.989583,60.19375],[23.99375,60.19375],[23.99375,60.197917],[23.989583,60.197917],[23.989583,60.19375]]]},"properties":{"radiance":10.94}},{"type":"Feature","geometry":{"type":"Polygon","coordinates":[[[23.99375,60.19375],[23.997917,60.19375],[23.997917,60.197917],[23.99375,60.197917],[23.99375,60.19375]]]},"properties":{"radiance":10.8}},{"type":"Feature","geometry":{"type":"Polygon","coordinates":[[[23.997917,60.19375],[24.002083,60.19375],[24.002083,60.197917],[23.997917,60.197917],[23.997917,60.19375]]]},"properties":{"radiance":9.13}},{"type":"Feature","geometry":{"type":"Polygon","coordinates":[[[24.002083,60.19375],[24.00625,60.19375],[24.00625,60.197917],[24.002083,60.197917],[24.002083,60.19375]]]},"properties":{"radiance":5.05}},{"type":"Feature","geometry":{"type":"Polygon","coordinates":[[[23.927083,60.189583],[23.93125,60.189583],[23.93125,60.19375],[23.927083,60.19375],[23.927083,60.189583]]]},"properties":{"radiance":25.12}},{"type":"Feature","geometry":{"type":"Polygon","coordinates":[[[23.93125,60.189583],[23.935417,60.189583],[23.935417,60.19375],[23.93125,60.19375],[23.93125,60.189583]]]},"properties":{"radiance":43.23}},{"type":"Feature","geometry":{"type":"Polygon","coordinates":[[[23.935417,60.189583],[23.939583,60.189583],[23.939583,60.19375],[23.935417,60.19375],[23.935417,60.189583]]]},"properties":{"radiance":59.56}},{"type":"Feature","geometry":{"type":"Polygon","coordinates":[[[23.939583,60.189583],[23.94375,60.189583],[23.94375,60.19375],[23.939583,60.19375],[23.939583,60.189583]]]},"properties":{"radiance":58.11}},{"type":"Feature","geometry":{"type":"Polygon","coordinates":[[[23.94375,60.189583],[23.947917,60.189583],[23.947917,60.19375],[23.94375,60.19375],[23.94375,60.189583]]]},"properties":{"radiance":38.29}},{"type":"Feature","geometry":{"type":"Polygon","coordinates":[[[23.947917,60.189583],[23.952083,60.189583],[23.952083,60.19375],[23.947917,60.19375],[23.947917,60.189583]]]},"properties":{"radiance":30.84}},{"type":"Feature","geometry":{"type":"Polygon","coordinates":[[[23.952083,60.189583],[23.95625,60.189583],[23.95625,60.19375],[23.952083,60.19375],[23.952083,60.189583]]]},"properties":{"radiance":6.31}},{"type":"Feature","geometry":{"type":"Polygon","coordinates":[[[23.98125,60.189583],[23.985417,60.189583],[23.985417,60.19375],[23.98125,60.19375],[23.98125,60.189583]]]},"properties":{"radiance":6.22}},{"type":"Feature","geometry":{"type":"Polygon","coordinates":[[[23.985417,60.189583],[23.989583,60.189583],[23.989583,60.19375],[23.985417,60.19375],[23.985417,60.189583]]]},"properties":{"radiance":10.07}},{"type":"Feature","geometry":{"type":"Polygon","coordinates":[[[23.989583,60.189583],[23.99375,60.189583],[23.99375,60.19375],[23.989583,60.19375],[23.989583,60.189583]]]},"properties":{"radiance":13.55}},{"type":"Feature","geometry":{"type":"Polygon","coordinates":[[[23.99375,60.189583],[23.997917,60.189583],[23.997917,60.19375],[23.99375,60.19375],[23.99375,60.189583]]]},"properties":{"radiance":12.7}},{"type":"Feature","geometry":{"type":"Polygon","coordinates":[[[23.997917,60.189583],[24.002083,60.189583],[24.002083,60.19375],[23.997917,60.19375],[23.997917,60.189583]]]},"properties":{"radiance":10.36}},{"type":"Feature","geometry":{"type":"Polygon","coordinates":[[[23.93125,60.185417],[23.935417,60.185417],[23.935417,60.189583],[23.93125,60.189583],[23.93125,60.185417]]]},"properties":{"radiance":10.94}},{"type":"Feature","geometry":{"type":"Polygon","coordinates":[[[23.935417,60.185417],[23.939583,60.185417],[23.939583,60.189583],[23.935417,60.189583],[23.935417,60.185417]]]},"properties":{"radiance":28.85}},{"type":"Feature","geometry":{"type":"Polygon","coordinates":[[[23.939583,60.185417],[23.94375,60.185417],[23.94375,60.189583],[23.939583,60.189583],[23.939583,60.185417]]]},"properties":{"radiance":21.12}},{"type":"Feature","geometry":{"type":"Polygon","coordinates":[[[23.94375,60.185417],[23.947917,60.185417],[23.947917,60.189583],[23.94375,60.189583],[23.94375,60.185417]]]},"properties":{"radiance":12.83}},{"type":"Feature","geometry":{"type":"Polygon","coordinates":[[[23.947917,60.185417],[23.952083,60.185417],[23.952083,60.189583],[23.947917,60.189583],[23.947917,60.185417]]]},"properties":{"radiance":12.97}},{"type":"Feature","geometry":{"type":"Polygon","coordinates":[[[23.98125,60.185417],[23.985417,60.185417],[23.985417,60.189583],[23.98125,60.189583],[23.98125,60.185417]]]},"properties":{"radiance":7.58}},{"type":"Feature","geometry":{"type":"Polygon","coordinates":[[[23.985417,60.185417],[23.989583,60.185417],[23.989583,60.189583],[23.985417,60.189583],[23.985417,60.185417]]]},"properties":{"radiance":10.93}},{"type":"Feature","geometry":{"type":"Polygon","coordinates":[[[23.989583,60.185417],[23.99375,60.185417],[23.99375,60.189583],[23.989583,60.189583],[23.989583,60.185417]]]},"properties":{"radiance":11.13}},{"type":"Feature","geometry":{"type":"Polygon","coordinates":[[[23.99375,60.185417],[23.997917,60.185417],[23.997917,60.189583],[23.99375,60.189583],[23.99375,60.185417]]]},"properties":{"radiance":11.79}},{"type":"Feature","geometry":{"type":"Polygon","coordinates":[[[23.997917,60.185417],[24.002083,60.185417],[24.002083,60.189583],[23.997917,60.189583],[23.997917,60.185417]]]},"properties":{"radiance":8.25}},{"type":"Feature","geometry":{"type":"Polygon","coordinates":[[[24.002083,60.185417],[24.00625,60.185417],[24.00625,60.189583],[24.002083,60.189583],[24.002083,60.185417]]]},"properties":{"radiance":6.11}},{"type":"Feature","geometry":{"type":"Polygon","coordinates":[[[23.977083,60.18125],[23.98125,60.18125],[23.98125,60.185417],[23.977083,60.185417],[23.977083,60.18125]]]},"properties":{"radiance":6.06}},{"type":"Feature","geometry":{"type":"Polygon","coordinates":[[[23.98125,60.18125],[23.985417,60.18125],[23.985417,60.185417],[23.98125,60.185417],[23.98125,60.18125]]]},"properties":{"radiance":7.73}},{"type":"Feature","geometry":{"type":"Polygon","coordinates":[[[23.985417,60.18125],[23.989583,60.18125],[23.989583,60.185417],[23.985417,60.185417],[23.985417,60.18125]]]},"properties":{"radiance":7.73}},{"type":"Feature","geometry":{"type":"Polygon","coordinates":[[[23.989583,60.18125],[23.99375,60.18125],[23.99375,60.185417],[23.989583,60.185417],[23.989583,60.18125]]]},"properties":{"radiance":7.24}},{"type":"Feature","geometry":{"type":"Polygon","coordinates":[[[23.99375,60.18125],[23.997917,60.18125],[23.997917,60.185417],[23.99375,60.185417],[23.99375,60.18125]]]},"properties":{"radiance":6.95}},{"type":"Feature","geometry":{"type":"Polygon","coordinates":[[[23.997917,60.18125],[24.002083,60.18125],[24.002083,60.185417],[23.997917,60.185417],[23.997917,60.18125]]]},"properties":{"radiance":5.9}},{"type":"Feature","geometry":{"type":"Polygon","coordinates":[[[24.197917,60.177083],[24.202083,60.177083],[24.202083,60.18125],[24.197917,60.18125],[24.197917,60.177083]]]},"properties":{"radiance":5.43}},{"type":"Feature","geometry":{"type":"Polygon","coordinates":[[[24.20625,60.147917],[24.210417,60.147917],[24.210417,60.152083],[24.20625,60.152083],[24.20625,60.147917]]]},"properties":{"radiance":6.62}},{"type":"Feature","geometry":{"type":"Polygon","coordinates":[[[24.210417,60.147917],[24.214583,60.147917],[24.214583,60.152083],[24.210417,60.152083],[24.210417,60.147917]]]},"properties":{"radiance":6.81}},{"type":"Feature","geometry":{"type":"Polygon","coordinates":[[[24.214583,60.147917],[24.21875,60.147917],[24.21875,60.152083],[24.214583,60.152083],[24.214583,60.147917]]]},"properties":{"radiance":5.63}},{"type":"Feature","geometry":{"type":"Polygon","coordinates":[[[24.20625,60.14375],[24.210417,60.14375],[24.210417,60.147917],[24.20625,60.147917],[24.20625,60.14375]]]},"properties":{"radiance":6.75}},{"type":"Feature","geometry":{"type":"Polygon","coordinates":[[[24.210417,60.14375],[24.214583,60.14375],[24.214583,60.147917],[24.210417,60.147917],[24.210417,60.14375]]]},"properties":{"radiance":7.85}},{"type":"Feature","geometry":{"type":"Polygon","coordinates":[[[24.214583,60.14375],[24.21875,60.14375],[24.21875,60.147917],[24.214583,60.147917],[24.214583,60.14375]]]},"properties":{"radiance":8.35}},{"type":"Feature","geometry":{"type":"Polygon","coordinates":[[[24.21875,60.14375],[24.222917,60.14375],[24.222917,60.147917],[24.21875,60.147917],[24.21875,60.14375]]]},"properties":{"radiance":6.93}},{"type":"Feature","geometry":{"type":"Polygon","coordinates":[[[24.20625,60.139583],[24.210417,60.139583],[24.210417,60.14375],[24.20625,60.14375],[24.20625,60.139583]]]},"properties":{"radiance":7.16}},{"type":"Feature","geometry":{"type":"Polygon","coordinates":[[[24.210417,60.139583],[24.214583,60.139583],[24.214583,60.14375],[24.210417,60.14375],[24.210417,60.139583]]]},"properties":{"radiance":9.82}},{"type":"Feature","geometry":{"type":"Polygon","coordinates":[[[24.214583,60.139583],[24.21875,60.139583],[24.21875,60.14375],[24.214583,60.14375],[24.214583,60.139583]]]},"properties":{"radiance":10.73}},{"type":"Feature","geometry":{"type":"Polygon","coordinates":[[[24.21875,60.139583],[24.222917,60.139583],[24.222917,60.14375],[24.21875,60.14375],[24.21875,60.139583]]]},"properties":{"radiance":11.08}},{"type":"Feature","geometry":{"type":"Polygon","coordinates":[[[24.222917,60.139583],[24.227083,60.139583],[24.227083,60.14375],[24.222917,60.14375],[24.222917,60.139583]]]},"properties":{"radiance":12.08}},{"type":"Feature","geometry":{"type":"Polygon","coordinates":[[[24.227083,60.139583],[24.23125,60.139583],[24.23125,60.14375],[24.227083,60.14375],[24.227083,60.139583]]]},"properties":{"radiance":7.54}},{"type":"Feature","geometry":{"type":"Polygon","coordinates":[[[24.20625,60.135417],[24.210417,60.135417],[24.210417,60.139583],[24.20625,60.139583],[24.20625,60.135417]]]},"properties":{"radiance":5.16}},{"type":"Feature","geometry":{"type":"Polygon","coordinates":[[[24.210417,60.135417],[24.214583,60.135417],[24.214583,60.139583],[24.210417,60.139583],[24.210417,60.135417]]]},"properties":{"radiance":7.03}},{"type":"Feature","geometry":{"type":"Polygon","coordinates":[[[24.214583,60.135417],[24.21875,60.135417],[24.21875,60.139583],[24.214583,60.139583],[24.214583,60.135417]]]},"properties":{"radiance":9.29}},{"type":"Feature","geometry":{"type":"Polygon","coordinates":[[[24.21875,60.135417],[24.222917,60.135417],[24.222917,60.139583],[24.21875,60.139583],[24.21875,60.135417]]]},"properties":{"radiance":12.26}},{"type":"Feature","geometry":{"type":"Polygon","coordinates":[[[24.222917,60.135417],[24.227083,60.135417],[24.227083,60.139583],[24.222917,60.139583],[24.222917,60.135417]]]},"properties":{"radiance":13.24}},{"type":"Feature","geometry":{"type":"Polygon","coordinates":[[[24.227083,60.135417],[24.23125,60.135417],[24.23125,60.139583],[24.227083,60.139583],[24.227083,60.135417]]]},"properties":{"radiance":9.82}},{"type":"Feature","geometry":{"type":"Polygon","coordinates":[[[24.23125,60.135417],[24.235417,60.135417],[24.235417,60.139583],[24.23125,60.139583],[24.23125,60.135417]]]},"properties":{"radiance":5.45}},{"type":"Feature","geometry":{"type":"Polygon","coordinates":[[[24.214583,60.13125],[24.21875,60.13125],[24.21875,60.135417],[24.214583,60.135417],[24.214583,60.13125]]]},"properties":{"radiance":6.88}},{"type":"Feature","geometry":{"type":"Polygon","coordinates":[[[24.21875,60.13125],[24.222917,60.13125],[24.222917,60.135417],[24.21875,60.135417],[24.21875,60.13125]]]},"properties":{"radiance":7.41}},{"type":"Feature","geometry":{"type":"Polygon","coordinates":[[[24.222917,60.13125],[24.227083,60.13125],[24.227083,60.135417],[24.222917,60.135417],[24.222917,60.13125]]]},"properties":{"radiance":7.07}},{"type":"Feature","geometry":{"type":"Polygon","coordinates":[[[24.227083,60.13125],[24.23125,60.13125],[24.23125,60.135417],[24.227083,60.135417],[24.227083,60.13125]]]},"properties":{"radiance":5.66}},{"type":"Feature","geometry":{"type":"Polygon","coordinates":[[[23.535417,60.127083],[23.539583,60.127083],[23.539583,60.13125],[23.535417,60.13125],[23.535417,60.127083]]]},"properties":{"radiance":5.48}},{"type":"Feature","geometry":{"type":"Polygon","coordinates":[[[23.539583,60.127083],[23.54375,60.127083],[23.54375,60.13125],[23.539583,60.13125],[23.539583,60.127083]]]},"properties":{"radiance":5}},{"type":"Feature","geometry":{"type":"Polygon","coordinates":[[[23.54375,60.127083],[23.547917,60.127083],[23.547917,60.13125],[23.54375,60.13125],[23.54375,60.127083]]]},"properties":{"radiance":5.49}},{"type":"Feature","geometry":{"type":"Polygon","coordinates":[[[23.522917,60.102083],[23.527083,60.102083],[23.527083,60.10625],[23.522917,60.10625],[23.522917,60.102083]]]},"properties":{"radiance":5.57}},{"type":"Feature","geometry":{"type":"Polygon","coordinates":[[[23.51875,60.097917],[23.522917,60.097917],[23.522917,60.102083],[23.51875,60.102083],[23.51875,60.097917]]]},"properties":{"radiance":7.98}},{"type":"Feature","geometry":{"type":"Polygon","coordinates":[[[23.522917,60.097917],[23.527083,60.097917],[23.527083,60.102083],[23.522917,60.102083],[23.522917,60.097917]]]},"properties":{"radiance":8.06}},{"type":"Feature","geometry":{"type":"Polygon","coordinates":[[[23.527083,60.097917],[23.53125,60.097917],[23.53125,60.102083],[23.527083,60.102083],[23.527083,60.097917]]]},"properties":{"radiance":6.15}},{"type":"Feature","geometry":{"type":"Polygon","coordinates":[[[23.51875,60.09375],[23.522917,60.09375],[23.522917,60.097917],[23.51875,60.097917],[23.51875,60.09375]]]},"properties":{"radiance":5.46}},{"type":"Feature","geometry":{"type":"Polygon","coordinates":[[[23.527083,60.09375],[23.53125,60.09375],[23.53125,60.097917],[23.527083,60.097917],[23.527083,60.09375]]]},"properties":{"radiance":5.8}},{"type":"Feature","geometry":{"type":"Polygon","coordinates":[[[23.639583,60.085417],[23.64375,60.085417],[23.64375,60.089583],[23.639583,60.089583],[23.639583,60.085417]]]},"properties":{"radiance":5.8}},{"type":"Feature","geometry":{"type":"Polygon","coordinates":[[[23.64375,60.085417],[23.647917,60.085417],[23.647917,60.089583],[23.64375,60.089583],[23.64375,60.085417]]]},"properties":{"radiance":5.9}},{"type":"Feature","geometry":{"type":"Polygon","coordinates":[[[23.639583,60.08125],[23.64375,60.08125],[23.64375,60.085417],[23.639583,60.085417],[23.639583,60.08125]]]},"properties":{"radiance":6.41}},{"type":"Feature","geometry":{"type":"Polygon","coordinates":[[[23.64375,60.08125],[23.647917,60.08125],[23.647917,60.085417],[23.64375,60.085417],[23.64375,60.08125]]]},"properties":{"radiance":8.55}},{"type":"Feature","geometry":{"type":"Polygon","coordinates":[[[23.647917,60.08125],[23.652083,60.08125],[23.652083,60.085417],[23.647917,60.085417],[23.647917,60.08125]]]},"properties":{"radiance":8.55}},{"type":"Feature","geometry":{"type":"Polygon","coordinates":[[[23.652083,60.08125],[23.65625,60.08125],[23.65625,60.085417],[23.652083,60.085417],[23.652083,60.08125]]]},"properties":{"radiance":9.34}},{"type":"Feature","geometry":{"type":"Polygon","coordinates":[[[23.65625,60.08125],[23.660417,60.08125],[23.660417,60.085417],[23.65625,60.085417],[23.65625,60.08125]]]},"properties":{"radiance":8.12}},{"type":"Feature","geometry":{"type":"Polygon","coordinates":[[[23.660417,60.08125],[23.664583,60.08125],[23.664583,60.085417],[23.660417,60.085417],[23.660417,60.08125]]]},"properties":{"radiance":7.91}},{"type":"Feature","geometry":{"type":"Polygon","coordinates":[[[23.664583,60.08125],[23.66875,60.08125],[23.66875,60.085417],[23.664583,60.085417],[23.664583,60.08125]]]},"properties":{"radiance":7.27}},{"type":"Feature","geometry":{"type":"Polygon","coordinates":[[[23.66875,60.08125],[23.672917,60.08125],[23.672917,60.085417],[23.66875,60.085417],[23.66875,60.08125]]]},"properties":{"radiance":7.16}},{"type":"Feature","geometry":{"type":"Polygon","coordinates":[[[23.672917,60.08125],[23.677083,60.08125],[23.677083,60.085417],[23.672917,60.085417],[23.672917,60.08125]]]},"properties":{"radiance":6.36}},{"type":"Feature","geometry":{"type":"Polygon","coordinates":[[[23.677083,60.08125],[23.68125,60.08125],[23.68125,60.085417],[23.677083,60.085417],[23.677083,60.08125]]]},"properties":{"radiance":5.05}},{"type":"Feature","geometry":{"type":"Polygon","coordinates":[[[23.689583,60.08125],[23.69375,60.08125],[23.69375,60.085417],[23.689583,60.085417],[23.689583,60.08125]]]},"properties":{"radiance":5.58}},{"type":"Feature","geometry":{"type":"Polygon","coordinates":[[[23.69375,60.08125],[23.697917,60.08125],[23.697917,60.085417],[23.69375,60.085417],[23.69375,60.08125]]]},"properties":{"radiance":5.27}},{"type":"Feature","geometry":{"type":"Polygon","coordinates":[[[23.697917,60.08125],[23.702083,60.08125],[23.702083,60.085417],[23.697917,60.085417],[23.697917,60.08125]]]},"properties":{"radiance":5.42}},{"type":"Feature","geometry":{"type":"Polygon","coordinates":[[[23.702083,60.08125],[23.70625,60.08125],[23.70625,60.085417],[23.702083,60.085417],[23.702083,60.08125]]]},"properties":{"radiance":5.88}},{"type":"Feature","geometry":{"type":"Polygon","coordinates":[[[23.635417,60.077083],[23.639583,60.077083],[23.639583,60.08125],[23.635417,60.08125],[23.635417,60.077083]]]},"properties":{"radiance":6.06}},{"type":"Feature","geometry":{"type":"Polygon","coordinates":[[[23.639583,60.077083],[23.64375,60.077083],[23.64375,60.08125],[23.639583,60.08125],[23.639583,60.077083]]]},"properties":{"radiance":6.14}},{"type":"Feature","geometry":{"type":"Polygon","coordinates":[[[23.64375,60.077083],[23.647917,60.077083],[23.647917,60.08125],[23.64375,60.08125],[23.64375,60.077083]]]},"properties":{"radiance":8}},{"type":"Feature","geometry":{"type":"Polygon","coordinates":[[[23.647917,60.077083],[23.652083,60.077083],[23.652083,60.08125],[23.647917,60.08125],[23.647917,60.077083]]]},"properties":{"radiance":11.6}},{"type":"Feature","geometry":{"type":"Polygon","coordinates":[[[23.652083,60.077083],[23.65625,60.077083],[23.65625,60.08125],[23.652083,60.08125],[23.652083,60.077083]]]},"properties":{"radiance":16.02}},{"type":"Feature","geometry":{"type":"Polygon","coordinates":[[[23.65625,60.077083],[23.660417,60.077083],[23.660417,60.08125],[23.65625,60.08125],[23.65625,60.077083]]]},"properties":{"radiance":13.16}},{"type":"Feature","geometry":{"type":"Polygon","coordinates":[[[23.660417,60.077083],[23.664583,60.077083],[23.664583,60.08125],[23.660417,60.08125],[23.660417,60.077083]]]},"properties":{"radiance":11.01}},{"type":"Feature","geometry":{"type":"Polygon","coordinates":[[[23.664583,60.077083],[23.66875,60.077083],[23.66875,60.08125],[23.664583,60.08125],[23.664583,60.077083]]]},"properties":{"radiance":33.32}},{"type":"Feature","geometry":{"type":"Polygon","coordinates":[[[23.66875,60.077083],[23.672917,60.077083],[23.672917,60.08125],[23.66875,60.08125],[23.66875,60.077083]]]},"properties":{"radiance":32.19}},{"type":"Feature","geometry":{"type":"Polygon","coordinates":[[[23.672917,60.077083],[23.677083,60.077083],[23.677083,60.08125],[23.672917,60.08125],[23.672917,60.077083]]]},"properties":{"radiance":10.52}},{"type":"Feature","geometry":{"type":"Polygon","coordinates":[[[23.677083,60.077083],[23.68125,60.077083],[23.68125,60.08125],[23.677083,60.08125],[23.677083,60.077083]]]},"properties":{"radiance":11.22}},{"type":"Feature","geometry":{"type":"Polygon","coordinates":[[[23.68125,60.077083],[23.685417,60.077083],[23.685417,60.08125],[23.68125,60.08125],[23.68125,60.077083]]]},"properties":{"radiance":10.47}},{"type":"Feature","geometry":{"type":"Polygon","coordinates":[[[23.685417,60.077083],[23.689583,60.077083],[23.689583,60.08125],[23.685417,60.08125],[23.685417,60.077083]]]},"properties":{"radiance":10.48}},{"type":"Feature","geometry":{"type":"Polygon","coordinates":[[[23.689583,60.077083],[23.69375,60.077083],[23.69375,60.08125],[23.689583,60.08125],[23.689583,60.077083]]]},"properties":{"radiance":9.31}},{"type":"Feature","geometry":{"type":"Polygon","coordinates":[[[23.69375,60.077083],[23.697917,60.077083],[23.697917,60.08125],[23.69375,60.08125],[23.69375,60.077083]]]},"properties":{"radiance":9.18}},{"type":"Feature","geometry":{"type":"Polygon","coordinates":[[[23.697917,60.077083],[23.702083,60.077083],[23.702083,60.08125],[23.697917,60.08125],[23.697917,60.077083]]]},"properties":{"radiance":8.11}},{"type":"Feature","geometry":{"type":"Polygon","coordinates":[[[23.702083,60.077083],[23.70625,60.077083],[23.70625,60.08125],[23.702083,60.08125],[23.702083,60.077083]]]},"properties":{"radiance":6.88}},{"type":"Feature","geometry":{"type":"Polygon","coordinates":[[[23.639583,60.072917],[23.64375,60.072917],[23.64375,60.077083],[23.639583,60.077083],[23.639583,60.072917]]]},"properties":{"radiance":5.7}},{"type":"Feature","geometry":{"type":"Polygon","coordinates":[[[23.64375,60.072917],[23.647917,60.072917],[23.647917,60.077083],[23.64375,60.077083],[23.64375,60.072917]]]},"properties":{"radiance":9.32}},{"type":"Feature","geometry":{"type":"Polygon","coordinates":[[[23.647917,60.072917],[23.652083,60.072917],[23.652083,60.077083],[23.647917,60.077083],[23.647917,60.072917]]]},"properties":{"radiance":29.35}},{"type":"Feature","geometry":{"type":"Polygon","coordinates":[[[23.652083,60.072917],[23.65625,60.072917],[23.65625,60.077083],[23.652083,60.077083],[23.652083,60.072917]]]},"properties":{"radiance":20.36}},{"type":"Feature","geometry":{"type":"Polygon","coordinates":[[[23.65625,60.072917],[23.660417,60.072917],[23.660417,60.077083],[23.65625,60.077083],[23.65625,60.072917]]]},"properties":{"radiance":23}},{"type":"Feature","geometry":{"type":"Polygon","coordinates":[[[23.660417,60.072917],[23.664583,60.072917],[23.664583,60.077083],[23.660417,60.077083],[23.660417,60.072917]]]},"properties":{"radiance":22.99}},{"type":"Feature","geometry":{"type":"Polygon","coordinates":[[[23.664583,60.072917],[23.66875,60.072917],[23.66875,60.077083],[23.664583,60.077083],[23.664583,60.072917]]]},"properties":{"radiance":39.31}},{"type":"Feature","geometry":{"type":"Polygon","coordinates":[[[23.66875,60.072917],[23.672917,60.072917],[23.672917,60.077083],[23.66875,60.077083],[23.66875,60.072917]]]},"properties":{"radiance":38.33}},{"type":"Feature","geometry":{"type":"Polygon","coordinates":[[[23.672917,60.072917],[23.677083,60.072917],[23.677083,60.077083],[23.672917,60.077083],[23.672917,60.072917]]]},"properties":{"radiance":33.07}},{"type":"Feature","geometry":{"type":"Polygon","coordinates":[[[23.677083,60.072917],[23.68125,60.072917],[23.68125,60.077083],[23.677083,60.077083],[23.677083,60.072917]]]},"properties":{"radiance":13.68}},{"type":"Feature","geometry":{"type":"Polygon","coordinates":[[[23.68125,60.072917],[23.685417,60.072917],[23.685417,60.077083],[23.68125,60.077083],[23.68125,60.072917]]]},"properties":{"radiance":12.76}},{"type":"Feature","geometry":{"type":"Polygon","coordinates":[[[23.685417,60.072917],[23.689583,60.072917],[23.689583,60.077083],[23.685417,60.077083],[23.685417,60.072917]]]},"properties":{"radiance":11.42}},{"type":"Feature","geometry":{"type":"Polygon","coordinates":[[[23.689583,60.072917],[23.69375,60.072917],[23.69375,60.077083],[23.689583,60.077083],[23.689583,60.072917]]]},"properties":{"radiance":11.01}},{"type":"Feature","geometry":{"type":"Polygon","coordinates":[[[23.69375,60.072917],[23.697917,60.072917],[23.697917,60.077083],[23.69375,60.077083],[23.69375,60.072917]]]},"properties":{"radiance":10.94}},{"type":"Feature","geometry":{"type":"Polygon","coordinates":[[[23.697917,60.072917],[23.702083,60.072917],[23.702083,60.077083],[23.697917,60.077083],[23.697917,60.072917]]]},"properties":{"radiance":10.1}},{"type":"Feature","geometry":{"type":"Polygon","coordinates":[[[23.702083,60.072917],[23.70625,60.072917],[23.70625,60.077083],[23.702083,60.077083],[23.702083,60.072917]]]},"properties":{"radiance":8.38}},{"type":"Feature","geometry":{"type":"Polygon","coordinates":[[[23.70625,60.072917],[23.710417,60.072917],[23.710417,60.077083],[23.70625,60.077083],[23.70625,60.072917]]]},"properties":{"radiance":6.49}},{"type":"Feature","geometry":{"type":"Polygon","coordinates":[[[23.639583,60.06875],[23.64375,60.06875],[23.64375,60.072917],[23.639583,60.072917],[23.639583,60.06875]]]},"properties":{"radiance":5.96}},{"type":"Feature","geometry":{"type":"Polygon","coordinates":[[[23.64375,60.06875],[23.647917,60.06875],[23.647917,60.072917],[23.64375,60.072917],[23.64375,60.06875]]]},"properties":{"radiance":9.66}},{"type":"Feature","geometry":{"type":"Polygon","coordinates":[[[23.647917,60.06875],[23.652083,60.06875],[23.652083,60.072917],[23.647917,60.072917],[23.647917,60.06875]]]},"properties":{"radiance":32.32}},{"type":"Feature","geometry":{"type":"Polygon","coordinates":[[[23.652083,60.06875],[23.65625,60.06875],[23.65625,60.072917],[23.652083,60.072917],[23.652083,60.06875]]]},"properties":{"radiance":33.61}},{"type":"Feature","geometry":{"type":"Polygon","coordinates":[[[23.65625,60.06875],[23.660417,60.06875],[23.660417,60.072917],[23.65625,60.072917],[23.65625,60.06875]]]},"properties":{"radiance":46.48}},{"type":"Feature","geometry":{"type":"Polygon","coordinates":[[[23.660417,60.06875],[23.664583,60.06875],[23.664583,60.072917],[23.660417,60.072917],[23.660417,60.06875]]]},"properties":{"radiance":22.04}},{"type":"Feature","geometry":{"type":"Polygon","coordinates":[[[23.664583,60.06875],[23.66875,60.06875],[23.66875,60.072917],[23.664583,60.072917],[23.664583,60.06875]]]},"properties":{"radiance":19.92}},{"type":"Feature","geometry":{"type":"Polygon","coordinates":[[[23.66875,60.06875],[23.672917,60.06875],[23.672917,60.072917],[23.66875,60.072917],[23.66875,60.06875]]]},"properties":{"radiance":15.51}},{"type":"Feature","geometry":{"type":"Polygon","coordinates":[[[23.672917,60.06875],[23.677083,60.06875],[23.677083,60.072917],[23.672917,60.072917],[23.672917,60.06875]]]},"properties":{"radiance":12.04}},{"type":"Feature","geometry":{"type":"Polygon","coordinates":[[[23.677083,60.06875],[23.68125,60.06875],[23.68125,60.072917],[23.677083,60.072917],[23.677083,60.06875]]]},"properties":{"radiance":11.11}},{"type":"Feature","geometry":{"type":"Polygon","coordinates":[[[23.68125,60.06875],[23.685417,60.06875],[23.685417,60.072917],[23.68125,60.072917],[23.68125,60.06875]]]},"properties":{"radiance":10.34}},{"type":"Feature","geometry":{"type":"Polygon","coordinates":[[[23.685417,60.06875],[23.689583,60.06875],[23.689583,60.072917],[23.685417,60.072917],[23.685417,60.06875]]]},"properties":{"radiance":8.4}},{"type":"Feature","geometry":{"type":"Polygon","coordinates":[[[23.689583,60.06875],[23.69375,60.06875],[23.69375,60.072917],[23.689583,60.072917],[23.689583,60.06875]]]},"properties":{"radiance":8.19}},{"type":"Feature","geometry":{"type":"Polygon","coordinates":[[[23.69375,60.06875],[23.697917,60.06875],[23.697917,60.072917],[23.69375,60.072917],[23.69375,60.06875]]]},"properties":{"radiance":6.05}},{"type":"Feature","geometry":{"type":"Polygon","coordinates":[[[23.63125,60.064583],[23.635417,60.064583],[23.635417,60.06875],[23.63125,60.06875],[23.63125,60.064583]]]},"properties":{"radiance":5.51}},{"type":"Feature","geometry":{"type":"Polygon","coordinates":[[[23.635417,60.064583],[23.639583,60.064583],[23.639583,60.06875],[23.635417,60.06875],[23.635417,60.064583]]]},"properties":{"radiance":7.27}},{"type":"Feature","geometry":{"type":"Polygon","coordinates":[[[23.639583,60.064583],[23.64375,60.064583],[23.64375,60.06875],[23.639583,60.06875],[23.639583,60.064583]]]},"properties":{"radiance":6.79}},{"type":"Feature","geometry":{"type":"Polygon","coordinates":[[[23.64375,60.064583],[23.647917,60.064583],[23.647917,60.06875],[23.64375,60.06875],[23.64375,60.064583]]]},"properties":{"radiance":8.92}},{"type":"Feature","geometry":{"type":"Polygon","coordinates":[[[23.647917,60.064583],[23.652083,60.064583],[23.652083,60.06875],[23.647917,60.06875],[23.647917,60.064583]]]},"properties":{"radiance":15.83}},{"type":"Feature","geometry":{"type":"Polygon","coordinates":[[[23.652083,60.064583],[23.65625,60.064583],[23.65625,60.06875],[23.652083,60.06875],[23.652083,60.064583]]]},"properties":{"radiance":15.73}},{"type":"Feature","geometry":{"type":"Polygon","coordinates":[[[23.65625,60.064583],[23.660417,60.064583],[23.660417,60.06875],[23.65625,60.06875],[23.65625,60.064583]]]},"properties":{"radiance":21.19}},{"type":"Feature","geometry":{"type":"Polygon","coordinates":[[[23.660417,60.064583],[23.664583,60.064583],[23.664583,60.06875],[23.660417,60.06875],[23.660417,60.064583]]]},"properties":{"radiance":11.1}},{"type":"Feature","geometry":{"type":"Polygon","coordinates":[[[23.664583,60.064583],[23.66875,60.064583],[23.66875,60.06875],[23.664583,60.06875],[23.664583,60.064583]]]},"properties":{"radiance":9.5}},{"type":"Feature","geometry":{"type":"Polygon","coordinates":[[[23.66875,60.064583],[23.672917,60.064583],[23.672917,60.06875],[23.66875,60.06875],[23.66875,60.064583]]]},"properties":{"radiance":6.05}},{"type":"Feature","geometry":{"type":"Polygon","coordinates":[[[23.29375,60.060417],[23.297917,60.060417],[23.297917,60.064583],[23.29375,60.064583],[23.29375,60.060417]]]},"properties":{"radiance":5.83}},{"type":"Feature","geometry":{"type":"Polygon","coordinates":[[[23.622917,60.060417],[23.627083,60.060417],[23.627083,60.064583],[23.622917,60.064583],[23.622917,60.060417]]]},"properties":{"radiance":5.58}},{"type":"Feature","geometry":{"type":"Polygon","coordinates":[[[23.627083,60.060417],[23.63125,60.060417],[23.63125,60.064583],[23.627083,60.064583],[23.627083,60.060417]]]},"properties":{"radiance":10.46}},{"type":"Feature","geometry":{"type":"Polygon","coordinates":[[[23.63125,60.060417],[23.635417,60.060417],[23.635417,60.064583],[23.63125,60.064583],[23.63125,60.060417]]]},"properties":{"radiance":10.7}},{"type":"Feature","geometry":{"type":"Polygon","coordinates":[[[23.635417,60.060417],[23.639583,60.060417],[23.639583,60.064583],[23.635417,60.064583],[23.635417,60.060417]]]},"properties":{"radiance":11.9}},{"type":"Feature","geometry":{"type":"Polygon","coordinates":[[[23.639583,60.060417],[23.64375,60.060417],[23.64375,60.064583],[23.639583,60.064583],[23.639583,60.060417]]]},"properties":{"radiance":10.91}},{"type":"Feature","geometry":{"type":"Polygon","coordinates":[[[23.64375,60.060417],[23.647917,60.060417],[23.647917,60.064583],[23.64375,60.064583],[23.64375,60.060417]]]},"properties":{"radiance":11.4}},{"type":"Feature","geometry":{"type":"Polygon","coordinates":[[[23.647917,60.060417],[23.652083,60.060417],[23.652083,60.064583],[23.647917,60.064583],[23.647917,60.060417]]]},"properties":{"radiance":10.15}},{"type":"Feature","geometry":{"type":"Polygon","coordinates":[[[23.652083,60.060417],[23.65625,60.060417],[23.65625,60.064583],[23.652083,60.064583],[23.652083,60.060417]]]},"properties":{"radiance":10.77}},{"type":"Feature","geometry":{"type":"Polygon","coordinates":[[[23.65625,60.060417],[23.660417,60.060417],[23.660417,60.064583],[23.65625,60.064583],[23.65625,60.060417]]]},"properties":{"radiance":9.35}},{"type":"Feature","geometry":{"type":"Polygon","coordinates":[[[23.660417,60.060417],[23.664583,60.060417],[23.664583,60.064583],[23.660417,60.064583],[23.660417,60.060417]]]},"properties":{"radiance":7.35}},{"type":"Feature","geometry":{"type":"Polygon","coordinates":[[[23.664583,60.060417],[23.66875,60.060417],[23.66875,60.064583],[23.664583,60.064583],[23.664583,60.060417]]]},"properties":{"radiance":5.58}},{"type":"Feature","geometry":{"type":"Polygon","coordinates":[[[23.29375,60.05625],[23.297917,60.05625],[23.297917,60.060417],[23.29375,60.060417],[23.29375,60.05625]]]},"properties":{"radiance":5.11}},{"type":"Feature","geometry":{"type":"Polygon","coordinates":[[[23.622917,60.05625],[23.627083,60.05625],[23.627083,60.060417],[23.622917,60.060417],[23.622917,60.05625]]]},"properties":{"radiance":7.7}},{"type":"Feature","geometry":{"type":"Polygon","coordinates":[[[23.627083,60.05625],[23.63125,60.05625],[23.63125,60.060417],[23.627083,60.060417],[23.627083,60.05625]]]},"properties":{"radiance":9.54}},{"type":"Feature","geometry":{"type":"Polygon","coordinates":[[[23.63125,60.05625],[23.635417,60.05625],[23.635417,60.060417],[23.63125,60.060417],[23.63125,60.05625]]]},"properties":{"radiance":13.69}},{"type":"Feature","geometry":{"type":"Polygon","coordinates":[[[23.635417,60.05625],[23.639583,60.05625],[23.639583,60.060417],[23.635417,60.060417],[23.635417,60.05625]]]},"properties":{"radiance":15.27}},{"type":"Feature","geometry":{"type":"Polygon","coordinates":[[[23.639583,60.05625],[23.64375,60.05625],[23.64375,60.060417],[23.639583,60.060417],[23.639583,60.05625]]]},"properties":{"radiance":16.13}},{"type":"Feature","geometry":{"type":"Polygon","coordinates":[[[23.64375,60.05625],[23.647917,60.05625],[23.647917,60.060417],[23.64375,60.060417],[23.64375,60.05625]]]},"properties":{"radiance":16.1}},{"type":"Feature","geometry":{"type":"Polygon","coordinates":[[[23.647917,60.05625],[23.652083,60.05625],[23.652083,60.060417],[23.647917,60.060417],[23.647917,60.05625]]]},"properties":{"radiance":11.49}},{"type":"Feature","geometry":{"type":"Polygon","coordinates":[[[23.652083,60.05625],[23.65625,60.05625],[23.65625,60.060417],[23.652083,60.060417],[23.652083,60.05625]]]},"properties":{"radiance":7.23}},{"type":"Feature","geometry":{"type":"Polygon","coordinates":[[[23.65625,60.05625],[23.660417,60.05625],[23.660417,60.060417],[23.65625,60.060417],[23.65625,60.05625]]]},"properties":{"radiance":7.16}},{"type":"Feature","geometry":{"type":"Polygon","coordinates":[[[23.660417,60.05625],[23.664583,60.05625],[23.664583,60.060417],[23.660417,60.060417],[23.660417,60.05625]]]},"properties":{"radiance":5.59}},{"type":"Feature","geometry":{"type":"Polygon","coordinates":[[[23.98125,60.05625],[23.985417,60.05625],[23.985417,60.060417],[23.98125,60.060417],[23.98125,60.05625]]]},"properties":{"radiance":5.16}},{"type":"Feature","geometry":{"type":"Polygon","coordinates":[[[23.63125,60.052083],[23.635417,60.052083],[23.635417,60.05625],[23.63125,60.05625],[23.63125,60.052083]]]},"properties":{"radiance":5.64}},{"type":"Feature","geometry":{"type":"Polygon","coordinates":[[[23.635417,60.052083],[23.639583,60.052083],[23.639583,60.05625],[23.635417,60.05625],[23.635417,60.052083]]]},"properties":{"radiance":8.58}},{"type":"Feature","geometry":{"type":"Polygon","coordinates":[[[23.639583,60.052083],[23.64375,60.052083],[23.64375,60.05625],[23.639583,60.05625],[23.639583,60.052083]]]},"properties":{"radiance":10.99}},{"type":"Feature","geometry":{"type":"Polygon","coordinates":[[[23.64375,60.052083],[23.647917,60.052083],[23.647917,60.05625],[23.64375,60.05625],[23.64375,60.052083]]]},"properties":{"radiance":12.01}},{"type":"Feature","geometry":{"type":"Polygon","coordinates":[[[23.647917,60.052083],[23.652083,60.052083],[23.652083,60.05625],[23.647917,60.05625],[23.647917,60.052083]]]},"properties":{"radiance":10.55}},{"type":"Feature","geometry":{"type":"Polygon","coordinates":[[[23.652083,60.052083],[23.65625,60.052083],[23.65625,60.05625],[23.652083,60.05625],[23.652083,60.052083]]]},"properties":{"radiance":5.03}},{"type":"Feature","geometry":{"type":"Polygon","coordinates":[[[23.977083,60.052083],[23.98125,60.052083],[23.98125,60.05625],[23.977083,60.05625],[23.977083,60.052083]]]},"properties":{"radiance":5.83}},{"type":"Feature","geometry":{"type":"Polygon","coordinates":[[[23.98125,60.052083],[23.985417,60.052083],[23.985417,60.05625],[23.98125,60.05625],[23.98125,60.052083]]]},"properties":{"radiance":6.68}},{"type":"Feature","geometry":{"type":"Polygon","coordinates":[[[23.989583,60.052083],[23.99375,60.052083],[23.99375,60.05625],[23.989583,60.05625],[23.989583,60.052083]]]},"properties":{"radiance":5.13}},{"type":"Feature","geometry":{"type":"Polygon","coordinates":[[[23.99375,60.052083],[23.997917,60.052083],[23.997917,60.05625],[23.99375,60.05625],[23.99375,60.052083]]]},"properties":{"radiance":6.47}},{"type":"Feature","geometry":{"type":"Polygon","coordinates":[[[23.997917,60.052083],[24.002083,60.052083],[24.002083,60.05625],[23.997917,60.05625],[23.997917,60.052083]]]},"properties":{"radiance":8.39}},{"type":"Feature","geometry":{"type":"Polygon","coordinates":[[[24.002083,60.052083],[24.00625,60.052083],[24.00625,60.05625],[24.002083,60.05625],[24.002083,60.052083]]]},"properties":{"radiance":8.79}},{"type":"Feature","geometry":{"type":"Polygon","coordinates":[[[24.00625,60.052083],[24.010417,60.052083],[24.010417,60.05625],[24.00625,60.05625],[24.00625,60.052083]]]},"properties":{"radiance":7.67}},{"type":"Feature","geometry":{"type":"Polygon","coordinates":[[[24.010417,60.052083],[24.014583,60.052083],[24.014583,60.05625],[24.010417,60.05625],[24.010417,60.052083]]]},"properties":{"radiance":6.89}},{"type":"Feature","geometry":{"type":"Polygon","coordinates":[[[24.014583,60.052083],[24.01875,60.052083],[24.01875,60.05625],[24.014583,60.05625],[24.014583,60.052083]]]},"properties":{"radiance":6.44}},{"type":"Feature","geometry":{"type":"Polygon","coordinates":[[[24.01875,60.052083],[24.022917,60.052083],[24.022917,60.05625],[24.01875,60.05625],[24.01875,60.052083]]]},"properties":{"radiance":6.03}},{"type":"Feature","geometry":{"type":"Polygon","coordinates":[[[23.99375,60.047917],[23.997917,60.047917],[23.997917,60.052083],[23.99375,60.052083],[23.99375,60.047917]]]},"properties":{"radiance":6.64}},{"type":"Feature","geometry":{"type":"Polygon","coordinates":[[[23.997917,60.047917],[24.002083,60.047917],[24.002083,60.052083],[23.997917,60.052083],[23.997917,60.047917]]]},"properties":{"radiance":9.53}},{"type":"Feature","geometry":{"type":"Polygon","coordinates":[[[24.002083,60.047917],[24.00625,60.047917],[24.00625,60.052083],[24.002083,60.052083],[24.002083,60.047917]]]},"properties":{"radiance":10.51}},{"type":"Feature","geometry":{"type":"Polygon","coordinates":[[[24.00625,60.047917],[24.010417,60.047917],[24.010417,60.052083],[24.00625,60.052083],[24.00625,60.047917]]]},"properties":{"radiance":8.87}},{"type":"Feature","geometry":{"type":"Polygon","coordinates":[[[24.010417,60.047917],[24.014583,60.047917],[24.014583,60.052083],[24.010417,60.052083],[24.010417,60.047917]]]},"properties":{"radiance":6.48}},{"type":"Feature","geometry":{"type":"Polygon","coordinates":[[[24.014583,60.047917],[24.01875,60.047917],[24.01875,60.052083],[24.014583,60.052083],[24.014583,60.047917]]]},"properties":{"radiance":5.97}},{"type":"Feature","geometry":{"type":"Polygon","coordinates":[[[23.989583,60.04375],[23.99375,60.04375],[23.99375,60.047917],[23.989583,60.047917],[23.989583,60.04375]]]},"properties":{"radiance":5.17}},{"type":"Feature","geometry":{"type":"Polygon","coordinates":[[[23.99375,60.04375],[23.997917,60.04375],[23.997917,60.047917],[23.99375,60.047917],[23.99375,60.04375]]]},"properties":{"radiance":10.45}},{"type":"Feature","geometry":{"type":"Polygon","coordinates":[[[23.997917,60.04375],[24.002083,60.04375],[24.002083,60.047917],[23.997917,60.047917],[23.997917,60.04375]]]},"properties":{"radiance":13.38}},{"type":"Feature","geometry":{"type":"Polygon","coordinates":[[[24.002083,60.04375],[24.00625,60.04375],[24.00625,60.047917],[24.002083,60.047917],[24.002083,60.04375]]]},"properties":{"radiance":14.17}},{"type":"Feature","geometry":{"type":"Polygon","coordinates":[[[24.00625,60.04375],[24.010417,60.04375],[24.010417,60.047917],[24.00625,60.047917],[24.00625,60.04375]]]},"properties":{"radiance":8.78}},{"type":"Feature","geometry":{"type":"Polygon","coordinates":[[[24.010417,60.04375],[24.014583,60.04375],[24.014583,60.047917],[24.010417,60.047917],[24.010417,60.04375]]]},"properties":{"radiance":5.49}},{"type":"Feature","geometry":{"type":"Polygon","coordinates":[[[23.989583,60.039583],[23.99375,60.039583],[23.99375,60.04375],[23.989583,60.04375],[23.989583,60.039583]]]},"properties":{"radiance":5.51}},{"type":"Feature","geometry":{"type":"Polygon","coordinates":[[[23.99375,60.039583],[23.997917,60.039583],[23.997917,60.04375],[23.99375,60.04375],[23.99375,60.039583]]]},"properties":{"radiance":6.39}},{"type":"Feature","geometry":{"type":"Polygon","coordinates":[[[23.997917,60.039583],[24.002083,60.039583],[24.002083,60.04375],[23.997917,60.04375],[23.997917,60.039583]]]},"properties":{"radiance":5.89}},{"type":"Feature","geometry":{"type":"Polygon","coordinates":[[[24.002083,60.039583],[24.00625,60.039583],[24.00625,60.04375],[24.002083,60.04375],[24.002083,60.039583]]]},"properties":{"radiance":7.51}},{"type":"Feature","geometry":{"type":"Polygon","coordinates":[[[23.572917,60.027083],[23.577083,60.027083],[23.577083,60.03125],[23.572917,60.03125],[23.572917,60.027083]]]},"properties":{"radiance":6.64}},{"type":"Feature","geometry":{"type":"Polygon","coordinates":[[[23.577083,60.027083],[23.58125,60.027083],[23.58125,60.03125],[23.577083,60.03125],[23.577083,60.027083]]]},"properties":{"radiance":5.83}},{"type":"Feature","geometry":{"type":"Polygon","coordinates":[[[23.58125,60.027083],[23.585417,60.027083],[23.585417,60.03125],[23.58125,60.03125],[23.58125,60.027083]]]},"properties":{"radiance":5.41}},{"type":"Feature","geometry":{"type":"Polygon","coordinates":[[[23.58125,60.022917],[23.585417,60.022917],[23.585417,60.027083],[23.58125,60.027083],[23.58125,60.022917]]]},"properties":{"radiance":5.84}},{"type":"Feature","geometry":{"type":"Polygon","coordinates":[[[23.922917,60.022917],[23.927083,60.022917],[23.927083,60.027083],[23.922917,60.027083],[23.922917,60.022917]]]},"properties":{"radiance":9.91}},{"type":"Feature","geometry":{"type":"Polygon","coordinates":[[[23.927083,60.022917],[23.93125,60.022917],[23.93125,60.027083],[23.927083,60.027083],[23.927083,60.022917]]]},"properties":{"radiance":6.55}},{"type":"Feature","geometry":{"type":"Polygon","coordinates":[[[23.952083,60.022917],[23.95625,60.022917],[23.95625,60.027083],[23.952083,60.027083],[23.952083,60.022917]]]},"properties":{"radiance":5.3}},{"type":"Feature","geometry":{"type":"Polygon","coordinates":[[[23.95625,60.022917],[23.960417,60.022917],[23.960417,60.027083],[23.95625,60.027083],[23.95625,60.022917]]]},"properties":{"radiance":5.91}},{"type":"Feature","geometry":{"type":"Polygon","coordinates":[[[23.90625,60.01875],[23.910417,60.01875],[23.910417,60.022917],[23.90625,60.022917],[23.90625,60.01875]]]},"properties":{"radiance":13}},{"type":"Feature","geometry":{"type":"Polygon","coordinates":[[[23.910417,60.01875],[23.914583,60.01875],[23.914583,60.022917],[23.910417,60.022917],[23.910417,60.01875]]]},"properties":{"radiance":41.87}},{"type":"Feature","geometry":{"type":"Polygon","coordinates":[[[23.914583,60.01875],[23.91875,60.01875],[23.91875,60.022917],[23.914583,60.022917],[23.914583,60.01875]]]},"properties":{"radiance":22.56}},{"type":"Feature","geometry":{"type":"Polygon","coordinates":[[[23.91875,60.01875],[23.922917,60.01875],[23.922917,60.022917],[23.91875,60.022917],[23.91875,60.01875]]]},"properties":{"radiance":32.55}},{"type":"Feature","geometry":{"type":"Polygon","coordinates":[[[23.922917,60.01875],[23.927083,60.01875],[23.927083,60.022917],[23.922917,60.022917],[23.922917,60.01875]]]},"properties":{"radiance":30.71}},{"type":"Feature","geometry":{"type":"Polygon","coordinates":[[[23.927083,60.01875],[23.93125,60.01875],[23.93125,60.022917],[23.927083,60.022917],[23.927083,60.01875]]]},"properties":{"radiance":19.57}},{"type":"Feature","geometry":{"type":"Polygon","coordinates":[[[23.93125,60.01875],[23.935417,60.01875],[23.935417,60.022917],[23.93125,60.022917],[23.93125,60.01875]]]},"properties":{"radiance":8.85}},{"type":"Feature","geometry":{"type":"Polygon","coordinates":[[[23.935417,60.01875],[23.939583,60.01875],[23.939583,60.022917],[23.935417,60.022917],[23.935417,60.01875]]]},"properties":{"radiance":6.11}},{"type":"Feature","geometry":{"type":"Polygon","coordinates":[[[23.90625,60.014583],[23.910417,60.014583],[23.910417,60.01875],[23.90625,60.01875],[23.90625,60.014583]]]},"properties":{"radiance":56.65}},{"type":"Feature","geometry":{"type":"Polygon","coordinates":[[[23.910417,60.014583],[23.914583,60.014583],[23.914583,60.01875],[23.910417,60.01875],[23.910417,60.014583]]]},"properties":{"radiance":44.29}},{"type":"Feature","geometry":{"type":"Polygon","coordinates":[[[23.914583,60.014583],[23.91875,60.014583],[23.91875,60.01875],[23.914583,60.01875],[23.914583,60.014583]]]},"properties":{"radiance":89.66}},{"type":"Feature","geometry":{"type":"Polygon","coordinates":[[[23.91875,60.014583],[23.922917,60.014583],[23.922917,60.01875],[23.91875,60.01875],[23.91875,60.014583]]]},"properties":{"radiance":50.31}},{"type":"Feature","geometry":{"type":"Polygon","coordinates":[[[23.922917,60.014583],[23.927083,60.014583],[23.927083,60.01875],[23.922917,60.01875],[23.922917,60.014583]]]},"properties":{"radiance":52.03}},{"type":"Feature","geometry":{"type":"Polygon","coordinates":[[[23.927083,60.014583],[23.93125,60.014583],[23.93125,60.01875],[23.927083,60.01875],[23.927083,60.014583]]]},"properties":{"radiance":23.51}},{"type":"Feature","geometry":{"type":"Polygon","coordinates":[[[23.93125,60.014583],[23.935417,60.014583],[23.935417,60.01875],[23.93125,60.01875],[23.93125,60.014583]]]},"properties":{"radiance":8.47}},{"type":"Feature","geometry":{"type":"Polygon","coordinates":[[[23.935417,60.014583],[23.939583,60.014583],[23.939583,60.01875],[23.935417,60.01875],[23.935417,60.014583]]]},"properties":{"radiance":6.98}},{"type":"Feature","geometry":{"type":"Polygon","coordinates":[[[23.539583,60.010417],[23.54375,60.010417],[23.54375,60.014583],[23.539583,60.014583],[23.539583,60.010417]]]},"properties":{"radiance":5.96}},{"type":"Feature","geometry":{"type":"Polygon","coordinates":[[[23.910417,60.010417],[23.914583,60.010417],[23.914583,60.014583],[23.910417,60.014583],[23.910417,60.010417]]]},"properties":{"radiance":10.34}},{"type":"Feature","geometry":{"type":"Polygon","coordinates":[[[23.914583,60.010417],[23.91875,60.010417],[23.91875,60.014583],[23.914583,60.014583],[23.914583,60.010417]]]},"properties":{"radiance":10.03}},{"type":"Feature","geometry":{"type":"Polygon","coordinates":[[[23.93125,60.010417],[23.935417,60.010417],[23.935417,60.014583],[23.93125,60.014583],[23.93125,60.010417]]]},"properties":{"radiance":5.2}},{"type":"Feature","geometry":{"type":"Polygon","coordinates":[[[23.522917,60.00625],[23.527083,60.00625],[23.527083,60.010417],[23.522917,60.010417],[23.522917,60.00625]]]},"properties":{"radiance":5.63}},{"type":"Feature","geometry":{"type":"Polygon","coordinates":[[[23.527083,60.00625],[23.53125,60.00625],[23.53125,60.010417],[23.527083,60.010417],[23.527083,60.00625]]]},"properties":{"radiance":9.09}},{"type":"Feature","geometry":{"type":"Polygon","coordinates":[[[23.53125,60.00625],[23.535417,60.00625],[23.535417,60.010417],[23.53125,60.010417],[23.53125,60.00625]]]},"properties":{"radiance":11.45}},{"type":"Feature","geometry":{"type":"Polygon","coordinates":[[[23.535417,60.00625],[23.539583,60.00625],[23.539583,60.010417],[23.535417,60.010417],[23.535417,60.00625]]]},"properties":{"radiance":12.25}},{"type":"Feature","geometry":{"type":"Polygon","coordinates":[[[23.539583,60.00625],[23.54375,60.00625],[23.54375,60.010417],[23.539583,60.010417],[23.539583,60.00625]]]},"properties":{"radiance":7.36}},{"type":"Feature","geometry":{"type":"Polygon","coordinates":[[[23.402083,60.002083],[23.40625,60.002083],[23.40625,60.00625],[23.402083,60.00625],[23.402083,60.002083]]]},"properties":{"radiance":6.02}},{"type":"Feature","geometry":{"type":"Polygon","coordinates":[[[23.40625,60.002083],[23.410417,60.002083],[23.410417,60.00625],[23.40625,60.00625],[23.40625,60.002083]]]},"properties":{"radiance":5.48}},{"type":"Feature","geometry":{"type":"Polygon","coordinates":[[[23.410417,60.002083],[23.414583,60.002083],[23.414583,60.00625],[23.410417,60.00625],[23.410417,60.002083]]]},"properties":{"radiance":5.04}},{"type":"Feature","geometry":{"type":"Polygon","coordinates":[[[23.514583,60.002083],[23.51875,60.002083],[23.51875,60.00625],[23.514583,60.00625],[23.514583,60.002083]]]},"properties":{"radiance":6.96}},{"type":"Feature","geometry":{"type":"Polygon","coordinates":[[[23.51875,60.002083],[23.522917,60.002083],[23.522917,60.00625],[23.51875,60.00625],[23.51875,60.002083]]]},"properties":{"radiance":5.55}},{"type":"Feature","geometry":{"type":"Polygon","coordinates":[[[23.522917,60.002083],[23.527083,60.002083],[23.527083,60.00625],[23.522917,60.00625],[23.522917,60.002083]]]},"properties":{"radiance":6.16}},{"type":"Feature","geometry":{"type":"Polygon","coordinates":[[[23.527083,60.002083],[23.53125,60.002083],[23.53125,60.00625],[23.527083,60.00625],[23.527083,60.002083]]]},"properties":{"radiance":9.19}},{"type":"Feature","geometry":{"type":"Polygon","coordinates":[[[23.53125,60.002083],[23.535417,60.002083],[23.535417,60.00625],[23.53125,60.00625],[23.53125,60.002083]]]},"properties":{"radiance":13.52}},{"type":"Feature","geometry":{"type":"Polygon","coordinates":[[[23.535417,60.002083],[23.539583,60.002083],[23.539583,60.00625],[23.535417,60.00625],[23.535417,60.002083]]]},"properties":{"radiance":15.39}},{"type":"Feature","geometry":{"type":"Polygon","coordinates":[[[23.539583,60.002083],[23.54375,60.002083],[23.54375,60.00625],[23.539583,60.00625],[23.539583,60.002083]]]},"properties":{"radiance":14}},{"type":"Feature","geometry":{"type":"Polygon","coordinates":[[[23.54375,60.002083],[23.547917,60.002083],[23.547917,60.00625],[23.54375,60.00625],[23.54375,60.002083]]]},"properties":{"radiance":7.34}}]}