{"type":"FeatureCollection","features":[{"type":"Feature","geometry":{"type":"Polygon","coordinates":[[[25.339583,64.127083],[25.34375,64.127083],[25.34375,64.13125],[25.339583,64.13125],[25.339583,64.127083]]]},"properties":{"radiance":9.23}},{"type":"Feature","geometry":{"type":"Polygon","coordinates":[[[25.34375,64.127083],[25.347917,64.127083],[25.347917,64.13125],[25.34375,64.13125],[25.34375,64.127083]]]},"properties":{"radiance":7.66}},{"type":"Feature","geometry":{"type":"Polygon","coordinates":[[[25.347917,64.127083],[25.352083,64.127083],[25.352083,64.13125],[25.347917,64.13125],[25.347917,64.127083]]]},"properties":{"radiance":7.35}},{"type":"Feature","geometry":{"type":"Polygon","coordinates":[[[25.352083,64.127083],[25.35625,64.127083],[25.35625,64.13125],[25.352083,64.13125],[25.352083,64.127083]]]},"properties":{"radiance":5.25}},{"type":"Feature","geometry":{"type":"Polygon","coordinates":[[[26.277083,64.11875],[26.28125,64.11875],[26.28125,64.122917],[26.277083,64.122917],[26.277083,64.11875]]]},"properties":{"radiance":7.98}},{"type":"Feature","geometry":{"type":"Polygon","coordinates":[[[26.28125,64.11875],[26.285417,64.11875],[26.285417,64.122917],[26.28125,64.122917],[26.28125,64.11875]]]},"properties":{"radiance":7.22}},{"type":"Feature","geometry":{"type":"Polygon","coordinates":[[[26.285417,64.11875],[26.289583,64.11875],[26.289583,64.122917],[26.285417,64.122917],[26.285417,64.11875]]]},"properties":{"radiance":8.08}},{"type":"Feature","geometry":{"type":"Polygon","coordinates":[[[26.289583,64.11875],[26.29375,64.11875],[26.29375,64.122917],[26.289583,64.122917],[26.289583,64.11875]]]},"properties":{"radiance":7.34}},{"type":"Feature","geometry":{"type":"Polygon","coordinates":[[[26.29375,64.11875],[26.297917,64.11875],[26.297917,64.122917],[26.29375,64.122917],[26.29375,64.11875]]]},"properties":{"radiance":5.56}},{"type":"Feature","geometry":{"type":"Polygon","coordinates":[[[26.297917,64.11875],[26.302083,64.11875],[26.302083,64.122917],[26.297917,64.122917],[26.297917,64.11875]]]},"properties":{"radiance":5.8}},{"type":"Feature","geometry":{"type":"Polygon","coordinates":[[[26.28125,64.114583],[26.285417,64.114583],[26.285417,64.11875],[26.28125,64.11875],[26.28125,64.114583]]]},"properties":{"radiance":5.14}},{"type":"Feature","geometry":{"type":"Polygon","coordinates":[[[26.285417,64.114583],[26.289583,64.114583],[26.289583,64.11875],[26.285417,64.11875],[26.285417,64.114583]]]},"properties":{"radiance":5.23}},{"type":"Feature","geometry":{"type":"Polygon","coordinates":[[[26.289583,64.114583],[26.29375,64.114583],[26.29375,64.11875],[26.289583,64.11875],[26.289583,64.114583]]]},"properties":{"radiance":5.47}},{"type":"Feature","geometry":{"type":"Polygon","coordinates":[[[26.29375,64.114583],[26.297917,64.114583],[26.297917,64.11875],[26.29375,64.11875],[26.29375,64.114583]]]},"properties":{"radiance":5.77}},{"type":"Feature","geometry":{"type":"Polygon","coordinates":[[[26.297917,64.114583],[26.302083,64.114583],[26.302083,64.11875],[26.297917,64.11875],[26.297917,64.114583]]]},"properties":{"radiance":6.44}},{"type":"Feature","geometry":{"type":"Polygon","coordinates":[[[26.29375,64.110417],[26.297917,64.110417],[26.297917,64.114583],[26.29375,64.114583],[26.29375,64.110417]]]},"properties":{"radiance":8.02}},{"type":"Feature","geometry":{"type":"Polygon","coordinates":[[[26.297917,64.110417],[26.302083,64.110417],[26.302083,64.114583],[26.297917,64.114583],[26.297917,64.110417]]]},"properties":{"radiance":8.66}},{"type":"Feature","geometry":{"type":"Polygon","coordinates":[[[26.302083,64.110417],[26.30625,64.110417],[26.30625,64.114583],[26.302083,64.114583],[26.302083,64.110417]]]},"properties":{"radiance":9.3}},{"type":"Feature","geometry":{"type":"Polygon","coordinates":[[[26.30625,64.110417],[26.310417,64.110417],[26.310417,64.114583],[26.30625,64.114583],[26.30625,64.110417]]]},"properties":{"radiance":12.12}},{"type":"Feature","geometry":{"type":"Polygon","coordinates":[[[26.30625,64.10625],[26.310417,64.10625],[26.310417,64.110417],[26.30625,64.110417],[26.30625,64.10625]]]},"properties":{"radiance":8.46}},{"type":"Feature","geometry":{"type":"Polygon","coordinates":[[[25.75625,63.989583],[25.760417,63.989583],[25.760417,63.99375],[25.75625,63.99375],[25.75625,63.989583]]]},"properties":{"radiance":15.88}},{"type":"Feature","geometry":{"type":"Polygon","coordinates":[[[25.760417,63.989583],[25.764583,63.989583],[25.764583,63.99375],[25.760417,63.99375],[25.760417,63.989583]]]},"properties":{"radiance":14.62}},{"type":"Feature","geometry":{"type":"Polygon","coordinates":[[[25.764583,63.989583],[25.76875,63.989583],[25.76875,63.99375],[25.764583,63.99375],[25.764583,63.989583]]]},"properties":{"radiance":13.31}},{"type":"Feature","geometry":{"type":"Polygon","coordinates":[[[25.752083,63.985417],[25.75625,63.985417],[25.75625,63.989583],[25.752083,63.989583],[25.752083,63.985417]]]},"properties":{"radiance":29.51}},{"type":"Feature","geometry":{"type":"Polygon","coordinates":[[[25.75625,63.985417],[25.760417,63.985417],[25.760417,63.989583],[25.75625,63.989583],[25.75625,63.985417]]]},"properties":{"radiance":12.51}},{"type":"Feature","geometry":{"type":"Polygon","coordinates":[[[25.760417,63.985417],[25.764583,63.985417],[25.764583,63.989583],[25.760417,63.989583],[25.760417,63.985417]]]},"properties":{"radiance":12.72}},{"type":"Feature","geometry":{"type":"Polygon","coordinates":[[[25.764583,63.985417],[25.76875,63.985417],[25.76875,63.989583],[25.764583,63.989583],[25.764583,63.985417]]]},"properties":{"radiance":12.7}},{"type":"Feature","geometry":{"type":"Polygon","coordinates":[[[25.76875,63.985417],[25.772917,63.985417],[25.772917,63.989583],[25.76875,63.989583],[25.76875,63.985417]]]},"properties":{"radiance":9.01}},{"type":"Feature","geometry":{"type":"Polygon","coordinates":[[[25.772917,63.985417],[25.777083,63.985417],[25.777083,63.989583],[25.772917,63.989583],[25.772917,63.985417]]]},"properties":{"radiance":5.6}},{"type":"Feature","geometry":{"type":"Polygon","coordinates":[[[25.777083,63.985417],[25.78125,63.985417],[25.78125,63.989583],[25.777083,63.989583],[25.777083,63.985417]]]},"properties":{"radiance":6.58}},{"type":"Feature","geometry":{"type":"Polygon","coordinates":[[[25.747917,63.98125],[25.752083,63.98125],[25.752083,63.985417],[25.747917,63.985417],[25.747917,63.98125]]]},"properties":{"radiance":29.05}},{"type":"Feature","geometry":{"type":"Polygon","coordinates":[[[25.752083,63.98125],[25.75625,63.98125],[25.75625,63.985417],[25.752083,63.985417],[25.752083,63.98125]]]},"properties":{"radiance":17.07}},{"type":"Feature","geometry":{"type":"Polygon","coordinates":[[[25.75625,63.98125],[25.760417,63.98125],[25.760417,63.985417],[25.75625,63.985417],[25.75625,63.98125]]]},"properties":{"radiance":15.32}},{"type":"Feature","geometry":{"type":"Polygon","coordinates":[[[25.760417,63.98125],[25.764583,63.98125],[25.764583,63.985417],[25.760417,63.985417],[25.760417,63.98125]]]},"properties":{"radiance":15.53}},{"type":"Feature","geometry":{"type":"Polygon","coordinates":[[[25.764583,63.98125],[25.76875,63.98125],[25.76875,63.985417],[25.764583,63.985417],[25.764583,63.98125]]]},"properties":{"radiance":11.55}},{"type":"Feature","geometry":{"type":"Polygon","coordinates":[[[25.76875,63.98125],[25.772917,63.98125],[25.772917,63.985417],[25.76875,63.985417],[25.76875,63.98125]]]},"properties":{"radiance":7.43}},{"type":"Feature","geometry":{"type":"Polygon","coordinates":[[[25.772917,63.98125],[25.777083,63.98125],[25.777083,63.985417],[25.772917,63.985417],[25.772917,63.98125]]]},"properties":{"radiance":6.42}},{"type":"Feature","geometry":{"type":"Polygon","coordinates":[[[25.74375,63.977083],[25.747917,63.977083],[25.747917,63.98125],[25.74375,63.98125],[25.74375,63.977083]]]},"properties":{"radiance":5.8}},{"type":"Feature","geometry":{"type":"Polygon","coordinates":[[[25.747917,63.977083],[25.752083,63.977083],[25.752083,63.98125],[25.747917,63.98125],[25.747917,63.977083]]]},"properties":{"radiance":8.4}},{"type":"Feature","geometry":{"type":"Polygon","coordinates":[[[25.752083,63.977083],[25.75625,63.977083],[25.75625,63.98125],[25.752083,63.98125],[25.752083,63.977083]]]},"properties":{"radiance":15.51}},{"type":"Feature","geometry":{"type":"Polygon","coordinates":[[[25.75625,63.977083],[25.760417,63.977083],[25.760417,63.98125],[25.75625,63.98125],[25.75625,63.977083]]]},"properties":{"radiance":14.58}},{"type":"Feature","geometry":{"type":"Polygon","coordinates":[[[25.760417,63.977083],[25.764583,63.977083],[25.764583,63.98125],[25.760417,63.98125],[25.760417,63.977083]]]},"properties":{"radiance":14.34}},{"type":"Feature","geometry":{"type":"Polygon","coordinates":[[[25.764583,63.977083],[25.76875,63.977083],[25.76875,63.98125],[25.764583,63.98125],[25.764583,63.977083]]]},"properties":{"radiance":12.3}},{"type":"Feature","geometry":{"type":"Polygon","coordinates":[[[25.76875,63.977083],[25.772917,63.977083],[25.772917,63.98125],[25.76875,63.98125],[25.76875,63.977083]]]},"properties":{"radiance":11.52}},{"type":"Feature","geometry":{"type":"Polygon","coordinates":[[[25.772917,63.977083],[25.777083,63.977083],[25.777083,63.98125],[25.772917,63.98125],[25.772917,63.977083]]]},"properties":{"radiance":7.31}},{"type":"Feature","geometry":{"type":"Polygon","coordinates":[[[25.747917,63.972917],[25.752083,63.972917],[25.752083,63.977083],[25.747917,63.977083],[25.747917,63.972917]]]},"properties":{"radiance":12.57}},{"type":"Feature","geometry":{"type":"Polygon","coordinates":[[[25.752083,63.972917],[25.75625,63.972917],[25.75625,63.977083],[25.752083,63.977083],[25.752083,63.972917]]]},"properties":{"radiance":13.95}},{"type":"Feature","geometry":{"type":"Polygon","coordinates":[[[25.75625,63.972917],[25.760417,63.972917],[25.760417,63.977083],[25.75625,63.977083],[25.75625,63.972917]]]},"properties":{"radiance":9.77}},{"type":"Feature","geometry":{"type":"Polygon","coordinates":[[[25.760417,63.972917],[25.764583,63.972917],[25.764583,63.977083],[25.760417,63.977083],[25.760417,63.972917]]]},"properties":{"radiance":17.34}},{"type":"Feature","geometry":{"type":"Polygon","coordinates":[[[25.764583,63.972917],[25.76875,63.972917],[25.76875,63.977083],[25.764583,63.977083],[25.764583,63.972917]]]},"properties":{"radiance":9.37}},{"type":"Feature","geometry":{"type":"Polygon","coordinates":[[[24.947917,63.94375],[24.952083,63.94375],[24.952083,63.947917],[24.947917,63.947917],[24.947917,63.94375]]]},"properties":{"radiance":9.34}},{"type":"Feature","geometry":{"type":"Polygon","coordinates":[[[24.935417,63.939583],[24.939583,63.939583],[24.939583,63.94375],[24.935417,63.94375],[24.935417,63.939583]]]},"properties":{"radiance":7.51}},{"type":"Feature","geometry":{"type":"Polygon","coordinates":[[[24.939583,63.939583],[24.94375,63.939583],[24.94375,63.94375],[24.939583,63.94375],[24.939583,63.939583]]]},"properties":{"radiance":8.95}},{"type":"Feature","geometry":{"type":"Polygon","coordinates":[[[24.94375,63.939583],[24.947917,63.939583],[24.947917,63.94375],[24.94375,63.94375],[24.94375,63.939583]]]},"properties":{"radiance":10.1}},{"type":"Feature","geometry":{"type":"Polygon","coordinates":[[[24.947917,63.939583],[24.952083,63.939583],[24.952083,63.94375],[24.947917,63.94375],[24.947917,63.939583]]]},"properties":{"radiance":15.12}},{"type":"Feature","geometry":{"type":"Polygon","coordinates":[[[24.952083,63.939583],[24.95625,63.939583],[24.95625,63.94375],[24.952083,63.94375],[24.952083,63.939583]]]},"properties":{"radiance":11.41}},{"type":"Feature","geometry":{"type":"Polygon","coordinates":[[[24.95625,63.939583],[24.960417,63.939583],[24.960417,63.94375],[24.95625,63.94375],[24.95625,63.939583]]]},"properties":{"radiance":14.75}},{"type":"Feature","geometry":{"type":"Polygon","coordinates":[[[24.960417,63.939583],[24.964583,63.939583],[24.964583,63.94375],[24.960417,63.94375],[24.960417,63.939583]]]},"properties":{"radiance":7.26}},{"type":"Feature","geometry":{"type":"Polygon","coordinates":[[[24.939583,63.935417],[24.94375,63.935417],[24.94375,63.939583],[24.939583,63.939583],[24.939583,63.935417]]]},"properties":{"radiance":10.89}},{"type":"Feature","geometry":{"type":"Polygon","coordinates":[[[24.94375,63.935417],[24.947917,63.935417],[24.947917,63.939583],[24.94375,63.939583],[24.94375,63.935417]]]},"properties":{"radiance":10.78}},{"type":"Feature","geometry":{"type":"Polygon","coordinates":[[[24.947917,63.935417],[24.952083,63.935417],[24.952083,63.939583],[24.947917,63.939583],[24.947917,63.935417]]]},"properties":{"radiance":17.12}},{"type":"Feature","geometry":{"type":"Polygon","coordinates":[[[24.952083,63.935417],[24.95625,63.935417],[24.95625,63.939583],[24.952083,63.939583],[24.952083,63.935417]]]},"properties":{"radiance":16.87}},{"type":"Feature","geometry":{"type":"Polygon","coordinates":[[[24.95625,63.935417],[24.960417,63.935417],[24.960417,63.939583],[24.95625,63.939583],[24.95625,63.935417]]]},"properties":{"radiance":18.08}},{"type":"Feature","geometry":{"type":"Polygon","coordinates":[[[24.960417,63.935417],[24.964583,63.935417],[24.964583,63.939583],[24.960417,63.939583],[24.960417,63.935417]]]},"properties":{"radiance":18.25}},{"type":"Feature","geometry":{"type":"Polygon","coordinates":[[[24.964583,63.935417],[24.96875,63.935417],[24.96875,63.939583],[24.964583,63.939583],[24.964583,63.935417]]]},"properties":{"radiance":5.88}},{"type":"Feature","geometry":{"type":"Polygon","coordinates":[[[24.939583,63.93125],[24.94375,63.93125],[24.94375,63.935417],[24.939583,63.935417],[24.939583,63.93125]]]},"properties":{"radiance":8.88}},{"type":"Feature","geometry":{"type":"Polygon","coordinates":[[[24.94375,63.93125],[24.947917,63.93125],[24.947917,63.935417],[24.94375,63.935417],[24.94375,63.93125]]]},"properties":{"radiance":19.28}},{"type":"Feature","geometry":{"type":"Polygon","coordinates":[[[24.947917,63.93125],[24.952083,63.93125],[24.952083,63.935417],[24.947917,63.935417],[24.947917,63.93125]]]},"properties":{"radiance":22.92}},{"type":"Feature","geometry":{"type":"Polygon","coordinates":[[[24.952083,63.93125],[24.95625,63.93125],[24.95625,63.935417],[24.952083,63.935417],[24.952083,63.93125]]]},"properties":{"radiance":18.82}},{"type":"Feature","geometry":{"type":"Polygon","coordinates":[[[24.95625,63.93125],[24.960417,63.93125],[24.960417,63.935417],[24.95625,63.935417],[24.95625,63.93125]]]},"properties":{"radiance":21.04}},{"type":"Feature","geometry":{"type":"Polygon","coordinates":[[[24.960417,63.93125],[24.964583,63.93125],[24.964583,63.935417],[24.960417,63.935417],[24.960417,63.93125]]]},"properties":{"radiance":17.94}},{"type":"Feature","geometry":{"type":"Polygon","coordinates":[[[24.964583,63.93125],[24.96875,63.93125],[24.96875,63.935417],[24.964583,63.935417],[24.964583,63.93125]]]},"properties":{"radiance":16.73}},{"type":"Feature","geometry":{"type":"Polygon","coordinates":[[[24.935417,63.927083],[24.939583,63.927083],[24.939583,63.93125],[24.935417,63.93125],[24.935417,63.927083]]]},"properties":{"radiance":6.55}},{"type":"Feature","geometry":{"type":"Polygon","coordinates":[[[24.939583,63.927083],[24.94375,63.927083],[24.94375,63.93125],[24.939583,63.93125],[24.939583,63.927083]]]},"properties":{"radiance":7.1}},{"type":"Feature","geometry":{"type":"Polygon","coordinates":[[[24.94375,63.927083],[24.947917,63.927083],[24.947917,63.93125],[24.94375,63.93125],[24.94375,63.927083]]]},"properties":{"radiance":7.24}},{"type":"Feature","geometry":{"type":"Polygon","coordinates":[[[24.947917,63.927083],[24.952083,63.927083],[24.952083,63.93125],[24.947917,63.93125],[24.947917,63.927083]]]},"properties":{"radiance":12.49}},{"type":"Feature","geometry":{"type":"Polygon","coordinates":[[[24.952083,63.927083],[24.95625,63.927083],[24.95625,63.93125],[24.952083,63.93125],[24.952083,63.927083]]]},"properties":{"radiance":14.74}},{"type":"Feature","geometry":{"type":"Polygon","coordinates":[[[24.95625,63.927083],[24.960417,63.927083],[24.960417,63.93125],[24.95625,63.93125],[24.95625,63.927083]]]},"properties":{"radiance":20.42}},{"type":"Feature","geometry":{"type":"Polygon","coordinates":[[[24.960417,63.927083],[24.964583,63.927083],[24.964583,63.93125],[24.960417,63.93125],[24.960417,63.927083]]]},"properties":{"radiance":21.17}},{"type":"Feature","geometry":{"type":"Polygon","coordinates":[[[24.964583,63.927083],[24.96875,63.927083],[24.96875,63.93125],[24.964583,63.93125],[24.964583,63.927083]]]},"properties":{"radiance":45.54}},{"type":"Feature","geometry":{"type":"Polygon","coordinates":[[[24.96875,63.927083],[24.972917,63.927083],[24.972917,63.93125],[24.96875,63.93125],[24.96875,63.927083]]]},"properties":{"radiance":44.36}},{"type":"Feature","geometry":{"type":"Polygon","coordinates":[[[24.972917,63.927083],[24.977083,63.927083],[24.977083,63.93125],[24.972917,63.93125],[24.972917,63.927083]]]},"properties":{"radiance":18.95}},{"type":"Feature","geometry":{"type":"Polygon","coordinates":[[[24.977083,63.927083],[24.98125,63.927083],[24.98125,63.93125],[24.977083,63.93125],[24.977083,63.927083]]]},"properties":{"radiance":12.85}},{"type":"Feature","geometry":{"type":"Polygon","coordinates":[[[24.98125,63.927083],[24.985417,63.927083],[24.985417,63.93125],[24.98125,63.93125],[24.98125,63.927083]]]},"properties":{"radiance":10.25}},{"type":"Feature","geometry":{"type":"Polygon","coordinates":[[[24.985417,63.927083],[24.989583,63.927083],[24.989583,63.93125],[24.985417,63.93125],[24.985417,63.927083]]]},"properties":{"radiance":9.34}},{"type":"Feature","geometry":{"type":"Polygon","coordinates":[[[24.989583,63.927083],[24.99375,63.927083],[24.99375,63.93125],[24.989583,63.93125],[24.989583,63.927083]]]},"properties":{"radiance":6.95}},{"type":"Feature","geometry":{"type":"Polygon","coordinates":[[[24.939583,63.922917],[24.94375,63.922917],[24.94375,63.927083],[24.939583,63.927083],[24.939583,63.922917]]]},"properties":{"radiance":5.49}},{"type":"Feature","geometry":{"type":"Polygon","coordinates":[[[24.94375,63.922917],[24.947917,63.922917],[24.947917,63.927083],[24.94375,63.927083],[24.94375,63.922917]]]},"properties":{"radiance":5.12}},{"type":"Feature","geometry":{"type":"Polygon","coordinates":[[[24.947917,63.922917],[24.952083,63.922917],[24.952083,63.927083],[24.947917,63.927083],[24.947917,63.922917]]]},"properties":{"radiance":5.75}},{"type":"Feature","geometry":{"type":"Polygon","coordinates":[[[24.95625,63.922917],[24.960417,63.922917],[24.960417,63.927083],[24.95625,63.927083],[24.95625,63.922917]]]},"properties":{"radiance":6.53}},{"type":"Feature","geometry":{"type":"Polygon","coordinates":[[[24.960417,63.922917],[24.964583,63.922917],[24.964583,63.927083],[24.960417,63.927083],[24.960417,63.922917]]]},"properties":{"radiance":6.44}},{"type":"Feature","geometry":{"type":"Polygon","coordinates":[[[24.964583,63.922917],[24.96875,63.922917],[24.96875,63.927083],[24.964583,63.927083],[24.964583,63.922917]]]},"properties":{"radiance":8.14}},{"type":"Feature","geometry":{"type":"Polygon","coordinates":[[[24.96875,63.922917],[24.972917,63.922917],[24.972917,63.927083],[24.96875,63.927083],[24.96875,63.922917]]]},"properties":{"radiance":11.73}},{"type":"Feature","geometry":{"type":"Polygon","coordinates":[[[24.972917,63.922917],[24.977083,63.922917],[24.977083,63.927083],[24.972917,63.927083],[24.972917,63.922917]]]},"properties":{"radiance":48.65}},{"type":"Feature","geometry":{"type":"Polygon","coordinates":[[[24.977083,63.922917],[24.98125,63.922917],[24.98125,63.927083],[24.977083,63.927083],[24.977083,63.922917]]]},"properties":{"radiance":16.95}},{"type":"Feature","geometry":{"type":"Polygon","coordinates":[[[24.98125,63.922917],[24.985417,63.922917],[24.985417,63.927083],[24.98125,63.927083],[24.98125,63.922917]]]},"properties":{"radiance":17.89}},{"type":"Feature","geometry":{"type":"Polygon","coordinates":[[[24.985417,63.922917],[24.989583,63.922917],[24.989583,63.927083],[24.985417,63.927083],[24.985417,63.922917]]]},"properties":{"radiance":17.19}},{"type":"Feature","geometry":{"type":"Polygon","coordinates":[[[24.989583,63.922917],[24.99375,63.922917],[24.99375,63.927083],[24.989583,63.927083],[24.989583,63.922917]]]},"properties":{"radiance":15.88}},{"type":"Feature","geometry":{"type":"Polygon","coordinates":[[[24.99375,63.922917],[24.997917,63.922917],[24.997917,63.927083],[24.99375,63.927083],[24.99375,63.922917]]]},"properties":{"radiance":9.21}},{"type":"Feature","geometry":{"type":"Polygon","coordinates":[[[24.997917,63.922917],[25.002083,63.922917],[25.002083,63.927083],[24.997917,63.927083],[24.997917,63.922917]]]},"properties":{"radiance":6.55}},{"type":"Feature","geometry":{"type":"Polygon","coordinates":[[[24.95625,63.91875],[24.960417,63.91875],[24.960417,63.922917],[24.95625,63.922917],[24.95625,63.91875]]]},"properties":{"radiance":5.58}},{"type":"Feature","geometry":{"type":"Polygon","coordinates":[[[24.96875,63.91875],[24.972917,63.91875],[24.972917,63.922917],[24.96875,63.922917],[24.96875,63.91875]]]},"properties":{"radiance":5.73}},{"type":"Feature","geometry":{"type":"Polygon","coordinates":[[[24.972917,63.91875],[24.977083,63.91875],[24.977083,63.922917],[24.972917,63.922917],[24.972917,63.91875]]]},"properties":{"radiance":8.11}},{"type":"Feature","geometry":{"type":"Polygon","coordinates":[[[24.977083,63.91875],[24.98125,63.91875],[24.98125,63.922917],[24.977083,63.922917],[24.977083,63.91875]]]},"properties":{"radiance":10.34}},{"type":"Feature","geometry":{"type":"Polygon","coordinates":[[[24.98125,63.91875],[24.985417,63.91875],[24.985417,63.922917],[24.98125,63.922917],[24.98125,63.91875]]]},"properties":{"radiance":13.51}},{"type":"Feature","geometry":{"type":"Polygon","coordinates":[[[24.985417,63.91875],[24.989583,63.91875],[24.989583,63.922917],[24.985417,63.922917],[24.985417,63.91875]]]},"properties":{"radiance":49.17}},{"type":"Feature","geometry":{"type":"Polygon","coordinates":[[[24.989583,63.91875],[24.99375,63.91875],[24.99375,63.922917],[24.989583,63.922917],[24.989583,63.91875]]]},"properties":{"radiance":18.61}},{"type":"Feature","geometry":{"type":"Polygon","coordinates":[[[24.99375,63.91875],[24.997917,63.91875],[24.997917,63.922917],[24.99375,63.922917],[24.99375,63.91875]]]},"properties":{"radiance":16.39}},{"type":"Feature","geometry":{"type":"Polygon","coordinates":[[[24.997917,63.91875],[25.002083,63.91875],[25.002083,63.922917],[24.997917,63.922917],[24.997917,63.91875]]]},"properties":{"radiance":8.63}},{"type":"Feature","geometry":{"type":"Polygon","coordinates":[[[25.002083,63.91875],[25.00625,63.91875],[25.00625,63.922917],[25.002083,63.922917],[25.002083,63.91875]]]},"properties":{"radiance":5.05}},{"type":"Feature","geometry":{"type":"Polygon","coordinates":[[[24.977083,63.914583],[24.98125,63.914583],[24.98125,63.91875],[24.977083,63.91875],[24.977083,63.914583]]]},"properties":{"radiance":5.64}},{"type":"Feature","geometry":{"type":"Polygon","coordinates":[[[24.985417,63.914583],[24.989583,63.914583],[24.989583,63.91875],[24.985417,63.91875],[24.985417,63.914583]]]},"properties":{"radiance":8.35}},{"type":"Feature","geometry":{"type":"Polygon","coordinates":[[[24.989583,63.914583],[24.99375,63.914583],[24.99375,63.91875],[24.989583,63.91875],[24.989583,63.914583]]]},"properties":{"radiance":10.18}},{"type":"Feature","geometry":{"type":"Polygon","coordinates":[[[24.99375,63.914583],[24.997917,63.914583],[24.997917,63.91875],[24.99375,63.91875],[24.99375,63.914583]]]},"properties":{"radiance":10.8}},{"type":"Feature","geometry":{"type":"Polygon","coordinates":[[[24.997917,63.914583],[25.002083,63.914583],[25.002083,63.91875],[24.997917,63.91875],[24.997917,63.914583]]]},"properties":{"radiance":10.45}},{"type":"Feature","geometry":{"type":"Polygon","coordinates":[[[25.002083,63.914583],[25.00625,63.914583],[25.00625,63.91875],[25.002083,63.91875],[25.002083,63.914583]]]},"properties":{"radiance":30.25}},{"type":"Feature","geometry":{"type":"Polygon","coordinates":[[[25.00625,63.914583],[25.010417,63.914583],[25.010417,63.91875],[25.00625,63.91875],[25.00625,63.914583]]]},"properties":{"radiance":7.41}},{"type":"Feature","geometry":{"type":"Polygon","coordinates":[[[25.010417,63.914583],[25.014583,63.914583],[25.014583,63.91875],[25.010417,63.91875],[25.010417,63.914583]]]},"properties":{"radiance":6.96}},{"type":"Feature","geometry":{"type":"Polygon","coordinates":[[[24.997917,63.910417],[25.002083,63.910417],[25.002083,63.914583],[24.997917,63.914583],[24.997917,63.910417]]]},"properties":{"radiance":6.65}},{"type":"Feature","geometry":{"type":"Polygon","coordinates":[[[25.002083,63.910417],[25.00625,63.910417],[25.00625,63.914583],[25.002083,63.914583],[25.002083,63.910417]]]},"properties":{"radiance":35.96}},{"type":"Feature","geometry":{"type":"Polygon","coordinates":[[[25.00625,63.910417],[25.010417,63.910417],[25.010417,63.914583],[25.00625,63.914583],[25.00625,63.910417]]]},"properties":{"radiance":39.68}},{"type":"Feature","geometry":{"type":"Polygon","coordinates":[[[25.010417,63.910417],[25.014583,63.910417],[25.014583,63.914583],[25.010417,63.914583],[25.010417,63.910417]]]},"properties":{"radiance":38.69}},{"type":"Feature","geometry":{"type":"Polygon","coordinates":[[[25.014583,63.910417],[25.01875,63.910417],[25.01875,63.914583],[25.014583,63.914583],[25.014583,63.910417]]]},"properties":{"radiance":7.3}},{"type":"Feature","geometry":{"type":"Polygon","coordinates":[[[25.01875,63.910417],[25.022917,63.910417],[25.022917,63.914583],[25.01875,63.914583],[25.01875,63.910417]]]},"properties":{"radiance":6.38}},{"type":"Feature","geometry":{"type":"Polygon","coordinates":[[[25.002083,63.90625],[25.00625,63.90625],[25.00625,63.910417],[25.002083,63.910417],[25.002083,63.90625]]]},"properties":{"radiance":6.25}},{"type":"Feature","geometry":{"type":"Polygon","coordinates":[[[25.00625,63.90625],[25.010417,63.90625],[25.010417,63.910417],[25.00625,63.910417],[25.00625,63.90625]]]},"properties":{"radiance":9.5}},{"type":"Feature","geometry":{"type":"Polygon","coordinates":[[[25.010417,63.90625],[25.014583,63.90625],[25.014583,63.910417],[25.010417,63.910417],[25.010417,63.90625]]]},"properties":{"radiance":10.67}},{"type":"Feature","geometry":{"type":"Polygon","coordinates":[[[25.014583,63.90625],[25.01875,63.90625],[25.01875,63.910417],[25.014583,63.910417],[25.014583,63.90625]]]},"properties":{"radiance":10.41}},{"type":"Feature","geometry":{"type":"Polygon","coordinates":[[[25.01875,63.90625],[25.022917,63.90625],[25.022917,63.910417],[25.01875,63.910417],[25.01875,63.90625]]]},"properties":{"radiance":7.88}},{"type":"Feature","geometry":{"type":"Polygon","coordinates":[[[25.00625,63.902083],[25.010417,63.902083],[25.010417,63.90625],[25.00625,63.90625],[25.00625,63.902083]]]},"properties":{"radiance":5.27}},{"type":"Feature","geometry":{"type":"Polygon","coordinates":[[[25.014583,63.902083],[25.01875,63.902083],[25.01875,63.90625],[25.014583,63.90625],[25.014583,63.902083]]]},"properties":{"radiance":6.76}},{"type":"Feature","geometry":{"type":"Polygon","coordinates":[[[25.010417,63.897917],[25.014583,63.897917],[25.014583,63.902083],[25.010417,63.902083],[25.010417,63.897917]]]},"properties":{"radiance":5.94}},{"type":"Feature","geometry":{"type":"Polygon","coordinates":[[[25.014583,63.897917],[25.01875,63.897917],[25.01875,63.902083],[25.014583,63.902083],[25.014583,63.897917]]]},"properties":{"radiance":5.12}},{"type":"Feature","geometry":{"type":"Polygon","coordinates":[[[25.277083,63.789583],[25.28125,63.789583],[25.28125,63.79375],[25.277083,63.79375],[25.277083,63.789583]]]},"properties":{"radiance":6.11}},{"type":"Feature","geometry":{"type":"Polygon","coordinates":[[[25.28125,63.789583],[25.285417,63.789583],[25.285417,63.79375],[25.28125,63.79375],[25.28125,63.789583]]]},"properties":{"radiance":5.75}},{"type":"Feature","geometry":{"type":"Polygon","coordinates":[[[25.297917,63.78125],[25.302083,63.78125],[25.302083,63.785417],[25.297917,63.785417],[25.297917,63.78125]]]},"properties":{"radiance":5.27}},{"type":"Feature","geometry":{"type":"Polygon","coordinates":[[[25.302083,63.764583],[25.30625,63.764583],[25.30625,63.76875],[25.302083,63.76875],[25.302083,63.764583]]]},"properties":{"radiance":5.95}},{"type":"Feature","geometry":{"type":"Polygon","coordinates":[[[25.30625,63.764583],[25.310417,63.764583],[25.310417,63.76875],[25.30625,63.76875],[25.30625,63.764583]]]},"properties":{"radiance":5.04}},{"type":"Feature","geometry":{"type":"Polygon","coordinates":[[[25.302083,63.760417],[25.30625,63.760417],[25.30625,63.764583],[25.302083,63.764583],[25.302083,63.760417]]]},"properties":{"radiance":6.41}},{"type":"Feature","geometry":{"type":"Polygon","coordinates":[[[25.30625,63.760417],[25.310417,63.760417],[25.310417,63.764583],[25.30625,63.764583],[25.30625,63.760417]]]},"properties":{"radiance":7.03}},{"type":"Feature","geometry":{"type":"Polygon","coordinates":[[[25.310417,63.760417],[25.314583,63.760417],[25.314583,63.764583],[25.310417,63.764583],[25.310417,63.760417]]]},"properties":{"radiance":7.41}},{"type":"Feature","geometry":{"type":"Polygon","coordinates":[[[25.314583,63.760417],[25.31875,63.760417],[25.31875,63.764583],[25.314583,63.764583],[25.314583,63.760417]]]},"properties":{"radiance":9.05}},{"type":"Feature","geometry":{"type":"Polygon","coordinates":[[[25.31875,63.760417],[25.322917,63.760417],[25.322917,63.764583],[25.31875,63.764583],[25.31875,63.760417]]]},"properties":{"radiance":5.31}},{"type":"Feature","geometry":{"type":"Polygon","coordinates":[[[25.322917,63.760417],[25.327083,63.760417],[25.327083,63.764583],[25.322917,63.764583],[25.322917,63.760417]]]},"properties":{"radiance":5.64}},{"type":"Feature","geometry":{"type":"Polygon","coordinates":[[[25.327083,63.760417],[25.33125,63.760417],[25.33125,63.764583],[25.327083,63.764583],[25.327083,63.760417]]]},"properties":{"radiance":5.67}},{"type":"Feature","geometry":{"type":"Polygon","coordinates":[[[25.33125,63.760417],[25.335417,63.760417],[25.335417,63.764583],[25.33125,63.764583],[25.33125,63.760417]]]},"properties":{"radiance":10.28}},{"type":"Feature","geometry":{"type":"Polygon","coordinates":[[[25.335417,63.760417],[25.339583,63.760417],[25.339583,63.764583],[25.335417,63.764583],[25.335417,63.760417]]]},"properties":{"radiance":5.38}},{"type":"Feature","geometry":{"type":"Polygon","coordinates":[[[25.339583,63.760417],[25.34375,63.760417],[25.34375,63.764583],[25.339583,63.764583],[25.339583,63.760417]]]},"properties":{"radiance":5.38}},{"type":"Feature","geometry":{"type":"Polygon","coordinates":[[[25.302083,63.75625],[25.30625,63.75625],[25.30625,63.760417],[25.302083,63.760417],[25.302083,63.75625]]]},"properties":{"radiance":5.66}},{"type":"Feature","geometry":{"type":"Polygon","coordinates":[[[25.30625,63.75625],[25.310417,63.75625],[25.310417,63.760417],[25.30625,63.760417],[25.30625,63.75625]]]},"properties":{"radiance":8.86}},{"type":"Feature","geometry":{"type":"Polygon","coordinates":[[[25.310417,63.75625],[25.314583,63.75625],[25.314583,63.760417],[25.310417,63.760417],[25.310417,63.75625]]]},"properties":{"radiance":28.41}},{"type":"Feature","geometry":{"type":"Polygon","coordinates":[[[25.314583,63.75625],[25.31875,63.75625],[25.31875,63.760417],[25.314583,63.760417],[25.314583,63.75625]]]},"properties":{"radiance":13.11}},{"type":"Feature","geometry":{"type":"Polygon","coordinates":[[[25.31875,63.75625],[25.322917,63.75625],[25.322917,63.760417],[25.31875,63.760417],[25.31875,63.75625]]]},"properties":{"radiance":9.71}},{"type":"Feature","geometry":{"type":"Polygon","coordinates":[[[25.322917,63.75625],[25.327083,63.75625],[25.327083,63.760417],[25.322917,63.760417],[25.322917,63.75625]]]},"properties":{"radiance":9.87}},{"type":"Feature","geometry":{"type":"Polygon","coordinates":[[[25.327083,63.75625],[25.33125,63.75625],[25.33125,63.760417],[25.327083,63.760417],[25.327083,63.75625]]]},"properties":{"radiance":11.13}},{"type":"Feature","geometry":{"type":"Polygon","coordinates":[[[25.33125,63.75625],[25.335417,63.75625],[25.335417,63.760417],[25.33125,63.760417],[25.33125,63.75625]]]},"properties":{"radiance":17.56}},{"type":"Feature","geometry":{"type":"Polygon","coordinates":[[[25.335417,63.75625],[25.339583,63.75625],[25.339583,63.760417],[25.335417,63.760417],[25.335417,63.75625]]]},"properties":{"radiance":14.5}},{"type":"Feature","geometry":{"type":"Polygon","coordinates":[[[25.339583,63.75625],[25.34375,63.75625],[25.34375,63.760417],[25.339583,63.760417],[25.339583,63.75625]]]},"properties":{"radiance":28.92}},{"type":"Feature","geometry":{"type":"Polygon","coordinates":[[[25.297917,63.752083],[25.302083,63.752083],[25.302083,63.75625],[25.297917,63.75625],[25.297917,63.752083]]]},"properties":{"radiance":11.75}},{"type":"Feature","geometry":{"type":"Polygon","coordinates":[[[25.302083,63.752083],[25.30625,63.752083],[25.30625,63.75625],[25.302083,63.75625],[25.302083,63.752083]]]},"properties":{"radiance":8.76}},{"type":"Feature","geometry":{"type":"Polygon","coordinates":[[[25.30625,63.752083],[25.310417,63.752083],[25.310417,63.75625],[25.30625,63.75625],[25.30625,63.752083]]]},"properties":{"radiance":9.44}},{"type":"Feature","geometry":{"type":"Polygon","coordinates":[[[25.310417,63.752083],[25.314583,63.752083],[25.314583,63.75625],[25.310417,63.75625],[25.310417,63.752083]]]},"properties":{"radiance":21.54}},{"type":"Feature","geometry":{"type":"Polygon","coordinates":[[[25.314583,63.752083],[25.31875,63.752083],[25.31875,63.75625],[25.314583,63.75625],[25.314583,63.752083]]]},"properties":{"radiance":24.34}},{"type":"Feature","geometry":{"type":"Polygon","coordinates":[[[25.31875,63.752083],[25.322917,63.752083],[25.322917,63.75625],[25.31875,63.75625],[25.31875,63.752083]]]},"properties":{"radiance":23.35}},{"type":"Feature","geometry":{"type":"Polygon","coordinates":[[[25.322917,63.752083],[25.327083,63.752083],[25.327083,63.75625],[25.322917,63.75625],[25.322917,63.752083]]]},"properties":{"radiance":18.3}},{"type":"Feature","geometry":{"type":"Polygon","coordinates":[[[25.327083,63.752083],[25.33125,63.752083],[25.33125,63.75625],[25.327083,63.75625],[25.327083,63.752083]]]},"properties":{"radiance":14.97}},{"type":"Feature","geometry":{"type":"Polygon","coordinates":[[[25.33125,63.752083],[25.335417,63.752083],[25.335417,63.75625],[25.33125,63.75625],[25.33125,63.752083]]]},"properties":{"radiance":43.76}},{"type":"Feature","geometry":{"type":"Polygon","coordinates":[[[25.335417,63.752083],[25.339583,63.752083],[25.339583,63.75625],[25.335417,63.75625],[25.335417,63.752083]]]},"properties":{"radiance":41.36}},{"type":"Feature","geometry":{"type":"Polygon","coordinates":[[[25.339583,63.752083],[25.34375,63.752083],[25.34375,63.75625],[25.339583,63.75625],[25.339583,63.752083]]]},"properties":{"radiance":19.91}},{"type":"Feature","geometry":{"type":"Polygon","coordinates":[[[25.34375,63.752083],[25.347917,63.752083],[25.347917,63.75625],[25.34375,63.75625],[25.34375,63.752083]]]},"properties":{"radiance":14.62}},{"type":"Feature","geometry":{"type":"Polygon","coordinates":[[[25.347917,63.752083],[25.352083,63.752083],[25.352083,63.75625],[25.347917,63.75625],[25.347917,63.752083]]]},"properties":{"radiance":41.52}},{"type":"Feature","geometry":{"type":"Polygon","coordinates":[[[25.352083,63.752083],[25.35625,63.752083],[25.35625,63.75625],[25.352083,63.75625],[25.352083,63.752083]]]},"properties":{"radiance":50.03}},{"type":"Feature","geometry":{"type":"Polygon","coordinates":[[[25.35625,63.752083],[25.360417,63.752083],[25.360417,63.75625],[25.35625,63.75625],[25.35625,63.752083]]]},"properties":{"radiance":68.03}},{"type":"Feature","geometry":{"type":"Polygon","coordinates":[[[25.360417,63.752083],[25.364583,63.752083],[25.364583,63.75625],[25.360417,63.75625],[25.360417,63.752083]]]},"properties":{"radiance":12.69}},{"type":"Feature","geometry":{"type":"Polygon","coordinates":[[[25.364583,63.752083],[25.36875,63.752083],[25.36875,63.75625],[25.364583,63.75625],[25.364583,63.752083]]]},"properties":{"radiance":5.22}},{"type":"Feature","geometry":{"type":"Polygon","coordinates":[[[25.297917,63.747917],[25.302083,63.747917],[25.302083,63.752083],[25.297917,63.752083],[25.297917,63.747917]]]},"properties":{"radiance":7.81}},{"type":"Feature","geometry":{"type":"Polygon","coordinates":[[[25.302083,63.747917],[25.30625,63.747917],[25.30625,63.752083],[25.302083,63.752083],[25.302083,63.747917]]]},"properties":{"radiance":13.55}},{"type":"Feature","geometry":{"type":"Polygon","coordinates":[[[25.30625,63.747917],[25.310417,63.747917],[25.310417,63.752083],[25.30625,63.752083],[25.30625,63.747917]]]},"properties":{"radiance":20.24}},{"type":"Feature","geometry":{"type":"Polygon","coordinates":[[[25.310417,63.747917],[25.314583,63.747917],[25.314583,63.752083],[25.310417,63.752083],[25.310417,63.747917]]]},"properties":{"radiance":21.93}},{"type":"Feature","geometry":{"type":"Polygon","coordinates":[[[25.314583,63.747917],[25.31875,63.747917],[25.31875,63.752083],[25.314583,63.752083],[25.314583,63.747917]]]},"properties":{"radiance":72.77}},{"type":"Feature","geometry":{"type":"Polygon","coordinates":[[[25.31875,63.747917],[25.322917,63.747917],[25.322917,63.752083],[25.31875,63.752083],[25.31875,63.747917]]]},"properties":{"radiance":74.21}},{"type":"Feature","geometry":{"type":"Polygon","coordinates":[[[25.322917,63.747917],[25.327083,63.747917],[25.327083,63.752083],[25.322917,63.752083],[25.322917,63.747917]]]},"properties":{"radiance":64.66}},{"type":"Feature","geometry":{"type":"Polygon","coordinates":[[[25.327083,63.747917],[25.33125,63.747917],[25.33125,63.752083],[25.327083,63.752083],[25.327083,63.747917]]]},"properties":{"radiance":54.54}},{"type":"Feature","geometry":{"type":"Polygon","coordinates":[[[25.33125,63.747917],[25.335417,63.747917],[25.335417,63.752083],[25.33125,63.752083],[25.33125,63.747917]]]},"properties":{"radiance":51.27}},{"type":"Feature","geometry":{"type":"Polygon","coordinates":[[[25.335417,63.747917],[25.339583,63.747917],[25.339583,63.752083],[25.335417,63.752083],[25.335417,63.747917]]]},"properties":{"radiance":20.81}},{"type":"Feature","geometry":{"type":"Polygon","coordinates":[[[25.339583,63.747917],[25.34375,63.747917],[25.34375,63.752083],[25.339583,63.752083],[25.339583,63.747917]]]},"properties":{"radiance":65.6}},{"type":"Feature","geometry":{"type":"Polygon","coordinates":[[[25.34375,63.747917],[25.347917,63.747917],[25.347917,63.752083],[25.34375,63.752083],[25.34375,63.747917]]]},"properties":{"radiance":47.79}},{"type":"Feature","geometry":{"type":"Polygon","coordinates":[[[25.347917,63.747917],[25.352083,63.747917],[25.352083,63.752083],[25.347917,63.752083],[25.347917,63.747917]]]},"properties":{"radiance":53.83}},{"type":"Feature","geometry":{"type":"Polygon","coordinates":[[[25.352083,63.747917],[25.35625,63.747917],[25.35625,63.752083],[25.352083,63.752083],[25.352083,63.747917]]]},"properties":{"radiance":45}},{"type":"Feature","geometry":{"type":"Polygon","coordinates":[[[25.35625,63.747917],[25.360417,63.747917],[25.360417,63.752083],[25.35625,63.752083],[25.35625,63.747917]]]},"properties":{"radiance":105.6}},{"type":"Feature","geometry":{"type":"Polygon","coordinates":[[[25.360417,63.747917],[25.364583,63.747917],[25.364583,63.752083],[25.360417,63.752083],[25.360417,63.747917]]]},"properties":{"radiance":19.51}},{"type":"Feature","geometry":{"type":"Polygon","coordinates":[[[25.364583,63.747917],[25.36875,63.747917],[25.36875,63.752083],[25.364583,63.752083],[25.364583,63.747917]]]},"properties":{"radiance":51.57}},{"type":"Feature","geometry":{"type":"Polygon","coordinates":[[[25.36875,63.747917],[25.372917,63.747917],[25.372917,63.752083],[25.36875,63.752083],[25.36875,63.747917]]]},"properties":{"radiance":9.09}},{"type":"Feature","geometry":{"type":"Polygon","coordinates":[[[25.297917,63.74375],[25.302083,63.74375],[25.302083,63.747917],[25.297917,63.747917],[25.297917,63.74375]]]},"properties":{"radiance":6.12}},{"type":"Feature","geometry":{"type":"Polygon","coordinates":[[[25.302083,63.74375],[25.30625,63.74375],[25.30625,63.747917],[25.302083,63.747917],[25.302083,63.74375]]]},"properties":{"radiance":7.71}},{"type":"Feature","geometry":{"type":"Polygon","coordinates":[[[25.30625,63.74375],[25.310417,63.74375],[25.310417,63.747917],[25.30625,63.747917],[25.30625,63.74375]]]},"properties":{"radiance":15.29}},{"type":"Feature","geometry":{"type":"Polygon","coordinates":[[[25.310417,63.74375],[25.314583,63.74375],[25.314583,63.747917],[25.310417,63.747917],[25.310417,63.74375]]]},"properties":{"radiance":15.61}},{"type":"Feature","geometry":{"type":"Polygon","coordinates":[[[25.314583,63.74375],[25.31875,63.74375],[25.31875,63.747917],[25.314583,63.747917],[25.314583,63.74375]]]},"properties":{"radiance":16.95}},{"type":"Feature","geometry":{"type":"Polygon","coordinates":[[[25.31875,63.74375],[25.322917,63.74375],[25.322917,63.747917],[25.31875,63.747917],[25.31875,63.74375]]]},"properties":{"radiance":20.48}},{"type":"Feature","geometry":{"type":"Polygon","coordinates":[[[25.322917,63.74375],[25.327083,63.74375],[25.327083,63.747917],[25.322917,63.747917],[25.322917,63.74375]]]},"properties":{"radiance":41.88}},{"type":"Feature","geometry":{"type":"Polygon","coordinates":[[[25.327083,63.74375],[25.33125,63.74375],[25.33125,63.747917],[25.327083,63.747917],[25.327083,63.74375]]]},"properties":{"radiance":43.89}},{"type":"Feature","geometry":{"type":"Polygon","coordinates":[[[25.33125,63.74375],[25.335417,63.74375],[25.335417,63.747917],[25.33125,63.747917],[25.33125,63.74375]]]},"properties":{"radiance":44.23}},{"type":"Feature","geometry":{"type":"Polygon","coordinates":[[[25.335417,63.74375],[25.339583,63.74375],[25.339583,63.747917],[25.335417,63.747917],[25.335417,63.74375]]]},"properties":{"radiance":42.67}},{"type":"Feature","geometry":{"type":"Polygon","coordinates":[[[25.339583,63.74375],[25.34375,63.74375],[25.34375,63.747917],[25.339583,63.747917],[25.339583,63.74375]]]},"properties":{"radiance":22.27}},{"type":"Feature","geometry":{"type":"Polygon","coordinates":[[[25.34375,63.74375],[25.347917,63.74375],[25.347917,63.747917],[25.34375,63.747917],[25.34375,63.74375]]]},"properties":{"radiance":13.96}},{"type":"Feature","geometry":{"type":"Polygon","coordinates":[[[25.347917,63.74375],[25.352083,63.74375],[25.352083,63.747917],[25.347917,63.747917],[25.347917,63.74375]]]},"properties":{"radiance":14.27}},{"type":"Feature","geometry":{"type":"Polygon","coordinates":[[[25.352083,63.74375],[25.35625,63.74375],[25.35625,63.747917],[25.352083,63.747917],[25.352083,63.74375]]]},"properties":{"radiance":12.06}},{"type":"Feature","geometry":{"type":"Polygon","coordinates":[[[25.35625,63.74375],[25.360417,63.74375],[25.360417,63.747917],[25.35625,63.747917],[25.35625,63.74375]]]},"properties":{"radiance":9.43}},{"type":"Feature","geometry":{"type":"Polygon","coordinates":[[[25.360417,63.74375],[25.364583,63.74375],[25.364583,63.747917],[25.360417,63.747917],[25.360417,63.74375]]]},"properties":{"radiance":9.92}},{"type":"Feature","geometry":{"type":"Polygon","coordinates":[[[25.364583,63.74375],[25.36875,63.74375],[25.36875,63.747917],[25.364583,63.747917],[25.364583,63.74375]]]},"properties":{"radiance":11.95}},{"type":"Feature","geometry":{"type":"Polygon","coordinates":[[[25.29375,63.739583],[25.297917,63.739583],[25.297917,63.74375],[25.29375,63.74375],[25.29375,63.739583]]]},"properties":{"radiance":6.27}},{"type":"Feature","geometry":{"type":"Polygon","coordinates":[[[25.297917,63.739583],[25.302083,63.739583],[25.302083,63.74375],[25.297917,63.74375],[25.297917,63.739583]]]},"properties":{"radiance":6.42}},{"type":"Feature","geometry":{"type":"Polygon","coordinates":[[[25.302083,63.739583],[25.30625,63.739583],[25.30625,63.74375],[25.302083,63.74375],[25.302083,63.739583]]]},"properties":{"radiance":5.93}},{"type":"Feature","geometry":{"type":"Polygon","coordinates":[[[25.30625,63.739583],[25.310417,63.739583],[25.310417,63.74375],[25.30625,63.74375],[25.30625,63.739583]]]},"properties":{"radiance":6.02}},{"type":"Feature","geometry":{"type":"Polygon","coordinates":[[[25.310417,63.739583],[25.314583,63.739583],[25.314583,63.74375],[25.310417,63.74375],[25.310417,63.739583]]]},"properties":{"radiance":5.41}},{"type":"Feature","geometry":{"type":"Polygon","coordinates":[[[25.314583,63.739583],[25.31875,63.739583],[25.31875,63.74375],[25.314583,63.74375],[25.314583,63.739583]]]},"properties":{"radiance":5.59}},{"type":"Feature","geometry":{"type":"Polygon","coordinates":[[[25.31875,63.739583],[25.322917,63.739583],[25.322917,63.74375],[25.31875,63.74375],[25.31875,63.739583]]]},"properties":{"radiance":6.99}},{"type":"Feature","geometry":{"type":"Polygon","coordinates":[[[25.322917,63.739583],[25.327083,63.739583],[25.327083,63.74375],[25.322917,63.74375],[25.322917,63.739583]]]},"properties":{"radiance":21.61}},{"type":"Feature","geometry":{"type":"Polygon","coordinates":[[[25.327083,63.739583],[25.33125,63.739583],[25.33125,63.74375],[25.327083,63.74375],[25.327083,63.739583]]]},"properties":{"radiance":11.65}},{"type":"Feature","geometry":{"type":"Polygon","coordinates":[[[25.33125,63.739583],[25.335417,63.739583],[25.335417,63.74375],[25.33125,63.74375],[25.33125,63.739583]]]},"properties":{"radiance":8.51}},{"type":"Feature","geometry":{"type":"Polygon","coordinates":[[[25.335417,63.739583],[25.339583,63.739583],[25.339583,63.74375],[25.335417,63.74375],[25.335417,63.739583]]]},"properties":{"radiance":12.06}},{"type":"Feature","geometry":{"type":"Polygon","coordinates":[[[25.339583,63.739583],[25.34375,63.739583],[25.34375,63.74375],[25.339583,63.74375],[25.339583,63.739583]]]},"properties":{"radiance":9.73}},{"type":"Feature","geometry":{"type":"Polygon","coordinates":[[[25.34375,63.739583],[25.347917,63.739583],[25.347917,63.74375],[25.34375,63.74375],[25.34375,63.739583]]]},"properties":{"radiance":6.78}},{"type":"Feature","geometry":{"type":"Polygon","coordinates":[[[25.347917,63.739583],[25.352083,63.739583],[25.352083,63.74375],[25.347917,63.74375],[25.347917,63.739583]]]},"properties":{"radiance":6.94}},{"type":"Feature","geometry":{"type":"Polygon","coordinates":[[[25.352083,63.739583],[25.35625,63.739583],[25.35625,63.74375],[25.352083,63.74375],[25.352083,63.739583]]]},"properties":{"radiance":6.33}},{"type":"Feature","geometry":{"type":"Polygon","coordinates":[[[25.335417,63.735417],[25.339583,63.735417],[25.339583,63.739583],[25.335417,63.739583],[25.335417,63.735417]]]},"properties":{"radiance":6.18}},{"type":"Feature","geometry":{"type":"Polygon","coordinates":[[[25.339583,63.735417],[25.34375,63.735417],[25.34375,63.739583],[25.339583,63.739583],[25.339583,63.735417]]]},"properties":{"radiance":8.89}},{"type":"Feature","geometry":{"type":"Polygon","coordinates":[[[25.34375,63.735417],[25.347917,63.735417],[25.347917,63.739583],[25.34375,63.739583],[25.34375,63.735417]]]},"properties":{"radiance":6.57}},{"type":"Feature","geometry":{"type":"Polygon","coordinates":[[[25.347917,63.735417],[25.352083,63.735417],[25.352083,63.739583],[25.347917,63.739583],[25.347917,63.735417]]]},"properties":{"radiance":6.66}},{"type":"Feature","geometry":{"type":"Polygon","coordinates":[[[25.352083,63.735417],[25.35625,63.735417],[25.35625,63.739583],[25.352083,63.739583],[25.352083,63.735417]]]},"properties":{"radiance":5.74}},{"type":"Feature","geometry":{"type":"Polygon","coordinates":[[[25.35625,63.735417],[25.360417,63.735417],[25.360417,63.739583],[25.35625,63.739583],[25.35625,63.735417]]]},"properties":{"radiance":5.98}},{"type":"Feature","geometry":{"type":"Polygon","coordinates":[[[25.34375,63.73125],[25.347917,63.73125],[25.347917,63.735417],[25.34375,63.735417],[25.34375,63.73125]]]},"properties":{"radiance":6.5}},{"type":"Feature","geometry":{"type":"Polygon","coordinates":[[[25.347917,63.73125],[25.352083,63.73125],[25.352083,63.735417],[25.347917,63.735417],[25.347917,63.73125]]]},"properties":{"radiance":9.75}},{"type":"Feature","geometry":{"type":"Polygon","coordinates":[[[25.352083,63.73125],[25.35625,63.73125],[25.35625,63.735417],[25.352083,63.735417],[25.352083,63.73125]]]},"properties":{"radiance":5.75}},{"type":"Feature","geometry":{"type":"Polygon","coordinates":[[[25.352083,63.727083],[25.35625,63.727083],[25.35625,63.73125],[25.352083,63.73125],[25.352083,63.727083]]]},"properties":{"radiance":6.27}},{"type":"Feature","geometry":{"type":"Polygon","coordinates":[[[25.35625,63.727083],[25.360417,63.727083],[25.360417,63.73125],[25.35625,63.73125],[25.35625,63.727083]]]},"properties":{"radiance":5.53}},{"type":"Feature","geometry":{"type":"Polygon","coordinates":[[[25.360417,63.727083],[25.364583,63.727083],[25.364583,63.73125],[25.360417,63.73125],[25.360417,63.727083]]]},"properties":{"radiance":5.51}},{"type":"Feature","geometry":{"type":"Polygon","coordinates":[[[25.35625,63.722917],[25.360417,63.722917],[25.360417,63.727083],[25.35625,63.727083],[25.35625,63.722917]]]},"properties":{"radiance":8.67}},{"type":"Feature","geometry":{"type":"Polygon","coordinates":[[[25.914583,63.714583],[25.91875,63.714583],[25.91875,63.71875],[25.914583,63.71875],[25.914583,63.714583]]]},"properties":{"radiance":9.12}},{"type":"Feature","geometry":{"type":"Polygon","coordinates":[[[25.91875,63.714583],[25.922917,63.714583],[25.922917,63.71875],[25.91875,63.71875],[25.91875,63.714583]]]},"properties":{"radiance":8.8}},{"type":"Feature","geometry":{"type":"Polygon","coordinates":[[[25.922917,63.714583],[25.927083,63.714583],[25.927083,63.71875],[25.922917,63.71875],[25.922917,63.714583]]]},"properties":{"radiance":9.41}},{"type":"Feature","geometry":{"type":"Polygon","coordinates":[[[25.927083,63.714583],[25.93125,63.714583],[25.93125,63.71875],[25.927083,63.71875],[25.927083,63.714583]]]},"properties":{"radiance":8.31}},{"type":"Feature","geometry":{"type":"Polygon","coordinates":[[[25.922917,63.710417],[25.927083,63.710417],[25.927083,63.714583],[25.922917,63.714583],[25.922917,63.710417]]]},"properties":{"radiance":9.72}},{"type":"Feature","geometry":{"type":"Polygon","coordinates":[[[25.927083,63.710417],[25.93125,63.710417],[25.93125,63.714583],[25.927083,63.714583],[25.927083,63.710417]]]},"properties":{"radiance":5.61}},{"type":"Feature","geometry":{"type":"Polygon","coordinates":[[[25.93125,63.710417],[25.935417,63.710417],[25.935417,63.714583],[25.93125,63.714583],[25.93125,63.710417]]]},"properties":{"radiance":6.43}},{"type":"Feature","geometry":{"type":"Polygon","coordinates":[[[25.935417,63.710417],[25.939583,63.710417],[25.939583,63.714583],[25.935417,63.714583],[25.935417,63.710417]]]},"properties":{"radiance":10.31}},{"type":"Feature","geometry":{"type":"Polygon","coordinates":[[[25.939583,63.710417],[25.94375,63.710417],[25.94375,63.714583],[25.939583,63.714583],[25.939583,63.710417]]]},"properties":{"radiance":9.53}},{"type":"Feature","geometry":{"type":"Polygon","coordinates":[[[25.93125,63.70625],[25.935417,63.70625],[25.935417,63.710417],[25.93125,63.710417],[25.93125,63.70625]]]},"properties":{"radiance":5.39}},{"type":"Feature","geometry":{"type":"Polygon","coordinates":[[[25.935417,63.70625],[25.939583,63.70625],[25.939583,63.710417],[25.935417,63.710417],[25.935417,63.70625]]]},"properties":{"radiance":5.39}},{"type":"Feature","geometry":{"type":"Polygon","coordinates":[[[25.939583,63.70625],[25.94375,63.70625],[25.94375,63.710417],[25.939583,63.710417],[25.939583,63.70625]]]},"properties":{"radiance":7.4}},{"type":"Feature","geometry":{"type":"Polygon","coordinates":[[[25.94375,63.70625],[25.947917,63.70625],[25.947917,63.710417],[25.94375,63.710417],[25.94375,63.70625]]]},"properties":{"radiance":5.26}},{"type":"Feature","geometry":{"type":"Polygon","coordinates":[[[25.947917,63.70625],[25.952083,63.70625],[25.952083,63.710417],[25.947917,63.710417],[25.947917,63.70625]]]},"properties":{"radiance":5.6}},{"type":"Feature","geometry":{"type":"Polygon","coordinates":[[[25.947917,63.702083],[25.952083,63.702083],[25.952083,63.70625],[25.947917,63.70625],[25.947917,63.702083]]]},"properties":{"radiance":5.45}},{"type":"Feature","geometry":{"type":"Polygon","coordinates":[[[25.952083,63.702083],[25.95625,63.702083],[25.95625,63.70625],[25.952083,63.70625],[25.952083,63.702083]]]},"properties":{"radiance":6.5}},{"type":"Feature","geometry":{"type":"Polygon","coordinates":[[[25.95625,63.702083],[25.960417,63.702083],[25.960417,63.70625],[25.95625,63.70625],[25.95625,63.702083]]]},"properties":{"radiance":5.9}},{"type":"Feature","geometry":{"type":"Polygon","coordinates":[[[25.960417,63.702083],[25.964583,63.702083],[25.964583,63.70625],[25.960417,63.70625],[25.960417,63.702083]]]},"properties":{"radiance":5.62}},{"type":"Feature","geometry":{"type":"Polygon","coordinates":[[[25.960417,63.697917],[25.964583,63.697917],[25.964583,63.702083],[25.960417,63.702083],[25.960417,63.697917]]]},"properties":{"radiance":5.36}},{"type":"Feature","geometry":{"type":"Polygon","coordinates":[[[25.964583,63.697917],[25.96875,63.697917],[25.96875,63.702083],[25.964583,63.702083],[25.964583,63.697917]]]},"properties":{"radiance":5.74}},{"type":"Feature","geometry":{"type":"Polygon","coordinates":[[[25.960417,63.689583],[25.964583,63.689583],[25.964583,63.69375],[25.960417,63.69375],[25.960417,63.689583]]]},"properties":{"radiance":6.32}},{"type":"Feature","geometry":{"type":"Polygon","coordinates":[[[25.96875,63.689583],[25.972917,63.689583],[25.972917,63.69375],[25.96875,63.69375],[25.96875,63.689583]]]},"properties":{"radiance":6.3}},{"type":"Feature","geometry":{"type":"Polygon","coordinates":[[[25.972917,63.689583],[25.977083,63.689583],[25.977083,63.69375],[25.972917,63.69375],[25.972917,63.689583]]]},"properties":{"radiance":8.37}},{"type":"Feature","geometry":{"type":"Polygon","coordinates":[[[25.98125,63.689583],[25.985417,63.689583],[25.985417,63.69375],[25.98125,63.69375],[25.98125,63.689583]]]},"properties":{"radiance":9.8}},{"type":"Feature","geometry":{"type":"Polygon","coordinates":[[[25.95625,63.685417],[25.960417,63.685417],[25.960417,63.689583],[25.95625,63.689583],[25.95625,63.685417]]]},"properties":{"radiance":12.9}},{"type":"Feature","geometry":{"type":"Polygon","coordinates":[[[25.960417,63.685417],[25.964583,63.685417],[25.964583,63.689583],[25.960417,63.689583],[25.960417,63.685417]]]},"properties":{"radiance":12.01}},{"type":"Feature","geometry":{"type":"Polygon","coordinates":[[[25.964583,63.685417],[25.96875,63.685417],[25.96875,63.689583],[25.964583,63.689583],[25.964583,63.685417]]]},"properties":{"radiance":9.78}},{"type":"Feature","geometry":{"type":"Polygon","coordinates":[[[25.96875,63.685417],[25.972917,63.685417],[25.972917,63.689583],[25.96875,63.689583],[25.96875,63.685417]]]},"properties":{"radiance":14.86}},{"type":"Feature","geometry":{"type":"Polygon","coordinates":[[[25.972917,63.685417],[25.977083,63.685417],[25.977083,63.689583],[25.972917,63.689583],[25.972917,63.685417]]]},"properties":{"radiance":12.65}},{"type":"Feature","geometry":{"type":"Polygon","coordinates":[[[25.977083,63.685417],[25.98125,63.685417],[25.98125,63.689583],[25.977083,63.689583],[25.977083,63.685417]]]},"properties":{"radiance":12.68}},{"type":"Feature","geometry":{"type":"Polygon","coordinates":[[[25.98125,63.685417],[25.985417,63.685417],[25.985417,63.689583],[25.98125,63.689583],[25.98125,63.685417]]]},"properties":{"radiance":14.12}},{"type":"Feature","geometry":{"type":"Polygon","coordinates":[[[25.985417,63.685417],[25.989583,63.685417],[25.989583,63.689583],[25.985417,63.689583],[25.985417,63.685417]]]},"properties":{"radiance":6.18}},{"type":"Feature","geometry":{"type":"Polygon","coordinates":[[[25.94375,63.68125],[25.947917,63.68125],[25.947917,63.685417],[25.94375,63.685417],[25.94375,63.68125]]]},"properties":{"radiance":6.52}},{"type":"Feature","geometry":{"type":"Polygon","coordinates":[[[25.947917,63.68125],[25.952083,63.68125],[25.952083,63.685417],[25.947917,63.685417],[25.947917,63.68125]]]},"properties":{"radiance":6.21}},{"type":"Feature","geometry":{"type":"Polygon","coordinates":[[[25.952083,63.68125],[25.95625,63.68125],[25.95625,63.685417],[25.952083,63.685417],[25.952083,63.68125]]]},"properties":{"radiance":6.91}},{"type":"Feature","geometry":{"type":"Polygon","coordinates":[[[25.95625,63.68125],[25.960417,63.68125],[25.960417,63.685417],[25.95625,63.685417],[25.95625,63.68125]]]},"properties":{"radiance":15.3}},{"type":"Feature","geometry":{"type":"Polygon","coordinates":[[[25.960417,63.68125],[25.964583,63.68125],[25.964583,63.685417],[25.960417,63.685417],[25.960417,63.68125]]]},"properties":{"radiance":15.41}},{"type":"Feature","geometry":{"type":"Polygon","coordinates":[[[25.964583,63.68125],[25.96875,63.68125],[25.96875,63.685417],[25.964583,63.685417],[25.964583,63.68125]]]},"properties":{"radiance":15.08}},{"type":"Feature","geometry":{"type":"Polygon","coordinates":[[[25.96875,63.68125],[25.972917,63.68125],[25.972917,63.685417],[25.96875,63.685417],[25.96875,63.68125]]]},"properties":{"radiance":29.35}},{"type":"Feature","geometry":{"type":"Polygon","coordinates":[[[25.972917,63.68125],[25.977083,63.68125],[25.977083,63.685417],[25.972917,63.685417],[25.972917,63.68125]]]},"properties":{"radiance":32.48}},{"type":"Feature","geometry":{"type":"Polygon","coordinates":[[[25.977083,63.68125],[25.98125,63.68125],[25.98125,63.685417],[25.977083,63.685417],[25.977083,63.68125]]]},"properties":{"radiance":32.62}},{"type":"Feature","geometry":{"type":"Polygon","coordinates":[[[25.98125,63.68125],[25.985417,63.68125],[25.985417,63.685417],[25.98125,63.685417],[25.98125,63.68125]]]},"properties":{"radiance":11.25}},{"type":"Feature","geometry":{"type":"Polygon","coordinates":[[[25.985417,63.68125],[25.989583,63.68125],[25.989583,63.685417],[25.985417,63.685417],[25.985417,63.68125]]]},"properties":{"radiance":7.47}},{"type":"Feature","geometry":{"type":"Polygon","coordinates":[[[25.99375,63.68125],[25.997917,63.68125],[25.997917,63.685417],[25.99375,63.685417],[25.99375,63.68125]]]},"properties":{"radiance":6}},{"type":"Feature","geometry":{"type":"Polygon","coordinates":[[[25.947917,63.677083],[25.952083,63.677083],[25.952083,63.68125],[25.947917,63.68125],[25.947917,63.677083]]]},"properties":{"radiance":5.53}},{"type":"Feature","geometry":{"type":"Polygon","coordinates":[[[25.964583,63.677083],[25.96875,63.677083],[25.96875,63.68125],[25.964583,63.68125],[25.964583,63.677083]]]},"properties":{"radiance":16.58}},{"type":"Feature","geometry":{"type":"Polygon","coordinates":[[[25.96875,63.677083],[25.972917,63.677083],[25.972917,63.68125],[25.96875,63.68125],[25.96875,63.677083]]]},"properties":{"radiance":15.33}},{"type":"Feature","geometry":{"type":"Polygon","coordinates":[[[25.972917,63.677083],[25.977083,63.677083],[25.977083,63.68125],[25.972917,63.68125],[25.972917,63.677083]]]},"properties":{"radiance":6.18}},{"type":"Feature","geometry":{"type":"Polygon","coordinates":[[[25.977083,63.677083],[25.98125,63.677083],[25.98125,63.68125],[25.977083,63.68125],[25.977083,63.677083]]]},"properties":{"radiance":5.92}},{"type":"Feature","geometry":{"type":"Polygon","coordinates":[[[25.95625,63.672917],[25.960417,63.672917],[25.960417,63.677083],[25.95625,63.677083],[25.95625,63.672917]]]},"properties":{"radiance":5.36}},{"type":"Feature","geometry":{"type":"Polygon","coordinates":[[[25.964583,63.672917],[25.96875,63.672917],[25.96875,63.677083],[25.964583,63.677083],[25.964583,63.672917]]]},"properties":{"radiance":10.92}},{"type":"Feature","geometry":{"type":"Polygon","coordinates":[[[26.027083,63.672917],[26.03125,63.672917],[26.03125,63.677083],[26.027083,63.677083],[26.027083,63.672917]]]},"properties":{"radiance":5.1}},{"type":"Feature","geometry":{"type":"Polygon","coordinates":[[[26.03125,63.66875],[26.035417,63.66875],[26.035417,63.672917],[26.03125,63.672917],[26.03125,63.66875]]]},"properties":{"radiance":5.92}},{"type":"Feature","geometry":{"type":"Polygon","coordinates":[[[26.03125,63.664583],[26.035417,63.664583],[26.035417,63.66875],[26.03125,63.66875],[26.03125,63.664583]]]},"properties":{"radiance":5.48}},{"type":"Feature","geometry":{"type":"Polygon","coordinates":[[[26.035417,63.664583],[26.039583,63.664583],[26.039583,63.66875],[26.035417,63.66875],[26.035417,63.664583]]]},"properties":{"radiance":14.46}},{"type":"Feature","geometry":{"type":"Polygon","coordinates":[[[26.039583,63.664583],[26.04375,63.664583],[26.04375,63.66875],[26.039583,63.66875],[26.039583,63.664583]]]},"properties":{"radiance":13.26}},{"type":"Feature","geometry":{"type":"Polygon","coordinates":[[[26.04375,63.664583],[26.047917,63.664583],[26.047917,63.66875],[26.04375,63.66875],[26.04375,63.664583]]]},"properties":{"radiance":10.4}},{"type":"Feature","geometry":{"type":"Polygon","coordinates":[[[26.03125,63.660417],[26.035417,63.660417],[26.035417,63.664583],[26.03125,63.664583],[26.03125,63.660417]]]},"properties":{"radiance":53.17}},{"type":"Feature","geometry":{"type":"Polygon","coordinates":[[[26.035417,63.660417],[26.039583,63.660417],[26.039583,63.664583],[26.035417,63.664583],[26.035417,63.660417]]]},"properties":{"radiance":47.45}},{"type":"Feature","geometry":{"type":"Polygon","coordinates":[[[26.039583,63.660417],[26.04375,63.660417],[26.04375,63.664583],[26.039583,63.664583],[26.039583,63.660417]]]},"properties":{"radiance":43.92}},{"type":"Feature","geometry":{"type":"Polygon","coordinates":[[[26.04375,63.660417],[26.047917,63.660417],[26.047917,63.664583],[26.04375,63.664583],[26.04375,63.660417]]]},"properties":{"radiance":10.98}},{"type":"Feature","geometry":{"type":"Polygon","coordinates":[[[26.047917,63.660417],[26.052083,63.660417],[26.052083,63.664583],[26.047917,63.664583],[26.047917,63.660417]]]},"properties":{"radiance":6.14}},{"type":"Feature","geometry":{"type":"Polygon","coordinates":[[[26.027083,63.65625],[26.03125,63.65625],[26.03125,63.660417],[26.027083,63.660417],[26.027083,63.65625]]]},"properties":{"radiance":8.54}},{"type":"Feature","geometry":{"type":"Polygon","coordinates":[[[26.03125,63.65625],[26.035417,63.65625],[26.035417,63.660417],[26.03125,63.660417],[26.03125,63.65625]]]},"properties":{"radiance":9.03}},{"type":"Feature","geometry":{"type":"Polygon","coordinates":[[[26.035417,63.65625],[26.039583,63.65625],[26.039583,63.660417],[26.035417,63.660417],[26.035417,63.65625]]]},"properties":{"radiance":14.52}},{"type":"Feature","geometry":{"type":"Polygon","coordinates":[[[26.039583,63.65625],[26.04375,63.65625],[26.04375,63.660417],[26.039583,63.660417],[26.039583,63.65625]]]},"properties":{"radiance":13.91}},{"type":"Feature","geometry":{"type":"Polygon","coordinates":[[[26.04375,63.65625],[26.047917,63.65625],[26.047917,63.660417],[26.04375,63.660417],[26.04375,63.65625]]]},"properties":{"radiance":8.4}},{"type":"Feature","geometry":{"type":"Polygon","coordinates":[[[24.877083,63.61875],[24.88125,63.61875],[24.88125,63.622917],[24.877083,63.622917],[24.877083,63.61875]]]},"properties":{"radiance":5.01}},{"type":"Feature","geometry":{"type":"Polygon","coordinates":[[[24.88125,63.61875],[24.885417,63.61875],[24.885417,63.622917],[24.88125,63.622917],[24.88125,63.61875]]]},"properties":{"radiance":5.74}},{"type":"Feature","geometry":{"type":"Polygon","coordinates":[[[24.885417,63.61875],[24.889583,63.61875],[24.889583,63.622917],[24.885417,63.622917],[24.885417,63.61875]]]},"properties":{"radiance":6.44}},{"type":"Feature","geometry":{"type":"Polygon","coordinates":[[[24.889583,63.61875],[24.89375,63.61875],[24.89375,63.622917],[24.889583,63.622917],[24.889583,63.61875]]]},"properties":{"radiance":5.46}},{"type":"Feature","geometry":{"type":"Polygon","coordinates":[[[24.90625,63.614583],[24.910417,63.614583],[24.910417,63.61875],[24.90625,63.61875],[24.90625,63.614583]]]},"properties":{"radiance":5.74}},{"type":"Feature","geometry":{"type":"Polygon","coordinates":[[[24.914583,63.614583],[24.91875,63.614583],[24.91875,63.61875],[24.914583,63.61875],[24.914583,63.614583]]]},"properties":{"radiance":6.02}},{"type":"Feature","geometry":{"type":"Polygon","coordinates":[[[24.90625,63.610417],[24.910417,63.610417],[24.910417,63.614583],[24.90625,63.614583],[24.90625,63.610417]]]},"properties":{"radiance":6.91}},{"type":"Feature","geometry":{"type":"Polygon","coordinates":[[[24.910417,63.610417],[24.914583,63.610417],[24.914583,63.614583],[24.910417,63.614583],[24.910417,63.610417]]]},"properties":{"radiance":7.12}},{"type":"Feature","geometry":{"type":"Polygon","coordinates":[[[24.914583,63.610417],[24.91875,63.610417],[24.91875,63.614583],[24.914583,63.614583],[24.914583,63.610417]]]},"properties":{"radiance":7.59}},{"type":"Feature","geometry":{"type":"Polygon","coordinates":[[[24.91875,63.610417],[24.922917,63.610417],[24.922917,63.614583],[24.91875,63.614583],[24.91875,63.610417]]]},"properties":{"radiance":7.23}},{"type":"Feature","geometry":{"type":"Polygon","coordinates":[[[24.922917,63.610417],[24.927083,63.610417],[24.927083,63.614583],[24.922917,63.614583],[24.922917,63.610417]]]},"properties":{"radiance":6.47}},{"type":"Feature","geometry":{"type":"Polygon","coordinates":[[[24.927083,63.610417],[24.93125,63.610417],[24.93125,63.614583],[24.927083,63.614583],[24.927083,63.610417]]]},"properties":{"radiance":5.21}},{"type":"Feature","geometry":{"type":"Polygon","coordinates":[[[24.93125,63.610417],[24.935417,63.610417],[24.935417,63.614583],[24.93125,63.614583],[24.93125,63.610417]]]},"properties":{"radiance":5.78}},{"type":"Feature","geometry":{"type":"Polygon","coordinates":[[[24.91875,63.60625],[24.922917,63.60625],[24.922917,63.610417],[24.91875,63.610417],[24.91875,63.60625]]]},"properties":{"radiance":7.3}},{"type":"Feature","geometry":{"type":"Polygon","coordinates":[[[24.922917,63.60625],[24.927083,63.60625],[24.927083,63.610417],[24.922917,63.610417],[24.922917,63.60625]]]},"properties":{"radiance":8.04}},{"type":"Feature","geometry":{"type":"Polygon","coordinates":[[[24.927083,63.60625],[24.93125,63.60625],[24.93125,63.610417],[24.927083,63.610417],[24.927083,63.60625]]]},"properties":{"radiance":7.54}},{"type":"Feature","geometry":{"type":"Polygon","coordinates":[[[24.93125,63.60625],[24.935417,63.60625],[24.935417,63.610417],[24.93125,63.610417],[24.93125,63.60625]]]},"properties":{"radiance":7.67}},{"type":"Feature","geometry":{"type":"Polygon","coordinates":[[[24.935417,63.60625],[24.939583,63.60625],[24.939583,63.610417],[24.935417,63.610417],[24.935417,63.60625]]]},"properties":{"radiance":7.54}},{"type":"Feature","geometry":{"type":"Polygon","coordinates":[[[24.939583,63.60625],[24.94375,63.60625],[24.94375,63.610417],[24.939583,63.610417],[24.939583,63.60625]]]},"properties":{"radiance":5.57}},{"type":"Feature","geometry":{"type":"Polygon","coordinates":[[[24.939583,63.602083],[24.94375,63.602083],[24.94375,63.60625],[24.939583,63.60625],[24.939583,63.602083]]]},"properties":{"radiance":5.18}},{"type":"Feature","geometry":{"type":"Polygon","coordinates":[[[24.94375,63.602083],[24.947917,63.602083],[24.947917,63.60625],[24.94375,63.60625],[24.94375,63.602083]]]},"properties":{"radiance":6.45}},{"type":"Feature","geometry":{"type":"Polygon","coordinates":[[[24.947917,63.602083],[24.952083,63.602083],[24.952083,63.60625],[24.947917,63.60625],[24.947917,63.602083]]]},"properties":{"radiance":5.26}},{"type":"Feature","geometry":{"type":"Polygon","coordinates":[[[24.952083,63.602083],[24.95625,63.602083],[24.95625,63.60625],[24.952083,63.60625],[24.952083,63.602083]]]},"properties":{"radiance":5.58}},{"type":"Feature","geometry":{"type":"Polygon","coordinates":[[[24.95625,63.602083],[24.960417,63.602083],[24.960417,63.60625],[24.95625,63.60625],[24.95625,63.602083]]]},"properties":{"radiance":5.13}},{"type":"Feature","geometry":{"type":"Polygon","coordinates":[[[24.964583,63.597917],[24.96875,63.597917],[24.96875,63.602083],[24.964583,63.602083],[24.964583,63.597917]]]},"properties":{"radiance":5.02}},{"type":"Feature","geometry":{"type":"Polygon","coordinates":[[[24.96875,63.597917],[24.972917,63.597917],[24.972917,63.602083],[24.96875,63.602083],[24.96875,63.597917]]]},"properties":{"radiance":5.09}}]}