{"type":"FeatureCollection","features":[{"type":"Feature","geometry":{"type":"Polygon","coordinates":[[[22.427083,62.65625],[22.43125,62.65625],[22.43125,62.660417],[22.427083,62.660417],[22.427083,62.65625]]]},"properties":{"radiance":5.38}},{"type":"Feature","geometry":{"type":"Polygon","coordinates":[[[22.43125,62.65625],[22.435417,62.65625],[22.435417,62.660417],[22.43125,62.660417],[22.43125,62.65625]]]},"properties":{"radiance":5.82}},{"type":"Feature","geometry":{"type":"Polygon","coordinates":[[[22.435417,62.65625],[22.439583,62.65625],[22.439583,62.660417],[22.435417,62.660417],[22.435417,62.65625]]]},"properties":{"radiance":5.78}},{"type":"Feature","geometry":{"type":"Polygon","coordinates":[[[22.43125,62.652083],[22.435417,62.652083],[22.435417,62.65625],[22.43125,62.65625],[22.43125,62.652083]]]},"properties":{"radiance":5.91}},{"type":"Feature","geometry":{"type":"Polygon","coordinates":[[[22.427083,62.647917],[22.43125,62.647917],[22.43125,62.652083],[22.427083,62.652083],[22.427083,62.647917]]]},"properties":{"radiance":5.53}},{"type":"Feature","geometry":{"type":"Polygon","coordinates":[[[22.43125,62.647917],[22.435417,62.647917],[22.435417,62.652083],[22.43125,62.652083],[22.43125,62.647917]]]},"properties":{"radiance":5.02}},{"type":"Feature","geometry":{"type":"Polygon","coordinates":[[[22.422917,62.64375],[22.427083,62.64375],[22.427083,62.647917],[22.422917,62.647917],[22.422917,62.64375]]]},"properties":{"radiance":6.28}},{"type":"Feature","geometry":{"type":"Polygon","coordinates":[[[22.427083,62.64375],[22.43125,62.64375],[22.43125,62.647917],[22.427083,62.647917],[22.427083,62.64375]]]},"properties":{"radiance":5.63}},{"type":"Feature","geometry":{"type":"Polygon","coordinates":[[[22.422917,62.639583],[22.427083,62.639583],[22.427083,62.64375],[22.422917,62.64375],[22.422917,62.639583]]]},"properties":{"radiance":5.24}},{"type":"Feature","geometry":{"type":"Polygon","coordinates":[[[22.377083,62.63125],[22.38125,62.63125],[22.38125,62.635417],[22.377083,62.635417],[22.377083,62.63125]]]},"properties":{"radiance":10.55}},{"type":"Feature","geometry":{"type":"Polygon","coordinates":[[[22.38125,62.63125],[22.385417,62.63125],[22.385417,62.635417],[22.38125,62.635417],[22.38125,62.63125]]]},"properties":{"radiance":6.94}},{"type":"Feature","geometry":{"type":"Polygon","coordinates":[[[22.385417,62.63125],[22.389583,62.63125],[22.389583,62.635417],[22.385417,62.635417],[22.385417,62.63125]]]},"properties":{"radiance":6.06}},{"type":"Feature","geometry":{"type":"Polygon","coordinates":[[[22.389583,62.63125],[22.39375,62.63125],[22.39375,62.635417],[22.389583,62.635417],[22.389583,62.63125]]]},"properties":{"radiance":6.02}},{"type":"Feature","geometry":{"type":"Polygon","coordinates":[[[22.39375,62.63125],[22.397917,62.63125],[22.397917,62.635417],[22.39375,62.635417],[22.39375,62.63125]]]},"properties":{"radiance":6.12}},{"type":"Feature","geometry":{"type":"Polygon","coordinates":[[[22.364583,62.627083],[22.36875,62.627083],[22.36875,62.63125],[22.364583,62.63125],[22.364583,62.627083]]]},"properties":{"radiance":5.12}},{"type":"Feature","geometry":{"type":"Polygon","coordinates":[[[22.36875,62.627083],[22.372917,62.627083],[22.372917,62.63125],[22.36875,62.63125],[22.36875,62.627083]]]},"properties":{"radiance":8.22}},{"type":"Feature","geometry":{"type":"Polygon","coordinates":[[[22.372917,62.627083],[22.377083,62.627083],[22.377083,62.63125],[22.372917,62.63125],[22.372917,62.627083]]]},"properties":{"radiance":6.63}},{"type":"Feature","geometry":{"type":"Polygon","coordinates":[[[22.377083,62.627083],[22.38125,62.627083],[22.38125,62.63125],[22.377083,62.63125],[22.377083,62.627083]]]},"properties":{"radiance":8.07}},{"type":"Feature","geometry":{"type":"Polygon","coordinates":[[[22.38125,62.627083],[22.385417,62.627083],[22.385417,62.63125],[22.38125,62.63125],[22.38125,62.627083]]]},"properties":{"radiance":9.37}},{"type":"Feature","geometry":{"type":"Polygon","coordinates":[[[22.385417,62.627083],[22.389583,62.627083],[22.389583,62.63125],[22.385417,62.63125],[22.385417,62.627083]]]},"properties":{"radiance":10.24}},{"type":"Feature","geometry":{"type":"Polygon","coordinates":[[[22.389583,62.627083],[22.39375,62.627083],[22.39375,62.63125],[22.389583,62.63125],[22.389583,62.627083]]]},"properties":{"radiance":13.67}},{"type":"Feature","geometry":{"type":"Polygon","coordinates":[[[22.39375,62.627083],[22.397917,62.627083],[22.397917,62.63125],[22.39375,62.63125],[22.39375,62.627083]]]},"properties":{"radiance":13.32}},{"type":"Feature","geometry":{"type":"Polygon","coordinates":[[[22.397917,62.627083],[22.402083,62.627083],[22.402083,62.63125],[22.397917,62.63125],[22.397917,62.627083]]]},"properties":{"radiance":11.06}},{"type":"Feature","geometry":{"type":"Polygon","coordinates":[[[22.402083,62.627083],[22.40625,62.627083],[22.40625,62.63125],[22.402083,62.63125],[22.402083,62.627083]]]},"properties":{"radiance":14.69}},{"type":"Feature","geometry":{"type":"Polygon","coordinates":[[[22.40625,62.627083],[22.410417,62.627083],[22.410417,62.63125],[22.40625,62.63125],[22.40625,62.627083]]]},"properties":{"radiance":5.8}},{"type":"Feature","geometry":{"type":"Polygon","coordinates":[[[22.364583,62.622917],[22.36875,62.622917],[22.36875,62.627083],[22.364583,62.627083],[22.364583,62.622917]]]},"properties":{"radiance":7.02}},{"type":"Feature","geometry":{"type":"Polygon","coordinates":[[[22.36875,62.622917],[22.372917,62.622917],[22.372917,62.627083],[22.36875,62.627083],[22.36875,62.622917]]]},"properties":{"radiance":9.35}},{"type":"Feature","geometry":{"type":"Polygon","coordinates":[[[22.372917,62.622917],[22.377083,62.622917],[22.377083,62.627083],[22.372917,62.627083],[22.372917,62.622917]]]},"properties":{"radiance":11.1}},{"type":"Feature","geometry":{"type":"Polygon","coordinates":[[[22.377083,62.622917],[22.38125,62.622917],[22.38125,62.627083],[22.377083,62.627083],[22.377083,62.622917]]]},"properties":{"radiance":19.21}},{"type":"Feature","geometry":{"type":"Polygon","coordinates":[[[22.38125,62.622917],[22.385417,62.622917],[22.385417,62.627083],[22.38125,62.627083],[22.38125,62.622917]]]},"properties":{"radiance":21.23}},{"type":"Feature","geometry":{"type":"Polygon","coordinates":[[[22.385417,62.622917],[22.389583,62.622917],[22.389583,62.627083],[22.385417,62.627083],[22.385417,62.622917]]]},"properties":{"radiance":26.37}},{"type":"Feature","geometry":{"type":"Polygon","coordinates":[[[22.389583,62.622917],[22.39375,62.622917],[22.39375,62.627083],[22.389583,62.627083],[22.389583,62.622917]]]},"properties":{"radiance":25.13}},{"type":"Feature","geometry":{"type":"Polygon","coordinates":[[[22.39375,62.622917],[22.397917,62.622917],[22.397917,62.627083],[22.39375,62.627083],[22.39375,62.622917]]]},"properties":{"radiance":24.93}},{"type":"Feature","geometry":{"type":"Polygon","coordinates":[[[22.397917,62.622917],[22.402083,62.622917],[22.402083,62.627083],[22.397917,62.627083],[22.397917,62.622917]]]},"properties":{"radiance":19.23}},{"type":"Feature","geometry":{"type":"Polygon","coordinates":[[[22.402083,62.622917],[22.40625,62.622917],[22.40625,62.627083],[22.402083,62.627083],[22.402083,62.622917]]]},"properties":{"radiance":16.28}},{"type":"Feature","geometry":{"type":"Polygon","coordinates":[[[22.40625,62.622917],[22.410417,62.622917],[22.410417,62.627083],[22.40625,62.627083],[22.40625,62.622917]]]},"properties":{"radiance":28.32}},{"type":"Feature","geometry":{"type":"Polygon","coordinates":[[[22.410417,62.622917],[22.414583,62.622917],[22.414583,62.627083],[22.410417,62.627083],[22.410417,62.622917]]]},"properties":{"radiance":7.59}},{"type":"Feature","geometry":{"type":"Polygon","coordinates":[[[22.414583,62.622917],[22.41875,62.622917],[22.41875,62.627083],[22.414583,62.627083],[22.414583,62.622917]]]},"properties":{"radiance":40.49}},{"type":"Feature","geometry":{"type":"Polygon","coordinates":[[[22.41875,62.622917],[22.422917,62.622917],[22.422917,62.627083],[22.41875,62.627083],[22.41875,62.622917]]]},"properties":{"radiance":8.25}},{"type":"Feature","geometry":{"type":"Polygon","coordinates":[[[22.422917,62.622917],[22.427083,62.622917],[22.427083,62.627083],[22.422917,62.627083],[22.422917,62.622917]]]},"properties":{"radiance":6.57}},{"type":"Feature","geometry":{"type":"Polygon","coordinates":[[[22.427083,62.622917],[22.43125,62.622917],[22.43125,62.627083],[22.427083,62.627083],[22.427083,62.622917]]]},"properties":{"radiance":5.48}},{"type":"Feature","geometry":{"type":"Polygon","coordinates":[[[22.360417,62.61875],[22.364583,62.61875],[22.364583,62.622917],[22.360417,62.622917],[22.360417,62.61875]]]},"properties":{"radiance":5.73}},{"type":"Feature","geometry":{"type":"Polygon","coordinates":[[[22.364583,62.61875],[22.36875,62.61875],[22.36875,62.622917],[22.364583,62.622917],[22.364583,62.61875]]]},"properties":{"radiance":8.46}},{"type":"Feature","geometry":{"type":"Polygon","coordinates":[[[22.36875,62.61875],[22.372917,62.61875],[22.372917,62.622917],[22.36875,62.622917],[22.36875,62.61875]]]},"properties":{"radiance":8.87}},{"type":"Feature","geometry":{"type":"Polygon","coordinates":[[[22.372917,62.61875],[22.377083,62.61875],[22.377083,62.622917],[22.372917,62.622917],[22.372917,62.61875]]]},"properties":{"radiance":9.55}},{"type":"Feature","geometry":{"type":"Polygon","coordinates":[[[22.377083,62.61875],[22.38125,62.61875],[22.38125,62.622917],[22.377083,62.622917],[22.377083,62.61875]]]},"properties":{"radiance":10.4}},{"type":"Feature","geometry":{"type":"Polygon","coordinates":[[[22.38125,62.61875],[22.385417,62.61875],[22.385417,62.622917],[22.38125,62.622917],[22.38125,62.61875]]]},"properties":{"radiance":17.33}},{"type":"Feature","geometry":{"type":"Polygon","coordinates":[[[22.385417,62.61875],[22.389583,62.61875],[22.389583,62.622917],[22.385417,62.622917],[22.385417,62.61875]]]},"properties":{"radiance":23.45}},{"type":"Feature","geometry":{"type":"Polygon","coordinates":[[[22.389583,62.61875],[22.39375,62.61875],[22.39375,62.622917],[22.389583,62.622917],[22.389583,62.61875]]]},"properties":{"radiance":27.57}},{"type":"Feature","geometry":{"type":"Polygon","coordinates":[[[22.39375,62.61875],[22.397917,62.61875],[22.397917,62.622917],[22.39375,62.622917],[22.39375,62.61875]]]},"properties":{"radiance":53.89}},{"type":"Feature","geometry":{"type":"Polygon","coordinates":[[[22.397917,62.61875],[22.402083,62.61875],[22.402083,62.622917],[22.397917,62.622917],[22.397917,62.61875]]]},"properties":{"radiance":39.44}},{"type":"Feature","geometry":{"type":"Polygon","coordinates":[[[22.402083,62.61875],[22.40625,62.61875],[22.40625,62.622917],[22.402083,62.622917],[22.402083,62.61875]]]},"properties":{"radiance":23.01}},{"type":"Feature","geometry":{"type":"Polygon","coordinates":[[[22.40625,62.61875],[22.410417,62.61875],[22.410417,62.622917],[22.40625,62.622917],[22.40625,62.61875]]]},"properties":{"radiance":43.04}},{"type":"Feature","geometry":{"type":"Polygon","coordinates":[[[22.410417,62.61875],[22.414583,62.61875],[22.414583,62.622917],[22.410417,62.622917],[22.410417,62.61875]]]},"properties":{"radiance":18.2}},{"type":"Feature","geometry":{"type":"Polygon","coordinates":[[[22.414583,62.61875],[22.41875,62.61875],[22.41875,62.622917],[22.414583,62.622917],[22.414583,62.61875]]]},"properties":{"radiance":15.62}},{"type":"Feature","geometry":{"type":"Polygon","coordinates":[[[22.41875,62.61875],[22.422917,62.61875],[22.422917,62.622917],[22.41875,62.622917],[22.41875,62.61875]]]},"properties":{"radiance":14.09}},{"type":"Feature","geometry":{"type":"Polygon","coordinates":[[[22.422917,62.61875],[22.427083,62.61875],[22.427083,62.622917],[22.422917,62.622917],[22.422917,62.61875]]]},"properties":{"radiance":13.07}},{"type":"Feature","geometry":{"type":"Polygon","coordinates":[[[22.427083,62.61875],[22.43125,62.61875],[22.43125,62.622917],[22.427083,62.622917],[22.427083,62.61875]]]},"properties":{"radiance":6.17}},{"type":"Feature","geometry":{"type":"Polygon","coordinates":[[[22.35625,62.614583],[22.360417,62.614583],[22.360417,62.61875],[22.35625,62.61875],[22.35625,62.614583]]]},"properties":{"radiance":5}},{"type":"Feature","geometry":{"type":"Polygon","coordinates":[[[22.360417,62.614583],[22.364583,62.614583],[22.364583,62.61875],[22.360417,62.61875],[22.360417,62.614583]]]},"properties":{"radiance":6.81}},{"type":"Feature","geometry":{"type":"Polygon","coordinates":[[[22.364583,62.614583],[22.36875,62.614583],[22.36875,62.61875],[22.364583,62.61875],[22.364583,62.614583]]]},"properties":{"radiance":8.07}},{"type":"Feature","geometry":{"type":"Polygon","coordinates":[[[22.36875,62.614583],[22.372917,62.614583],[22.372917,62.61875],[22.36875,62.61875],[22.36875,62.614583]]]},"properties":{"radiance":7.69}},{"type":"Feature","geometry":{"type":"Polygon","coordinates":[[[22.372917,62.614583],[22.377083,62.614583],[22.377083,62.61875],[22.372917,62.61875],[22.372917,62.614583]]]},"properties":{"radiance":9.68}},{"type":"Feature","geometry":{"type":"Polygon","coordinates":[[[22.377083,62.614583],[22.38125,62.614583],[22.38125,62.61875],[22.377083,62.61875],[22.377083,62.614583]]]},"properties":{"radiance":12.88}},{"type":"Feature","geometry":{"type":"Polygon","coordinates":[[[22.38125,62.614583],[22.385417,62.614583],[22.385417,62.61875],[22.38125,62.61875],[22.38125,62.614583]]]},"properties":{"radiance":16.3}},{"type":"Feature","geometry":{"type":"Polygon","coordinates":[[[22.385417,62.614583],[22.389583,62.614583],[22.389583,62.61875],[22.385417,62.61875],[22.385417,62.614583]]]},"properties":{"radiance":15.8}},{"type":"Feature","geometry":{"type":"Polygon","coordinates":[[[22.389583,62.614583],[22.39375,62.614583],[22.39375,62.61875],[22.389583,62.61875],[22.389583,62.614583]]]},"properties":{"radiance":56.38}},{"type":"Feature","geometry":{"type":"Polygon","coordinates":[[[22.39375,62.614583],[22.397917,62.614583],[22.397917,62.61875],[22.39375,62.61875],[22.39375,62.614583]]]},"properties":{"radiance":17.92}},{"type":"Feature","geometry":{"type":"Polygon","coordinates":[[[22.397917,62.614583],[22.402083,62.614583],[22.402083,62.61875],[22.397917,62.61875],[22.397917,62.614583]]]},"properties":{"radiance":26.32}},{"type":"Feature","geometry":{"type":"Polygon","coordinates":[[[22.402083,62.614583],[22.40625,62.614583],[22.40625,62.61875],[22.402083,62.61875],[22.402083,62.614583]]]},"properties":{"radiance":17.96}},{"type":"Feature","geometry":{"type":"Polygon","coordinates":[[[22.40625,62.614583],[22.410417,62.614583],[22.410417,62.61875],[22.40625,62.61875],[22.40625,62.614583]]]},"properties":{"radiance":15.29}},{"type":"Feature","geometry":{"type":"Polygon","coordinates":[[[22.410417,62.614583],[22.414583,62.614583],[22.414583,62.61875],[22.410417,62.61875],[22.410417,62.614583]]]},"properties":{"radiance":12.42}},{"type":"Feature","geometry":{"type":"Polygon","coordinates":[[[22.414583,62.614583],[22.41875,62.614583],[22.41875,62.61875],[22.414583,62.61875],[22.414583,62.614583]]]},"properties":{"radiance":15.51}},{"type":"Feature","geometry":{"type":"Polygon","coordinates":[[[22.41875,62.614583],[22.422917,62.614583],[22.422917,62.61875],[22.41875,62.61875],[22.41875,62.614583]]]},"properties":{"radiance":15.88}},{"type":"Feature","geometry":{"type":"Polygon","coordinates":[[[22.422917,62.614583],[22.427083,62.614583],[22.427083,62.61875],[22.422917,62.61875],[22.422917,62.614583]]]},"properties":{"radiance":11.08}},{"type":"Feature","geometry":{"type":"Polygon","coordinates":[[[22.427083,62.614583],[22.43125,62.614583],[22.43125,62.61875],[22.427083,62.61875],[22.427083,62.614583]]]},"properties":{"radiance":8.73}},{"type":"Feature","geometry":{"type":"Polygon","coordinates":[[[22.43125,62.614583],[22.435417,62.614583],[22.435417,62.61875],[22.43125,62.61875],[22.43125,62.614583]]]},"properties":{"radiance":8.69}},{"type":"Feature","geometry":{"type":"Polygon","coordinates":[[[22.435417,62.614583],[22.439583,62.614583],[22.439583,62.61875],[22.435417,62.61875],[22.435417,62.614583]]]},"properties":{"radiance":6.3}},{"type":"Feature","geometry":{"type":"Polygon","coordinates":[[[22.360417,62.610417],[22.364583,62.610417],[22.364583,62.614583],[22.360417,62.614583],[22.360417,62.610417]]]},"properties":{"radiance":6.1}},{"type":"Feature","geometry":{"type":"Polygon","coordinates":[[[22.364583,62.610417],[22.36875,62.610417],[22.36875,62.614583],[22.364583,62.614583],[22.364583,62.610417]]]},"properties":{"radiance":5.04}},{"type":"Feature","geometry":{"type":"Polygon","coordinates":[[[22.36875,62.610417],[22.372917,62.610417],[22.372917,62.614583],[22.36875,62.614583],[22.36875,62.610417]]]},"properties":{"radiance":5.03}},{"type":"Feature","geometry":{"type":"Polygon","coordinates":[[[22.372917,62.610417],[22.377083,62.610417],[22.377083,62.614583],[22.372917,62.614583],[22.372917,62.610417]]]},"properties":{"radiance":10.46}},{"type":"Feature","geometry":{"type":"Polygon","coordinates":[[[22.377083,62.610417],[22.38125,62.610417],[22.38125,62.614583],[22.377083,62.614583],[22.377083,62.610417]]]},"properties":{"radiance":11.12}},{"type":"Feature","geometry":{"type":"Polygon","coordinates":[[[22.38125,62.610417],[22.385417,62.610417],[22.385417,62.614583],[22.38125,62.614583],[22.38125,62.610417]]]},"properties":{"radiance":11.65}},{"type":"Feature","geometry":{"type":"Polygon","coordinates":[[[22.385417,62.610417],[22.389583,62.610417],[22.389583,62.614583],[22.385417,62.614583],[22.385417,62.610417]]]},"properties":{"radiance":13.72}},{"type":"Feature","geometry":{"type":"Polygon","coordinates":[[[22.389583,62.610417],[22.39375,62.610417],[22.39375,62.614583],[22.389583,62.614583],[22.389583,62.610417]]]},"properties":{"radiance":12.28}},{"type":"Feature","geometry":{"type":"Polygon","coordinates":[[[22.39375,62.610417],[22.397917,62.610417],[22.397917,62.614583],[22.39375,62.614583],[22.39375,62.610417]]]},"properties":{"radiance":10.51}},{"type":"Feature","geometry":{"type":"Polygon","coordinates":[[[22.397917,62.610417],[22.402083,62.610417],[22.402083,62.614583],[22.397917,62.614583],[22.397917,62.610417]]]},"properties":{"radiance":12.79}},{"type":"Feature","geometry":{"type":"Polygon","coordinates":[[[22.402083,62.610417],[22.40625,62.610417],[22.40625,62.614583],[22.402083,62.614583],[22.402083,62.610417]]]},"properties":{"radiance":13}},{"type":"Feature","geometry":{"type":"Polygon","coordinates":[[[22.40625,62.610417],[22.410417,62.610417],[22.410417,62.614583],[22.40625,62.614583],[22.40625,62.610417]]]},"properties":{"radiance":5.8}},{"type":"Feature","geometry":{"type":"Polygon","coordinates":[[[22.435417,62.610417],[22.439583,62.610417],[22.439583,62.614583],[22.435417,62.614583],[22.435417,62.610417]]]},"properties":{"radiance":5.75}},{"type":"Feature","geometry":{"type":"Polygon","coordinates":[[[22.439583,62.610417],[22.44375,62.610417],[22.44375,62.614583],[22.439583,62.614583],[22.439583,62.610417]]]},"properties":{"radiance":5.42}},{"type":"Feature","geometry":{"type":"Polygon","coordinates":[[[22.44375,62.610417],[22.447917,62.610417],[22.447917,62.614583],[22.44375,62.614583],[22.44375,62.610417]]]},"properties":{"radiance":5.38}},{"type":"Feature","geometry":{"type":"Polygon","coordinates":[[[22.36875,62.60625],[22.372917,62.60625],[22.372917,62.610417],[22.36875,62.610417],[22.36875,62.60625]]]},"properties":{"radiance":6.95}},{"type":"Feature","geometry":{"type":"Polygon","coordinates":[[[22.372917,62.60625],[22.377083,62.60625],[22.377083,62.610417],[22.372917,62.610417],[22.372917,62.60625]]]},"properties":{"radiance":9.31}},{"type":"Feature","geometry":{"type":"Polygon","coordinates":[[[22.377083,62.60625],[22.38125,62.60625],[22.38125,62.610417],[22.377083,62.610417],[22.377083,62.60625]]]},"properties":{"radiance":10.35}},{"type":"Feature","geometry":{"type":"Polygon","coordinates":[[[22.38125,62.60625],[22.385417,62.60625],[22.385417,62.610417],[22.38125,62.610417],[22.38125,62.60625]]]},"properties":{"radiance":10.54}},{"type":"Feature","geometry":{"type":"Polygon","coordinates":[[[22.385417,62.60625],[22.389583,62.60625],[22.389583,62.610417],[22.385417,62.610417],[22.385417,62.60625]]]},"properties":{"radiance":9.93}},{"type":"Feature","geometry":{"type":"Polygon","coordinates":[[[22.389583,62.60625],[22.39375,62.60625],[22.39375,62.610417],[22.389583,62.610417],[22.389583,62.60625]]]},"properties":{"radiance":5.88}},{"type":"Feature","geometry":{"type":"Polygon","coordinates":[[[22.39375,62.60625],[22.397917,62.60625],[22.397917,62.610417],[22.39375,62.610417],[22.39375,62.60625]]]},"properties":{"radiance":5.02}},{"type":"Feature","geometry":{"type":"Polygon","coordinates":[[[22.447917,62.60625],[22.452083,62.60625],[22.452083,62.610417],[22.447917,62.610417],[22.447917,62.60625]]]},"properties":{"radiance":6.75}},{"type":"Feature","geometry":{"type":"Polygon","coordinates":[[[22.452083,62.60625],[22.45625,62.60625],[22.45625,62.610417],[22.452083,62.610417],[22.452083,62.60625]]]},"properties":{"radiance":9.95}},{"type":"Feature","geometry":{"type":"Polygon","coordinates":[[[22.45625,62.60625],[22.460417,62.60625],[22.460417,62.610417],[22.45625,62.610417],[22.45625,62.60625]]]},"properties":{"radiance":9.49}},{"type":"Feature","geometry":{"type":"Polygon","coordinates":[[[22.460417,62.60625],[22.464583,62.60625],[22.464583,62.610417],[22.460417,62.610417],[22.460417,62.60625]]]},"properties":{"radiance":8.57}},{"type":"Feature","geometry":{"type":"Polygon","coordinates":[[[22.36875,62.602083],[22.372917,62.602083],[22.372917,62.60625],[22.36875,62.60625],[22.36875,62.602083]]]},"properties":{"radiance":8.19}},{"type":"Feature","geometry":{"type":"Polygon","coordinates":[[[22.372917,62.602083],[22.377083,62.602083],[22.377083,62.60625],[22.372917,62.60625],[22.372917,62.602083]]]},"properties":{"radiance":8.62}},{"type":"Feature","geometry":{"type":"Polygon","coordinates":[[[22.377083,62.602083],[22.38125,62.602083],[22.38125,62.60625],[22.377083,62.60625],[22.377083,62.602083]]]},"properties":{"radiance":8.33}},{"type":"Feature","geometry":{"type":"Polygon","coordinates":[[[22.38125,62.602083],[22.385417,62.602083],[22.385417,62.60625],[22.38125,62.60625],[22.38125,62.602083]]]},"properties":{"radiance":6.52}},{"type":"Feature","geometry":{"type":"Polygon","coordinates":[[[22.389583,62.602083],[22.39375,62.602083],[22.39375,62.60625],[22.389583,62.60625],[22.389583,62.602083]]]},"properties":{"radiance":5.34}},{"type":"Feature","geometry":{"type":"Polygon","coordinates":[[[22.44375,62.602083],[22.447917,62.602083],[22.447917,62.60625],[22.44375,62.60625],[22.44375,62.602083]]]},"properties":{"radiance":5.59}},{"type":"Feature","geometry":{"type":"Polygon","coordinates":[[[22.447917,62.602083],[22.452083,62.602083],[22.452083,62.60625],[22.447917,62.60625],[22.447917,62.602083]]]},"properties":{"radiance":8.11}},{"type":"Feature","geometry":{"type":"Polygon","coordinates":[[[22.452083,62.602083],[22.45625,62.602083],[22.45625,62.60625],[22.452083,62.60625],[22.452083,62.602083]]]},"properties":{"radiance":10.58}},{"type":"Feature","geometry":{"type":"Polygon","coordinates":[[[22.45625,62.602083],[22.460417,62.602083],[22.460417,62.60625],[22.45625,62.60625],[22.45625,62.602083]]]},"properties":{"radiance":10.89}},{"type":"Feature","geometry":{"type":"Polygon","coordinates":[[[22.460417,62.602083],[22.464583,62.602083],[22.464583,62.60625],[22.460417,62.60625],[22.460417,62.602083]]]},"properties":{"radiance":9.56}},{"type":"Feature","geometry":{"type":"Polygon","coordinates":[[[22.464583,62.602083],[22.46875,62.602083],[22.46875,62.60625],[22.464583,62.60625],[22.464583,62.602083]]]},"properties":{"radiance":7.95}},{"type":"Feature","geometry":{"type":"Polygon","coordinates":[[[22.46875,62.602083],[22.472917,62.602083],[22.472917,62.60625],[22.46875,62.60625],[22.46875,62.602083]]]},"properties":{"radiance":8.06}},{"type":"Feature","geometry":{"type":"Polygon","coordinates":[[[22.472917,62.602083],[22.477083,62.602083],[22.477083,62.60625],[22.472917,62.60625],[22.472917,62.602083]]]},"properties":{"radiance":6.37}},{"type":"Feature","geometry":{"type":"Polygon","coordinates":[[[22.364583,62.597917],[22.36875,62.597917],[22.36875,62.602083],[22.364583,62.602083],[22.364583,62.597917]]]},"properties":{"radiance":7.31}},{"type":"Feature","geometry":{"type":"Polygon","coordinates":[[[22.36875,62.597917],[22.372917,62.597917],[22.372917,62.602083],[22.36875,62.602083],[22.36875,62.597917]]]},"properties":{"radiance":10.01}},{"type":"Feature","geometry":{"type":"Polygon","coordinates":[[[22.372917,62.597917],[22.377083,62.597917],[22.377083,62.602083],[22.372917,62.602083],[22.372917,62.597917]]]},"properties":{"radiance":9.98}},{"type":"Feature","geometry":{"type":"Polygon","coordinates":[[[22.377083,62.597917],[22.38125,62.597917],[22.38125,62.602083],[22.377083,62.602083],[22.377083,62.597917]]]},"properties":{"radiance":7.24}},{"type":"Feature","geometry":{"type":"Polygon","coordinates":[[[22.46875,62.597917],[22.472917,62.597917],[22.472917,62.602083],[22.46875,62.602083],[22.46875,62.597917]]]},"properties":{"radiance":5.29}},{"type":"Feature","geometry":{"type":"Polygon","coordinates":[[[22.472917,62.597917],[22.477083,62.597917],[22.477083,62.602083],[22.472917,62.602083],[22.472917,62.597917]]]},"properties":{"radiance":5.94}},{"type":"Feature","geometry":{"type":"Polygon","coordinates":[[[22.364583,62.59375],[22.36875,62.59375],[22.36875,62.597917],[22.364583,62.597917],[22.364583,62.59375]]]},"properties":{"radiance":6.39}},{"type":"Feature","geometry":{"type":"Polygon","coordinates":[[[22.36875,62.59375],[22.372917,62.59375],[22.372917,62.597917],[22.36875,62.597917],[22.36875,62.59375]]]},"properties":{"radiance":8.26}},{"type":"Feature","geometry":{"type":"Polygon","coordinates":[[[22.372917,62.59375],[22.377083,62.59375],[22.377083,62.597917],[22.372917,62.597917],[22.372917,62.59375]]]},"properties":{"radiance":9.67}},{"type":"Feature","geometry":{"type":"Polygon","coordinates":[[[22.377083,62.59375],[22.38125,62.59375],[22.38125,62.597917],[22.377083,62.597917],[22.377083,62.59375]]]},"properties":{"radiance":6.62}},{"type":"Feature","geometry":{"type":"Polygon","coordinates":[[[22.34375,62.585417],[22.347917,62.585417],[22.347917,62.589583],[22.34375,62.589583],[22.34375,62.585417]]]},"properties":{"radiance":5.06}},{"type":"Feature","geometry":{"type":"Polygon","coordinates":[[[22.302083,62.56875],[22.30625,62.56875],[22.30625,62.572917],[22.302083,62.572917],[22.302083,62.56875]]]},"properties":{"radiance":6.48}},{"type":"Feature","geometry":{"type":"Polygon","coordinates":[[[22.30625,62.56875],[22.310417,62.56875],[22.310417,62.572917],[22.30625,62.572917],[22.30625,62.56875]]]},"properties":{"radiance":5.75}},{"type":"Feature","geometry":{"type":"Polygon","coordinates":[[[21.902083,62.50625],[21.90625,62.50625],[21.90625,62.510417],[21.902083,62.510417],[21.902083,62.50625]]]},"properties":{"radiance":6.13}},{"type":"Feature","geometry":{"type":"Polygon","coordinates":[[[21.90625,62.50625],[21.910417,62.50625],[21.910417,62.510417],[21.90625,62.510417],[21.90625,62.50625]]]},"properties":{"radiance":6.79}},{"type":"Feature","geometry":{"type":"Polygon","coordinates":[[[21.910417,62.50625],[21.914583,62.50625],[21.914583,62.510417],[21.910417,62.510417],[21.910417,62.50625]]]},"properties":{"radiance":8.63}},{"type":"Feature","geometry":{"type":"Polygon","coordinates":[[[21.89375,62.502083],[21.897917,62.502083],[21.897917,62.50625],[21.89375,62.50625],[21.89375,62.502083]]]},"properties":{"radiance":5.66}},{"type":"Feature","geometry":{"type":"Polygon","coordinates":[[[21.897917,62.502083],[21.902083,62.502083],[21.902083,62.50625],[21.897917,62.50625],[21.897917,62.502083]]]},"properties":{"radiance":11.77}},{"type":"Feature","geometry":{"type":"Polygon","coordinates":[[[21.902083,62.502083],[21.90625,62.502083],[21.90625,62.50625],[21.902083,62.50625],[21.902083,62.502083]]]},"properties":{"radiance":10.16}},{"type":"Feature","geometry":{"type":"Polygon","coordinates":[[[21.90625,62.502083],[21.910417,62.502083],[21.910417,62.50625],[21.90625,62.50625],[21.90625,62.502083]]]},"properties":{"radiance":10.55}},{"type":"Feature","geometry":{"type":"Polygon","coordinates":[[[21.910417,62.502083],[21.914583,62.502083],[21.914583,62.50625],[21.910417,62.50625],[21.910417,62.502083]]]},"properties":{"radiance":11.92}},{"type":"Feature","geometry":{"type":"Polygon","coordinates":[[[21.914583,62.502083],[21.91875,62.502083],[21.91875,62.50625],[21.914583,62.50625],[21.914583,62.502083]]]},"properties":{"radiance":8.74}},{"type":"Feature","geometry":{"type":"Polygon","coordinates":[[[21.822917,62.497917],[21.827083,62.497917],[21.827083,62.502083],[21.822917,62.502083],[21.822917,62.497917]]]},"properties":{"radiance":5.16}},{"type":"Feature","geometry":{"type":"Polygon","coordinates":[[[21.872917,62.497917],[21.877083,62.497917],[21.877083,62.502083],[21.872917,62.502083],[21.872917,62.497917]]]},"properties":{"radiance":8.43}},{"type":"Feature","geometry":{"type":"Polygon","coordinates":[[[21.877083,62.497917],[21.88125,62.497917],[21.88125,62.502083],[21.877083,62.502083],[21.877083,62.497917]]]},"properties":{"radiance":5.27}},{"type":"Feature","geometry":{"type":"Polygon","coordinates":[[[21.88125,62.497917],[21.885417,62.497917],[21.885417,62.502083],[21.88125,62.502083],[21.88125,62.497917]]]},"properties":{"radiance":6.18}},{"type":"Feature","geometry":{"type":"Polygon","coordinates":[[[21.885417,62.497917],[21.889583,62.497917],[21.889583,62.502083],[21.885417,62.502083],[21.885417,62.497917]]]},"properties":{"radiance":52.25}},{"type":"Feature","geometry":{"type":"Polygon","coordinates":[[[21.889583,62.497917],[21.89375,62.497917],[21.89375,62.502083],[21.889583,62.502083],[21.889583,62.497917]]]},"properties":{"radiance":9.7}},{"type":"Feature","geometry":{"type":"Polygon","coordinates":[[[21.89375,62.497917],[21.897917,62.497917],[21.897917,62.502083],[21.89375,62.502083],[21.89375,62.497917]]]},"properties":{"radiance":16.53}},{"type":"Feature","geometry":{"type":"Polygon","coordinates":[[[21.897917,62.497917],[21.902083,62.497917],[21.902083,62.502083],[21.897917,62.502083],[21.897917,62.497917]]]},"properties":{"radiance":21.81}},{"type":"Feature","geometry":{"type":"Polygon","coordinates":[[[21.902083,62.497917],[21.90625,62.497917],[21.90625,62.502083],[21.902083,62.502083],[21.902083,62.497917]]]},"properties":{"radiance":108.73}},{"type":"Feature","geometry":{"type":"Polygon","coordinates":[[[21.90625,62.497917],[21.910417,62.497917],[21.910417,62.502083],[21.90625,62.502083],[21.90625,62.497917]]]},"properties":{"radiance":17.53}},{"type":"Feature","geometry":{"type":"Polygon","coordinates":[[[21.910417,62.497917],[21.914583,62.497917],[21.914583,62.502083],[21.910417,62.502083],[21.910417,62.497917]]]},"properties":{"radiance":14.25}},{"type":"Feature","geometry":{"type":"Polygon","coordinates":[[[21.914583,62.497917],[21.91875,62.497917],[21.91875,62.502083],[21.914583,62.502083],[21.914583,62.497917]]]},"properties":{"radiance":53.6}},{"type":"Feature","geometry":{"type":"Polygon","coordinates":[[[21.91875,62.497917],[21.922917,62.497917],[21.922917,62.502083],[21.91875,62.502083],[21.91875,62.497917]]]},"properties":{"radiance":52.31}},{"type":"Feature","geometry":{"type":"Polygon","coordinates":[[[21.922917,62.497917],[21.927083,62.497917],[21.927083,62.502083],[21.922917,62.502083],[21.922917,62.497917]]]},"properties":{"radiance":8.95}},{"type":"Feature","geometry":{"type":"Polygon","coordinates":[[[21.935417,62.497917],[21.939583,62.497917],[21.939583,62.502083],[21.935417,62.502083],[21.935417,62.497917]]]},"properties":{"radiance":5.01}},{"type":"Feature","geometry":{"type":"Polygon","coordinates":[[[21.864583,62.49375],[21.86875,62.49375],[21.86875,62.497917],[21.864583,62.497917],[21.864583,62.49375]]]},"properties":{"radiance":5.06}},{"type":"Feature","geometry":{"type":"Polygon","coordinates":[[[21.86875,62.49375],[21.872917,62.49375],[21.872917,62.497917],[21.86875,62.497917],[21.86875,62.49375]]]},"properties":{"radiance":7.76}},{"type":"Feature","geometry":{"type":"Polygon","coordinates":[[[21.872917,62.49375],[21.877083,62.49375],[21.877083,62.497917],[21.872917,62.497917],[21.872917,62.49375]]]},"properties":{"radiance":8.64}},{"type":"Feature","geometry":{"type":"Polygon","coordinates":[[[21.877083,62.49375],[21.88125,62.49375],[21.88125,62.497917],[21.877083,62.497917],[21.877083,62.49375]]]},"properties":{"radiance":13.5}},{"type":"Feature","geometry":{"type":"Polygon","coordinates":[[[21.88125,62.49375],[21.885417,62.49375],[21.885417,62.497917],[21.88125,62.497917],[21.88125,62.49375]]]},"properties":{"radiance":47.13}},{"type":"Feature","geometry":{"type":"Polygon","coordinates":[[[21.885417,62.49375],[21.889583,62.49375],[21.889583,62.497917],[21.885417,62.497917],[21.885417,62.49375]]]},"properties":{"radiance":51.23}},{"type":"Feature","geometry":{"type":"Polygon","coordinates":[[[21.889583,62.49375],[21.89375,62.49375],[21.89375,62.497917],[21.889583,62.497917],[21.889583,62.49375]]]},"properties":{"radiance":125.6}},{"type":"Feature","geometry":{"type":"Polygon","coordinates":[[[21.89375,62.49375],[21.897917,62.49375],[21.897917,62.497917],[21.89375,62.497917],[21.89375,62.49375]]]},"properties":{"radiance":1746.02}},{"type":"Feature","geometry":{"type":"Polygon","coordinates":[[[21.897917,62.49375],[21.902083,62.49375],[21.902083,62.497917],[21.897917,62.497917],[21.897917,62.49375]]]},"properties":{"radiance":349.93}},{"type":"Feature","geometry":{"type":"Polygon","coordinates":[[[21.902083,62.49375],[21.90625,62.49375],[21.90625,62.497917],[21.902083,62.497917],[21.902083,62.49375]]]},"properties":{"radiance":389.35}},{"type":"Feature","geometry":{"type":"Polygon","coordinates":[[[21.90625,62.49375],[21.910417,62.49375],[21.910417,62.497917],[21.90625,62.497917],[21.90625,62.49375]]]},"properties":{"radiance":502.85}},{"type":"Feature","geometry":{"type":"Polygon","coordinates":[[[21.910417,62.49375],[21.914583,62.49375],[21.914583,62.497917],[21.910417,62.497917],[21.910417,62.49375]]]},"properties":{"radiance":143.9}},{"type":"Feature","geometry":{"type":"Polygon","coordinates":[[[21.914583,62.49375],[21.91875,62.49375],[21.91875,62.497917],[21.914583,62.497917],[21.914583,62.49375]]]},"properties":{"radiance":69.98}},{"type":"Feature","geometry":{"type":"Polygon","coordinates":[[[21.91875,62.49375],[21.922917,62.49375],[21.922917,62.497917],[21.91875,62.497917],[21.91875,62.49375]]]},"properties":{"radiance":53.01}},{"type":"Feature","geometry":{"type":"Polygon","coordinates":[[[21.922917,62.49375],[21.927083,62.49375],[21.927083,62.497917],[21.922917,62.497917],[21.922917,62.49375]]]},"properties":{"radiance":61}},{"type":"Feature","geometry":{"type":"Polygon","coordinates":[[[21.927083,62.49375],[21.93125,62.49375],[21.93125,62.497917],[21.927083,62.497917],[21.927083,62.49375]]]},"properties":{"radiance":8.9}},{"type":"Feature","geometry":{"type":"Polygon","coordinates":[[[21.93125,62.49375],[21.935417,62.49375],[21.935417,62.497917],[21.93125,62.497917],[21.93125,62.49375]]]},"properties":{"radiance":7.19}},{"type":"Feature","geometry":{"type":"Polygon","coordinates":[[[21.935417,62.49375],[21.939583,62.49375],[21.939583,62.497917],[21.935417,62.497917],[21.935417,62.49375]]]},"properties":{"radiance":5.91}},{"type":"Feature","geometry":{"type":"Polygon","coordinates":[[[21.864583,62.489583],[21.86875,62.489583],[21.86875,62.49375],[21.864583,62.49375],[21.864583,62.489583]]]},"properties":{"radiance":5.78}},{"type":"Feature","geometry":{"type":"Polygon","coordinates":[[[21.86875,62.489583],[21.872917,62.489583],[21.872917,62.49375],[21.86875,62.49375],[21.86875,62.489583]]]},"properties":{"radiance":7.58}},{"type":"Feature","geometry":{"type":"Polygon","coordinates":[[[21.872917,62.489583],[21.877083,62.489583],[21.877083,62.49375],[21.872917,62.49375],[21.872917,62.489583]]]},"properties":{"radiance":8.24}},{"type":"Feature","geometry":{"type":"Polygon","coordinates":[[[21.877083,62.489583],[21.88125,62.489583],[21.88125,62.49375],[21.877083,62.49375],[21.877083,62.489583]]]},"properties":{"radiance":12.87}},{"type":"Feature","geometry":{"type":"Polygon","coordinates":[[[21.88125,62.489583],[21.885417,62.489583],[21.885417,62.49375],[21.88125,62.49375],[21.88125,62.489583]]]},"properties":{"radiance":20.02}},{"type":"Feature","geometry":{"type":"Polygon","coordinates":[[[21.885417,62.489583],[21.889583,62.489583],[21.889583,62.49375],[21.885417,62.49375],[21.885417,62.489583]]]},"properties":{"radiance":69.04}},{"type":"Feature","geometry":{"type":"Polygon","coordinates":[[[21.889583,62.489583],[21.89375,62.489583],[21.89375,62.49375],[21.889583,62.49375],[21.889583,62.489583]]]},"properties":{"radiance":1996.85}},{"type":"Feature","geometry":{"type":"Polygon","coordinates":[[[21.89375,62.489583],[21.897917,62.489583],[21.897917,62.49375],[21.89375,62.49375],[21.89375,62.489583]]]},"properties":{"radiance":3714.99}},{"type":"Feature","geometry":{"type":"Polygon","coordinates":[[[21.897917,62.489583],[21.902083,62.489583],[21.902083,62.49375],[21.897917,62.49375],[21.897917,62.489583]]]},"properties":{"radiance":5405.25}},{"type":"Feature","geometry":{"type":"Polygon","coordinates":[[[21.902083,62.489583],[21.90625,62.489583],[21.90625,62.49375],[21.902083,62.49375],[21.902083,62.489583]]]},"properties":{"radiance":6527.32}},{"type":"Feature","geometry":{"type":"Polygon","coordinates":[[[21.90625,62.489583],[21.910417,62.489583],[21.910417,62.49375],[21.90625,62.49375],[21.90625,62.489583]]]},"properties":{"radiance":1251.74}},{"type":"Feature","geometry":{"type":"Polygon","coordinates":[[[21.910417,62.489583],[21.914583,62.489583],[21.914583,62.49375],[21.910417,62.49375],[21.910417,62.489583]]]},"properties":{"radiance":1013.97}},{"type":"Feature","geometry":{"type":"Polygon","coordinates":[[[21.914583,62.489583],[21.91875,62.489583],[21.91875,62.49375],[21.914583,62.49375],[21.914583,62.489583]]]},"properties":{"radiance":677.32}},{"type":"Feature","geometry":{"type":"Polygon","coordinates":[[[21.91875,62.489583],[21.922917,62.489583],[21.922917,62.49375],[21.91875,62.49375],[21.91875,62.489583]]]},"properties":{"radiance":69.85}},{"type":"Feature","geometry":{"type":"Polygon","coordinates":[[[21.922917,62.489583],[21.927083,62.489583],[21.927083,62.49375],[21.922917,62.49375],[21.922917,62.489583]]]},"properties":{"radiance":32.6}},{"type":"Feature","geometry":{"type":"Polygon","coordinates":[[[21.927083,62.489583],[21.93125,62.489583],[21.93125,62.49375],[21.927083,62.49375],[21.927083,62.489583]]]},"properties":{"radiance":12.57}},{"type":"Feature","geometry":{"type":"Polygon","coordinates":[[[21.93125,62.489583],[21.935417,62.489583],[21.935417,62.49375],[21.93125,62.49375],[21.93125,62.489583]]]},"properties":{"radiance":10.56}},{"type":"Feature","geometry":{"type":"Polygon","coordinates":[[[21.935417,62.489583],[21.939583,62.489583],[21.939583,62.49375],[21.935417,62.49375],[21.935417,62.489583]]]},"properties":{"radiance":10.13}},{"type":"Feature","geometry":{"type":"Polygon","coordinates":[[[21.94375,62.489583],[21.947917,62.489583],[21.947917,62.49375],[21.94375,62.49375],[21.94375,62.489583]]]},"properties":{"radiance":5.17}},{"type":"Feature","geometry":{"type":"Polygon","coordinates":[[[21.872917,62.485417],[21.877083,62.485417],[21.877083,62.489583],[21.872917,62.489583],[21.872917,62.485417]]]},"properties":{"radiance":8.06}},{"type":"Feature","geometry":{"type":"Polygon","coordinates":[[[21.877083,62.485417],[21.88125,62.485417],[21.88125,62.489583],[21.877083,62.489583],[21.877083,62.485417]]]},"properties":{"radiance":10.21}},{"type":"Feature","geometry":{"type":"Polygon","coordinates":[[[21.88125,62.485417],[21.885417,62.485417],[21.885417,62.489583],[21.88125,62.489583],[21.88125,62.485417]]]},"properties":{"radiance":44.21}},{"type":"Feature","geometry":{"type":"Polygon","coordinates":[[[21.885417,62.485417],[21.889583,62.485417],[21.889583,62.489583],[21.885417,62.489583],[21.885417,62.485417]]]},"properties":{"radiance":46.26}},{"type":"Feature","geometry":{"type":"Polygon","coordinates":[[[21.889583,62.485417],[21.89375,62.485417],[21.89375,62.489583],[21.889583,62.489583],[21.889583,62.485417]]]},"properties":{"radiance":444.52}},{"type":"Feature","geometry":{"type":"Polygon","coordinates":[[[21.89375,62.485417],[21.897917,62.485417],[21.897917,62.489583],[21.89375,62.489583],[21.89375,62.485417]]]},"properties":{"radiance":3342.74}},{"type":"Feature","geometry":{"type":"Polygon","coordinates":[[[21.897917,62.485417],[21.902083,62.485417],[21.902083,62.489583],[21.897917,62.489583],[21.897917,62.485417]]]},"properties":{"radiance":3272.21}},{"type":"Feature","geometry":{"type":"Polygon","coordinates":[[[21.902083,62.485417],[21.90625,62.485417],[21.90625,62.489583],[21.902083,62.489583],[21.902083,62.485417]]]},"properties":{"radiance":2902.27}},{"type":"Feature","geometry":{"type":"Polygon","coordinates":[[[21.90625,62.485417],[21.910417,62.485417],[21.910417,62.489583],[21.90625,62.489583],[21.90625,62.485417]]]},"properties":{"radiance":1181.49}},{"type":"Feature","geometry":{"type":"Polygon","coordinates":[[[21.910417,62.485417],[21.914583,62.485417],[21.914583,62.489583],[21.910417,62.489583],[21.910417,62.485417]]]},"properties":{"radiance":1073.59}},{"type":"Feature","geometry":{"type":"Polygon","coordinates":[[[21.914583,62.485417],[21.91875,62.485417],[21.91875,62.489583],[21.914583,62.489583],[21.914583,62.485417]]]},"properties":{"radiance":1169.29}},{"type":"Feature","geometry":{"type":"Polygon","coordinates":[[[21.91875,62.485417],[21.922917,62.485417],[21.922917,62.489583],[21.91875,62.489583],[21.91875,62.485417]]]},"properties":{"radiance":145.1}},{"type":"Feature","geometry":{"type":"Polygon","coordinates":[[[21.922917,62.485417],[21.927083,62.485417],[21.927083,62.489583],[21.922917,62.489583],[21.922917,62.485417]]]},"properties":{"radiance":26.98}},{"type":"Feature","geometry":{"type":"Polygon","coordinates":[[[21.927083,62.485417],[21.93125,62.485417],[21.93125,62.489583],[21.927083,62.489583],[21.927083,62.485417]]]},"properties":{"radiance":20.16}},{"type":"Feature","geometry":{"type":"Polygon","coordinates":[[[21.93125,62.485417],[21.935417,62.485417],[21.935417,62.489583],[21.93125,62.489583],[21.93125,62.485417]]]},"properties":{"radiance":16.22}},{"type":"Feature","geometry":{"type":"Polygon","coordinates":[[[21.935417,62.485417],[21.939583,62.485417],[21.939583,62.489583],[21.935417,62.489583],[21.935417,62.485417]]]},"properties":{"radiance":11.51}},{"type":"Feature","geometry":{"type":"Polygon","coordinates":[[[21.939583,62.485417],[21.94375,62.485417],[21.94375,62.489583],[21.939583,62.489583],[21.939583,62.485417]]]},"properties":{"radiance":7.64}},{"type":"Feature","geometry":{"type":"Polygon","coordinates":[[[21.94375,62.485417],[21.947917,62.485417],[21.947917,62.489583],[21.94375,62.489583],[21.94375,62.485417]]]},"properties":{"radiance":7.12}},{"type":"Feature","geometry":{"type":"Polygon","coordinates":[[[21.947917,62.485417],[21.952083,62.485417],[21.952083,62.489583],[21.947917,62.489583],[21.947917,62.485417]]]},"properties":{"radiance":6.16}},{"type":"Feature","geometry":{"type":"Polygon","coordinates":[[[21.872917,62.48125],[21.877083,62.48125],[21.877083,62.485417],[21.872917,62.485417],[21.872917,62.48125]]]},"properties":{"radiance":8.69}},{"type":"Feature","geometry":{"type":"Polygon","coordinates":[[[21.877083,62.48125],[21.88125,62.48125],[21.88125,62.485417],[21.877083,62.485417],[21.877083,62.48125]]]},"properties":{"radiance":7.66}},{"type":"Feature","geometry":{"type":"Polygon","coordinates":[[[21.88125,62.48125],[21.885417,62.48125],[21.885417,62.485417],[21.88125,62.485417],[21.88125,62.48125]]]},"properties":{"radiance":8.71}},{"type":"Feature","geometry":{"type":"Polygon","coordinates":[[[21.885417,62.48125],[21.889583,62.48125],[21.889583,62.485417],[21.885417,62.485417],[21.885417,62.48125]]]},"properties":{"radiance":41.05}},{"type":"Feature","geometry":{"type":"Polygon","coordinates":[[[21.889583,62.48125],[21.89375,62.48125],[21.89375,62.485417],[21.889583,62.485417],[21.889583,62.48125]]]},"properties":{"radiance":49}},{"type":"Feature","geometry":{"type":"Polygon","coordinates":[[[21.89375,62.48125],[21.897917,62.48125],[21.897917,62.485417],[21.89375,62.485417],[21.89375,62.48125]]]},"properties":{"radiance":42.19}},{"type":"Feature","geometry":{"type":"Polygon","coordinates":[[[21.897917,62.48125],[21.902083,62.48125],[21.902083,62.485417],[21.897917,62.485417],[21.897917,62.48125]]]},"properties":{"radiance":158.28}},{"type":"Feature","geometry":{"type":"Polygon","coordinates":[[[21.902083,62.48125],[21.90625,62.48125],[21.90625,62.485417],[21.902083,62.485417],[21.902083,62.48125]]]},"properties":{"radiance":282.7}},{"type":"Feature","geometry":{"type":"Polygon","coordinates":[[[21.90625,62.48125],[21.910417,62.48125],[21.910417,62.485417],[21.90625,62.485417],[21.90625,62.48125]]]},"properties":{"radiance":201.01}},{"type":"Feature","geometry":{"type":"Polygon","coordinates":[[[21.910417,62.48125],[21.914583,62.48125],[21.914583,62.485417],[21.910417,62.485417],[21.910417,62.48125]]]},"properties":{"radiance":162.75}},{"type":"Feature","geometry":{"type":"Polygon","coordinates":[[[21.914583,62.48125],[21.91875,62.48125],[21.91875,62.485417],[21.914583,62.485417],[21.914583,62.48125]]]},"properties":{"radiance":183.54}},{"type":"Feature","geometry":{"type":"Polygon","coordinates":[[[21.91875,62.48125],[21.922917,62.48125],[21.922917,62.485417],[21.91875,62.485417],[21.91875,62.48125]]]},"properties":{"radiance":48.98}},{"type":"Feature","geometry":{"type":"Polygon","coordinates":[[[21.922917,62.48125],[21.927083,62.48125],[21.927083,62.485417],[21.922917,62.485417],[21.922917,62.48125]]]},"properties":{"radiance":51.26}},{"type":"Feature","geometry":{"type":"Polygon","coordinates":[[[21.927083,62.48125],[21.93125,62.48125],[21.93125,62.485417],[21.927083,62.485417],[21.927083,62.48125]]]},"properties":{"radiance":20.22}},{"type":"Feature","geometry":{"type":"Polygon","coordinates":[[[21.93125,62.48125],[21.935417,62.48125],[21.935417,62.485417],[21.93125,62.485417],[21.93125,62.48125]]]},"properties":{"radiance":14.23}},{"type":"Feature","geometry":{"type":"Polygon","coordinates":[[[21.935417,62.48125],[21.939583,62.48125],[21.939583,62.485417],[21.935417,62.485417],[21.935417,62.48125]]]},"properties":{"radiance":12.88}},{"type":"Feature","geometry":{"type":"Polygon","coordinates":[[[21.939583,62.48125],[21.94375,62.48125],[21.94375,62.485417],[21.939583,62.485417],[21.939583,62.48125]]]},"properties":{"radiance":12.02}},{"type":"Feature","geometry":{"type":"Polygon","coordinates":[[[21.94375,62.48125],[21.947917,62.48125],[21.947917,62.485417],[21.94375,62.485417],[21.94375,62.48125]]]},"properties":{"radiance":10.96}},{"type":"Feature","geometry":{"type":"Polygon","coordinates":[[[21.947917,62.48125],[21.952083,62.48125],[21.952083,62.485417],[21.947917,62.485417],[21.947917,62.48125]]]},"properties":{"radiance":6.55}},{"type":"Feature","geometry":{"type":"Polygon","coordinates":[[[21.952083,62.48125],[21.95625,62.48125],[21.95625,62.485417],[21.952083,62.485417],[21.952083,62.48125]]]},"properties":{"radiance":5.28}},{"type":"Feature","geometry":{"type":"Polygon","coordinates":[[[21.95625,62.48125],[21.960417,62.48125],[21.960417,62.485417],[21.95625,62.485417],[21.95625,62.48125]]]},"properties":{"radiance":5.51}},{"type":"Feature","geometry":{"type":"Polygon","coordinates":[[[21.885417,62.477083],[21.889583,62.477083],[21.889583,62.48125],[21.885417,62.48125],[21.885417,62.477083]]]},"properties":{"radiance":5.7}},{"type":"Feature","geometry":{"type":"Polygon","coordinates":[[[21.889583,62.477083],[21.89375,62.477083],[21.89375,62.48125],[21.889583,62.48125],[21.889583,62.477083]]]},"properties":{"radiance":5.67}},{"type":"Feature","geometry":{"type":"Polygon","coordinates":[[[21.89375,62.477083],[21.897917,62.477083],[21.897917,62.48125],[21.89375,62.48125],[21.89375,62.477083]]]},"properties":{"radiance":8.31}},{"type":"Feature","geometry":{"type":"Polygon","coordinates":[[[21.897917,62.477083],[21.902083,62.477083],[21.902083,62.48125],[21.897917,62.48125],[21.897917,62.477083]]]},"properties":{"radiance":10.68}},{"type":"Feature","geometry":{"type":"Polygon","coordinates":[[[21.902083,62.477083],[21.90625,62.477083],[21.90625,62.48125],[21.902083,62.48125],[21.902083,62.477083]]]},"properties":{"radiance":20.45}},{"type":"Feature","geometry":{"type":"Polygon","coordinates":[[[21.90625,62.477083],[21.910417,62.477083],[21.910417,62.48125],[21.90625,62.48125],[21.90625,62.477083]]]},"properties":{"radiance":27.59}},{"type":"Feature","geometry":{"type":"Polygon","coordinates":[[[21.910417,62.477083],[21.914583,62.477083],[21.914583,62.48125],[21.910417,62.48125],[21.910417,62.477083]]]},"properties":{"radiance":25.48}},{"type":"Feature","geometry":{"type":"Polygon","coordinates":[[[21.914583,62.477083],[21.91875,62.477083],[21.91875,62.48125],[21.914583,62.48125],[21.914583,62.477083]]]},"properties":{"radiance":22.82}},{"type":"Feature","geometry":{"type":"Polygon","coordinates":[[[21.91875,62.477083],[21.922917,62.477083],[21.922917,62.48125],[21.91875,62.48125],[21.91875,62.477083]]]},"properties":{"radiance":47.07}},{"type":"Feature","geometry":{"type":"Polygon","coordinates":[[[21.922917,62.477083],[21.927083,62.477083],[21.927083,62.48125],[21.922917,62.48125],[21.922917,62.477083]]]},"properties":{"radiance":11.45}},{"type":"Feature","geometry":{"type":"Polygon","coordinates":[[[21.927083,62.477083],[21.93125,62.477083],[21.93125,62.48125],[21.927083,62.48125],[21.927083,62.477083]]]},"properties":{"radiance":7.3}},{"type":"Feature","geometry":{"type":"Polygon","coordinates":[[[21.93125,62.477083],[21.935417,62.477083],[21.935417,62.48125],[21.93125,62.48125],[21.93125,62.477083]]]},"properties":{"radiance":8.63}},{"type":"Feature","geometry":{"type":"Polygon","coordinates":[[[21.935417,62.477083],[21.939583,62.477083],[21.939583,62.48125],[21.935417,62.48125],[21.935417,62.477083]]]},"properties":{"radiance":5.33}},{"type":"Feature","geometry":{"type":"Polygon","coordinates":[[[21.939583,62.477083],[21.94375,62.477083],[21.94375,62.48125],[21.939583,62.48125],[21.939583,62.477083]]]},"properties":{"radiance":7.15}},{"type":"Feature","geometry":{"type":"Polygon","coordinates":[[[21.94375,62.477083],[21.947917,62.477083],[21.947917,62.48125],[21.94375,62.48125],[21.94375,62.477083]]]},"properties":{"radiance":5.93}},{"type":"Feature","geometry":{"type":"Polygon","coordinates":[[[21.952083,62.477083],[21.95625,62.477083],[21.95625,62.48125],[21.952083,62.48125],[21.952083,62.477083]]]},"properties":{"radiance":5.35}},{"type":"Feature","geometry":{"type":"Polygon","coordinates":[[[21.95625,62.477083],[21.960417,62.477083],[21.960417,62.48125],[21.95625,62.48125],[21.95625,62.477083]]]},"properties":{"radiance":5.12}},{"type":"Feature","geometry":{"type":"Polygon","coordinates":[[[21.885417,62.472917],[21.889583,62.472917],[21.889583,62.477083],[21.885417,62.477083],[21.885417,62.472917]]]},"properties":{"radiance":5.39}},{"type":"Feature","geometry":{"type":"Polygon","coordinates":[[[21.889583,62.472917],[21.89375,62.472917],[21.89375,62.477083],[21.889583,62.477083],[21.889583,62.472917]]]},"properties":{"radiance":5.39}},{"type":"Feature","geometry":{"type":"Polygon","coordinates":[[[21.902083,62.472917],[21.90625,62.472917],[21.90625,62.477083],[21.902083,62.477083],[21.902083,62.472917]]]},"properties":{"radiance":5.1}},{"type":"Feature","geometry":{"type":"Polygon","coordinates":[[[21.90625,62.472917],[21.910417,62.472917],[21.910417,62.477083],[21.90625,62.477083],[21.90625,62.472917]]]},"properties":{"radiance":5.11}},{"type":"Feature","geometry":{"type":"Polygon","coordinates":[[[21.910417,62.472917],[21.914583,62.472917],[21.914583,62.477083],[21.910417,62.477083],[21.910417,62.472917]]]},"properties":{"radiance":7.06}},{"type":"Feature","geometry":{"type":"Polygon","coordinates":[[[21.914583,62.472917],[21.91875,62.472917],[21.91875,62.477083],[21.914583,62.477083],[21.914583,62.472917]]]},"properties":{"radiance":5.44}},{"type":"Feature","geometry":{"type":"Polygon","coordinates":[[[21.91875,62.472917],[21.922917,62.472917],[21.922917,62.477083],[21.91875,62.477083],[21.91875,62.472917]]]},"properties":{"radiance":5.38}},{"type":"Feature","geometry":{"type":"Polygon","coordinates":[[[21.922917,62.472917],[21.927083,62.472917],[21.927083,62.477083],[21.922917,62.477083],[21.922917,62.472917]]]},"properties":{"radiance":5.61}},{"type":"Feature","geometry":{"type":"Polygon","coordinates":[[[21.927083,62.472917],[21.93125,62.472917],[21.93125,62.477083],[21.927083,62.477083],[21.927083,62.472917]]]},"properties":{"radiance":27.77}},{"type":"Feature","geometry":{"type":"Polygon","coordinates":[[[21.93125,62.472917],[21.935417,62.472917],[21.935417,62.477083],[21.93125,62.477083],[21.93125,62.472917]]]},"properties":{"radiance":14.86}},{"type":"Feature","geometry":{"type":"Polygon","coordinates":[[[22.202083,62.464583],[22.20625,62.464583],[22.20625,62.46875],[22.202083,62.46875],[22.202083,62.464583]]]},"properties":{"radiance":5.13}},{"type":"Feature","geometry":{"type":"Polygon","coordinates":[[[22.189583,62.460417],[22.19375,62.460417],[22.19375,62.464583],[22.189583,62.464583],[22.189583,62.460417]]]},"properties":{"radiance":5.23}},{"type":"Feature","geometry":{"type":"Polygon","coordinates":[[[22.19375,62.460417],[22.197917,62.460417],[22.197917,62.464583],[22.19375,62.464583],[22.19375,62.460417]]]},"properties":{"radiance":6.55}},{"type":"Feature","geometry":{"type":"Polygon","coordinates":[[[22.197917,62.460417],[22.202083,62.460417],[22.202083,62.464583],[22.197917,62.464583],[22.197917,62.460417]]]},"properties":{"radiance":10.02}},{"type":"Feature","geometry":{"type":"Polygon","coordinates":[[[22.202083,62.460417],[22.20625,62.460417],[22.20625,62.464583],[22.202083,62.464583],[22.202083,62.460417]]]},"properties":{"radiance":10.25}},{"type":"Feature","geometry":{"type":"Polygon","coordinates":[[[22.20625,62.460417],[22.210417,62.460417],[22.210417,62.464583],[22.20625,62.464583],[22.20625,62.460417]]]},"properties":{"radiance":9.29}},{"type":"Feature","geometry":{"type":"Polygon","coordinates":[[[22.210417,62.460417],[22.214583,62.460417],[22.214583,62.464583],[22.210417,62.464583],[22.210417,62.460417]]]},"properties":{"radiance":7.74}},{"type":"Feature","geometry":{"type":"Polygon","coordinates":[[[22.19375,62.45625],[22.197917,62.45625],[22.197917,62.460417],[22.19375,62.460417],[22.19375,62.45625]]]},"properties":{"radiance":8.52}},{"type":"Feature","geometry":{"type":"Polygon","coordinates":[[[22.197917,62.45625],[22.202083,62.45625],[22.202083,62.460417],[22.197917,62.460417],[22.197917,62.45625]]]},"properties":{"radiance":9.63}},{"type":"Feature","geometry":{"type":"Polygon","coordinates":[[[22.202083,62.45625],[22.20625,62.45625],[22.20625,62.460417],[22.202083,62.460417],[22.202083,62.45625]]]},"properties":{"radiance":9.55}},{"type":"Feature","geometry":{"type":"Polygon","coordinates":[[[22.20625,62.45625],[22.210417,62.45625],[22.210417,62.460417],[22.20625,62.460417],[22.20625,62.45625]]]},"properties":{"radiance":9.85}},{"type":"Feature","geometry":{"type":"Polygon","coordinates":[[[22.210417,62.45625],[22.214583,62.45625],[22.214583,62.460417],[22.210417,62.460417],[22.210417,62.45625]]]},"properties":{"radiance":8.87}},{"type":"Feature","geometry":{"type":"Polygon","coordinates":[[[22.214583,62.45625],[22.21875,62.45625],[22.21875,62.460417],[22.214583,62.460417],[22.214583,62.45625]]]},"properties":{"radiance":6.88}},{"type":"Feature","geometry":{"type":"Polygon","coordinates":[[[22.21875,62.45625],[22.222917,62.45625],[22.222917,62.460417],[22.21875,62.460417],[22.21875,62.45625]]]},"properties":{"radiance":5.76}},{"type":"Feature","geometry":{"type":"Polygon","coordinates":[[[22.197917,62.452083],[22.202083,62.452083],[22.202083,62.45625],[22.197917,62.45625],[22.197917,62.452083]]]},"properties":{"radiance":6.42}},{"type":"Feature","geometry":{"type":"Polygon","coordinates":[[[22.202083,62.452083],[22.20625,62.452083],[22.20625,62.45625],[22.202083,62.45625],[22.202083,62.452083]]]},"properties":{"radiance":7.07}},{"type":"Feature","geometry":{"type":"Polygon","coordinates":[[[22.20625,62.452083],[22.210417,62.452083],[22.210417,62.45625],[22.20625,62.45625],[22.20625,62.452083]]]},"properties":{"radiance":7.91}},{"type":"Feature","geometry":{"type":"Polygon","coordinates":[[[22.210417,62.452083],[22.214583,62.452083],[22.214583,62.45625],[22.210417,62.45625],[22.210417,62.452083]]]},"properties":{"radiance":8.16}},{"type":"Feature","geometry":{"type":"Polygon","coordinates":[[[22.214583,62.452083],[22.21875,62.452083],[22.21875,62.45625],[22.214583,62.45625],[22.214583,62.452083]]]},"properties":{"radiance":8.37}},{"type":"Feature","geometry":{"type":"Polygon","coordinates":[[[22.21875,62.452083],[22.222917,62.452083],[22.222917,62.45625],[22.21875,62.45625],[22.21875,62.452083]]]},"properties":{"radiance":6.85}},{"type":"Feature","geometry":{"type":"Polygon","coordinates":[[[22.222917,62.452083],[22.227083,62.452083],[22.227083,62.45625],[22.222917,62.45625],[22.222917,62.452083]]]},"properties":{"radiance":5.18}},{"type":"Feature","geometry":{"type":"Polygon","coordinates":[[[22.197917,62.447917],[22.202083,62.447917],[22.202083,62.452083],[22.197917,62.452083],[22.197917,62.447917]]]},"properties":{"radiance":6.53}},{"type":"Feature","geometry":{"type":"Polygon","coordinates":[[[22.202083,62.447917],[22.20625,62.447917],[22.20625,62.452083],[22.202083,62.452083],[22.202083,62.447917]]]},"properties":{"radiance":7.57}},{"type":"Feature","geometry":{"type":"Polygon","coordinates":[[[22.20625,62.447917],[22.210417,62.447917],[22.210417,62.452083],[22.20625,62.452083],[22.20625,62.447917]]]},"properties":{"radiance":9.5}},{"type":"Feature","geometry":{"type":"Polygon","coordinates":[[[22.210417,62.447917],[22.214583,62.447917],[22.214583,62.452083],[22.210417,62.452083],[22.210417,62.447917]]]},"properties":{"radiance":8.75}},{"type":"Feature","geometry":{"type":"Polygon","coordinates":[[[22.214583,62.447917],[22.21875,62.447917],[22.21875,62.452083],[22.214583,62.452083],[22.214583,62.447917]]]},"properties":{"radiance":8.28}},{"type":"Feature","geometry":{"type":"Polygon","coordinates":[[[22.185417,62.44375],[22.189583,62.44375],[22.189583,62.447917],[22.185417,62.447917],[22.185417,62.44375]]]},"properties":{"radiance":5.58}},{"type":"Feature","geometry":{"type":"Polygon","coordinates":[[[22.189583,62.44375],[22.19375,62.44375],[22.19375,62.447917],[22.189583,62.447917],[22.189583,62.44375]]]},"properties":{"radiance":6.07}},{"type":"Feature","geometry":{"type":"Polygon","coordinates":[[[22.19375,62.44375],[22.197917,62.44375],[22.197917,62.447917],[22.19375,62.447917],[22.19375,62.44375]]]},"properties":{"radiance":6.69}},{"type":"Feature","geometry":{"type":"Polygon","coordinates":[[[22.197917,62.44375],[22.202083,62.44375],[22.202083,62.447917],[22.197917,62.447917],[22.197917,62.44375]]]},"properties":{"radiance":6.4}},{"type":"Feature","geometry":{"type":"Polygon","coordinates":[[[22.202083,62.44375],[22.20625,62.44375],[22.20625,62.447917],[22.202083,62.447917],[22.202083,62.44375]]]},"properties":{"radiance":6.83}},{"type":"Feature","geometry":{"type":"Polygon","coordinates":[[[22.20625,62.44375],[22.210417,62.44375],[22.210417,62.447917],[22.20625,62.447917],[22.20625,62.44375]]]},"properties":{"radiance":7.95}},{"type":"Feature","geometry":{"type":"Polygon","coordinates":[[[22.210417,62.44375],[22.214583,62.44375],[22.214583,62.447917],[22.210417,62.447917],[22.210417,62.44375]]]},"properties":{"radiance":6.14}},{"type":"Feature","geometry":{"type":"Polygon","coordinates":[[[22.214583,62.44375],[22.21875,62.44375],[22.21875,62.447917],[22.214583,62.447917],[22.214583,62.44375]]]},"properties":{"radiance":5.93}},{"type":"Feature","geometry":{"type":"Polygon","coordinates":[[[22.177083,62.439583],[22.18125,62.439583],[22.18125,62.44375],[22.177083,62.44375],[22.177083,62.439583]]]},"properties":{"radiance":6.08}},{"type":"Feature","geometry":{"type":"Polygon","coordinates":[[[22.18125,62.439583],[22.185417,62.439583],[22.185417,62.44375],[22.18125,62.44375],[22.18125,62.439583]]]},"properties":{"radiance":5.61}},{"type":"Feature","geometry":{"type":"Polygon","coordinates":[[[22.185417,62.439583],[22.189583,62.439583],[22.189583,62.44375],[22.185417,62.44375],[22.185417,62.439583]]]},"properties":{"radiance":6.16}},{"type":"Feature","geometry":{"type":"Polygon","coordinates":[[[22.189583,62.439583],[22.19375,62.439583],[22.19375,62.44375],[22.189583,62.44375],[22.189583,62.439583]]]},"properties":{"radiance":6.12}},{"type":"Feature","geometry":{"type":"Polygon","coordinates":[[[22.19375,62.439583],[22.197917,62.439583],[22.197917,62.44375],[22.19375,62.44375],[22.19375,62.439583]]]},"properties":{"radiance":6.96}},{"type":"Feature","geometry":{"type":"Polygon","coordinates":[[[22.197917,62.439583],[22.202083,62.439583],[22.202083,62.44375],[22.197917,62.44375],[22.197917,62.439583]]]},"properties":{"radiance":7.28}},{"type":"Feature","geometry":{"type":"Polygon","coordinates":[[[22.202083,62.439583],[22.20625,62.439583],[22.20625,62.44375],[22.202083,62.44375],[22.202083,62.439583]]]},"properties":{"radiance":6.59}},{"type":"Feature","geometry":{"type":"Polygon","coordinates":[[[22.164583,62.435417],[22.16875,62.435417],[22.16875,62.439583],[22.164583,62.439583],[22.164583,62.435417]]]},"properties":{"radiance":5.93}},{"type":"Feature","geometry":{"type":"Polygon","coordinates":[[[22.16875,62.435417],[22.172917,62.435417],[22.172917,62.439583],[22.16875,62.439583],[22.16875,62.435417]]]},"properties":{"radiance":5.95}},{"type":"Feature","geometry":{"type":"Polygon","coordinates":[[[22.172917,62.435417],[22.177083,62.435417],[22.177083,62.439583],[22.172917,62.439583],[22.172917,62.435417]]]},"properties":{"radiance":8.06}},{"type":"Feature","geometry":{"type":"Polygon","coordinates":[[[22.177083,62.435417],[22.18125,62.435417],[22.18125,62.439583],[22.177083,62.439583],[22.177083,62.435417]]]},"properties":{"radiance":10.42}},{"type":"Feature","geometry":{"type":"Polygon","coordinates":[[[22.18125,62.435417],[22.185417,62.435417],[22.185417,62.439583],[22.18125,62.439583],[22.18125,62.435417]]]},"properties":{"radiance":11.86}},{"type":"Feature","geometry":{"type":"Polygon","coordinates":[[[22.185417,62.435417],[22.189583,62.435417],[22.189583,62.439583],[22.185417,62.439583],[22.185417,62.435417]]]},"properties":{"radiance":10.95}},{"type":"Feature","geometry":{"type":"Polygon","coordinates":[[[22.189583,62.435417],[22.19375,62.435417],[22.19375,62.439583],[22.189583,62.439583],[22.189583,62.435417]]]},"properties":{"radiance":7.24}},{"type":"Feature","geometry":{"type":"Polygon","coordinates":[[[22.19375,62.435417],[22.197917,62.435417],[22.197917,62.439583],[22.19375,62.439583],[22.19375,62.435417]]]},"properties":{"radiance":7.2}},{"type":"Feature","geometry":{"type":"Polygon","coordinates":[[[22.197917,62.435417],[22.202083,62.435417],[22.202083,62.439583],[22.197917,62.439583],[22.197917,62.435417]]]},"properties":{"radiance":7.14}},{"type":"Feature","geometry":{"type":"Polygon","coordinates":[[[22.202083,62.435417],[22.20625,62.435417],[22.20625,62.439583],[22.202083,62.439583],[22.202083,62.435417]]]},"properties":{"radiance":6.77}},{"type":"Feature","geometry":{"type":"Polygon","coordinates":[[[22.15625,62.43125],[22.160417,62.43125],[22.160417,62.435417],[22.15625,62.435417],[22.15625,62.43125]]]},"properties":{"radiance":5.94}},{"type":"Feature","geometry":{"type":"Polygon","coordinates":[[[22.160417,62.43125],[22.164583,62.43125],[22.164583,62.435417],[22.160417,62.435417],[22.160417,62.43125]]]},"properties":{"radiance":8.84}},{"type":"Feature","geometry":{"type":"Polygon","coordinates":[[[22.164583,62.43125],[22.16875,62.43125],[22.16875,62.435417],[22.164583,62.435417],[22.164583,62.43125]]]},"properties":{"radiance":13.95}},{"type":"Feature","geometry":{"type":"Polygon","coordinates":[[[22.16875,62.43125],[22.172917,62.43125],[22.172917,62.435417],[22.16875,62.435417],[22.16875,62.43125]]]},"properties":{"radiance":8.82}},{"type":"Feature","geometry":{"type":"Polygon","coordinates":[[[22.172917,62.43125],[22.177083,62.43125],[22.177083,62.435417],[22.172917,62.435417],[22.172917,62.43125]]]},"properties":{"radiance":32.34}},{"type":"Feature","geometry":{"type":"Polygon","coordinates":[[[22.177083,62.43125],[22.18125,62.43125],[22.18125,62.435417],[22.177083,62.435417],[22.177083,62.43125]]]},"properties":{"radiance":15.93}},{"type":"Feature","geometry":{"type":"Polygon","coordinates":[[[22.18125,62.43125],[22.185417,62.43125],[22.185417,62.435417],[22.18125,62.435417],[22.18125,62.43125]]]},"properties":{"radiance":13.65}},{"type":"Feature","geometry":{"type":"Polygon","coordinates":[[[22.185417,62.43125],[22.189583,62.43125],[22.189583,62.435417],[22.185417,62.435417],[22.185417,62.43125]]]},"properties":{"radiance":11.87}},{"type":"Feature","geometry":{"type":"Polygon","coordinates":[[[22.189583,62.43125],[22.19375,62.43125],[22.19375,62.435417],[22.189583,62.435417],[22.189583,62.43125]]]},"properties":{"radiance":9.37}},{"type":"Feature","geometry":{"type":"Polygon","coordinates":[[[22.19375,62.43125],[22.197917,62.43125],[22.197917,62.435417],[22.19375,62.435417],[22.19375,62.43125]]]},"properties":{"radiance":8.91}},{"type":"Feature","geometry":{"type":"Polygon","coordinates":[[[22.197917,62.43125],[22.202083,62.43125],[22.202083,62.435417],[22.197917,62.435417],[22.197917,62.43125]]]},"properties":{"radiance":8.34}},{"type":"Feature","geometry":{"type":"Polygon","coordinates":[[[22.202083,62.43125],[22.20625,62.43125],[22.20625,62.435417],[22.202083,62.435417],[22.202083,62.43125]]]},"properties":{"radiance":7.41}},{"type":"Feature","geometry":{"type":"Polygon","coordinates":[[[22.152083,62.427083],[22.15625,62.427083],[22.15625,62.43125],[22.152083,62.43125],[22.152083,62.427083]]]},"properties":{"radiance":5.42}},{"type":"Feature","geometry":{"type":"Polygon","coordinates":[[[22.15625,62.427083],[22.160417,62.427083],[22.160417,62.43125],[22.15625,62.43125],[22.15625,62.427083]]]},"properties":{"radiance":11.84}},{"type":"Feature","geometry":{"type":"Polygon","coordinates":[[[22.160417,62.427083],[22.164583,62.427083],[22.164583,62.43125],[22.160417,62.43125],[22.160417,62.427083]]]},"properties":{"radiance":9.93}},{"type":"Feature","geometry":{"type":"Polygon","coordinates":[[[22.164583,62.427083],[22.16875,62.427083],[22.16875,62.43125],[22.164583,62.43125],[22.164583,62.427083]]]},"properties":{"radiance":29.02}},{"type":"Feature","geometry":{"type":"Polygon","coordinates":[[[22.16875,62.427083],[22.172917,62.427083],[22.172917,62.43125],[22.16875,62.43125],[22.16875,62.427083]]]},"properties":{"radiance":42.71}},{"type":"Feature","geometry":{"type":"Polygon","coordinates":[[[22.172917,62.427083],[22.177083,62.427083],[22.177083,62.43125],[22.172917,62.43125],[22.172917,62.427083]]]},"properties":{"radiance":60.14}},{"type":"Feature","geometry":{"type":"Polygon","coordinates":[[[22.177083,62.427083],[22.18125,62.427083],[22.18125,62.43125],[22.177083,62.43125],[22.177083,62.427083]]]},"properties":{"radiance":54.34}},{"type":"Feature","geometry":{"type":"Polygon","coordinates":[[[22.18125,62.427083],[22.185417,62.427083],[22.185417,62.43125],[22.18125,62.43125],[22.18125,62.427083]]]},"properties":{"radiance":22.13}},{"type":"Feature","geometry":{"type":"Polygon","coordinates":[[[22.185417,62.427083],[22.189583,62.427083],[22.189583,62.43125],[22.185417,62.43125],[22.185417,62.427083]]]},"properties":{"radiance":14.29}},{"type":"Feature","geometry":{"type":"Polygon","coordinates":[[[22.189583,62.427083],[22.19375,62.427083],[22.19375,62.43125],[22.189583,62.43125],[22.189583,62.427083]]]},"properties":{"radiance":9.61}},{"type":"Feature","geometry":{"type":"Polygon","coordinates":[[[22.19375,62.427083],[22.197917,62.427083],[22.197917,62.43125],[22.19375,62.43125],[22.19375,62.427083]]]},"properties":{"radiance":9.48}},{"type":"Feature","geometry":{"type":"Polygon","coordinates":[[[22.197917,62.427083],[22.202083,62.427083],[22.202083,62.43125],[22.197917,62.43125],[22.197917,62.427083]]]},"properties":{"radiance":7.3}},{"type":"Feature","geometry":{"type":"Polygon","coordinates":[[[22.202083,62.427083],[22.20625,62.427083],[22.20625,62.43125],[22.202083,62.43125],[22.202083,62.427083]]]},"properties":{"radiance":5.64}},{"type":"Feature","geometry":{"type":"Polygon","coordinates":[[[22.152083,62.422917],[22.15625,62.422917],[22.15625,62.427083],[22.152083,62.427083],[22.152083,62.422917]]]},"properties":{"radiance":8.6}},{"type":"Feature","geometry":{"type":"Polygon","coordinates":[[[22.15625,62.422917],[22.160417,62.422917],[22.160417,62.427083],[22.15625,62.427083],[22.15625,62.422917]]]},"properties":{"radiance":7.84}},{"type":"Feature","geometry":{"type":"Polygon","coordinates":[[[22.160417,62.422917],[22.164583,62.422917],[22.164583,62.427083],[22.160417,62.427083],[22.160417,62.422917]]]},"properties":{"radiance":11.2}},{"type":"Feature","geometry":{"type":"Polygon","coordinates":[[[22.164583,62.422917],[22.16875,62.422917],[22.16875,62.427083],[22.164583,62.427083],[22.164583,62.422917]]]},"properties":{"radiance":27.43}},{"type":"Feature","geometry":{"type":"Polygon","coordinates":[[[22.16875,62.422917],[22.172917,62.422917],[22.172917,62.427083],[22.16875,62.427083],[22.16875,62.422917]]]},"properties":{"radiance":59.97}},{"type":"Feature","geometry":{"type":"Polygon","coordinates":[[[22.172917,62.422917],[22.177083,62.422917],[22.177083,62.427083],[22.172917,62.427083],[22.172917,62.422917]]]},"properties":{"radiance":63.88}},{"type":"Feature","geometry":{"type":"Polygon","coordinates":[[[22.177083,62.422917],[22.18125,62.422917],[22.18125,62.427083],[22.177083,62.427083],[22.177083,62.422917]]]},"properties":{"radiance":67.53}},{"type":"Feature","geometry":{"type":"Polygon","coordinates":[[[22.18125,62.422917],[22.185417,62.422917],[22.185417,62.427083],[22.18125,62.427083],[22.18125,62.422917]]]},"properties":{"radiance":14.64}},{"type":"Feature","geometry":{"type":"Polygon","coordinates":[[[22.185417,62.422917],[22.189583,62.422917],[22.189583,62.427083],[22.185417,62.427083],[22.185417,62.422917]]]},"properties":{"radiance":13.14}},{"type":"Feature","geometry":{"type":"Polygon","coordinates":[[[22.189583,62.422917],[22.19375,62.422917],[22.19375,62.427083],[22.189583,62.427083],[22.189583,62.422917]]]},"properties":{"radiance":10.82}},{"type":"Feature","geometry":{"type":"Polygon","coordinates":[[[22.19375,62.422917],[22.197917,62.422917],[22.197917,62.427083],[22.19375,62.427083],[22.19375,62.422917]]]},"properties":{"radiance":10.67}},{"type":"Feature","geometry":{"type":"Polygon","coordinates":[[[22.197917,62.422917],[22.202083,62.422917],[22.202083,62.427083],[22.197917,62.427083],[22.197917,62.422917]]]},"properties":{"radiance":9.56}},{"type":"Feature","geometry":{"type":"Polygon","coordinates":[[[22.15625,62.41875],[22.160417,62.41875],[22.160417,62.422917],[22.15625,62.422917],[22.15625,62.41875]]]},"properties":{"radiance":7.83}},{"type":"Feature","geometry":{"type":"Polygon","coordinates":[[[22.160417,62.41875],[22.164583,62.41875],[22.164583,62.422917],[22.160417,62.422917],[22.160417,62.41875]]]},"properties":{"radiance":8.07}},{"type":"Feature","geometry":{"type":"Polygon","coordinates":[[[22.164583,62.41875],[22.16875,62.41875],[22.16875,62.422917],[22.164583,62.422917],[22.164583,62.41875]]]},"properties":{"radiance":15.29}},{"type":"Feature","geometry":{"type":"Polygon","coordinates":[[[22.16875,62.41875],[22.172917,62.41875],[22.172917,62.422917],[22.16875,62.422917],[22.16875,62.41875]]]},"properties":{"radiance":39.53}},{"type":"Feature","geometry":{"type":"Polygon","coordinates":[[[22.172917,62.41875],[22.177083,62.41875],[22.177083,62.422917],[22.172917,62.422917],[22.172917,62.41875]]]},"properties":{"radiance":25.65}},{"type":"Feature","geometry":{"type":"Polygon","coordinates":[[[22.177083,62.41875],[22.18125,62.41875],[22.18125,62.422917],[22.177083,62.422917],[22.177083,62.41875]]]},"properties":{"radiance":32.41}},{"type":"Feature","geometry":{"type":"Polygon","coordinates":[[[22.18125,62.41875],[22.185417,62.41875],[22.185417,62.422917],[22.18125,62.422917],[22.18125,62.41875]]]},"properties":{"radiance":12.33}},{"type":"Feature","geometry":{"type":"Polygon","coordinates":[[[22.185417,62.41875],[22.189583,62.41875],[22.189583,62.422917],[22.185417,62.422917],[22.185417,62.41875]]]},"properties":{"radiance":10.3}},{"type":"Feature","geometry":{"type":"Polygon","coordinates":[[[22.189583,62.41875],[22.19375,62.41875],[22.19375,62.422917],[22.189583,62.422917],[22.189583,62.41875]]]},"properties":{"radiance":10.45}},{"type":"Feature","geometry":{"type":"Polygon","coordinates":[[[22.19375,62.41875],[22.197917,62.41875],[22.197917,62.422917],[22.19375,62.422917],[22.19375,62.41875]]]},"properties":{"radiance":9.04}},{"type":"Feature","geometry":{"type":"Polygon","coordinates":[[[22.197917,62.41875],[22.202083,62.41875],[22.202083,62.422917],[22.197917,62.422917],[22.197917,62.41875]]]},"properties":{"radiance":6.69}},{"type":"Feature","geometry":{"type":"Polygon","coordinates":[[[22.152083,62.414583],[22.15625,62.414583],[22.15625,62.41875],[22.152083,62.41875],[22.152083,62.414583]]]},"properties":{"radiance":9.79}},{"type":"Feature","geometry":{"type":"Polygon","coordinates":[[[22.15625,62.414583],[22.160417,62.414583],[22.160417,62.41875],[22.15625,62.41875],[22.15625,62.414583]]]},"properties":{"radiance":10.49}},{"type":"Feature","geometry":{"type":"Polygon","coordinates":[[[22.160417,62.414583],[22.164583,62.414583],[22.164583,62.41875],[22.160417,62.41875],[22.160417,62.414583]]]},"properties":{"radiance":330.79}},{"type":"Feature","geometry":{"type":"Polygon","coordinates":[[[22.164583,62.414583],[22.16875,62.414583],[22.16875,62.41875],[22.164583,62.41875],[22.164583,62.414583]]]},"properties":{"radiance":15.57}},{"type":"Feature","geometry":{"type":"Polygon","coordinates":[[[22.16875,62.414583],[22.172917,62.414583],[22.172917,62.41875],[22.16875,62.41875],[22.16875,62.414583]]]},"properties":{"radiance":17.8}},{"type":"Feature","geometry":{"type":"Polygon","coordinates":[[[22.172917,62.414583],[22.177083,62.414583],[22.177083,62.41875],[22.172917,62.41875],[22.172917,62.414583]]]},"properties":{"radiance":17.7}},{"type":"Feature","geometry":{"type":"Polygon","coordinates":[[[22.177083,62.414583],[22.18125,62.414583],[22.18125,62.41875],[22.177083,62.41875],[22.177083,62.414583]]]},"properties":{"radiance":11.88}},{"type":"Feature","geometry":{"type":"Polygon","coordinates":[[[22.18125,62.414583],[22.185417,62.414583],[22.185417,62.41875],[22.18125,62.41875],[22.18125,62.414583]]]},"properties":{"radiance":9.27}},{"type":"Feature","geometry":{"type":"Polygon","coordinates":[[[22.185417,62.414583],[22.189583,62.414583],[22.189583,62.41875],[22.185417,62.41875],[22.185417,62.414583]]]},"properties":{"radiance":9.28}},{"type":"Feature","geometry":{"type":"Polygon","coordinates":[[[22.189583,62.414583],[22.19375,62.414583],[22.19375,62.41875],[22.189583,62.41875],[22.189583,62.414583]]]},"properties":{"radiance":8.33}},{"type":"Feature","geometry":{"type":"Polygon","coordinates":[[[22.19375,62.414583],[22.197917,62.414583],[22.197917,62.41875],[22.19375,62.41875],[22.19375,62.414583]]]},"properties":{"radiance":6.08}},{"type":"Feature","geometry":{"type":"Polygon","coordinates":[[[22.147917,62.410417],[22.152083,62.410417],[22.152083,62.414583],[22.147917,62.414583],[22.147917,62.410417]]]},"properties":{"radiance":6.5}},{"type":"Feature","geometry":{"type":"Polygon","coordinates":[[[22.152083,62.410417],[22.15625,62.410417],[22.15625,62.414583],[22.152083,62.414583],[22.152083,62.410417]]]},"properties":{"radiance":9.64}},{"type":"Feature","geometry":{"type":"Polygon","coordinates":[[[22.15625,62.410417],[22.160417,62.410417],[22.160417,62.414583],[22.15625,62.414583],[22.15625,62.410417]]]},"properties":{"radiance":33.35}},{"type":"Feature","geometry":{"type":"Polygon","coordinates":[[[22.160417,62.410417],[22.164583,62.410417],[22.164583,62.414583],[22.160417,62.414583],[22.160417,62.410417]]]},"properties":{"radiance":645.08}},{"type":"Feature","geometry":{"type":"Polygon","coordinates":[[[22.164583,62.410417],[22.16875,62.410417],[22.16875,62.414583],[22.164583,62.414583],[22.164583,62.410417]]]},"properties":{"radiance":906.83}},{"type":"Feature","geometry":{"type":"Polygon","coordinates":[[[22.16875,62.410417],[22.172917,62.410417],[22.172917,62.414583],[22.16875,62.414583],[22.16875,62.410417]]]},"properties":{"radiance":788.55}},{"type":"Feature","geometry":{"type":"Polygon","coordinates":[[[22.172917,62.410417],[22.177083,62.410417],[22.177083,62.414583],[22.172917,62.414583],[22.172917,62.410417]]]},"properties":{"radiance":506.59}},{"type":"Feature","geometry":{"type":"Polygon","coordinates":[[[22.177083,62.410417],[22.18125,62.410417],[22.18125,62.414583],[22.177083,62.414583],[22.177083,62.410417]]]},"properties":{"radiance":55.91}},{"type":"Feature","geometry":{"type":"Polygon","coordinates":[[[22.18125,62.410417],[22.185417,62.410417],[22.185417,62.414583],[22.18125,62.414583],[22.18125,62.410417]]]},"properties":{"radiance":8.28}},{"type":"Feature","geometry":{"type":"Polygon","coordinates":[[[22.185417,62.410417],[22.189583,62.410417],[22.189583,62.414583],[22.185417,62.414583],[22.185417,62.410417]]]},"properties":{"radiance":6.83}},{"type":"Feature","geometry":{"type":"Polygon","coordinates":[[[22.189583,62.410417],[22.19375,62.410417],[22.19375,62.414583],[22.189583,62.414583],[22.189583,62.410417]]]},"properties":{"radiance":6.59}},{"type":"Feature","geometry":{"type":"Polygon","coordinates":[[[22.19375,62.410417],[22.197917,62.410417],[22.197917,62.414583],[22.19375,62.414583],[22.19375,62.410417]]]},"properties":{"radiance":5.23}},{"type":"Feature","geometry":{"type":"Polygon","coordinates":[[[22.152083,62.40625],[22.15625,62.40625],[22.15625,62.410417],[22.152083,62.410417],[22.152083,62.40625]]]},"properties":{"radiance":5.05}},{"type":"Feature","geometry":{"type":"Polygon","coordinates":[[[22.15625,62.40625],[22.160417,62.40625],[22.160417,62.410417],[22.15625,62.410417],[22.15625,62.40625]]]},"properties":{"radiance":613.26}},{"type":"Feature","geometry":{"type":"Polygon","coordinates":[[[22.160417,62.40625],[22.164583,62.40625],[22.164583,62.410417],[22.160417,62.410417],[22.160417,62.40625]]]},"properties":{"radiance":833.6}},{"type":"Feature","geometry":{"type":"Polygon","coordinates":[[[22.164583,62.40625],[22.16875,62.40625],[22.16875,62.410417],[22.164583,62.410417],[22.164583,62.40625]]]},"properties":{"radiance":962.42}},{"type":"Feature","geometry":{"type":"Polygon","coordinates":[[[22.16875,62.40625],[22.172917,62.40625],[22.172917,62.410417],[22.16875,62.410417],[22.16875,62.40625]]]},"properties":{"radiance":853.98}},{"type":"Feature","geometry":{"type":"Polygon","coordinates":[[[22.172917,62.40625],[22.177083,62.40625],[22.177083,62.410417],[22.172917,62.410417],[22.172917,62.40625]]]},"properties":{"radiance":533.52}},{"type":"Feature","geometry":{"type":"Polygon","coordinates":[[[22.177083,62.40625],[22.18125,62.40625],[22.18125,62.410417],[22.177083,62.410417],[22.177083,62.40625]]]},"properties":{"radiance":50.93}},{"type":"Feature","geometry":{"type":"Polygon","coordinates":[[[22.18125,62.40625],[22.185417,62.40625],[22.185417,62.410417],[22.18125,62.410417],[22.18125,62.40625]]]},"properties":{"radiance":13.42}},{"type":"Feature","geometry":{"type":"Polygon","coordinates":[[[22.185417,62.40625],[22.189583,62.40625],[22.189583,62.410417],[22.185417,62.410417],[22.185417,62.40625]]]},"properties":{"radiance":7.24}},{"type":"Feature","geometry":{"type":"Polygon","coordinates":[[[22.189583,62.40625],[22.19375,62.40625],[22.19375,62.410417],[22.189583,62.410417],[22.189583,62.40625]]]},"properties":{"radiance":7.24}},{"type":"Feature","geometry":{"type":"Polygon","coordinates":[[[22.19375,62.40625],[22.197917,62.40625],[22.197917,62.410417],[22.19375,62.410417],[22.19375,62.40625]]]},"properties":{"radiance":6.71}},{"type":"Feature","geometry":{"type":"Polygon","coordinates":[[[22.197917,62.40625],[22.202083,62.40625],[22.202083,62.410417],[22.197917,62.410417],[22.197917,62.40625]]]},"properties":{"radiance":5.39}},{"type":"Feature","geometry":{"type":"Polygon","coordinates":[[[22.15625,62.402083],[22.160417,62.402083],[22.160417,62.40625],[22.15625,62.40625],[22.15625,62.402083]]]},"properties":{"radiance":14.52}},{"type":"Feature","geometry":{"type":"Polygon","coordinates":[[[22.160417,62.402083],[22.164583,62.402083],[22.164583,62.40625],[22.160417,62.40625],[22.160417,62.402083]]]},"properties":{"radiance":12.59}},{"type":"Feature","geometry":{"type":"Polygon","coordinates":[[[22.164583,62.402083],[22.16875,62.402083],[22.16875,62.40625],[22.164583,62.40625],[22.164583,62.402083]]]},"properties":{"radiance":13.99}},{"type":"Feature","geometry":{"type":"Polygon","coordinates":[[[22.16875,62.402083],[22.172917,62.402083],[22.172917,62.40625],[22.16875,62.40625],[22.16875,62.402083]]]},"properties":{"radiance":13.49}},{"type":"Feature","geometry":{"type":"Polygon","coordinates":[[[22.172917,62.402083],[22.177083,62.402083],[22.177083,62.40625],[22.172917,62.40625],[22.172917,62.402083]]]},"properties":{"radiance":345.05}},{"type":"Feature","geometry":{"type":"Polygon","coordinates":[[[22.177083,62.402083],[22.18125,62.402083],[22.18125,62.40625],[22.177083,62.40625],[22.177083,62.402083]]]},"properties":{"radiance":10.24}},{"type":"Feature","geometry":{"type":"Polygon","coordinates":[[[22.18125,62.402083],[22.185417,62.402083],[22.185417,62.40625],[22.18125,62.40625],[22.18125,62.402083]]]},"properties":{"radiance":7.71}},{"type":"Feature","geometry":{"type":"Polygon","coordinates":[[[22.185417,62.402083],[22.189583,62.402083],[22.189583,62.40625],[22.185417,62.40625],[22.185417,62.402083]]]},"properties":{"radiance":5.94}},{"type":"Feature","geometry":{"type":"Polygon","coordinates":[[[22.189583,62.402083],[22.19375,62.402083],[22.19375,62.40625],[22.189583,62.40625],[22.189583,62.402083]]]},"properties":{"radiance":5.48}},{"type":"Feature","geometry":{"type":"Polygon","coordinates":[[[22.19375,62.402083],[22.197917,62.402083],[22.197917,62.40625],[22.19375,62.40625],[22.19375,62.402083]]]},"properties":{"radiance":5.49}},{"type":"Feature","geometry":{"type":"Polygon","coordinates":[[[22.197917,62.402083],[22.202083,62.402083],[22.202083,62.40625],[22.197917,62.40625],[22.197917,62.402083]]]},"properties":{"radiance":6.18}},{"type":"Feature","geometry":{"type":"Polygon","coordinates":[[[22.202083,62.402083],[22.20625,62.402083],[22.20625,62.40625],[22.202083,62.40625],[22.202083,62.402083]]]},"properties":{"radiance":5.41}},{"type":"Feature","geometry":{"type":"Polygon","coordinates":[[[22.152083,62.397917],[22.15625,62.397917],[22.15625,62.402083],[22.152083,62.402083],[22.152083,62.397917]]]},"properties":{"radiance":5.13}},{"type":"Feature","geometry":{"type":"Polygon","coordinates":[[[22.15625,62.397917],[22.160417,62.397917],[22.160417,62.402083],[22.15625,62.402083],[22.15625,62.397917]]]},"properties":{"radiance":10.52}},{"type":"Feature","geometry":{"type":"Polygon","coordinates":[[[22.160417,62.397917],[22.164583,62.397917],[22.164583,62.402083],[22.160417,62.402083],[22.160417,62.397917]]]},"properties":{"radiance":13.79}},{"type":"Feature","geometry":{"type":"Polygon","coordinates":[[[22.164583,62.397917],[22.16875,62.397917],[22.16875,62.402083],[22.164583,62.402083],[22.164583,62.397917]]]},"properties":{"radiance":9.83}},{"type":"Feature","geometry":{"type":"Polygon","coordinates":[[[22.16875,62.397917],[22.172917,62.397917],[22.172917,62.402083],[22.16875,62.402083],[22.16875,62.397917]]]},"properties":{"radiance":7.85}},{"type":"Feature","geometry":{"type":"Polygon","coordinates":[[[22.15625,62.39375],[22.160417,62.39375],[22.160417,62.397917],[22.15625,62.397917],[22.15625,62.39375]]]},"properties":{"radiance":5.65}},{"type":"Feature","geometry":{"type":"Polygon","coordinates":[[[22.160417,62.39375],[22.164583,62.39375],[22.164583,62.397917],[22.160417,62.397917],[22.160417,62.39375]]]},"properties":{"radiance":7.05}},{"type":"Feature","geometry":{"type":"Polygon","coordinates":[[[22.164583,62.39375],[22.16875,62.39375],[22.16875,62.397917],[22.164583,62.397917],[22.164583,62.39375]]]},"properties":{"radiance":6.31}},{"type":"Feature","geometry":{"type":"Polygon","coordinates":[[[22.23125,62.389583],[22.235417,62.389583],[22.235417,62.39375],[22.23125,62.39375],[22.23125,62.389583]]]},"properties":{"radiance":5.42}}]}