{"type":"FeatureCollection","features":[{"type":"Feature","geometry":{"type":"Polygon","coordinates":[[[23.99375,66.822917],[23.997917,66.822917],[23.997917,66.827083],[23.99375,66.827083],[23.99375,66.822917]]]},"properties":{"radiance":5.05}},{"type":"Feature","geometry":{"type":"Polygon","coordinates":[[[23.985417,66.80625],[23.989583,66.80625],[23.989583,66.810417],[23.985417,66.810417],[23.985417,66.80625]]]},"properties":{"radiance":7.71}},{"type":"Feature","geometry":{"type":"Polygon","coordinates":[[[23.989583,66.80625],[23.99375,66.80625],[23.99375,66.810417],[23.989583,66.810417],[23.989583,66.80625]]]},"properties":{"radiance":8.31}},{"type":"Feature","geometry":{"type":"Polygon","coordinates":[[[23.985417,66.802083],[23.989583,66.802083],[23.989583,66.80625],[23.985417,66.80625],[23.985417,66.802083]]]},"properties":{"radiance":31.48}},{"type":"Feature","geometry":{"type":"Polygon","coordinates":[[[23.989583,66.802083],[23.99375,66.802083],[23.99375,66.80625],[23.989583,66.80625],[23.989583,66.802083]]]},"properties":{"radiance":7.63}},{"type":"Feature","geometry":{"type":"Polygon","coordinates":[[[23.977083,66.797917],[23.98125,66.797917],[23.98125,66.802083],[23.977083,66.802083],[23.977083,66.797917]]]},"properties":{"radiance":5.43}},{"type":"Feature","geometry":{"type":"Polygon","coordinates":[[[23.98125,66.797917],[23.985417,66.797917],[23.985417,66.802083],[23.98125,66.802083],[23.98125,66.797917]]]},"properties":{"radiance":7.48}},{"type":"Feature","geometry":{"type":"Polygon","coordinates":[[[23.985417,66.797917],[23.989583,66.797917],[23.989583,66.802083],[23.985417,66.802083],[23.985417,66.797917]]]},"properties":{"radiance":9.6}},{"type":"Feature","geometry":{"type":"Polygon","coordinates":[[[23.989583,66.797917],[23.99375,66.797917],[23.99375,66.802083],[23.989583,66.802083],[23.989583,66.797917]]]},"properties":{"radiance":8.69}},{"type":"Feature","geometry":{"type":"Polygon","coordinates":[[[23.99375,66.797917],[23.997917,66.797917],[23.997917,66.802083],[23.99375,66.802083],[23.99375,66.797917]]]},"properties":{"radiance":8.51}},{"type":"Feature","geometry":{"type":"Polygon","coordinates":[[[23.997917,66.797917],[24.002083,66.797917],[24.002083,66.802083],[23.997917,66.802083],[23.997917,66.797917]]]},"properties":{"radiance":7.81}},{"type":"Feature","geometry":{"type":"Polygon","coordinates":[[[23.985417,66.79375],[23.989583,66.79375],[23.989583,66.797917],[23.985417,66.797917],[23.985417,66.79375]]]},"properties":{"radiance":5.44}},{"type":"Feature","geometry":{"type":"Polygon","coordinates":[[[23.989583,66.79375],[23.99375,66.79375],[23.99375,66.797917],[23.989583,66.797917],[23.989583,66.79375]]]},"properties":{"radiance":5.58}},{"type":"Feature","geometry":{"type":"Polygon","coordinates":[[[23.99375,66.79375],[23.997917,66.79375],[23.997917,66.797917],[23.99375,66.797917],[23.99375,66.79375]]]},"properties":{"radiance":7.55}},{"type":"Feature","geometry":{"type":"Polygon","coordinates":[[[23.997917,66.79375],[24.002083,66.79375],[24.002083,66.797917],[23.997917,66.797917],[23.997917,66.79375]]]},"properties":{"radiance":5.97}},{"type":"Feature","geometry":{"type":"Polygon","coordinates":[[[24.002083,66.79375],[24.00625,66.79375],[24.00625,66.797917],[24.002083,66.797917],[24.002083,66.79375]]]},"properties":{"radiance":5.91}},{"type":"Feature","geometry":{"type":"Polygon","coordinates":[[[23.985417,66.789583],[23.989583,66.789583],[23.989583,66.79375],[23.985417,66.79375],[23.985417,66.789583]]]},"properties":{"radiance":5.26}},{"type":"Feature","geometry":{"type":"Polygon","coordinates":[[[23.989583,66.789583],[23.99375,66.789583],[23.99375,66.79375],[23.989583,66.79375],[23.989583,66.789583]]]},"properties":{"radiance":7.6}},{"type":"Feature","geometry":{"type":"Polygon","coordinates":[[[23.99375,66.789583],[23.997917,66.789583],[23.997917,66.79375],[23.99375,66.79375],[23.99375,66.789583]]]},"properties":{"radiance":9.63}},{"type":"Feature","geometry":{"type":"Polygon","coordinates":[[[23.997917,66.789583],[24.002083,66.789583],[24.002083,66.79375],[23.997917,66.79375],[23.997917,66.789583]]]},"properties":{"radiance":8.32}},{"type":"Feature","geometry":{"type":"Polygon","coordinates":[[[24.002083,66.789583],[24.00625,66.789583],[24.00625,66.79375],[24.002083,66.79375],[24.002083,66.789583]]]},"properties":{"radiance":8.45}},{"type":"Feature","geometry":{"type":"Polygon","coordinates":[[[23.985417,66.785417],[23.989583,66.785417],[23.989583,66.789583],[23.985417,66.789583],[23.985417,66.785417]]]},"properties":{"radiance":6.44}},{"type":"Feature","geometry":{"type":"Polygon","coordinates":[[[23.989583,66.785417],[23.99375,66.785417],[23.99375,66.789583],[23.989583,66.789583],[23.989583,66.785417]]]},"properties":{"radiance":8.77}},{"type":"Feature","geometry":{"type":"Polygon","coordinates":[[[23.99375,66.785417],[23.997917,66.785417],[23.997917,66.789583],[23.99375,66.789583],[23.99375,66.785417]]]},"properties":{"radiance":6.89}},{"type":"Feature","geometry":{"type":"Polygon","coordinates":[[[23.997917,66.785417],[24.002083,66.785417],[24.002083,66.789583],[23.997917,66.789583],[23.997917,66.785417]]]},"properties":{"radiance":7.55}},{"type":"Feature","geometry":{"type":"Polygon","coordinates":[[[24.002083,66.785417],[24.00625,66.785417],[24.00625,66.789583],[24.002083,66.789583],[24.002083,66.785417]]]},"properties":{"radiance":5.17}},{"type":"Feature","geometry":{"type":"Polygon","coordinates":[[[23.972917,66.78125],[23.977083,66.78125],[23.977083,66.785417],[23.972917,66.785417],[23.972917,66.78125]]]},"properties":{"radiance":5.06}},{"type":"Feature","geometry":{"type":"Polygon","coordinates":[[[23.964583,66.777083],[23.96875,66.777083],[23.96875,66.78125],[23.964583,66.78125],[23.964583,66.777083]]]},"properties":{"radiance":6.57}},{"type":"Feature","geometry":{"type":"Polygon","coordinates":[[[23.96875,66.777083],[23.972917,66.777083],[23.972917,66.78125],[23.96875,66.78125],[23.96875,66.777083]]]},"properties":{"radiance":7.04}},{"type":"Feature","geometry":{"type":"Polygon","coordinates":[[[23.95625,66.772917],[23.960417,66.772917],[23.960417,66.777083],[23.95625,66.777083],[23.95625,66.772917]]]},"properties":{"radiance":6.78}},{"type":"Feature","geometry":{"type":"Polygon","coordinates":[[[23.960417,66.772917],[23.964583,66.772917],[23.964583,66.777083],[23.960417,66.777083],[23.960417,66.772917]]]},"properties":{"radiance":6.21}},{"type":"Feature","geometry":{"type":"Polygon","coordinates":[[[23.964583,66.772917],[23.96875,66.772917],[23.96875,66.777083],[23.964583,66.777083],[23.964583,66.772917]]]},"properties":{"radiance":6.06}},{"type":"Feature","geometry":{"type":"Polygon","coordinates":[[[23.96875,66.772917],[23.972917,66.772917],[23.972917,66.777083],[23.96875,66.777083],[23.96875,66.772917]]]},"properties":{"radiance":5.85}},{"type":"Feature","geometry":{"type":"Polygon","coordinates":[[[23.964583,66.76875],[23.96875,66.76875],[23.96875,66.772917],[23.964583,66.772917],[23.964583,66.76875]]]},"properties":{"radiance":6.78}},{"type":"Feature","geometry":{"type":"Polygon","coordinates":[[[23.852083,66.547917],[23.85625,66.547917],[23.85625,66.552083],[23.852083,66.552083],[23.852083,66.547917]]]},"properties":{"radiance":6.03}},{"type":"Feature","geometry":{"type":"Polygon","coordinates":[[[24.614583,66.535417],[24.61875,66.535417],[24.61875,66.539583],[24.614583,66.539583],[24.614583,66.535417]]]},"properties":{"radiance":5.42}},{"type":"Feature","geometry":{"type":"Polygon","coordinates":[[[24.622917,66.535417],[24.627083,66.535417],[24.627083,66.539583],[24.622917,66.539583],[24.622917,66.535417]]]},"properties":{"radiance":6.76}},{"type":"Feature","geometry":{"type":"Polygon","coordinates":[[[24.602083,66.53125],[24.60625,66.53125],[24.60625,66.535417],[24.602083,66.535417],[24.602083,66.53125]]]},"properties":{"radiance":6.42}},{"type":"Feature","geometry":{"type":"Polygon","coordinates":[[[24.61875,66.53125],[24.622917,66.53125],[24.622917,66.535417],[24.61875,66.535417],[24.61875,66.53125]]]},"properties":{"radiance":5.67}},{"type":"Feature","geometry":{"type":"Polygon","coordinates":[[[24.622917,66.53125],[24.627083,66.53125],[24.627083,66.535417],[24.622917,66.535417],[24.622917,66.53125]]]},"properties":{"radiance":5.69}},{"type":"Feature","geometry":{"type":"Polygon","coordinates":[[[24.627083,66.53125],[24.63125,66.53125],[24.63125,66.535417],[24.627083,66.535417],[24.627083,66.53125]]]},"properties":{"radiance":7.14}},{"type":"Feature","geometry":{"type":"Polygon","coordinates":[[[24.63125,66.53125],[24.635417,66.53125],[24.635417,66.535417],[24.63125,66.535417],[24.63125,66.53125]]]},"properties":{"radiance":7.73}},{"type":"Feature","geometry":{"type":"Polygon","coordinates":[[[24.59375,66.527083],[24.597917,66.527083],[24.597917,66.53125],[24.59375,66.53125],[24.59375,66.527083]]]},"properties":{"radiance":6.37}},{"type":"Feature","geometry":{"type":"Polygon","coordinates":[[[23.685417,66.38125],[23.689583,66.38125],[23.689583,66.385417],[23.685417,66.385417],[23.685417,66.38125]]]},"properties":{"radiance":27.43}},{"type":"Feature","geometry":{"type":"Polygon","coordinates":[[[23.689583,66.38125],[23.69375,66.38125],[23.69375,66.385417],[23.689583,66.385417],[23.689583,66.38125]]]},"properties":{"radiance":15.59}},{"type":"Feature","geometry":{"type":"Polygon","coordinates":[[[23.69375,66.38125],[23.697917,66.38125],[23.697917,66.385417],[23.69375,66.385417],[23.69375,66.38125]]]},"properties":{"radiance":11.5}},{"type":"Feature","geometry":{"type":"Polygon","coordinates":[[[23.685417,66.377083],[23.689583,66.377083],[23.689583,66.38125],[23.685417,66.38125],[23.685417,66.377083]]]},"properties":{"radiance":18.99}},{"type":"Feature","geometry":{"type":"Polygon","coordinates":[[[23.689583,66.377083],[23.69375,66.377083],[23.69375,66.38125],[23.689583,66.38125],[23.689583,66.377083]]]},"properties":{"radiance":15.15}},{"type":"Feature","geometry":{"type":"Polygon","coordinates":[[[23.69375,66.377083],[23.697917,66.377083],[23.697917,66.38125],[23.69375,66.38125],[23.69375,66.377083]]]},"properties":{"radiance":13.23}},{"type":"Feature","geometry":{"type":"Polygon","coordinates":[[[23.697917,66.377083],[23.702083,66.377083],[23.702083,66.38125],[23.697917,66.38125],[23.697917,66.377083]]]},"properties":{"radiance":7.99}},{"type":"Feature","geometry":{"type":"Polygon","coordinates":[[[23.702083,66.377083],[23.70625,66.377083],[23.70625,66.38125],[23.702083,66.38125],[23.702083,66.377083]]]},"properties":{"radiance":6.43}},{"type":"Feature","geometry":{"type":"Polygon","coordinates":[[[23.714583,66.377083],[23.71875,66.377083],[23.71875,66.38125],[23.714583,66.38125],[23.714583,66.377083]]]},"properties":{"radiance":5.08}},{"type":"Feature","geometry":{"type":"Polygon","coordinates":[[[23.71875,66.377083],[23.722917,66.377083],[23.722917,66.38125],[23.71875,66.38125],[23.71875,66.377083]]]},"properties":{"radiance":5.04}},{"type":"Feature","geometry":{"type":"Polygon","coordinates":[[[23.752083,66.377083],[23.75625,66.377083],[23.75625,66.38125],[23.752083,66.38125],[23.752083,66.377083]]]},"properties":{"radiance":5.23}},{"type":"Feature","geometry":{"type":"Polygon","coordinates":[[[23.75625,66.377083],[23.760417,66.377083],[23.760417,66.38125],[23.75625,66.38125],[23.75625,66.377083]]]},"properties":{"radiance":7.65}},{"type":"Feature","geometry":{"type":"Polygon","coordinates":[[[23.760417,66.377083],[23.764583,66.377083],[23.764583,66.38125],[23.760417,66.38125],[23.760417,66.377083]]]},"properties":{"radiance":6.6}},{"type":"Feature","geometry":{"type":"Polygon","coordinates":[[[23.764583,66.377083],[23.76875,66.377083],[23.76875,66.38125],[23.764583,66.38125],[23.764583,66.377083]]]},"properties":{"radiance":6.83}},{"type":"Feature","geometry":{"type":"Polygon","coordinates":[[[23.76875,66.377083],[23.772917,66.377083],[23.772917,66.38125],[23.76875,66.38125],[23.76875,66.377083]]]},"properties":{"radiance":5.29}},{"type":"Feature","geometry":{"type":"Polygon","coordinates":[[[23.772917,66.377083],[23.777083,66.377083],[23.777083,66.38125],[23.772917,66.38125],[23.772917,66.377083]]]},"properties":{"radiance":7.08}},{"type":"Feature","geometry":{"type":"Polygon","coordinates":[[[23.777083,66.377083],[23.78125,66.377083],[23.78125,66.38125],[23.777083,66.38125],[23.777083,66.377083]]]},"properties":{"radiance":6.41}},{"type":"Feature","geometry":{"type":"Polygon","coordinates":[[[23.78125,66.377083],[23.785417,66.377083],[23.785417,66.38125],[23.78125,66.38125],[23.78125,66.377083]]]},"properties":{"radiance":5.59}},{"type":"Feature","geometry":{"type":"Polygon","coordinates":[[[23.685417,66.339583],[23.689583,66.339583],[23.689583,66.34375],[23.685417,66.34375],[23.685417,66.339583]]]},"properties":{"radiance":6.85}},{"type":"Feature","geometry":{"type":"Polygon","coordinates":[[[23.689583,66.339583],[23.69375,66.339583],[23.69375,66.34375],[23.689583,66.34375],[23.689583,66.339583]]]},"properties":{"radiance":7.53}},{"type":"Feature","geometry":{"type":"Polygon","coordinates":[[[23.69375,66.339583],[23.697917,66.339583],[23.697917,66.34375],[23.69375,66.34375],[23.69375,66.339583]]]},"properties":{"radiance":7.73}},{"type":"Feature","geometry":{"type":"Polygon","coordinates":[[[23.677083,66.335417],[23.68125,66.335417],[23.68125,66.339583],[23.677083,66.339583],[23.677083,66.335417]]]},"properties":{"radiance":6.32}},{"type":"Feature","geometry":{"type":"Polygon","coordinates":[[[23.68125,66.335417],[23.685417,66.335417],[23.685417,66.339583],[23.68125,66.339583],[23.68125,66.335417]]]},"properties":{"radiance":9.53}},{"type":"Feature","geometry":{"type":"Polygon","coordinates":[[[23.685417,66.335417],[23.689583,66.335417],[23.689583,66.339583],[23.685417,66.339583],[23.685417,66.335417]]]},"properties":{"radiance":8.92}},{"type":"Feature","geometry":{"type":"Polygon","coordinates":[[[23.689583,66.335417],[23.69375,66.335417],[23.69375,66.339583],[23.689583,66.339583],[23.689583,66.335417]]]},"properties":{"radiance":7.98}},{"type":"Feature","geometry":{"type":"Polygon","coordinates":[[[23.697917,66.335417],[23.702083,66.335417],[23.702083,66.339583],[23.697917,66.339583],[23.697917,66.335417]]]},"properties":{"radiance":5.11}},{"type":"Feature","geometry":{"type":"Polygon","coordinates":[[[23.672917,66.33125],[23.677083,66.33125],[23.677083,66.335417],[23.672917,66.335417],[23.672917,66.33125]]]},"properties":{"radiance":7.67}},{"type":"Feature","geometry":{"type":"Polygon","coordinates":[[[23.677083,66.33125],[23.68125,66.33125],[23.68125,66.335417],[23.677083,66.335417],[23.677083,66.33125]]]},"properties":{"radiance":7.58}},{"type":"Feature","geometry":{"type":"Polygon","coordinates":[[[23.68125,66.33125],[23.685417,66.33125],[23.685417,66.335417],[23.68125,66.335417],[23.68125,66.33125]]]},"properties":{"radiance":9.54}},{"type":"Feature","geometry":{"type":"Polygon","coordinates":[[[23.685417,66.33125],[23.689583,66.33125],[23.689583,66.335417],[23.685417,66.335417],[23.685417,66.33125]]]},"properties":{"radiance":6.98}},{"type":"Feature","geometry":{"type":"Polygon","coordinates":[[[23.664583,66.327083],[23.66875,66.327083],[23.66875,66.33125],[23.664583,66.33125],[23.664583,66.327083]]]},"properties":{"radiance":5.67}},{"type":"Feature","geometry":{"type":"Polygon","coordinates":[[[23.66875,66.327083],[23.672917,66.327083],[23.672917,66.33125],[23.66875,66.33125],[23.66875,66.327083]]]},"properties":{"radiance":38.01}},{"type":"Feature","geometry":{"type":"Polygon","coordinates":[[[23.672917,66.327083],[23.677083,66.327083],[23.677083,66.33125],[23.672917,66.33125],[23.672917,66.327083]]]},"properties":{"radiance":30.24}},{"type":"Feature","geometry":{"type":"Polygon","coordinates":[[[23.677083,66.327083],[23.68125,66.327083],[23.68125,66.33125],[23.677083,66.33125],[23.677083,66.327083]]]},"properties":{"radiance":10.28}},{"type":"Feature","geometry":{"type":"Polygon","coordinates":[[[23.68125,66.327083],[23.685417,66.327083],[23.685417,66.33125],[23.68125,66.33125],[23.68125,66.327083]]]},"properties":{"radiance":8.09}},{"type":"Feature","geometry":{"type":"Polygon","coordinates":[[[23.660417,66.322917],[23.664583,66.322917],[23.664583,66.327083],[23.660417,66.327083],[23.660417,66.322917]]]},"properties":{"radiance":33.77}},{"type":"Feature","geometry":{"type":"Polygon","coordinates":[[[23.664583,66.322917],[23.66875,66.322917],[23.66875,66.327083],[23.664583,66.327083],[23.664583,66.322917]]]},"properties":{"radiance":12.26}},{"type":"Feature","geometry":{"type":"Polygon","coordinates":[[[23.66875,66.322917],[23.672917,66.322917],[23.672917,66.327083],[23.66875,66.327083],[23.66875,66.322917]]]},"properties":{"radiance":45.02}},{"type":"Feature","geometry":{"type":"Polygon","coordinates":[[[23.672917,66.322917],[23.677083,66.322917],[23.677083,66.327083],[23.672917,66.327083],[23.672917,66.322917]]]},"properties":{"radiance":45.58}},{"type":"Feature","geometry":{"type":"Polygon","coordinates":[[[23.677083,66.322917],[23.68125,66.322917],[23.68125,66.327083],[23.677083,66.327083],[23.677083,66.322917]]]},"properties":{"radiance":8.67}},{"type":"Feature","geometry":{"type":"Polygon","coordinates":[[[23.68125,66.322917],[23.685417,66.322917],[23.685417,66.327083],[23.68125,66.327083],[23.68125,66.322917]]]},"properties":{"radiance":5.11}},{"type":"Feature","geometry":{"type":"Polygon","coordinates":[[[23.65625,66.31875],[23.660417,66.31875],[23.660417,66.322917],[23.65625,66.322917],[23.65625,66.31875]]]},"properties":{"radiance":5.71}},{"type":"Feature","geometry":{"type":"Polygon","coordinates":[[[23.660417,66.31875],[23.664583,66.31875],[23.664583,66.322917],[23.660417,66.322917],[23.660417,66.31875]]]},"properties":{"radiance":35.89}},{"type":"Feature","geometry":{"type":"Polygon","coordinates":[[[23.664583,66.31875],[23.66875,66.31875],[23.66875,66.322917],[23.664583,66.322917],[23.664583,66.31875]]]},"properties":{"radiance":39.95}},{"type":"Feature","geometry":{"type":"Polygon","coordinates":[[[23.66875,66.31875],[23.672917,66.31875],[23.672917,66.322917],[23.66875,66.322917],[23.66875,66.31875]]]},"properties":{"radiance":44.74}},{"type":"Feature","geometry":{"type":"Polygon","coordinates":[[[23.672917,66.31875],[23.677083,66.31875],[23.677083,66.322917],[23.672917,66.322917],[23.672917,66.31875]]]},"properties":{"radiance":29.75}},{"type":"Feature","geometry":{"type":"Polygon","coordinates":[[[23.65625,66.314583],[23.660417,66.314583],[23.660417,66.31875],[23.65625,66.31875],[23.65625,66.314583]]]},"properties":{"radiance":6.38}},{"type":"Feature","geometry":{"type":"Polygon","coordinates":[[[23.660417,66.314583],[23.664583,66.314583],[23.664583,66.31875],[23.660417,66.31875],[23.660417,66.314583]]]},"properties":{"radiance":7.96}},{"type":"Feature","geometry":{"type":"Polygon","coordinates":[[[23.664583,66.314583],[23.66875,66.314583],[23.66875,66.31875],[23.664583,66.31875],[23.664583,66.314583]]]},"properties":{"radiance":6.72}},{"type":"Feature","geometry":{"type":"Polygon","coordinates":[[[23.66875,66.314583],[23.672917,66.314583],[23.672917,66.31875],[23.66875,66.31875],[23.66875,66.314583]]]},"properties":{"radiance":6.4}},{"type":"Feature","geometry":{"type":"Polygon","coordinates":[[[23.672917,66.314583],[23.677083,66.314583],[23.677083,66.31875],[23.672917,66.31875],[23.672917,66.314583]]]},"properties":{"radiance":6.19}},{"type":"Feature","geometry":{"type":"Polygon","coordinates":[[[23.65625,66.310417],[23.660417,66.310417],[23.660417,66.314583],[23.65625,66.314583],[23.65625,66.310417]]]},"properties":{"radiance":5.4}},{"type":"Feature","geometry":{"type":"Polygon","coordinates":[[[23.660417,66.310417],[23.664583,66.310417],[23.664583,66.314583],[23.660417,66.314583],[23.660417,66.310417]]]},"properties":{"radiance":8.48}},{"type":"Feature","geometry":{"type":"Polygon","coordinates":[[[23.664583,66.310417],[23.66875,66.310417],[23.66875,66.314583],[23.664583,66.314583],[23.664583,66.310417]]]},"properties":{"radiance":6.09}},{"type":"Feature","geometry":{"type":"Polygon","coordinates":[[[23.660417,66.30625],[23.664583,66.30625],[23.664583,66.310417],[23.660417,66.310417],[23.660417,66.30625]]]},"properties":{"radiance":6.1}},{"type":"Feature","geometry":{"type":"Polygon","coordinates":[[[23.664583,66.30625],[23.66875,66.30625],[23.66875,66.310417],[23.664583,66.310417],[23.664583,66.30625]]]},"properties":{"radiance":8.28}},{"type":"Feature","geometry":{"type":"Polygon","coordinates":[[[23.660417,66.302083],[23.664583,66.302083],[23.664583,66.30625],[23.660417,66.30625],[23.660417,66.302083]]]},"properties":{"radiance":5.37}},{"type":"Feature","geometry":{"type":"Polygon","coordinates":[[[23.664583,66.302083],[23.66875,66.302083],[23.66875,66.30625],[23.664583,66.30625],[23.664583,66.302083]]]},"properties":{"radiance":6.99}},{"type":"Feature","geometry":{"type":"Polygon","coordinates":[[[23.660417,66.297917],[23.664583,66.297917],[23.664583,66.302083],[23.660417,66.302083],[23.660417,66.297917]]]},"properties":{"radiance":5.5}},{"type":"Feature","geometry":{"type":"Polygon","coordinates":[[[23.664583,66.297917],[23.66875,66.297917],[23.66875,66.302083],[23.664583,66.302083],[23.664583,66.297917]]]},"properties":{"radiance":6.5}},{"type":"Feature","geometry":{"type":"Polygon","coordinates":[[[23.66875,66.289583],[23.672917,66.289583],[23.672917,66.29375],[23.66875,66.29375],[23.66875,66.289583]]]},"properties":{"radiance":5.04}},{"type":"Feature","geometry":{"type":"Polygon","coordinates":[[[23.672917,66.289583],[23.677083,66.289583],[23.677083,66.29375],[23.672917,66.29375],[23.672917,66.289583]]]},"properties":{"radiance":6.33}},{"type":"Feature","geometry":{"type":"Polygon","coordinates":[[[23.677083,66.289583],[23.68125,66.289583],[23.68125,66.29375],[23.677083,66.29375],[23.677083,66.289583]]]},"properties":{"radiance":5.49}},{"type":"Feature","geometry":{"type":"Polygon","coordinates":[[[23.677083,66.285417],[23.68125,66.285417],[23.68125,66.289583],[23.677083,66.289583],[23.677083,66.285417]]]},"properties":{"radiance":6.52}},{"type":"Feature","geometry":{"type":"Polygon","coordinates":[[[23.689583,66.28125],[23.69375,66.28125],[23.69375,66.285417],[23.689583,66.285417],[23.689583,66.28125]]]},"properties":{"radiance":5.05}},{"type":"Feature","geometry":{"type":"Polygon","coordinates":[[[23.689583,66.277083],[23.69375,66.277083],[23.69375,66.28125],[23.689583,66.28125],[23.689583,66.277083]]]},"properties":{"radiance":5.65}},{"type":"Feature","geometry":{"type":"Polygon","coordinates":[[[23.697917,66.277083],[23.702083,66.277083],[23.702083,66.28125],[23.697917,66.28125],[23.697917,66.277083]]]},"properties":{"radiance":5.62}},{"type":"Feature","geometry":{"type":"Polygon","coordinates":[[[23.702083,66.264583],[23.70625,66.264583],[23.70625,66.26875],[23.702083,66.26875],[23.702083,66.264583]]]},"properties":{"radiance":5.77}},{"type":"Feature","geometry":{"type":"Polygon","coordinates":[[[23.702083,66.260417],[23.70625,66.260417],[23.70625,66.264583],[23.702083,66.264583],[23.702083,66.260417]]]},"properties":{"radiance":5.59}},{"type":"Feature","geometry":{"type":"Polygon","coordinates":[[[23.70625,66.260417],[23.710417,66.260417],[23.710417,66.264583],[23.70625,66.264583],[23.70625,66.260417]]]},"properties":{"radiance":6.07}},{"type":"Feature","geometry":{"type":"Polygon","coordinates":[[[23.710417,66.260417],[23.714583,66.260417],[23.714583,66.264583],[23.710417,66.264583],[23.710417,66.260417]]]},"properties":{"radiance":5.71}},{"type":"Feature","geometry":{"type":"Polygon","coordinates":[[[23.70625,66.25625],[23.710417,66.25625],[23.710417,66.260417],[23.70625,66.260417],[23.70625,66.25625]]]},"properties":{"radiance":9.07}},{"type":"Feature","geometry":{"type":"Polygon","coordinates":[[[23.710417,66.25625],[23.714583,66.25625],[23.714583,66.260417],[23.710417,66.260417],[23.710417,66.25625]]]},"properties":{"radiance":6.55}},{"type":"Feature","geometry":{"type":"Polygon","coordinates":[[[23.70625,66.252083],[23.710417,66.252083],[23.710417,66.25625],[23.70625,66.25625],[23.70625,66.252083]]]},"properties":{"radiance":8.75}},{"type":"Feature","geometry":{"type":"Polygon","coordinates":[[[23.710417,66.252083],[23.714583,66.252083],[23.714583,66.25625],[23.710417,66.25625],[23.710417,66.252083]]]},"properties":{"radiance":10.31}},{"type":"Feature","geometry":{"type":"Polygon","coordinates":[[[23.714583,66.252083],[23.71875,66.252083],[23.71875,66.25625],[23.714583,66.25625],[23.714583,66.252083]]]},"properties":{"radiance":9.79}},{"type":"Feature","geometry":{"type":"Polygon","coordinates":[[[23.727083,66.24375],[23.73125,66.24375],[23.73125,66.247917],[23.727083,66.247917],[23.727083,66.24375]]]},"properties":{"radiance":6.49}},{"type":"Feature","geometry":{"type":"Polygon","coordinates":[[[23.747917,66.235417],[23.752083,66.235417],[23.752083,66.239583],[23.747917,66.239583],[23.747917,66.235417]]]},"properties":{"radiance":5.41}},{"type":"Feature","geometry":{"type":"Polygon","coordinates":[[[23.752083,66.235417],[23.75625,66.235417],[23.75625,66.239583],[23.752083,66.239583],[23.752083,66.235417]]]},"properties":{"radiance":6.08}},{"type":"Feature","geometry":{"type":"Polygon","coordinates":[[[23.75625,66.23125],[23.760417,66.23125],[23.760417,66.235417],[23.75625,66.235417],[23.75625,66.23125]]]},"properties":{"radiance":5.88}},{"type":"Feature","geometry":{"type":"Polygon","coordinates":[[[23.760417,66.23125],[23.764583,66.23125],[23.764583,66.235417],[23.760417,66.235417],[23.760417,66.23125]]]},"properties":{"radiance":7.55}},{"type":"Feature","geometry":{"type":"Polygon","coordinates":[[[23.764583,66.23125],[23.76875,66.23125],[23.76875,66.235417],[23.764583,66.235417],[23.764583,66.23125]]]},"properties":{"radiance":5.03}},{"type":"Feature","geometry":{"type":"Polygon","coordinates":[[[23.764583,66.227083],[23.76875,66.227083],[23.76875,66.23125],[23.764583,66.23125],[23.764583,66.227083]]]},"properties":{"radiance":5.52}},{"type":"Feature","geometry":{"type":"Polygon","coordinates":[[[23.76875,66.227083],[23.772917,66.227083],[23.772917,66.23125],[23.76875,66.23125],[23.76875,66.227083]]]},"properties":{"radiance":5.1}},{"type":"Feature","geometry":{"type":"Polygon","coordinates":[[[23.777083,66.222917],[23.78125,66.222917],[23.78125,66.227083],[23.777083,66.227083],[23.777083,66.222917]]]},"properties":{"radiance":5.29}},{"type":"Feature","geometry":{"type":"Polygon","coordinates":[[[23.78125,66.222917],[23.785417,66.222917],[23.785417,66.227083],[23.78125,66.227083],[23.78125,66.222917]]]},"properties":{"radiance":5.7}},{"type":"Feature","geometry":{"type":"Polygon","coordinates":[[[23.785417,66.21875],[23.789583,66.21875],[23.789583,66.222917],[23.785417,66.222917],[23.785417,66.21875]]]},"properties":{"radiance":6.3}},{"type":"Feature","geometry":{"type":"Polygon","coordinates":[[[23.785417,66.20625],[23.789583,66.20625],[23.789583,66.210417],[23.785417,66.210417],[23.785417,66.20625]]]},"properties":{"radiance":5.57}},{"type":"Feature","geometry":{"type":"Polygon","coordinates":[[[23.789583,66.20625],[23.79375,66.20625],[23.79375,66.210417],[23.789583,66.210417],[23.789583,66.20625]]]},"properties":{"radiance":8.24}},{"type":"Feature","geometry":{"type":"Polygon","coordinates":[[[23.79375,66.20625],[23.797917,66.20625],[23.797917,66.210417],[23.79375,66.210417],[23.79375,66.20625]]]},"properties":{"radiance":5.83}},{"type":"Feature","geometry":{"type":"Polygon","coordinates":[[[23.797917,66.20625],[23.802083,66.20625],[23.802083,66.210417],[23.797917,66.210417],[23.797917,66.20625]]]},"properties":{"radiance":5.73}},{"type":"Feature","geometry":{"type":"Polygon","coordinates":[[[23.79375,66.202083],[23.797917,66.202083],[23.797917,66.20625],[23.79375,66.20625],[23.79375,66.202083]]]},"properties":{"radiance":6.5}},{"type":"Feature","geometry":{"type":"Polygon","coordinates":[[[23.80625,66.18125],[23.810417,66.18125],[23.810417,66.185417],[23.80625,66.185417],[23.80625,66.18125]]]},"properties":{"radiance":6.51}},{"type":"Feature","geometry":{"type":"Polygon","coordinates":[[[23.810417,66.18125],[23.814583,66.18125],[23.814583,66.185417],[23.810417,66.185417],[23.810417,66.18125]]]},"properties":{"radiance":7.01}},{"type":"Feature","geometry":{"type":"Polygon","coordinates":[[[23.810417,66.177083],[23.814583,66.177083],[23.814583,66.18125],[23.810417,66.18125],[23.810417,66.177083]]]},"properties":{"radiance":5.09}},{"type":"Feature","geometry":{"type":"Polygon","coordinates":[[[23.827083,66.177083],[23.83125,66.177083],[23.83125,66.18125],[23.827083,66.18125],[23.827083,66.177083]]]},"properties":{"radiance":5.23}},{"type":"Feature","geometry":{"type":"Polygon","coordinates":[[[23.864583,66.172917],[23.86875,66.172917],[23.86875,66.177083],[23.864583,66.177083],[23.864583,66.172917]]]},"properties":{"radiance":6.5}},{"type":"Feature","geometry":{"type":"Polygon","coordinates":[[[23.86875,66.172917],[23.872917,66.172917],[23.872917,66.177083],[23.86875,66.177083],[23.86875,66.172917]]]},"properties":{"radiance":5.53}},{"type":"Feature","geometry":{"type":"Polygon","coordinates":[[[23.86875,66.16875],[23.872917,66.16875],[23.872917,66.172917],[23.86875,66.172917],[23.86875,66.16875]]]},"properties":{"radiance":5.7}},{"type":"Feature","geometry":{"type":"Polygon","coordinates":[[[23.872917,66.16875],[23.877083,66.16875],[23.877083,66.172917],[23.872917,66.172917],[23.872917,66.16875]]]},"properties":{"radiance":5.09}},{"type":"Feature","geometry":{"type":"Polygon","coordinates":[[[23.89375,66.16875],[23.897917,66.16875],[23.897917,66.172917],[23.89375,66.172917],[23.89375,66.16875]]]},"properties":{"radiance":6.11}},{"type":"Feature","geometry":{"type":"Polygon","coordinates":[[[23.897917,66.16875],[23.902083,66.16875],[23.902083,66.172917],[23.897917,66.172917],[23.897917,66.16875]]]},"properties":{"radiance":5.86}},{"type":"Feature","geometry":{"type":"Polygon","coordinates":[[[23.902083,66.16875],[23.90625,66.16875],[23.90625,66.172917],[23.902083,66.172917],[23.902083,66.16875]]]},"properties":{"radiance":8.49}},{"type":"Feature","geometry":{"type":"Polygon","coordinates":[[[23.90625,66.16875],[23.910417,66.16875],[23.910417,66.172917],[23.90625,66.172917],[23.90625,66.16875]]]},"properties":{"radiance":5.42}},{"type":"Feature","geometry":{"type":"Polygon","coordinates":[[[23.914583,66.16875],[23.91875,66.16875],[23.91875,66.172917],[23.914583,66.172917],[23.914583,66.16875]]]},"properties":{"radiance":5.12}},{"type":"Feature","geometry":{"type":"Polygon","coordinates":[[[23.902083,66.164583],[23.90625,66.164583],[23.90625,66.16875],[23.902083,66.16875],[23.902083,66.164583]]]},"properties":{"radiance":6.84}},{"type":"Feature","geometry":{"type":"Polygon","coordinates":[[[23.90625,66.164583],[23.910417,66.164583],[23.910417,66.16875],[23.90625,66.16875],[23.90625,66.164583]]]},"properties":{"radiance":7.14}},{"type":"Feature","geometry":{"type":"Polygon","coordinates":[[[23.910417,66.164583],[23.914583,66.164583],[23.914583,66.16875],[23.910417,66.16875],[23.910417,66.164583]]]},"properties":{"radiance":9.93}},{"type":"Feature","geometry":{"type":"Polygon","coordinates":[[[23.914583,66.164583],[23.91875,66.164583],[23.91875,66.16875],[23.914583,66.16875],[23.914583,66.164583]]]},"properties":{"radiance":9.09}},{"type":"Feature","geometry":{"type":"Polygon","coordinates":[[[23.91875,66.164583],[23.922917,66.164583],[23.922917,66.16875],[23.91875,66.16875],[23.91875,66.164583]]]},"properties":{"radiance":6.98}},{"type":"Feature","geometry":{"type":"Polygon","coordinates":[[[23.922917,66.160417],[23.927083,66.160417],[23.927083,66.164583],[23.922917,66.164583],[23.922917,66.160417]]]},"properties":{"radiance":8.93}},{"type":"Feature","geometry":{"type":"Polygon","coordinates":[[[23.91875,66.15625],[23.922917,66.15625],[23.922917,66.160417],[23.91875,66.160417],[23.91875,66.15625]]]},"properties":{"radiance":5.77}},{"type":"Feature","geometry":{"type":"Polygon","coordinates":[[[23.922917,66.15625],[23.927083,66.15625],[23.927083,66.160417],[23.922917,66.160417],[23.922917,66.15625]]]},"properties":{"radiance":7.69}},{"type":"Feature","geometry":{"type":"Polygon","coordinates":[[[23.927083,66.15625],[23.93125,66.15625],[23.93125,66.160417],[23.927083,66.160417],[23.927083,66.15625]]]},"properties":{"radiance":6.38}},{"type":"Feature","geometry":{"type":"Polygon","coordinates":[[[23.93125,66.15625],[23.935417,66.15625],[23.935417,66.160417],[23.93125,66.160417],[23.93125,66.15625]]]},"properties":{"radiance":5.32}},{"type":"Feature","geometry":{"type":"Polygon","coordinates":[[[23.927083,66.152083],[23.93125,66.152083],[23.93125,66.15625],[23.927083,66.15625],[23.927083,66.152083]]]},"properties":{"radiance":5.68}},{"type":"Feature","geometry":{"type":"Polygon","coordinates":[[[23.93125,66.152083],[23.935417,66.152083],[23.935417,66.15625],[23.93125,66.15625],[23.93125,66.152083]]]},"properties":{"radiance":7.81}},{"type":"Feature","geometry":{"type":"Polygon","coordinates":[[[23.935417,66.152083],[23.939583,66.152083],[23.939583,66.15625],[23.935417,66.15625],[23.935417,66.152083]]]},"properties":{"radiance":6.18}},{"type":"Feature","geometry":{"type":"Polygon","coordinates":[[[23.93125,66.147917],[23.935417,66.147917],[23.935417,66.152083],[23.93125,66.152083],[23.93125,66.147917]]]},"properties":{"radiance":7.6}},{"type":"Feature","geometry":{"type":"Polygon","coordinates":[[[23.935417,66.147917],[23.939583,66.147917],[23.939583,66.152083],[23.935417,66.152083],[23.935417,66.147917]]]},"properties":{"radiance":8.39}},{"type":"Feature","geometry":{"type":"Polygon","coordinates":[[[23.939583,66.147917],[23.94375,66.147917],[23.94375,66.152083],[23.939583,66.152083],[23.939583,66.147917]]]},"properties":{"radiance":5.93}},{"type":"Feature","geometry":{"type":"Polygon","coordinates":[[[23.927083,66.14375],[23.93125,66.14375],[23.93125,66.147917],[23.927083,66.147917],[23.927083,66.14375]]]},"properties":{"radiance":5.65}},{"type":"Feature","geometry":{"type":"Polygon","coordinates":[[[23.93125,66.14375],[23.935417,66.14375],[23.935417,66.147917],[23.93125,66.147917],[23.93125,66.14375]]]},"properties":{"radiance":6.59}},{"type":"Feature","geometry":{"type":"Polygon","coordinates":[[[23.935417,66.14375],[23.939583,66.14375],[23.939583,66.147917],[23.935417,66.147917],[23.935417,66.14375]]]},"properties":{"radiance":7.77}},{"type":"Feature","geometry":{"type":"Polygon","coordinates":[[[23.939583,66.14375],[23.94375,66.14375],[23.94375,66.147917],[23.939583,66.147917],[23.939583,66.14375]]]},"properties":{"radiance":6.51}}]}