{"type":"FeatureCollection","features":[{"type":"Feature","geometry":{"type":"Polygon","coordinates":[[[26.435417,60.71875],[26.439583,60.71875],[26.439583,60.722917],[26.435417,60.722917],[26.435417,60.71875]]]},"properties":{"radiance":5.01}},{"type":"Feature","geometry":{"type":"Polygon","coordinates":[[[25.84375,60.672917],[25.847917,60.672917],[25.847917,60.677083],[25.84375,60.677083],[25.84375,60.672917]]]},"properties":{"radiance":5.43}},{"type":"Feature","geometry":{"type":"Polygon","coordinates":[[[26.247917,60.672917],[26.252083,60.672917],[26.252083,60.677083],[26.247917,60.677083],[26.247917,60.672917]]]},"properties":{"radiance":5.43}},{"type":"Feature","geometry":{"type":"Polygon","coordinates":[[[25.839583,60.66875],[25.84375,60.66875],[25.84375,60.672917],[25.839583,60.672917],[25.839583,60.66875]]]},"properties":{"radiance":5.67}},{"type":"Feature","geometry":{"type":"Polygon","coordinates":[[[25.84375,60.66875],[25.847917,60.66875],[25.847917,60.672917],[25.84375,60.672917],[25.84375,60.66875]]]},"properties":{"radiance":7.08}},{"type":"Feature","geometry":{"type":"Polygon","coordinates":[[[25.847917,60.66875],[25.852083,60.66875],[25.852083,60.672917],[25.847917,60.672917],[25.847917,60.66875]]]},"properties":{"radiance":7.6}},{"type":"Feature","geometry":{"type":"Polygon","coordinates":[[[25.852083,60.66875],[25.85625,60.66875],[25.85625,60.672917],[25.852083,60.672917],[25.852083,60.66875]]]},"properties":{"radiance":5.52}},{"type":"Feature","geometry":{"type":"Polygon","coordinates":[[[26.239583,60.66875],[26.24375,60.66875],[26.24375,60.672917],[26.239583,60.672917],[26.239583,60.66875]]]},"properties":{"radiance":5.68}},{"type":"Feature","geometry":{"type":"Polygon","coordinates":[[[26.24375,60.66875],[26.247917,60.66875],[26.247917,60.672917],[26.24375,60.672917],[26.24375,60.66875]]]},"properties":{"radiance":6.11}},{"type":"Feature","geometry":{"type":"Polygon","coordinates":[[[25.839583,60.664583],[25.84375,60.664583],[25.84375,60.66875],[25.839583,60.66875],[25.839583,60.664583]]]},"properties":{"radiance":6.12}},{"type":"Feature","geometry":{"type":"Polygon","coordinates":[[[25.84375,60.664583],[25.847917,60.664583],[25.847917,60.66875],[25.84375,60.66875],[25.84375,60.664583]]]},"properties":{"radiance":6.83}},{"type":"Feature","geometry":{"type":"Polygon","coordinates":[[[26.222917,60.639583],[26.227083,60.639583],[26.227083,60.64375],[26.222917,60.64375],[26.222917,60.639583]]]},"properties":{"radiance":6.23}},{"type":"Feature","geometry":{"type":"Polygon","coordinates":[[[26.222917,60.635417],[26.227083,60.635417],[26.227083,60.639583],[26.222917,60.639583],[26.222917,60.635417]]]},"properties":{"radiance":6.87}},{"type":"Feature","geometry":{"type":"Polygon","coordinates":[[[26.29375,60.63125],[26.297917,60.63125],[26.297917,60.635417],[26.29375,60.635417],[26.29375,60.63125]]]},"properties":{"radiance":97.14}},{"type":"Feature","geometry":{"type":"Polygon","coordinates":[[[26.297917,60.63125],[26.302083,60.63125],[26.302083,60.635417],[26.297917,60.635417],[26.297917,60.63125]]]},"properties":{"radiance":146.12}},{"type":"Feature","geometry":{"type":"Polygon","coordinates":[[[26.302083,60.63125],[26.30625,60.63125],[26.30625,60.635417],[26.302083,60.635417],[26.302083,60.63125]]]},"properties":{"radiance":100.98}},{"type":"Feature","geometry":{"type":"Polygon","coordinates":[[[26.30625,60.63125],[26.310417,60.63125],[26.310417,60.635417],[26.30625,60.635417],[26.30625,60.63125]]]},"properties":{"radiance":94.68}},{"type":"Feature","geometry":{"type":"Polygon","coordinates":[[[26.289583,60.627083],[26.29375,60.627083],[26.29375,60.63125],[26.289583,60.63125],[26.289583,60.627083]]]},"properties":{"radiance":68.15}},{"type":"Feature","geometry":{"type":"Polygon","coordinates":[[[26.29375,60.627083],[26.297917,60.627083],[26.297917,60.63125],[26.29375,60.63125],[26.29375,60.627083]]]},"properties":{"radiance":140.79}},{"type":"Feature","geometry":{"type":"Polygon","coordinates":[[[26.297917,60.627083],[26.302083,60.627083],[26.302083,60.63125],[26.297917,60.63125],[26.297917,60.627083]]]},"properties":{"radiance":185.01}},{"type":"Feature","geometry":{"type":"Polygon","coordinates":[[[26.302083,60.627083],[26.30625,60.627083],[26.30625,60.63125],[26.302083,60.63125],[26.302083,60.627083]]]},"properties":{"radiance":168.11}},{"type":"Feature","geometry":{"type":"Polygon","coordinates":[[[26.30625,60.627083],[26.310417,60.627083],[26.310417,60.63125],[26.30625,60.63125],[26.30625,60.627083]]]},"properties":{"radiance":93.88}},{"type":"Feature","geometry":{"type":"Polygon","coordinates":[[[26.297917,60.622917],[26.302083,60.622917],[26.302083,60.627083],[26.297917,60.627083],[26.297917,60.622917]]]},"properties":{"radiance":65.39}},{"type":"Feature","geometry":{"type":"Polygon","coordinates":[[[26.302083,60.622917],[26.30625,60.622917],[26.30625,60.627083],[26.302083,60.627083],[26.302083,60.622917]]]},"properties":{"radiance":6.94}},{"type":"Feature","geometry":{"type":"Polygon","coordinates":[[[26.30625,60.622917],[26.310417,60.622917],[26.310417,60.627083],[26.30625,60.627083],[26.30625,60.622917]]]},"properties":{"radiance":5.24}},{"type":"Feature","geometry":{"type":"Polygon","coordinates":[[[26.185417,60.61875],[26.189583,60.61875],[26.189583,60.622917],[26.185417,60.622917],[26.185417,60.61875]]]},"properties":{"radiance":7.14}},{"type":"Feature","geometry":{"type":"Polygon","coordinates":[[[26.189583,60.61875],[26.19375,60.61875],[26.19375,60.622917],[26.189583,60.622917],[26.189583,60.61875]]]},"properties":{"radiance":6.86}},{"type":"Feature","geometry":{"type":"Polygon","coordinates":[[[26.19375,60.61875],[26.197917,60.61875],[26.197917,60.622917],[26.19375,60.622917],[26.19375,60.61875]]]},"properties":{"radiance":6.8}},{"type":"Feature","geometry":{"type":"Polygon","coordinates":[[[26.197917,60.61875],[26.202083,60.61875],[26.202083,60.622917],[26.197917,60.622917],[26.197917,60.61875]]]},"properties":{"radiance":5.58}},{"type":"Feature","geometry":{"type":"Polygon","coordinates":[[[26.202083,60.61875],[26.20625,60.61875],[26.20625,60.622917],[26.202083,60.622917],[26.202083,60.61875]]]},"properties":{"radiance":5.26}},{"type":"Feature","geometry":{"type":"Polygon","coordinates":[[[26.14375,60.614583],[26.147917,60.614583],[26.147917,60.61875],[26.14375,60.61875],[26.14375,60.614583]]]},"properties":{"radiance":7.39}},{"type":"Feature","geometry":{"type":"Polygon","coordinates":[[[26.147917,60.614583],[26.152083,60.614583],[26.152083,60.61875],[26.147917,60.61875],[26.147917,60.614583]]]},"properties":{"radiance":7.43}},{"type":"Feature","geometry":{"type":"Polygon","coordinates":[[[26.152083,60.614583],[26.15625,60.614583],[26.15625,60.61875],[26.152083,60.61875],[26.152083,60.614583]]]},"properties":{"radiance":5.97}},{"type":"Feature","geometry":{"type":"Polygon","coordinates":[[[26.189583,60.614583],[26.19375,60.614583],[26.19375,60.61875],[26.189583,60.61875],[26.189583,60.614583]]]},"properties":{"radiance":5.59}},{"type":"Feature","geometry":{"type":"Polygon","coordinates":[[[26.05625,60.577083],[26.060417,60.577083],[26.060417,60.58125],[26.05625,60.58125],[26.05625,60.577083]]]},"properties":{"radiance":5.23}},{"type":"Feature","geometry":{"type":"Polygon","coordinates":[[[26.05625,60.572917],[26.060417,60.572917],[26.060417,60.577083],[26.05625,60.577083],[26.05625,60.572917]]]},"properties":{"radiance":8.88}},{"type":"Feature","geometry":{"type":"Polygon","coordinates":[[[26.060417,60.572917],[26.064583,60.572917],[26.064583,60.577083],[26.060417,60.577083],[26.060417,60.572917]]]},"properties":{"radiance":10.42}},{"type":"Feature","geometry":{"type":"Polygon","coordinates":[[[26.064583,60.572917],[26.06875,60.572917],[26.06875,60.577083],[26.064583,60.577083],[26.064583,60.572917]]]},"properties":{"radiance":9.73}},{"type":"Feature","geometry":{"type":"Polygon","coordinates":[[[26.06875,60.572917],[26.072917,60.572917],[26.072917,60.577083],[26.06875,60.577083],[26.06875,60.572917]]]},"properties":{"radiance":7.45}},{"type":"Feature","geometry":{"type":"Polygon","coordinates":[[[26.05625,60.56875],[26.060417,60.56875],[26.060417,60.572917],[26.05625,60.572917],[26.05625,60.56875]]]},"properties":{"radiance":5.22}},{"type":"Feature","geometry":{"type":"Polygon","coordinates":[[[26.060417,60.56875],[26.064583,60.56875],[26.064583,60.572917],[26.060417,60.572917],[26.060417,60.56875]]]},"properties":{"radiance":7.01}},{"type":"Feature","geometry":{"type":"Polygon","coordinates":[[[26.064583,60.56875],[26.06875,60.56875],[26.06875,60.572917],[26.064583,60.572917],[26.064583,60.56875]]]},"properties":{"radiance":7.85}},{"type":"Feature","geometry":{"type":"Polygon","coordinates":[[[26.047917,60.564583],[26.052083,60.564583],[26.052083,60.56875],[26.047917,60.56875],[26.047917,60.564583]]]},"properties":{"radiance":5.61}},{"type":"Feature","geometry":{"type":"Polygon","coordinates":[[[26.052083,60.564583],[26.05625,60.564583],[26.05625,60.56875],[26.052083,60.56875],[26.052083,60.564583]]]},"properties":{"radiance":6.45}},{"type":"Feature","geometry":{"type":"Polygon","coordinates":[[[26.05625,60.564583],[26.060417,60.564583],[26.060417,60.56875],[26.05625,60.56875],[26.05625,60.564583]]]},"properties":{"radiance":5.46}},{"type":"Feature","geometry":{"type":"Polygon","coordinates":[[[26.060417,60.564583],[26.064583,60.564583],[26.064583,60.56875],[26.060417,60.56875],[26.060417,60.564583]]]},"properties":{"radiance":5.01}},{"type":"Feature","geometry":{"type":"Polygon","coordinates":[[[26.047917,60.560417],[26.052083,60.560417],[26.052083,60.564583],[26.047917,60.564583],[26.047917,60.560417]]]},"properties":{"radiance":8.32}},{"type":"Feature","geometry":{"type":"Polygon","coordinates":[[[26.052083,60.560417],[26.05625,60.560417],[26.05625,60.564583],[26.052083,60.564583],[26.052083,60.560417]]]},"properties":{"radiance":9.96}},{"type":"Feature","geometry":{"type":"Polygon","coordinates":[[[26.05625,60.560417],[26.060417,60.560417],[26.060417,60.564583],[26.05625,60.564583],[26.05625,60.560417]]]},"properties":{"radiance":9.49}},{"type":"Feature","geometry":{"type":"Polygon","coordinates":[[[25.960417,60.514583],[25.964583,60.514583],[25.964583,60.51875],[25.960417,60.51875],[25.960417,60.514583]]]},"properties":{"radiance":5.26}},{"type":"Feature","geometry":{"type":"Polygon","coordinates":[[[25.94375,60.502083],[25.947917,60.502083],[25.947917,60.50625],[25.94375,60.50625],[25.94375,60.502083]]]},"properties":{"radiance":5.28}},{"type":"Feature","geometry":{"type":"Polygon","coordinates":[[[25.947917,60.502083],[25.952083,60.502083],[25.952083,60.50625],[25.947917,60.50625],[25.947917,60.502083]]]},"properties":{"radiance":5.1}},{"type":"Feature","geometry":{"type":"Polygon","coordinates":[[[25.952083,60.502083],[25.95625,60.502083],[25.95625,60.50625],[25.952083,60.50625],[25.952083,60.502083]]]},"properties":{"radiance":5.02}},{"type":"Feature","geometry":{"type":"Polygon","coordinates":[[[25.93125,60.497917],[25.935417,60.497917],[25.935417,60.502083],[25.93125,60.502083],[25.93125,60.497917]]]},"properties":{"radiance":5.15}},{"type":"Feature","geometry":{"type":"Polygon","coordinates":[[[25.935417,60.497917],[25.939583,60.497917],[25.939583,60.502083],[25.935417,60.502083],[25.935417,60.497917]]]},"properties":{"radiance":5.46}},{"type":"Feature","geometry":{"type":"Polygon","coordinates":[[[25.947917,60.497917],[25.952083,60.497917],[25.952083,60.502083],[25.947917,60.502083],[25.947917,60.497917]]]},"properties":{"radiance":5.06}},{"type":"Feature","geometry":{"type":"Polygon","coordinates":[[[25.952083,60.497917],[25.95625,60.497917],[25.95625,60.502083],[25.952083,60.502083],[25.952083,60.497917]]]},"properties":{"radiance":6.37}},{"type":"Feature","geometry":{"type":"Polygon","coordinates":[[[25.95625,60.497917],[25.960417,60.497917],[25.960417,60.502083],[25.95625,60.502083],[25.95625,60.497917]]]},"properties":{"radiance":6.58}},{"type":"Feature","geometry":{"type":"Polygon","coordinates":[[[25.960417,60.497917],[25.964583,60.497917],[25.964583,60.502083],[25.960417,60.502083],[25.960417,60.497917]]]},"properties":{"radiance":6.58}},{"type":"Feature","geometry":{"type":"Polygon","coordinates":[[[25.935417,60.49375],[25.939583,60.49375],[25.939583,60.497917],[25.935417,60.497917],[25.935417,60.49375]]]},"properties":{"radiance":5.23}},{"type":"Feature","geometry":{"type":"Polygon","coordinates":[[[25.939583,60.49375],[25.94375,60.49375],[25.94375,60.497917],[25.939583,60.497917],[25.939583,60.49375]]]},"properties":{"radiance":5.58}},{"type":"Feature","geometry":{"type":"Polygon","coordinates":[[[25.94375,60.49375],[25.947917,60.49375],[25.947917,60.497917],[25.94375,60.497917],[25.94375,60.49375]]]},"properties":{"radiance":7.09}},{"type":"Feature","geometry":{"type":"Polygon","coordinates":[[[25.947917,60.49375],[25.952083,60.49375],[25.952083,60.497917],[25.947917,60.497917],[25.947917,60.49375]]]},"properties":{"radiance":12.69}},{"type":"Feature","geometry":{"type":"Polygon","coordinates":[[[25.952083,60.49375],[25.95625,60.49375],[25.95625,60.497917],[25.952083,60.497917],[25.952083,60.49375]]]},"properties":{"radiance":11.49}},{"type":"Feature","geometry":{"type":"Polygon","coordinates":[[[25.95625,60.49375],[25.960417,60.49375],[25.960417,60.497917],[25.95625,60.497917],[25.95625,60.49375]]]},"properties":{"radiance":13.48}},{"type":"Feature","geometry":{"type":"Polygon","coordinates":[[[25.960417,60.49375],[25.964583,60.49375],[25.964583,60.497917],[25.960417,60.497917],[25.960417,60.49375]]]},"properties":{"radiance":13.2}},{"type":"Feature","geometry":{"type":"Polygon","coordinates":[[[25.964583,60.49375],[25.96875,60.49375],[25.96875,60.497917],[25.964583,60.497917],[25.964583,60.49375]]]},"properties":{"radiance":12.23}},{"type":"Feature","geometry":{"type":"Polygon","coordinates":[[[25.96875,60.49375],[25.972917,60.49375],[25.972917,60.497917],[25.96875,60.497917],[25.96875,60.49375]]]},"properties":{"radiance":10.52}},{"type":"Feature","geometry":{"type":"Polygon","coordinates":[[[25.972917,60.49375],[25.977083,60.49375],[25.977083,60.497917],[25.972917,60.497917],[25.972917,60.49375]]]},"properties":{"radiance":8.49}},{"type":"Feature","geometry":{"type":"Polygon","coordinates":[[[25.977083,60.49375],[25.98125,60.49375],[25.98125,60.497917],[25.977083,60.497917],[25.977083,60.49375]]]},"properties":{"radiance":5.73}},{"type":"Feature","geometry":{"type":"Polygon","coordinates":[[[25.98125,60.49375],[25.985417,60.49375],[25.985417,60.497917],[25.98125,60.497917],[25.98125,60.49375]]]},"properties":{"radiance":5.27}},{"type":"Feature","geometry":{"type":"Polygon","coordinates":[[[25.94375,60.489583],[25.947917,60.489583],[25.947917,60.49375],[25.94375,60.49375],[25.94375,60.489583]]]},"properties":{"radiance":5.61}},{"type":"Feature","geometry":{"type":"Polygon","coordinates":[[[25.947917,60.489583],[25.952083,60.489583],[25.952083,60.49375],[25.947917,60.49375],[25.947917,60.489583]]]},"properties":{"radiance":8.74}},{"type":"Feature","geometry":{"type":"Polygon","coordinates":[[[25.952083,60.489583],[25.95625,60.489583],[25.95625,60.49375],[25.952083,60.49375],[25.952083,60.489583]]]},"properties":{"radiance":12.31}},{"type":"Feature","geometry":{"type":"Polygon","coordinates":[[[25.95625,60.489583],[25.960417,60.489583],[25.960417,60.49375],[25.95625,60.49375],[25.95625,60.489583]]]},"properties":{"radiance":10.62}},{"type":"Feature","geometry":{"type":"Polygon","coordinates":[[[25.960417,60.489583],[25.964583,60.489583],[25.964583,60.49375],[25.960417,60.49375],[25.960417,60.489583]]]},"properties":{"radiance":5.7}},{"type":"Feature","geometry":{"type":"Polygon","coordinates":[[[25.964583,60.489583],[25.96875,60.489583],[25.96875,60.49375],[25.964583,60.49375],[25.964583,60.489583]]]},"properties":{"radiance":7.2}},{"type":"Feature","geometry":{"type":"Polygon","coordinates":[[[25.96875,60.489583],[25.972917,60.489583],[25.972917,60.49375],[25.96875,60.49375],[25.96875,60.489583]]]},"properties":{"radiance":9}},{"type":"Feature","geometry":{"type":"Polygon","coordinates":[[[25.972917,60.489583],[25.977083,60.489583],[25.977083,60.49375],[25.972917,60.49375],[25.972917,60.489583]]]},"properties":{"radiance":10.92}},{"type":"Feature","geometry":{"type":"Polygon","coordinates":[[[25.977083,60.489583],[25.98125,60.489583],[25.98125,60.49375],[25.977083,60.49375],[25.977083,60.489583]]]},"properties":{"radiance":10.45}},{"type":"Feature","geometry":{"type":"Polygon","coordinates":[[[25.98125,60.489583],[25.985417,60.489583],[25.985417,60.49375],[25.98125,60.49375],[25.98125,60.489583]]]},"properties":{"radiance":7.01}},{"type":"Feature","geometry":{"type":"Polygon","coordinates":[[[25.985417,60.489583],[25.989583,60.489583],[25.989583,60.49375],[25.985417,60.49375],[25.985417,60.489583]]]},"properties":{"radiance":5.61}},{"type":"Feature","geometry":{"type":"Polygon","coordinates":[[[25.885417,60.485417],[25.889583,60.485417],[25.889583,60.489583],[25.885417,60.489583],[25.885417,60.485417]]]},"properties":{"radiance":8.78}},{"type":"Feature","geometry":{"type":"Polygon","coordinates":[[[25.889583,60.485417],[25.89375,60.485417],[25.89375,60.489583],[25.889583,60.489583],[25.889583,60.485417]]]},"properties":{"radiance":8.1}},{"type":"Feature","geometry":{"type":"Polygon","coordinates":[[[25.89375,60.485417],[25.897917,60.485417],[25.897917,60.489583],[25.89375,60.489583],[25.89375,60.485417]]]},"properties":{"radiance":7.06}},{"type":"Feature","geometry":{"type":"Polygon","coordinates":[[[26.48125,60.485417],[26.485417,60.485417],[26.485417,60.489583],[26.48125,60.489583],[26.48125,60.485417]]]},"properties":{"radiance":5.29}},{"type":"Feature","geometry":{"type":"Polygon","coordinates":[[[26.485417,60.485417],[26.489583,60.485417],[26.489583,60.489583],[26.485417,60.489583],[26.485417,60.485417]]]},"properties":{"radiance":5.93}},{"type":"Feature","geometry":{"type":"Polygon","coordinates":[[[26.310417,60.477083],[26.314583,60.477083],[26.314583,60.48125],[26.310417,60.48125],[26.310417,60.477083]]]},"properties":{"radiance":5.83}},{"type":"Feature","geometry":{"type":"Polygon","coordinates":[[[26.314583,60.477083],[26.31875,60.477083],[26.31875,60.48125],[26.314583,60.48125],[26.314583,60.477083]]]},"properties":{"radiance":5.12}},{"type":"Feature","geometry":{"type":"Polygon","coordinates":[[[26.25625,60.472917],[26.260417,60.472917],[26.260417,60.477083],[26.25625,60.477083],[26.25625,60.472917]]]},"properties":{"radiance":6}},{"type":"Feature","geometry":{"type":"Polygon","coordinates":[[[26.260417,60.472917],[26.264583,60.472917],[26.264583,60.477083],[26.260417,60.477083],[26.260417,60.472917]]]},"properties":{"radiance":5.73}},{"type":"Feature","geometry":{"type":"Polygon","coordinates":[[[26.29375,60.472917],[26.297917,60.472917],[26.297917,60.477083],[26.29375,60.477083],[26.29375,60.472917]]]},"properties":{"radiance":6.14}},{"type":"Feature","geometry":{"type":"Polygon","coordinates":[[[26.297917,60.472917],[26.302083,60.472917],[26.302083,60.477083],[26.297917,60.477083],[26.297917,60.472917]]]},"properties":{"radiance":6.27}},{"type":"Feature","geometry":{"type":"Polygon","coordinates":[[[26.302083,60.472917],[26.30625,60.472917],[26.30625,60.477083],[26.302083,60.477083],[26.302083,60.472917]]]},"properties":{"radiance":5.49}},{"type":"Feature","geometry":{"type":"Polygon","coordinates":[[[26.30625,60.472917],[26.310417,60.472917],[26.310417,60.477083],[26.30625,60.477083],[26.30625,60.472917]]]},"properties":{"radiance":5.76}},{"type":"Feature","geometry":{"type":"Polygon","coordinates":[[[26.310417,60.472917],[26.314583,60.472917],[26.314583,60.477083],[26.310417,60.477083],[26.310417,60.472917]]]},"properties":{"radiance":6.09}},{"type":"Feature","geometry":{"type":"Polygon","coordinates":[[[26.260417,60.46875],[26.264583,60.46875],[26.264583,60.472917],[26.260417,60.472917],[26.260417,60.46875]]]},"properties":{"radiance":5.28}},{"type":"Feature","geometry":{"type":"Polygon","coordinates":[[[26.264583,60.46875],[26.26875,60.46875],[26.26875,60.472917],[26.264583,60.472917],[26.264583,60.46875]]]},"properties":{"radiance":5.16}},{"type":"Feature","geometry":{"type":"Polygon","coordinates":[[[26.277083,60.46875],[26.28125,60.46875],[26.28125,60.472917],[26.277083,60.472917],[26.277083,60.46875]]]},"properties":{"radiance":5.2}},{"type":"Feature","geometry":{"type":"Polygon","coordinates":[[[26.28125,60.46875],[26.285417,60.46875],[26.285417,60.472917],[26.28125,60.472917],[26.28125,60.46875]]]},"properties":{"radiance":5.36}},{"type":"Feature","geometry":{"type":"Polygon","coordinates":[[[26.285417,60.46875],[26.289583,60.46875],[26.289583,60.472917],[26.285417,60.472917],[26.285417,60.46875]]]},"properties":{"radiance":6.83}},{"type":"Feature","geometry":{"type":"Polygon","coordinates":[[[26.289583,60.46875],[26.29375,60.46875],[26.29375,60.472917],[26.289583,60.472917],[26.289583,60.46875]]]},"properties":{"radiance":5.18}},{"type":"Feature","geometry":{"type":"Polygon","coordinates":[[[26.23125,60.464583],[26.235417,60.464583],[26.235417,60.46875],[26.23125,60.46875],[26.23125,60.464583]]]},"properties":{"radiance":5.32}},{"type":"Feature","geometry":{"type":"Polygon","coordinates":[[[26.235417,60.464583],[26.239583,60.464583],[26.239583,60.46875],[26.235417,60.46875],[26.235417,60.464583]]]},"properties":{"radiance":8.56}},{"type":"Feature","geometry":{"type":"Polygon","coordinates":[[[26.239583,60.464583],[26.24375,60.464583],[26.24375,60.46875],[26.239583,60.46875],[26.239583,60.464583]]]},"properties":{"radiance":11.18}},{"type":"Feature","geometry":{"type":"Polygon","coordinates":[[[26.24375,60.464583],[26.247917,60.464583],[26.247917,60.46875],[26.24375,60.46875],[26.24375,60.464583]]]},"properties":{"radiance":9.92}},{"type":"Feature","geometry":{"type":"Polygon","coordinates":[[[26.247917,60.464583],[26.252083,60.464583],[26.252083,60.46875],[26.247917,60.46875],[26.247917,60.464583]]]},"properties":{"radiance":8.94}},{"type":"Feature","geometry":{"type":"Polygon","coordinates":[[[26.252083,60.464583],[26.25625,60.464583],[26.25625,60.46875],[26.252083,60.46875],[26.252083,60.464583]]]},"properties":{"radiance":7.55}},{"type":"Feature","geometry":{"type":"Polygon","coordinates":[[[26.260417,60.464583],[26.264583,60.464583],[26.264583,60.46875],[26.260417,60.46875],[26.260417,60.464583]]]},"properties":{"radiance":5.13}},{"type":"Feature","geometry":{"type":"Polygon","coordinates":[[[26.264583,60.464583],[26.26875,60.464583],[26.26875,60.46875],[26.264583,60.46875],[26.264583,60.464583]]]},"properties":{"radiance":5.25}},{"type":"Feature","geometry":{"type":"Polygon","coordinates":[[[26.18125,60.460417],[26.185417,60.460417],[26.185417,60.464583],[26.18125,60.464583],[26.18125,60.460417]]]},"properties":{"radiance":10.72}},{"type":"Feature","geometry":{"type":"Polygon","coordinates":[[[26.185417,60.460417],[26.189583,60.460417],[26.189583,60.464583],[26.185417,60.464583],[26.185417,60.460417]]]},"properties":{"radiance":16.65}},{"type":"Feature","geometry":{"type":"Polygon","coordinates":[[[26.189583,60.460417],[26.19375,60.460417],[26.19375,60.464583],[26.189583,60.464583],[26.189583,60.460417]]]},"properties":{"radiance":14.21}},{"type":"Feature","geometry":{"type":"Polygon","coordinates":[[[26.19375,60.460417],[26.197917,60.460417],[26.197917,60.464583],[26.19375,60.464583],[26.19375,60.460417]]]},"properties":{"radiance":12.95}},{"type":"Feature","geometry":{"type":"Polygon","coordinates":[[[26.197917,60.460417],[26.202083,60.460417],[26.202083,60.464583],[26.197917,60.464583],[26.197917,60.460417]]]},"properties":{"radiance":14.62}},{"type":"Feature","geometry":{"type":"Polygon","coordinates":[[[26.202083,60.460417],[26.20625,60.460417],[26.20625,60.464583],[26.202083,60.464583],[26.202083,60.460417]]]},"properties":{"radiance":8.81}},{"type":"Feature","geometry":{"type":"Polygon","coordinates":[[[26.20625,60.460417],[26.210417,60.460417],[26.210417,60.464583],[26.20625,60.464583],[26.20625,60.460417]]]},"properties":{"radiance":11.54}},{"type":"Feature","geometry":{"type":"Polygon","coordinates":[[[26.210417,60.460417],[26.214583,60.460417],[26.214583,60.464583],[26.210417,60.464583],[26.210417,60.460417]]]},"properties":{"radiance":16.13}},{"type":"Feature","geometry":{"type":"Polygon","coordinates":[[[26.214583,60.460417],[26.21875,60.460417],[26.21875,60.464583],[26.214583,60.464583],[26.214583,60.460417]]]},"properties":{"radiance":16.68}},{"type":"Feature","geometry":{"type":"Polygon","coordinates":[[[26.21875,60.460417],[26.222917,60.460417],[26.222917,60.464583],[26.21875,60.464583],[26.21875,60.460417]]]},"properties":{"radiance":23.34}},{"type":"Feature","geometry":{"type":"Polygon","coordinates":[[[26.222917,60.460417],[26.227083,60.460417],[26.227083,60.464583],[26.222917,60.464583],[26.222917,60.460417]]]},"properties":{"radiance":20.6}},{"type":"Feature","geometry":{"type":"Polygon","coordinates":[[[26.227083,60.460417],[26.23125,60.460417],[26.23125,60.464583],[26.227083,60.464583],[26.227083,60.460417]]]},"properties":{"radiance":14.86}},{"type":"Feature","geometry":{"type":"Polygon","coordinates":[[[26.23125,60.460417],[26.235417,60.460417],[26.235417,60.464583],[26.23125,60.464583],[26.23125,60.460417]]]},"properties":{"radiance":14.68}},{"type":"Feature","geometry":{"type":"Polygon","coordinates":[[[26.235417,60.460417],[26.239583,60.460417],[26.239583,60.464583],[26.235417,60.464583],[26.235417,60.460417]]]},"properties":{"radiance":15.56}},{"type":"Feature","geometry":{"type":"Polygon","coordinates":[[[26.239583,60.460417],[26.24375,60.460417],[26.24375,60.464583],[26.239583,60.464583],[26.239583,60.460417]]]},"properties":{"radiance":15.2}},{"type":"Feature","geometry":{"type":"Polygon","coordinates":[[[26.24375,60.460417],[26.247917,60.460417],[26.247917,60.464583],[26.24375,60.464583],[26.24375,60.460417]]]},"properties":{"radiance":14.39}},{"type":"Feature","geometry":{"type":"Polygon","coordinates":[[[26.247917,60.460417],[26.252083,60.460417],[26.252083,60.464583],[26.247917,60.464583],[26.247917,60.460417]]]},"properties":{"radiance":11.73}},{"type":"Feature","geometry":{"type":"Polygon","coordinates":[[[26.252083,60.460417],[26.25625,60.460417],[26.25625,60.464583],[26.252083,60.464583],[26.252083,60.460417]]]},"properties":{"radiance":8.33}},{"type":"Feature","geometry":{"type":"Polygon","coordinates":[[[26.18125,60.45625],[26.185417,60.45625],[26.185417,60.460417],[26.18125,60.460417],[26.18125,60.45625]]]},"properties":{"radiance":9.17}},{"type":"Feature","geometry":{"type":"Polygon","coordinates":[[[26.185417,60.45625],[26.189583,60.45625],[26.189583,60.460417],[26.185417,60.460417],[26.185417,60.45625]]]},"properties":{"radiance":15.72}},{"type":"Feature","geometry":{"type":"Polygon","coordinates":[[[26.189583,60.45625],[26.19375,60.45625],[26.19375,60.460417],[26.189583,60.460417],[26.189583,60.45625]]]},"properties":{"radiance":15.35}},{"type":"Feature","geometry":{"type":"Polygon","coordinates":[[[26.19375,60.45625],[26.197917,60.45625],[26.197917,60.460417],[26.19375,60.460417],[26.19375,60.45625]]]},"properties":{"radiance":17.52}},{"type":"Feature","geometry":{"type":"Polygon","coordinates":[[[26.197917,60.45625],[26.202083,60.45625],[26.202083,60.460417],[26.197917,60.460417],[26.197917,60.45625]]]},"properties":{"radiance":24.27}},{"type":"Feature","geometry":{"type":"Polygon","coordinates":[[[26.202083,60.45625],[26.20625,60.45625],[26.20625,60.460417],[26.202083,60.460417],[26.202083,60.45625]]]},"properties":{"radiance":22.89}},{"type":"Feature","geometry":{"type":"Polygon","coordinates":[[[26.20625,60.45625],[26.210417,60.45625],[26.210417,60.460417],[26.20625,60.460417],[26.20625,60.45625]]]},"properties":{"radiance":20.72}},{"type":"Feature","geometry":{"type":"Polygon","coordinates":[[[26.210417,60.45625],[26.214583,60.45625],[26.214583,60.460417],[26.210417,60.460417],[26.210417,60.45625]]]},"properties":{"radiance":20.93}},{"type":"Feature","geometry":{"type":"Polygon","coordinates":[[[26.214583,60.45625],[26.21875,60.45625],[26.21875,60.460417],[26.214583,60.460417],[26.214583,60.45625]]]},"properties":{"radiance":23.44}},{"type":"Feature","geometry":{"type":"Polygon","coordinates":[[[26.21875,60.45625],[26.222917,60.45625],[26.222917,60.460417],[26.21875,60.460417],[26.21875,60.45625]]]},"properties":{"radiance":25.78}},{"type":"Feature","geometry":{"type":"Polygon","coordinates":[[[26.222917,60.45625],[26.227083,60.45625],[26.227083,60.460417],[26.222917,60.460417],[26.222917,60.45625]]]},"properties":{"radiance":22.35}},{"type":"Feature","geometry":{"type":"Polygon","coordinates":[[[26.227083,60.45625],[26.23125,60.45625],[26.23125,60.460417],[26.227083,60.460417],[26.227083,60.45625]]]},"properties":{"radiance":18.21}},{"type":"Feature","geometry":{"type":"Polygon","coordinates":[[[26.23125,60.45625],[26.235417,60.45625],[26.235417,60.460417],[26.23125,60.460417],[26.23125,60.45625]]]},"properties":{"radiance":16.58}},{"type":"Feature","geometry":{"type":"Polygon","coordinates":[[[26.235417,60.45625],[26.239583,60.45625],[26.239583,60.460417],[26.235417,60.460417],[26.235417,60.45625]]]},"properties":{"radiance":12.7}},{"type":"Feature","geometry":{"type":"Polygon","coordinates":[[[26.239583,60.45625],[26.24375,60.45625],[26.24375,60.460417],[26.239583,60.460417],[26.239583,60.45625]]]},"properties":{"radiance":11}},{"type":"Feature","geometry":{"type":"Polygon","coordinates":[[[26.24375,60.45625],[26.247917,60.45625],[26.247917,60.460417],[26.24375,60.460417],[26.24375,60.45625]]]},"properties":{"radiance":9.22}},{"type":"Feature","geometry":{"type":"Polygon","coordinates":[[[26.247917,60.45625],[26.252083,60.45625],[26.252083,60.460417],[26.247917,60.460417],[26.247917,60.45625]]]},"properties":{"radiance":8.52}},{"type":"Feature","geometry":{"type":"Polygon","coordinates":[[[26.189583,60.452083],[26.19375,60.452083],[26.19375,60.45625],[26.189583,60.45625],[26.189583,60.452083]]]},"properties":{"radiance":7.64}},{"type":"Feature","geometry":{"type":"Polygon","coordinates":[[[26.19375,60.452083],[26.197917,60.452083],[26.197917,60.45625],[26.19375,60.45625],[26.19375,60.452083]]]},"properties":{"radiance":12.43}},{"type":"Feature","geometry":{"type":"Polygon","coordinates":[[[26.197917,60.452083],[26.202083,60.452083],[26.202083,60.45625],[26.197917,60.45625],[26.197917,60.452083]]]},"properties":{"radiance":29.84}},{"type":"Feature","geometry":{"type":"Polygon","coordinates":[[[26.202083,60.452083],[26.20625,60.452083],[26.20625,60.45625],[26.202083,60.45625],[26.202083,60.452083]]]},"properties":{"radiance":24.01}},{"type":"Feature","geometry":{"type":"Polygon","coordinates":[[[26.20625,60.452083],[26.210417,60.452083],[26.210417,60.45625],[26.20625,60.45625],[26.20625,60.452083]]]},"properties":{"radiance":24.56}},{"type":"Feature","geometry":{"type":"Polygon","coordinates":[[[26.210417,60.452083],[26.214583,60.452083],[26.214583,60.45625],[26.210417,60.45625],[26.210417,60.452083]]]},"properties":{"radiance":21.02}},{"type":"Feature","geometry":{"type":"Polygon","coordinates":[[[26.214583,60.452083],[26.21875,60.452083],[26.21875,60.45625],[26.214583,60.45625],[26.214583,60.452083]]]},"properties":{"radiance":20.2}},{"type":"Feature","geometry":{"type":"Polygon","coordinates":[[[26.21875,60.452083],[26.222917,60.452083],[26.222917,60.45625],[26.21875,60.45625],[26.21875,60.452083]]]},"properties":{"radiance":16.48}},{"type":"Feature","geometry":{"type":"Polygon","coordinates":[[[26.222917,60.452083],[26.227083,60.452083],[26.227083,60.45625],[26.222917,60.45625],[26.222917,60.452083]]]},"properties":{"radiance":14.34}},{"type":"Feature","geometry":{"type":"Polygon","coordinates":[[[26.227083,60.452083],[26.23125,60.452083],[26.23125,60.45625],[26.227083,60.45625],[26.227083,60.452083]]]},"properties":{"radiance":12.21}},{"type":"Feature","geometry":{"type":"Polygon","coordinates":[[[26.23125,60.452083],[26.235417,60.452083],[26.235417,60.45625],[26.23125,60.45625],[26.23125,60.452083]]]},"properties":{"radiance":10.68}},{"type":"Feature","geometry":{"type":"Polygon","coordinates":[[[26.235417,60.452083],[26.239583,60.452083],[26.239583,60.45625],[26.235417,60.45625],[26.235417,60.452083]]]},"properties":{"radiance":6.47}},{"type":"Feature","geometry":{"type":"Polygon","coordinates":[[[26.202083,60.447917],[26.20625,60.447917],[26.20625,60.452083],[26.202083,60.452083],[26.202083,60.447917]]]},"properties":{"radiance":8.41}},{"type":"Feature","geometry":{"type":"Polygon","coordinates":[[[26.20625,60.447917],[26.210417,60.447917],[26.210417,60.452083],[26.20625,60.452083],[26.20625,60.447917]]]},"properties":{"radiance":8.02}},{"type":"Feature","geometry":{"type":"Polygon","coordinates":[[[26.210417,60.447917],[26.214583,60.447917],[26.214583,60.452083],[26.210417,60.452083],[26.210417,60.447917]]]},"properties":{"radiance":13.89}},{"type":"Feature","geometry":{"type":"Polygon","coordinates":[[[26.214583,60.447917],[26.21875,60.447917],[26.21875,60.452083],[26.214583,60.452083],[26.214583,60.447917]]]},"properties":{"radiance":16.04}},{"type":"Feature","geometry":{"type":"Polygon","coordinates":[[[26.21875,60.447917],[26.222917,60.447917],[26.222917,60.452083],[26.21875,60.452083],[26.21875,60.447917]]]},"properties":{"radiance":16.96}},{"type":"Feature","geometry":{"type":"Polygon","coordinates":[[[26.222917,60.447917],[26.227083,60.447917],[26.227083,60.452083],[26.222917,60.452083],[26.222917,60.447917]]]},"properties":{"radiance":14.77}},{"type":"Feature","geometry":{"type":"Polygon","coordinates":[[[26.227083,60.447917],[26.23125,60.447917],[26.23125,60.452083],[26.227083,60.452083],[26.227083,60.447917]]]},"properties":{"radiance":12.74}},{"type":"Feature","geometry":{"type":"Polygon","coordinates":[[[26.23125,60.447917],[26.235417,60.447917],[26.235417,60.452083],[26.23125,60.452083],[26.23125,60.447917]]]},"properties":{"radiance":7.8}},{"type":"Feature","geometry":{"type":"Polygon","coordinates":[[[26.235417,60.447917],[26.239583,60.447917],[26.239583,60.452083],[26.235417,60.452083],[26.235417,60.447917]]]},"properties":{"radiance":5.28}},{"type":"Feature","geometry":{"type":"Polygon","coordinates":[[[26.20625,60.44375],[26.210417,60.44375],[26.210417,60.447917],[26.20625,60.447917],[26.20625,60.44375]]]},"properties":{"radiance":8.63}},{"type":"Feature","geometry":{"type":"Polygon","coordinates":[[[26.210417,60.44375],[26.214583,60.44375],[26.214583,60.447917],[26.210417,60.447917],[26.210417,60.44375]]]},"properties":{"radiance":10.03}},{"type":"Feature","geometry":{"type":"Polygon","coordinates":[[[26.214583,60.44375],[26.21875,60.44375],[26.21875,60.447917],[26.214583,60.447917],[26.214583,60.44375]]]},"properties":{"radiance":16.65}},{"type":"Feature","geometry":{"type":"Polygon","coordinates":[[[26.21875,60.44375],[26.222917,60.44375],[26.222917,60.447917],[26.21875,60.447917],[26.21875,60.44375]]]},"properties":{"radiance":18.18}},{"type":"Feature","geometry":{"type":"Polygon","coordinates":[[[26.222917,60.44375],[26.227083,60.44375],[26.227083,60.447917],[26.222917,60.447917],[26.222917,60.44375]]]},"properties":{"radiance":18.66}},{"type":"Feature","geometry":{"type":"Polygon","coordinates":[[[26.227083,60.44375],[26.23125,60.44375],[26.23125,60.447917],[26.227083,60.447917],[26.227083,60.44375]]]},"properties":{"radiance":13.57}},{"type":"Feature","geometry":{"type":"Polygon","coordinates":[[[26.23125,60.44375],[26.235417,60.44375],[26.235417,60.447917],[26.23125,60.447917],[26.23125,60.44375]]]},"properties":{"radiance":6.56}},{"type":"Feature","geometry":{"type":"Polygon","coordinates":[[[26.235417,60.44375],[26.239583,60.44375],[26.239583,60.447917],[26.235417,60.447917],[26.235417,60.44375]]]},"properties":{"radiance":5.64}},{"type":"Feature","geometry":{"type":"Polygon","coordinates":[[[26.210417,60.439583],[26.214583,60.439583],[26.214583,60.44375],[26.210417,60.44375],[26.210417,60.439583]]]},"properties":{"radiance":5.44}},{"type":"Feature","geometry":{"type":"Polygon","coordinates":[[[26.214583,60.439583],[26.21875,60.439583],[26.21875,60.44375],[26.214583,60.44375],[26.214583,60.439583]]]},"properties":{"radiance":9.43}},{"type":"Feature","geometry":{"type":"Polygon","coordinates":[[[26.21875,60.439583],[26.222917,60.439583],[26.222917,60.44375],[26.21875,60.44375],[26.21875,60.439583]]]},"properties":{"radiance":8.98}},{"type":"Feature","geometry":{"type":"Polygon","coordinates":[[[26.222917,60.439583],[26.227083,60.439583],[26.227083,60.44375],[26.222917,60.44375],[26.222917,60.439583]]]},"properties":{"radiance":10.8}},{"type":"Feature","geometry":{"type":"Polygon","coordinates":[[[26.227083,60.439583],[26.23125,60.439583],[26.23125,60.44375],[26.227083,60.44375],[26.227083,60.439583]]]},"properties":{"radiance":6.97}},{"type":"Feature","geometry":{"type":"Polygon","coordinates":[[[26.23125,60.439583],[26.235417,60.439583],[26.235417,60.44375],[26.23125,60.44375],[26.23125,60.439583]]]},"properties":{"radiance":6.78}},{"type":"Feature","geometry":{"type":"Polygon","coordinates":[[[26.21875,60.435417],[26.222917,60.435417],[26.222917,60.439583],[26.21875,60.439583],[26.21875,60.435417]]]},"properties":{"radiance":5.47}},{"type":"Feature","geometry":{"type":"Polygon","coordinates":[[[26.235417,60.41875],[26.239583,60.41875],[26.239583,60.422917],[26.235417,60.422917],[26.235417,60.41875]]]},"properties":{"radiance":7.94}},{"type":"Feature","geometry":{"type":"Polygon","coordinates":[[[26.239583,60.41875],[26.24375,60.41875],[26.24375,60.422917],[26.239583,60.422917],[26.239583,60.41875]]]},"properties":{"radiance":8.58}},{"type":"Feature","geometry":{"type":"Polygon","coordinates":[[[26.24375,60.41875],[26.247917,60.41875],[26.247917,60.422917],[26.24375,60.422917],[26.24375,60.41875]]]},"properties":{"radiance":11.16}},{"type":"Feature","geometry":{"type":"Polygon","coordinates":[[[26.247917,60.41875],[26.252083,60.41875],[26.252083,60.422917],[26.247917,60.422917],[26.247917,60.41875]]]},"properties":{"radiance":12.37}},{"type":"Feature","geometry":{"type":"Polygon","coordinates":[[[26.235417,60.414583],[26.239583,60.414583],[26.239583,60.41875],[26.235417,60.41875],[26.235417,60.414583]]]},"properties":{"radiance":9.52}},{"type":"Feature","geometry":{"type":"Polygon","coordinates":[[[26.239583,60.414583],[26.24375,60.414583],[26.24375,60.41875],[26.239583,60.41875],[26.239583,60.414583]]]},"properties":{"radiance":13.36}},{"type":"Feature","geometry":{"type":"Polygon","coordinates":[[[26.24375,60.414583],[26.247917,60.414583],[26.247917,60.41875],[26.24375,60.41875],[26.24375,60.414583]]]},"properties":{"radiance":17.89}},{"type":"Feature","geometry":{"type":"Polygon","coordinates":[[[26.247917,60.414583],[26.252083,60.414583],[26.252083,60.41875],[26.247917,60.41875],[26.247917,60.414583]]]},"properties":{"radiance":46.65}},{"type":"Feature","geometry":{"type":"Polygon","coordinates":[[[26.252083,60.414583],[26.25625,60.414583],[26.25625,60.41875],[26.252083,60.41875],[26.252083,60.414583]]]},"properties":{"radiance":55.61}},{"type":"Feature","geometry":{"type":"Polygon","coordinates":[[[26.239583,60.410417],[26.24375,60.410417],[26.24375,60.414583],[26.239583,60.414583],[26.239583,60.410417]]]},"properties":{"radiance":10.26}},{"type":"Feature","geometry":{"type":"Polygon","coordinates":[[[26.24375,60.410417],[26.247917,60.410417],[26.247917,60.414583],[26.24375,60.414583],[26.24375,60.410417]]]},"properties":{"radiance":14.31}},{"type":"Feature","geometry":{"type":"Polygon","coordinates":[[[26.247917,60.410417],[26.252083,60.410417],[26.252083,60.414583],[26.247917,60.414583],[26.247917,60.410417]]]},"properties":{"radiance":15.13}},{"type":"Feature","geometry":{"type":"Polygon","coordinates":[[[26.252083,60.410417],[26.25625,60.410417],[26.25625,60.414583],[26.252083,60.414583],[26.252083,60.410417]]]},"properties":{"radiance":11.24}},{"type":"Feature","geometry":{"type":"Polygon","coordinates":[[[26.25625,60.410417],[26.260417,60.410417],[26.260417,60.414583],[26.25625,60.414583],[26.25625,60.410417]]]},"properties":{"radiance":10.64}},{"type":"Feature","geometry":{"type":"Polygon","coordinates":[[[26.235417,60.40625],[26.239583,60.40625],[26.239583,60.410417],[26.235417,60.410417],[26.235417,60.40625]]]},"properties":{"radiance":5.35}},{"type":"Feature","geometry":{"type":"Polygon","coordinates":[[[26.239583,60.40625],[26.24375,60.40625],[26.24375,60.410417],[26.239583,60.410417],[26.239583,60.40625]]]},"properties":{"radiance":5.39}},{"type":"Feature","geometry":{"type":"Polygon","coordinates":[[[26.24375,60.40625],[26.247917,60.40625],[26.247917,60.410417],[26.24375,60.410417],[26.24375,60.40625]]]},"properties":{"radiance":6.78}},{"type":"Feature","geometry":{"type":"Polygon","coordinates":[[[26.247917,60.40625],[26.252083,60.40625],[26.252083,60.410417],[26.247917,60.410417],[26.247917,60.40625]]]},"properties":{"radiance":8.1}},{"type":"Feature","geometry":{"type":"Polygon","coordinates":[[[26.252083,60.40625],[26.25625,60.40625],[26.25625,60.410417],[26.252083,60.410417],[26.252083,60.40625]]]},"properties":{"radiance":6.77}},{"type":"Feature","geometry":{"type":"Polygon","coordinates":[[[26.25625,60.40625],[26.260417,60.40625],[26.260417,60.410417],[26.25625,60.410417],[26.25625,60.40625]]]},"properties":{"radiance":5.9}},{"type":"Feature","geometry":{"type":"Polygon","coordinates":[[[26.24375,60.402083],[26.247917,60.402083],[26.247917,60.40625],[26.24375,60.40625],[26.24375,60.402083]]]},"properties":{"radiance":5.96}},{"type":"Feature","geometry":{"type":"Polygon","coordinates":[[[26.247917,60.402083],[26.252083,60.402083],[26.252083,60.40625],[26.247917,60.40625],[26.247917,60.402083]]]},"properties":{"radiance":6.63}},{"type":"Feature","geometry":{"type":"Polygon","coordinates":[[[26.252083,60.402083],[26.25625,60.402083],[26.25625,60.40625],[26.252083,60.40625],[26.252083,60.402083]]]},"properties":{"radiance":7.04}},{"type":"Feature","geometry":{"type":"Polygon","coordinates":[[[26.25625,60.402083],[26.260417,60.402083],[26.260417,60.40625],[26.25625,60.40625],[26.25625,60.402083]]]},"properties":{"radiance":6.23}},{"type":"Feature","geometry":{"type":"Polygon","coordinates":[[[26.335417,60.372917],[26.339583,60.372917],[26.339583,60.377083],[26.335417,60.377083],[26.335417,60.372917]]]},"properties":{"radiance":29.96}},{"type":"Feature","geometry":{"type":"Polygon","coordinates":[[[26.339583,60.372917],[26.34375,60.372917],[26.34375,60.377083],[26.339583,60.377083],[26.339583,60.372917]]]},"properties":{"radiance":44.17}},{"type":"Feature","geometry":{"type":"Polygon","coordinates":[[[26.34375,60.372917],[26.347917,60.372917],[26.347917,60.377083],[26.34375,60.377083],[26.34375,60.372917]]]},"properties":{"radiance":45.02}},{"type":"Feature","geometry":{"type":"Polygon","coordinates":[[[26.347917,60.372917],[26.352083,60.372917],[26.352083,60.377083],[26.347917,60.377083],[26.347917,60.372917]]]},"properties":{"radiance":15.89}},{"type":"Feature","geometry":{"type":"Polygon","coordinates":[[[26.33125,60.36875],[26.335417,60.36875],[26.335417,60.372917],[26.33125,60.372917],[26.33125,60.36875]]]},"properties":{"radiance":16.92}},{"type":"Feature","geometry":{"type":"Polygon","coordinates":[[[26.335417,60.36875],[26.339583,60.36875],[26.339583,60.372917],[26.335417,60.372917],[26.335417,60.36875]]]},"properties":{"radiance":20.26}},{"type":"Feature","geometry":{"type":"Polygon","coordinates":[[[26.339583,60.36875],[26.34375,60.36875],[26.34375,60.372917],[26.339583,60.372917],[26.339583,60.36875]]]},"properties":{"radiance":39.7}},{"type":"Feature","geometry":{"type":"Polygon","coordinates":[[[26.34375,60.36875],[26.347917,60.36875],[26.347917,60.372917],[26.34375,60.372917],[26.34375,60.36875]]]},"properties":{"radiance":37.96}},{"type":"Feature","geometry":{"type":"Polygon","coordinates":[[[26.347917,60.36875],[26.352083,60.36875],[26.352083,60.372917],[26.347917,60.372917],[26.347917,60.36875]]]},"properties":{"radiance":18.24}},{"type":"Feature","geometry":{"type":"Polygon","coordinates":[[[26.339583,60.364583],[26.34375,60.364583],[26.34375,60.36875],[26.339583,60.36875],[26.339583,60.364583]]]},"properties":{"radiance":5.57}}]}