{"type":"FeatureCollection","features":[{"type":"Feature","geometry":{"type":"Polygon","coordinates":[[[23.06875,61.739583],[23.072917,61.739583],[23.072917,61.74375],[23.06875,61.74375],[23.06875,61.739583]]]},"properties":{"radiance":6.47}},{"type":"Feature","geometry":{"type":"Polygon","coordinates":[[[23.264583,61.70625],[23.26875,61.70625],[23.26875,61.710417],[23.264583,61.710417],[23.264583,61.70625]]]},"properties":{"radiance":5.83}},{"type":"Feature","geometry":{"type":"Polygon","coordinates":[[[23.26875,61.70625],[23.272917,61.70625],[23.272917,61.710417],[23.26875,61.710417],[23.26875,61.70625]]]},"properties":{"radiance":6.53}},{"type":"Feature","geometry":{"type":"Polygon","coordinates":[[[23.264583,61.702083],[23.26875,61.702083],[23.26875,61.70625],[23.264583,61.70625],[23.264583,61.702083]]]},"properties":{"radiance":5.97}},{"type":"Feature","geometry":{"type":"Polygon","coordinates":[[[23.26875,61.702083],[23.272917,61.702083],[23.272917,61.70625],[23.26875,61.70625],[23.26875,61.702083]]]},"properties":{"radiance":6.68}},{"type":"Feature","geometry":{"type":"Polygon","coordinates":[[[23.147917,61.677083],[23.152083,61.677083],[23.152083,61.68125],[23.147917,61.68125],[23.147917,61.677083]]]},"properties":{"radiance":6.22}},{"type":"Feature","geometry":{"type":"Polygon","coordinates":[[[23.152083,61.677083],[23.15625,61.677083],[23.15625,61.68125],[23.152083,61.68125],[23.152083,61.677083]]]},"properties":{"radiance":5.63}},{"type":"Feature","geometry":{"type":"Polygon","coordinates":[[[23.15625,61.677083],[23.160417,61.677083],[23.160417,61.68125],[23.15625,61.68125],[23.15625,61.677083]]]},"properties":{"radiance":9.93}},{"type":"Feature","geometry":{"type":"Polygon","coordinates":[[[23.160417,61.677083],[23.164583,61.677083],[23.164583,61.68125],[23.160417,61.68125],[23.160417,61.677083]]]},"properties":{"radiance":9.51}},{"type":"Feature","geometry":{"type":"Polygon","coordinates":[[[23.164583,61.677083],[23.16875,61.677083],[23.16875,61.68125],[23.164583,61.68125],[23.164583,61.677083]]]},"properties":{"radiance":5.96}},{"type":"Feature","geometry":{"type":"Polygon","coordinates":[[[23.152083,61.672917],[23.15625,61.672917],[23.15625,61.677083],[23.152083,61.677083],[23.152083,61.672917]]]},"properties":{"radiance":8.98}},{"type":"Feature","geometry":{"type":"Polygon","coordinates":[[[23.15625,61.672917],[23.160417,61.672917],[23.160417,61.677083],[23.15625,61.677083],[23.15625,61.672917]]]},"properties":{"radiance":10.82}},{"type":"Feature","geometry":{"type":"Polygon","coordinates":[[[23.160417,61.672917],[23.164583,61.672917],[23.164583,61.677083],[23.160417,61.677083],[23.160417,61.672917]]]},"properties":{"radiance":10.09}},{"type":"Feature","geometry":{"type":"Polygon","coordinates":[[[23.164583,61.672917],[23.16875,61.672917],[23.16875,61.677083],[23.164583,61.677083],[23.164583,61.672917]]]},"properties":{"radiance":9.16}},{"type":"Feature","geometry":{"type":"Polygon","coordinates":[[[23.16875,61.672917],[23.172917,61.672917],[23.172917,61.677083],[23.16875,61.677083],[23.16875,61.672917]]]},"properties":{"radiance":7.6}},{"type":"Feature","geometry":{"type":"Polygon","coordinates":[[[23.172917,61.672917],[23.177083,61.672917],[23.177083,61.677083],[23.172917,61.677083],[23.172917,61.672917]]]},"properties":{"radiance":8.26}},{"type":"Feature","geometry":{"type":"Polygon","coordinates":[[[23.177083,61.672917],[23.18125,61.672917],[23.18125,61.677083],[23.177083,61.677083],[23.177083,61.672917]]]},"properties":{"radiance":13.05}},{"type":"Feature","geometry":{"type":"Polygon","coordinates":[[[23.18125,61.672917],[23.185417,61.672917],[23.185417,61.677083],[23.18125,61.677083],[23.18125,61.672917]]]},"properties":{"radiance":15.54}},{"type":"Feature","geometry":{"type":"Polygon","coordinates":[[[23.185417,61.672917],[23.189583,61.672917],[23.189583,61.677083],[23.185417,61.677083],[23.185417,61.672917]]]},"properties":{"radiance":16.07}},{"type":"Feature","geometry":{"type":"Polygon","coordinates":[[[23.189583,61.672917],[23.19375,61.672917],[23.19375,61.677083],[23.189583,61.677083],[23.189583,61.672917]]]},"properties":{"radiance":7.63}},{"type":"Feature","geometry":{"type":"Polygon","coordinates":[[[23.19375,61.672917],[23.197917,61.672917],[23.197917,61.677083],[23.19375,61.677083],[23.19375,61.672917]]]},"properties":{"radiance":5.23}},{"type":"Feature","geometry":{"type":"Polygon","coordinates":[[[23.15625,61.66875],[23.160417,61.66875],[23.160417,61.672917],[23.15625,61.672917],[23.15625,61.66875]]]},"properties":{"radiance":5.99}},{"type":"Feature","geometry":{"type":"Polygon","coordinates":[[[23.160417,61.66875],[23.164583,61.66875],[23.164583,61.672917],[23.160417,61.672917],[23.160417,61.66875]]]},"properties":{"radiance":7.69}},{"type":"Feature","geometry":{"type":"Polygon","coordinates":[[[23.164583,61.66875],[23.16875,61.66875],[23.16875,61.672917],[23.164583,61.672917],[23.164583,61.66875]]]},"properties":{"radiance":10.95}},{"type":"Feature","geometry":{"type":"Polygon","coordinates":[[[23.16875,61.66875],[23.172917,61.66875],[23.172917,61.672917],[23.16875,61.672917],[23.16875,61.66875]]]},"properties":{"radiance":10.28}},{"type":"Feature","geometry":{"type":"Polygon","coordinates":[[[23.172917,61.66875],[23.177083,61.66875],[23.177083,61.672917],[23.172917,61.672917],[23.172917,61.66875]]]},"properties":{"radiance":15.56}},{"type":"Feature","geometry":{"type":"Polygon","coordinates":[[[23.177083,61.66875],[23.18125,61.66875],[23.18125,61.672917],[23.177083,61.672917],[23.177083,61.66875]]]},"properties":{"radiance":14.62}},{"type":"Feature","geometry":{"type":"Polygon","coordinates":[[[23.18125,61.66875],[23.185417,61.66875],[23.185417,61.672917],[23.18125,61.672917],[23.18125,61.66875]]]},"properties":{"radiance":30.36}},{"type":"Feature","geometry":{"type":"Polygon","coordinates":[[[23.185417,61.66875],[23.189583,61.66875],[23.189583,61.672917],[23.185417,61.672917],[23.185417,61.66875]]]},"properties":{"radiance":29.82}},{"type":"Feature","geometry":{"type":"Polygon","coordinates":[[[23.189583,61.66875],[23.19375,61.66875],[23.19375,61.672917],[23.189583,61.672917],[23.189583,61.66875]]]},"properties":{"radiance":20.26}},{"type":"Feature","geometry":{"type":"Polygon","coordinates":[[[23.19375,61.66875],[23.197917,61.66875],[23.197917,61.672917],[23.19375,61.672917],[23.19375,61.66875]]]},"properties":{"radiance":8.71}},{"type":"Feature","geometry":{"type":"Polygon","coordinates":[[[23.15625,61.664583],[23.160417,61.664583],[23.160417,61.66875],[23.15625,61.66875],[23.15625,61.664583]]]},"properties":{"radiance":5.06}},{"type":"Feature","geometry":{"type":"Polygon","coordinates":[[[23.160417,61.664583],[23.164583,61.664583],[23.164583,61.66875],[23.160417,61.66875],[23.160417,61.664583]]]},"properties":{"radiance":7.27}},{"type":"Feature","geometry":{"type":"Polygon","coordinates":[[[23.164583,61.664583],[23.16875,61.664583],[23.16875,61.66875],[23.164583,61.66875],[23.164583,61.664583]]]},"properties":{"radiance":11.75}},{"type":"Feature","geometry":{"type":"Polygon","coordinates":[[[23.16875,61.664583],[23.172917,61.664583],[23.172917,61.66875],[23.16875,61.66875],[23.16875,61.664583]]]},"properties":{"radiance":12.48}},{"type":"Feature","geometry":{"type":"Polygon","coordinates":[[[23.172917,61.664583],[23.177083,61.664583],[23.177083,61.66875],[23.172917,61.66875],[23.172917,61.664583]]]},"properties":{"radiance":18.26}},{"type":"Feature","geometry":{"type":"Polygon","coordinates":[[[23.177083,61.664583],[23.18125,61.664583],[23.18125,61.66875],[23.177083,61.66875],[23.177083,61.664583]]]},"properties":{"radiance":26.82}},{"type":"Feature","geometry":{"type":"Polygon","coordinates":[[[23.18125,61.664583],[23.185417,61.664583],[23.185417,61.66875],[23.18125,61.66875],[23.18125,61.664583]]]},"properties":{"radiance":28.87}},{"type":"Feature","geometry":{"type":"Polygon","coordinates":[[[23.185417,61.664583],[23.189583,61.664583],[23.189583,61.66875],[23.185417,61.66875],[23.185417,61.664583]]]},"properties":{"radiance":24.04}},{"type":"Feature","geometry":{"type":"Polygon","coordinates":[[[23.189583,61.664583],[23.19375,61.664583],[23.19375,61.66875],[23.189583,61.66875],[23.189583,61.664583]]]},"properties":{"radiance":21.24}},{"type":"Feature","geometry":{"type":"Polygon","coordinates":[[[23.222917,61.664583],[23.227083,61.664583],[23.227083,61.66875],[23.222917,61.66875],[23.222917,61.664583]]]},"properties":{"radiance":5.08}},{"type":"Feature","geometry":{"type":"Polygon","coordinates":[[[23.227083,61.664583],[23.23125,61.664583],[23.23125,61.66875],[23.227083,61.66875],[23.227083,61.664583]]]},"properties":{"radiance":5.83}},{"type":"Feature","geometry":{"type":"Polygon","coordinates":[[[23.23125,61.664583],[23.235417,61.664583],[23.235417,61.66875],[23.23125,61.66875],[23.23125,61.664583]]]},"properties":{"radiance":6.06}},{"type":"Feature","geometry":{"type":"Polygon","coordinates":[[[23.160417,61.660417],[23.164583,61.660417],[23.164583,61.664583],[23.160417,61.664583],[23.160417,61.660417]]]},"properties":{"radiance":8.18}},{"type":"Feature","geometry":{"type":"Polygon","coordinates":[[[23.164583,61.660417],[23.16875,61.660417],[23.16875,61.664583],[23.164583,61.664583],[23.164583,61.660417]]]},"properties":{"radiance":8.63}},{"type":"Feature","geometry":{"type":"Polygon","coordinates":[[[23.16875,61.660417],[23.172917,61.660417],[23.172917,61.664583],[23.16875,61.664583],[23.16875,61.660417]]]},"properties":{"radiance":11.86}},{"type":"Feature","geometry":{"type":"Polygon","coordinates":[[[23.172917,61.660417],[23.177083,61.660417],[23.177083,61.664583],[23.172917,61.664583],[23.172917,61.660417]]]},"properties":{"radiance":18.93}},{"type":"Feature","geometry":{"type":"Polygon","coordinates":[[[23.177083,61.660417],[23.18125,61.660417],[23.18125,61.664583],[23.177083,61.664583],[23.177083,61.660417]]]},"properties":{"radiance":22.6}},{"type":"Feature","geometry":{"type":"Polygon","coordinates":[[[23.18125,61.660417],[23.185417,61.660417],[23.185417,61.664583],[23.18125,61.664583],[23.18125,61.660417]]]},"properties":{"radiance":21.82}},{"type":"Feature","geometry":{"type":"Polygon","coordinates":[[[23.185417,61.660417],[23.189583,61.660417],[23.189583,61.664583],[23.185417,61.664583],[23.185417,61.660417]]]},"properties":{"radiance":22.46}},{"type":"Feature","geometry":{"type":"Polygon","coordinates":[[[23.189583,61.660417],[23.19375,61.660417],[23.19375,61.664583],[23.189583,61.664583],[23.189583,61.660417]]]},"properties":{"radiance":9.93}},{"type":"Feature","geometry":{"type":"Polygon","coordinates":[[[23.19375,61.660417],[23.197917,61.660417],[23.197917,61.664583],[23.19375,61.664583],[23.19375,61.660417]]]},"properties":{"radiance":5.08}},{"type":"Feature","geometry":{"type":"Polygon","coordinates":[[[23.164583,61.65625],[23.16875,61.65625],[23.16875,61.660417],[23.164583,61.660417],[23.164583,61.65625]]]},"properties":{"radiance":12.43}},{"type":"Feature","geometry":{"type":"Polygon","coordinates":[[[23.16875,61.65625],[23.172917,61.65625],[23.172917,61.660417],[23.16875,61.660417],[23.16875,61.65625]]]},"properties":{"radiance":15.65}},{"type":"Feature","geometry":{"type":"Polygon","coordinates":[[[23.172917,61.65625],[23.177083,61.65625],[23.177083,61.660417],[23.172917,61.660417],[23.172917,61.65625]]]},"properties":{"radiance":20.63}},{"type":"Feature","geometry":{"type":"Polygon","coordinates":[[[23.177083,61.65625],[23.18125,61.65625],[23.18125,61.660417],[23.177083,61.660417],[23.177083,61.65625]]]},"properties":{"radiance":20.59}},{"type":"Feature","geometry":{"type":"Polygon","coordinates":[[[23.18125,61.65625],[23.185417,61.65625],[23.185417,61.660417],[23.18125,61.660417],[23.18125,61.65625]]]},"properties":{"radiance":21.24}},{"type":"Feature","geometry":{"type":"Polygon","coordinates":[[[23.185417,61.65625],[23.189583,61.65625],[23.189583,61.660417],[23.185417,61.660417],[23.185417,61.65625]]]},"properties":{"radiance":14.88}},{"type":"Feature","geometry":{"type":"Polygon","coordinates":[[[23.189583,61.65625],[23.19375,61.65625],[23.19375,61.660417],[23.189583,61.660417],[23.189583,61.65625]]]},"properties":{"radiance":10.72}},{"type":"Feature","geometry":{"type":"Polygon","coordinates":[[[23.19375,61.65625],[23.197917,61.65625],[23.197917,61.660417],[23.19375,61.660417],[23.19375,61.65625]]]},"properties":{"radiance":8.86}},{"type":"Feature","geometry":{"type":"Polygon","coordinates":[[[23.197917,61.65625],[23.202083,61.65625],[23.202083,61.660417],[23.197917,61.660417],[23.197917,61.65625]]]},"properties":{"radiance":5.75}},{"type":"Feature","geometry":{"type":"Polygon","coordinates":[[[23.16875,61.652083],[23.172917,61.652083],[23.172917,61.65625],[23.16875,61.65625],[23.16875,61.652083]]]},"properties":{"radiance":8.32}},{"type":"Feature","geometry":{"type":"Polygon","coordinates":[[[23.172917,61.652083],[23.177083,61.652083],[23.177083,61.65625],[23.172917,61.65625],[23.172917,61.652083]]]},"properties":{"radiance":9.46}},{"type":"Feature","geometry":{"type":"Polygon","coordinates":[[[23.177083,61.652083],[23.18125,61.652083],[23.18125,61.65625],[23.177083,61.65625],[23.177083,61.652083]]]},"properties":{"radiance":11.13}},{"type":"Feature","geometry":{"type":"Polygon","coordinates":[[[23.18125,61.652083],[23.185417,61.652083],[23.185417,61.65625],[23.18125,61.65625],[23.18125,61.652083]]]},"properties":{"radiance":13.15}},{"type":"Feature","geometry":{"type":"Polygon","coordinates":[[[23.185417,61.652083],[23.189583,61.652083],[23.189583,61.65625],[23.185417,61.65625],[23.185417,61.652083]]]},"properties":{"radiance":12.37}},{"type":"Feature","geometry":{"type":"Polygon","coordinates":[[[23.189583,61.652083],[23.19375,61.652083],[23.19375,61.65625],[23.189583,61.65625],[23.189583,61.652083]]]},"properties":{"radiance":12.35}},{"type":"Feature","geometry":{"type":"Polygon","coordinates":[[[23.19375,61.652083],[23.197917,61.652083],[23.197917,61.65625],[23.19375,61.65625],[23.19375,61.652083]]]},"properties":{"radiance":9.27}},{"type":"Feature","geometry":{"type":"Polygon","coordinates":[[[23.172917,61.647917],[23.177083,61.647917],[23.177083,61.652083],[23.172917,61.652083],[23.172917,61.647917]]]},"properties":{"radiance":5.79}},{"type":"Feature","geometry":{"type":"Polygon","coordinates":[[[23.177083,61.647917],[23.18125,61.647917],[23.18125,61.652083],[23.177083,61.652083],[23.177083,61.647917]]]},"properties":{"radiance":8.87}},{"type":"Feature","geometry":{"type":"Polygon","coordinates":[[[23.18125,61.647917],[23.185417,61.647917],[23.185417,61.652083],[23.18125,61.652083],[23.18125,61.647917]]]},"properties":{"radiance":11.65}},{"type":"Feature","geometry":{"type":"Polygon","coordinates":[[[23.185417,61.647917],[23.189583,61.647917],[23.189583,61.652083],[23.185417,61.652083],[23.185417,61.647917]]]},"properties":{"radiance":11.35}},{"type":"Feature","geometry":{"type":"Polygon","coordinates":[[[23.189583,61.647917],[23.19375,61.647917],[23.19375,61.652083],[23.189583,61.652083],[23.189583,61.647917]]]},"properties":{"radiance":10.71}},{"type":"Feature","geometry":{"type":"Polygon","coordinates":[[[23.19375,61.647917],[23.197917,61.647917],[23.197917,61.652083],[23.19375,61.652083],[23.19375,61.647917]]]},"properties":{"radiance":7.66}},{"type":"Feature","geometry":{"type":"Polygon","coordinates":[[[23.197917,61.647917],[23.202083,61.647917],[23.202083,61.652083],[23.197917,61.652083],[23.197917,61.647917]]]},"properties":{"radiance":5.4}},{"type":"Feature","geometry":{"type":"Polygon","coordinates":[[[23.18125,61.64375],[23.185417,61.64375],[23.185417,61.647917],[23.18125,61.647917],[23.18125,61.64375]]]},"properties":{"radiance":6.73}},{"type":"Feature","geometry":{"type":"Polygon","coordinates":[[[23.185417,61.64375],[23.189583,61.64375],[23.189583,61.647917],[23.185417,61.647917],[23.185417,61.64375]]]},"properties":{"radiance":7.63}},{"type":"Feature","geometry":{"type":"Polygon","coordinates":[[[23.189583,61.64375],[23.19375,61.64375],[23.19375,61.647917],[23.189583,61.647917],[23.189583,61.64375]]]},"properties":{"radiance":8.54}},{"type":"Feature","geometry":{"type":"Polygon","coordinates":[[[23.19375,61.64375],[23.197917,61.64375],[23.197917,61.647917],[23.19375,61.647917],[23.19375,61.64375]]]},"properties":{"radiance":7.37}},{"type":"Feature","geometry":{"type":"Polygon","coordinates":[[[23.197917,61.64375],[23.202083,61.64375],[23.202083,61.647917],[23.197917,61.647917],[23.197917,61.64375]]]},"properties":{"radiance":6.19}},{"type":"Feature","geometry":{"type":"Polygon","coordinates":[[[23.202083,61.64375],[23.20625,61.64375],[23.20625,61.647917],[23.202083,61.647917],[23.202083,61.64375]]]},"properties":{"radiance":5.52}},{"type":"Feature","geometry":{"type":"Polygon","coordinates":[[[23.18125,61.639583],[23.185417,61.639583],[23.185417,61.64375],[23.18125,61.64375],[23.18125,61.639583]]]},"properties":{"radiance":6.99}},{"type":"Feature","geometry":{"type":"Polygon","coordinates":[[[23.185417,61.639583],[23.189583,61.639583],[23.189583,61.64375],[23.185417,61.64375],[23.185417,61.639583]]]},"properties":{"radiance":10.36}},{"type":"Feature","geometry":{"type":"Polygon","coordinates":[[[23.189583,61.639583],[23.19375,61.639583],[23.19375,61.64375],[23.189583,61.64375],[23.189583,61.639583]]]},"properties":{"radiance":11.87}},{"type":"Feature","geometry":{"type":"Polygon","coordinates":[[[23.19375,61.639583],[23.197917,61.639583],[23.197917,61.64375],[23.19375,61.64375],[23.19375,61.639583]]]},"properties":{"radiance":11.6}},{"type":"Feature","geometry":{"type":"Polygon","coordinates":[[[23.197917,61.639583],[23.202083,61.639583],[23.202083,61.64375],[23.197917,61.64375],[23.197917,61.639583]]]},"properties":{"radiance":12.21}},{"type":"Feature","geometry":{"type":"Polygon","coordinates":[[[23.202083,61.639583],[23.20625,61.639583],[23.20625,61.64375],[23.202083,61.64375],[23.202083,61.639583]]]},"properties":{"radiance":7.3}},{"type":"Feature","geometry":{"type":"Polygon","coordinates":[[[23.185417,61.635417],[23.189583,61.635417],[23.189583,61.639583],[23.185417,61.639583],[23.185417,61.635417]]]},"properties":{"radiance":5.43}},{"type":"Feature","geometry":{"type":"Polygon","coordinates":[[[23.189583,61.635417],[23.19375,61.635417],[23.19375,61.639583],[23.189583,61.639583],[23.189583,61.635417]]]},"properties":{"radiance":9.23}},{"type":"Feature","geometry":{"type":"Polygon","coordinates":[[[23.19375,61.635417],[23.197917,61.635417],[23.197917,61.639583],[23.19375,61.639583],[23.19375,61.635417]]]},"properties":{"radiance":9.83}},{"type":"Feature","geometry":{"type":"Polygon","coordinates":[[[23.197917,61.635417],[23.202083,61.635417],[23.202083,61.639583],[23.197917,61.639583],[23.197917,61.635417]]]},"properties":{"radiance":8.25}},{"type":"Feature","geometry":{"type":"Polygon","coordinates":[[[23.202083,61.635417],[23.20625,61.635417],[23.20625,61.639583],[23.202083,61.639583],[23.202083,61.635417]]]},"properties":{"radiance":8.35}},{"type":"Feature","geometry":{"type":"Polygon","coordinates":[[[23.20625,61.635417],[23.210417,61.635417],[23.210417,61.639583],[23.20625,61.639583],[23.20625,61.635417]]]},"properties":{"radiance":6.19}},{"type":"Feature","geometry":{"type":"Polygon","coordinates":[[[23.210417,61.635417],[23.214583,61.635417],[23.214583,61.639583],[23.210417,61.639583],[23.210417,61.635417]]]},"properties":{"radiance":5.15}},{"type":"Feature","geometry":{"type":"Polygon","coordinates":[[[23.189583,61.63125],[23.19375,61.63125],[23.19375,61.635417],[23.189583,61.635417],[23.189583,61.63125]]]},"properties":{"radiance":5.22}},{"type":"Feature","geometry":{"type":"Polygon","coordinates":[[[23.19375,61.63125],[23.197917,61.63125],[23.197917,61.635417],[23.19375,61.635417],[23.19375,61.63125]]]},"properties":{"radiance":8.56}},{"type":"Feature","geometry":{"type":"Polygon","coordinates":[[[23.197917,61.63125],[23.202083,61.63125],[23.202083,61.635417],[23.197917,61.635417],[23.197917,61.63125]]]},"properties":{"radiance":8.54}},{"type":"Feature","geometry":{"type":"Polygon","coordinates":[[[23.202083,61.63125],[23.20625,61.63125],[23.20625,61.635417],[23.202083,61.635417],[23.202083,61.63125]]]},"properties":{"radiance":9.22}},{"type":"Feature","geometry":{"type":"Polygon","coordinates":[[[23.20625,61.63125],[23.210417,61.63125],[23.210417,61.635417],[23.20625,61.635417],[23.20625,61.63125]]]},"properties":{"radiance":9.51}},{"type":"Feature","geometry":{"type":"Polygon","coordinates":[[[23.210417,61.63125],[23.214583,61.63125],[23.214583,61.635417],[23.210417,61.635417],[23.210417,61.63125]]]},"properties":{"radiance":5.5}},{"type":"Feature","geometry":{"type":"Polygon","coordinates":[[[23.202083,61.627083],[23.20625,61.627083],[23.20625,61.63125],[23.202083,61.63125],[23.202083,61.627083]]]},"properties":{"radiance":5.48}},{"type":"Feature","geometry":{"type":"Polygon","coordinates":[[[23.210417,61.627083],[23.214583,61.627083],[23.214583,61.63125],[23.210417,61.63125],[23.210417,61.627083]]]},"properties":{"radiance":5.75}},{"type":"Feature","geometry":{"type":"Polygon","coordinates":[[[23.222917,61.622917],[23.227083,61.622917],[23.227083,61.627083],[23.222917,61.627083],[23.222917,61.622917]]]},"properties":{"radiance":5.53}},{"type":"Feature","geometry":{"type":"Polygon","coordinates":[[[23.222917,61.61875],[23.227083,61.61875],[23.227083,61.622917],[23.222917,61.622917],[23.222917,61.61875]]]},"properties":{"radiance":5.72}},{"type":"Feature","geometry":{"type":"Polygon","coordinates":[[[23.227083,61.61875],[23.23125,61.61875],[23.23125,61.622917],[23.227083,61.622917],[23.227083,61.61875]]]},"properties":{"radiance":5.72}},{"type":"Feature","geometry":{"type":"Polygon","coordinates":[[[23.34375,61.60625],[23.347917,61.60625],[23.347917,61.610417],[23.34375,61.610417],[23.34375,61.60625]]]},"properties":{"radiance":5.72}},{"type":"Feature","geometry":{"type":"Polygon","coordinates":[[[23.352083,61.60625],[23.35625,61.60625],[23.35625,61.610417],[23.352083,61.610417],[23.352083,61.60625]]]},"properties":{"radiance":5.21}},{"type":"Feature","geometry":{"type":"Polygon","coordinates":[[[22.58125,61.602083],[22.585417,61.602083],[22.585417,61.60625],[22.58125,61.60625],[22.58125,61.602083]]]},"properties":{"radiance":5.92}},{"type":"Feature","geometry":{"type":"Polygon","coordinates":[[[22.577083,61.597917],[22.58125,61.597917],[22.58125,61.602083],[22.577083,61.602083],[22.577083,61.597917]]]},"properties":{"radiance":6.66}},{"type":"Feature","geometry":{"type":"Polygon","coordinates":[[[22.58125,61.597917],[22.585417,61.597917],[22.585417,61.602083],[22.58125,61.602083],[22.58125,61.597917]]]},"properties":{"radiance":9.67}},{"type":"Feature","geometry":{"type":"Polygon","coordinates":[[[22.585417,61.597917],[22.589583,61.597917],[22.589583,61.602083],[22.585417,61.602083],[22.585417,61.597917]]]},"properties":{"radiance":8.38}},{"type":"Feature","geometry":{"type":"Polygon","coordinates":[[[22.589583,61.597917],[22.59375,61.597917],[22.59375,61.602083],[22.589583,61.602083],[22.589583,61.597917]]]},"properties":{"radiance":5.81}},{"type":"Feature","geometry":{"type":"Polygon","coordinates":[[[22.577083,61.59375],[22.58125,61.59375],[22.58125,61.597917],[22.577083,61.597917],[22.577083,61.59375]]]},"properties":{"radiance":6.64}},{"type":"Feature","geometry":{"type":"Polygon","coordinates":[[[22.58125,61.59375],[22.585417,61.59375],[22.585417,61.597917],[22.58125,61.597917],[22.58125,61.59375]]]},"properties":{"radiance":7.01}},{"type":"Feature","geometry":{"type":"Polygon","coordinates":[[[22.585417,61.59375],[22.589583,61.59375],[22.589583,61.597917],[22.585417,61.597917],[22.585417,61.59375]]]},"properties":{"radiance":8.89}},{"type":"Feature","geometry":{"type":"Polygon","coordinates":[[[22.59375,61.59375],[22.597917,61.59375],[22.597917,61.597917],[22.59375,61.597917],[22.59375,61.59375]]]},"properties":{"radiance":5.74}},{"type":"Feature","geometry":{"type":"Polygon","coordinates":[[[22.989583,61.514583],[22.99375,61.514583],[22.99375,61.51875],[22.989583,61.51875],[22.989583,61.514583]]]},"properties":{"radiance":5.23}},{"type":"Feature","geometry":{"type":"Polygon","coordinates":[[[22.99375,61.514583],[22.997917,61.514583],[22.997917,61.51875],[22.99375,61.51875],[22.99375,61.514583]]]},"properties":{"radiance":8.2}},{"type":"Feature","geometry":{"type":"Polygon","coordinates":[[[22.997917,61.514583],[23.002083,61.514583],[23.002083,61.51875],[22.997917,61.51875],[22.997917,61.514583]]]},"properties":{"radiance":6.76}},{"type":"Feature","geometry":{"type":"Polygon","coordinates":[[[23.002083,61.514583],[23.00625,61.514583],[23.00625,61.51875],[23.002083,61.51875],[23.002083,61.514583]]]},"properties":{"radiance":6.29}},{"type":"Feature","geometry":{"type":"Polygon","coordinates":[[[23.00625,61.514583],[23.010417,61.514583],[23.010417,61.51875],[23.00625,61.51875],[23.00625,61.514583]]]},"properties":{"radiance":5.11}},{"type":"Feature","geometry":{"type":"Polygon","coordinates":[[[22.99375,61.510417],[22.997917,61.510417],[22.997917,61.514583],[22.99375,61.514583],[22.99375,61.510417]]]},"properties":{"radiance":7.32}},{"type":"Feature","geometry":{"type":"Polygon","coordinates":[[[22.997917,61.510417],[23.002083,61.510417],[23.002083,61.514583],[22.997917,61.514583],[22.997917,61.510417]]]},"properties":{"radiance":8.47}},{"type":"Feature","geometry":{"type":"Polygon","coordinates":[[[23.002083,61.510417],[23.00625,61.510417],[23.00625,61.514583],[23.002083,61.514583],[23.002083,61.510417]]]},"properties":{"radiance":8.71}},{"type":"Feature","geometry":{"type":"Polygon","coordinates":[[[23.00625,61.510417],[23.010417,61.510417],[23.010417,61.514583],[23.00625,61.514583],[23.00625,61.510417]]]},"properties":{"radiance":8.68}},{"type":"Feature","geometry":{"type":"Polygon","coordinates":[[[23.010417,61.510417],[23.014583,61.510417],[23.014583,61.514583],[23.010417,61.514583],[23.010417,61.510417]]]},"properties":{"radiance":8.32}},{"type":"Feature","geometry":{"type":"Polygon","coordinates":[[[23.014583,61.510417],[23.01875,61.510417],[23.01875,61.514583],[23.014583,61.514583],[23.014583,61.510417]]]},"properties":{"radiance":6.22}},{"type":"Feature","geometry":{"type":"Polygon","coordinates":[[[23.01875,61.510417],[23.022917,61.510417],[23.022917,61.514583],[23.01875,61.514583],[23.01875,61.510417]]]},"properties":{"radiance":6.27}},{"type":"Feature","geometry":{"type":"Polygon","coordinates":[[[23.022917,61.510417],[23.027083,61.510417],[23.027083,61.514583],[23.022917,61.514583],[23.022917,61.510417]]]},"properties":{"radiance":6.05}},{"type":"Feature","geometry":{"type":"Polygon","coordinates":[[[23.01875,61.50625],[23.022917,61.50625],[23.022917,61.510417],[23.01875,61.510417],[23.01875,61.50625]]]},"properties":{"radiance":6.5}},{"type":"Feature","geometry":{"type":"Polygon","coordinates":[[[23.022917,61.50625],[23.027083,61.50625],[23.027083,61.510417],[23.022917,61.510417],[23.022917,61.50625]]]},"properties":{"radiance":5.22}},{"type":"Feature","geometry":{"type":"Polygon","coordinates":[[[23.027083,61.50625],[23.03125,61.50625],[23.03125,61.510417],[23.027083,61.510417],[23.027083,61.50625]]]},"properties":{"radiance":6.12}},{"type":"Feature","geometry":{"type":"Polygon","coordinates":[[[23.03125,61.50625],[23.035417,61.50625],[23.035417,61.510417],[23.03125,61.510417],[23.03125,61.50625]]]},"properties":{"radiance":6.26}},{"type":"Feature","geometry":{"type":"Polygon","coordinates":[[[23.035417,61.50625],[23.039583,61.50625],[23.039583,61.510417],[23.035417,61.510417],[23.035417,61.50625]]]},"properties":{"radiance":5.8}},{"type":"Feature","geometry":{"type":"Polygon","coordinates":[[[23.039583,61.50625],[23.04375,61.50625],[23.04375,61.510417],[23.039583,61.510417],[23.039583,61.50625]]]},"properties":{"radiance":6.97}},{"type":"Feature","geometry":{"type":"Polygon","coordinates":[[[23.060417,61.50625],[23.064583,61.50625],[23.064583,61.510417],[23.060417,61.510417],[23.060417,61.50625]]]},"properties":{"radiance":5.17}},{"type":"Feature","geometry":{"type":"Polygon","coordinates":[[[23.05625,61.502083],[23.060417,61.502083],[23.060417,61.50625],[23.05625,61.50625],[23.05625,61.502083]]]},"properties":{"radiance":5.28}},{"type":"Feature","geometry":{"type":"Polygon","coordinates":[[[23.060417,61.502083],[23.064583,61.502083],[23.064583,61.50625],[23.060417,61.50625],[23.060417,61.502083]]]},"properties":{"radiance":6}},{"type":"Feature","geometry":{"type":"Polygon","coordinates":[[[23.064583,61.502083],[23.06875,61.502083],[23.06875,61.50625],[23.064583,61.50625],[23.064583,61.502083]]]},"properties":{"radiance":5.46}},{"type":"Feature","geometry":{"type":"Polygon","coordinates":[[[23.06875,61.502083],[23.072917,61.502083],[23.072917,61.50625],[23.06875,61.50625],[23.06875,61.502083]]]},"properties":{"radiance":5.46}},{"type":"Feature","geometry":{"type":"Polygon","coordinates":[[[23.072917,61.502083],[23.077083,61.502083],[23.077083,61.50625],[23.072917,61.50625],[23.072917,61.502083]]]},"properties":{"radiance":6.61}},{"type":"Feature","geometry":{"type":"Polygon","coordinates":[[[23.077083,61.502083],[23.08125,61.502083],[23.08125,61.50625],[23.077083,61.50625],[23.077083,61.502083]]]},"properties":{"radiance":5.88}},{"type":"Feature","geometry":{"type":"Polygon","coordinates":[[[23.08125,61.502083],[23.085417,61.502083],[23.085417,61.50625],[23.08125,61.50625],[23.08125,61.502083]]]},"properties":{"radiance":13.87}},{"type":"Feature","geometry":{"type":"Polygon","coordinates":[[[23.085417,61.502083],[23.089583,61.502083],[23.089583,61.50625],[23.085417,61.50625],[23.085417,61.502083]]]},"properties":{"radiance":17.44}},{"type":"Feature","geometry":{"type":"Polygon","coordinates":[[[23.089583,61.502083],[23.09375,61.502083],[23.09375,61.50625],[23.089583,61.50625],[23.089583,61.502083]]]},"properties":{"radiance":11.15}},{"type":"Feature","geometry":{"type":"Polygon","coordinates":[[[23.09375,61.502083],[23.097917,61.502083],[23.097917,61.50625],[23.09375,61.50625],[23.09375,61.502083]]]},"properties":{"radiance":10.56}},{"type":"Feature","geometry":{"type":"Polygon","coordinates":[[[23.097917,61.502083],[23.102083,61.502083],[23.102083,61.50625],[23.097917,61.50625],[23.097917,61.502083]]]},"properties":{"radiance":9.64}},{"type":"Feature","geometry":{"type":"Polygon","coordinates":[[[23.102083,61.502083],[23.10625,61.502083],[23.10625,61.50625],[23.102083,61.50625],[23.102083,61.502083]]]},"properties":{"radiance":5.45}},{"type":"Feature","geometry":{"type":"Polygon","coordinates":[[[23.327083,61.502083],[23.33125,61.502083],[23.33125,61.50625],[23.327083,61.50625],[23.327083,61.502083]]]},"properties":{"radiance":5.06}},{"type":"Feature","geometry":{"type":"Polygon","coordinates":[[[23.33125,61.502083],[23.335417,61.502083],[23.335417,61.50625],[23.33125,61.50625],[23.33125,61.502083]]]},"properties":{"radiance":5.24}},{"type":"Feature","geometry":{"type":"Polygon","coordinates":[[[23.335417,61.502083],[23.339583,61.502083],[23.339583,61.50625],[23.335417,61.50625],[23.335417,61.502083]]]},"properties":{"radiance":5.22}},{"type":"Feature","geometry":{"type":"Polygon","coordinates":[[[23.08125,61.497917],[23.085417,61.497917],[23.085417,61.502083],[23.08125,61.502083],[23.08125,61.497917]]]},"properties":{"radiance":7.67}},{"type":"Feature","geometry":{"type":"Polygon","coordinates":[[[23.085417,61.497917],[23.089583,61.497917],[23.089583,61.502083],[23.085417,61.502083],[23.085417,61.497917]]]},"properties":{"radiance":8.35}},{"type":"Feature","geometry":{"type":"Polygon","coordinates":[[[23.089583,61.497917],[23.09375,61.497917],[23.09375,61.502083],[23.089583,61.502083],[23.089583,61.497917]]]},"properties":{"radiance":10.38}},{"type":"Feature","geometry":{"type":"Polygon","coordinates":[[[23.09375,61.497917],[23.097917,61.497917],[23.097917,61.502083],[23.09375,61.502083],[23.09375,61.497917]]]},"properties":{"radiance":9.35}},{"type":"Feature","geometry":{"type":"Polygon","coordinates":[[[23.097917,61.497917],[23.102083,61.497917],[23.102083,61.502083],[23.097917,61.502083],[23.097917,61.497917]]]},"properties":{"radiance":6.27}},{"type":"Feature","geometry":{"type":"Polygon","coordinates":[[[23.347917,61.49375],[23.352083,61.49375],[23.352083,61.497917],[23.347917,61.497917],[23.347917,61.49375]]]},"properties":{"radiance":5.96}},{"type":"Feature","geometry":{"type":"Polygon","coordinates":[[[23.327083,61.489583],[23.33125,61.489583],[23.33125,61.49375],[23.327083,61.49375],[23.327083,61.489583]]]},"properties":{"radiance":6}},{"type":"Feature","geometry":{"type":"Polygon","coordinates":[[[23.335417,61.489583],[23.339583,61.489583],[23.339583,61.49375],[23.335417,61.49375],[23.335417,61.489583]]]},"properties":{"radiance":5.47}},{"type":"Feature","geometry":{"type":"Polygon","coordinates":[[[23.339583,61.489583],[23.34375,61.489583],[23.34375,61.49375],[23.339583,61.49375],[23.339583,61.489583]]]},"properties":{"radiance":5.97}},{"type":"Feature","geometry":{"type":"Polygon","coordinates":[[[23.34375,61.489583],[23.347917,61.489583],[23.347917,61.49375],[23.34375,61.49375],[23.34375,61.489583]]]},"properties":{"radiance":6.54}},{"type":"Feature","geometry":{"type":"Polygon","coordinates":[[[23.347917,61.489583],[23.352083,61.489583],[23.352083,61.49375],[23.347917,61.49375],[23.347917,61.489583]]]},"properties":{"radiance":6.8}},{"type":"Feature","geometry":{"type":"Polygon","coordinates":[[[23.352083,61.489583],[23.35625,61.489583],[23.35625,61.49375],[23.352083,61.49375],[23.352083,61.489583]]]},"properties":{"radiance":6.35}},{"type":"Feature","geometry":{"type":"Polygon","coordinates":[[[23.35625,61.489583],[23.360417,61.489583],[23.360417,61.49375],[23.35625,61.49375],[23.35625,61.489583]]]},"properties":{"radiance":6.82}},{"type":"Feature","geometry":{"type":"Polygon","coordinates":[[[23.322917,61.485417],[23.327083,61.485417],[23.327083,61.489583],[23.322917,61.489583],[23.322917,61.485417]]]},"properties":{"radiance":7.76}},{"type":"Feature","geometry":{"type":"Polygon","coordinates":[[[23.327083,61.485417],[23.33125,61.485417],[23.33125,61.489583],[23.327083,61.489583],[23.327083,61.485417]]]},"properties":{"radiance":11.3}},{"type":"Feature","geometry":{"type":"Polygon","coordinates":[[[23.335417,61.485417],[23.339583,61.485417],[23.339583,61.489583],[23.335417,61.489583],[23.335417,61.485417]]]},"properties":{"radiance":7.12}},{"type":"Feature","geometry":{"type":"Polygon","coordinates":[[[23.339583,61.485417],[23.34375,61.485417],[23.34375,61.489583],[23.339583,61.489583],[23.339583,61.485417]]]},"properties":{"radiance":8.76}},{"type":"Feature","geometry":{"type":"Polygon","coordinates":[[[23.34375,61.485417],[23.347917,61.485417],[23.347917,61.489583],[23.34375,61.489583],[23.34375,61.485417]]]},"properties":{"radiance":11.21}},{"type":"Feature","geometry":{"type":"Polygon","coordinates":[[[23.347917,61.485417],[23.352083,61.485417],[23.352083,61.489583],[23.347917,61.489583],[23.347917,61.485417]]]},"properties":{"radiance":11.13}},{"type":"Feature","geometry":{"type":"Polygon","coordinates":[[[23.352083,61.485417],[23.35625,61.485417],[23.35625,61.489583],[23.352083,61.489583],[23.352083,61.485417]]]},"properties":{"radiance":11.3}},{"type":"Feature","geometry":{"type":"Polygon","coordinates":[[[23.35625,61.485417],[23.360417,61.485417],[23.360417,61.489583],[23.35625,61.489583],[23.35625,61.485417]]]},"properties":{"radiance":10.77}},{"type":"Feature","geometry":{"type":"Polygon","coordinates":[[[23.360417,61.485417],[23.364583,61.485417],[23.364583,61.489583],[23.360417,61.489583],[23.360417,61.485417]]]},"properties":{"radiance":7.36}},{"type":"Feature","geometry":{"type":"Polygon","coordinates":[[[23.322917,61.48125],[23.327083,61.48125],[23.327083,61.485417],[23.322917,61.485417],[23.322917,61.48125]]]},"properties":{"radiance":8.45}},{"type":"Feature","geometry":{"type":"Polygon","coordinates":[[[23.327083,61.48125],[23.33125,61.48125],[23.33125,61.485417],[23.327083,61.485417],[23.327083,61.48125]]]},"properties":{"radiance":14.27}},{"type":"Feature","geometry":{"type":"Polygon","coordinates":[[[23.33125,61.48125],[23.335417,61.48125],[23.335417,61.485417],[23.33125,61.485417],[23.33125,61.48125]]]},"properties":{"radiance":6.73}},{"type":"Feature","geometry":{"type":"Polygon","coordinates":[[[23.335417,61.48125],[23.339583,61.48125],[23.339583,61.485417],[23.335417,61.485417],[23.335417,61.48125]]]},"properties":{"radiance":5.02}},{"type":"Feature","geometry":{"type":"Polygon","coordinates":[[[23.34375,61.48125],[23.347917,61.48125],[23.347917,61.485417],[23.34375,61.485417],[23.34375,61.48125]]]},"properties":{"radiance":6.29}},{"type":"Feature","geometry":{"type":"Polygon","coordinates":[[[23.347917,61.48125],[23.352083,61.48125],[23.352083,61.485417],[23.347917,61.485417],[23.347917,61.48125]]]},"properties":{"radiance":5.88}},{"type":"Feature","geometry":{"type":"Polygon","coordinates":[[[23.352083,61.48125],[23.35625,61.48125],[23.35625,61.485417],[23.352083,61.485417],[23.352083,61.48125]]]},"properties":{"radiance":6.79}},{"type":"Feature","geometry":{"type":"Polygon","coordinates":[[[22.552083,61.477083],[22.55625,61.477083],[22.55625,61.48125],[22.552083,61.48125],[22.552083,61.477083]]]},"properties":{"radiance":5.68}},{"type":"Feature","geometry":{"type":"Polygon","coordinates":[[[23.327083,61.477083],[23.33125,61.477083],[23.33125,61.48125],[23.327083,61.48125],[23.327083,61.477083]]]},"properties":{"radiance":5.4}},{"type":"Feature","geometry":{"type":"Polygon","coordinates":[[[23.33125,61.477083],[23.335417,61.477083],[23.335417,61.48125],[23.33125,61.48125],[23.33125,61.477083]]]},"properties":{"radiance":5.14}},{"type":"Feature","geometry":{"type":"Polygon","coordinates":[[[23.335417,61.477083],[23.339583,61.477083],[23.339583,61.48125],[23.335417,61.48125],[23.335417,61.477083]]]},"properties":{"radiance":5.12}},{"type":"Feature","geometry":{"type":"Polygon","coordinates":[[[22.547917,61.472917],[22.552083,61.472917],[22.552083,61.477083],[22.547917,61.477083],[22.547917,61.472917]]]},"properties":{"radiance":6.86}},{"type":"Feature","geometry":{"type":"Polygon","coordinates":[[[22.552083,61.472917],[22.55625,61.472917],[22.55625,61.477083],[22.552083,61.477083],[22.552083,61.472917]]]},"properties":{"radiance":6.94}},{"type":"Feature","geometry":{"type":"Polygon","coordinates":[[[22.55625,61.472917],[22.560417,61.472917],[22.560417,61.477083],[22.55625,61.477083],[22.55625,61.472917]]]},"properties":{"radiance":6.65}},{"type":"Feature","geometry":{"type":"Polygon","coordinates":[[[22.889583,61.360417],[22.89375,61.360417],[22.89375,61.364583],[22.889583,61.364583],[22.889583,61.360417]]]},"properties":{"radiance":5.42}},{"type":"Feature","geometry":{"type":"Polygon","coordinates":[[[22.89375,61.360417],[22.897917,61.360417],[22.897917,61.364583],[22.89375,61.364583],[22.89375,61.360417]]]},"properties":{"radiance":6.17}},{"type":"Feature","geometry":{"type":"Polygon","coordinates":[[[22.897917,61.360417],[22.902083,61.360417],[22.902083,61.364583],[22.897917,61.364583],[22.897917,61.360417]]]},"properties":{"radiance":7.28}},{"type":"Feature","geometry":{"type":"Polygon","coordinates":[[[22.902083,61.360417],[22.90625,61.360417],[22.90625,61.364583],[22.902083,61.364583],[22.902083,61.360417]]]},"properties":{"radiance":6.79}},{"type":"Feature","geometry":{"type":"Polygon","coordinates":[[[22.910417,61.360417],[22.914583,61.360417],[22.914583,61.364583],[22.910417,61.364583],[22.910417,61.360417]]]},"properties":{"radiance":5.15}},{"type":"Feature","geometry":{"type":"Polygon","coordinates":[[[22.86875,61.35625],[22.872917,61.35625],[22.872917,61.360417],[22.86875,61.360417],[22.86875,61.35625]]]},"properties":{"radiance":5.3}},{"type":"Feature","geometry":{"type":"Polygon","coordinates":[[[22.872917,61.35625],[22.877083,61.35625],[22.877083,61.360417],[22.872917,61.360417],[22.872917,61.35625]]]},"properties":{"radiance":13.21}},{"type":"Feature","geometry":{"type":"Polygon","coordinates":[[[22.877083,61.35625],[22.88125,61.35625],[22.88125,61.360417],[22.877083,61.360417],[22.877083,61.35625]]]},"properties":{"radiance":12.99}},{"type":"Feature","geometry":{"type":"Polygon","coordinates":[[[22.88125,61.35625],[22.885417,61.35625],[22.885417,61.360417],[22.88125,61.360417],[22.88125,61.35625]]]},"properties":{"radiance":18.33}},{"type":"Feature","geometry":{"type":"Polygon","coordinates":[[[22.885417,61.35625],[22.889583,61.35625],[22.889583,61.360417],[22.885417,61.360417],[22.885417,61.35625]]]},"properties":{"radiance":15.02}},{"type":"Feature","geometry":{"type":"Polygon","coordinates":[[[22.889583,61.35625],[22.89375,61.35625],[22.89375,61.360417],[22.889583,61.360417],[22.889583,61.35625]]]},"properties":{"radiance":11.46}},{"type":"Feature","geometry":{"type":"Polygon","coordinates":[[[22.89375,61.35625],[22.897917,61.35625],[22.897917,61.360417],[22.89375,61.360417],[22.89375,61.35625]]]},"properties":{"radiance":9.96}},{"type":"Feature","geometry":{"type":"Polygon","coordinates":[[[22.897917,61.35625],[22.902083,61.35625],[22.902083,61.360417],[22.897917,61.360417],[22.897917,61.35625]]]},"properties":{"radiance":9.63}},{"type":"Feature","geometry":{"type":"Polygon","coordinates":[[[22.902083,61.35625],[22.90625,61.35625],[22.90625,61.360417],[22.902083,61.360417],[22.902083,61.35625]]]},"properties":{"radiance":9.28}},{"type":"Feature","geometry":{"type":"Polygon","coordinates":[[[22.90625,61.35625],[22.910417,61.35625],[22.910417,61.360417],[22.90625,61.360417],[22.90625,61.35625]]]},"properties":{"radiance":10.37}},{"type":"Feature","geometry":{"type":"Polygon","coordinates":[[[22.910417,61.35625],[22.914583,61.35625],[22.914583,61.360417],[22.910417,61.360417],[22.910417,61.35625]]]},"properties":{"radiance":8.98}},{"type":"Feature","geometry":{"type":"Polygon","coordinates":[[[22.914583,61.35625],[22.91875,61.35625],[22.91875,61.360417],[22.914583,61.360417],[22.914583,61.35625]]]},"properties":{"radiance":8.4}},{"type":"Feature","geometry":{"type":"Polygon","coordinates":[[[22.91875,61.35625],[22.922917,61.35625],[22.922917,61.360417],[22.91875,61.360417],[22.91875,61.35625]]]},"properties":{"radiance":7.25}},{"type":"Feature","geometry":{"type":"Polygon","coordinates":[[[22.922917,61.35625],[22.927083,61.35625],[22.927083,61.360417],[22.922917,61.360417],[22.922917,61.35625]]]},"properties":{"radiance":5.17}},{"type":"Feature","geometry":{"type":"Polygon","coordinates":[[[22.86875,61.352083],[22.872917,61.352083],[22.872917,61.35625],[22.86875,61.35625],[22.86875,61.352083]]]},"properties":{"radiance":8.72}},{"type":"Feature","geometry":{"type":"Polygon","coordinates":[[[22.872917,61.352083],[22.877083,61.352083],[22.877083,61.35625],[22.872917,61.35625],[22.872917,61.352083]]]},"properties":{"radiance":13.5}},{"type":"Feature","geometry":{"type":"Polygon","coordinates":[[[22.877083,61.352083],[22.88125,61.352083],[22.88125,61.35625],[22.877083,61.35625],[22.877083,61.352083]]]},"properties":{"radiance":16.07}},{"type":"Feature","geometry":{"type":"Polygon","coordinates":[[[22.88125,61.352083],[22.885417,61.352083],[22.885417,61.35625],[22.88125,61.35625],[22.88125,61.352083]]]},"properties":{"radiance":19.32}},{"type":"Feature","geometry":{"type":"Polygon","coordinates":[[[22.885417,61.352083],[22.889583,61.352083],[22.889583,61.35625],[22.885417,61.35625],[22.885417,61.352083]]]},"properties":{"radiance":18.39}},{"type":"Feature","geometry":{"type":"Polygon","coordinates":[[[22.889583,61.352083],[22.89375,61.352083],[22.89375,61.35625],[22.889583,61.35625],[22.889583,61.352083]]]},"properties":{"radiance":17.19}},{"type":"Feature","geometry":{"type":"Polygon","coordinates":[[[22.89375,61.352083],[22.897917,61.352083],[22.897917,61.35625],[22.89375,61.35625],[22.89375,61.352083]]]},"properties":{"radiance":15.42}},{"type":"Feature","geometry":{"type":"Polygon","coordinates":[[[22.897917,61.352083],[22.902083,61.352083],[22.902083,61.35625],[22.897917,61.35625],[22.897917,61.352083]]]},"properties":{"radiance":15.24}},{"type":"Feature","geometry":{"type":"Polygon","coordinates":[[[22.902083,61.352083],[22.90625,61.352083],[22.90625,61.35625],[22.902083,61.35625],[22.902083,61.352083]]]},"properties":{"radiance":13}},{"type":"Feature","geometry":{"type":"Polygon","coordinates":[[[22.90625,61.352083],[22.910417,61.352083],[22.910417,61.35625],[22.90625,61.35625],[22.90625,61.352083]]]},"properties":{"radiance":10.01}},{"type":"Feature","geometry":{"type":"Polygon","coordinates":[[[22.910417,61.352083],[22.914583,61.352083],[22.914583,61.35625],[22.910417,61.35625],[22.910417,61.352083]]]},"properties":{"radiance":9.91}},{"type":"Feature","geometry":{"type":"Polygon","coordinates":[[[22.914583,61.352083],[22.91875,61.352083],[22.91875,61.35625],[22.914583,61.35625],[22.914583,61.352083]]]},"properties":{"radiance":8.33}},{"type":"Feature","geometry":{"type":"Polygon","coordinates":[[[22.91875,61.352083],[22.922917,61.352083],[22.922917,61.35625],[22.91875,61.35625],[22.91875,61.352083]]]},"properties":{"radiance":6.36}},{"type":"Feature","geometry":{"type":"Polygon","coordinates":[[[22.922917,61.352083],[22.927083,61.352083],[22.927083,61.35625],[22.922917,61.35625],[22.922917,61.352083]]]},"properties":{"radiance":5.3}},{"type":"Feature","geometry":{"type":"Polygon","coordinates":[[[22.872917,61.347917],[22.877083,61.347917],[22.877083,61.352083],[22.872917,61.352083],[22.872917,61.347917]]]},"properties":{"radiance":7.25}},{"type":"Feature","geometry":{"type":"Polygon","coordinates":[[[22.877083,61.347917],[22.88125,61.347917],[22.88125,61.352083],[22.877083,61.352083],[22.877083,61.347917]]]},"properties":{"radiance":13.84}},{"type":"Feature","geometry":{"type":"Polygon","coordinates":[[[22.88125,61.347917],[22.885417,61.347917],[22.885417,61.352083],[22.88125,61.352083],[22.88125,61.347917]]]},"properties":{"radiance":14.61}},{"type":"Feature","geometry":{"type":"Polygon","coordinates":[[[22.885417,61.347917],[22.889583,61.347917],[22.889583,61.352083],[22.885417,61.352083],[22.885417,61.347917]]]},"properties":{"radiance":12.56}},{"type":"Feature","geometry":{"type":"Polygon","coordinates":[[[22.889583,61.347917],[22.89375,61.347917],[22.89375,61.352083],[22.889583,61.352083],[22.889583,61.347917]]]},"properties":{"radiance":14.12}},{"type":"Feature","geometry":{"type":"Polygon","coordinates":[[[22.89375,61.347917],[22.897917,61.347917],[22.897917,61.352083],[22.89375,61.352083],[22.89375,61.347917]]]},"properties":{"radiance":14.03}},{"type":"Feature","geometry":{"type":"Polygon","coordinates":[[[22.897917,61.347917],[22.902083,61.347917],[22.902083,61.352083],[22.897917,61.352083],[22.897917,61.347917]]]},"properties":{"radiance":17.45}},{"type":"Feature","geometry":{"type":"Polygon","coordinates":[[[22.902083,61.347917],[22.90625,61.347917],[22.90625,61.352083],[22.902083,61.352083],[22.902083,61.347917]]]},"properties":{"radiance":14.03}},{"type":"Feature","geometry":{"type":"Polygon","coordinates":[[[22.90625,61.347917],[22.910417,61.347917],[22.910417,61.352083],[22.90625,61.352083],[22.90625,61.347917]]]},"properties":{"radiance":11.06}},{"type":"Feature","geometry":{"type":"Polygon","coordinates":[[[22.910417,61.347917],[22.914583,61.347917],[22.914583,61.352083],[22.910417,61.352083],[22.910417,61.347917]]]},"properties":{"radiance":8.84}},{"type":"Feature","geometry":{"type":"Polygon","coordinates":[[[22.885417,61.34375],[22.889583,61.34375],[22.889583,61.347917],[22.885417,61.347917],[22.885417,61.34375]]]},"properties":{"radiance":6.77}},{"type":"Feature","geometry":{"type":"Polygon","coordinates":[[[22.889583,61.34375],[22.89375,61.34375],[22.89375,61.347917],[22.889583,61.347917],[22.889583,61.34375]]]},"properties":{"radiance":7.08}},{"type":"Feature","geometry":{"type":"Polygon","coordinates":[[[22.89375,61.34375],[22.897917,61.34375],[22.897917,61.347917],[22.89375,61.347917],[22.89375,61.34375]]]},"properties":{"radiance":8.93}},{"type":"Feature","geometry":{"type":"Polygon","coordinates":[[[22.897917,61.34375],[22.902083,61.34375],[22.902083,61.347917],[22.897917,61.347917],[22.897917,61.34375]]]},"properties":{"radiance":9.57}},{"type":"Feature","geometry":{"type":"Polygon","coordinates":[[[22.902083,61.34375],[22.90625,61.34375],[22.90625,61.347917],[22.902083,61.347917],[22.902083,61.34375]]]},"properties":{"radiance":16.12}},{"type":"Feature","geometry":{"type":"Polygon","coordinates":[[[22.90625,61.34375],[22.910417,61.34375],[22.910417,61.347917],[22.90625,61.347917],[22.90625,61.34375]]]},"properties":{"radiance":27.19}},{"type":"Feature","geometry":{"type":"Polygon","coordinates":[[[22.910417,61.34375],[22.914583,61.34375],[22.914583,61.347917],[22.910417,61.347917],[22.910417,61.34375]]]},"properties":{"radiance":16.12}},{"type":"Feature","geometry":{"type":"Polygon","coordinates":[[[22.914583,61.34375],[22.91875,61.34375],[22.91875,61.347917],[22.914583,61.347917],[22.914583,61.34375]]]},"properties":{"radiance":11.94}},{"type":"Feature","geometry":{"type":"Polygon","coordinates":[[[22.89375,61.339583],[22.897917,61.339583],[22.897917,61.34375],[22.89375,61.34375],[22.89375,61.339583]]]},"properties":{"radiance":6.65}},{"type":"Feature","geometry":{"type":"Polygon","coordinates":[[[22.897917,61.339583],[22.902083,61.339583],[22.902083,61.34375],[22.897917,61.34375],[22.897917,61.339583]]]},"properties":{"radiance":8.72}},{"type":"Feature","geometry":{"type":"Polygon","coordinates":[[[22.902083,61.339583],[22.90625,61.339583],[22.90625,61.34375],[22.902083,61.34375],[22.902083,61.339583]]]},"properties":{"radiance":25.74}},{"type":"Feature","geometry":{"type":"Polygon","coordinates":[[[22.90625,61.339583],[22.910417,61.339583],[22.910417,61.34375],[22.90625,61.34375],[22.90625,61.339583]]]},"properties":{"radiance":33.32}},{"type":"Feature","geometry":{"type":"Polygon","coordinates":[[[22.910417,61.339583],[22.914583,61.339583],[22.914583,61.34375],[22.910417,61.34375],[22.910417,61.339583]]]},"properties":{"radiance":28.43}},{"type":"Feature","geometry":{"type":"Polygon","coordinates":[[[22.914583,61.339583],[22.91875,61.339583],[22.91875,61.34375],[22.914583,61.34375],[22.914583,61.339583]]]},"properties":{"radiance":23.07}},{"type":"Feature","geometry":{"type":"Polygon","coordinates":[[[22.91875,61.339583],[22.922917,61.339583],[22.922917,61.34375],[22.91875,61.34375],[22.91875,61.339583]]]},"properties":{"radiance":17.17}},{"type":"Feature","geometry":{"type":"Polygon","coordinates":[[[22.922917,61.339583],[22.927083,61.339583],[22.927083,61.34375],[22.922917,61.34375],[22.922917,61.339583]]]},"properties":{"radiance":17}},{"type":"Feature","geometry":{"type":"Polygon","coordinates":[[[22.927083,61.339583],[22.93125,61.339583],[22.93125,61.34375],[22.927083,61.34375],[22.927083,61.339583]]]},"properties":{"radiance":11.01}},{"type":"Feature","geometry":{"type":"Polygon","coordinates":[[[22.93125,61.339583],[22.935417,61.339583],[22.935417,61.34375],[22.93125,61.34375],[22.93125,61.339583]]]},"properties":{"radiance":8.86}},{"type":"Feature","geometry":{"type":"Polygon","coordinates":[[[22.935417,61.339583],[22.939583,61.339583],[22.939583,61.34375],[22.935417,61.34375],[22.935417,61.339583]]]},"properties":{"radiance":6.35}},{"type":"Feature","geometry":{"type":"Polygon","coordinates":[[[22.939583,61.339583],[22.94375,61.339583],[22.94375,61.34375],[22.939583,61.34375],[22.939583,61.339583]]]},"properties":{"radiance":5.32}},{"type":"Feature","geometry":{"type":"Polygon","coordinates":[[[22.902083,61.335417],[22.90625,61.335417],[22.90625,61.339583],[22.902083,61.339583],[22.902083,61.335417]]]},"properties":{"radiance":5.6}},{"type":"Feature","geometry":{"type":"Polygon","coordinates":[[[22.90625,61.335417],[22.910417,61.335417],[22.910417,61.339583],[22.90625,61.339583],[22.90625,61.335417]]]},"properties":{"radiance":7.01}},{"type":"Feature","geometry":{"type":"Polygon","coordinates":[[[22.910417,61.335417],[22.914583,61.335417],[22.914583,61.339583],[22.910417,61.339583],[22.910417,61.335417]]]},"properties":{"radiance":7.55}},{"type":"Feature","geometry":{"type":"Polygon","coordinates":[[[22.914583,61.335417],[22.91875,61.335417],[22.91875,61.339583],[22.914583,61.339583],[22.914583,61.335417]]]},"properties":{"radiance":13.22}},{"type":"Feature","geometry":{"type":"Polygon","coordinates":[[[22.91875,61.335417],[22.922917,61.335417],[22.922917,61.339583],[22.91875,61.339583],[22.91875,61.335417]]]},"properties":{"radiance":19.42}},{"type":"Feature","geometry":{"type":"Polygon","coordinates":[[[22.922917,61.335417],[22.927083,61.335417],[22.927083,61.339583],[22.922917,61.339583],[22.922917,61.335417]]]},"properties":{"radiance":15.13}},{"type":"Feature","geometry":{"type":"Polygon","coordinates":[[[22.927083,61.335417],[22.93125,61.335417],[22.93125,61.339583],[22.927083,61.339583],[22.927083,61.335417]]]},"properties":{"radiance":12.46}},{"type":"Feature","geometry":{"type":"Polygon","coordinates":[[[22.93125,61.335417],[22.935417,61.335417],[22.935417,61.339583],[22.93125,61.339583],[22.93125,61.335417]]]},"properties":{"radiance":11.25}},{"type":"Feature","geometry":{"type":"Polygon","coordinates":[[[22.935417,61.335417],[22.939583,61.335417],[22.939583,61.339583],[22.935417,61.339583],[22.935417,61.335417]]]},"properties":{"radiance":8.15}},{"type":"Feature","geometry":{"type":"Polygon","coordinates":[[[22.939583,61.335417],[22.94375,61.335417],[22.94375,61.339583],[22.939583,61.339583],[22.939583,61.335417]]]},"properties":{"radiance":7.33}},{"type":"Feature","geometry":{"type":"Polygon","coordinates":[[[22.910417,61.33125],[22.914583,61.33125],[22.914583,61.335417],[22.910417,61.335417],[22.910417,61.33125]]]},"properties":{"radiance":13.85}},{"type":"Feature","geometry":{"type":"Polygon","coordinates":[[[22.914583,61.33125],[22.91875,61.33125],[22.91875,61.335417],[22.914583,61.335417],[22.914583,61.33125]]]},"properties":{"radiance":17.08}},{"type":"Feature","geometry":{"type":"Polygon","coordinates":[[[22.91875,61.33125],[22.922917,61.33125],[22.922917,61.335417],[22.91875,61.335417],[22.91875,61.33125]]]},"properties":{"radiance":19.8}},{"type":"Feature","geometry":{"type":"Polygon","coordinates":[[[22.922917,61.33125],[22.927083,61.33125],[22.927083,61.335417],[22.922917,61.335417],[22.922917,61.33125]]]},"properties":{"radiance":15.7}},{"type":"Feature","geometry":{"type":"Polygon","coordinates":[[[22.927083,61.33125],[22.93125,61.33125],[22.93125,61.335417],[22.927083,61.335417],[22.927083,61.33125]]]},"properties":{"radiance":14.15}},{"type":"Feature","geometry":{"type":"Polygon","coordinates":[[[22.93125,61.33125],[22.935417,61.33125],[22.935417,61.335417],[22.93125,61.335417],[22.93125,61.33125]]]},"properties":{"radiance":8.09}},{"type":"Feature","geometry":{"type":"Polygon","coordinates":[[[22.935417,61.33125],[22.939583,61.33125],[22.939583,61.335417],[22.935417,61.335417],[22.935417,61.33125]]]},"properties":{"radiance":8.15}},{"type":"Feature","geometry":{"type":"Polygon","coordinates":[[[22.939583,61.33125],[22.94375,61.33125],[22.94375,61.335417],[22.939583,61.335417],[22.939583,61.33125]]]},"properties":{"radiance":7.12}},{"type":"Feature","geometry":{"type":"Polygon","coordinates":[[[22.94375,61.33125],[22.947917,61.33125],[22.947917,61.335417],[22.94375,61.335417],[22.94375,61.33125]]]},"properties":{"radiance":7.51}},{"type":"Feature","geometry":{"type":"Polygon","coordinates":[[[22.947917,61.33125],[22.952083,61.33125],[22.952083,61.335417],[22.947917,61.335417],[22.947917,61.33125]]]},"properties":{"radiance":5.94}},{"type":"Feature","geometry":{"type":"Polygon","coordinates":[[[22.90625,61.327083],[22.910417,61.327083],[22.910417,61.33125],[22.90625,61.33125],[22.90625,61.327083]]]},"properties":{"radiance":12.39}},{"type":"Feature","geometry":{"type":"Polygon","coordinates":[[[22.910417,61.327083],[22.914583,61.327083],[22.914583,61.33125],[22.910417,61.33125],[22.910417,61.327083]]]},"properties":{"radiance":15.79}},{"type":"Feature","geometry":{"type":"Polygon","coordinates":[[[22.914583,61.327083],[22.91875,61.327083],[22.91875,61.33125],[22.914583,61.33125],[22.914583,61.327083]]]},"properties":{"radiance":21.48}},{"type":"Feature","geometry":{"type":"Polygon","coordinates":[[[22.91875,61.327083],[22.922917,61.327083],[22.922917,61.33125],[22.91875,61.33125],[22.91875,61.327083]]]},"properties":{"radiance":17.23}},{"type":"Feature","geometry":{"type":"Polygon","coordinates":[[[22.922917,61.327083],[22.927083,61.327083],[22.927083,61.33125],[22.922917,61.33125],[22.922917,61.327083]]]},"properties":{"radiance":14.67}},{"type":"Feature","geometry":{"type":"Polygon","coordinates":[[[22.927083,61.327083],[22.93125,61.327083],[22.93125,61.33125],[22.927083,61.33125],[22.927083,61.327083]]]},"properties":{"radiance":9.36}},{"type":"Feature","geometry":{"type":"Polygon","coordinates":[[[22.93125,61.327083],[22.935417,61.327083],[22.935417,61.33125],[22.93125,61.33125],[22.93125,61.327083]]]},"properties":{"radiance":8.49}},{"type":"Feature","geometry":{"type":"Polygon","coordinates":[[[22.935417,61.327083],[22.939583,61.327083],[22.939583,61.33125],[22.935417,61.33125],[22.935417,61.327083]]]},"properties":{"radiance":7.16}},{"type":"Feature","geometry":{"type":"Polygon","coordinates":[[[22.939583,61.327083],[22.94375,61.327083],[22.94375,61.33125],[22.939583,61.33125],[22.939583,61.327083]]]},"properties":{"radiance":7.03}},{"type":"Feature","geometry":{"type":"Polygon","coordinates":[[[22.94375,61.327083],[22.947917,61.327083],[22.947917,61.33125],[22.94375,61.33125],[22.94375,61.327083]]]},"properties":{"radiance":7.15}},{"type":"Feature","geometry":{"type":"Polygon","coordinates":[[[22.947917,61.327083],[22.952083,61.327083],[22.952083,61.33125],[22.947917,61.33125],[22.947917,61.327083]]]},"properties":{"radiance":5.73}},{"type":"Feature","geometry":{"type":"Polygon","coordinates":[[[22.777083,61.322917],[22.78125,61.322917],[22.78125,61.327083],[22.777083,61.327083],[22.777083,61.322917]]]},"properties":{"radiance":5.14}},{"type":"Feature","geometry":{"type":"Polygon","coordinates":[[[22.78125,61.322917],[22.785417,61.322917],[22.785417,61.327083],[22.78125,61.327083],[22.78125,61.322917]]]},"properties":{"radiance":5.89}},{"type":"Feature","geometry":{"type":"Polygon","coordinates":[[[22.864583,61.322917],[22.86875,61.322917],[22.86875,61.327083],[22.864583,61.327083],[22.864583,61.322917]]]},"properties":{"radiance":5.76}},{"type":"Feature","geometry":{"type":"Polygon","coordinates":[[[22.86875,61.322917],[22.872917,61.322917],[22.872917,61.327083],[22.86875,61.327083],[22.86875,61.322917]]]},"properties":{"radiance":5.36}},{"type":"Feature","geometry":{"type":"Polygon","coordinates":[[[22.872917,61.322917],[22.877083,61.322917],[22.877083,61.327083],[22.872917,61.327083],[22.872917,61.322917]]]},"properties":{"radiance":6.86}},{"type":"Feature","geometry":{"type":"Polygon","coordinates":[[[22.877083,61.322917],[22.88125,61.322917],[22.88125,61.327083],[22.877083,61.327083],[22.877083,61.322917]]]},"properties":{"radiance":6.59}},{"type":"Feature","geometry":{"type":"Polygon","coordinates":[[[22.90625,61.322917],[22.910417,61.322917],[22.910417,61.327083],[22.90625,61.327083],[22.90625,61.322917]]]},"properties":{"radiance":14.82}},{"type":"Feature","geometry":{"type":"Polygon","coordinates":[[[22.910417,61.322917],[22.914583,61.322917],[22.914583,61.327083],[22.910417,61.327083],[22.910417,61.322917]]]},"properties":{"radiance":19.06}},{"type":"Feature","geometry":{"type":"Polygon","coordinates":[[[22.914583,61.322917],[22.91875,61.322917],[22.91875,61.327083],[22.914583,61.327083],[22.914583,61.322917]]]},"properties":{"radiance":22.07}},{"type":"Feature","geometry":{"type":"Polygon","coordinates":[[[22.91875,61.322917],[22.922917,61.322917],[22.922917,61.327083],[22.91875,61.327083],[22.91875,61.322917]]]},"properties":{"radiance":16.84}},{"type":"Feature","geometry":{"type":"Polygon","coordinates":[[[22.922917,61.322917],[22.927083,61.322917],[22.927083,61.327083],[22.922917,61.327083],[22.922917,61.322917]]]},"properties":{"radiance":13.31}},{"type":"Feature","geometry":{"type":"Polygon","coordinates":[[[22.927083,61.322917],[22.93125,61.322917],[22.93125,61.327083],[22.927083,61.327083],[22.927083,61.322917]]]},"properties":{"radiance":9.07}},{"type":"Feature","geometry":{"type":"Polygon","coordinates":[[[22.93125,61.322917],[22.935417,61.322917],[22.935417,61.327083],[22.93125,61.327083],[22.93125,61.322917]]]},"properties":{"radiance":8.71}},{"type":"Feature","geometry":{"type":"Polygon","coordinates":[[[22.935417,61.322917],[22.939583,61.322917],[22.939583,61.327083],[22.935417,61.327083],[22.935417,61.322917]]]},"properties":{"radiance":7.32}},{"type":"Feature","geometry":{"type":"Polygon","coordinates":[[[22.939583,61.322917],[22.94375,61.322917],[22.94375,61.327083],[22.939583,61.327083],[22.939583,61.322917]]]},"properties":{"radiance":6}},{"type":"Feature","geometry":{"type":"Polygon","coordinates":[[[22.94375,61.322917],[22.947917,61.322917],[22.947917,61.327083],[22.94375,61.327083],[22.94375,61.322917]]]},"properties":{"radiance":5.43}},{"type":"Feature","geometry":{"type":"Polygon","coordinates":[[[22.772917,61.31875],[22.777083,61.31875],[22.777083,61.322917],[22.772917,61.322917],[22.772917,61.31875]]]},"properties":{"radiance":5.61}},{"type":"Feature","geometry":{"type":"Polygon","coordinates":[[[22.777083,61.31875],[22.78125,61.31875],[22.78125,61.322917],[22.777083,61.322917],[22.777083,61.31875]]]},"properties":{"radiance":6.15}},{"type":"Feature","geometry":{"type":"Polygon","coordinates":[[[22.90625,61.31875],[22.910417,61.31875],[22.910417,61.322917],[22.90625,61.322917],[22.90625,61.31875]]]},"properties":{"radiance":8.98}},{"type":"Feature","geometry":{"type":"Polygon","coordinates":[[[22.910417,61.31875],[22.914583,61.31875],[22.914583,61.322917],[22.910417,61.322917],[22.910417,61.31875]]]},"properties":{"radiance":13.92}},{"type":"Feature","geometry":{"type":"Polygon","coordinates":[[[22.914583,61.31875],[22.91875,61.31875],[22.91875,61.322917],[22.914583,61.322917],[22.914583,61.31875]]]},"properties":{"radiance":13.73}},{"type":"Feature","geometry":{"type":"Polygon","coordinates":[[[22.91875,61.31875],[22.922917,61.31875],[22.922917,61.322917],[22.91875,61.322917],[22.91875,61.31875]]]},"properties":{"radiance":17.84}},{"type":"Feature","geometry":{"type":"Polygon","coordinates":[[[22.922917,61.31875],[22.927083,61.31875],[22.927083,61.322917],[22.922917,61.322917],[22.922917,61.31875]]]},"properties":{"radiance":14.08}},{"type":"Feature","geometry":{"type":"Polygon","coordinates":[[[22.927083,61.31875],[22.93125,61.31875],[22.93125,61.322917],[22.927083,61.322917],[22.927083,61.31875]]]},"properties":{"radiance":11.3}},{"type":"Feature","geometry":{"type":"Polygon","coordinates":[[[22.93125,61.31875],[22.935417,61.31875],[22.935417,61.322917],[22.93125,61.322917],[22.93125,61.31875]]]},"properties":{"radiance":7.87}},{"type":"Feature","geometry":{"type":"Polygon","coordinates":[[[22.935417,61.31875],[22.939583,61.31875],[22.939583,61.322917],[22.935417,61.322917],[22.935417,61.31875]]]},"properties":{"radiance":5.28}},{"type":"Feature","geometry":{"type":"Polygon","coordinates":[[[22.914583,61.314583],[22.91875,61.314583],[22.91875,61.31875],[22.914583,61.31875],[22.914583,61.314583]]]},"properties":{"radiance":10.78}},{"type":"Feature","geometry":{"type":"Polygon","coordinates":[[[22.91875,61.314583],[22.922917,61.314583],[22.922917,61.31875],[22.91875,61.31875],[22.91875,61.314583]]]},"properties":{"radiance":9.72}},{"type":"Feature","geometry":{"type":"Polygon","coordinates":[[[22.922917,61.314583],[22.927083,61.314583],[22.927083,61.31875],[22.922917,61.31875],[22.922917,61.314583]]]},"properties":{"radiance":12.5}},{"type":"Feature","geometry":{"type":"Polygon","coordinates":[[[22.927083,61.314583],[22.93125,61.314583],[22.93125,61.31875],[22.927083,61.31875],[22.927083,61.314583]]]},"properties":{"radiance":11.58}},{"type":"Feature","geometry":{"type":"Polygon","coordinates":[[[22.93125,61.314583],[22.935417,61.314583],[22.935417,61.31875],[22.93125,61.31875],[22.93125,61.314583]]]},"properties":{"radiance":5.15}},{"type":"Feature","geometry":{"type":"Polygon","coordinates":[[[22.922917,61.310417],[22.927083,61.310417],[22.927083,61.314583],[22.922917,61.314583],[22.922917,61.310417]]]},"properties":{"radiance":6.21}},{"type":"Feature","geometry":{"type":"Polygon","coordinates":[[[22.927083,61.310417],[22.93125,61.310417],[22.93125,61.314583],[22.927083,61.314583],[22.927083,61.310417]]]},"properties":{"radiance":5.36}},{"type":"Feature","geometry":{"type":"Polygon","coordinates":[[[22.922917,61.30625],[22.927083,61.30625],[22.927083,61.310417],[22.922917,61.310417],[22.922917,61.30625]]]},"properties":{"radiance":5.7}},{"type":"Feature","geometry":{"type":"Polygon","coordinates":[[[22.69375,61.289583],[22.697917,61.289583],[22.697917,61.29375],[22.69375,61.29375],[22.69375,61.289583]]]},"properties":{"radiance":5.36}},{"type":"Feature","geometry":{"type":"Polygon","coordinates":[[[22.689583,61.285417],[22.69375,61.285417],[22.69375,61.289583],[22.689583,61.289583],[22.689583,61.285417]]]},"properties":{"radiance":6.35}},{"type":"Feature","geometry":{"type":"Polygon","coordinates":[[[22.69375,61.285417],[22.697917,61.285417],[22.697917,61.289583],[22.69375,61.289583],[22.69375,61.285417]]]},"properties":{"radiance":9.96}},{"type":"Feature","geometry":{"type":"Polygon","coordinates":[[[22.697917,61.285417],[22.702083,61.285417],[22.702083,61.289583],[22.697917,61.289583],[22.697917,61.285417]]]},"properties":{"radiance":10.04}},{"type":"Feature","geometry":{"type":"Polygon","coordinates":[[[22.702083,61.285417],[22.70625,61.285417],[22.70625,61.289583],[22.702083,61.289583],[22.702083,61.285417]]]},"properties":{"radiance":19.41}},{"type":"Feature","geometry":{"type":"Polygon","coordinates":[[[22.70625,61.285417],[22.710417,61.285417],[22.710417,61.289583],[22.70625,61.289583],[22.70625,61.285417]]]},"properties":{"radiance":17.13}},{"type":"Feature","geometry":{"type":"Polygon","coordinates":[[[22.710417,61.285417],[22.714583,61.285417],[22.714583,61.289583],[22.710417,61.289583],[22.710417,61.285417]]]},"properties":{"radiance":9.86}},{"type":"Feature","geometry":{"type":"Polygon","coordinates":[[[22.689583,61.28125],[22.69375,61.28125],[22.69375,61.285417],[22.689583,61.285417],[22.689583,61.28125]]]},"properties":{"radiance":8.84}},{"type":"Feature","geometry":{"type":"Polygon","coordinates":[[[22.69375,61.28125],[22.697917,61.28125],[22.697917,61.285417],[22.69375,61.285417],[22.69375,61.28125]]]},"properties":{"radiance":6.48}},{"type":"Feature","geometry":{"type":"Polygon","coordinates":[[[22.697917,61.28125],[22.702083,61.28125],[22.702083,61.285417],[22.697917,61.285417],[22.697917,61.28125]]]},"properties":{"radiance":12.34}},{"type":"Feature","geometry":{"type":"Polygon","coordinates":[[[22.702083,61.28125],[22.70625,61.28125],[22.70625,61.285417],[22.702083,61.285417],[22.702083,61.28125]]]},"properties":{"radiance":17.02}},{"type":"Feature","geometry":{"type":"Polygon","coordinates":[[[22.70625,61.28125],[22.710417,61.28125],[22.710417,61.285417],[22.70625,61.285417],[22.70625,61.28125]]]},"properties":{"radiance":11.58}},{"type":"Feature","geometry":{"type":"Polygon","coordinates":[[[22.710417,61.28125],[22.714583,61.28125],[22.714583,61.285417],[22.710417,61.285417],[22.710417,61.28125]]]},"properties":{"radiance":11.54}},{"type":"Feature","geometry":{"type":"Polygon","coordinates":[[[22.689583,61.277083],[22.69375,61.277083],[22.69375,61.28125],[22.689583,61.28125],[22.689583,61.277083]]]},"properties":{"radiance":5.15}},{"type":"Feature","geometry":{"type":"Polygon","coordinates":[[[22.685417,61.197917],[22.689583,61.197917],[22.689583,61.202083],[22.685417,61.202083],[22.685417,61.197917]]]},"properties":{"radiance":5.53}},{"type":"Feature","geometry":{"type":"Polygon","coordinates":[[[22.689583,61.197917],[22.69375,61.197917],[22.69375,61.202083],[22.689583,61.202083],[22.689583,61.197917]]]},"properties":{"radiance":8.94}},{"type":"Feature","geometry":{"type":"Polygon","coordinates":[[[22.69375,61.197917],[22.697917,61.197917],[22.697917,61.202083],[22.69375,61.202083],[22.69375,61.197917]]]},"properties":{"radiance":8.22}},{"type":"Feature","geometry":{"type":"Polygon","coordinates":[[[22.697917,61.197917],[22.702083,61.197917],[22.702083,61.202083],[22.697917,61.202083],[22.697917,61.197917]]]},"properties":{"radiance":5.59}},{"type":"Feature","geometry":{"type":"Polygon","coordinates":[[[22.672917,61.19375],[22.677083,61.19375],[22.677083,61.197917],[22.672917,61.197917],[22.672917,61.19375]]]},"properties":{"radiance":5.08}},{"type":"Feature","geometry":{"type":"Polygon","coordinates":[[[22.677083,61.19375],[22.68125,61.19375],[22.68125,61.197917],[22.677083,61.197917],[22.677083,61.19375]]]},"properties":{"radiance":5.24}},{"type":"Feature","geometry":{"type":"Polygon","coordinates":[[[22.68125,61.19375],[22.685417,61.19375],[22.685417,61.197917],[22.68125,61.197917],[22.68125,61.19375]]]},"properties":{"radiance":7.73}},{"type":"Feature","geometry":{"type":"Polygon","coordinates":[[[22.685417,61.19375],[22.689583,61.19375],[22.689583,61.197917],[22.685417,61.197917],[22.685417,61.19375]]]},"properties":{"radiance":11.45}},{"type":"Feature","geometry":{"type":"Polygon","coordinates":[[[22.689583,61.19375],[22.69375,61.19375],[22.69375,61.197917],[22.689583,61.197917],[22.689583,61.19375]]]},"properties":{"radiance":9.29}},{"type":"Feature","geometry":{"type":"Polygon","coordinates":[[[22.69375,61.19375],[22.697917,61.19375],[22.697917,61.197917],[22.69375,61.197917],[22.69375,61.19375]]]},"properties":{"radiance":9.01}},{"type":"Feature","geometry":{"type":"Polygon","coordinates":[[[22.677083,61.189583],[22.68125,61.189583],[22.68125,61.19375],[22.677083,61.19375],[22.677083,61.189583]]]},"properties":{"radiance":11.32}},{"type":"Feature","geometry":{"type":"Polygon","coordinates":[[[22.68125,61.189583],[22.685417,61.189583],[22.685417,61.19375],[22.68125,61.19375],[22.68125,61.189583]]]},"properties":{"radiance":13.57}},{"type":"Feature","geometry":{"type":"Polygon","coordinates":[[[22.685417,61.189583],[22.689583,61.189583],[22.689583,61.19375],[22.685417,61.19375],[22.685417,61.189583]]]},"properties":{"radiance":14.39}},{"type":"Feature","geometry":{"type":"Polygon","coordinates":[[[22.689583,61.189583],[22.69375,61.189583],[22.69375,61.19375],[22.689583,61.19375],[22.689583,61.189583]]]},"properties":{"radiance":12.63}},{"type":"Feature","geometry":{"type":"Polygon","coordinates":[[[22.69375,61.189583],[22.697917,61.189583],[22.697917,61.19375],[22.69375,61.19375],[22.69375,61.189583]]]},"properties":{"radiance":11.73}},{"type":"Feature","geometry":{"type":"Polygon","coordinates":[[[22.697917,61.189583],[22.702083,61.189583],[22.702083,61.19375],[22.697917,61.19375],[22.697917,61.189583]]]},"properties":{"radiance":5.96}},{"type":"Feature","geometry":{"type":"Polygon","coordinates":[[[22.702083,61.189583],[22.70625,61.189583],[22.70625,61.19375],[22.702083,61.19375],[22.702083,61.189583]]]},"properties":{"radiance":5.51}},{"type":"Feature","geometry":{"type":"Polygon","coordinates":[[[22.68125,61.185417],[22.685417,61.185417],[22.685417,61.189583],[22.68125,61.189583],[22.68125,61.185417]]]},"properties":{"radiance":7.39}},{"type":"Feature","geometry":{"type":"Polygon","coordinates":[[[22.685417,61.185417],[22.689583,61.185417],[22.689583,61.189583],[22.685417,61.189583],[22.685417,61.185417]]]},"properties":{"radiance":9.76}},{"type":"Feature","geometry":{"type":"Polygon","coordinates":[[[22.689583,61.185417],[22.69375,61.185417],[22.69375,61.189583],[22.689583,61.189583],[22.689583,61.185417]]]},"properties":{"radiance":12.05}},{"type":"Feature","geometry":{"type":"Polygon","coordinates":[[[22.69375,61.185417],[22.697917,61.185417],[22.697917,61.189583],[22.69375,61.189583],[22.69375,61.185417]]]},"properties":{"radiance":12.31}},{"type":"Feature","geometry":{"type":"Polygon","coordinates":[[[22.697917,61.185417],[22.702083,61.185417],[22.702083,61.189583],[22.697917,61.189583],[22.697917,61.185417]]]},"properties":{"radiance":9.3}},{"type":"Feature","geometry":{"type":"Polygon","coordinates":[[[22.702083,61.185417],[22.70625,61.185417],[22.70625,61.189583],[22.702083,61.189583],[22.702083,61.185417]]]},"properties":{"radiance":5.78}},{"type":"Feature","geometry":{"type":"Polygon","coordinates":[[[22.677083,61.18125],[22.68125,61.18125],[22.68125,61.185417],[22.677083,61.185417],[22.677083,61.18125]]]},"properties":{"radiance":5.87}},{"type":"Feature","geometry":{"type":"Polygon","coordinates":[[[22.68125,61.18125],[22.685417,61.18125],[22.685417,61.185417],[22.68125,61.185417],[22.68125,61.18125]]]},"properties":{"radiance":7.45}},{"type":"Feature","geometry":{"type":"Polygon","coordinates":[[[22.685417,61.18125],[22.689583,61.18125],[22.689583,61.185417],[22.685417,61.185417],[22.685417,61.18125]]]},"properties":{"radiance":15.89}},{"type":"Feature","geometry":{"type":"Polygon","coordinates":[[[22.689583,61.18125],[22.69375,61.18125],[22.69375,61.185417],[22.689583,61.185417],[22.689583,61.18125]]]},"properties":{"radiance":16.98}},{"type":"Feature","geometry":{"type":"Polygon","coordinates":[[[22.69375,61.18125],[22.697917,61.18125],[22.697917,61.185417],[22.69375,61.185417],[22.69375,61.18125]]]},"properties":{"radiance":20.92}},{"type":"Feature","geometry":{"type":"Polygon","coordinates":[[[22.697917,61.18125],[22.702083,61.18125],[22.702083,61.185417],[22.697917,61.185417],[22.697917,61.18125]]]},"properties":{"radiance":20.59}},{"type":"Feature","geometry":{"type":"Polygon","coordinates":[[[22.702083,61.18125],[22.70625,61.18125],[22.70625,61.185417],[22.702083,61.185417],[22.702083,61.18125]]]},"properties":{"radiance":18.55}},{"type":"Feature","geometry":{"type":"Polygon","coordinates":[[[22.70625,61.18125],[22.710417,61.18125],[22.710417,61.185417],[22.70625,61.185417],[22.70625,61.18125]]]},"properties":{"radiance":13.55}},{"type":"Feature","geometry":{"type":"Polygon","coordinates":[[[22.710417,61.18125],[22.714583,61.18125],[22.714583,61.185417],[22.710417,61.185417],[22.710417,61.18125]]]},"properties":{"radiance":11.43}},{"type":"Feature","geometry":{"type":"Polygon","coordinates":[[[22.714583,61.18125],[22.71875,61.18125],[22.71875,61.185417],[22.714583,61.185417],[22.714583,61.18125]]]},"properties":{"radiance":7.9}},{"type":"Feature","geometry":{"type":"Polygon","coordinates":[[[22.622917,61.177083],[22.627083,61.177083],[22.627083,61.18125],[22.622917,61.18125],[22.622917,61.177083]]]},"properties":{"radiance":5.01}},{"type":"Feature","geometry":{"type":"Polygon","coordinates":[[[22.672917,61.177083],[22.677083,61.177083],[22.677083,61.18125],[22.672917,61.18125],[22.672917,61.177083]]]},"properties":{"radiance":6.17}},{"type":"Feature","geometry":{"type":"Polygon","coordinates":[[[22.677083,61.177083],[22.68125,61.177083],[22.68125,61.18125],[22.677083,61.18125],[22.677083,61.177083]]]},"properties":{"radiance":8.42}},{"type":"Feature","geometry":{"type":"Polygon","coordinates":[[[22.68125,61.177083],[22.685417,61.177083],[22.685417,61.18125],[22.68125,61.18125],[22.68125,61.177083]]]},"properties":{"radiance":13.12}},{"type":"Feature","geometry":{"type":"Polygon","coordinates":[[[22.685417,61.177083],[22.689583,61.177083],[22.689583,61.18125],[22.685417,61.18125],[22.685417,61.177083]]]},"properties":{"radiance":16.67}},{"type":"Feature","geometry":{"type":"Polygon","coordinates":[[[22.689583,61.177083],[22.69375,61.177083],[22.69375,61.18125],[22.689583,61.18125],[22.689583,61.177083]]]},"properties":{"radiance":22.87}},{"type":"Feature","geometry":{"type":"Polygon","coordinates":[[[22.69375,61.177083],[22.697917,61.177083],[22.697917,61.18125],[22.69375,61.18125],[22.69375,61.177083]]]},"properties":{"radiance":23.07}},{"type":"Feature","geometry":{"type":"Polygon","coordinates":[[[22.697917,61.177083],[22.702083,61.177083],[22.702083,61.18125],[22.697917,61.18125],[22.697917,61.177083]]]},"properties":{"radiance":20.76}},{"type":"Feature","geometry":{"type":"Polygon","coordinates":[[[22.702083,61.177083],[22.70625,61.177083],[22.70625,61.18125],[22.702083,61.18125],[22.702083,61.177083]]]},"properties":{"radiance":19.76}},{"type":"Feature","geometry":{"type":"Polygon","coordinates":[[[22.70625,61.177083],[22.710417,61.177083],[22.710417,61.18125],[22.70625,61.18125],[22.70625,61.177083]]]},"properties":{"radiance":14.94}},{"type":"Feature","geometry":{"type":"Polygon","coordinates":[[[22.710417,61.177083],[22.714583,61.177083],[22.714583,61.18125],[22.710417,61.18125],[22.710417,61.177083]]]},"properties":{"radiance":12.46}},{"type":"Feature","geometry":{"type":"Polygon","coordinates":[[[22.714583,61.177083],[22.71875,61.177083],[22.71875,61.18125],[22.714583,61.18125],[22.714583,61.177083]]]},"properties":{"radiance":10.62}},{"type":"Feature","geometry":{"type":"Polygon","coordinates":[[[22.639583,61.172917],[22.64375,61.172917],[22.64375,61.177083],[22.639583,61.177083],[22.639583,61.172917]]]},"properties":{"radiance":5.01}},{"type":"Feature","geometry":{"type":"Polygon","coordinates":[[[22.64375,61.172917],[22.647917,61.172917],[22.647917,61.177083],[22.64375,61.177083],[22.64375,61.172917]]]},"properties":{"radiance":6.89}},{"type":"Feature","geometry":{"type":"Polygon","coordinates":[[[22.647917,61.172917],[22.652083,61.172917],[22.652083,61.177083],[22.647917,61.177083],[22.647917,61.172917]]]},"properties":{"radiance":6.55}},{"type":"Feature","geometry":{"type":"Polygon","coordinates":[[[22.652083,61.172917],[22.65625,61.172917],[22.65625,61.177083],[22.652083,61.177083],[22.652083,61.172917]]]},"properties":{"radiance":6.72}},{"type":"Feature","geometry":{"type":"Polygon","coordinates":[[[22.65625,61.172917],[22.660417,61.172917],[22.660417,61.177083],[22.65625,61.177083],[22.65625,61.172917]]]},"properties":{"radiance":6.34}},{"type":"Feature","geometry":{"type":"Polygon","coordinates":[[[22.660417,61.172917],[22.664583,61.172917],[22.664583,61.177083],[22.660417,61.177083],[22.660417,61.172917]]]},"properties":{"radiance":6.26}},{"type":"Feature","geometry":{"type":"Polygon","coordinates":[[[22.664583,61.172917],[22.66875,61.172917],[22.66875,61.177083],[22.664583,61.177083],[22.664583,61.172917]]]},"properties":{"radiance":8.68}},{"type":"Feature","geometry":{"type":"Polygon","coordinates":[[[22.66875,61.172917],[22.672917,61.172917],[22.672917,61.177083],[22.66875,61.177083],[22.66875,61.172917]]]},"properties":{"radiance":7.18}},{"type":"Feature","geometry":{"type":"Polygon","coordinates":[[[22.672917,61.172917],[22.677083,61.172917],[22.677083,61.177083],[22.672917,61.177083],[22.672917,61.172917]]]},"properties":{"radiance":12.32}},{"type":"Feature","geometry":{"type":"Polygon","coordinates":[[[22.677083,61.172917],[22.68125,61.172917],[22.68125,61.177083],[22.677083,61.177083],[22.677083,61.172917]]]},"properties":{"radiance":15.18}},{"type":"Feature","geometry":{"type":"Polygon","coordinates":[[[22.68125,61.172917],[22.685417,61.172917],[22.685417,61.177083],[22.68125,61.177083],[22.68125,61.172917]]]},"properties":{"radiance":14.37}},{"type":"Feature","geometry":{"type":"Polygon","coordinates":[[[22.685417,61.172917],[22.689583,61.172917],[22.689583,61.177083],[22.685417,61.177083],[22.685417,61.172917]]]},"properties":{"radiance":15.96}},{"type":"Feature","geometry":{"type":"Polygon","coordinates":[[[22.689583,61.172917],[22.69375,61.172917],[22.69375,61.177083],[22.689583,61.177083],[22.689583,61.172917]]]},"properties":{"radiance":17.34}},{"type":"Feature","geometry":{"type":"Polygon","coordinates":[[[22.69375,61.172917],[22.697917,61.172917],[22.697917,61.177083],[22.69375,61.177083],[22.69375,61.172917]]]},"properties":{"radiance":18.78}},{"type":"Feature","geometry":{"type":"Polygon","coordinates":[[[22.697917,61.172917],[22.702083,61.172917],[22.702083,61.177083],[22.697917,61.177083],[22.697917,61.172917]]]},"properties":{"radiance":17.21}},{"type":"Feature","geometry":{"type":"Polygon","coordinates":[[[22.702083,61.172917],[22.70625,61.172917],[22.70625,61.177083],[22.702083,61.177083],[22.702083,61.172917]]]},"properties":{"radiance":12.9}},{"type":"Feature","geometry":{"type":"Polygon","coordinates":[[[22.70625,61.172917],[22.710417,61.172917],[22.710417,61.177083],[22.70625,61.177083],[22.70625,61.172917]]]},"properties":{"radiance":11.05}},{"type":"Feature","geometry":{"type":"Polygon","coordinates":[[[22.710417,61.172917],[22.714583,61.172917],[22.714583,61.177083],[22.710417,61.177083],[22.710417,61.172917]]]},"properties":{"radiance":8.9}},{"type":"Feature","geometry":{"type":"Polygon","coordinates":[[[22.714583,61.172917],[22.71875,61.172917],[22.71875,61.177083],[22.714583,61.177083],[22.714583,61.172917]]]},"properties":{"radiance":6.09}},{"type":"Feature","geometry":{"type":"Polygon","coordinates":[[[22.660417,61.16875],[22.664583,61.16875],[22.664583,61.172917],[22.660417,61.172917],[22.660417,61.16875]]]},"properties":{"radiance":6.98}},{"type":"Feature","geometry":{"type":"Polygon","coordinates":[[[22.664583,61.16875],[22.66875,61.16875],[22.66875,61.172917],[22.664583,61.172917],[22.664583,61.16875]]]},"properties":{"radiance":9.57}},{"type":"Feature","geometry":{"type":"Polygon","coordinates":[[[22.66875,61.16875],[22.672917,61.16875],[22.672917,61.172917],[22.66875,61.172917],[22.66875,61.16875]]]},"properties":{"radiance":9.84}},{"type":"Feature","geometry":{"type":"Polygon","coordinates":[[[22.672917,61.16875],[22.677083,61.16875],[22.677083,61.172917],[22.672917,61.172917],[22.672917,61.16875]]]},"properties":{"radiance":17.3}},{"type":"Feature","geometry":{"type":"Polygon","coordinates":[[[22.677083,61.16875],[22.68125,61.16875],[22.68125,61.172917],[22.677083,61.172917],[22.677083,61.16875]]]},"properties":{"radiance":16.72}},{"type":"Feature","geometry":{"type":"Polygon","coordinates":[[[22.68125,61.16875],[22.685417,61.16875],[22.685417,61.172917],[22.68125,61.172917],[22.68125,61.16875]]]},"properties":{"radiance":16.59}},{"type":"Feature","geometry":{"type":"Polygon","coordinates":[[[22.685417,61.16875],[22.689583,61.16875],[22.689583,61.172917],[22.685417,61.172917],[22.685417,61.16875]]]},"properties":{"radiance":11.72}},{"type":"Feature","geometry":{"type":"Polygon","coordinates":[[[22.689583,61.16875],[22.69375,61.16875],[22.69375,61.172917],[22.689583,61.172917],[22.689583,61.16875]]]},"properties":{"radiance":8.13}},{"type":"Feature","geometry":{"type":"Polygon","coordinates":[[[22.69375,61.16875],[22.697917,61.16875],[22.697917,61.172917],[22.69375,61.172917],[22.69375,61.16875]]]},"properties":{"radiance":8.32}},{"type":"Feature","geometry":{"type":"Polygon","coordinates":[[[22.697917,61.16875],[22.702083,61.16875],[22.702083,61.172917],[22.697917,61.172917],[22.697917,61.16875]]]},"properties":{"radiance":9.39}},{"type":"Feature","geometry":{"type":"Polygon","coordinates":[[[22.702083,61.16875],[22.70625,61.16875],[22.70625,61.172917],[22.702083,61.172917],[22.702083,61.16875]]]},"properties":{"radiance":9.88}},{"type":"Feature","geometry":{"type":"Polygon","coordinates":[[[22.70625,61.16875],[22.710417,61.16875],[22.710417,61.172917],[22.70625,61.172917],[22.70625,61.16875]]]},"properties":{"radiance":9.9}},{"type":"Feature","geometry":{"type":"Polygon","coordinates":[[[22.710417,61.16875],[22.714583,61.16875],[22.714583,61.172917],[22.710417,61.172917],[22.710417,61.16875]]]},"properties":{"radiance":9.61}},{"type":"Feature","geometry":{"type":"Polygon","coordinates":[[[22.66875,61.164583],[22.672917,61.164583],[22.672917,61.16875],[22.66875,61.16875],[22.66875,61.164583]]]},"properties":{"radiance":5.83}},{"type":"Feature","geometry":{"type":"Polygon","coordinates":[[[22.68125,61.164583],[22.685417,61.164583],[22.685417,61.16875],[22.68125,61.16875],[22.68125,61.164583]]]},"properties":{"radiance":5.72}},{"type":"Feature","geometry":{"type":"Polygon","coordinates":[[[22.685417,61.164583],[22.689583,61.164583],[22.689583,61.16875],[22.685417,61.16875],[22.685417,61.164583]]]},"properties":{"radiance":5.62}},{"type":"Feature","geometry":{"type":"Polygon","coordinates":[[[22.702083,61.164583],[22.70625,61.164583],[22.70625,61.16875],[22.702083,61.16875],[22.702083,61.164583]]]},"properties":{"radiance":6.84}},{"type":"Feature","geometry":{"type":"Polygon","coordinates":[[[22.70625,61.164583],[22.710417,61.164583],[22.710417,61.16875],[22.70625,61.16875],[22.70625,61.164583]]]},"properties":{"radiance":6.92}},{"type":"Feature","geometry":{"type":"Polygon","coordinates":[[[22.710417,61.164583],[22.714583,61.164583],[22.714583,61.16875],[22.710417,61.16875],[22.710417,61.164583]]]},"properties":{"radiance":6.57}},{"type":"Feature","geometry":{"type":"Polygon","coordinates":[[[22.714583,61.164583],[22.71875,61.164583],[22.71875,61.16875],[22.714583,61.16875],[22.714583,61.164583]]]},"properties":{"radiance":5.52}},{"type":"Feature","geometry":{"type":"Polygon","coordinates":[[[22.714583,61.160417],[22.71875,61.160417],[22.71875,61.164583],[22.714583,61.164583],[22.714583,61.160417]]]},"properties":{"radiance":5.38}},{"type":"Feature","geometry":{"type":"Polygon","coordinates":[[[22.71875,61.160417],[22.722917,61.160417],[22.722917,61.164583],[22.71875,61.164583],[22.71875,61.160417]]]},"properties":{"radiance":5.17}}]}