{"type":"FeatureCollection","features":[{"type":"Feature","geometry":{"type":"Polygon","coordinates":[[[28.80625,63.68125],[28.810417,63.68125],[28.810417,63.685417],[28.80625,63.685417],[28.80625,63.68125]]]},"properties":{"radiance":7.63}},{"type":"Feature","geometry":{"type":"Polygon","coordinates":[[[28.810417,63.68125],[28.814583,63.68125],[28.814583,63.685417],[28.810417,63.685417],[28.810417,63.68125]]]},"properties":{"radiance":6.78}},{"type":"Feature","geometry":{"type":"Polygon","coordinates":[[[28.814583,63.68125],[28.81875,63.68125],[28.81875,63.685417],[28.814583,63.685417],[28.814583,63.68125]]]},"properties":{"radiance":6.78}},{"type":"Feature","geometry":{"type":"Polygon","coordinates":[[[28.81875,63.68125],[28.822917,63.68125],[28.822917,63.685417],[28.81875,63.685417],[28.81875,63.68125]]]},"properties":{"radiance":8.13}},{"type":"Feature","geometry":{"type":"Polygon","coordinates":[[[28.822917,63.68125],[28.827083,63.68125],[28.827083,63.685417],[28.822917,63.685417],[28.822917,63.68125]]]},"properties":{"radiance":6.7}},{"type":"Feature","geometry":{"type":"Polygon","coordinates":[[[28.802083,63.677083],[28.80625,63.677083],[28.80625,63.68125],[28.802083,63.68125],[28.802083,63.677083]]]},"properties":{"radiance":7.04}},{"type":"Feature","geometry":{"type":"Polygon","coordinates":[[[28.80625,63.677083],[28.810417,63.677083],[28.810417,63.68125],[28.80625,63.68125],[28.80625,63.677083]]]},"properties":{"radiance":7.37}},{"type":"Feature","geometry":{"type":"Polygon","coordinates":[[[28.810417,63.677083],[28.814583,63.677083],[28.814583,63.68125],[28.810417,63.68125],[28.810417,63.677083]]]},"properties":{"radiance":9.76}},{"type":"Feature","geometry":{"type":"Polygon","coordinates":[[[28.814583,63.677083],[28.81875,63.677083],[28.81875,63.68125],[28.814583,63.68125],[28.814583,63.677083]]]},"properties":{"radiance":7.32}},{"type":"Feature","geometry":{"type":"Polygon","coordinates":[[[28.81875,63.677083],[28.822917,63.677083],[28.822917,63.68125],[28.81875,63.68125],[28.81875,63.677083]]]},"properties":{"radiance":8.55}},{"type":"Feature","geometry":{"type":"Polygon","coordinates":[[[28.822917,63.677083],[28.827083,63.677083],[28.827083,63.68125],[28.822917,63.68125],[28.822917,63.677083]]]},"properties":{"radiance":7.01}},{"type":"Feature","geometry":{"type":"Polygon","coordinates":[[[28.83125,63.677083],[28.835417,63.677083],[28.835417,63.68125],[28.83125,63.68125],[28.83125,63.677083]]]},"properties":{"radiance":5.98}},{"type":"Feature","geometry":{"type":"Polygon","coordinates":[[[28.81875,63.672917],[28.822917,63.672917],[28.822917,63.677083],[28.81875,63.677083],[28.81875,63.672917]]]},"properties":{"radiance":7.74}},{"type":"Feature","geometry":{"type":"Polygon","coordinates":[[[28.822917,63.672917],[28.827083,63.672917],[28.827083,63.677083],[28.822917,63.677083],[28.822917,63.672917]]]},"properties":{"radiance":6.57}},{"type":"Feature","geometry":{"type":"Polygon","coordinates":[[[29.04375,63.572917],[29.047917,63.572917],[29.047917,63.577083],[29.04375,63.577083],[29.04375,63.572917]]]},"properties":{"radiance":5.49}},{"type":"Feature","geometry":{"type":"Polygon","coordinates":[[[29.047917,63.572917],[29.052083,63.572917],[29.052083,63.577083],[29.047917,63.577083],[29.047917,63.572917]]]},"properties":{"radiance":5.69}},{"type":"Feature","geometry":{"type":"Polygon","coordinates":[[[29.052083,63.572917],[29.05625,63.572917],[29.05625,63.577083],[29.052083,63.577083],[29.052083,63.572917]]]},"properties":{"radiance":6.57}},{"type":"Feature","geometry":{"type":"Polygon","coordinates":[[[29.05625,63.572917],[29.060417,63.572917],[29.060417,63.577083],[29.05625,63.577083],[29.05625,63.572917]]]},"properties":{"radiance":9.79}},{"type":"Feature","geometry":{"type":"Polygon","coordinates":[[[29.060417,63.572917],[29.064583,63.572917],[29.064583,63.577083],[29.060417,63.577083],[29.060417,63.572917]]]},"properties":{"radiance":8.3}},{"type":"Feature","geometry":{"type":"Polygon","coordinates":[[[29.052083,63.56875],[29.05625,63.56875],[29.05625,63.572917],[29.052083,63.572917],[29.052083,63.56875]]]},"properties":{"radiance":6.82}},{"type":"Feature","geometry":{"type":"Polygon","coordinates":[[[29.05625,63.56875],[29.060417,63.56875],[29.060417,63.572917],[29.05625,63.572917],[29.05625,63.56875]]]},"properties":{"radiance":7.38}},{"type":"Feature","geometry":{"type":"Polygon","coordinates":[[[29.060417,63.56875],[29.064583,63.56875],[29.064583,63.572917],[29.060417,63.572917],[29.060417,63.56875]]]},"properties":{"radiance":5.58}},{"type":"Feature","geometry":{"type":"Polygon","coordinates":[[[29.097917,63.56875],[29.102083,63.56875],[29.102083,63.572917],[29.097917,63.572917],[29.097917,63.56875]]]},"properties":{"radiance":5.68}},{"type":"Feature","geometry":{"type":"Polygon","coordinates":[[[29.110417,63.56875],[29.114583,63.56875],[29.114583,63.572917],[29.110417,63.572917],[29.110417,63.56875]]]},"properties":{"radiance":5.44}},{"type":"Feature","geometry":{"type":"Polygon","coordinates":[[[29.047917,63.564583],[29.052083,63.564583],[29.052083,63.56875],[29.047917,63.56875],[29.047917,63.564583]]]},"properties":{"radiance":6.05}},{"type":"Feature","geometry":{"type":"Polygon","coordinates":[[[29.052083,63.564583],[29.05625,63.564583],[29.05625,63.56875],[29.052083,63.56875],[29.052083,63.564583]]]},"properties":{"radiance":7.08}},{"type":"Feature","geometry":{"type":"Polygon","coordinates":[[[29.05625,63.564583],[29.060417,63.564583],[29.060417,63.56875],[29.05625,63.56875],[29.05625,63.564583]]]},"properties":{"radiance":5.11}},{"type":"Feature","geometry":{"type":"Polygon","coordinates":[[[29.060417,63.564583],[29.064583,63.564583],[29.064583,63.56875],[29.060417,63.56875],[29.060417,63.564583]]]},"properties":{"radiance":8.82}},{"type":"Feature","geometry":{"type":"Polygon","coordinates":[[[29.077083,63.564583],[29.08125,63.564583],[29.08125,63.56875],[29.077083,63.56875],[29.077083,63.564583]]]},"properties":{"radiance":5.14}},{"type":"Feature","geometry":{"type":"Polygon","coordinates":[[[29.114583,63.564583],[29.11875,63.564583],[29.11875,63.56875],[29.114583,63.56875],[29.114583,63.564583]]]},"properties":{"radiance":5.79}},{"type":"Feature","geometry":{"type":"Polygon","coordinates":[[[29.010417,63.560417],[29.014583,63.560417],[29.014583,63.564583],[29.010417,63.564583],[29.010417,63.560417]]]},"properties":{"radiance":8}},{"type":"Feature","geometry":{"type":"Polygon","coordinates":[[[29.014583,63.560417],[29.01875,63.560417],[29.01875,63.564583],[29.014583,63.564583],[29.014583,63.560417]]]},"properties":{"radiance":10.51}},{"type":"Feature","geometry":{"type":"Polygon","coordinates":[[[29.01875,63.560417],[29.022917,63.560417],[29.022917,63.564583],[29.01875,63.564583],[29.01875,63.560417]]]},"properties":{"radiance":7.77}},{"type":"Feature","geometry":{"type":"Polygon","coordinates":[[[29.022917,63.560417],[29.027083,63.560417],[29.027083,63.564583],[29.022917,63.564583],[29.022917,63.560417]]]},"properties":{"radiance":5.08}},{"type":"Feature","geometry":{"type":"Polygon","coordinates":[[[29.04375,63.560417],[29.047917,63.560417],[29.047917,63.564583],[29.04375,63.564583],[29.04375,63.560417]]]},"properties":{"radiance":5.38}},{"type":"Feature","geometry":{"type":"Polygon","coordinates":[[[29.047917,63.560417],[29.052083,63.560417],[29.052083,63.564583],[29.047917,63.564583],[29.047917,63.560417]]]},"properties":{"radiance":6.36}},{"type":"Feature","geometry":{"type":"Polygon","coordinates":[[[29.052083,63.560417],[29.05625,63.560417],[29.05625,63.564583],[29.052083,63.564583],[29.052083,63.560417]]]},"properties":{"radiance":6.36}},{"type":"Feature","geometry":{"type":"Polygon","coordinates":[[[29.05625,63.560417],[29.060417,63.560417],[29.060417,63.564583],[29.05625,63.564583],[29.05625,63.560417]]]},"properties":{"radiance":6.45}},{"type":"Feature","geometry":{"type":"Polygon","coordinates":[[[29.060417,63.560417],[29.064583,63.560417],[29.064583,63.564583],[29.060417,63.564583],[29.060417,63.560417]]]},"properties":{"radiance":6.34}},{"type":"Feature","geometry":{"type":"Polygon","coordinates":[[[29.064583,63.560417],[29.06875,63.560417],[29.06875,63.564583],[29.064583,63.564583],[29.064583,63.560417]]]},"properties":{"radiance":6.6}},{"type":"Feature","geometry":{"type":"Polygon","coordinates":[[[29.06875,63.560417],[29.072917,63.560417],[29.072917,63.564583],[29.06875,63.564583],[29.06875,63.560417]]]},"properties":{"radiance":5.76}},{"type":"Feature","geometry":{"type":"Polygon","coordinates":[[[29.072917,63.560417],[29.077083,63.560417],[29.077083,63.564583],[29.072917,63.564583],[29.072917,63.560417]]]},"properties":{"radiance":5.28}},{"type":"Feature","geometry":{"type":"Polygon","coordinates":[[[29.077083,63.560417],[29.08125,63.560417],[29.08125,63.564583],[29.077083,63.564583],[29.077083,63.560417]]]},"properties":{"radiance":8.39}},{"type":"Feature","geometry":{"type":"Polygon","coordinates":[[[29.08125,63.560417],[29.085417,63.560417],[29.085417,63.564583],[29.08125,63.564583],[29.08125,63.560417]]]},"properties":{"radiance":9.21}},{"type":"Feature","geometry":{"type":"Polygon","coordinates":[[[29.085417,63.560417],[29.089583,63.560417],[29.089583,63.564583],[29.085417,63.564583],[29.085417,63.560417]]]},"properties":{"radiance":7.9}},{"type":"Feature","geometry":{"type":"Polygon","coordinates":[[[29.089583,63.560417],[29.09375,63.560417],[29.09375,63.564583],[29.089583,63.564583],[29.089583,63.560417]]]},"properties":{"radiance":12.33}},{"type":"Feature","geometry":{"type":"Polygon","coordinates":[[[29.09375,63.560417],[29.097917,63.560417],[29.097917,63.564583],[29.09375,63.564583],[29.09375,63.560417]]]},"properties":{"radiance":8.07}},{"type":"Feature","geometry":{"type":"Polygon","coordinates":[[[29.097917,63.560417],[29.102083,63.560417],[29.102083,63.564583],[29.097917,63.564583],[29.097917,63.560417]]]},"properties":{"radiance":11.15}},{"type":"Feature","geometry":{"type":"Polygon","coordinates":[[[29.102083,63.560417],[29.10625,63.560417],[29.10625,63.564583],[29.102083,63.564583],[29.102083,63.560417]]]},"properties":{"radiance":8.9}},{"type":"Feature","geometry":{"type":"Polygon","coordinates":[[[29.10625,63.560417],[29.110417,63.560417],[29.110417,63.564583],[29.10625,63.564583],[29.10625,63.560417]]]},"properties":{"radiance":24.77}},{"type":"Feature","geometry":{"type":"Polygon","coordinates":[[[29.110417,63.560417],[29.114583,63.560417],[29.114583,63.564583],[29.110417,63.564583],[29.110417,63.560417]]]},"properties":{"radiance":25.76}},{"type":"Feature","geometry":{"type":"Polygon","coordinates":[[[29.114583,63.560417],[29.11875,63.560417],[29.11875,63.564583],[29.114583,63.564583],[29.114583,63.560417]]]},"properties":{"radiance":11.02}},{"type":"Feature","geometry":{"type":"Polygon","coordinates":[[[29.014583,63.55625],[29.01875,63.55625],[29.01875,63.560417],[29.014583,63.560417],[29.014583,63.55625]]]},"properties":{"radiance":11.15}},{"type":"Feature","geometry":{"type":"Polygon","coordinates":[[[29.01875,63.55625],[29.022917,63.55625],[29.022917,63.560417],[29.01875,63.560417],[29.01875,63.55625]]]},"properties":{"radiance":11.58}},{"type":"Feature","geometry":{"type":"Polygon","coordinates":[[[29.060417,63.55625],[29.064583,63.55625],[29.064583,63.560417],[29.060417,63.560417],[29.060417,63.55625]]]},"properties":{"radiance":7.02}},{"type":"Feature","geometry":{"type":"Polygon","coordinates":[[[29.064583,63.55625],[29.06875,63.55625],[29.06875,63.560417],[29.064583,63.560417],[29.064583,63.55625]]]},"properties":{"radiance":6.1}},{"type":"Feature","geometry":{"type":"Polygon","coordinates":[[[29.06875,63.55625],[29.072917,63.55625],[29.072917,63.560417],[29.06875,63.560417],[29.06875,63.55625]]]},"properties":{"radiance":6.66}},{"type":"Feature","geometry":{"type":"Polygon","coordinates":[[[29.072917,63.55625],[29.077083,63.55625],[29.077083,63.560417],[29.072917,63.560417],[29.072917,63.55625]]]},"properties":{"radiance":7.49}},{"type":"Feature","geometry":{"type":"Polygon","coordinates":[[[29.077083,63.55625],[29.08125,63.55625],[29.08125,63.560417],[29.077083,63.560417],[29.077083,63.55625]]]},"properties":{"radiance":8.25}},{"type":"Feature","geometry":{"type":"Polygon","coordinates":[[[29.08125,63.55625],[29.085417,63.55625],[29.085417,63.560417],[29.08125,63.560417],[29.08125,63.55625]]]},"properties":{"radiance":20.16}},{"type":"Feature","geometry":{"type":"Polygon","coordinates":[[[29.085417,63.55625],[29.089583,63.55625],[29.089583,63.560417],[29.085417,63.560417],[29.085417,63.55625]]]},"properties":{"radiance":26.77}},{"type":"Feature","geometry":{"type":"Polygon","coordinates":[[[29.089583,63.55625],[29.09375,63.55625],[29.09375,63.560417],[29.089583,63.560417],[29.089583,63.55625]]]},"properties":{"radiance":36.01}},{"type":"Feature","geometry":{"type":"Polygon","coordinates":[[[29.09375,63.55625],[29.097917,63.55625],[29.097917,63.560417],[29.09375,63.560417],[29.09375,63.55625]]]},"properties":{"radiance":15.31}},{"type":"Feature","geometry":{"type":"Polygon","coordinates":[[[29.097917,63.55625],[29.102083,63.55625],[29.102083,63.560417],[29.097917,63.560417],[29.097917,63.55625]]]},"properties":{"radiance":16.13}},{"type":"Feature","geometry":{"type":"Polygon","coordinates":[[[29.102083,63.55625],[29.10625,63.55625],[29.10625,63.560417],[29.102083,63.560417],[29.102083,63.55625]]]},"properties":{"radiance":16.52}},{"type":"Feature","geometry":{"type":"Polygon","coordinates":[[[29.10625,63.55625],[29.110417,63.55625],[29.110417,63.560417],[29.10625,63.560417],[29.10625,63.55625]]]},"properties":{"radiance":32.89}},{"type":"Feature","geometry":{"type":"Polygon","coordinates":[[[29.110417,63.55625],[29.114583,63.55625],[29.114583,63.560417],[29.110417,63.560417],[29.110417,63.55625]]]},"properties":{"radiance":37.17}},{"type":"Feature","geometry":{"type":"Polygon","coordinates":[[[29.114583,63.55625],[29.11875,63.55625],[29.11875,63.560417],[29.114583,63.560417],[29.114583,63.55625]]]},"properties":{"radiance":33.35}},{"type":"Feature","geometry":{"type":"Polygon","coordinates":[[[29.077083,63.552083],[29.08125,63.552083],[29.08125,63.55625],[29.077083,63.55625],[29.077083,63.552083]]]},"properties":{"radiance":6.31}},{"type":"Feature","geometry":{"type":"Polygon","coordinates":[[[29.08125,63.552083],[29.085417,63.552083],[29.085417,63.55625],[29.08125,63.55625],[29.08125,63.552083]]]},"properties":{"radiance":6.37}},{"type":"Feature","geometry":{"type":"Polygon","coordinates":[[[29.085417,63.552083],[29.089583,63.552083],[29.089583,63.55625],[29.085417,63.55625],[29.085417,63.552083]]]},"properties":{"radiance":8.4}},{"type":"Feature","geometry":{"type":"Polygon","coordinates":[[[29.089583,63.552083],[29.09375,63.552083],[29.09375,63.55625],[29.089583,63.55625],[29.089583,63.552083]]]},"properties":{"radiance":27.96}},{"type":"Feature","geometry":{"type":"Polygon","coordinates":[[[29.09375,63.552083],[29.097917,63.552083],[29.097917,63.55625],[29.09375,63.55625],[29.09375,63.552083]]]},"properties":{"radiance":34.13}},{"type":"Feature","geometry":{"type":"Polygon","coordinates":[[[29.097917,63.552083],[29.102083,63.552083],[29.102083,63.55625],[29.097917,63.55625],[29.097917,63.552083]]]},"properties":{"radiance":16.11}},{"type":"Feature","geometry":{"type":"Polygon","coordinates":[[[29.102083,63.552083],[29.10625,63.552083],[29.10625,63.55625],[29.102083,63.55625],[29.102083,63.552083]]]},"properties":{"radiance":13.34}},{"type":"Feature","geometry":{"type":"Polygon","coordinates":[[[29.10625,63.552083],[29.110417,63.552083],[29.110417,63.55625],[29.10625,63.55625],[29.10625,63.552083]]]},"properties":{"radiance":13.1}},{"type":"Feature","geometry":{"type":"Polygon","coordinates":[[[29.110417,63.552083],[29.114583,63.552083],[29.114583,63.55625],[29.110417,63.55625],[29.110417,63.552083]]]},"properties":{"radiance":13.08}},{"type":"Feature","geometry":{"type":"Polygon","coordinates":[[[29.114583,63.552083],[29.11875,63.552083],[29.11875,63.55625],[29.114583,63.55625],[29.114583,63.552083]]]},"properties":{"radiance":15.29}},{"type":"Feature","geometry":{"type":"Polygon","coordinates":[[[29.102083,63.547917],[29.10625,63.547917],[29.10625,63.552083],[29.102083,63.552083],[29.102083,63.547917]]]},"properties":{"radiance":6.42}},{"type":"Feature","geometry":{"type":"Polygon","coordinates":[[[29.10625,63.547917],[29.110417,63.547917],[29.110417,63.552083],[29.10625,63.552083],[29.10625,63.547917]]]},"properties":{"radiance":7.38}},{"type":"Feature","geometry":{"type":"Polygon","coordinates":[[[29.110417,63.547917],[29.114583,63.547917],[29.114583,63.552083],[29.110417,63.552083],[29.110417,63.547917]]]},"properties":{"radiance":11.71}},{"type":"Feature","geometry":{"type":"Polygon","coordinates":[[[29.114583,63.547917],[29.11875,63.547917],[29.11875,63.552083],[29.114583,63.552083],[29.114583,63.547917]]]},"properties":{"radiance":7.37}},{"type":"Feature","geometry":{"type":"Polygon","coordinates":[[[28.027083,63.297917],[28.03125,63.297917],[28.03125,63.302083],[28.027083,63.302083],[28.027083,63.297917]]]},"properties":{"radiance":5.76}},{"type":"Feature","geometry":{"type":"Polygon","coordinates":[[[28.035417,63.297917],[28.039583,63.297917],[28.039583,63.302083],[28.035417,63.302083],[28.035417,63.297917]]]},"properties":{"radiance":5.62}},{"type":"Feature","geometry":{"type":"Polygon","coordinates":[[[28.039583,63.297917],[28.04375,63.297917],[28.04375,63.302083],[28.039583,63.302083],[28.039583,63.297917]]]},"properties":{"radiance":5.71}},{"type":"Feature","geometry":{"type":"Polygon","coordinates":[[[28.027083,63.29375],[28.03125,63.29375],[28.03125,63.297917],[28.027083,63.297917],[28.027083,63.29375]]]},"properties":{"radiance":8.15}},{"type":"Feature","geometry":{"type":"Polygon","coordinates":[[[28.03125,63.29375],[28.035417,63.29375],[28.035417,63.297917],[28.03125,63.297917],[28.03125,63.29375]]]},"properties":{"radiance":6.53}},{"type":"Feature","geometry":{"type":"Polygon","coordinates":[[[28.035417,63.29375],[28.039583,63.29375],[28.039583,63.297917],[28.035417,63.297917],[28.035417,63.29375]]]},"properties":{"radiance":6.47}},{"type":"Feature","geometry":{"type":"Polygon","coordinates":[[[28.039583,63.29375],[28.04375,63.29375],[28.04375,63.297917],[28.039583,63.297917],[28.039583,63.29375]]]},"properties":{"radiance":34.49}},{"type":"Feature","geometry":{"type":"Polygon","coordinates":[[[28.04375,63.29375],[28.047917,63.29375],[28.047917,63.297917],[28.04375,63.297917],[28.04375,63.29375]]]},"properties":{"radiance":5.37}},{"type":"Feature","geometry":{"type":"Polygon","coordinates":[[[28.027083,63.289583],[28.03125,63.289583],[28.03125,63.29375],[28.027083,63.29375],[28.027083,63.289583]]]},"properties":{"radiance":5.89}},{"type":"Feature","geometry":{"type":"Polygon","coordinates":[[[28.03125,63.289583],[28.035417,63.289583],[28.035417,63.29375],[28.03125,63.29375],[28.03125,63.289583]]]},"properties":{"radiance":7.19}},{"type":"Feature","geometry":{"type":"Polygon","coordinates":[[[28.035417,63.289583],[28.039583,63.289583],[28.039583,63.29375],[28.035417,63.29375],[28.035417,63.289583]]]},"properties":{"radiance":6.26}},{"type":"Feature","geometry":{"type":"Polygon","coordinates":[[[28.039583,63.289583],[28.04375,63.289583],[28.04375,63.29375],[28.039583,63.29375],[28.039583,63.289583]]]},"properties":{"radiance":28.9}},{"type":"Feature","geometry":{"type":"Polygon","coordinates":[[[28.04375,63.289583],[28.047917,63.289583],[28.047917,63.29375],[28.04375,63.29375],[28.04375,63.289583]]]},"properties":{"radiance":6.8}},{"type":"Feature","geometry":{"type":"Polygon","coordinates":[[[28.047917,63.289583],[28.052083,63.289583],[28.052083,63.29375],[28.047917,63.29375],[28.047917,63.289583]]]},"properties":{"radiance":5.68}},{"type":"Feature","geometry":{"type":"Polygon","coordinates":[[[28.03125,63.285417],[28.035417,63.285417],[28.035417,63.289583],[28.03125,63.289583],[28.03125,63.285417]]]},"properties":{"radiance":5.25}},{"type":"Feature","geometry":{"type":"Polygon","coordinates":[[[28.035417,63.285417],[28.039583,63.285417],[28.039583,63.289583],[28.035417,63.289583],[28.035417,63.285417]]]},"properties":{"radiance":6.86}},{"type":"Feature","geometry":{"type":"Polygon","coordinates":[[[28.022917,63.28125],[28.027083,63.28125],[28.027083,63.285417],[28.022917,63.285417],[28.022917,63.28125]]]},"properties":{"radiance":5.1}},{"type":"Feature","geometry":{"type":"Polygon","coordinates":[[[28.027083,63.28125],[28.03125,63.28125],[28.03125,63.285417],[28.027083,63.285417],[28.027083,63.28125]]]},"properties":{"radiance":5.27}},{"type":"Feature","geometry":{"type":"Polygon","coordinates":[[[28.03125,63.28125],[28.035417,63.28125],[28.035417,63.285417],[28.03125,63.285417],[28.03125,63.28125]]]},"properties":{"radiance":5.78}},{"type":"Feature","geometry":{"type":"Polygon","coordinates":[[[28.035417,63.252083],[28.039583,63.252083],[28.039583,63.25625],[28.035417,63.25625],[28.035417,63.252083]]]},"properties":{"radiance":5.45}},{"type":"Feature","geometry":{"type":"Polygon","coordinates":[[[28.039583,63.252083],[28.04375,63.252083],[28.04375,63.25625],[28.039583,63.25625],[28.039583,63.252083]]]},"properties":{"radiance":5.82}},{"type":"Feature","geometry":{"type":"Polygon","coordinates":[[[28.04375,63.252083],[28.047917,63.252083],[28.047917,63.25625],[28.04375,63.25625],[28.04375,63.252083]]]},"properties":{"radiance":7.42}},{"type":"Feature","geometry":{"type":"Polygon","coordinates":[[[28.047917,63.252083],[28.052083,63.252083],[28.052083,63.25625],[28.047917,63.25625],[28.047917,63.252083]]]},"properties":{"radiance":6.91}},{"type":"Feature","geometry":{"type":"Polygon","coordinates":[[[28.052083,63.252083],[28.05625,63.252083],[28.05625,63.25625],[28.052083,63.25625],[28.052083,63.252083]]]},"properties":{"radiance":6.16}},{"type":"Feature","geometry":{"type":"Polygon","coordinates":[[[28.047917,63.247917],[28.052083,63.247917],[28.052083,63.252083],[28.047917,63.252083],[28.047917,63.247917]]]},"properties":{"radiance":6.38}},{"type":"Feature","geometry":{"type":"Polygon","coordinates":[[[28.052083,63.247917],[28.05625,63.247917],[28.05625,63.252083],[28.052083,63.252083],[28.052083,63.247917]]]},"properties":{"radiance":6.6}},{"type":"Feature","geometry":{"type":"Polygon","coordinates":[[[28.064583,63.222917],[28.06875,63.222917],[28.06875,63.227083],[28.064583,63.227083],[28.064583,63.222917]]]},"properties":{"radiance":5.33}},{"type":"Feature","geometry":{"type":"Polygon","coordinates":[[[28.06875,63.222917],[28.072917,63.222917],[28.072917,63.227083],[28.06875,63.227083],[28.06875,63.222917]]]},"properties":{"radiance":5.6}},{"type":"Feature","geometry":{"type":"Polygon","coordinates":[[[28.04375,63.21875],[28.047917,63.21875],[28.047917,63.222917],[28.04375,63.222917],[28.04375,63.21875]]]},"properties":{"radiance":7.13}},{"type":"Feature","geometry":{"type":"Polygon","coordinates":[[[28.052083,63.21875],[28.05625,63.21875],[28.05625,63.222917],[28.052083,63.222917],[28.052083,63.21875]]]},"properties":{"radiance":5.09}},{"type":"Feature","geometry":{"type":"Polygon","coordinates":[[[28.05625,63.21875],[28.060417,63.21875],[28.060417,63.222917],[28.05625,63.222917],[28.05625,63.21875]]]},"properties":{"radiance":6.2}},{"type":"Feature","geometry":{"type":"Polygon","coordinates":[[[28.060417,63.21875],[28.064583,63.21875],[28.064583,63.222917],[28.060417,63.222917],[28.060417,63.21875]]]},"properties":{"radiance":6.98}},{"type":"Feature","geometry":{"type":"Polygon","coordinates":[[[28.064583,63.21875],[28.06875,63.21875],[28.06875,63.222917],[28.064583,63.222917],[28.064583,63.21875]]]},"properties":{"radiance":6.8}},{"type":"Feature","geometry":{"type":"Polygon","coordinates":[[[28.06875,63.21875],[28.072917,63.21875],[28.072917,63.222917],[28.06875,63.222917],[28.06875,63.21875]]]},"properties":{"radiance":5.41}},{"type":"Feature","geometry":{"type":"Polygon","coordinates":[[[28.047917,63.214583],[28.052083,63.214583],[28.052083,63.21875],[28.047917,63.21875],[28.047917,63.214583]]]},"properties":{"radiance":5.61}},{"type":"Feature","geometry":{"type":"Polygon","coordinates":[[[28.052083,63.214583],[28.05625,63.214583],[28.05625,63.21875],[28.052083,63.21875],[28.052083,63.214583]]]},"properties":{"radiance":9.99}},{"type":"Feature","geometry":{"type":"Polygon","coordinates":[[[28.05625,63.214583],[28.060417,63.214583],[28.060417,63.21875],[28.05625,63.21875],[28.05625,63.214583]]]},"properties":{"radiance":10.87}},{"type":"Feature","geometry":{"type":"Polygon","coordinates":[[[28.060417,63.214583],[28.064583,63.214583],[28.064583,63.21875],[28.060417,63.21875],[28.060417,63.214583]]]},"properties":{"radiance":10.44}},{"type":"Feature","geometry":{"type":"Polygon","coordinates":[[[28.064583,63.214583],[28.06875,63.214583],[28.06875,63.21875],[28.064583,63.21875],[28.064583,63.214583]]]},"properties":{"radiance":6.96}},{"type":"Feature","geometry":{"type":"Polygon","coordinates":[[[28.06875,63.214583],[28.072917,63.214583],[28.072917,63.21875],[28.06875,63.21875],[28.06875,63.214583]]]},"properties":{"radiance":6.2}},{"type":"Feature","geometry":{"type":"Polygon","coordinates":[[[28.052083,63.210417],[28.05625,63.210417],[28.05625,63.214583],[28.052083,63.214583],[28.052083,63.210417]]]},"properties":{"radiance":10.99}},{"type":"Feature","geometry":{"type":"Polygon","coordinates":[[[28.05625,63.210417],[28.060417,63.210417],[28.060417,63.214583],[28.05625,63.214583],[28.05625,63.210417]]]},"properties":{"radiance":12.67}},{"type":"Feature","geometry":{"type":"Polygon","coordinates":[[[28.060417,63.210417],[28.064583,63.210417],[28.064583,63.214583],[28.060417,63.214583],[28.060417,63.210417]]]},"properties":{"radiance":37.38}},{"type":"Feature","geometry":{"type":"Polygon","coordinates":[[[28.064583,63.210417],[28.06875,63.210417],[28.06875,63.214583],[28.064583,63.214583],[28.064583,63.210417]]]},"properties":{"radiance":37.18}},{"type":"Feature","geometry":{"type":"Polygon","coordinates":[[[28.06875,63.210417],[28.072917,63.210417],[28.072917,63.214583],[28.06875,63.214583],[28.06875,63.210417]]]},"properties":{"radiance":36.56}},{"type":"Feature","geometry":{"type":"Polygon","coordinates":[[[28.072917,63.210417],[28.077083,63.210417],[28.077083,63.214583],[28.072917,63.214583],[28.072917,63.210417]]]},"properties":{"radiance":29.2}},{"type":"Feature","geometry":{"type":"Polygon","coordinates":[[[28.077083,63.210417],[28.08125,63.210417],[28.08125,63.214583],[28.077083,63.214583],[28.077083,63.210417]]]},"properties":{"radiance":6.06}},{"type":"Feature","geometry":{"type":"Polygon","coordinates":[[[28.052083,63.20625],[28.05625,63.20625],[28.05625,63.210417],[28.052083,63.210417],[28.052083,63.20625]]]},"properties":{"radiance":5.26}},{"type":"Feature","geometry":{"type":"Polygon","coordinates":[[[28.05625,63.20625],[28.060417,63.20625],[28.060417,63.210417],[28.05625,63.210417],[28.05625,63.20625]]]},"properties":{"radiance":5.84}},{"type":"Feature","geometry":{"type":"Polygon","coordinates":[[[28.060417,63.20625],[28.064583,63.20625],[28.064583,63.210417],[28.060417,63.210417],[28.060417,63.20625]]]},"properties":{"radiance":32.35}},{"type":"Feature","geometry":{"type":"Polygon","coordinates":[[[28.064583,63.20625],[28.06875,63.20625],[28.06875,63.210417],[28.064583,63.210417],[28.064583,63.20625]]]},"properties":{"radiance":37.43}},{"type":"Feature","geometry":{"type":"Polygon","coordinates":[[[28.06875,63.20625],[28.072917,63.20625],[28.072917,63.210417],[28.06875,63.210417],[28.06875,63.20625]]]},"properties":{"radiance":39.39}},{"type":"Feature","geometry":{"type":"Polygon","coordinates":[[[28.072917,63.20625],[28.077083,63.20625],[28.077083,63.210417],[28.072917,63.210417],[28.072917,63.20625]]]},"properties":{"radiance":33.91}},{"type":"Feature","geometry":{"type":"Polygon","coordinates":[[[28.077083,63.20625],[28.08125,63.20625],[28.08125,63.210417],[28.077083,63.210417],[28.077083,63.20625]]]},"properties":{"radiance":38.75}},{"type":"Feature","geometry":{"type":"Polygon","coordinates":[[[28.08125,63.20625],[28.085417,63.20625],[28.085417,63.210417],[28.08125,63.210417],[28.08125,63.20625]]]},"properties":{"radiance":5.26}},{"type":"Feature","geometry":{"type":"Polygon","coordinates":[[[28.089583,63.20625],[28.09375,63.20625],[28.09375,63.210417],[28.089583,63.210417],[28.089583,63.20625]]]},"properties":{"radiance":5.12}},{"type":"Feature","geometry":{"type":"Polygon","coordinates":[[[28.05625,63.202083],[28.060417,63.202083],[28.060417,63.20625],[28.05625,63.20625],[28.05625,63.202083]]]},"properties":{"radiance":5.49}},{"type":"Feature","geometry":{"type":"Polygon","coordinates":[[[28.060417,63.202083],[28.064583,63.202083],[28.064583,63.20625],[28.060417,63.20625],[28.060417,63.202083]]]},"properties":{"radiance":9.2}},{"type":"Feature","geometry":{"type":"Polygon","coordinates":[[[28.064583,63.202083],[28.06875,63.202083],[28.06875,63.20625],[28.064583,63.20625],[28.064583,63.202083]]]},"properties":{"radiance":10.55}},{"type":"Feature","geometry":{"type":"Polygon","coordinates":[[[28.06875,63.202083],[28.072917,63.202083],[28.072917,63.20625],[28.06875,63.20625],[28.06875,63.202083]]]},"properties":{"radiance":10.06}},{"type":"Feature","geometry":{"type":"Polygon","coordinates":[[[28.072917,63.202083],[28.077083,63.202083],[28.077083,63.20625],[28.072917,63.20625],[28.072917,63.202083]]]},"properties":{"radiance":14.52}},{"type":"Feature","geometry":{"type":"Polygon","coordinates":[[[28.077083,63.202083],[28.08125,63.202083],[28.08125,63.20625],[28.077083,63.20625],[28.077083,63.202083]]]},"properties":{"radiance":19.07}},{"type":"Feature","geometry":{"type":"Polygon","coordinates":[[[28.08125,63.202083],[28.085417,63.202083],[28.085417,63.20625],[28.08125,63.20625],[28.08125,63.202083]]]},"properties":{"radiance":26.45}},{"type":"Feature","geometry":{"type":"Polygon","coordinates":[[[28.085417,63.202083],[28.089583,63.202083],[28.089583,63.20625],[28.085417,63.20625],[28.085417,63.202083]]]},"properties":{"radiance":32.13}},{"type":"Feature","geometry":{"type":"Polygon","coordinates":[[[28.089583,63.202083],[28.09375,63.202083],[28.09375,63.20625],[28.089583,63.20625],[28.089583,63.202083]]]},"properties":{"radiance":30.17}},{"type":"Feature","geometry":{"type":"Polygon","coordinates":[[[28.09375,63.202083],[28.097917,63.202083],[28.097917,63.20625],[28.09375,63.20625],[28.09375,63.202083]]]},"properties":{"radiance":38.75}},{"type":"Feature","geometry":{"type":"Polygon","coordinates":[[[28.097917,63.202083],[28.102083,63.202083],[28.102083,63.20625],[28.097917,63.20625],[28.097917,63.202083]]]},"properties":{"radiance":30.45}},{"type":"Feature","geometry":{"type":"Polygon","coordinates":[[[28.102083,63.202083],[28.10625,63.202083],[28.10625,63.20625],[28.102083,63.20625],[28.102083,63.202083]]]},"properties":{"radiance":10.04}},{"type":"Feature","geometry":{"type":"Polygon","coordinates":[[[28.077083,63.197917],[28.08125,63.197917],[28.08125,63.202083],[28.077083,63.202083],[28.077083,63.197917]]]},"properties":{"radiance":5.73}},{"type":"Feature","geometry":{"type":"Polygon","coordinates":[[[28.08125,63.197917],[28.085417,63.197917],[28.085417,63.202083],[28.08125,63.202083],[28.08125,63.197917]]]},"properties":{"radiance":11.53}},{"type":"Feature","geometry":{"type":"Polygon","coordinates":[[[28.085417,63.197917],[28.089583,63.197917],[28.089583,63.202083],[28.085417,63.202083],[28.085417,63.197917]]]},"properties":{"radiance":9.25}},{"type":"Feature","geometry":{"type":"Polygon","coordinates":[[[28.089583,63.197917],[28.09375,63.197917],[28.09375,63.202083],[28.089583,63.202083],[28.089583,63.197917]]]},"properties":{"radiance":12.29}},{"type":"Feature","geometry":{"type":"Polygon","coordinates":[[[28.09375,63.197917],[28.097917,63.197917],[28.097917,63.202083],[28.09375,63.202083],[28.09375,63.197917]]]},"properties":{"radiance":12.13}},{"type":"Feature","geometry":{"type":"Polygon","coordinates":[[[28.097917,63.197917],[28.102083,63.197917],[28.102083,63.202083],[28.097917,63.202083],[28.097917,63.197917]]]},"properties":{"radiance":13.01}},{"type":"Feature","geometry":{"type":"Polygon","coordinates":[[[28.102083,63.197917],[28.10625,63.197917],[28.10625,63.202083],[28.102083,63.202083],[28.102083,63.197917]]]},"properties":{"radiance":7.11}},{"type":"Feature","geometry":{"type":"Polygon","coordinates":[[[28.085417,63.19375],[28.089583,63.19375],[28.089583,63.197917],[28.085417,63.197917],[28.085417,63.19375]]]},"properties":{"radiance":5.6}},{"type":"Feature","geometry":{"type":"Polygon","coordinates":[[[28.089583,63.19375],[28.09375,63.19375],[28.09375,63.197917],[28.089583,63.197917],[28.089583,63.19375]]]},"properties":{"radiance":6.64}},{"type":"Feature","geometry":{"type":"Polygon","coordinates":[[[28.09375,63.19375],[28.097917,63.19375],[28.097917,63.197917],[28.09375,63.197917],[28.09375,63.19375]]]},"properties":{"radiance":6.56}},{"type":"Feature","geometry":{"type":"Polygon","coordinates":[[[28.097917,63.19375],[28.102083,63.19375],[28.102083,63.197917],[28.097917,63.197917],[28.097917,63.19375]]]},"properties":{"radiance":5.09}},{"type":"Feature","geometry":{"type":"Polygon","coordinates":[[[28.085417,63.189583],[28.089583,63.189583],[28.089583,63.19375],[28.085417,63.19375],[28.085417,63.189583]]]},"properties":{"radiance":6.05}},{"type":"Feature","geometry":{"type":"Polygon","coordinates":[[[28.089583,63.189583],[28.09375,63.189583],[28.09375,63.19375],[28.089583,63.19375],[28.089583,63.189583]]]},"properties":{"radiance":7.11}},{"type":"Feature","geometry":{"type":"Polygon","coordinates":[[[28.09375,63.189583],[28.097917,63.189583],[28.097917,63.19375],[28.09375,63.19375],[28.09375,63.189583]]]},"properties":{"radiance":5.82}},{"type":"Feature","geometry":{"type":"Polygon","coordinates":[[[28.089583,63.185417],[28.09375,63.185417],[28.09375,63.189583],[28.089583,63.189583],[28.089583,63.185417]]]},"properties":{"radiance":5.82}},{"type":"Feature","geometry":{"type":"Polygon","coordinates":[[[28.09375,63.185417],[28.097917,63.185417],[28.097917,63.189583],[28.09375,63.189583],[28.09375,63.185417]]]},"properties":{"radiance":5.93}},{"type":"Feature","geometry":{"type":"Polygon","coordinates":[[[28.09375,63.18125],[28.097917,63.18125],[28.097917,63.185417],[28.09375,63.185417],[28.09375,63.18125]]]},"properties":{"radiance":5.01}},{"type":"Feature","geometry":{"type":"Polygon","coordinates":[[[28.089583,63.16875],[28.09375,63.16875],[28.09375,63.172917],[28.089583,63.172917],[28.089583,63.16875]]]},"properties":{"radiance":5.28}},{"type":"Feature","geometry":{"type":"Polygon","coordinates":[[[28.09375,63.16875],[28.097917,63.16875],[28.097917,63.172917],[28.09375,63.172917],[28.09375,63.16875]]]},"properties":{"radiance":6.74}},{"type":"Feature","geometry":{"type":"Polygon","coordinates":[[[28.097917,63.16875],[28.102083,63.16875],[28.102083,63.172917],[28.097917,63.172917],[28.097917,63.16875]]]},"properties":{"radiance":5.47}},{"type":"Feature","geometry":{"type":"Polygon","coordinates":[[[28.085417,63.164583],[28.089583,63.164583],[28.089583,63.16875],[28.085417,63.16875],[28.085417,63.164583]]]},"properties":{"radiance":5.58}},{"type":"Feature","geometry":{"type":"Polygon","coordinates":[[[28.089583,63.164583],[28.09375,63.164583],[28.09375,63.16875],[28.089583,63.16875],[28.089583,63.164583]]]},"properties":{"radiance":5.48}},{"type":"Feature","geometry":{"type":"Polygon","coordinates":[[[28.09375,63.164583],[28.097917,63.164583],[28.097917,63.16875],[28.09375,63.16875],[28.09375,63.164583]]]},"properties":{"radiance":5.06}},{"type":"Feature","geometry":{"type":"Polygon","coordinates":[[[28.314583,63.06875],[28.31875,63.06875],[28.31875,63.072917],[28.314583,63.072917],[28.314583,63.06875]]]},"properties":{"radiance":8.44}},{"type":"Feature","geometry":{"type":"Polygon","coordinates":[[[28.31875,63.06875],[28.322917,63.06875],[28.322917,63.072917],[28.31875,63.072917],[28.31875,63.06875]]]},"properties":{"radiance":7.95}},{"type":"Feature","geometry":{"type":"Polygon","coordinates":[[[28.322917,63.06875],[28.327083,63.06875],[28.327083,63.072917],[28.322917,63.072917],[28.322917,63.06875]]]},"properties":{"radiance":9.39}},{"type":"Feature","geometry":{"type":"Polygon","coordinates":[[[28.327083,63.06875],[28.33125,63.06875],[28.33125,63.072917],[28.327083,63.072917],[28.327083,63.06875]]]},"properties":{"radiance":7.54}},{"type":"Feature","geometry":{"type":"Polygon","coordinates":[[[28.33125,63.06875],[28.335417,63.06875],[28.335417,63.072917],[28.33125,63.072917],[28.33125,63.06875]]]},"properties":{"radiance":9.66}},{"type":"Feature","geometry":{"type":"Polygon","coordinates":[[[28.335417,63.06875],[28.339583,63.06875],[28.339583,63.072917],[28.335417,63.072917],[28.335417,63.06875]]]},"properties":{"radiance":9.39}},{"type":"Feature","geometry":{"type":"Polygon","coordinates":[[[28.339583,63.06875],[28.34375,63.06875],[28.34375,63.072917],[28.339583,63.072917],[28.339583,63.06875]]]},"properties":{"radiance":9.23}},{"type":"Feature","geometry":{"type":"Polygon","coordinates":[[[28.34375,63.06875],[28.347917,63.06875],[28.347917,63.072917],[28.34375,63.072917],[28.34375,63.06875]]]},"properties":{"radiance":8.6}},{"type":"Feature","geometry":{"type":"Polygon","coordinates":[[[28.310417,63.064583],[28.314583,63.064583],[28.314583,63.06875],[28.310417,63.06875],[28.310417,63.064583]]]},"properties":{"radiance":6.11}},{"type":"Feature","geometry":{"type":"Polygon","coordinates":[[[28.314583,63.064583],[28.31875,63.064583],[28.31875,63.06875],[28.314583,63.06875],[28.314583,63.064583]]]},"properties":{"radiance":7.94}},{"type":"Feature","geometry":{"type":"Polygon","coordinates":[[[28.31875,63.064583],[28.322917,63.064583],[28.322917,63.06875],[28.31875,63.06875],[28.31875,63.064583]]]},"properties":{"radiance":11.56}},{"type":"Feature","geometry":{"type":"Polygon","coordinates":[[[28.322917,63.064583],[28.327083,63.064583],[28.327083,63.06875],[28.322917,63.06875],[28.322917,63.064583]]]},"properties":{"radiance":9.89}},{"type":"Feature","geometry":{"type":"Polygon","coordinates":[[[28.327083,63.064583],[28.33125,63.064583],[28.33125,63.06875],[28.327083,63.06875],[28.327083,63.064583]]]},"properties":{"radiance":7.4}},{"type":"Feature","geometry":{"type":"Polygon","coordinates":[[[28.33125,63.064583],[28.335417,63.064583],[28.335417,63.06875],[28.33125,63.06875],[28.33125,63.064583]]]},"properties":{"radiance":8.11}},{"type":"Feature","geometry":{"type":"Polygon","coordinates":[[[28.335417,63.064583],[28.339583,63.064583],[28.339583,63.06875],[28.335417,63.06875],[28.335417,63.064583]]]},"properties":{"radiance":8.16}},{"type":"Feature","geometry":{"type":"Polygon","coordinates":[[[28.339583,63.064583],[28.34375,63.064583],[28.34375,63.06875],[28.339583,63.06875],[28.339583,63.064583]]]},"properties":{"radiance":9.38}},{"type":"Feature","geometry":{"type":"Polygon","coordinates":[[[28.310417,63.060417],[28.314583,63.060417],[28.314583,63.064583],[28.310417,63.064583],[28.310417,63.060417]]]},"properties":{"radiance":5.1}},{"type":"Feature","geometry":{"type":"Polygon","coordinates":[[[28.314583,63.060417],[28.31875,63.060417],[28.31875,63.064583],[28.314583,63.064583],[28.314583,63.060417]]]},"properties":{"radiance":7.74}},{"type":"Feature","geometry":{"type":"Polygon","coordinates":[[[28.31875,63.060417],[28.322917,63.060417],[28.322917,63.064583],[28.31875,63.064583],[28.31875,63.060417]]]},"properties":{"radiance":8.78}},{"type":"Feature","geometry":{"type":"Polygon","coordinates":[[[28.322917,63.060417],[28.327083,63.060417],[28.327083,63.064583],[28.322917,63.064583],[28.322917,63.060417]]]},"properties":{"radiance":8.22}},{"type":"Feature","geometry":{"type":"Polygon","coordinates":[[[28.327083,63.060417],[28.33125,63.060417],[28.33125,63.064583],[28.327083,63.064583],[28.327083,63.060417]]]},"properties":{"radiance":6.86}},{"type":"Feature","geometry":{"type":"Polygon","coordinates":[[[28.310417,63.05625],[28.314583,63.05625],[28.314583,63.060417],[28.310417,63.060417],[28.310417,63.05625]]]},"properties":{"radiance":5.43}},{"type":"Feature","geometry":{"type":"Polygon","coordinates":[[[28.49375,62.98125],[28.497917,62.98125],[28.497917,62.985417],[28.49375,62.985417],[28.49375,62.98125]]]},"properties":{"radiance":5.89}},{"type":"Feature","geometry":{"type":"Polygon","coordinates":[[[28.497917,62.98125],[28.502083,62.98125],[28.502083,62.985417],[28.497917,62.985417],[28.497917,62.98125]]]},"properties":{"radiance":5.73}},{"type":"Feature","geometry":{"type":"Polygon","coordinates":[[[28.46875,62.977083],[28.472917,62.977083],[28.472917,62.98125],[28.46875,62.98125],[28.46875,62.977083]]]},"properties":{"radiance":7.63}},{"type":"Feature","geometry":{"type":"Polygon","coordinates":[[[28.472917,62.977083],[28.477083,62.977083],[28.477083,62.98125],[28.472917,62.98125],[28.472917,62.977083]]]},"properties":{"radiance":8.04}},{"type":"Feature","geometry":{"type":"Polygon","coordinates":[[[28.477083,62.977083],[28.48125,62.977083],[28.48125,62.98125],[28.477083,62.98125],[28.477083,62.977083]]]},"properties":{"radiance":8.67}},{"type":"Feature","geometry":{"type":"Polygon","coordinates":[[[28.48125,62.977083],[28.485417,62.977083],[28.485417,62.98125],[28.48125,62.98125],[28.48125,62.977083]]]},"properties":{"radiance":6.88}},{"type":"Feature","geometry":{"type":"Polygon","coordinates":[[[28.485417,62.977083],[28.489583,62.977083],[28.489583,62.98125],[28.485417,62.98125],[28.485417,62.977083]]]},"properties":{"radiance":7}},{"type":"Feature","geometry":{"type":"Polygon","coordinates":[[[28.489583,62.977083],[28.49375,62.977083],[28.49375,62.98125],[28.489583,62.98125],[28.489583,62.977083]]]},"properties":{"radiance":6.03}},{"type":"Feature","geometry":{"type":"Polygon","coordinates":[[[28.49375,62.977083],[28.497917,62.977083],[28.497917,62.98125],[28.49375,62.98125],[28.49375,62.977083]]]},"properties":{"radiance":5.19}},{"type":"Feature","geometry":{"type":"Polygon","coordinates":[[[28.46875,62.972917],[28.472917,62.972917],[28.472917,62.977083],[28.46875,62.977083],[28.46875,62.972917]]]},"properties":{"radiance":5.5}},{"type":"Feature","geometry":{"type":"Polygon","coordinates":[[[28.472917,62.972917],[28.477083,62.972917],[28.477083,62.977083],[28.472917,62.977083],[28.472917,62.972917]]]},"properties":{"radiance":6.26}},{"type":"Feature","geometry":{"type":"Polygon","coordinates":[[[28.477083,62.972917],[28.48125,62.972917],[28.48125,62.977083],[28.477083,62.977083],[28.477083,62.972917]]]},"properties":{"radiance":8.37}},{"type":"Feature","geometry":{"type":"Polygon","coordinates":[[[28.48125,62.972917],[28.485417,62.972917],[28.485417,62.977083],[28.48125,62.977083],[28.48125,62.972917]]]},"properties":{"radiance":8.41}},{"type":"Feature","geometry":{"type":"Polygon","coordinates":[[[28.485417,62.972917],[28.489583,62.972917],[28.489583,62.977083],[28.485417,62.977083],[28.485417,62.972917]]]},"properties":{"radiance":9.77}},{"type":"Feature","geometry":{"type":"Polygon","coordinates":[[[28.489583,62.972917],[28.49375,62.972917],[28.49375,62.977083],[28.489583,62.977083],[28.489583,62.972917]]]},"properties":{"radiance":6.38}},{"type":"Feature","geometry":{"type":"Polygon","coordinates":[[[28.49375,62.972917],[28.497917,62.972917],[28.497917,62.977083],[28.49375,62.977083],[28.49375,62.972917]]]},"properties":{"radiance":5.13}},{"type":"Feature","geometry":{"type":"Polygon","coordinates":[[[28.152083,62.91875],[28.15625,62.91875],[28.15625,62.922917],[28.152083,62.922917],[28.152083,62.91875]]]},"properties":{"radiance":5.73}},{"type":"Feature","geometry":{"type":"Polygon","coordinates":[[[28.15625,62.91875],[28.160417,62.91875],[28.160417,62.922917],[28.15625,62.922917],[28.15625,62.91875]]]},"properties":{"radiance":6.21}},{"type":"Feature","geometry":{"type":"Polygon","coordinates":[[[28.139583,62.914583],[28.14375,62.914583],[28.14375,62.91875],[28.139583,62.91875],[28.139583,62.914583]]]},"properties":{"radiance":5.14}},{"type":"Feature","geometry":{"type":"Polygon","coordinates":[[[28.14375,62.914583],[28.147917,62.914583],[28.147917,62.91875],[28.14375,62.91875],[28.14375,62.914583]]]},"properties":{"radiance":6.03}},{"type":"Feature","geometry":{"type":"Polygon","coordinates":[[[28.147917,62.914583],[28.152083,62.914583],[28.152083,62.91875],[28.147917,62.91875],[28.147917,62.914583]]]},"properties":{"radiance":6.87}},{"type":"Feature","geometry":{"type":"Polygon","coordinates":[[[28.152083,62.914583],[28.15625,62.914583],[28.15625,62.91875],[28.152083,62.91875],[28.152083,62.914583]]]},"properties":{"radiance":9.6}},{"type":"Feature","geometry":{"type":"Polygon","coordinates":[[[28.15625,62.914583],[28.160417,62.914583],[28.160417,62.91875],[28.15625,62.91875],[28.15625,62.914583]]]},"properties":{"radiance":28.52}},{"type":"Feature","geometry":{"type":"Polygon","coordinates":[[[28.160417,62.914583],[28.164583,62.914583],[28.164583,62.91875],[28.160417,62.91875],[28.160417,62.914583]]]},"properties":{"radiance":8.76}},{"type":"Feature","geometry":{"type":"Polygon","coordinates":[[[28.164583,62.914583],[28.16875,62.914583],[28.16875,62.91875],[28.164583,62.91875],[28.164583,62.914583]]]},"properties":{"radiance":7.22}},{"type":"Feature","geometry":{"type":"Polygon","coordinates":[[[28.152083,62.910417],[28.15625,62.910417],[28.15625,62.914583],[28.152083,62.914583],[28.152083,62.910417]]]},"properties":{"radiance":6.33}},{"type":"Feature","geometry":{"type":"Polygon","coordinates":[[[28.15625,62.910417],[28.160417,62.910417],[28.160417,62.914583],[28.15625,62.914583],[28.15625,62.910417]]]},"properties":{"radiance":5.93}},{"type":"Feature","geometry":{"type":"Polygon","coordinates":[[[28.160417,62.910417],[28.164583,62.910417],[28.164583,62.914583],[28.160417,62.914583],[28.160417,62.910417]]]},"properties":{"radiance":5.13}},{"type":"Feature","geometry":{"type":"Polygon","coordinates":[[[28.485417,62.814583],[28.489583,62.814583],[28.489583,62.81875],[28.485417,62.81875],[28.485417,62.814583]]]},"properties":{"radiance":5.73}},{"type":"Feature","geometry":{"type":"Polygon","coordinates":[[[28.489583,62.814583],[28.49375,62.814583],[28.49375,62.81875],[28.489583,62.81875],[28.489583,62.814583]]]},"properties":{"radiance":5.01}},{"type":"Feature","geometry":{"type":"Polygon","coordinates":[[[28.49375,62.814583],[28.497917,62.814583],[28.497917,62.81875],[28.49375,62.81875],[28.49375,62.814583]]]},"properties":{"radiance":5.02}},{"type":"Feature","geometry":{"type":"Polygon","coordinates":[[[28.477083,62.810417],[28.48125,62.810417],[28.48125,62.814583],[28.477083,62.814583],[28.477083,62.810417]]]},"properties":{"radiance":5.19}},{"type":"Feature","geometry":{"type":"Polygon","coordinates":[[[28.48125,62.810417],[28.485417,62.810417],[28.485417,62.814583],[28.48125,62.814583],[28.48125,62.810417]]]},"properties":{"radiance":10.35}},{"type":"Feature","geometry":{"type":"Polygon","coordinates":[[[28.485417,62.810417],[28.489583,62.810417],[28.489583,62.814583],[28.485417,62.814583],[28.485417,62.810417]]]},"properties":{"radiance":11.84}},{"type":"Feature","geometry":{"type":"Polygon","coordinates":[[[28.489583,62.810417],[28.49375,62.810417],[28.49375,62.814583],[28.489583,62.814583],[28.489583,62.810417]]]},"properties":{"radiance":10.96}},{"type":"Feature","geometry":{"type":"Polygon","coordinates":[[[28.49375,62.810417],[28.497917,62.810417],[28.497917,62.814583],[28.49375,62.814583],[28.49375,62.810417]]]},"properties":{"radiance":7.47}},{"type":"Feature","geometry":{"type":"Polygon","coordinates":[[[28.485417,62.80625],[28.489583,62.80625],[28.489583,62.810417],[28.485417,62.810417],[28.485417,62.80625]]]},"properties":{"radiance":5.6}},{"type":"Feature","geometry":{"type":"Polygon","coordinates":[[[28.489583,62.80625],[28.49375,62.80625],[28.49375,62.810417],[28.489583,62.810417],[28.489583,62.80625]]]},"properties":{"radiance":7.07}},{"type":"Feature","geometry":{"type":"Polygon","coordinates":[[[28.01875,62.764583],[28.022917,62.764583],[28.022917,62.76875],[28.01875,62.76875],[28.01875,62.764583]]]},"properties":{"radiance":9.26}},{"type":"Feature","geometry":{"type":"Polygon","coordinates":[[[28.022917,62.764583],[28.027083,62.764583],[28.027083,62.76875],[28.022917,62.76875],[28.022917,62.764583]]]},"properties":{"radiance":7.86}},{"type":"Feature","geometry":{"type":"Polygon","coordinates":[[[28.01875,62.760417],[28.022917,62.760417],[28.022917,62.764583],[28.01875,62.764583],[28.01875,62.760417]]]},"properties":{"radiance":7.56}},{"type":"Feature","geometry":{"type":"Polygon","coordinates":[[[28.022917,62.760417],[28.027083,62.760417],[28.027083,62.764583],[28.022917,62.764583],[28.022917,62.760417]]]},"properties":{"radiance":10.59}},{"type":"Feature","geometry":{"type":"Polygon","coordinates":[[[28.027083,62.760417],[28.03125,62.760417],[28.03125,62.764583],[28.027083,62.764583],[28.027083,62.760417]]]},"properties":{"radiance":8.41}},{"type":"Feature","geometry":{"type":"Polygon","coordinates":[[[28.03125,62.760417],[28.035417,62.760417],[28.035417,62.764583],[28.03125,62.764583],[28.03125,62.760417]]]},"properties":{"radiance":6.53}},{"type":"Feature","geometry":{"type":"Polygon","coordinates":[[[28.035417,62.760417],[28.039583,62.760417],[28.039583,62.764583],[28.035417,62.764583],[28.035417,62.760417]]]},"properties":{"radiance":6.22}},{"type":"Feature","geometry":{"type":"Polygon","coordinates":[[[29.077083,62.760417],[29.08125,62.760417],[29.08125,62.764583],[29.077083,62.764583],[29.077083,62.760417]]]},"properties":{"radiance":6.39}},{"type":"Feature","geometry":{"type":"Polygon","coordinates":[[[29.08125,62.760417],[29.085417,62.760417],[29.085417,62.764583],[29.08125,62.764583],[29.08125,62.760417]]]},"properties":{"radiance":9.41}},{"type":"Feature","geometry":{"type":"Polygon","coordinates":[[[29.085417,62.760417],[29.089583,62.760417],[29.089583,62.764583],[29.085417,62.764583],[29.085417,62.760417]]]},"properties":{"radiance":7.03}},{"type":"Feature","geometry":{"type":"Polygon","coordinates":[[[29.089583,62.760417],[29.09375,62.760417],[29.09375,62.764583],[29.089583,62.764583],[29.089583,62.760417]]]},"properties":{"radiance":7.06}},{"type":"Feature","geometry":{"type":"Polygon","coordinates":[[[29.072917,62.75625],[29.077083,62.75625],[29.077083,62.760417],[29.072917,62.760417],[29.072917,62.75625]]]},"properties":{"radiance":7.75}},{"type":"Feature","geometry":{"type":"Polygon","coordinates":[[[29.077083,62.75625],[29.08125,62.75625],[29.08125,62.760417],[29.077083,62.760417],[29.077083,62.75625]]]},"properties":{"radiance":11.41}},{"type":"Feature","geometry":{"type":"Polygon","coordinates":[[[29.08125,62.75625],[29.085417,62.75625],[29.085417,62.760417],[29.08125,62.760417],[29.08125,62.75625]]]},"properties":{"radiance":10.94}},{"type":"Feature","geometry":{"type":"Polygon","coordinates":[[[29.085417,62.75625],[29.089583,62.75625],[29.089583,62.760417],[29.085417,62.760417],[29.085417,62.75625]]]},"properties":{"radiance":8.04}},{"type":"Feature","geometry":{"type":"Polygon","coordinates":[[[28.997917,62.73125],[29.002083,62.73125],[29.002083,62.735417],[28.997917,62.735417],[28.997917,62.73125]]]},"properties":{"radiance":9.71}},{"type":"Feature","geometry":{"type":"Polygon","coordinates":[[[29.002083,62.73125],[29.00625,62.73125],[29.00625,62.735417],[29.002083,62.735417],[29.002083,62.73125]]]},"properties":{"radiance":7.26}},{"type":"Feature","geometry":{"type":"Polygon","coordinates":[[[29.00625,62.73125],[29.010417,62.73125],[29.010417,62.735417],[29.00625,62.735417],[29.00625,62.73125]]]},"properties":{"radiance":8.4}},{"type":"Feature","geometry":{"type":"Polygon","coordinates":[[[29.010417,62.73125],[29.014583,62.73125],[29.014583,62.735417],[29.010417,62.735417],[29.010417,62.73125]]]},"properties":{"radiance":22.65}},{"type":"Feature","geometry":{"type":"Polygon","coordinates":[[[29.014583,62.73125],[29.01875,62.73125],[29.01875,62.735417],[29.014583,62.735417],[29.014583,62.73125]]]},"properties":{"radiance":7.73}},{"type":"Feature","geometry":{"type":"Polygon","coordinates":[[[29.01875,62.73125],[29.022917,62.73125],[29.022917,62.735417],[29.01875,62.735417],[29.01875,62.73125]]]},"properties":{"radiance":5.87}},{"type":"Feature","geometry":{"type":"Polygon","coordinates":[[[29.022917,62.73125],[29.027083,62.73125],[29.027083,62.735417],[29.022917,62.735417],[29.022917,62.73125]]]},"properties":{"radiance":6.06}},{"type":"Feature","geometry":{"type":"Polygon","coordinates":[[[29.002083,62.727083],[29.00625,62.727083],[29.00625,62.73125],[29.002083,62.73125],[29.002083,62.727083]]]},"properties":{"radiance":6.81}},{"type":"Feature","geometry":{"type":"Polygon","coordinates":[[[29.00625,62.727083],[29.010417,62.727083],[29.010417,62.73125],[29.00625,62.73125],[29.00625,62.727083]]]},"properties":{"radiance":14.29}},{"type":"Feature","geometry":{"type":"Polygon","coordinates":[[[29.010417,62.727083],[29.014583,62.727083],[29.014583,62.73125],[29.010417,62.73125],[29.010417,62.727083]]]},"properties":{"radiance":14.52}},{"type":"Feature","geometry":{"type":"Polygon","coordinates":[[[29.014583,62.727083],[29.01875,62.727083],[29.01875,62.73125],[29.014583,62.73125],[29.014583,62.727083]]]},"properties":{"radiance":12.65}},{"type":"Feature","geometry":{"type":"Polygon","coordinates":[[[29.01875,62.727083],[29.022917,62.727083],[29.022917,62.73125],[29.01875,62.73125],[29.01875,62.727083]]]},"properties":{"radiance":12.29}},{"type":"Feature","geometry":{"type":"Polygon","coordinates":[[[29.022917,62.727083],[29.027083,62.727083],[29.027083,62.73125],[29.022917,62.73125],[29.022917,62.727083]]]},"properties":{"radiance":6.64}},{"type":"Feature","geometry":{"type":"Polygon","coordinates":[[[29.027083,62.727083],[29.03125,62.727083],[29.03125,62.73125],[29.027083,62.73125],[29.027083,62.727083]]]},"properties":{"radiance":5.33}},{"type":"Feature","geometry":{"type":"Polygon","coordinates":[[[29.002083,62.722917],[29.00625,62.722917],[29.00625,62.727083],[29.002083,62.727083],[29.002083,62.722917]]]},"properties":{"radiance":8.72}},{"type":"Feature","geometry":{"type":"Polygon","coordinates":[[[29.00625,62.722917],[29.010417,62.722917],[29.010417,62.727083],[29.00625,62.727083],[29.00625,62.722917]]]},"properties":{"radiance":10.72}},{"type":"Feature","geometry":{"type":"Polygon","coordinates":[[[29.010417,62.722917],[29.014583,62.722917],[29.014583,62.727083],[29.010417,62.727083],[29.010417,62.722917]]]},"properties":{"radiance":12.19}},{"type":"Feature","geometry":{"type":"Polygon","coordinates":[[[29.014583,62.722917],[29.01875,62.722917],[29.01875,62.727083],[29.014583,62.727083],[29.014583,62.722917]]]},"properties":{"radiance":12.19}},{"type":"Feature","geometry":{"type":"Polygon","coordinates":[[[29.01875,62.722917],[29.022917,62.722917],[29.022917,62.727083],[29.01875,62.727083],[29.01875,62.722917]]]},"properties":{"radiance":8.24}},{"type":"Feature","geometry":{"type":"Polygon","coordinates":[[[28.989583,62.71875],[28.99375,62.71875],[28.99375,62.722917],[28.989583,62.722917],[28.989583,62.71875]]]},"properties":{"radiance":9.69}},{"type":"Feature","geometry":{"type":"Polygon","coordinates":[[[28.99375,62.71875],[28.997917,62.71875],[28.997917,62.722917],[28.99375,62.722917],[28.99375,62.71875]]]},"properties":{"radiance":10.83}},{"type":"Feature","geometry":{"type":"Polygon","coordinates":[[[28.997917,62.71875],[29.002083,62.71875],[29.002083,62.722917],[28.997917,62.722917],[28.997917,62.71875]]]},"properties":{"radiance":16.22}},{"type":"Feature","geometry":{"type":"Polygon","coordinates":[[[29.002083,62.71875],[29.00625,62.71875],[29.00625,62.722917],[29.002083,62.722917],[29.002083,62.71875]]]},"properties":{"radiance":12.26}},{"type":"Feature","geometry":{"type":"Polygon","coordinates":[[[29.00625,62.71875],[29.010417,62.71875],[29.010417,62.722917],[29.00625,62.722917],[29.00625,62.71875]]]},"properties":{"radiance":10.29}},{"type":"Feature","geometry":{"type":"Polygon","coordinates":[[[29.010417,62.71875],[29.014583,62.71875],[29.014583,62.722917],[29.010417,62.722917],[29.010417,62.71875]]]},"properties":{"radiance":10.39}},{"type":"Feature","geometry":{"type":"Polygon","coordinates":[[[29.014583,62.71875],[29.01875,62.71875],[29.01875,62.722917],[29.014583,62.722917],[29.014583,62.71875]]]},"properties":{"radiance":5.18}},{"type":"Feature","geometry":{"type":"Polygon","coordinates":[[[28.985417,62.714583],[28.989583,62.714583],[28.989583,62.71875],[28.985417,62.71875],[28.985417,62.714583]]]},"properties":{"radiance":7.32}},{"type":"Feature","geometry":{"type":"Polygon","coordinates":[[[28.989583,62.714583],[28.99375,62.714583],[28.99375,62.71875],[28.989583,62.71875],[28.989583,62.714583]]]},"properties":{"radiance":9.82}},{"type":"Feature","geometry":{"type":"Polygon","coordinates":[[[28.99375,62.714583],[28.997917,62.714583],[28.997917,62.71875],[28.99375,62.71875],[28.99375,62.714583]]]},"properties":{"radiance":13.15}},{"type":"Feature","geometry":{"type":"Polygon","coordinates":[[[28.997917,62.714583],[29.002083,62.714583],[29.002083,62.71875],[28.997917,62.71875],[28.997917,62.714583]]]},"properties":{"radiance":14.12}},{"type":"Feature","geometry":{"type":"Polygon","coordinates":[[[29.002083,62.714583],[29.00625,62.714583],[29.00625,62.71875],[29.002083,62.71875],[29.002083,62.714583]]]},"properties":{"radiance":12.55}},{"type":"Feature","geometry":{"type":"Polygon","coordinates":[[[29.00625,62.714583],[29.010417,62.714583],[29.010417,62.71875],[29.00625,62.71875],[29.00625,62.714583]]]},"properties":{"radiance":13.02}},{"type":"Feature","geometry":{"type":"Polygon","coordinates":[[[29.010417,62.714583],[29.014583,62.714583],[29.014583,62.71875],[29.010417,62.71875],[29.010417,62.714583]]]},"properties":{"radiance":8.41}},{"type":"Feature","geometry":{"type":"Polygon","coordinates":[[[28.98125,62.710417],[28.985417,62.710417],[28.985417,62.714583],[28.98125,62.714583],[28.98125,62.710417]]]},"properties":{"radiance":5.31}},{"type":"Feature","geometry":{"type":"Polygon","coordinates":[[[28.985417,62.710417],[28.989583,62.710417],[28.989583,62.714583],[28.985417,62.714583],[28.985417,62.710417]]]},"properties":{"radiance":7.49}},{"type":"Feature","geometry":{"type":"Polygon","coordinates":[[[28.989583,62.710417],[28.99375,62.710417],[28.99375,62.714583],[28.989583,62.714583],[28.989583,62.710417]]]},"properties":{"radiance":6.84}},{"type":"Feature","geometry":{"type":"Polygon","coordinates":[[[28.99375,62.710417],[28.997917,62.710417],[28.997917,62.714583],[28.99375,62.714583],[28.99375,62.710417]]]},"properties":{"radiance":5.7}},{"type":"Feature","geometry":{"type":"Polygon","coordinates":[[[28.964583,62.702083],[28.96875,62.702083],[28.96875,62.70625],[28.964583,62.70625],[28.964583,62.702083]]]},"properties":{"radiance":5.21}},{"type":"Feature","geometry":{"type":"Polygon","coordinates":[[[28.96875,62.702083],[28.972917,62.702083],[28.972917,62.70625],[28.96875,62.70625],[28.96875,62.702083]]]},"properties":{"radiance":5.61}},{"type":"Feature","geometry":{"type":"Polygon","coordinates":[[[28.972917,62.702083],[28.977083,62.702083],[28.977083,62.70625],[28.972917,62.70625],[28.972917,62.702083]]]},"properties":{"radiance":5.7}},{"type":"Feature","geometry":{"type":"Polygon","coordinates":[[[29.052083,62.702083],[29.05625,62.702083],[29.05625,62.70625],[29.052083,62.70625],[29.052083,62.702083]]]},"properties":{"radiance":5.07}},{"type":"Feature","geometry":{"type":"Polygon","coordinates":[[[29.064583,62.702083],[29.06875,62.702083],[29.06875,62.70625],[29.064583,62.70625],[29.064583,62.702083]]]},"properties":{"radiance":5.21}},{"type":"Feature","geometry":{"type":"Polygon","coordinates":[[[28.972917,62.697917],[28.977083,62.697917],[28.977083,62.702083],[28.972917,62.702083],[28.972917,62.697917]]]},"properties":{"radiance":5.54}},{"type":"Feature","geometry":{"type":"Polygon","coordinates":[[[29.002083,62.697917],[29.00625,62.697917],[29.00625,62.702083],[29.002083,62.702083],[29.002083,62.697917]]]},"properties":{"radiance":5.13}},{"type":"Feature","geometry":{"type":"Polygon","coordinates":[[[29.072917,62.697917],[29.077083,62.697917],[29.077083,62.702083],[29.072917,62.702083],[29.072917,62.697917]]]},"properties":{"radiance":5.23}},{"type":"Feature","geometry":{"type":"Polygon","coordinates":[[[29.077083,62.689583],[29.08125,62.689583],[29.08125,62.69375],[29.077083,62.69375],[29.077083,62.689583]]]},"properties":{"radiance":5.52}},{"type":"Feature","geometry":{"type":"Polygon","coordinates":[[[29.08125,62.689583],[29.085417,62.689583],[29.085417,62.69375],[29.08125,62.69375],[29.08125,62.689583]]]},"properties":{"radiance":5.38}},{"type":"Feature","geometry":{"type":"Polygon","coordinates":[[[29.085417,62.689583],[29.089583,62.689583],[29.089583,62.69375],[29.085417,62.69375],[29.085417,62.689583]]]},"properties":{"radiance":5.28}},{"type":"Feature","geometry":{"type":"Polygon","coordinates":[[[29.10625,62.68125],[29.110417,62.68125],[29.110417,62.685417],[29.10625,62.685417],[29.10625,62.68125]]]},"properties":{"radiance":5.72}},{"type":"Feature","geometry":{"type":"Polygon","coordinates":[[[29.110417,62.677083],[29.114583,62.677083],[29.114583,62.68125],[29.110417,62.68125],[29.110417,62.677083]]]},"properties":{"radiance":5.58}},{"type":"Feature","geometry":{"type":"Polygon","coordinates":[[[29.114583,62.677083],[29.11875,62.677083],[29.11875,62.68125],[29.114583,62.68125],[29.114583,62.677083]]]},"properties":{"radiance":5.2}}]}