{"type":"FeatureCollection","features":[{"type":"Feature","geometry":{"type":"Polygon","coordinates":[[[21.885417,62.147917],[21.889583,62.147917],[21.889583,62.152083],[21.885417,62.152083],[21.885417,62.147917]]]},"properties":{"radiance":51.67}},{"type":"Feature","geometry":{"type":"Polygon","coordinates":[[[21.889583,62.147917],[21.89375,62.147917],[21.89375,62.152083],[21.889583,62.152083],[21.889583,62.147917]]]},"properties":{"radiance":54.45}},{"type":"Feature","geometry":{"type":"Polygon","coordinates":[[[21.89375,62.147917],[21.897917,62.147917],[21.897917,62.152083],[21.89375,62.152083],[21.89375,62.147917]]]},"properties":{"radiance":51.18}},{"type":"Feature","geometry":{"type":"Polygon","coordinates":[[[21.885417,62.14375],[21.889583,62.14375],[21.889583,62.147917],[21.885417,62.147917],[21.885417,62.14375]]]},"properties":{"radiance":50.82}},{"type":"Feature","geometry":{"type":"Polygon","coordinates":[[[21.947917,62.11875],[21.952083,62.11875],[21.952083,62.122917],[21.947917,62.122917],[21.947917,62.11875]]]},"properties":{"radiance":5.5}},{"type":"Feature","geometry":{"type":"Polygon","coordinates":[[[21.952083,62.11875],[21.95625,62.11875],[21.95625,62.122917],[21.952083,62.122917],[21.952083,62.11875]]]},"properties":{"radiance":5.95}},{"type":"Feature","geometry":{"type":"Polygon","coordinates":[[[21.95625,62.11875],[21.960417,62.11875],[21.960417,62.122917],[21.95625,62.122917],[21.95625,62.11875]]]},"properties":{"radiance":14.22}},{"type":"Feature","geometry":{"type":"Polygon","coordinates":[[[21.960417,62.11875],[21.964583,62.11875],[21.964583,62.122917],[21.960417,62.122917],[21.960417,62.11875]]]},"properties":{"radiance":13.05}},{"type":"Feature","geometry":{"type":"Polygon","coordinates":[[[21.964583,62.11875],[21.96875,62.11875],[21.96875,62.122917],[21.964583,62.122917],[21.964583,62.11875]]]},"properties":{"radiance":9.45}},{"type":"Feature","geometry":{"type":"Polygon","coordinates":[[[21.952083,62.114583],[21.95625,62.114583],[21.95625,62.11875],[21.952083,62.11875],[21.952083,62.114583]]]},"properties":{"radiance":6.91}},{"type":"Feature","geometry":{"type":"Polygon","coordinates":[[[21.95625,62.114583],[21.960417,62.114583],[21.960417,62.11875],[21.95625,62.11875],[21.95625,62.114583]]]},"properties":{"radiance":13.82}},{"type":"Feature","geometry":{"type":"Polygon","coordinates":[[[21.960417,62.114583],[21.964583,62.114583],[21.964583,62.11875],[21.960417,62.11875],[21.960417,62.114583]]]},"properties":{"radiance":17.49}},{"type":"Feature","geometry":{"type":"Polygon","coordinates":[[[21.964583,62.114583],[21.96875,62.114583],[21.96875,62.11875],[21.964583,62.11875],[21.964583,62.114583]]]},"properties":{"radiance":17.62}},{"type":"Feature","geometry":{"type":"Polygon","coordinates":[[[21.96875,62.114583],[21.972917,62.114583],[21.972917,62.11875],[21.96875,62.11875],[21.96875,62.114583]]]},"properties":{"radiance":13.04}},{"type":"Feature","geometry":{"type":"Polygon","coordinates":[[[22.260417,61.997917],[22.264583,61.997917],[22.264583,62.002083],[22.260417,62.002083],[22.260417,61.997917]]]},"properties":{"radiance":5.31}},{"type":"Feature","geometry":{"type":"Polygon","coordinates":[[[22.247917,61.99375],[22.252083,61.99375],[22.252083,61.997917],[22.247917,61.997917],[22.247917,61.99375]]]},"properties":{"radiance":7.11}},{"type":"Feature","geometry":{"type":"Polygon","coordinates":[[[22.252083,61.99375],[22.25625,61.99375],[22.25625,61.997917],[22.252083,61.997917],[22.252083,61.99375]]]},"properties":{"radiance":6.54}},{"type":"Feature","geometry":{"type":"Polygon","coordinates":[[[22.25625,61.99375],[22.260417,61.99375],[22.260417,61.997917],[22.25625,61.997917],[22.25625,61.99375]]]},"properties":{"radiance":7.5}},{"type":"Feature","geometry":{"type":"Polygon","coordinates":[[[22.260417,61.99375],[22.264583,61.99375],[22.264583,61.997917],[22.260417,61.997917],[22.260417,61.99375]]]},"properties":{"radiance":7.93}},{"type":"Feature","geometry":{"type":"Polygon","coordinates":[[[22.264583,61.99375],[22.26875,61.99375],[22.26875,61.997917],[22.264583,61.997917],[22.264583,61.99375]]]},"properties":{"radiance":8.82}},{"type":"Feature","geometry":{"type":"Polygon","coordinates":[[[22.26875,61.99375],[22.272917,61.99375],[22.272917,61.997917],[22.26875,61.997917],[22.26875,61.99375]]]},"properties":{"radiance":6.7}},{"type":"Feature","geometry":{"type":"Polygon","coordinates":[[[22.289583,61.99375],[22.29375,61.99375],[22.29375,61.997917],[22.289583,61.997917],[22.289583,61.99375]]]},"properties":{"radiance":7.49}},{"type":"Feature","geometry":{"type":"Polygon","coordinates":[[[22.24375,61.989583],[22.247917,61.989583],[22.247917,61.99375],[22.24375,61.99375],[22.24375,61.989583]]]},"properties":{"radiance":5.51}},{"type":"Feature","geometry":{"type":"Polygon","coordinates":[[[22.247917,61.989583],[22.252083,61.989583],[22.252083,61.99375],[22.247917,61.99375],[22.247917,61.989583]]]},"properties":{"radiance":6.37}},{"type":"Feature","geometry":{"type":"Polygon","coordinates":[[[22.252083,61.989583],[22.25625,61.989583],[22.25625,61.99375],[22.252083,61.99375],[22.252083,61.989583]]]},"properties":{"radiance":6.96}},{"type":"Feature","geometry":{"type":"Polygon","coordinates":[[[22.25625,61.989583],[22.260417,61.989583],[22.260417,61.99375],[22.25625,61.99375],[22.25625,61.989583]]]},"properties":{"radiance":8.81}},{"type":"Feature","geometry":{"type":"Polygon","coordinates":[[[22.260417,61.989583],[22.264583,61.989583],[22.264583,61.99375],[22.260417,61.99375],[22.260417,61.989583]]]},"properties":{"radiance":10.22}},{"type":"Feature","geometry":{"type":"Polygon","coordinates":[[[22.264583,61.989583],[22.26875,61.989583],[22.26875,61.99375],[22.264583,61.99375],[22.264583,61.989583]]]},"properties":{"radiance":9.13}},{"type":"Feature","geometry":{"type":"Polygon","coordinates":[[[22.26875,61.989583],[22.272917,61.989583],[22.272917,61.99375],[22.26875,61.99375],[22.26875,61.989583]]]},"properties":{"radiance":9.71}},{"type":"Feature","geometry":{"type":"Polygon","coordinates":[[[22.272917,61.989583],[22.277083,61.989583],[22.277083,61.99375],[22.272917,61.99375],[22.272917,61.989583]]]},"properties":{"radiance":8.63}},{"type":"Feature","geometry":{"type":"Polygon","coordinates":[[[22.277083,61.989583],[22.28125,61.989583],[22.28125,61.99375],[22.277083,61.99375],[22.277083,61.989583]]]},"properties":{"radiance":28.16}},{"type":"Feature","geometry":{"type":"Polygon","coordinates":[[[22.28125,61.989583],[22.285417,61.989583],[22.285417,61.99375],[22.28125,61.99375],[22.28125,61.989583]]]},"properties":{"radiance":31.95}},{"type":"Feature","geometry":{"type":"Polygon","coordinates":[[[22.285417,61.989583],[22.289583,61.989583],[22.289583,61.99375],[22.285417,61.99375],[22.285417,61.989583]]]},"properties":{"radiance":10}},{"type":"Feature","geometry":{"type":"Polygon","coordinates":[[[22.289583,61.989583],[22.29375,61.989583],[22.29375,61.99375],[22.289583,61.99375],[22.289583,61.989583]]]},"properties":{"radiance":13.54}},{"type":"Feature","geometry":{"type":"Polygon","coordinates":[[[22.29375,61.989583],[22.297917,61.989583],[22.297917,61.99375],[22.29375,61.99375],[22.29375,61.989583]]]},"properties":{"radiance":8.75}},{"type":"Feature","geometry":{"type":"Polygon","coordinates":[[[22.297917,61.989583],[22.302083,61.989583],[22.302083,61.99375],[22.297917,61.99375],[22.297917,61.989583]]]},"properties":{"radiance":5.46}},{"type":"Feature","geometry":{"type":"Polygon","coordinates":[[[22.25625,61.985417],[22.260417,61.985417],[22.260417,61.989583],[22.25625,61.989583],[22.25625,61.985417]]]},"properties":{"radiance":6.57}},{"type":"Feature","geometry":{"type":"Polygon","coordinates":[[[22.260417,61.985417],[22.264583,61.985417],[22.264583,61.989583],[22.260417,61.989583],[22.260417,61.985417]]]},"properties":{"radiance":9.15}},{"type":"Feature","geometry":{"type":"Polygon","coordinates":[[[22.264583,61.985417],[22.26875,61.985417],[22.26875,61.989583],[22.264583,61.989583],[22.264583,61.985417]]]},"properties":{"radiance":8.23}},{"type":"Feature","geometry":{"type":"Polygon","coordinates":[[[22.26875,61.985417],[22.272917,61.985417],[22.272917,61.989583],[22.26875,61.989583],[22.26875,61.985417]]]},"properties":{"radiance":30.43}},{"type":"Feature","geometry":{"type":"Polygon","coordinates":[[[22.272917,61.985417],[22.277083,61.985417],[22.277083,61.989583],[22.272917,61.989583],[22.272917,61.985417]]]},"properties":{"radiance":47.69}},{"type":"Feature","geometry":{"type":"Polygon","coordinates":[[[22.277083,61.985417],[22.28125,61.985417],[22.28125,61.989583],[22.277083,61.989583],[22.277083,61.985417]]]},"properties":{"radiance":72.44}},{"type":"Feature","geometry":{"type":"Polygon","coordinates":[[[22.28125,61.985417],[22.285417,61.985417],[22.285417,61.989583],[22.28125,61.989583],[22.28125,61.985417]]]},"properties":{"radiance":48.6}},{"type":"Feature","geometry":{"type":"Polygon","coordinates":[[[22.285417,61.985417],[22.289583,61.985417],[22.289583,61.989583],[22.285417,61.989583],[22.285417,61.985417]]]},"properties":{"radiance":45.61}},{"type":"Feature","geometry":{"type":"Polygon","coordinates":[[[22.289583,61.985417],[22.29375,61.985417],[22.29375,61.989583],[22.289583,61.989583],[22.289583,61.985417]]]},"properties":{"radiance":33.33}},{"type":"Feature","geometry":{"type":"Polygon","coordinates":[[[22.29375,61.985417],[22.297917,61.985417],[22.297917,61.989583],[22.29375,61.989583],[22.29375,61.985417]]]},"properties":{"radiance":37.4}},{"type":"Feature","geometry":{"type":"Polygon","coordinates":[[[22.297917,61.985417],[22.302083,61.985417],[22.302083,61.989583],[22.297917,61.989583],[22.297917,61.985417]]]},"properties":{"radiance":10.9}},{"type":"Feature","geometry":{"type":"Polygon","coordinates":[[[22.302083,61.985417],[22.30625,61.985417],[22.30625,61.989583],[22.302083,61.989583],[22.302083,61.985417]]]},"properties":{"radiance":8.95}},{"type":"Feature","geometry":{"type":"Polygon","coordinates":[[[22.30625,61.985417],[22.310417,61.985417],[22.310417,61.989583],[22.30625,61.989583],[22.30625,61.985417]]]},"properties":{"radiance":5.95}},{"type":"Feature","geometry":{"type":"Polygon","coordinates":[[[22.247917,61.98125],[22.252083,61.98125],[22.252083,61.985417],[22.247917,61.985417],[22.247917,61.98125]]]},"properties":{"radiance":5.32}},{"type":"Feature","geometry":{"type":"Polygon","coordinates":[[[22.252083,61.98125],[22.25625,61.98125],[22.25625,61.985417],[22.252083,61.985417],[22.252083,61.98125]]]},"properties":{"radiance":11.03}},{"type":"Feature","geometry":{"type":"Polygon","coordinates":[[[22.25625,61.98125],[22.260417,61.98125],[22.260417,61.985417],[22.25625,61.985417],[22.25625,61.98125]]]},"properties":{"radiance":10.52}},{"type":"Feature","geometry":{"type":"Polygon","coordinates":[[[22.260417,61.98125],[22.264583,61.98125],[22.264583,61.985417],[22.260417,61.985417],[22.260417,61.98125]]]},"properties":{"radiance":9.55}},{"type":"Feature","geometry":{"type":"Polygon","coordinates":[[[22.264583,61.98125],[22.26875,61.98125],[22.26875,61.985417],[22.264583,61.985417],[22.264583,61.98125]]]},"properties":{"radiance":46.17}},{"type":"Feature","geometry":{"type":"Polygon","coordinates":[[[22.26875,61.98125],[22.272917,61.98125],[22.272917,61.985417],[22.26875,61.985417],[22.26875,61.98125]]]},"properties":{"radiance":1183.39}},{"type":"Feature","geometry":{"type":"Polygon","coordinates":[[[22.272917,61.98125],[22.277083,61.98125],[22.277083,61.985417],[22.272917,61.985417],[22.272917,61.98125]]]},"properties":{"radiance":551.58}},{"type":"Feature","geometry":{"type":"Polygon","coordinates":[[[22.277083,61.98125],[22.28125,61.98125],[22.28125,61.985417],[22.277083,61.985417],[22.277083,61.98125]]]},"properties":{"radiance":793.95}},{"type":"Feature","geometry":{"type":"Polygon","coordinates":[[[22.28125,61.98125],[22.285417,61.98125],[22.285417,61.985417],[22.28125,61.985417],[22.28125,61.98125]]]},"properties":{"radiance":2368.15}},{"type":"Feature","geometry":{"type":"Polygon","coordinates":[[[22.285417,61.98125],[22.289583,61.98125],[22.289583,61.985417],[22.285417,61.985417],[22.285417,61.98125]]]},"properties":{"radiance":1689.68}},{"type":"Feature","geometry":{"type":"Polygon","coordinates":[[[22.289583,61.98125],[22.29375,61.98125],[22.29375,61.985417],[22.289583,61.985417],[22.289583,61.98125]]]},"properties":{"radiance":862.5}},{"type":"Feature","geometry":{"type":"Polygon","coordinates":[[[22.29375,61.98125],[22.297917,61.98125],[22.297917,61.985417],[22.29375,61.985417],[22.29375,61.98125]]]},"properties":{"radiance":69.44}},{"type":"Feature","geometry":{"type":"Polygon","coordinates":[[[22.297917,61.98125],[22.302083,61.98125],[22.302083,61.985417],[22.297917,61.985417],[22.297917,61.98125]]]},"properties":{"radiance":43.77}},{"type":"Feature","geometry":{"type":"Polygon","coordinates":[[[22.302083,61.98125],[22.30625,61.98125],[22.30625,61.985417],[22.302083,61.985417],[22.302083,61.98125]]]},"properties":{"radiance":11.18}},{"type":"Feature","geometry":{"type":"Polygon","coordinates":[[[22.30625,61.98125],[22.310417,61.98125],[22.310417,61.985417],[22.30625,61.985417],[22.30625,61.98125]]]},"properties":{"radiance":13.06}},{"type":"Feature","geometry":{"type":"Polygon","coordinates":[[[22.310417,61.98125],[22.314583,61.98125],[22.314583,61.985417],[22.310417,61.985417],[22.310417,61.98125]]]},"properties":{"radiance":7.04}},{"type":"Feature","geometry":{"type":"Polygon","coordinates":[[[22.314583,61.98125],[22.31875,61.98125],[22.31875,61.985417],[22.314583,61.985417],[22.314583,61.98125]]]},"properties":{"radiance":5.9}},{"type":"Feature","geometry":{"type":"Polygon","coordinates":[[[22.31875,61.98125],[22.322917,61.98125],[22.322917,61.985417],[22.31875,61.985417],[22.31875,61.98125]]]},"properties":{"radiance":7.01}},{"type":"Feature","geometry":{"type":"Polygon","coordinates":[[[22.247917,61.977083],[22.252083,61.977083],[22.252083,61.98125],[22.247917,61.98125],[22.247917,61.977083]]]},"properties":{"radiance":5.21}},{"type":"Feature","geometry":{"type":"Polygon","coordinates":[[[22.252083,61.977083],[22.25625,61.977083],[22.25625,61.98125],[22.252083,61.98125],[22.252083,61.977083]]]},"properties":{"radiance":7.34}},{"type":"Feature","geometry":{"type":"Polygon","coordinates":[[[22.25625,61.977083],[22.260417,61.977083],[22.260417,61.98125],[22.25625,61.98125],[22.25625,61.977083]]]},"properties":{"radiance":9.41}},{"type":"Feature","geometry":{"type":"Polygon","coordinates":[[[22.260417,61.977083],[22.264583,61.977083],[22.264583,61.98125],[22.260417,61.98125],[22.260417,61.977083]]]},"properties":{"radiance":64.46}},{"type":"Feature","geometry":{"type":"Polygon","coordinates":[[[22.264583,61.977083],[22.26875,61.977083],[22.26875,61.98125],[22.264583,61.98125],[22.264583,61.977083]]]},"properties":{"radiance":109.91}},{"type":"Feature","geometry":{"type":"Polygon","coordinates":[[[22.26875,61.977083],[22.272917,61.977083],[22.272917,61.98125],[22.26875,61.98125],[22.26875,61.977083]]]},"properties":{"radiance":95.06}},{"type":"Feature","geometry":{"type":"Polygon","coordinates":[[[22.272917,61.977083],[22.277083,61.977083],[22.277083,61.98125],[22.272917,61.98125],[22.272917,61.977083]]]},"properties":{"radiance":2616.61}},{"type":"Feature","geometry":{"type":"Polygon","coordinates":[[[22.277083,61.977083],[22.28125,61.977083],[22.28125,61.98125],[22.277083,61.98125],[22.277083,61.977083]]]},"properties":{"radiance":4037.33}},{"type":"Feature","geometry":{"type":"Polygon","coordinates":[[[22.28125,61.977083],[22.285417,61.977083],[22.285417,61.98125],[22.28125,61.98125],[22.28125,61.977083]]]},"properties":{"radiance":4366.76}},{"type":"Feature","geometry":{"type":"Polygon","coordinates":[[[22.285417,61.977083],[22.289583,61.977083],[22.289583,61.98125],[22.285417,61.98125],[22.285417,61.977083]]]},"properties":{"radiance":2627.75}},{"type":"Feature","geometry":{"type":"Polygon","coordinates":[[[22.289583,61.977083],[22.29375,61.977083],[22.29375,61.98125],[22.289583,61.98125],[22.289583,61.977083]]]},"properties":{"radiance":1859.84}},{"type":"Feature","geometry":{"type":"Polygon","coordinates":[[[22.29375,61.977083],[22.297917,61.977083],[22.297917,61.98125],[22.29375,61.98125],[22.29375,61.977083]]]},"properties":{"radiance":177.38}},{"type":"Feature","geometry":{"type":"Polygon","coordinates":[[[22.297917,61.977083],[22.302083,61.977083],[22.302083,61.98125],[22.297917,61.98125],[22.297917,61.977083]]]},"properties":{"radiance":70.65}},{"type":"Feature","geometry":{"type":"Polygon","coordinates":[[[22.302083,61.977083],[22.30625,61.977083],[22.30625,61.98125],[22.302083,61.98125],[22.302083,61.977083]]]},"properties":{"radiance":16.86}},{"type":"Feature","geometry":{"type":"Polygon","coordinates":[[[22.30625,61.977083],[22.310417,61.977083],[22.310417,61.98125],[22.30625,61.98125],[22.30625,61.977083]]]},"properties":{"radiance":15.23}},{"type":"Feature","geometry":{"type":"Polygon","coordinates":[[[22.310417,61.977083],[22.314583,61.977083],[22.314583,61.98125],[22.310417,61.98125],[22.310417,61.977083]]]},"properties":{"radiance":8.6}},{"type":"Feature","geometry":{"type":"Polygon","coordinates":[[[22.314583,61.977083],[22.31875,61.977083],[22.31875,61.98125],[22.314583,61.98125],[22.314583,61.977083]]]},"properties":{"radiance":11.55}},{"type":"Feature","geometry":{"type":"Polygon","coordinates":[[[22.260417,61.972917],[22.264583,61.972917],[22.264583,61.977083],[22.260417,61.977083],[22.260417,61.972917]]]},"properties":{"radiance":41.47}},{"type":"Feature","geometry":{"type":"Polygon","coordinates":[[[22.264583,61.972917],[22.26875,61.972917],[22.26875,61.977083],[22.264583,61.977083],[22.264583,61.972917]]]},"properties":{"radiance":62.12}},{"type":"Feature","geometry":{"type":"Polygon","coordinates":[[[22.26875,61.972917],[22.272917,61.972917],[22.272917,61.977083],[22.26875,61.977083],[22.26875,61.972917]]]},"properties":{"radiance":77.55}},{"type":"Feature","geometry":{"type":"Polygon","coordinates":[[[22.272917,61.972917],[22.277083,61.972917],[22.277083,61.977083],[22.272917,61.977083],[22.272917,61.972917]]]},"properties":{"radiance":239.67}},{"type":"Feature","geometry":{"type":"Polygon","coordinates":[[[22.277083,61.972917],[22.28125,61.972917],[22.28125,61.977083],[22.277083,61.977083],[22.277083,61.972917]]]},"properties":{"radiance":2187.83}},{"type":"Feature","geometry":{"type":"Polygon","coordinates":[[[22.28125,61.972917],[22.285417,61.972917],[22.285417,61.977083],[22.28125,61.977083],[22.28125,61.972917]]]},"properties":{"radiance":2017.56}},{"type":"Feature","geometry":{"type":"Polygon","coordinates":[[[22.285417,61.972917],[22.289583,61.972917],[22.289583,61.977083],[22.285417,61.977083],[22.285417,61.972917]]]},"properties":{"radiance":764.77}},{"type":"Feature","geometry":{"type":"Polygon","coordinates":[[[22.289583,61.972917],[22.29375,61.972917],[22.29375,61.977083],[22.289583,61.977083],[22.289583,61.972917]]]},"properties":{"radiance":198.94}},{"type":"Feature","geometry":{"type":"Polygon","coordinates":[[[22.29375,61.972917],[22.297917,61.972917],[22.297917,61.977083],[22.29375,61.977083],[22.29375,61.972917]]]},"properties":{"radiance":215.07}},{"type":"Feature","geometry":{"type":"Polygon","coordinates":[[[22.297917,61.972917],[22.302083,61.972917],[22.302083,61.977083],[22.297917,61.977083],[22.297917,61.972917]]]},"properties":{"radiance":15.73}},{"type":"Feature","geometry":{"type":"Polygon","coordinates":[[[22.302083,61.972917],[22.30625,61.972917],[22.30625,61.977083],[22.302083,61.977083],[22.302083,61.972917]]]},"properties":{"radiance":20.54}},{"type":"Feature","geometry":{"type":"Polygon","coordinates":[[[22.30625,61.972917],[22.310417,61.972917],[22.310417,61.977083],[22.30625,61.977083],[22.30625,61.972917]]]},"properties":{"radiance":12.68}},{"type":"Feature","geometry":{"type":"Polygon","coordinates":[[[22.310417,61.972917],[22.314583,61.972917],[22.314583,61.977083],[22.310417,61.977083],[22.310417,61.972917]]]},"properties":{"radiance":13.43}},{"type":"Feature","geometry":{"type":"Polygon","coordinates":[[[22.314583,61.972917],[22.31875,61.972917],[22.31875,61.977083],[22.314583,61.977083],[22.314583,61.972917]]]},"properties":{"radiance":8.36}},{"type":"Feature","geometry":{"type":"Polygon","coordinates":[[[22.31875,61.972917],[22.322917,61.972917],[22.322917,61.977083],[22.31875,61.977083],[22.31875,61.972917]]]},"properties":{"radiance":7.83}},{"type":"Feature","geometry":{"type":"Polygon","coordinates":[[[22.322917,61.972917],[22.327083,61.972917],[22.327083,61.977083],[22.322917,61.977083],[22.322917,61.972917]]]},"properties":{"radiance":6.71}},{"type":"Feature","geometry":{"type":"Polygon","coordinates":[[[22.327083,61.972917],[22.33125,61.972917],[22.33125,61.977083],[22.327083,61.977083],[22.327083,61.972917]]]},"properties":{"radiance":5.4}},{"type":"Feature","geometry":{"type":"Polygon","coordinates":[[[22.25625,61.96875],[22.260417,61.96875],[22.260417,61.972917],[22.25625,61.972917],[22.25625,61.96875]]]},"properties":{"radiance":5.44}},{"type":"Feature","geometry":{"type":"Polygon","coordinates":[[[22.260417,61.96875],[22.264583,61.96875],[22.264583,61.972917],[22.260417,61.972917],[22.260417,61.96875]]]},"properties":{"radiance":6.71}},{"type":"Feature","geometry":{"type":"Polygon","coordinates":[[[22.264583,61.96875],[22.26875,61.96875],[22.26875,61.972917],[22.264583,61.972917],[22.264583,61.96875]]]},"properties":{"radiance":9.67}},{"type":"Feature","geometry":{"type":"Polygon","coordinates":[[[22.26875,61.96875],[22.272917,61.96875],[22.272917,61.972917],[22.26875,61.972917],[22.26875,61.96875]]]},"properties":{"radiance":63.28}},{"type":"Feature","geometry":{"type":"Polygon","coordinates":[[[22.272917,61.96875],[22.277083,61.96875],[22.277083,61.972917],[22.272917,61.972917],[22.272917,61.96875]]]},"properties":{"radiance":90.38}},{"type":"Feature","geometry":{"type":"Polygon","coordinates":[[[22.277083,61.96875],[22.28125,61.96875],[22.28125,61.972917],[22.277083,61.972917],[22.277083,61.96875]]]},"properties":{"radiance":81.57}},{"type":"Feature","geometry":{"type":"Polygon","coordinates":[[[22.28125,61.96875],[22.285417,61.96875],[22.285417,61.972917],[22.28125,61.972917],[22.28125,61.96875]]]},"properties":{"radiance":131.69}},{"type":"Feature","geometry":{"type":"Polygon","coordinates":[[[22.285417,61.96875],[22.289583,61.96875],[22.289583,61.972917],[22.285417,61.972917],[22.285417,61.96875]]]},"properties":{"radiance":97.42}},{"type":"Feature","geometry":{"type":"Polygon","coordinates":[[[22.289583,61.96875],[22.29375,61.96875],[22.29375,61.972917],[22.289583,61.972917],[22.289583,61.96875]]]},"properties":{"radiance":65.29}},{"type":"Feature","geometry":{"type":"Polygon","coordinates":[[[22.29375,61.96875],[22.297917,61.96875],[22.297917,61.972917],[22.29375,61.972917],[22.29375,61.96875]]]},"properties":{"radiance":54.05}},{"type":"Feature","geometry":{"type":"Polygon","coordinates":[[[22.297917,61.96875],[22.302083,61.96875],[22.302083,61.972917],[22.297917,61.972917],[22.297917,61.96875]]]},"properties":{"radiance":10.05}},{"type":"Feature","geometry":{"type":"Polygon","coordinates":[[[22.302083,61.96875],[22.30625,61.96875],[22.30625,61.972917],[22.302083,61.972917],[22.302083,61.96875]]]},"properties":{"radiance":23.06}},{"type":"Feature","geometry":{"type":"Polygon","coordinates":[[[22.30625,61.96875],[22.310417,61.96875],[22.310417,61.972917],[22.30625,61.972917],[22.30625,61.96875]]]},"properties":{"radiance":10.48}},{"type":"Feature","geometry":{"type":"Polygon","coordinates":[[[22.310417,61.96875],[22.314583,61.96875],[22.314583,61.972917],[22.310417,61.972917],[22.310417,61.96875]]]},"properties":{"radiance":10.96}},{"type":"Feature","geometry":{"type":"Polygon","coordinates":[[[22.314583,61.96875],[22.31875,61.96875],[22.31875,61.972917],[22.314583,61.972917],[22.314583,61.96875]]]},"properties":{"radiance":10.79}},{"type":"Feature","geometry":{"type":"Polygon","coordinates":[[[22.31875,61.96875],[22.322917,61.96875],[22.322917,61.972917],[22.31875,61.972917],[22.31875,61.96875]]]},"properties":{"radiance":9.96}},{"type":"Feature","geometry":{"type":"Polygon","coordinates":[[[22.322917,61.96875],[22.327083,61.96875],[22.327083,61.972917],[22.322917,61.972917],[22.322917,61.96875]]]},"properties":{"radiance":5.65}},{"type":"Feature","geometry":{"type":"Polygon","coordinates":[[[22.33125,61.96875],[22.335417,61.96875],[22.335417,61.972917],[22.33125,61.972917],[22.33125,61.96875]]]},"properties":{"radiance":5.41}},{"type":"Feature","geometry":{"type":"Polygon","coordinates":[[[22.264583,61.964583],[22.26875,61.964583],[22.26875,61.96875],[22.264583,61.96875],[22.264583,61.964583]]]},"properties":{"radiance":27.89}},{"type":"Feature","geometry":{"type":"Polygon","coordinates":[[[22.26875,61.964583],[22.272917,61.964583],[22.272917,61.96875],[22.26875,61.96875],[22.26875,61.964583]]]},"properties":{"radiance":28.22}},{"type":"Feature","geometry":{"type":"Polygon","coordinates":[[[22.272917,61.964583],[22.277083,61.964583],[22.277083,61.96875],[22.272917,61.96875],[22.272917,61.964583]]]},"properties":{"radiance":35.2}},{"type":"Feature","geometry":{"type":"Polygon","coordinates":[[[22.277083,61.964583],[22.28125,61.964583],[22.28125,61.96875],[22.277083,61.96875],[22.277083,61.964583]]]},"properties":{"radiance":12.37}},{"type":"Feature","geometry":{"type":"Polygon","coordinates":[[[22.28125,61.964583],[22.285417,61.964583],[22.285417,61.96875],[22.28125,61.96875],[22.28125,61.964583]]]},"properties":{"radiance":8.39}},{"type":"Feature","geometry":{"type":"Polygon","coordinates":[[[22.285417,61.964583],[22.289583,61.964583],[22.289583,61.96875],[22.285417,61.96875],[22.285417,61.964583]]]},"properties":{"radiance":7.46}},{"type":"Feature","geometry":{"type":"Polygon","coordinates":[[[22.289583,61.964583],[22.29375,61.964583],[22.29375,61.96875],[22.289583,61.96875],[22.289583,61.964583]]]},"properties":{"radiance":8.11}},{"type":"Feature","geometry":{"type":"Polygon","coordinates":[[[22.297917,61.964583],[22.302083,61.964583],[22.302083,61.96875],[22.297917,61.96875],[22.297917,61.964583]]]},"properties":{"radiance":5.17}},{"type":"Feature","geometry":{"type":"Polygon","coordinates":[[[22.260417,61.960417],[22.264583,61.960417],[22.264583,61.964583],[22.260417,61.964583],[22.260417,61.960417]]]},"properties":{"radiance":6.03}},{"type":"Feature","geometry":{"type":"Polygon","coordinates":[[[22.264583,61.960417],[22.26875,61.960417],[22.26875,61.964583],[22.264583,61.964583],[22.264583,61.960417]]]},"properties":{"radiance":8.29}},{"type":"Feature","geometry":{"type":"Polygon","coordinates":[[[22.26875,61.960417],[22.272917,61.960417],[22.272917,61.964583],[22.26875,61.964583],[22.26875,61.960417]]]},"properties":{"radiance":10.77}},{"type":"Feature","geometry":{"type":"Polygon","coordinates":[[[22.272917,61.960417],[22.277083,61.960417],[22.277083,61.964583],[22.272917,61.964583],[22.272917,61.960417]]]},"properties":{"radiance":8.2}},{"type":"Feature","geometry":{"type":"Polygon","coordinates":[[[22.277083,61.960417],[22.28125,61.960417],[22.28125,61.964583],[22.277083,61.964583],[22.277083,61.960417]]]},"properties":{"radiance":7.81}},{"type":"Feature","geometry":{"type":"Polygon","coordinates":[[[22.26875,61.95625],[22.272917,61.95625],[22.272917,61.960417],[22.26875,61.960417],[22.26875,61.95625]]]},"properties":{"radiance":10.4}},{"type":"Feature","geometry":{"type":"Polygon","coordinates":[[[22.272917,61.95625],[22.277083,61.95625],[22.277083,61.960417],[22.272917,61.960417],[22.272917,61.95625]]]},"properties":{"radiance":12.96}},{"type":"Feature","geometry":{"type":"Polygon","coordinates":[[[22.277083,61.95625],[22.28125,61.95625],[22.28125,61.960417],[22.277083,61.960417],[22.277083,61.95625]]]},"properties":{"radiance":9.45}},{"type":"Feature","geometry":{"type":"Polygon","coordinates":[[[22.28125,61.95625],[22.285417,61.95625],[22.285417,61.960417],[22.28125,61.960417],[22.28125,61.95625]]]},"properties":{"radiance":6.56}},{"type":"Feature","geometry":{"type":"Polygon","coordinates":[[[22.289583,61.95625],[22.29375,61.95625],[22.29375,61.960417],[22.289583,61.960417],[22.289583,61.95625]]]},"properties":{"radiance":7.75}},{"type":"Feature","geometry":{"type":"Polygon","coordinates":[[[21.810417,61.877083],[21.814583,61.877083],[21.814583,61.88125],[21.810417,61.88125],[21.810417,61.877083]]]},"properties":{"radiance":5.7}},{"type":"Feature","geometry":{"type":"Polygon","coordinates":[[[21.814583,61.877083],[21.81875,61.877083],[21.81875,61.88125],[21.814583,61.88125],[21.814583,61.877083]]]},"properties":{"radiance":6.79}},{"type":"Feature","geometry":{"type":"Polygon","coordinates":[[[21.81875,61.877083],[21.822917,61.877083],[21.822917,61.88125],[21.81875,61.88125],[21.81875,61.877083]]]},"properties":{"radiance":6.51}},{"type":"Feature","geometry":{"type":"Polygon","coordinates":[[[21.822917,61.877083],[21.827083,61.877083],[21.827083,61.88125],[21.822917,61.88125],[21.822917,61.877083]]]},"properties":{"radiance":5.04}},{"type":"Feature","geometry":{"type":"Polygon","coordinates":[[[21.814583,61.872917],[21.81875,61.872917],[21.81875,61.877083],[21.814583,61.877083],[21.814583,61.872917]]]},"properties":{"radiance":5.7}},{"type":"Feature","geometry":{"type":"Polygon","coordinates":[[[22.477083,61.847917],[22.48125,61.847917],[22.48125,61.852083],[22.477083,61.852083],[22.477083,61.847917]]]},"properties":{"radiance":5.05}},{"type":"Feature","geometry":{"type":"Polygon","coordinates":[[[22.48125,61.847917],[22.485417,61.847917],[22.485417,61.852083],[22.48125,61.852083],[22.48125,61.847917]]]},"properties":{"radiance":6.06}},{"type":"Feature","geometry":{"type":"Polygon","coordinates":[[[22.485417,61.847917],[22.489583,61.847917],[22.489583,61.852083],[22.485417,61.852083],[22.485417,61.847917]]]},"properties":{"radiance":6.86}},{"type":"Feature","geometry":{"type":"Polygon","coordinates":[[[22.460417,61.84375],[22.464583,61.84375],[22.464583,61.847917],[22.460417,61.847917],[22.460417,61.84375]]]},"properties":{"radiance":5.25}},{"type":"Feature","geometry":{"type":"Polygon","coordinates":[[[22.464583,61.84375],[22.46875,61.84375],[22.46875,61.847917],[22.464583,61.847917],[22.464583,61.84375]]]},"properties":{"radiance":5.39}},{"type":"Feature","geometry":{"type":"Polygon","coordinates":[[[22.45625,61.839583],[22.460417,61.839583],[22.460417,61.84375],[22.45625,61.84375],[22.45625,61.839583]]]},"properties":{"radiance":9.04}},{"type":"Feature","geometry":{"type":"Polygon","coordinates":[[[22.460417,61.839583],[22.464583,61.839583],[22.464583,61.84375],[22.460417,61.84375],[22.460417,61.839583]]]},"properties":{"radiance":13.38}},{"type":"Feature","geometry":{"type":"Polygon","coordinates":[[[22.464583,61.839583],[22.46875,61.839583],[22.46875,61.84375],[22.464583,61.84375],[22.464583,61.839583]]]},"properties":{"radiance":14.43}},{"type":"Feature","geometry":{"type":"Polygon","coordinates":[[[22.46875,61.839583],[22.472917,61.839583],[22.472917,61.84375],[22.46875,61.84375],[22.46875,61.839583]]]},"properties":{"radiance":5.3}},{"type":"Feature","geometry":{"type":"Polygon","coordinates":[[[22.45625,61.835417],[22.460417,61.835417],[22.460417,61.839583],[22.45625,61.839583],[22.45625,61.835417]]]},"properties":{"radiance":13.56}},{"type":"Feature","geometry":{"type":"Polygon","coordinates":[[[22.460417,61.835417],[22.464583,61.835417],[22.464583,61.839583],[22.460417,61.839583],[22.460417,61.835417]]]},"properties":{"radiance":13.91}},{"type":"Feature","geometry":{"type":"Polygon","coordinates":[[[22.464583,61.835417],[22.46875,61.835417],[22.46875,61.839583],[22.464583,61.839583],[22.464583,61.835417]]]},"properties":{"radiance":15.34}},{"type":"Feature","geometry":{"type":"Polygon","coordinates":[[[22.46875,61.835417],[22.472917,61.835417],[22.472917,61.839583],[22.46875,61.839583],[22.46875,61.835417]]]},"properties":{"radiance":12.38}},{"type":"Feature","geometry":{"type":"Polygon","coordinates":[[[22.472917,61.835417],[22.477083,61.835417],[22.477083,61.839583],[22.472917,61.839583],[22.472917,61.835417]]]},"properties":{"radiance":12.48}},{"type":"Feature","geometry":{"type":"Polygon","coordinates":[[[22.45625,61.83125],[22.460417,61.83125],[22.460417,61.835417],[22.45625,61.835417],[22.45625,61.83125]]]},"properties":{"radiance":18.15}},{"type":"Feature","geometry":{"type":"Polygon","coordinates":[[[22.464583,61.83125],[22.46875,61.83125],[22.46875,61.835417],[22.464583,61.835417],[22.464583,61.83125]]]},"properties":{"radiance":7.13}},{"type":"Feature","geometry":{"type":"Polygon","coordinates":[[[22.46875,61.83125],[22.472917,61.83125],[22.472917,61.835417],[22.46875,61.835417],[22.46875,61.83125]]]},"properties":{"radiance":10.21}},{"type":"Feature","geometry":{"type":"Polygon","coordinates":[[[22.464583,61.827083],[22.46875,61.827083],[22.46875,61.83125],[22.464583,61.83125],[22.464583,61.827083]]]},"properties":{"radiance":5.71}},{"type":"Feature","geometry":{"type":"Polygon","coordinates":[[[22.46875,61.827083],[22.472917,61.827083],[22.472917,61.83125],[22.46875,61.83125],[22.46875,61.827083]]]},"properties":{"radiance":7.31}},{"type":"Feature","geometry":{"type":"Polygon","coordinates":[[[22.472917,61.827083],[22.477083,61.827083],[22.477083,61.83125],[22.472917,61.83125],[22.472917,61.827083]]]},"properties":{"radiance":5.33}},{"type":"Feature","geometry":{"type":"Polygon","coordinates":[[[22.372917,61.822917],[22.377083,61.822917],[22.377083,61.827083],[22.372917,61.827083],[22.372917,61.822917]]]},"properties":{"radiance":14.4}},{"type":"Feature","geometry":{"type":"Polygon","coordinates":[[[22.377083,61.822917],[22.38125,61.822917],[22.38125,61.827083],[22.377083,61.827083],[22.377083,61.822917]]]},"properties":{"radiance":9.24}},{"type":"Feature","geometry":{"type":"Polygon","coordinates":[[[22.38125,61.822917],[22.385417,61.822917],[22.385417,61.827083],[22.38125,61.827083],[22.38125,61.822917]]]},"properties":{"radiance":8.58}},{"type":"Feature","geometry":{"type":"Polygon","coordinates":[[[22.385417,61.822917],[22.389583,61.822917],[22.389583,61.827083],[22.385417,61.827083],[22.385417,61.822917]]]},"properties":{"radiance":5.53}},{"type":"Feature","geometry":{"type":"Polygon","coordinates":[[[22.389583,61.822917],[22.39375,61.822917],[22.39375,61.827083],[22.389583,61.827083],[22.389583,61.822917]]]},"properties":{"radiance":5.36}},{"type":"Feature","geometry":{"type":"Polygon","coordinates":[[[22.352083,61.81875],[22.35625,61.81875],[22.35625,61.822917],[22.352083,61.822917],[22.352083,61.81875]]]},"properties":{"radiance":5.46}},{"type":"Feature","geometry":{"type":"Polygon","coordinates":[[[22.35625,61.81875],[22.360417,61.81875],[22.360417,61.822917],[22.35625,61.822917],[22.35625,61.81875]]]},"properties":{"radiance":9.09}},{"type":"Feature","geometry":{"type":"Polygon","coordinates":[[[22.360417,61.81875],[22.364583,61.81875],[22.364583,61.822917],[22.360417,61.822917],[22.360417,61.81875]]]},"properties":{"radiance":34.12}},{"type":"Feature","geometry":{"type":"Polygon","coordinates":[[[22.364583,61.81875],[22.36875,61.81875],[22.36875,61.822917],[22.364583,61.822917],[22.364583,61.81875]]]},"properties":{"radiance":14.41}},{"type":"Feature","geometry":{"type":"Polygon","coordinates":[[[22.36875,61.81875],[22.372917,61.81875],[22.372917,61.822917],[22.36875,61.822917],[22.36875,61.81875]]]},"properties":{"radiance":16.69}},{"type":"Feature","geometry":{"type":"Polygon","coordinates":[[[22.372917,61.81875],[22.377083,61.81875],[22.377083,61.822917],[22.372917,61.822917],[22.372917,61.81875]]]},"properties":{"radiance":17.37}},{"type":"Feature","geometry":{"type":"Polygon","coordinates":[[[22.377083,61.81875],[22.38125,61.81875],[22.38125,61.822917],[22.377083,61.822917],[22.377083,61.81875]]]},"properties":{"radiance":15.62}},{"type":"Feature","geometry":{"type":"Polygon","coordinates":[[[22.38125,61.81875],[22.385417,61.81875],[22.385417,61.822917],[22.38125,61.822917],[22.38125,61.81875]]]},"properties":{"radiance":15.05}},{"type":"Feature","geometry":{"type":"Polygon","coordinates":[[[22.385417,61.81875],[22.389583,61.81875],[22.389583,61.822917],[22.385417,61.822917],[22.385417,61.81875]]]},"properties":{"radiance":20.06}},{"type":"Feature","geometry":{"type":"Polygon","coordinates":[[[22.389583,61.81875],[22.39375,61.81875],[22.39375,61.822917],[22.389583,61.822917],[22.389583,61.81875]]]},"properties":{"radiance":6.76}},{"type":"Feature","geometry":{"type":"Polygon","coordinates":[[[22.39375,61.81875],[22.397917,61.81875],[22.397917,61.822917],[22.39375,61.822917],[22.39375,61.81875]]]},"properties":{"radiance":5.5}},{"type":"Feature","geometry":{"type":"Polygon","coordinates":[[[22.397917,61.81875],[22.402083,61.81875],[22.402083,61.822917],[22.397917,61.822917],[22.397917,61.81875]]]},"properties":{"radiance":5.58}},{"type":"Feature","geometry":{"type":"Polygon","coordinates":[[[22.402083,61.81875],[22.40625,61.81875],[22.40625,61.822917],[22.402083,61.822917],[22.402083,61.81875]]]},"properties":{"radiance":5.56}},{"type":"Feature","geometry":{"type":"Polygon","coordinates":[[[22.40625,61.81875],[22.410417,61.81875],[22.410417,61.822917],[22.40625,61.822917],[22.40625,61.81875]]]},"properties":{"radiance":5.25}},{"type":"Feature","geometry":{"type":"Polygon","coordinates":[[[22.35625,61.814583],[22.360417,61.814583],[22.360417,61.81875],[22.35625,61.81875],[22.35625,61.814583]]]},"properties":{"radiance":11.85}},{"type":"Feature","geometry":{"type":"Polygon","coordinates":[[[22.360417,61.814583],[22.364583,61.814583],[22.364583,61.81875],[22.360417,61.81875],[22.360417,61.814583]]]},"properties":{"radiance":10.53}},{"type":"Feature","geometry":{"type":"Polygon","coordinates":[[[22.364583,61.814583],[22.36875,61.814583],[22.36875,61.81875],[22.364583,61.81875],[22.364583,61.814583]]]},"properties":{"radiance":23.77}},{"type":"Feature","geometry":{"type":"Polygon","coordinates":[[[22.36875,61.814583],[22.372917,61.814583],[22.372917,61.81875],[22.36875,61.81875],[22.36875,61.814583]]]},"properties":{"radiance":39.45}},{"type":"Feature","geometry":{"type":"Polygon","coordinates":[[[22.372917,61.814583],[22.377083,61.814583],[22.377083,61.81875],[22.372917,61.81875],[22.372917,61.814583]]]},"properties":{"radiance":24.47}},{"type":"Feature","geometry":{"type":"Polygon","coordinates":[[[22.377083,61.814583],[22.38125,61.814583],[22.38125,61.81875],[22.377083,61.81875],[22.377083,61.814583]]]},"properties":{"radiance":31.78}},{"type":"Feature","geometry":{"type":"Polygon","coordinates":[[[22.38125,61.814583],[22.385417,61.814583],[22.385417,61.81875],[22.38125,61.81875],[22.38125,61.814583]]]},"properties":{"radiance":15.36}},{"type":"Feature","geometry":{"type":"Polygon","coordinates":[[[22.385417,61.814583],[22.389583,61.814583],[22.389583,61.81875],[22.385417,61.81875],[22.385417,61.814583]]]},"properties":{"radiance":13.33}},{"type":"Feature","geometry":{"type":"Polygon","coordinates":[[[22.389583,61.814583],[22.39375,61.814583],[22.39375,61.81875],[22.389583,61.81875],[22.389583,61.814583]]]},"properties":{"radiance":21.27}},{"type":"Feature","geometry":{"type":"Polygon","coordinates":[[[22.39375,61.814583],[22.397917,61.814583],[22.397917,61.81875],[22.39375,61.81875],[22.39375,61.814583]]]},"properties":{"radiance":36.78}},{"type":"Feature","geometry":{"type":"Polygon","coordinates":[[[22.397917,61.814583],[22.402083,61.814583],[22.402083,61.81875],[22.397917,61.81875],[22.397917,61.814583]]]},"properties":{"radiance":12.37}},{"type":"Feature","geometry":{"type":"Polygon","coordinates":[[[22.402083,61.814583],[22.40625,61.814583],[22.40625,61.81875],[22.402083,61.81875],[22.402083,61.814583]]]},"properties":{"radiance":7.15}},{"type":"Feature","geometry":{"type":"Polygon","coordinates":[[[22.40625,61.814583],[22.410417,61.814583],[22.410417,61.81875],[22.40625,61.81875],[22.40625,61.814583]]]},"properties":{"radiance":6.42}},{"type":"Feature","geometry":{"type":"Polygon","coordinates":[[[22.347917,61.810417],[22.352083,61.810417],[22.352083,61.814583],[22.347917,61.814583],[22.347917,61.810417]]]},"properties":{"radiance":5.16}},{"type":"Feature","geometry":{"type":"Polygon","coordinates":[[[22.352083,61.810417],[22.35625,61.810417],[22.35625,61.814583],[22.352083,61.814583],[22.352083,61.810417]]]},"properties":{"radiance":9.84}},{"type":"Feature","geometry":{"type":"Polygon","coordinates":[[[22.35625,61.810417],[22.360417,61.810417],[22.360417,61.814583],[22.35625,61.814583],[22.35625,61.810417]]]},"properties":{"radiance":7.99}},{"type":"Feature","geometry":{"type":"Polygon","coordinates":[[[22.360417,61.810417],[22.364583,61.810417],[22.364583,61.814583],[22.360417,61.814583],[22.360417,61.810417]]]},"properties":{"radiance":13.04}},{"type":"Feature","geometry":{"type":"Polygon","coordinates":[[[22.364583,61.810417],[22.36875,61.810417],[22.36875,61.814583],[22.364583,61.814583],[22.364583,61.810417]]]},"properties":{"radiance":12.51}},{"type":"Feature","geometry":{"type":"Polygon","coordinates":[[[22.36875,61.810417],[22.372917,61.810417],[22.372917,61.814583],[22.36875,61.814583],[22.36875,61.810417]]]},"properties":{"radiance":15.38}},{"type":"Feature","geometry":{"type":"Polygon","coordinates":[[[22.372917,61.810417],[22.377083,61.810417],[22.377083,61.814583],[22.372917,61.814583],[22.372917,61.810417]]]},"properties":{"radiance":15.42}},{"type":"Feature","geometry":{"type":"Polygon","coordinates":[[[22.377083,61.810417],[22.38125,61.810417],[22.38125,61.814583],[22.377083,61.814583],[22.377083,61.810417]]]},"properties":{"radiance":13.88}},{"type":"Feature","geometry":{"type":"Polygon","coordinates":[[[22.38125,61.810417],[22.385417,61.810417],[22.385417,61.814583],[22.38125,61.814583],[22.38125,61.810417]]]},"properties":{"radiance":15.79}},{"type":"Feature","geometry":{"type":"Polygon","coordinates":[[[22.385417,61.810417],[22.389583,61.810417],[22.389583,61.814583],[22.385417,61.814583],[22.385417,61.810417]]]},"properties":{"radiance":19.42}},{"type":"Feature","geometry":{"type":"Polygon","coordinates":[[[22.389583,61.810417],[22.39375,61.810417],[22.39375,61.814583],[22.389583,61.814583],[22.389583,61.810417]]]},"properties":{"radiance":26.19}},{"type":"Feature","geometry":{"type":"Polygon","coordinates":[[[22.39375,61.810417],[22.397917,61.810417],[22.397917,61.814583],[22.39375,61.814583],[22.39375,61.810417]]]},"properties":{"radiance":13.04}},{"type":"Feature","geometry":{"type":"Polygon","coordinates":[[[22.397917,61.810417],[22.402083,61.810417],[22.402083,61.814583],[22.397917,61.814583],[22.397917,61.810417]]]},"properties":{"radiance":33.51}},{"type":"Feature","geometry":{"type":"Polygon","coordinates":[[[22.402083,61.810417],[22.40625,61.810417],[22.40625,61.814583],[22.402083,61.814583],[22.402083,61.810417]]]},"properties":{"radiance":12.45}},{"type":"Feature","geometry":{"type":"Polygon","coordinates":[[[22.40625,61.810417],[22.410417,61.810417],[22.410417,61.814583],[22.40625,61.814583],[22.40625,61.810417]]]},"properties":{"radiance":6.32}},{"type":"Feature","geometry":{"type":"Polygon","coordinates":[[[22.347917,61.80625],[22.352083,61.80625],[22.352083,61.810417],[22.347917,61.810417],[22.347917,61.80625]]]},"properties":{"radiance":9.07}},{"type":"Feature","geometry":{"type":"Polygon","coordinates":[[[22.352083,61.80625],[22.35625,61.80625],[22.35625,61.810417],[22.352083,61.810417],[22.352083,61.80625]]]},"properties":{"radiance":14.54}},{"type":"Feature","geometry":{"type":"Polygon","coordinates":[[[22.35625,61.80625],[22.360417,61.80625],[22.360417,61.810417],[22.35625,61.810417],[22.35625,61.80625]]]},"properties":{"radiance":12.95}},{"type":"Feature","geometry":{"type":"Polygon","coordinates":[[[22.360417,61.80625],[22.364583,61.80625],[22.364583,61.810417],[22.360417,61.810417],[22.360417,61.80625]]]},"properties":{"radiance":9.81}},{"type":"Feature","geometry":{"type":"Polygon","coordinates":[[[22.364583,61.80625],[22.36875,61.80625],[22.36875,61.810417],[22.364583,61.810417],[22.364583,61.80625]]]},"properties":{"radiance":9.69}},{"type":"Feature","geometry":{"type":"Polygon","coordinates":[[[22.36875,61.80625],[22.372917,61.80625],[22.372917,61.810417],[22.36875,61.810417],[22.36875,61.80625]]]},"properties":{"radiance":10.72}},{"type":"Feature","geometry":{"type":"Polygon","coordinates":[[[22.372917,61.80625],[22.377083,61.80625],[22.377083,61.810417],[22.372917,61.810417],[22.372917,61.80625]]]},"properties":{"radiance":11.65}},{"type":"Feature","geometry":{"type":"Polygon","coordinates":[[[22.377083,61.80625],[22.38125,61.80625],[22.38125,61.810417],[22.377083,61.810417],[22.377083,61.80625]]]},"properties":{"radiance":51.4}},{"type":"Feature","geometry":{"type":"Polygon","coordinates":[[[22.38125,61.80625],[22.385417,61.80625],[22.385417,61.810417],[22.38125,61.810417],[22.38125,61.80625]]]},"properties":{"radiance":51.07}},{"type":"Feature","geometry":{"type":"Polygon","coordinates":[[[22.385417,61.80625],[22.389583,61.80625],[22.389583,61.810417],[22.385417,61.810417],[22.385417,61.80625]]]},"properties":{"radiance":48.81}},{"type":"Feature","geometry":{"type":"Polygon","coordinates":[[[22.389583,61.80625],[22.39375,61.80625],[22.39375,61.810417],[22.389583,61.810417],[22.389583,61.80625]]]},"properties":{"radiance":59.13}},{"type":"Feature","geometry":{"type":"Polygon","coordinates":[[[22.39375,61.80625],[22.397917,61.80625],[22.397917,61.810417],[22.39375,61.810417],[22.39375,61.80625]]]},"properties":{"radiance":59.48}},{"type":"Feature","geometry":{"type":"Polygon","coordinates":[[[22.397917,61.80625],[22.402083,61.80625],[22.402083,61.810417],[22.397917,61.810417],[22.397917,61.80625]]]},"properties":{"radiance":42.73}},{"type":"Feature","geometry":{"type":"Polygon","coordinates":[[[22.402083,61.80625],[22.40625,61.80625],[22.40625,61.810417],[22.402083,61.810417],[22.402083,61.80625]]]},"properties":{"radiance":37.95}},{"type":"Feature","geometry":{"type":"Polygon","coordinates":[[[22.40625,61.80625],[22.410417,61.80625],[22.410417,61.810417],[22.40625,61.810417],[22.40625,61.80625]]]},"properties":{"radiance":34.48}},{"type":"Feature","geometry":{"type":"Polygon","coordinates":[[[22.410417,61.80625],[22.414583,61.80625],[22.414583,61.810417],[22.410417,61.810417],[22.410417,61.80625]]]},"properties":{"radiance":5.48}},{"type":"Feature","geometry":{"type":"Polygon","coordinates":[[[22.35625,61.802083],[22.360417,61.802083],[22.360417,61.80625],[22.35625,61.80625],[22.35625,61.802083]]]},"properties":{"radiance":5.25}},{"type":"Feature","geometry":{"type":"Polygon","coordinates":[[[22.360417,61.802083],[22.364583,61.802083],[22.364583,61.80625],[22.360417,61.80625],[22.360417,61.802083]]]},"properties":{"radiance":6.79}},{"type":"Feature","geometry":{"type":"Polygon","coordinates":[[[22.364583,61.802083],[22.36875,61.802083],[22.36875,61.80625],[22.364583,61.80625],[22.364583,61.802083]]]},"properties":{"radiance":7.73}},{"type":"Feature","geometry":{"type":"Polygon","coordinates":[[[22.36875,61.802083],[22.372917,61.802083],[22.372917,61.80625],[22.36875,61.80625],[22.36875,61.802083]]]},"properties":{"radiance":12.66}},{"type":"Feature","geometry":{"type":"Polygon","coordinates":[[[22.372917,61.802083],[22.377083,61.802083],[22.377083,61.80625],[22.372917,61.80625],[22.372917,61.802083]]]},"properties":{"radiance":16.68}},{"type":"Feature","geometry":{"type":"Polygon","coordinates":[[[22.377083,61.802083],[22.38125,61.802083],[22.38125,61.80625],[22.377083,61.80625],[22.377083,61.802083]]]},"properties":{"radiance":50.62}},{"type":"Feature","geometry":{"type":"Polygon","coordinates":[[[22.38125,61.802083],[22.385417,61.802083],[22.385417,61.80625],[22.38125,61.80625],[22.38125,61.802083]]]},"properties":{"radiance":50.44}},{"type":"Feature","geometry":{"type":"Polygon","coordinates":[[[22.385417,61.802083],[22.389583,61.802083],[22.389583,61.80625],[22.385417,61.80625],[22.385417,61.802083]]]},"properties":{"radiance":51.33}},{"type":"Feature","geometry":{"type":"Polygon","coordinates":[[[22.389583,61.802083],[22.39375,61.802083],[22.39375,61.80625],[22.389583,61.80625],[22.389583,61.802083]]]},"properties":{"radiance":49.94}},{"type":"Feature","geometry":{"type":"Polygon","coordinates":[[[22.39375,61.802083],[22.397917,61.802083],[22.397917,61.80625],[22.39375,61.80625],[22.39375,61.802083]]]},"properties":{"radiance":60.72}},{"type":"Feature","geometry":{"type":"Polygon","coordinates":[[[22.397917,61.802083],[22.402083,61.802083],[22.402083,61.80625],[22.397917,61.80625],[22.397917,61.802083]]]},"properties":{"radiance":50.71}},{"type":"Feature","geometry":{"type":"Polygon","coordinates":[[[22.402083,61.802083],[22.40625,61.802083],[22.40625,61.80625],[22.402083,61.80625],[22.402083,61.802083]]]},"properties":{"radiance":49.15}},{"type":"Feature","geometry":{"type":"Polygon","coordinates":[[[22.40625,61.802083],[22.410417,61.802083],[22.410417,61.80625],[22.40625,61.80625],[22.40625,61.802083]]]},"properties":{"radiance":11.94}},{"type":"Feature","geometry":{"type":"Polygon","coordinates":[[[22.410417,61.802083],[22.414583,61.802083],[22.414583,61.80625],[22.410417,61.80625],[22.410417,61.802083]]]},"properties":{"radiance":8.62}},{"type":"Feature","geometry":{"type":"Polygon","coordinates":[[[22.414583,61.802083],[22.41875,61.802083],[22.41875,61.80625],[22.414583,61.80625],[22.414583,61.802083]]]},"properties":{"radiance":6.55}},{"type":"Feature","geometry":{"type":"Polygon","coordinates":[[[22.41875,61.802083],[22.422917,61.802083],[22.422917,61.80625],[22.41875,61.80625],[22.41875,61.802083]]]},"properties":{"radiance":5.64}},{"type":"Feature","geometry":{"type":"Polygon","coordinates":[[[22.36875,61.797917],[22.372917,61.797917],[22.372917,61.802083],[22.36875,61.802083],[22.36875,61.797917]]]},"properties":{"radiance":7.79}},{"type":"Feature","geometry":{"type":"Polygon","coordinates":[[[22.372917,61.797917],[22.377083,61.797917],[22.377083,61.802083],[22.372917,61.802083],[22.372917,61.797917]]]},"properties":{"radiance":9.82}},{"type":"Feature","geometry":{"type":"Polygon","coordinates":[[[22.377083,61.797917],[22.38125,61.797917],[22.38125,61.802083],[22.377083,61.802083],[22.377083,61.797917]]]},"properties":{"radiance":29.77}},{"type":"Feature","geometry":{"type":"Polygon","coordinates":[[[22.38125,61.797917],[22.385417,61.797917],[22.385417,61.802083],[22.38125,61.802083],[22.38125,61.797917]]]},"properties":{"radiance":34.19}},{"type":"Feature","geometry":{"type":"Polygon","coordinates":[[[22.385417,61.797917],[22.389583,61.797917],[22.389583,61.802083],[22.385417,61.802083],[22.385417,61.797917]]]},"properties":{"radiance":40.18}},{"type":"Feature","geometry":{"type":"Polygon","coordinates":[[[22.389583,61.797917],[22.39375,61.797917],[22.39375,61.802083],[22.389583,61.802083],[22.389583,61.797917]]]},"properties":{"radiance":29.79}},{"type":"Feature","geometry":{"type":"Polygon","coordinates":[[[22.39375,61.797917],[22.397917,61.797917],[22.397917,61.802083],[22.39375,61.802083],[22.39375,61.797917]]]},"properties":{"radiance":7.67}},{"type":"Feature","geometry":{"type":"Polygon","coordinates":[[[22.397917,61.797917],[22.402083,61.797917],[22.402083,61.802083],[22.397917,61.802083],[22.397917,61.797917]]]},"properties":{"radiance":9.5}},{"type":"Feature","geometry":{"type":"Polygon","coordinates":[[[22.402083,61.797917],[22.40625,61.797917],[22.40625,61.802083],[22.402083,61.802083],[22.402083,61.797917]]]},"properties":{"radiance":9.09}},{"type":"Feature","geometry":{"type":"Polygon","coordinates":[[[22.40625,61.797917],[22.410417,61.797917],[22.410417,61.802083],[22.40625,61.802083],[22.40625,61.797917]]]},"properties":{"radiance":8.79}},{"type":"Feature","geometry":{"type":"Polygon","coordinates":[[[22.410417,61.797917],[22.414583,61.797917],[22.414583,61.802083],[22.410417,61.802083],[22.410417,61.797917]]]},"properties":{"radiance":8.39}},{"type":"Feature","geometry":{"type":"Polygon","coordinates":[[[22.414583,61.797917],[22.41875,61.797917],[22.41875,61.802083],[22.414583,61.802083],[22.414583,61.797917]]]},"properties":{"radiance":7.37}},{"type":"Feature","geometry":{"type":"Polygon","coordinates":[[[22.41875,61.797917],[22.422917,61.797917],[22.422917,61.802083],[22.41875,61.802083],[22.41875,61.797917]]]},"properties":{"radiance":5.18}},{"type":"Feature","geometry":{"type":"Polygon","coordinates":[[[22.447917,61.797917],[22.452083,61.797917],[22.452083,61.802083],[22.447917,61.802083],[22.447917,61.797917]]]},"properties":{"radiance":9.21}},{"type":"Feature","geometry":{"type":"Polygon","coordinates":[[[22.36875,61.79375],[22.372917,61.79375],[22.372917,61.797917],[22.36875,61.797917],[22.36875,61.79375]]]},"properties":{"radiance":5.14}},{"type":"Feature","geometry":{"type":"Polygon","coordinates":[[[22.372917,61.79375],[22.377083,61.79375],[22.377083,61.797917],[22.372917,61.797917],[22.372917,61.79375]]]},"properties":{"radiance":5.29}},{"type":"Feature","geometry":{"type":"Polygon","coordinates":[[[22.377083,61.79375],[22.38125,61.79375],[22.38125,61.797917],[22.377083,61.797917],[22.377083,61.79375]]]},"properties":{"radiance":5.48}},{"type":"Feature","geometry":{"type":"Polygon","coordinates":[[[22.38125,61.79375],[22.385417,61.79375],[22.385417,61.797917],[22.38125,61.797917],[22.38125,61.79375]]]},"properties":{"radiance":5.59}},{"type":"Feature","geometry":{"type":"Polygon","coordinates":[[[22.385417,61.79375],[22.389583,61.79375],[22.389583,61.797917],[22.385417,61.797917],[22.385417,61.79375]]]},"properties":{"radiance":5.51}},{"type":"Feature","geometry":{"type":"Polygon","coordinates":[[[22.389583,61.79375],[22.39375,61.79375],[22.39375,61.797917],[22.389583,61.797917],[22.389583,61.79375]]]},"properties":{"radiance":5.71}},{"type":"Feature","geometry":{"type":"Polygon","coordinates":[[[22.39375,61.79375],[22.397917,61.79375],[22.397917,61.797917],[22.39375,61.797917],[22.39375,61.79375]]]},"properties":{"radiance":5.23}},{"type":"Feature","geometry":{"type":"Polygon","coordinates":[[[22.397917,61.79375],[22.402083,61.79375],[22.402083,61.797917],[22.397917,61.797917],[22.397917,61.79375]]]},"properties":{"radiance":6.48}},{"type":"Feature","geometry":{"type":"Polygon","coordinates":[[[22.402083,61.79375],[22.40625,61.79375],[22.40625,61.797917],[22.402083,61.797917],[22.402083,61.79375]]]},"properties":{"radiance":7.46}},{"type":"Feature","geometry":{"type":"Polygon","coordinates":[[[22.40625,61.79375],[22.410417,61.79375],[22.410417,61.797917],[22.40625,61.797917],[22.40625,61.79375]]]},"properties":{"radiance":8.13}},{"type":"Feature","geometry":{"type":"Polygon","coordinates":[[[22.410417,61.79375],[22.414583,61.79375],[22.414583,61.797917],[22.410417,61.797917],[22.410417,61.79375]]]},"properties":{"radiance":8.09}},{"type":"Feature","geometry":{"type":"Polygon","coordinates":[[[22.414583,61.79375],[22.41875,61.79375],[22.41875,61.797917],[22.414583,61.797917],[22.414583,61.79375]]]},"properties":{"radiance":6.82}},{"type":"Feature","geometry":{"type":"Polygon","coordinates":[[[22.44375,61.79375],[22.447917,61.79375],[22.447917,61.797917],[22.44375,61.797917],[22.44375,61.79375]]]},"properties":{"radiance":6.35}},{"type":"Feature","geometry":{"type":"Polygon","coordinates":[[[22.447917,61.79375],[22.452083,61.79375],[22.452083,61.797917],[22.447917,61.797917],[22.447917,61.79375]]]},"properties":{"radiance":9.81}},{"type":"Feature","geometry":{"type":"Polygon","coordinates":[[[22.452083,61.79375],[22.45625,61.79375],[22.45625,61.797917],[22.452083,61.797917],[22.452083,61.79375]]]},"properties":{"radiance":16.63}},{"type":"Feature","geometry":{"type":"Polygon","coordinates":[[[22.45625,61.79375],[22.460417,61.79375],[22.460417,61.797917],[22.45625,61.797917],[22.45625,61.79375]]]},"properties":{"radiance":16.4}},{"type":"Feature","geometry":{"type":"Polygon","coordinates":[[[22.460417,61.79375],[22.464583,61.79375],[22.464583,61.797917],[22.460417,61.797917],[22.460417,61.79375]]]},"properties":{"radiance":6.68}},{"type":"Feature","geometry":{"type":"Polygon","coordinates":[[[22.460417,61.789583],[22.464583,61.789583],[22.464583,61.79375],[22.460417,61.79375],[22.460417,61.789583]]]},"properties":{"radiance":5.42}},{"type":"Feature","geometry":{"type":"Polygon","coordinates":[[[22.010417,61.702083],[22.014583,61.702083],[22.014583,61.70625],[22.010417,61.70625],[22.010417,61.702083]]]},"properties":{"radiance":5.2}},{"type":"Feature","geometry":{"type":"Polygon","coordinates":[[[21.997917,61.697917],[22.002083,61.697917],[22.002083,61.702083],[21.997917,61.702083],[21.997917,61.697917]]]},"properties":{"radiance":6.2}},{"type":"Feature","geometry":{"type":"Polygon","coordinates":[[[22.00625,61.697917],[22.010417,61.697917],[22.010417,61.702083],[22.00625,61.702083],[22.00625,61.697917]]]},"properties":{"radiance":5.96}},{"type":"Feature","geometry":{"type":"Polygon","coordinates":[[[21.997917,61.69375],[22.002083,61.69375],[22.002083,61.697917],[21.997917,61.697917],[21.997917,61.69375]]]},"properties":{"radiance":5.57}},{"type":"Feature","geometry":{"type":"Polygon","coordinates":[[[22.002083,61.69375],[22.00625,61.69375],[22.00625,61.697917],[22.002083,61.697917],[22.002083,61.69375]]]},"properties":{"radiance":5.3}},{"type":"Feature","geometry":{"type":"Polygon","coordinates":[[[22.00625,61.69375],[22.010417,61.69375],[22.010417,61.697917],[22.00625,61.697917],[22.00625,61.69375]]]},"properties":{"radiance":5.66}}]}