{"type":"FeatureCollection","features":[{"type":"Feature","geometry":{"type":"Polygon","coordinates":[[[26.83125,64.572917],[26.835417,64.572917],[26.835417,64.577083],[26.83125,64.577083],[26.83125,64.572917]]]},"properties":{"radiance":6.8}},{"type":"Feature","geometry":{"type":"Polygon","coordinates":[[[26.835417,64.572917],[26.839583,64.572917],[26.839583,64.577083],[26.835417,64.577083],[26.835417,64.572917]]]},"properties":{"radiance":10.09}},{"type":"Feature","geometry":{"type":"Polygon","coordinates":[[[26.83125,64.56875],[26.835417,64.56875],[26.835417,64.572917],[26.83125,64.572917],[26.83125,64.56875]]]},"properties":{"radiance":6.44}},{"type":"Feature","geometry":{"type":"Polygon","coordinates":[[[26.835417,64.56875],[26.839583,64.56875],[26.839583,64.572917],[26.835417,64.572917],[26.835417,64.56875]]]},"properties":{"radiance":7.45}},{"type":"Feature","geometry":{"type":"Polygon","coordinates":[[[26.839583,64.56875],[26.84375,64.56875],[26.84375,64.572917],[26.839583,64.572917],[26.839583,64.56875]]]},"properties":{"radiance":6.27}},{"type":"Feature","geometry":{"type":"Polygon","coordinates":[[[26.86875,64.56875],[26.872917,64.56875],[26.872917,64.572917],[26.86875,64.572917],[26.86875,64.56875]]]},"properties":{"radiance":5.53}},{"type":"Feature","geometry":{"type":"Polygon","coordinates":[[[26.872917,64.56875],[26.877083,64.56875],[26.877083,64.572917],[26.872917,64.572917],[26.872917,64.56875]]]},"properties":{"radiance":6.1}},{"type":"Feature","geometry":{"type":"Polygon","coordinates":[[[26.877083,64.56875],[26.88125,64.56875],[26.88125,64.572917],[26.877083,64.572917],[26.877083,64.56875]]]},"properties":{"radiance":5.39}},{"type":"Feature","geometry":{"type":"Polygon","coordinates":[[[26.827083,64.564583],[26.83125,64.564583],[26.83125,64.56875],[26.827083,64.56875],[26.827083,64.564583]]]},"properties":{"radiance":14.03}},{"type":"Feature","geometry":{"type":"Polygon","coordinates":[[[26.83125,64.564583],[26.835417,64.564583],[26.835417,64.56875],[26.83125,64.56875],[26.83125,64.564583]]]},"properties":{"radiance":9.74}},{"type":"Feature","geometry":{"type":"Polygon","coordinates":[[[26.835417,64.564583],[26.839583,64.564583],[26.839583,64.56875],[26.835417,64.56875],[26.835417,64.564583]]]},"properties":{"radiance":9.14}},{"type":"Feature","geometry":{"type":"Polygon","coordinates":[[[26.839583,64.564583],[26.84375,64.564583],[26.84375,64.56875],[26.839583,64.56875],[26.839583,64.564583]]]},"properties":{"radiance":12.75}},{"type":"Feature","geometry":{"type":"Polygon","coordinates":[[[26.84375,64.564583],[26.847917,64.564583],[26.847917,64.56875],[26.84375,64.56875],[26.84375,64.564583]]]},"properties":{"radiance":8.55}},{"type":"Feature","geometry":{"type":"Polygon","coordinates":[[[26.847917,64.564583],[26.852083,64.564583],[26.852083,64.56875],[26.847917,64.56875],[26.847917,64.564583]]]},"properties":{"radiance":11.22}},{"type":"Feature","geometry":{"type":"Polygon","coordinates":[[[26.852083,64.564583],[26.85625,64.564583],[26.85625,64.56875],[26.852083,64.56875],[26.852083,64.564583]]]},"properties":{"radiance":7.93}},{"type":"Feature","geometry":{"type":"Polygon","coordinates":[[[26.860417,64.564583],[26.864583,64.564583],[26.864583,64.56875],[26.860417,64.56875],[26.860417,64.564583]]]},"properties":{"radiance":6.87}},{"type":"Feature","geometry":{"type":"Polygon","coordinates":[[[26.864583,64.564583],[26.86875,64.564583],[26.86875,64.56875],[26.864583,64.56875],[26.864583,64.564583]]]},"properties":{"radiance":5.87}},{"type":"Feature","geometry":{"type":"Polygon","coordinates":[[[26.86875,64.564583],[26.872917,64.564583],[26.872917,64.56875],[26.86875,64.56875],[26.86875,64.564583]]]},"properties":{"radiance":6.81}},{"type":"Feature","geometry":{"type":"Polygon","coordinates":[[[26.822917,64.560417],[26.827083,64.560417],[26.827083,64.564583],[26.822917,64.564583],[26.822917,64.560417]]]},"properties":{"radiance":10.57}},{"type":"Feature","geometry":{"type":"Polygon","coordinates":[[[26.827083,64.560417],[26.83125,64.560417],[26.83125,64.564583],[26.827083,64.564583],[26.827083,64.560417]]]},"properties":{"radiance":10.69}},{"type":"Feature","geometry":{"type":"Polygon","coordinates":[[[26.83125,64.560417],[26.835417,64.560417],[26.835417,64.564583],[26.83125,64.564583],[26.83125,64.560417]]]},"properties":{"radiance":17.56}},{"type":"Feature","geometry":{"type":"Polygon","coordinates":[[[26.835417,64.560417],[26.839583,64.560417],[26.839583,64.564583],[26.835417,64.564583],[26.835417,64.560417]]]},"properties":{"radiance":17.59}},{"type":"Feature","geometry":{"type":"Polygon","coordinates":[[[26.839583,64.560417],[26.84375,64.560417],[26.84375,64.564583],[26.839583,64.564583],[26.839583,64.560417]]]},"properties":{"radiance":13.02}},{"type":"Feature","geometry":{"type":"Polygon","coordinates":[[[26.84375,64.560417],[26.847917,64.560417],[26.847917,64.564583],[26.84375,64.564583],[26.84375,64.560417]]]},"properties":{"radiance":12.92}},{"type":"Feature","geometry":{"type":"Polygon","coordinates":[[[26.847917,64.560417],[26.852083,64.560417],[26.852083,64.564583],[26.847917,64.564583],[26.847917,64.560417]]]},"properties":{"radiance":8.52}},{"type":"Feature","geometry":{"type":"Polygon","coordinates":[[[26.852083,64.560417],[26.85625,64.560417],[26.85625,64.564583],[26.852083,64.564583],[26.852083,64.560417]]]},"properties":{"radiance":6.07}},{"type":"Feature","geometry":{"type":"Polygon","coordinates":[[[26.85625,64.560417],[26.860417,64.560417],[26.860417,64.564583],[26.85625,64.564583],[26.85625,64.560417]]]},"properties":{"radiance":6.16}},{"type":"Feature","geometry":{"type":"Polygon","coordinates":[[[26.860417,64.560417],[26.864583,64.560417],[26.864583,64.564583],[26.860417,64.564583],[26.860417,64.560417]]]},"properties":{"radiance":6.29}},{"type":"Feature","geometry":{"type":"Polygon","coordinates":[[[26.810417,64.55625],[26.814583,64.55625],[26.814583,64.560417],[26.810417,64.560417],[26.810417,64.55625]]]},"properties":{"radiance":6.61}},{"type":"Feature","geometry":{"type":"Polygon","coordinates":[[[26.814583,64.55625],[26.81875,64.55625],[26.81875,64.560417],[26.814583,64.560417],[26.814583,64.55625]]]},"properties":{"radiance":5.2}},{"type":"Feature","geometry":{"type":"Polygon","coordinates":[[[26.81875,64.55625],[26.822917,64.55625],[26.822917,64.560417],[26.81875,64.560417],[26.81875,64.55625]]]},"properties":{"radiance":8.74}},{"type":"Feature","geometry":{"type":"Polygon","coordinates":[[[26.822917,64.55625],[26.827083,64.55625],[26.827083,64.560417],[26.822917,64.560417],[26.822917,64.55625]]]},"properties":{"radiance":8.68}},{"type":"Feature","geometry":{"type":"Polygon","coordinates":[[[26.827083,64.55625],[26.83125,64.55625],[26.83125,64.560417],[26.827083,64.560417],[26.827083,64.55625]]]},"properties":{"radiance":8.87}},{"type":"Feature","geometry":{"type":"Polygon","coordinates":[[[26.83125,64.55625],[26.835417,64.55625],[26.835417,64.560417],[26.83125,64.560417],[26.83125,64.55625]]]},"properties":{"radiance":6.14}},{"type":"Feature","geometry":{"type":"Polygon","coordinates":[[[26.835417,64.55625],[26.839583,64.55625],[26.839583,64.560417],[26.835417,64.560417],[26.835417,64.55625]]]},"properties":{"radiance":5.02}},{"type":"Feature","geometry":{"type":"Polygon","coordinates":[[[26.839583,64.55625],[26.84375,64.55625],[26.84375,64.560417],[26.839583,64.560417],[26.839583,64.55625]]]},"properties":{"radiance":5.34}},{"type":"Feature","geometry":{"type":"Polygon","coordinates":[[[26.84375,64.55625],[26.847917,64.55625],[26.847917,64.560417],[26.84375,64.560417],[26.84375,64.55625]]]},"properties":{"radiance":5.05}},{"type":"Feature","geometry":{"type":"Polygon","coordinates":[[[26.847917,64.55625],[26.852083,64.55625],[26.852083,64.560417],[26.847917,64.560417],[26.847917,64.55625]]]},"properties":{"radiance":8.74}},{"type":"Feature","geometry":{"type":"Polygon","coordinates":[[[26.827083,64.552083],[26.83125,64.552083],[26.83125,64.55625],[26.827083,64.55625],[26.827083,64.552083]]]},"properties":{"radiance":7.98}},{"type":"Feature","geometry":{"type":"Polygon","coordinates":[[[26.83125,64.552083],[26.835417,64.552083],[26.835417,64.55625],[26.83125,64.55625],[26.83125,64.552083]]]},"properties":{"radiance":6.48}},{"type":"Feature","geometry":{"type":"Polygon","coordinates":[[[26.814583,64.547917],[26.81875,64.547917],[26.81875,64.552083],[26.814583,64.552083],[26.814583,64.547917]]]},"properties":{"radiance":5.05}},{"type":"Feature","geometry":{"type":"Polygon","coordinates":[[[26.81875,64.547917],[26.822917,64.547917],[26.822917,64.552083],[26.81875,64.552083],[26.81875,64.547917]]]},"properties":{"radiance":5.21}},{"type":"Feature","geometry":{"type":"Polygon","coordinates":[[[25.664583,64.527083],[25.66875,64.527083],[25.66875,64.53125],[25.664583,64.53125],[25.664583,64.527083]]]},"properties":{"radiance":8.01}},{"type":"Feature","geometry":{"type":"Polygon","coordinates":[[[25.647917,64.50625],[25.652083,64.50625],[25.652083,64.510417],[25.647917,64.510417],[25.647917,64.50625]]]},"properties":{"radiance":5.95}},{"type":"Feature","geometry":{"type":"Polygon","coordinates":[[[26.422917,64.502083],[26.427083,64.502083],[26.427083,64.50625],[26.422917,64.50625],[26.422917,64.502083]]]},"properties":{"radiance":5.18}},{"type":"Feature","geometry":{"type":"Polygon","coordinates":[[[26.427083,64.502083],[26.43125,64.502083],[26.43125,64.50625],[26.427083,64.50625],[26.427083,64.502083]]]},"properties":{"radiance":31.88}},{"type":"Feature","geometry":{"type":"Polygon","coordinates":[[[26.43125,64.502083],[26.435417,64.502083],[26.435417,64.50625],[26.43125,64.50625],[26.43125,64.502083]]]},"properties":{"radiance":31.49}},{"type":"Feature","geometry":{"type":"Polygon","coordinates":[[[26.435417,64.502083],[26.439583,64.502083],[26.439583,64.50625],[26.435417,64.50625],[26.435417,64.502083]]]},"properties":{"radiance":8.36}},{"type":"Feature","geometry":{"type":"Polygon","coordinates":[[[26.439583,64.502083],[26.44375,64.502083],[26.44375,64.50625],[26.439583,64.50625],[26.439583,64.502083]]]},"properties":{"radiance":6.61}},{"type":"Feature","geometry":{"type":"Polygon","coordinates":[[[26.43125,64.497917],[26.435417,64.497917],[26.435417,64.502083],[26.43125,64.502083],[26.43125,64.497917]]]},"properties":{"radiance":6.32}},{"type":"Feature","geometry":{"type":"Polygon","coordinates":[[[26.435417,64.497917],[26.439583,64.497917],[26.439583,64.502083],[26.435417,64.502083],[26.435417,64.497917]]]},"properties":{"radiance":5.41}},{"type":"Feature","geometry":{"type":"Polygon","coordinates":[[[25.852083,64.377083],[25.85625,64.377083],[25.85625,64.38125],[25.852083,64.38125],[25.852083,64.377083]]]},"properties":{"radiance":5.69}},{"type":"Feature","geometry":{"type":"Polygon","coordinates":[[[25.860417,64.377083],[25.864583,64.377083],[25.864583,64.38125],[25.860417,64.38125],[25.860417,64.377083]]]},"properties":{"radiance":6.99}},{"type":"Feature","geometry":{"type":"Polygon","coordinates":[[[25.864583,64.377083],[25.86875,64.377083],[25.86875,64.38125],[25.864583,64.38125],[25.864583,64.377083]]]},"properties":{"radiance":5.89}},{"type":"Feature","geometry":{"type":"Polygon","coordinates":[[[25.860417,64.372917],[25.864583,64.372917],[25.864583,64.377083],[25.860417,64.377083],[25.860417,64.372917]]]},"properties":{"radiance":6.26}},{"type":"Feature","geometry":{"type":"Polygon","coordinates":[[[25.864583,64.372917],[25.86875,64.372917],[25.86875,64.377083],[25.864583,64.377083],[25.864583,64.372917]]]},"properties":{"radiance":6.94}},{"type":"Feature","geometry":{"type":"Polygon","coordinates":[[[25.877083,64.36875],[25.88125,64.36875],[25.88125,64.372917],[25.877083,64.372917],[25.877083,64.36875]]]},"properties":{"radiance":5.15}},{"type":"Feature","geometry":{"type":"Polygon","coordinates":[[[25.88125,64.36875],[25.885417,64.36875],[25.885417,64.372917],[25.88125,64.372917],[25.88125,64.36875]]]},"properties":{"radiance":7.35}},{"type":"Feature","geometry":{"type":"Polygon","coordinates":[[[25.885417,64.36875],[25.889583,64.36875],[25.889583,64.372917],[25.885417,64.372917],[25.885417,64.36875]]]},"properties":{"radiance":6.7}},{"type":"Feature","geometry":{"type":"Polygon","coordinates":[[[25.877083,64.364583],[25.88125,64.364583],[25.88125,64.36875],[25.877083,64.36875],[25.877083,64.364583]]]},"properties":{"radiance":5.01}},{"type":"Feature","geometry":{"type":"Polygon","coordinates":[[[25.88125,64.364583],[25.885417,64.364583],[25.885417,64.36875],[25.88125,64.36875],[25.88125,64.364583]]]},"properties":{"radiance":5.33}},{"type":"Feature","geometry":{"type":"Polygon","coordinates":[[[26.272917,64.35625],[26.277083,64.35625],[26.277083,64.360417],[26.272917,64.360417],[26.272917,64.35625]]]},"properties":{"radiance":5.52}},{"type":"Feature","geometry":{"type":"Polygon","coordinates":[[[26.264583,64.352083],[26.26875,64.352083],[26.26875,64.35625],[26.264583,64.35625],[26.264583,64.352083]]]},"properties":{"radiance":8.03}},{"type":"Feature","geometry":{"type":"Polygon","coordinates":[[[26.26875,64.352083],[26.272917,64.352083],[26.272917,64.35625],[26.26875,64.35625],[26.26875,64.352083]]]},"properties":{"radiance":12.54}},{"type":"Feature","geometry":{"type":"Polygon","coordinates":[[[26.272917,64.352083],[26.277083,64.352083],[26.277083,64.35625],[26.272917,64.35625],[26.272917,64.352083]]]},"properties":{"radiance":22.98}},{"type":"Feature","geometry":{"type":"Polygon","coordinates":[[[26.277083,64.352083],[26.28125,64.352083],[26.28125,64.35625],[26.277083,64.35625],[26.277083,64.352083]]]},"properties":{"radiance":25.19}},{"type":"Feature","geometry":{"type":"Polygon","coordinates":[[[26.28125,64.352083],[26.285417,64.352083],[26.285417,64.35625],[26.28125,64.35625],[26.28125,64.352083]]]},"properties":{"radiance":20.07}},{"type":"Feature","geometry":{"type":"Polygon","coordinates":[[[26.285417,64.352083],[26.289583,64.352083],[26.289583,64.35625],[26.285417,64.35625],[26.285417,64.352083]]]},"properties":{"radiance":6.76}},{"type":"Feature","geometry":{"type":"Polygon","coordinates":[[[26.289583,64.352083],[26.29375,64.352083],[26.29375,64.35625],[26.289583,64.35625],[26.289583,64.352083]]]},"properties":{"radiance":5.26}},{"type":"Feature","geometry":{"type":"Polygon","coordinates":[[[26.260417,64.347917],[26.264583,64.347917],[26.264583,64.352083],[26.260417,64.352083],[26.260417,64.347917]]]},"properties":{"radiance":7.45}},{"type":"Feature","geometry":{"type":"Polygon","coordinates":[[[26.264583,64.347917],[26.26875,64.347917],[26.26875,64.352083],[26.264583,64.352083],[26.264583,64.347917]]]},"properties":{"radiance":7.95}},{"type":"Feature","geometry":{"type":"Polygon","coordinates":[[[26.26875,64.347917],[26.272917,64.347917],[26.272917,64.352083],[26.26875,64.352083],[26.26875,64.347917]]]},"properties":{"radiance":6.95}},{"type":"Feature","geometry":{"type":"Polygon","coordinates":[[[26.272917,64.347917],[26.277083,64.347917],[26.277083,64.352083],[26.272917,64.352083],[26.272917,64.347917]]]},"properties":{"radiance":16.64}},{"type":"Feature","geometry":{"type":"Polygon","coordinates":[[[26.277083,64.347917],[26.28125,64.347917],[26.28125,64.352083],[26.277083,64.352083],[26.277083,64.347917]]]},"properties":{"radiance":13.84}},{"type":"Feature","geometry":{"type":"Polygon","coordinates":[[[26.28125,64.347917],[26.285417,64.347917],[26.285417,64.352083],[26.28125,64.352083],[26.28125,64.347917]]]},"properties":{"radiance":5.02}},{"type":"Feature","geometry":{"type":"Polygon","coordinates":[[[26.260417,64.34375],[26.264583,64.34375],[26.264583,64.347917],[26.260417,64.347917],[26.260417,64.34375]]]},"properties":{"radiance":6.8}},{"type":"Feature","geometry":{"type":"Polygon","coordinates":[[[26.264583,64.34375],[26.26875,64.34375],[26.26875,64.347917],[26.264583,64.347917],[26.264583,64.34375]]]},"properties":{"radiance":6.77}},{"type":"Feature","geometry":{"type":"Polygon","coordinates":[[[26.272917,64.34375],[26.277083,64.34375],[26.277083,64.347917],[26.272917,64.347917],[26.272917,64.34375]]]},"properties":{"radiance":11.76}},{"type":"Feature","geometry":{"type":"Polygon","coordinates":[[[25.864583,64.285417],[25.86875,64.285417],[25.86875,64.289583],[25.864583,64.289583],[25.864583,64.285417]]]},"properties":{"radiance":8.32}},{"type":"Feature","geometry":{"type":"Polygon","coordinates":[[[25.86875,64.285417],[25.872917,64.285417],[25.872917,64.289583],[25.86875,64.289583],[25.86875,64.285417]]]},"properties":{"radiance":11.2}},{"type":"Feature","geometry":{"type":"Polygon","coordinates":[[[25.872917,64.285417],[25.877083,64.285417],[25.877083,64.289583],[25.872917,64.289583],[25.872917,64.285417]]]},"properties":{"radiance":10.75}},{"type":"Feature","geometry":{"type":"Polygon","coordinates":[[[25.877083,64.285417],[25.88125,64.285417],[25.88125,64.289583],[25.877083,64.289583],[25.877083,64.285417]]]},"properties":{"radiance":8.92}},{"type":"Feature","geometry":{"type":"Polygon","coordinates":[[[25.864583,64.28125],[25.86875,64.28125],[25.86875,64.285417],[25.864583,64.285417],[25.864583,64.28125]]]},"properties":{"radiance":9.81}},{"type":"Feature","geometry":{"type":"Polygon","coordinates":[[[25.86875,64.28125],[25.872917,64.28125],[25.872917,64.285417],[25.86875,64.285417],[25.86875,64.28125]]]},"properties":{"radiance":10.22}},{"type":"Feature","geometry":{"type":"Polygon","coordinates":[[[25.872917,64.28125],[25.877083,64.28125],[25.877083,64.285417],[25.872917,64.285417],[25.872917,64.28125]]]},"properties":{"radiance":9.24}},{"type":"Feature","geometry":{"type":"Polygon","coordinates":[[[25.877083,64.28125],[25.88125,64.28125],[25.88125,64.285417],[25.877083,64.285417],[25.877083,64.28125]]]},"properties":{"radiance":7.3}},{"type":"Feature","geometry":{"type":"Polygon","coordinates":[[[25.88125,64.28125],[25.885417,64.28125],[25.885417,64.285417],[25.88125,64.285417],[25.88125,64.28125]]]},"properties":{"radiance":6.74}},{"type":"Feature","geometry":{"type":"Polygon","coordinates":[[[25.889583,64.28125],[25.89375,64.28125],[25.89375,64.285417],[25.889583,64.285417],[25.889583,64.28125]]]},"properties":{"radiance":6.73}},{"type":"Feature","geometry":{"type":"Polygon","coordinates":[[[25.860417,64.277083],[25.864583,64.277083],[25.864583,64.28125],[25.860417,64.28125],[25.860417,64.277083]]]},"properties":{"radiance":11.61}},{"type":"Feature","geometry":{"type":"Polygon","coordinates":[[[25.864583,64.277083],[25.86875,64.277083],[25.86875,64.28125],[25.864583,64.28125],[25.864583,64.277083]]]},"properties":{"radiance":11.72}},{"type":"Feature","geometry":{"type":"Polygon","coordinates":[[[25.872917,64.277083],[25.877083,64.277083],[25.877083,64.28125],[25.872917,64.28125],[25.872917,64.277083]]]},"properties":{"radiance":5.11}},{"type":"Feature","geometry":{"type":"Polygon","coordinates":[[[25.885417,64.277083],[25.889583,64.277083],[25.889583,64.28125],[25.885417,64.28125],[25.885417,64.277083]]]},"properties":{"radiance":5.09}},{"type":"Feature","geometry":{"type":"Polygon","coordinates":[[[25.852083,64.272917],[25.85625,64.272917],[25.85625,64.277083],[25.852083,64.277083],[25.852083,64.272917]]]},"properties":{"radiance":11.31}},{"type":"Feature","geometry":{"type":"Polygon","coordinates":[[[25.85625,64.272917],[25.860417,64.272917],[25.860417,64.277083],[25.85625,64.277083],[25.85625,64.272917]]]},"properties":{"radiance":13.9}},{"type":"Feature","geometry":{"type":"Polygon","coordinates":[[[25.860417,64.272917],[25.864583,64.272917],[25.864583,64.277083],[25.860417,64.277083],[25.860417,64.272917]]]},"properties":{"radiance":12.72}},{"type":"Feature","geometry":{"type":"Polygon","coordinates":[[[25.864583,64.272917],[25.86875,64.272917],[25.86875,64.277083],[25.864583,64.277083],[25.864583,64.272917]]]},"properties":{"radiance":11.69}},{"type":"Feature","geometry":{"type":"Polygon","coordinates":[[[25.847917,64.26875],[25.852083,64.26875],[25.852083,64.272917],[25.847917,64.272917],[25.847917,64.26875]]]},"properties":{"radiance":7.71}},{"type":"Feature","geometry":{"type":"Polygon","coordinates":[[[25.852083,64.26875],[25.85625,64.26875],[25.85625,64.272917],[25.852083,64.272917],[25.852083,64.26875]]]},"properties":{"radiance":11.43}},{"type":"Feature","geometry":{"type":"Polygon","coordinates":[[[25.85625,64.26875],[25.860417,64.26875],[25.860417,64.272917],[25.85625,64.272917],[25.85625,64.26875]]]},"properties":{"radiance":12.49}},{"type":"Feature","geometry":{"type":"Polygon","coordinates":[[[25.860417,64.26875],[25.864583,64.26875],[25.864583,64.272917],[25.860417,64.272917],[25.860417,64.26875]]]},"properties":{"radiance":10.85}},{"type":"Feature","geometry":{"type":"Polygon","coordinates":[[[25.864583,64.26875],[25.86875,64.26875],[25.86875,64.272917],[25.864583,64.272917],[25.864583,64.26875]]]},"properties":{"radiance":7.36}},{"type":"Feature","geometry":{"type":"Polygon","coordinates":[[[25.86875,64.26875],[25.872917,64.26875],[25.872917,64.272917],[25.86875,64.272917],[25.86875,64.26875]]]},"properties":{"radiance":5.54}},{"type":"Feature","geometry":{"type":"Polygon","coordinates":[[[25.85625,64.264583],[25.860417,64.264583],[25.860417,64.26875],[25.85625,64.26875],[25.85625,64.264583]]]},"properties":{"radiance":6.95}},{"type":"Feature","geometry":{"type":"Polygon","coordinates":[[[25.860417,64.264583],[25.864583,64.264583],[25.864583,64.26875],[25.860417,64.26875],[25.860417,64.264583]]]},"properties":{"radiance":6.93}},{"type":"Feature","geometry":{"type":"Polygon","coordinates":[[[25.864583,64.264583],[25.86875,64.264583],[25.86875,64.26875],[25.864583,64.26875],[25.864583,64.264583]]]},"properties":{"radiance":7.83}},{"type":"Feature","geometry":{"type":"Polygon","coordinates":[[[25.86875,64.264583],[25.872917,64.264583],[25.872917,64.26875],[25.86875,64.26875],[25.86875,64.264583]]]},"properties":{"radiance":5.46}},{"type":"Feature","geometry":{"type":"Polygon","coordinates":[[[25.947917,64.18125],[25.952083,64.18125],[25.952083,64.185417],[25.947917,64.185417],[25.947917,64.18125]]]},"properties":{"radiance":5.72}},{"type":"Feature","geometry":{"type":"Polygon","coordinates":[[[25.952083,64.18125],[25.95625,64.18125],[25.95625,64.185417],[25.952083,64.185417],[25.952083,64.18125]]]},"properties":{"radiance":5.74}},{"type":"Feature","geometry":{"type":"Polygon","coordinates":[[[25.95625,64.18125],[25.960417,64.18125],[25.960417,64.185417],[25.95625,64.185417],[25.95625,64.18125]]]},"properties":{"radiance":5.21}},{"type":"Feature","geometry":{"type":"Polygon","coordinates":[[[25.95625,64.177083],[25.960417,64.177083],[25.960417,64.18125],[25.95625,64.18125],[25.95625,64.177083]]]},"properties":{"radiance":5.98}},{"type":"Feature","geometry":{"type":"Polygon","coordinates":[[[25.960417,64.177083],[25.964583,64.177083],[25.964583,64.18125],[25.960417,64.18125],[25.960417,64.177083]]]},"properties":{"radiance":5.72}},{"type":"Feature","geometry":{"type":"Polygon","coordinates":[[[25.964583,64.177083],[25.96875,64.177083],[25.96875,64.18125],[25.964583,64.18125],[25.964583,64.177083]]]},"properties":{"radiance":5.86}},{"type":"Feature","geometry":{"type":"Polygon","coordinates":[[[25.972917,64.177083],[25.977083,64.177083],[25.977083,64.18125],[25.972917,64.18125],[25.972917,64.177083]]]},"properties":{"radiance":5.17}},{"type":"Feature","geometry":{"type":"Polygon","coordinates":[[[26.43125,64.172917],[26.435417,64.172917],[26.435417,64.177083],[26.43125,64.177083],[26.43125,64.172917]]]},"properties":{"radiance":5.77}},{"type":"Feature","geometry":{"type":"Polygon","coordinates":[[[26.435417,64.164583],[26.439583,64.164583],[26.439583,64.16875],[26.435417,64.16875],[26.435417,64.164583]]]},"properties":{"radiance":5.13}},{"type":"Feature","geometry":{"type":"Polygon","coordinates":[[[25.360417,64.152083],[25.364583,64.152083],[25.364583,64.15625],[25.360417,64.15625],[25.360417,64.152083]]]},"properties":{"radiance":8.73}},{"type":"Feature","geometry":{"type":"Polygon","coordinates":[[[25.364583,64.152083],[25.36875,64.152083],[25.36875,64.15625],[25.364583,64.15625],[25.364583,64.152083]]]},"properties":{"radiance":9}},{"type":"Feature","geometry":{"type":"Polygon","coordinates":[[[25.36875,64.152083],[25.372917,64.152083],[25.372917,64.15625],[25.36875,64.15625],[25.36875,64.152083]]]},"properties":{"radiance":9.68}},{"type":"Feature","geometry":{"type":"Polygon","coordinates":[[[25.372917,64.152083],[25.377083,64.152083],[25.377083,64.15625],[25.372917,64.15625],[25.372917,64.152083]]]},"properties":{"radiance":6.21}},{"type":"Feature","geometry":{"type":"Polygon","coordinates":[[[25.377083,64.152083],[25.38125,64.152083],[25.38125,64.15625],[25.377083,64.15625],[25.377083,64.152083]]]},"properties":{"radiance":9.67}},{"type":"Feature","geometry":{"type":"Polygon","coordinates":[[[25.38125,64.152083],[25.385417,64.152083],[25.385417,64.15625],[25.38125,64.15625],[25.38125,64.152083]]]},"properties":{"radiance":9.8}},{"type":"Feature","geometry":{"type":"Polygon","coordinates":[[[25.385417,64.152083],[25.389583,64.152083],[25.389583,64.15625],[25.385417,64.15625],[25.385417,64.152083]]]},"properties":{"radiance":8.56}},{"type":"Feature","geometry":{"type":"Polygon","coordinates":[[[25.389583,64.152083],[25.39375,64.152083],[25.39375,64.15625],[25.389583,64.15625],[25.389583,64.152083]]]},"properties":{"radiance":8}},{"type":"Feature","geometry":{"type":"Polygon","coordinates":[[[25.39375,64.152083],[25.397917,64.152083],[25.397917,64.15625],[25.39375,64.15625],[25.39375,64.152083]]]},"properties":{"radiance":5.03}},{"type":"Feature","geometry":{"type":"Polygon","coordinates":[[[25.35625,64.147917],[25.360417,64.147917],[25.360417,64.152083],[25.35625,64.152083],[25.35625,64.147917]]]},"properties":{"radiance":6.24}},{"type":"Feature","geometry":{"type":"Polygon","coordinates":[[[25.360417,64.147917],[25.364583,64.147917],[25.364583,64.152083],[25.360417,64.152083],[25.360417,64.147917]]]},"properties":{"radiance":12.57}},{"type":"Feature","geometry":{"type":"Polygon","coordinates":[[[25.364583,64.147917],[25.36875,64.147917],[25.36875,64.152083],[25.364583,64.152083],[25.364583,64.147917]]]},"properties":{"radiance":21.58}},{"type":"Feature","geometry":{"type":"Polygon","coordinates":[[[25.36875,64.147917],[25.372917,64.147917],[25.372917,64.152083],[25.36875,64.152083],[25.36875,64.147917]]]},"properties":{"radiance":40.53}},{"type":"Feature","geometry":{"type":"Polygon","coordinates":[[[25.372917,64.147917],[25.377083,64.147917],[25.377083,64.152083],[25.372917,64.152083],[25.372917,64.147917]]]},"properties":{"radiance":31.35}},{"type":"Feature","geometry":{"type":"Polygon","coordinates":[[[25.377083,64.147917],[25.38125,64.147917],[25.38125,64.152083],[25.377083,64.152083],[25.377083,64.147917]]]},"properties":{"radiance":21.07}},{"type":"Feature","geometry":{"type":"Polygon","coordinates":[[[25.38125,64.147917],[25.385417,64.147917],[25.385417,64.152083],[25.38125,64.152083],[25.38125,64.147917]]]},"properties":{"radiance":23.04}},{"type":"Feature","geometry":{"type":"Polygon","coordinates":[[[25.385417,64.147917],[25.389583,64.147917],[25.389583,64.152083],[25.385417,64.152083],[25.385417,64.147917]]]},"properties":{"radiance":16.14}},{"type":"Feature","geometry":{"type":"Polygon","coordinates":[[[25.34375,64.14375],[25.347917,64.14375],[25.347917,64.147917],[25.34375,64.147917],[25.34375,64.14375]]]},"properties":{"radiance":6.09}},{"type":"Feature","geometry":{"type":"Polygon","coordinates":[[[25.347917,64.14375],[25.352083,64.14375],[25.352083,64.147917],[25.347917,64.147917],[25.347917,64.14375]]]},"properties":{"radiance":6.92}},{"type":"Feature","geometry":{"type":"Polygon","coordinates":[[[25.352083,64.14375],[25.35625,64.14375],[25.35625,64.147917],[25.352083,64.147917],[25.352083,64.14375]]]},"properties":{"radiance":8.54}},{"type":"Feature","geometry":{"type":"Polygon","coordinates":[[[25.35625,64.14375],[25.360417,64.14375],[25.360417,64.147917],[25.35625,64.147917],[25.35625,64.14375]]]},"properties":{"radiance":9.38}},{"type":"Feature","geometry":{"type":"Polygon","coordinates":[[[25.360417,64.14375],[25.364583,64.14375],[25.364583,64.147917],[25.360417,64.147917],[25.360417,64.14375]]]},"properties":{"radiance":11.96}},{"type":"Feature","geometry":{"type":"Polygon","coordinates":[[[25.364583,64.14375],[25.36875,64.14375],[25.36875,64.147917],[25.364583,64.147917],[25.364583,64.14375]]]},"properties":{"radiance":12.31}},{"type":"Feature","geometry":{"type":"Polygon","coordinates":[[[25.36875,64.14375],[25.372917,64.14375],[25.372917,64.147917],[25.36875,64.147917],[25.36875,64.14375]]]},"properties":{"radiance":21.08}},{"type":"Feature","geometry":{"type":"Polygon","coordinates":[[[25.372917,64.14375],[25.377083,64.14375],[25.377083,64.147917],[25.372917,64.147917],[25.372917,64.14375]]]},"properties":{"radiance":22.09}},{"type":"Feature","geometry":{"type":"Polygon","coordinates":[[[25.377083,64.14375],[25.38125,64.14375],[25.38125,64.147917],[25.377083,64.147917],[25.377083,64.14375]]]},"properties":{"radiance":13.67}},{"type":"Feature","geometry":{"type":"Polygon","coordinates":[[[25.38125,64.14375],[25.385417,64.14375],[25.385417,64.147917],[25.38125,64.147917],[25.38125,64.14375]]]},"properties":{"radiance":18.6}},{"type":"Feature","geometry":{"type":"Polygon","coordinates":[[[25.385417,64.14375],[25.389583,64.14375],[25.389583,64.147917],[25.385417,64.147917],[25.385417,64.14375]]]},"properties":{"radiance":8.95}},{"type":"Feature","geometry":{"type":"Polygon","coordinates":[[[25.347917,64.139583],[25.352083,64.139583],[25.352083,64.14375],[25.347917,64.14375],[25.347917,64.139583]]]},"properties":{"radiance":5.33}},{"type":"Feature","geometry":{"type":"Polygon","coordinates":[[[25.352083,64.139583],[25.35625,64.139583],[25.35625,64.14375],[25.352083,64.14375],[25.352083,64.139583]]]},"properties":{"radiance":10.43}},{"type":"Feature","geometry":{"type":"Polygon","coordinates":[[[25.35625,64.139583],[25.360417,64.139583],[25.360417,64.14375],[25.35625,64.14375],[25.35625,64.139583]]]},"properties":{"radiance":10.67}},{"type":"Feature","geometry":{"type":"Polygon","coordinates":[[[25.360417,64.139583],[25.364583,64.139583],[25.364583,64.14375],[25.360417,64.14375],[25.360417,64.139583]]]},"properties":{"radiance":11.21}},{"type":"Feature","geometry":{"type":"Polygon","coordinates":[[[25.364583,64.139583],[25.36875,64.139583],[25.36875,64.14375],[25.364583,64.14375],[25.364583,64.139583]]]},"properties":{"radiance":10.69}},{"type":"Feature","geometry":{"type":"Polygon","coordinates":[[[25.36875,64.139583],[25.372917,64.139583],[25.372917,64.14375],[25.36875,64.14375],[25.36875,64.139583]]]},"properties":{"radiance":11.79}},{"type":"Feature","geometry":{"type":"Polygon","coordinates":[[[25.372917,64.139583],[25.377083,64.139583],[25.377083,64.14375],[25.372917,64.14375],[25.372917,64.139583]]]},"properties":{"radiance":14.57}},{"type":"Feature","geometry":{"type":"Polygon","coordinates":[[[25.377083,64.139583],[25.38125,64.139583],[25.38125,64.14375],[25.377083,64.14375],[25.377083,64.139583]]]},"properties":{"radiance":15.64}},{"type":"Feature","geometry":{"type":"Polygon","coordinates":[[[25.38125,64.139583],[25.385417,64.139583],[25.385417,64.14375],[25.38125,64.14375],[25.38125,64.139583]]]},"properties":{"radiance":13.17}},{"type":"Feature","geometry":{"type":"Polygon","coordinates":[[[25.385417,64.139583],[25.389583,64.139583],[25.389583,64.14375],[25.385417,64.14375],[25.385417,64.139583]]]},"properties":{"radiance":7.21}},{"type":"Feature","geometry":{"type":"Polygon","coordinates":[[[25.347917,64.135417],[25.352083,64.135417],[25.352083,64.139583],[25.347917,64.139583],[25.347917,64.135417]]]},"properties":{"radiance":6.74}},{"type":"Feature","geometry":{"type":"Polygon","coordinates":[[[25.352083,64.135417],[25.35625,64.135417],[25.35625,64.139583],[25.352083,64.139583],[25.352083,64.135417]]]},"properties":{"radiance":5.91}},{"type":"Feature","geometry":{"type":"Polygon","coordinates":[[[25.35625,64.135417],[25.360417,64.135417],[25.360417,64.139583],[25.35625,64.139583],[25.35625,64.135417]]]},"properties":{"radiance":7.67}},{"type":"Feature","geometry":{"type":"Polygon","coordinates":[[[25.360417,64.135417],[25.364583,64.135417],[25.364583,64.139583],[25.360417,64.139583],[25.360417,64.135417]]]},"properties":{"radiance":7.04}},{"type":"Feature","geometry":{"type":"Polygon","coordinates":[[[25.364583,64.135417],[25.36875,64.135417],[25.36875,64.139583],[25.364583,64.139583],[25.364583,64.135417]]]},"properties":{"radiance":7.16}},{"type":"Feature","geometry":{"type":"Polygon","coordinates":[[[25.36875,64.135417],[25.372917,64.135417],[25.372917,64.139583],[25.36875,64.139583],[25.36875,64.135417]]]},"properties":{"radiance":6.63}},{"type":"Feature","geometry":{"type":"Polygon","coordinates":[[[25.372917,64.135417],[25.377083,64.135417],[25.377083,64.139583],[25.372917,64.139583],[25.372917,64.135417]]]},"properties":{"radiance":8.61}},{"type":"Feature","geometry":{"type":"Polygon","coordinates":[[[25.377083,64.135417],[25.38125,64.135417],[25.38125,64.139583],[25.377083,64.139583],[25.377083,64.135417]]]},"properties":{"radiance":7.97}},{"type":"Feature","geometry":{"type":"Polygon","coordinates":[[[25.38125,64.135417],[25.385417,64.135417],[25.385417,64.139583],[25.38125,64.139583],[25.38125,64.135417]]]},"properties":{"radiance":5.47}},{"type":"Feature","geometry":{"type":"Polygon","coordinates":[[[25.347917,64.13125],[25.352083,64.13125],[25.352083,64.135417],[25.347917,64.135417],[25.347917,64.13125]]]},"properties":{"radiance":5.67}},{"type":"Feature","geometry":{"type":"Polygon","coordinates":[[[25.352083,64.13125],[25.35625,64.13125],[25.35625,64.135417],[25.352083,64.135417],[25.352083,64.13125]]]},"properties":{"radiance":6.28}},{"type":"Feature","geometry":{"type":"Polygon","coordinates":[[[25.35625,64.13125],[25.360417,64.13125],[25.360417,64.135417],[25.35625,64.135417],[25.35625,64.13125]]]},"properties":{"radiance":6}},{"type":"Feature","geometry":{"type":"Polygon","coordinates":[[[25.360417,64.13125],[25.364583,64.13125],[25.364583,64.135417],[25.360417,64.135417],[25.360417,64.13125]]]},"properties":{"radiance":5.13}},{"type":"Feature","geometry":{"type":"Polygon","coordinates":[[[26.310417,64.110417],[26.314583,64.110417],[26.314583,64.114583],[26.310417,64.114583],[26.310417,64.110417]]]},"properties":{"radiance":9.6}},{"type":"Feature","geometry":{"type":"Polygon","coordinates":[[[26.310417,64.10625],[26.314583,64.10625],[26.314583,64.110417],[26.310417,64.110417],[26.310417,64.10625]]]},"properties":{"radiance":5.38}},{"type":"Feature","geometry":{"type":"Polygon","coordinates":[[[26.314583,64.10625],[26.31875,64.10625],[26.31875,64.110417],[26.314583,64.110417],[26.314583,64.10625]]]},"properties":{"radiance":6.48}},{"type":"Feature","geometry":{"type":"Polygon","coordinates":[[[26.31875,64.10625],[26.322917,64.10625],[26.322917,64.110417],[26.31875,64.110417],[26.31875,64.10625]]]},"properties":{"radiance":6.29}},{"type":"Feature","geometry":{"type":"Polygon","coordinates":[[[26.322917,64.10625],[26.327083,64.10625],[26.327083,64.110417],[26.322917,64.110417],[26.322917,64.10625]]]},"properties":{"radiance":5.6}},{"type":"Feature","geometry":{"type":"Polygon","coordinates":[[[26.327083,64.10625],[26.33125,64.10625],[26.33125,64.110417],[26.327083,64.110417],[26.327083,64.10625]]]},"properties":{"radiance":6.24}},{"type":"Feature","geometry":{"type":"Polygon","coordinates":[[[26.335417,64.10625],[26.339583,64.10625],[26.339583,64.110417],[26.335417,64.110417],[26.335417,64.10625]]]},"properties":{"radiance":6.66}},{"type":"Feature","geometry":{"type":"Polygon","coordinates":[[[26.339583,64.10625],[26.34375,64.10625],[26.34375,64.110417],[26.339583,64.110417],[26.339583,64.10625]]]},"properties":{"radiance":6.79}},{"type":"Feature","geometry":{"type":"Polygon","coordinates":[[[26.310417,64.102083],[26.314583,64.102083],[26.314583,64.10625],[26.310417,64.10625],[26.310417,64.102083]]]},"properties":{"radiance":7.76}},{"type":"Feature","geometry":{"type":"Polygon","coordinates":[[[26.314583,64.102083],[26.31875,64.102083],[26.31875,64.10625],[26.314583,64.10625],[26.314583,64.102083]]]},"properties":{"radiance":10.11}},{"type":"Feature","geometry":{"type":"Polygon","coordinates":[[[26.31875,64.102083],[26.322917,64.102083],[26.322917,64.10625],[26.31875,64.10625],[26.31875,64.102083]]]},"properties":{"radiance":7.25}},{"type":"Feature","geometry":{"type":"Polygon","coordinates":[[[26.322917,64.102083],[26.327083,64.102083],[26.327083,64.10625],[26.322917,64.10625],[26.322917,64.102083]]]},"properties":{"radiance":10.09}},{"type":"Feature","geometry":{"type":"Polygon","coordinates":[[[26.327083,64.102083],[26.33125,64.102083],[26.33125,64.10625],[26.327083,64.10625],[26.327083,64.102083]]]},"properties":{"radiance":11.85}},{"type":"Feature","geometry":{"type":"Polygon","coordinates":[[[26.33125,64.102083],[26.335417,64.102083],[26.335417,64.10625],[26.33125,64.10625],[26.33125,64.102083]]]},"properties":{"radiance":8.35}},{"type":"Feature","geometry":{"type":"Polygon","coordinates":[[[26.335417,64.102083],[26.339583,64.102083],[26.339583,64.10625],[26.335417,64.10625],[26.335417,64.102083]]]},"properties":{"radiance":6.59}},{"type":"Feature","geometry":{"type":"Polygon","coordinates":[[[26.314583,64.097917],[26.31875,64.097917],[26.31875,64.102083],[26.314583,64.102083],[26.314583,64.097917]]]},"properties":{"radiance":5.81}},{"type":"Feature","geometry":{"type":"Polygon","coordinates":[[[26.31875,64.097917],[26.322917,64.097917],[26.322917,64.102083],[26.31875,64.102083],[26.31875,64.097917]]]},"properties":{"radiance":6.66}},{"type":"Feature","geometry":{"type":"Polygon","coordinates":[[[26.322917,64.097917],[26.327083,64.097917],[26.327083,64.102083],[26.322917,64.102083],[26.322917,64.097917]]]},"properties":{"radiance":37.03}},{"type":"Feature","geometry":{"type":"Polygon","coordinates":[[[26.327083,64.097917],[26.33125,64.097917],[26.33125,64.102083],[26.327083,64.102083],[26.327083,64.097917]]]},"properties":{"radiance":47.07}},{"type":"Feature","geometry":{"type":"Polygon","coordinates":[[[26.33125,64.097917],[26.335417,64.097917],[26.335417,64.102083],[26.33125,64.102083],[26.33125,64.097917]]]},"properties":{"radiance":44.07}},{"type":"Feature","geometry":{"type":"Polygon","coordinates":[[[26.335417,64.097917],[26.339583,64.097917],[26.339583,64.102083],[26.335417,64.102083],[26.335417,64.097917]]]},"properties":{"radiance":13.59}},{"type":"Feature","geometry":{"type":"Polygon","coordinates":[[[26.339583,64.097917],[26.34375,64.097917],[26.34375,64.102083],[26.339583,64.102083],[26.339583,64.097917]]]},"properties":{"radiance":12.66}},{"type":"Feature","geometry":{"type":"Polygon","coordinates":[[[26.34375,64.097917],[26.347917,64.097917],[26.347917,64.102083],[26.34375,64.102083],[26.34375,64.097917]]]},"properties":{"radiance":5.15}},{"type":"Feature","geometry":{"type":"Polygon","coordinates":[[[26.31875,64.09375],[26.322917,64.09375],[26.322917,64.097917],[26.31875,64.097917],[26.31875,64.09375]]]},"properties":{"radiance":8.85}},{"type":"Feature","geometry":{"type":"Polygon","coordinates":[[[26.322917,64.09375],[26.327083,64.09375],[26.327083,64.097917],[26.322917,64.097917],[26.322917,64.09375]]]},"properties":{"radiance":6.94}},{"type":"Feature","geometry":{"type":"Polygon","coordinates":[[[26.327083,64.09375],[26.33125,64.09375],[26.33125,64.097917],[26.327083,64.097917],[26.327083,64.09375]]]},"properties":{"radiance":41.51}},{"type":"Feature","geometry":{"type":"Polygon","coordinates":[[[26.33125,64.09375],[26.335417,64.09375],[26.335417,64.097917],[26.33125,64.097917],[26.33125,64.09375]]]},"properties":{"radiance":11.17}},{"type":"Feature","geometry":{"type":"Polygon","coordinates":[[[26.335417,64.09375],[26.339583,64.09375],[26.339583,64.097917],[26.335417,64.097917],[26.335417,64.09375]]]},"properties":{"radiance":11.07}},{"type":"Feature","geometry":{"type":"Polygon","coordinates":[[[26.339583,64.09375],[26.34375,64.09375],[26.34375,64.097917],[26.339583,64.097917],[26.339583,64.09375]]]},"properties":{"radiance":8.36}},{"type":"Feature","geometry":{"type":"Polygon","coordinates":[[[26.34375,64.09375],[26.347917,64.09375],[26.347917,64.097917],[26.34375,64.097917],[26.34375,64.09375]]]},"properties":{"radiance":9.06}},{"type":"Feature","geometry":{"type":"Polygon","coordinates":[[[26.54375,63.989583],[26.547917,63.989583],[26.547917,63.99375],[26.54375,63.99375],[26.54375,63.989583]]]},"properties":{"radiance":7.49}},{"type":"Feature","geometry":{"type":"Polygon","coordinates":[[[26.547917,63.989583],[26.552083,63.989583],[26.552083,63.99375],[26.547917,63.99375],[26.547917,63.989583]]]},"properties":{"radiance":5.75}}]}