{"type":"FeatureCollection","features":[{"type":"Feature","geometry":{"type":"Polygon","coordinates":[[[22.73125,60.16875],[22.735417,60.16875],[22.735417,60.172917],[22.73125,60.172917],[22.73125,60.16875]]]},"properties":{"radiance":12.65}},{"type":"Feature","geometry":{"type":"Polygon","coordinates":[[[22.735417,60.16875],[22.739583,60.16875],[22.739583,60.172917],[22.735417,60.172917],[22.735417,60.16875]]]},"properties":{"radiance":6.8}},{"type":"Feature","geometry":{"type":"Polygon","coordinates":[[[22.739583,60.16875],[22.74375,60.16875],[22.74375,60.172917],[22.739583,60.172917],[22.739583,60.16875]]]},"properties":{"radiance":6.38}},{"type":"Feature","geometry":{"type":"Polygon","coordinates":[[[22.71875,60.164583],[22.722917,60.164583],[22.722917,60.16875],[22.71875,60.16875],[22.71875,60.164583]]]},"properties":{"radiance":5.35}},{"type":"Feature","geometry":{"type":"Polygon","coordinates":[[[22.722917,60.164583],[22.727083,60.164583],[22.727083,60.16875],[22.722917,60.16875],[22.722917,60.164583]]]},"properties":{"radiance":12.5}},{"type":"Feature","geometry":{"type":"Polygon","coordinates":[[[22.727083,60.164583],[22.73125,60.164583],[22.73125,60.16875],[22.727083,60.16875],[22.727083,60.164583]]]},"properties":{"radiance":20.58}},{"type":"Feature","geometry":{"type":"Polygon","coordinates":[[[22.73125,60.164583],[22.735417,60.164583],[22.735417,60.16875],[22.73125,60.16875],[22.73125,60.164583]]]},"properties":{"radiance":20.73}},{"type":"Feature","geometry":{"type":"Polygon","coordinates":[[[22.735417,60.164583],[22.739583,60.164583],[22.739583,60.16875],[22.735417,60.16875],[22.735417,60.164583]]]},"properties":{"radiance":19.44}},{"type":"Feature","geometry":{"type":"Polygon","coordinates":[[[22.722917,60.160417],[22.727083,60.160417],[22.727083,60.164583],[22.722917,60.164583],[22.722917,60.160417]]]},"properties":{"radiance":5}},{"type":"Feature","geometry":{"type":"Polygon","coordinates":[[[22.727083,60.160417],[22.73125,60.160417],[22.73125,60.164583],[22.727083,60.164583],[22.727083,60.160417]]]},"properties":{"radiance":11.62}},{"type":"Feature","geometry":{"type":"Polygon","coordinates":[[[22.602083,60.147917],[22.60625,60.147917],[22.60625,60.152083],[22.602083,60.152083],[22.602083,60.147917]]]},"properties":{"radiance":10.21}},{"type":"Feature","geometry":{"type":"Polygon","coordinates":[[[22.497917,60.01875],[22.502083,60.01875],[22.502083,60.022917],[22.497917,60.022917],[22.497917,60.01875]]]},"properties":{"radiance":7.09}},{"type":"Feature","geometry":{"type":"Polygon","coordinates":[[[22.502083,60.01875],[22.50625,60.01875],[22.50625,60.022917],[22.502083,60.022917],[22.502083,60.01875]]]},"properties":{"radiance":6.44}},{"type":"Feature","geometry":{"type":"Polygon","coordinates":[[[22.50625,60.01875],[22.510417,60.01875],[22.510417,60.022917],[22.50625,60.022917],[22.50625,60.01875]]]},"properties":{"radiance":6.36}}]}