{"type":"FeatureCollection","features":[{"type":"Feature","geometry":{"type":"Polygon","coordinates":[[[23.76875,61.35625],[23.772917,61.35625],[23.772917,61.360417],[23.76875,61.360417],[23.76875,61.35625]]]},"properties":{"radiance":5.07}},{"type":"Feature","geometry":{"type":"Polygon","coordinates":[[[23.772917,61.35625],[23.777083,61.35625],[23.777083,61.360417],[23.772917,61.360417],[23.772917,61.35625]]]},"properties":{"radiance":5.1}},{"type":"Feature","geometry":{"type":"Polygon","coordinates":[[[23.777083,61.35625],[23.78125,61.35625],[23.78125,61.360417],[23.777083,61.360417],[23.777083,61.35625]]]},"properties":{"radiance":5.98}},{"type":"Feature","geometry":{"type":"Polygon","coordinates":[[[23.78125,61.35625],[23.785417,61.35625],[23.785417,61.360417],[23.78125,61.360417],[23.78125,61.35625]]]},"properties":{"radiance":8.52}},{"type":"Feature","geometry":{"type":"Polygon","coordinates":[[[23.785417,61.35625],[23.789583,61.35625],[23.789583,61.360417],[23.785417,61.360417],[23.785417,61.35625]]]},"properties":{"radiance":10.03}},{"type":"Feature","geometry":{"type":"Polygon","coordinates":[[[23.789583,61.35625],[23.79375,61.35625],[23.79375,61.360417],[23.789583,61.360417],[23.789583,61.35625]]]},"properties":{"radiance":18.64}},{"type":"Feature","geometry":{"type":"Polygon","coordinates":[[[23.79375,61.35625],[23.797917,61.35625],[23.797917,61.360417],[23.79375,61.360417],[23.79375,61.35625]]]},"properties":{"radiance":7.78}},{"type":"Feature","geometry":{"type":"Polygon","coordinates":[[[23.797917,61.35625],[23.802083,61.35625],[23.802083,61.360417],[23.797917,61.360417],[23.797917,61.35625]]]},"properties":{"radiance":6.35}},{"type":"Feature","geometry":{"type":"Polygon","coordinates":[[[23.802083,61.35625],[23.80625,61.35625],[23.80625,61.360417],[23.802083,61.360417],[23.802083,61.35625]]]},"properties":{"radiance":5.67}},{"type":"Feature","geometry":{"type":"Polygon","coordinates":[[[23.80625,61.35625],[23.810417,61.35625],[23.810417,61.360417],[23.80625,61.360417],[23.80625,61.35625]]]},"properties":{"radiance":5.26}},{"type":"Feature","geometry":{"type":"Polygon","coordinates":[[[24.23125,61.35625],[24.235417,61.35625],[24.235417,61.360417],[24.23125,61.360417],[24.23125,61.35625]]]},"properties":{"radiance":6.7}},{"type":"Feature","geometry":{"type":"Polygon","coordinates":[[[24.235417,61.35625],[24.239583,61.35625],[24.239583,61.360417],[24.235417,61.360417],[24.235417,61.35625]]]},"properties":{"radiance":6.76}},{"type":"Feature","geometry":{"type":"Polygon","coordinates":[[[24.239583,61.35625],[24.24375,61.35625],[24.24375,61.360417],[24.239583,61.360417],[24.239583,61.35625]]]},"properties":{"radiance":5.94}},{"type":"Feature","geometry":{"type":"Polygon","coordinates":[[[23.760417,61.352083],[23.764583,61.352083],[23.764583,61.35625],[23.760417,61.35625],[23.760417,61.352083]]]},"properties":{"radiance":5.5}},{"type":"Feature","geometry":{"type":"Polygon","coordinates":[[[23.764583,61.352083],[23.76875,61.352083],[23.76875,61.35625],[23.764583,61.35625],[23.764583,61.352083]]]},"properties":{"radiance":6.26}},{"type":"Feature","geometry":{"type":"Polygon","coordinates":[[[23.76875,61.352083],[23.772917,61.352083],[23.772917,61.35625],[23.76875,61.35625],[23.76875,61.352083]]]},"properties":{"radiance":6.43}},{"type":"Feature","geometry":{"type":"Polygon","coordinates":[[[23.772917,61.352083],[23.777083,61.352083],[23.777083,61.35625],[23.772917,61.35625],[23.772917,61.352083]]]},"properties":{"radiance":6.12}},{"type":"Feature","geometry":{"type":"Polygon","coordinates":[[[23.777083,61.352083],[23.78125,61.352083],[23.78125,61.35625],[23.777083,61.35625],[23.777083,61.352083]]]},"properties":{"radiance":6.01}},{"type":"Feature","geometry":{"type":"Polygon","coordinates":[[[23.78125,61.352083],[23.785417,61.352083],[23.785417,61.35625],[23.78125,61.35625],[23.78125,61.352083]]]},"properties":{"radiance":5.52}},{"type":"Feature","geometry":{"type":"Polygon","coordinates":[[[23.785417,61.352083],[23.789583,61.352083],[23.789583,61.35625],[23.785417,61.35625],[23.785417,61.352083]]]},"properties":{"radiance":5.54}},{"type":"Feature","geometry":{"type":"Polygon","coordinates":[[[23.789583,61.352083],[23.79375,61.352083],[23.79375,61.35625],[23.789583,61.35625],[23.789583,61.352083]]]},"properties":{"radiance":5.09}},{"type":"Feature","geometry":{"type":"Polygon","coordinates":[[[23.747917,61.347917],[23.752083,61.347917],[23.752083,61.352083],[23.747917,61.352083],[23.747917,61.347917]]]},"properties":{"radiance":5.82}},{"type":"Feature","geometry":{"type":"Polygon","coordinates":[[[23.752083,61.347917],[23.75625,61.347917],[23.75625,61.352083],[23.752083,61.352083],[23.752083,61.347917]]]},"properties":{"radiance":5.51}},{"type":"Feature","geometry":{"type":"Polygon","coordinates":[[[23.75625,61.347917],[23.760417,61.347917],[23.760417,61.352083],[23.75625,61.352083],[23.75625,61.347917]]]},"properties":{"radiance":5.35}},{"type":"Feature","geometry":{"type":"Polygon","coordinates":[[[23.760417,61.347917],[23.764583,61.347917],[23.764583,61.352083],[23.760417,61.352083],[23.760417,61.347917]]]},"properties":{"radiance":5.58}},{"type":"Feature","geometry":{"type":"Polygon","coordinates":[[[23.764583,61.347917],[23.76875,61.347917],[23.76875,61.352083],[23.764583,61.352083],[23.764583,61.347917]]]},"properties":{"radiance":5.44}},{"type":"Feature","geometry":{"type":"Polygon","coordinates":[[[23.76875,61.347917],[23.772917,61.347917],[23.772917,61.352083],[23.76875,61.352083],[23.76875,61.347917]]]},"properties":{"radiance":5.66}},{"type":"Feature","geometry":{"type":"Polygon","coordinates":[[[23.747917,61.34375],[23.752083,61.34375],[23.752083,61.347917],[23.747917,61.347917],[23.747917,61.34375]]]},"properties":{"radiance":7.53}},{"type":"Feature","geometry":{"type":"Polygon","coordinates":[[[23.752083,61.34375],[23.75625,61.34375],[23.75625,61.347917],[23.752083,61.347917],[23.752083,61.34375]]]},"properties":{"radiance":7.63}},{"type":"Feature","geometry":{"type":"Polygon","coordinates":[[[23.75625,61.34375],[23.760417,61.34375],[23.760417,61.347917],[23.75625,61.347917],[23.75625,61.34375]]]},"properties":{"radiance":7.1}},{"type":"Feature","geometry":{"type":"Polygon","coordinates":[[[23.677083,61.339583],[23.68125,61.339583],[23.68125,61.34375],[23.677083,61.34375],[23.677083,61.339583]]]},"properties":{"radiance":5.84}},{"type":"Feature","geometry":{"type":"Polygon","coordinates":[[[23.68125,61.339583],[23.685417,61.339583],[23.685417,61.34375],[23.68125,61.34375],[23.68125,61.339583]]]},"properties":{"radiance":5.2}},{"type":"Feature","geometry":{"type":"Polygon","coordinates":[[[23.74375,61.339583],[23.747917,61.339583],[23.747917,61.34375],[23.74375,61.34375],[23.74375,61.339583]]]},"properties":{"radiance":13.06}},{"type":"Feature","geometry":{"type":"Polygon","coordinates":[[[23.747917,61.339583],[23.752083,61.339583],[23.752083,61.34375],[23.747917,61.34375],[23.747917,61.339583]]]},"properties":{"radiance":14.59}},{"type":"Feature","geometry":{"type":"Polygon","coordinates":[[[23.752083,61.339583],[23.75625,61.339583],[23.75625,61.34375],[23.752083,61.34375],[23.752083,61.339583]]]},"properties":{"radiance":11.51}},{"type":"Feature","geometry":{"type":"Polygon","coordinates":[[[23.75625,61.339583],[23.760417,61.339583],[23.760417,61.34375],[23.75625,61.34375],[23.75625,61.339583]]]},"properties":{"radiance":6.46}},{"type":"Feature","geometry":{"type":"Polygon","coordinates":[[[24.260417,61.339583],[24.264583,61.339583],[24.264583,61.34375],[24.260417,61.34375],[24.260417,61.339583]]]},"properties":{"radiance":10.88}},{"type":"Feature","geometry":{"type":"Polygon","coordinates":[[[24.264583,61.339583],[24.26875,61.339583],[24.26875,61.34375],[24.264583,61.34375],[24.264583,61.339583]]]},"properties":{"radiance":8.44}},{"type":"Feature","geometry":{"type":"Polygon","coordinates":[[[24.26875,61.339583],[24.272917,61.339583],[24.272917,61.34375],[24.26875,61.34375],[24.26875,61.339583]]]},"properties":{"radiance":6.48}},{"type":"Feature","geometry":{"type":"Polygon","coordinates":[[[23.73125,61.335417],[23.735417,61.335417],[23.735417,61.339583],[23.73125,61.339583],[23.73125,61.335417]]]},"properties":{"radiance":5.13}},{"type":"Feature","geometry":{"type":"Polygon","coordinates":[[[23.735417,61.335417],[23.739583,61.335417],[23.739583,61.339583],[23.735417,61.339583],[23.735417,61.335417]]]},"properties":{"radiance":7.4}},{"type":"Feature","geometry":{"type":"Polygon","coordinates":[[[23.739583,61.335417],[23.74375,61.335417],[23.74375,61.339583],[23.739583,61.339583],[23.739583,61.335417]]]},"properties":{"radiance":11.21}},{"type":"Feature","geometry":{"type":"Polygon","coordinates":[[[23.74375,61.335417],[23.747917,61.335417],[23.747917,61.339583],[23.74375,61.339583],[23.74375,61.335417]]]},"properties":{"radiance":15.21}},{"type":"Feature","geometry":{"type":"Polygon","coordinates":[[[23.747917,61.335417],[23.752083,61.335417],[23.752083,61.339583],[23.747917,61.339583],[23.747917,61.335417]]]},"properties":{"radiance":11.86}},{"type":"Feature","geometry":{"type":"Polygon","coordinates":[[[23.752083,61.335417],[23.75625,61.335417],[23.75625,61.339583],[23.752083,61.339583],[23.752083,61.335417]]]},"properties":{"radiance":13.12}},{"type":"Feature","geometry":{"type":"Polygon","coordinates":[[[23.75625,61.335417],[23.760417,61.335417],[23.760417,61.339583],[23.75625,61.339583],[23.75625,61.335417]]]},"properties":{"radiance":11.65}},{"type":"Feature","geometry":{"type":"Polygon","coordinates":[[[23.760417,61.335417],[23.764583,61.335417],[23.764583,61.339583],[23.760417,61.339583],[23.760417,61.335417]]]},"properties":{"radiance":5.63}},{"type":"Feature","geometry":{"type":"Polygon","coordinates":[[[24.264583,61.335417],[24.26875,61.335417],[24.26875,61.339583],[24.264583,61.339583],[24.264583,61.335417]]]},"properties":{"radiance":8.56}},{"type":"Feature","geometry":{"type":"Polygon","coordinates":[[[24.26875,61.335417],[24.272917,61.335417],[24.272917,61.339583],[24.26875,61.339583],[24.26875,61.335417]]]},"properties":{"radiance":8.44}},{"type":"Feature","geometry":{"type":"Polygon","coordinates":[[[24.272917,61.335417],[24.277083,61.335417],[24.277083,61.339583],[24.272917,61.339583],[24.272917,61.335417]]]},"properties":{"radiance":8.6}},{"type":"Feature","geometry":{"type":"Polygon","coordinates":[[[23.73125,61.33125],[23.735417,61.33125],[23.735417,61.335417],[23.73125,61.335417],[23.73125,61.33125]]]},"properties":{"radiance":6.01}},{"type":"Feature","geometry":{"type":"Polygon","coordinates":[[[23.735417,61.33125],[23.739583,61.33125],[23.739583,61.335417],[23.735417,61.335417],[23.735417,61.33125]]]},"properties":{"radiance":5.67}},{"type":"Feature","geometry":{"type":"Polygon","coordinates":[[[23.739583,61.33125],[23.74375,61.33125],[23.74375,61.335417],[23.739583,61.335417],[23.739583,61.33125]]]},"properties":{"radiance":9.71}},{"type":"Feature","geometry":{"type":"Polygon","coordinates":[[[23.74375,61.33125],[23.747917,61.33125],[23.747917,61.335417],[23.74375,61.335417],[23.74375,61.33125]]]},"properties":{"radiance":11.81}},{"type":"Feature","geometry":{"type":"Polygon","coordinates":[[[23.747917,61.33125],[23.752083,61.33125],[23.752083,61.335417],[23.747917,61.335417],[23.747917,61.33125]]]},"properties":{"radiance":12.76}},{"type":"Feature","geometry":{"type":"Polygon","coordinates":[[[23.752083,61.33125],[23.75625,61.33125],[23.75625,61.335417],[23.752083,61.335417],[23.752083,61.33125]]]},"properties":{"radiance":13.39}},{"type":"Feature","geometry":{"type":"Polygon","coordinates":[[[23.75625,61.33125],[23.760417,61.33125],[23.760417,61.335417],[23.75625,61.335417],[23.75625,61.33125]]]},"properties":{"radiance":16.35}},{"type":"Feature","geometry":{"type":"Polygon","coordinates":[[[23.760417,61.33125],[23.764583,61.33125],[23.764583,61.335417],[23.760417,61.335417],[23.760417,61.33125]]]},"properties":{"radiance":17.1}},{"type":"Feature","geometry":{"type":"Polygon","coordinates":[[[23.764583,61.33125],[23.76875,61.33125],[23.76875,61.335417],[23.764583,61.335417],[23.764583,61.33125]]]},"properties":{"radiance":7.71}},{"type":"Feature","geometry":{"type":"Polygon","coordinates":[[[23.76875,61.33125],[23.772917,61.33125],[23.772917,61.335417],[23.76875,61.335417],[23.76875,61.33125]]]},"properties":{"radiance":5.09}},{"type":"Feature","geometry":{"type":"Polygon","coordinates":[[[24.272917,61.33125],[24.277083,61.33125],[24.277083,61.335417],[24.272917,61.335417],[24.272917,61.33125]]]},"properties":{"radiance":5.34}},{"type":"Feature","geometry":{"type":"Polygon","coordinates":[[[24.277083,61.33125],[24.28125,61.33125],[24.28125,61.335417],[24.277083,61.335417],[24.277083,61.33125]]]},"properties":{"radiance":5.97}},{"type":"Feature","geometry":{"type":"Polygon","coordinates":[[[24.28125,61.33125],[24.285417,61.33125],[24.285417,61.335417],[24.28125,61.335417],[24.28125,61.33125]]]},"properties":{"radiance":7.04}},{"type":"Feature","geometry":{"type":"Polygon","coordinates":[[[24.285417,61.33125],[24.289583,61.33125],[24.289583,61.335417],[24.285417,61.335417],[24.285417,61.33125]]]},"properties":{"radiance":5.09}},{"type":"Feature","geometry":{"type":"Polygon","coordinates":[[[23.74375,61.327083],[23.747917,61.327083],[23.747917,61.33125],[23.74375,61.33125],[23.74375,61.327083]]]},"properties":{"radiance":9.92}},{"type":"Feature","geometry":{"type":"Polygon","coordinates":[[[23.747917,61.327083],[23.752083,61.327083],[23.752083,61.33125],[23.747917,61.33125],[23.747917,61.327083]]]},"properties":{"radiance":12.13}},{"type":"Feature","geometry":{"type":"Polygon","coordinates":[[[23.752083,61.327083],[23.75625,61.327083],[23.75625,61.33125],[23.752083,61.33125],[23.752083,61.327083]]]},"properties":{"radiance":10.76}},{"type":"Feature","geometry":{"type":"Polygon","coordinates":[[[23.75625,61.327083],[23.760417,61.327083],[23.760417,61.33125],[23.75625,61.33125],[23.75625,61.327083]]]},"properties":{"radiance":13.02}},{"type":"Feature","geometry":{"type":"Polygon","coordinates":[[[23.760417,61.327083],[23.764583,61.327083],[23.764583,61.33125],[23.760417,61.33125],[23.760417,61.327083]]]},"properties":{"radiance":15.37}},{"type":"Feature","geometry":{"type":"Polygon","coordinates":[[[23.764583,61.327083],[23.76875,61.327083],[23.76875,61.33125],[23.764583,61.33125],[23.764583,61.327083]]]},"properties":{"radiance":11.65}},{"type":"Feature","geometry":{"type":"Polygon","coordinates":[[[23.76875,61.327083],[23.772917,61.327083],[23.772917,61.33125],[23.76875,61.33125],[23.76875,61.327083]]]},"properties":{"radiance":8.29}},{"type":"Feature","geometry":{"type":"Polygon","coordinates":[[[23.772917,61.327083],[23.777083,61.327083],[23.777083,61.33125],[23.772917,61.33125],[23.772917,61.327083]]]},"properties":{"radiance":6.02}},{"type":"Feature","geometry":{"type":"Polygon","coordinates":[[[23.777083,61.327083],[23.78125,61.327083],[23.78125,61.33125],[23.777083,61.33125],[23.777083,61.327083]]]},"properties":{"radiance":5.62}},{"type":"Feature","geometry":{"type":"Polygon","coordinates":[[[23.739583,61.322917],[23.74375,61.322917],[23.74375,61.327083],[23.739583,61.327083],[23.739583,61.322917]]]},"properties":{"radiance":5.8}},{"type":"Feature","geometry":{"type":"Polygon","coordinates":[[[23.74375,61.322917],[23.747917,61.322917],[23.747917,61.327083],[23.74375,61.327083],[23.74375,61.322917]]]},"properties":{"radiance":8.51}},{"type":"Feature","geometry":{"type":"Polygon","coordinates":[[[23.747917,61.322917],[23.752083,61.322917],[23.752083,61.327083],[23.747917,61.327083],[23.747917,61.322917]]]},"properties":{"radiance":8.45}},{"type":"Feature","geometry":{"type":"Polygon","coordinates":[[[23.752083,61.322917],[23.75625,61.322917],[23.75625,61.327083],[23.752083,61.327083],[23.752083,61.322917]]]},"properties":{"radiance":6.99}},{"type":"Feature","geometry":{"type":"Polygon","coordinates":[[[23.760417,61.322917],[23.764583,61.322917],[23.764583,61.327083],[23.760417,61.327083],[23.760417,61.322917]]]},"properties":{"radiance":5.06}},{"type":"Feature","geometry":{"type":"Polygon","coordinates":[[[23.76875,61.322917],[23.772917,61.322917],[23.772917,61.327083],[23.76875,61.327083],[23.76875,61.322917]]]},"properties":{"radiance":5.84}},{"type":"Feature","geometry":{"type":"Polygon","coordinates":[[[23.739583,61.31875],[23.74375,61.31875],[23.74375,61.322917],[23.739583,61.322917],[23.739583,61.31875]]]},"properties":{"radiance":5.32}},{"type":"Feature","geometry":{"type":"Polygon","coordinates":[[[23.74375,61.31875],[23.747917,61.31875],[23.747917,61.322917],[23.74375,61.322917],[23.74375,61.31875]]]},"properties":{"radiance":15.47}},{"type":"Feature","geometry":{"type":"Polygon","coordinates":[[[23.747917,61.31875],[23.752083,61.31875],[23.752083,61.322917],[23.747917,61.322917],[23.747917,61.31875]]]},"properties":{"radiance":19.53}},{"type":"Feature","geometry":{"type":"Polygon","coordinates":[[[23.752083,61.31875],[23.75625,61.31875],[23.75625,61.322917],[23.752083,61.322917],[23.752083,61.31875]]]},"properties":{"radiance":12.08}},{"type":"Feature","geometry":{"type":"Polygon","coordinates":[[[23.75625,61.31875],[23.760417,61.31875],[23.760417,61.322917],[23.75625,61.322917],[23.75625,61.31875]]]},"properties":{"radiance":5.88}},{"type":"Feature","geometry":{"type":"Polygon","coordinates":[[[23.735417,61.314583],[23.739583,61.314583],[23.739583,61.31875],[23.735417,61.31875],[23.735417,61.314583]]]},"properties":{"radiance":7.21}},{"type":"Feature","geometry":{"type":"Polygon","coordinates":[[[23.739583,61.314583],[23.74375,61.314583],[23.74375,61.31875],[23.739583,61.31875],[23.739583,61.314583]]]},"properties":{"radiance":7.24}},{"type":"Feature","geometry":{"type":"Polygon","coordinates":[[[23.74375,61.314583],[23.747917,61.314583],[23.747917,61.31875],[23.74375,61.31875],[23.74375,61.314583]]]},"properties":{"radiance":19.19}},{"type":"Feature","geometry":{"type":"Polygon","coordinates":[[[23.747917,61.314583],[23.752083,61.314583],[23.752083,61.31875],[23.747917,61.31875],[23.747917,61.314583]]]},"properties":{"radiance":24.66}},{"type":"Feature","geometry":{"type":"Polygon","coordinates":[[[23.752083,61.314583],[23.75625,61.314583],[23.75625,61.31875],[23.752083,61.31875],[23.752083,61.314583]]]},"properties":{"radiance":35.78}},{"type":"Feature","geometry":{"type":"Polygon","coordinates":[[[23.75625,61.314583],[23.760417,61.314583],[23.760417,61.31875],[23.75625,61.31875],[23.75625,61.314583]]]},"properties":{"radiance":16.46}},{"type":"Feature","geometry":{"type":"Polygon","coordinates":[[[23.760417,61.314583],[23.764583,61.314583],[23.764583,61.31875],[23.760417,61.31875],[23.760417,61.314583]]]},"properties":{"radiance":10.79}},{"type":"Feature","geometry":{"type":"Polygon","coordinates":[[[23.735417,61.310417],[23.739583,61.310417],[23.739583,61.314583],[23.735417,61.314583],[23.735417,61.310417]]]},"properties":{"radiance":6.67}},{"type":"Feature","geometry":{"type":"Polygon","coordinates":[[[23.739583,61.310417],[23.74375,61.310417],[23.74375,61.314583],[23.739583,61.314583],[23.739583,61.310417]]]},"properties":{"radiance":10.77}},{"type":"Feature","geometry":{"type":"Polygon","coordinates":[[[23.74375,61.310417],[23.747917,61.310417],[23.747917,61.314583],[23.74375,61.314583],[23.74375,61.310417]]]},"properties":{"radiance":12.82}},{"type":"Feature","geometry":{"type":"Polygon","coordinates":[[[23.747917,61.310417],[23.752083,61.310417],[23.752083,61.314583],[23.747917,61.314583],[23.747917,61.310417]]]},"properties":{"radiance":20.74}},{"type":"Feature","geometry":{"type":"Polygon","coordinates":[[[23.752083,61.310417],[23.75625,61.310417],[23.75625,61.314583],[23.752083,61.314583],[23.752083,61.310417]]]},"properties":{"radiance":21.41}},{"type":"Feature","geometry":{"type":"Polygon","coordinates":[[[23.75625,61.310417],[23.760417,61.310417],[23.760417,61.314583],[23.75625,61.314583],[23.75625,61.310417]]]},"properties":{"radiance":17.54}},{"type":"Feature","geometry":{"type":"Polygon","coordinates":[[[23.760417,61.310417],[23.764583,61.310417],[23.764583,61.314583],[23.760417,61.314583],[23.760417,61.310417]]]},"properties":{"radiance":15.64}},{"type":"Feature","geometry":{"type":"Polygon","coordinates":[[[23.764583,61.310417],[23.76875,61.310417],[23.76875,61.314583],[23.764583,61.314583],[23.764583,61.310417]]]},"properties":{"radiance":6.1}},{"type":"Feature","geometry":{"type":"Polygon","coordinates":[[[23.735417,61.30625],[23.739583,61.30625],[23.739583,61.310417],[23.735417,61.310417],[23.735417,61.30625]]]},"properties":{"radiance":5.01}},{"type":"Feature","geometry":{"type":"Polygon","coordinates":[[[23.739583,61.30625],[23.74375,61.30625],[23.74375,61.310417],[23.739583,61.310417],[23.739583,61.30625]]]},"properties":{"radiance":7.53}},{"type":"Feature","geometry":{"type":"Polygon","coordinates":[[[23.74375,61.30625],[23.747917,61.30625],[23.747917,61.310417],[23.74375,61.310417],[23.74375,61.30625]]]},"properties":{"radiance":6.2}},{"type":"Feature","geometry":{"type":"Polygon","coordinates":[[[23.747917,61.30625],[23.752083,61.30625],[23.752083,61.310417],[23.747917,61.310417],[23.747917,61.30625]]]},"properties":{"radiance":11.23}},{"type":"Feature","geometry":{"type":"Polygon","coordinates":[[[23.752083,61.30625],[23.75625,61.30625],[23.75625,61.310417],[23.752083,61.310417],[23.752083,61.30625]]]},"properties":{"radiance":13.51}},{"type":"Feature","geometry":{"type":"Polygon","coordinates":[[[23.75625,61.30625],[23.760417,61.30625],[23.760417,61.310417],[23.75625,61.310417],[23.75625,61.30625]]]},"properties":{"radiance":7.84}},{"type":"Feature","geometry":{"type":"Polygon","coordinates":[[[23.760417,61.30625],[23.764583,61.30625],[23.764583,61.310417],[23.760417,61.310417],[23.760417,61.30625]]]},"properties":{"radiance":8.18}},{"type":"Feature","geometry":{"type":"Polygon","coordinates":[[[23.739583,61.302083],[23.74375,61.302083],[23.74375,61.30625],[23.739583,61.30625],[23.739583,61.302083]]]},"properties":{"radiance":5.63}},{"type":"Feature","geometry":{"type":"Polygon","coordinates":[[[23.74375,61.302083],[23.747917,61.302083],[23.747917,61.30625],[23.74375,61.30625],[23.74375,61.302083]]]},"properties":{"radiance":6.91}},{"type":"Feature","geometry":{"type":"Polygon","coordinates":[[[23.747917,61.302083],[23.752083,61.302083],[23.752083,61.30625],[23.747917,61.30625],[23.747917,61.302083]]]},"properties":{"radiance":6.59}},{"type":"Feature","geometry":{"type":"Polygon","coordinates":[[[23.752083,61.302083],[23.75625,61.302083],[23.75625,61.30625],[23.752083,61.30625],[23.752083,61.302083]]]},"properties":{"radiance":5.24}},{"type":"Feature","geometry":{"type":"Polygon","coordinates":[[[23.75625,61.302083],[23.760417,61.302083],[23.760417,61.30625],[23.75625,61.30625],[23.75625,61.302083]]]},"properties":{"radiance":5.77}},{"type":"Feature","geometry":{"type":"Polygon","coordinates":[[[23.627083,61.297917],[23.63125,61.297917],[23.63125,61.302083],[23.627083,61.302083],[23.627083,61.297917]]]},"properties":{"radiance":5.29}},{"type":"Feature","geometry":{"type":"Polygon","coordinates":[[[23.63125,61.297917],[23.635417,61.297917],[23.635417,61.302083],[23.63125,61.302083],[23.63125,61.297917]]]},"properties":{"radiance":6.02}},{"type":"Feature","geometry":{"type":"Polygon","coordinates":[[[24.010417,61.289583],[24.014583,61.289583],[24.014583,61.29375],[24.010417,61.29375],[24.010417,61.289583]]]},"properties":{"radiance":5.22}},{"type":"Feature","geometry":{"type":"Polygon","coordinates":[[[23.95625,61.285417],[23.960417,61.285417],[23.960417,61.289583],[23.95625,61.289583],[23.95625,61.285417]]]},"properties":{"radiance":5.37}},{"type":"Feature","geometry":{"type":"Polygon","coordinates":[[[23.960417,61.285417],[23.964583,61.285417],[23.964583,61.289583],[23.960417,61.289583],[23.960417,61.285417]]]},"properties":{"radiance":7.13}},{"type":"Feature","geometry":{"type":"Polygon","coordinates":[[[23.964583,61.285417],[23.96875,61.285417],[23.96875,61.289583],[23.964583,61.289583],[23.964583,61.285417]]]},"properties":{"radiance":5.19}},{"type":"Feature","geometry":{"type":"Polygon","coordinates":[[[23.96875,61.285417],[23.972917,61.285417],[23.972917,61.289583],[23.96875,61.289583],[23.96875,61.285417]]]},"properties":{"radiance":5.09}},{"type":"Feature","geometry":{"type":"Polygon","coordinates":[[[23.985417,61.285417],[23.989583,61.285417],[23.989583,61.289583],[23.985417,61.289583],[23.985417,61.285417]]]},"properties":{"radiance":7.77}},{"type":"Feature","geometry":{"type":"Polygon","coordinates":[[[23.989583,61.285417],[23.99375,61.285417],[23.99375,61.289583],[23.989583,61.289583],[23.989583,61.285417]]]},"properties":{"radiance":6.2}},{"type":"Feature","geometry":{"type":"Polygon","coordinates":[[[23.99375,61.285417],[23.997917,61.285417],[23.997917,61.289583],[23.99375,61.289583],[23.99375,61.285417]]]},"properties":{"radiance":5.73}},{"type":"Feature","geometry":{"type":"Polygon","coordinates":[[[23.997917,61.285417],[24.002083,61.285417],[24.002083,61.289583],[23.997917,61.289583],[23.997917,61.285417]]]},"properties":{"radiance":5.41}},{"type":"Feature","geometry":{"type":"Polygon","coordinates":[[[24.002083,61.285417],[24.00625,61.285417],[24.00625,61.289583],[24.002083,61.289583],[24.002083,61.285417]]]},"properties":{"radiance":7.12}},{"type":"Feature","geometry":{"type":"Polygon","coordinates":[[[24.00625,61.285417],[24.010417,61.285417],[24.010417,61.289583],[24.00625,61.289583],[24.00625,61.285417]]]},"properties":{"radiance":7.38}},{"type":"Feature","geometry":{"type":"Polygon","coordinates":[[[24.010417,61.285417],[24.014583,61.285417],[24.014583,61.289583],[24.010417,61.289583],[24.010417,61.285417]]]},"properties":{"radiance":7.46}},{"type":"Feature","geometry":{"type":"Polygon","coordinates":[[[24.014583,61.285417],[24.01875,61.285417],[24.01875,61.289583],[24.014583,61.289583],[24.014583,61.285417]]]},"properties":{"radiance":5.92}},{"type":"Feature","geometry":{"type":"Polygon","coordinates":[[[24.022917,61.285417],[24.027083,61.285417],[24.027083,61.289583],[24.022917,61.289583],[24.022917,61.285417]]]},"properties":{"radiance":5.37}},{"type":"Feature","geometry":{"type":"Polygon","coordinates":[[[23.952083,61.28125],[23.95625,61.28125],[23.95625,61.285417],[23.952083,61.285417],[23.952083,61.28125]]]},"properties":{"radiance":8.68}},{"type":"Feature","geometry":{"type":"Polygon","coordinates":[[[23.95625,61.28125],[23.960417,61.28125],[23.960417,61.285417],[23.95625,61.285417],[23.95625,61.28125]]]},"properties":{"radiance":11.86}},{"type":"Feature","geometry":{"type":"Polygon","coordinates":[[[23.960417,61.28125],[23.964583,61.28125],[23.964583,61.285417],[23.960417,61.285417],[23.960417,61.28125]]]},"properties":{"radiance":10.26}},{"type":"Feature","geometry":{"type":"Polygon","coordinates":[[[23.964583,61.28125],[23.96875,61.28125],[23.96875,61.285417],[23.964583,61.285417],[23.964583,61.28125]]]},"properties":{"radiance":8.3}},{"type":"Feature","geometry":{"type":"Polygon","coordinates":[[[23.96875,61.28125],[23.972917,61.28125],[23.972917,61.285417],[23.96875,61.285417],[23.96875,61.28125]]]},"properties":{"radiance":5.3}},{"type":"Feature","geometry":{"type":"Polygon","coordinates":[[[23.985417,61.28125],[23.989583,61.28125],[23.989583,61.285417],[23.985417,61.285417],[23.985417,61.28125]]]},"properties":{"radiance":8.31}},{"type":"Feature","geometry":{"type":"Polygon","coordinates":[[[23.989583,61.28125],[23.99375,61.28125],[23.99375,61.285417],[23.989583,61.285417],[23.989583,61.28125]]]},"properties":{"radiance":9.19}},{"type":"Feature","geometry":{"type":"Polygon","coordinates":[[[23.99375,61.28125],[23.997917,61.28125],[23.997917,61.285417],[23.99375,61.285417],[23.99375,61.28125]]]},"properties":{"radiance":7.79}},{"type":"Feature","geometry":{"type":"Polygon","coordinates":[[[23.997917,61.28125],[24.002083,61.28125],[24.002083,61.285417],[23.997917,61.285417],[23.997917,61.28125]]]},"properties":{"radiance":5.53}},{"type":"Feature","geometry":{"type":"Polygon","coordinates":[[[24.00625,61.28125],[24.010417,61.28125],[24.010417,61.285417],[24.00625,61.285417],[24.00625,61.28125]]]},"properties":{"radiance":5.01}},{"type":"Feature","geometry":{"type":"Polygon","coordinates":[[[24.010417,61.28125],[24.014583,61.28125],[24.014583,61.285417],[24.010417,61.285417],[24.010417,61.28125]]]},"properties":{"radiance":11.46}},{"type":"Feature","geometry":{"type":"Polygon","coordinates":[[[24.014583,61.28125],[24.01875,61.28125],[24.01875,61.285417],[24.014583,61.285417],[24.014583,61.28125]]]},"properties":{"radiance":17.61}},{"type":"Feature","geometry":{"type":"Polygon","coordinates":[[[24.01875,61.28125],[24.022917,61.28125],[24.022917,61.285417],[24.01875,61.285417],[24.01875,61.28125]]]},"properties":{"radiance":13.73}},{"type":"Feature","geometry":{"type":"Polygon","coordinates":[[[24.022917,61.28125],[24.027083,61.28125],[24.027083,61.285417],[24.022917,61.285417],[24.022917,61.28125]]]},"properties":{"radiance":7.01}},{"type":"Feature","geometry":{"type":"Polygon","coordinates":[[[23.960417,61.277083],[23.964583,61.277083],[23.964583,61.28125],[23.960417,61.28125],[23.960417,61.277083]]]},"properties":{"radiance":9.12}},{"type":"Feature","geometry":{"type":"Polygon","coordinates":[[[23.964583,61.277083],[23.96875,61.277083],[23.96875,61.28125],[23.964583,61.28125],[23.964583,61.277083]]]},"properties":{"radiance":5.7}},{"type":"Feature","geometry":{"type":"Polygon","coordinates":[[[24.00625,61.277083],[24.010417,61.277083],[24.010417,61.28125],[24.00625,61.28125],[24.00625,61.277083]]]},"properties":{"radiance":7.83}},{"type":"Feature","geometry":{"type":"Polygon","coordinates":[[[24.010417,61.277083],[24.014583,61.277083],[24.014583,61.28125],[24.010417,61.28125],[24.010417,61.277083]]]},"properties":{"radiance":14.99}},{"type":"Feature","geometry":{"type":"Polygon","coordinates":[[[24.014583,61.277083],[24.01875,61.277083],[24.01875,61.28125],[24.014583,61.28125],[24.014583,61.277083]]]},"properties":{"radiance":18.82}},{"type":"Feature","geometry":{"type":"Polygon","coordinates":[[[24.01875,61.277083],[24.022917,61.277083],[24.022917,61.28125],[24.01875,61.28125],[24.01875,61.277083]]]},"properties":{"radiance":20.01}},{"type":"Feature","geometry":{"type":"Polygon","coordinates":[[[24.022917,61.277083],[24.027083,61.277083],[24.027083,61.28125],[24.022917,61.28125],[24.022917,61.277083]]]},"properties":{"radiance":14.65}},{"type":"Feature","geometry":{"type":"Polygon","coordinates":[[[24.027083,61.277083],[24.03125,61.277083],[24.03125,61.28125],[24.027083,61.28125],[24.027083,61.277083]]]},"properties":{"radiance":10.65}},{"type":"Feature","geometry":{"type":"Polygon","coordinates":[[[24.03125,61.277083],[24.035417,61.277083],[24.035417,61.28125],[24.03125,61.28125],[24.03125,61.277083]]]},"properties":{"radiance":9.29}},{"type":"Feature","geometry":{"type":"Polygon","coordinates":[[[23.960417,61.272917],[23.964583,61.272917],[23.964583,61.277083],[23.960417,61.277083],[23.960417,61.272917]]]},"properties":{"radiance":5.28}},{"type":"Feature","geometry":{"type":"Polygon","coordinates":[[[23.964583,61.272917],[23.96875,61.272917],[23.96875,61.277083],[23.964583,61.277083],[23.964583,61.272917]]]},"properties":{"radiance":5.41}},{"type":"Feature","geometry":{"type":"Polygon","coordinates":[[[24.00625,61.272917],[24.010417,61.272917],[24.010417,61.277083],[24.00625,61.277083],[24.00625,61.272917]]]},"properties":{"radiance":6.41}},{"type":"Feature","geometry":{"type":"Polygon","coordinates":[[[24.010417,61.272917],[24.014583,61.272917],[24.014583,61.277083],[24.010417,61.277083],[24.010417,61.272917]]]},"properties":{"radiance":6.23}},{"type":"Feature","geometry":{"type":"Polygon","coordinates":[[[24.014583,61.272917],[24.01875,61.272917],[24.01875,61.277083],[24.014583,61.277083],[24.014583,61.272917]]]},"properties":{"radiance":9.95}},{"type":"Feature","geometry":{"type":"Polygon","coordinates":[[[24.01875,61.272917],[24.022917,61.272917],[24.022917,61.277083],[24.01875,61.277083],[24.01875,61.272917]]]},"properties":{"radiance":12.87}},{"type":"Feature","geometry":{"type":"Polygon","coordinates":[[[24.022917,61.272917],[24.027083,61.272917],[24.027083,61.277083],[24.022917,61.277083],[24.022917,61.272917]]]},"properties":{"radiance":16.55}},{"type":"Feature","geometry":{"type":"Polygon","coordinates":[[[24.027083,61.272917],[24.03125,61.272917],[24.03125,61.277083],[24.027083,61.277083],[24.027083,61.272917]]]},"properties":{"radiance":10.82}},{"type":"Feature","geometry":{"type":"Polygon","coordinates":[[[24.03125,61.272917],[24.035417,61.272917],[24.035417,61.277083],[24.03125,61.277083],[24.03125,61.272917]]]},"properties":{"radiance":7.78}},{"type":"Feature","geometry":{"type":"Polygon","coordinates":[[[24.002083,61.26875],[24.00625,61.26875],[24.00625,61.272917],[24.002083,61.272917],[24.002083,61.26875]]]},"properties":{"radiance":9.66}},{"type":"Feature","geometry":{"type":"Polygon","coordinates":[[[24.00625,61.26875],[24.010417,61.26875],[24.010417,61.272917],[24.00625,61.272917],[24.00625,61.26875]]]},"properties":{"radiance":14.94}},{"type":"Feature","geometry":{"type":"Polygon","coordinates":[[[24.010417,61.26875],[24.014583,61.26875],[24.014583,61.272917],[24.010417,61.272917],[24.010417,61.26875]]]},"properties":{"radiance":29.94}},{"type":"Feature","geometry":{"type":"Polygon","coordinates":[[[24.014583,61.26875],[24.01875,61.26875],[24.01875,61.272917],[24.014583,61.272917],[24.014583,61.26875]]]},"properties":{"radiance":32.45}},{"type":"Feature","geometry":{"type":"Polygon","coordinates":[[[24.01875,61.26875],[24.022917,61.26875],[24.022917,61.272917],[24.01875,61.272917],[24.01875,61.26875]]]},"properties":{"radiance":24.44}},{"type":"Feature","geometry":{"type":"Polygon","coordinates":[[[24.022917,61.26875],[24.027083,61.26875],[24.027083,61.272917],[24.022917,61.272917],[24.022917,61.26875]]]},"properties":{"radiance":35.04}},{"type":"Feature","geometry":{"type":"Polygon","coordinates":[[[24.027083,61.26875],[24.03125,61.26875],[24.03125,61.272917],[24.027083,61.272917],[24.027083,61.26875]]]},"properties":{"radiance":30.33}},{"type":"Feature","geometry":{"type":"Polygon","coordinates":[[[24.03125,61.26875],[24.035417,61.26875],[24.035417,61.272917],[24.03125,61.272917],[24.03125,61.26875]]]},"properties":{"radiance":29.45}},{"type":"Feature","geometry":{"type":"Polygon","coordinates":[[[24.035417,61.26875],[24.039583,61.26875],[24.039583,61.272917],[24.035417,61.272917],[24.035417,61.26875]]]},"properties":{"radiance":19.01}},{"type":"Feature","geometry":{"type":"Polygon","coordinates":[[[24.039583,61.26875],[24.04375,61.26875],[24.04375,61.272917],[24.039583,61.272917],[24.039583,61.26875]]]},"properties":{"radiance":10.98}},{"type":"Feature","geometry":{"type":"Polygon","coordinates":[[[24.04375,61.26875],[24.047917,61.26875],[24.047917,61.272917],[24.04375,61.272917],[24.04375,61.26875]]]},"properties":{"radiance":7.39}},{"type":"Feature","geometry":{"type":"Polygon","coordinates":[[[24.047917,61.26875],[24.052083,61.26875],[24.052083,61.272917],[24.047917,61.272917],[24.047917,61.26875]]]},"properties":{"radiance":6}},{"type":"Feature","geometry":{"type":"Polygon","coordinates":[[[24.052083,61.26875],[24.05625,61.26875],[24.05625,61.272917],[24.052083,61.272917],[24.052083,61.26875]]]},"properties":{"radiance":6.06}},{"type":"Feature","geometry":{"type":"Polygon","coordinates":[[[24.05625,61.26875],[24.060417,61.26875],[24.060417,61.272917],[24.05625,61.272917],[24.05625,61.26875]]]},"properties":{"radiance":6.19}},{"type":"Feature","geometry":{"type":"Polygon","coordinates":[[[24.060417,61.26875],[24.064583,61.26875],[24.064583,61.272917],[24.060417,61.272917],[24.060417,61.26875]]]},"properties":{"radiance":5.32}},{"type":"Feature","geometry":{"type":"Polygon","coordinates":[[[23.99375,61.264583],[23.997917,61.264583],[23.997917,61.26875],[23.99375,61.26875],[23.99375,61.264583]]]},"properties":{"radiance":5.71}},{"type":"Feature","geometry":{"type":"Polygon","coordinates":[[[23.997917,61.264583],[24.002083,61.264583],[24.002083,61.26875],[23.997917,61.26875],[23.997917,61.264583]]]},"properties":{"radiance":7.12}},{"type":"Feature","geometry":{"type":"Polygon","coordinates":[[[24.002083,61.264583],[24.00625,61.264583],[24.00625,61.26875],[24.002083,61.26875],[24.002083,61.264583]]]},"properties":{"radiance":27.08}},{"type":"Feature","geometry":{"type":"Polygon","coordinates":[[[24.00625,61.264583],[24.010417,61.264583],[24.010417,61.26875],[24.00625,61.26875],[24.00625,61.264583]]]},"properties":{"radiance":30.84}},{"type":"Feature","geometry":{"type":"Polygon","coordinates":[[[24.010417,61.264583],[24.014583,61.264583],[24.014583,61.26875],[24.010417,61.26875],[24.010417,61.264583]]]},"properties":{"radiance":26.18}},{"type":"Feature","geometry":{"type":"Polygon","coordinates":[[[24.014583,61.264583],[24.01875,61.264583],[24.01875,61.26875],[24.014583,61.26875],[24.014583,61.264583]]]},"properties":{"radiance":35.31}},{"type":"Feature","geometry":{"type":"Polygon","coordinates":[[[24.01875,61.264583],[24.022917,61.264583],[24.022917,61.26875],[24.01875,61.26875],[24.01875,61.264583]]]},"properties":{"radiance":41.34}},{"type":"Feature","geometry":{"type":"Polygon","coordinates":[[[24.022917,61.264583],[24.027083,61.264583],[24.027083,61.26875],[24.022917,61.26875],[24.022917,61.264583]]]},"properties":{"radiance":41.23}},{"type":"Feature","geometry":{"type":"Polygon","coordinates":[[[24.027083,61.264583],[24.03125,61.264583],[24.03125,61.26875],[24.027083,61.26875],[24.027083,61.264583]]]},"properties":{"radiance":42.17}},{"type":"Feature","geometry":{"type":"Polygon","coordinates":[[[24.03125,61.264583],[24.035417,61.264583],[24.035417,61.26875],[24.03125,61.26875],[24.03125,61.264583]]]},"properties":{"radiance":30.35}},{"type":"Feature","geometry":{"type":"Polygon","coordinates":[[[24.035417,61.264583],[24.039583,61.264583],[24.039583,61.26875],[24.035417,61.26875],[24.035417,61.264583]]]},"properties":{"radiance":25.1}},{"type":"Feature","geometry":{"type":"Polygon","coordinates":[[[24.039583,61.264583],[24.04375,61.264583],[24.04375,61.26875],[24.039583,61.26875],[24.039583,61.264583]]]},"properties":{"radiance":17.4}},{"type":"Feature","geometry":{"type":"Polygon","coordinates":[[[24.04375,61.264583],[24.047917,61.264583],[24.047917,61.26875],[24.04375,61.26875],[24.04375,61.264583]]]},"properties":{"radiance":7.55}},{"type":"Feature","geometry":{"type":"Polygon","coordinates":[[[24.047917,61.264583],[24.052083,61.264583],[24.052083,61.26875],[24.047917,61.26875],[24.047917,61.264583]]]},"properties":{"radiance":7.7}},{"type":"Feature","geometry":{"type":"Polygon","coordinates":[[[24.052083,61.264583],[24.05625,61.264583],[24.05625,61.26875],[24.052083,61.26875],[24.052083,61.264583]]]},"properties":{"radiance":5.8}},{"type":"Feature","geometry":{"type":"Polygon","coordinates":[[[24.05625,61.264583],[24.060417,61.264583],[24.060417,61.26875],[24.05625,61.26875],[24.05625,61.264583]]]},"properties":{"radiance":5.01}},{"type":"Feature","geometry":{"type":"Polygon","coordinates":[[[23.985417,61.260417],[23.989583,61.260417],[23.989583,61.264583],[23.985417,61.264583],[23.985417,61.260417]]]},"properties":{"radiance":5.93}},{"type":"Feature","geometry":{"type":"Polygon","coordinates":[[[23.989583,61.260417],[23.99375,61.260417],[23.99375,61.264583],[23.989583,61.264583],[23.989583,61.260417]]]},"properties":{"radiance":8.96}},{"type":"Feature","geometry":{"type":"Polygon","coordinates":[[[23.99375,61.260417],[23.997917,61.260417],[23.997917,61.264583],[23.99375,61.264583],[23.99375,61.260417]]]},"properties":{"radiance":10.8}},{"type":"Feature","geometry":{"type":"Polygon","coordinates":[[[23.997917,61.260417],[24.002083,61.260417],[24.002083,61.264583],[23.997917,61.264583],[23.997917,61.260417]]]},"properties":{"radiance":16.47}},{"type":"Feature","geometry":{"type":"Polygon","coordinates":[[[24.002083,61.260417],[24.00625,61.260417],[24.00625,61.264583],[24.002083,61.264583],[24.002083,61.260417]]]},"properties":{"radiance":18.91}},{"type":"Feature","geometry":{"type":"Polygon","coordinates":[[[24.00625,61.260417],[24.010417,61.260417],[24.010417,61.264583],[24.00625,61.264583],[24.00625,61.260417]]]},"properties":{"radiance":24.78}},{"type":"Feature","geometry":{"type":"Polygon","coordinates":[[[24.010417,61.260417],[24.014583,61.260417],[24.014583,61.264583],[24.010417,61.264583],[24.010417,61.260417]]]},"properties":{"radiance":23.14}},{"type":"Feature","geometry":{"type":"Polygon","coordinates":[[[24.014583,61.260417],[24.01875,61.260417],[24.01875,61.264583],[24.014583,61.264583],[24.014583,61.260417]]]},"properties":{"radiance":35.76}},{"type":"Feature","geometry":{"type":"Polygon","coordinates":[[[24.01875,61.260417],[24.022917,61.260417],[24.022917,61.264583],[24.01875,61.264583],[24.01875,61.260417]]]},"properties":{"radiance":42.71}},{"type":"Feature","geometry":{"type":"Polygon","coordinates":[[[24.022917,61.260417],[24.027083,61.260417],[24.027083,61.264583],[24.022917,61.264583],[24.022917,61.260417]]]},"properties":{"radiance":62.31}},{"type":"Feature","geometry":{"type":"Polygon","coordinates":[[[24.027083,61.260417],[24.03125,61.260417],[24.03125,61.264583],[24.027083,61.264583],[24.027083,61.260417]]]},"properties":{"radiance":35.42}},{"type":"Feature","geometry":{"type":"Polygon","coordinates":[[[24.03125,61.260417],[24.035417,61.260417],[24.035417,61.264583],[24.03125,61.264583],[24.03125,61.260417]]]},"properties":{"radiance":19.89}},{"type":"Feature","geometry":{"type":"Polygon","coordinates":[[[24.035417,61.260417],[24.039583,61.260417],[24.039583,61.264583],[24.035417,61.264583],[24.035417,61.260417]]]},"properties":{"radiance":17.54}},{"type":"Feature","geometry":{"type":"Polygon","coordinates":[[[24.039583,61.260417],[24.04375,61.260417],[24.04375,61.264583],[24.039583,61.264583],[24.039583,61.260417]]]},"properties":{"radiance":11.79}},{"type":"Feature","geometry":{"type":"Polygon","coordinates":[[[23.83125,61.25625],[23.835417,61.25625],[23.835417,61.260417],[23.83125,61.260417],[23.83125,61.25625]]]},"properties":{"radiance":21.48}},{"type":"Feature","geometry":{"type":"Polygon","coordinates":[[[23.835417,61.25625],[23.839583,61.25625],[23.839583,61.260417],[23.835417,61.260417],[23.835417,61.25625]]]},"properties":{"radiance":17.51}},{"type":"Feature","geometry":{"type":"Polygon","coordinates":[[[23.997917,61.25625],[24.002083,61.25625],[24.002083,61.260417],[23.997917,61.260417],[23.997917,61.25625]]]},"properties":{"radiance":8.67}},{"type":"Feature","geometry":{"type":"Polygon","coordinates":[[[24.002083,61.25625],[24.00625,61.25625],[24.00625,61.260417],[24.002083,61.260417],[24.002083,61.25625]]]},"properties":{"radiance":14.53}},{"type":"Feature","geometry":{"type":"Polygon","coordinates":[[[24.00625,61.25625],[24.010417,61.25625],[24.010417,61.260417],[24.00625,61.260417],[24.00625,61.25625]]]},"properties":{"radiance":8.66}},{"type":"Feature","geometry":{"type":"Polygon","coordinates":[[[24.010417,61.25625],[24.014583,61.25625],[24.014583,61.260417],[24.010417,61.260417],[24.010417,61.25625]]]},"properties":{"radiance":6.44}},{"type":"Feature","geometry":{"type":"Polygon","coordinates":[[[24.027083,61.25625],[24.03125,61.25625],[24.03125,61.260417],[24.027083,61.260417],[24.027083,61.25625]]]},"properties":{"radiance":5.24}},{"type":"Feature","geometry":{"type":"Polygon","coordinates":[[[24.03125,61.25625],[24.035417,61.25625],[24.035417,61.260417],[24.03125,61.260417],[24.03125,61.25625]]]},"properties":{"radiance":6.06}},{"type":"Feature","geometry":{"type":"Polygon","coordinates":[[[24.039583,61.252083],[24.04375,61.252083],[24.04375,61.25625],[24.039583,61.25625],[24.039583,61.252083]]]},"properties":{"radiance":5.3}},{"type":"Feature","geometry":{"type":"Polygon","coordinates":[[[23.74375,61.21875],[23.747917,61.21875],[23.747917,61.222917],[23.74375,61.222917],[23.74375,61.21875]]]},"properties":{"radiance":5.29}},{"type":"Feature","geometry":{"type":"Polygon","coordinates":[[[23.74375,61.214583],[23.747917,61.214583],[23.747917,61.21875],[23.74375,61.21875],[23.74375,61.214583]]]},"properties":{"radiance":6.32}},{"type":"Feature","geometry":{"type":"Polygon","coordinates":[[[23.747917,61.214583],[23.752083,61.214583],[23.752083,61.21875],[23.747917,61.21875],[23.747917,61.214583]]]},"properties":{"radiance":7.55}},{"type":"Feature","geometry":{"type":"Polygon","coordinates":[[[23.752083,61.214583],[23.75625,61.214583],[23.75625,61.21875],[23.752083,61.21875],[23.752083,61.214583]]]},"properties":{"radiance":9.47}},{"type":"Feature","geometry":{"type":"Polygon","coordinates":[[[23.75625,61.214583],[23.760417,61.214583],[23.760417,61.21875],[23.75625,61.21875],[23.75625,61.214583]]]},"properties":{"radiance":16.21}},{"type":"Feature","geometry":{"type":"Polygon","coordinates":[[[23.760417,61.214583],[23.764583,61.214583],[23.764583,61.21875],[23.760417,61.21875],[23.760417,61.214583]]]},"properties":{"radiance":15.09}},{"type":"Feature","geometry":{"type":"Polygon","coordinates":[[[23.747917,61.210417],[23.752083,61.210417],[23.752083,61.214583],[23.747917,61.214583],[23.747917,61.210417]]]},"properties":{"radiance":5.6}},{"type":"Feature","geometry":{"type":"Polygon","coordinates":[[[23.752083,61.210417],[23.75625,61.210417],[23.75625,61.214583],[23.752083,61.214583],[23.752083,61.210417]]]},"properties":{"radiance":10.35}},{"type":"Feature","geometry":{"type":"Polygon","coordinates":[[[23.75625,61.210417],[23.760417,61.210417],[23.760417,61.214583],[23.75625,61.214583],[23.75625,61.210417]]]},"properties":{"radiance":13.4}},{"type":"Feature","geometry":{"type":"Polygon","coordinates":[[[23.760417,61.210417],[23.764583,61.210417],[23.764583,61.214583],[23.760417,61.214583],[23.760417,61.210417]]]},"properties":{"radiance":16.06}},{"type":"Feature","geometry":{"type":"Polygon","coordinates":[[[23.764583,61.210417],[23.76875,61.210417],[23.76875,61.214583],[23.764583,61.214583],[23.764583,61.210417]]]},"properties":{"radiance":14.87}},{"type":"Feature","geometry":{"type":"Polygon","coordinates":[[[23.76875,61.210417],[23.772917,61.210417],[23.772917,61.214583],[23.76875,61.214583],[23.76875,61.210417]]]},"properties":{"radiance":8.28}},{"type":"Feature","geometry":{"type":"Polygon","coordinates":[[[23.772917,61.210417],[23.777083,61.210417],[23.777083,61.214583],[23.772917,61.214583],[23.772917,61.210417]]]},"properties":{"radiance":5.12}},{"type":"Feature","geometry":{"type":"Polygon","coordinates":[[[23.752083,61.20625],[23.75625,61.20625],[23.75625,61.210417],[23.752083,61.210417],[23.752083,61.20625]]]},"properties":{"radiance":6.74}},{"type":"Feature","geometry":{"type":"Polygon","coordinates":[[[23.75625,61.20625],[23.760417,61.20625],[23.760417,61.210417],[23.75625,61.210417],[23.75625,61.20625]]]},"properties":{"radiance":9.48}},{"type":"Feature","geometry":{"type":"Polygon","coordinates":[[[23.760417,61.20625],[23.764583,61.20625],[23.764583,61.210417],[23.760417,61.210417],[23.760417,61.20625]]]},"properties":{"radiance":11.71}},{"type":"Feature","geometry":{"type":"Polygon","coordinates":[[[23.764583,61.20625],[23.76875,61.20625],[23.76875,61.210417],[23.764583,61.210417],[23.764583,61.20625]]]},"properties":{"radiance":8.81}},{"type":"Feature","geometry":{"type":"Polygon","coordinates":[[[23.76875,61.20625],[23.772917,61.20625],[23.772917,61.210417],[23.76875,61.210417],[23.76875,61.20625]]]},"properties":{"radiance":7.55}},{"type":"Feature","geometry":{"type":"Polygon","coordinates":[[[23.772917,61.20625],[23.777083,61.20625],[23.777083,61.210417],[23.772917,61.210417],[23.772917,61.20625]]]},"properties":{"radiance":5.5}},{"type":"Feature","geometry":{"type":"Polygon","coordinates":[[[23.835417,61.20625],[23.839583,61.20625],[23.839583,61.210417],[23.835417,61.210417],[23.835417,61.20625]]]},"properties":{"radiance":5.23}},{"type":"Feature","geometry":{"type":"Polygon","coordinates":[[[23.83125,61.202083],[23.835417,61.202083],[23.835417,61.20625],[23.83125,61.20625],[23.83125,61.202083]]]},"properties":{"radiance":5.05}},{"type":"Feature","geometry":{"type":"Polygon","coordinates":[[[23.835417,61.202083],[23.839583,61.202083],[23.839583,61.20625],[23.835417,61.20625],[23.835417,61.202083]]]},"properties":{"radiance":5.61}},{"type":"Feature","geometry":{"type":"Polygon","coordinates":[[[23.80625,61.197917],[23.810417,61.197917],[23.810417,61.202083],[23.80625,61.202083],[23.80625,61.197917]]]},"properties":{"radiance":5.66}},{"type":"Feature","geometry":{"type":"Polygon","coordinates":[[[23.810417,61.197917],[23.814583,61.197917],[23.814583,61.202083],[23.810417,61.202083],[23.810417,61.197917]]]},"properties":{"radiance":6.95}},{"type":"Feature","geometry":{"type":"Polygon","coordinates":[[[23.814583,61.197917],[23.81875,61.197917],[23.81875,61.202083],[23.814583,61.202083],[23.814583,61.197917]]]},"properties":{"radiance":6.93}},{"type":"Feature","geometry":{"type":"Polygon","coordinates":[[[23.81875,61.197917],[23.822917,61.197917],[23.822917,61.202083],[23.81875,61.202083],[23.81875,61.197917]]]},"properties":{"radiance":6.57}},{"type":"Feature","geometry":{"type":"Polygon","coordinates":[[[23.822917,61.197917],[23.827083,61.197917],[23.827083,61.202083],[23.822917,61.202083],[23.822917,61.197917]]]},"properties":{"radiance":5.62}},{"type":"Feature","geometry":{"type":"Polygon","coordinates":[[[23.80625,61.19375],[23.810417,61.19375],[23.810417,61.197917],[23.80625,61.197917],[23.80625,61.19375]]]},"properties":{"radiance":5.21}},{"type":"Feature","geometry":{"type":"Polygon","coordinates":[[[23.810417,61.19375],[23.814583,61.19375],[23.814583,61.197917],[23.810417,61.197917],[23.810417,61.19375]]]},"properties":{"radiance":6.76}},{"type":"Feature","geometry":{"type":"Polygon","coordinates":[[[23.814583,61.19375],[23.81875,61.19375],[23.81875,61.197917],[23.814583,61.197917],[23.814583,61.19375]]]},"properties":{"radiance":10.4}},{"type":"Feature","geometry":{"type":"Polygon","coordinates":[[[23.81875,61.19375],[23.822917,61.19375],[23.822917,61.197917],[23.81875,61.197917],[23.81875,61.19375]]]},"properties":{"radiance":7.6}},{"type":"Feature","geometry":{"type":"Polygon","coordinates":[[[23.822917,61.19375],[23.827083,61.19375],[23.827083,61.197917],[23.822917,61.197917],[23.822917,61.19375]]]},"properties":{"radiance":6.42}},{"type":"Feature","geometry":{"type":"Polygon","coordinates":[[[23.827083,61.19375],[23.83125,61.19375],[23.83125,61.197917],[23.827083,61.197917],[23.827083,61.19375]]]},"properties":{"radiance":5.77}},{"type":"Feature","geometry":{"type":"Polygon","coordinates":[[[23.822917,61.189583],[23.827083,61.189583],[23.827083,61.19375],[23.822917,61.19375],[23.822917,61.189583]]]},"properties":{"radiance":5.58}},{"type":"Feature","geometry":{"type":"Polygon","coordinates":[[[23.889583,61.185417],[23.89375,61.185417],[23.89375,61.189583],[23.889583,61.189583],[23.889583,61.185417]]]},"properties":{"radiance":5.19}},{"type":"Feature","geometry":{"type":"Polygon","coordinates":[[[23.710417,61.18125],[23.714583,61.18125],[23.714583,61.185417],[23.710417,61.185417],[23.710417,61.18125]]]},"properties":{"radiance":5.54}},{"type":"Feature","geometry":{"type":"Polygon","coordinates":[[[23.84375,61.18125],[23.847917,61.18125],[23.847917,61.185417],[23.84375,61.185417],[23.84375,61.18125]]]},"properties":{"radiance":6.46}},{"type":"Feature","geometry":{"type":"Polygon","coordinates":[[[23.847917,61.18125],[23.852083,61.18125],[23.852083,61.185417],[23.847917,61.185417],[23.847917,61.18125]]]},"properties":{"radiance":9.28}},{"type":"Feature","geometry":{"type":"Polygon","coordinates":[[[23.852083,61.18125],[23.85625,61.18125],[23.85625,61.185417],[23.852083,61.185417],[23.852083,61.18125]]]},"properties":{"radiance":8.52}},{"type":"Feature","geometry":{"type":"Polygon","coordinates":[[[23.85625,61.18125],[23.860417,61.18125],[23.860417,61.185417],[23.85625,61.185417],[23.85625,61.18125]]]},"properties":{"radiance":7.92}},{"type":"Feature","geometry":{"type":"Polygon","coordinates":[[[23.860417,61.18125],[23.864583,61.18125],[23.864583,61.185417],[23.860417,61.185417],[23.860417,61.18125]]]},"properties":{"radiance":8.9}},{"type":"Feature","geometry":{"type":"Polygon","coordinates":[[[23.864583,61.18125],[23.86875,61.18125],[23.86875,61.185417],[23.864583,61.185417],[23.864583,61.18125]]]},"properties":{"radiance":9.94}},{"type":"Feature","geometry":{"type":"Polygon","coordinates":[[[23.86875,61.18125],[23.872917,61.18125],[23.872917,61.185417],[23.86875,61.185417],[23.86875,61.18125]]]},"properties":{"radiance":11.05}},{"type":"Feature","geometry":{"type":"Polygon","coordinates":[[[23.872917,61.18125],[23.877083,61.18125],[23.877083,61.185417],[23.872917,61.185417],[23.872917,61.18125]]]},"properties":{"radiance":12.44}},{"type":"Feature","geometry":{"type":"Polygon","coordinates":[[[23.877083,61.18125],[23.88125,61.18125],[23.88125,61.185417],[23.877083,61.185417],[23.877083,61.18125]]]},"properties":{"radiance":18.41}},{"type":"Feature","geometry":{"type":"Polygon","coordinates":[[[23.88125,61.18125],[23.885417,61.18125],[23.885417,61.185417],[23.88125,61.185417],[23.88125,61.18125]]]},"properties":{"radiance":17.69}},{"type":"Feature","geometry":{"type":"Polygon","coordinates":[[[23.885417,61.18125],[23.889583,61.18125],[23.889583,61.185417],[23.885417,61.185417],[23.885417,61.18125]]]},"properties":{"radiance":9.38}},{"type":"Feature","geometry":{"type":"Polygon","coordinates":[[[23.889583,61.18125],[23.89375,61.18125],[23.89375,61.185417],[23.889583,61.185417],[23.889583,61.18125]]]},"properties":{"radiance":6.85}},{"type":"Feature","geometry":{"type":"Polygon","coordinates":[[[23.697917,61.177083],[23.702083,61.177083],[23.702083,61.18125],[23.697917,61.18125],[23.697917,61.177083]]]},"properties":{"radiance":5.05}},{"type":"Feature","geometry":{"type":"Polygon","coordinates":[[[23.702083,61.177083],[23.70625,61.177083],[23.70625,61.18125],[23.702083,61.18125],[23.702083,61.177083]]]},"properties":{"radiance":7.58}},{"type":"Feature","geometry":{"type":"Polygon","coordinates":[[[23.70625,61.177083],[23.710417,61.177083],[23.710417,61.18125],[23.70625,61.18125],[23.70625,61.177083]]]},"properties":{"radiance":6.42}},{"type":"Feature","geometry":{"type":"Polygon","coordinates":[[[23.839583,61.177083],[23.84375,61.177083],[23.84375,61.18125],[23.839583,61.18125],[23.839583,61.177083]]]},"properties":{"radiance":6.1}},{"type":"Feature","geometry":{"type":"Polygon","coordinates":[[[23.84375,61.177083],[23.847917,61.177083],[23.847917,61.18125],[23.84375,61.18125],[23.84375,61.177083]]]},"properties":{"radiance":10.05}},{"type":"Feature","geometry":{"type":"Polygon","coordinates":[[[23.847917,61.177083],[23.852083,61.177083],[23.852083,61.18125],[23.847917,61.18125],[23.847917,61.177083]]]},"properties":{"radiance":11.76}},{"type":"Feature","geometry":{"type":"Polygon","coordinates":[[[23.852083,61.177083],[23.85625,61.177083],[23.85625,61.18125],[23.852083,61.18125],[23.852083,61.177083]]]},"properties":{"radiance":14.28}},{"type":"Feature","geometry":{"type":"Polygon","coordinates":[[[23.85625,61.177083],[23.860417,61.177083],[23.860417,61.18125],[23.85625,61.18125],[23.85625,61.177083]]]},"properties":{"radiance":14.1}},{"type":"Feature","geometry":{"type":"Polygon","coordinates":[[[23.860417,61.177083],[23.864583,61.177083],[23.864583,61.18125],[23.860417,61.18125],[23.860417,61.177083]]]},"properties":{"radiance":15.15}},{"type":"Feature","geometry":{"type":"Polygon","coordinates":[[[23.864583,61.177083],[23.86875,61.177083],[23.86875,61.18125],[23.864583,61.18125],[23.864583,61.177083]]]},"properties":{"radiance":15.72}},{"type":"Feature","geometry":{"type":"Polygon","coordinates":[[[23.86875,61.177083],[23.872917,61.177083],[23.872917,61.18125],[23.86875,61.18125],[23.86875,61.177083]]]},"properties":{"radiance":13.67}},{"type":"Feature","geometry":{"type":"Polygon","coordinates":[[[23.872917,61.177083],[23.877083,61.177083],[23.877083,61.18125],[23.872917,61.18125],[23.872917,61.177083]]]},"properties":{"radiance":10.84}},{"type":"Feature","geometry":{"type":"Polygon","coordinates":[[[23.877083,61.177083],[23.88125,61.177083],[23.88125,61.18125],[23.877083,61.18125],[23.877083,61.177083]]]},"properties":{"radiance":10.58}},{"type":"Feature","geometry":{"type":"Polygon","coordinates":[[[23.88125,61.177083],[23.885417,61.177083],[23.885417,61.18125],[23.88125,61.18125],[23.88125,61.177083]]]},"properties":{"radiance":9.27}},{"type":"Feature","geometry":{"type":"Polygon","coordinates":[[[23.885417,61.177083],[23.889583,61.177083],[23.889583,61.18125],[23.885417,61.18125],[23.885417,61.177083]]]},"properties":{"radiance":11.96}},{"type":"Feature","geometry":{"type":"Polygon","coordinates":[[[23.69375,61.172917],[23.697917,61.172917],[23.697917,61.177083],[23.69375,61.177083],[23.69375,61.172917]]]},"properties":{"radiance":5.49}},{"type":"Feature","geometry":{"type":"Polygon","coordinates":[[[23.697917,61.172917],[23.702083,61.172917],[23.702083,61.177083],[23.697917,61.177083],[23.697917,61.172917]]]},"properties":{"radiance":13.03}},{"type":"Feature","geometry":{"type":"Polygon","coordinates":[[[23.702083,61.172917],[23.70625,61.172917],[23.70625,61.177083],[23.702083,61.177083],[23.702083,61.172917]]]},"properties":{"radiance":11.78}},{"type":"Feature","geometry":{"type":"Polygon","coordinates":[[[23.70625,61.172917],[23.710417,61.172917],[23.710417,61.177083],[23.70625,61.177083],[23.70625,61.172917]]]},"properties":{"radiance":15.3}},{"type":"Feature","geometry":{"type":"Polygon","coordinates":[[[23.710417,61.172917],[23.714583,61.172917],[23.714583,61.177083],[23.710417,61.177083],[23.710417,61.172917]]]},"properties":{"radiance":10.43}},{"type":"Feature","geometry":{"type":"Polygon","coordinates":[[[23.714583,61.172917],[23.71875,61.172917],[23.71875,61.177083],[23.714583,61.177083],[23.714583,61.172917]]]},"properties":{"radiance":8.66}},{"type":"Feature","geometry":{"type":"Polygon","coordinates":[[[23.84375,61.172917],[23.847917,61.172917],[23.847917,61.177083],[23.84375,61.177083],[23.84375,61.172917]]]},"properties":{"radiance":8.48}},{"type":"Feature","geometry":{"type":"Polygon","coordinates":[[[23.847917,61.172917],[23.852083,61.172917],[23.852083,61.177083],[23.847917,61.177083],[23.847917,61.172917]]]},"properties":{"radiance":9.48}},{"type":"Feature","geometry":{"type":"Polygon","coordinates":[[[23.852083,61.172917],[23.85625,61.172917],[23.85625,61.177083],[23.852083,61.177083],[23.852083,61.172917]]]},"properties":{"radiance":13.55}},{"type":"Feature","geometry":{"type":"Polygon","coordinates":[[[23.85625,61.172917],[23.860417,61.172917],[23.860417,61.177083],[23.85625,61.177083],[23.85625,61.172917]]]},"properties":{"radiance":20.65}},{"type":"Feature","geometry":{"type":"Polygon","coordinates":[[[23.860417,61.172917],[23.864583,61.172917],[23.864583,61.177083],[23.860417,61.177083],[23.860417,61.172917]]]},"properties":{"radiance":20.11}},{"type":"Feature","geometry":{"type":"Polygon","coordinates":[[[23.864583,61.172917],[23.86875,61.172917],[23.86875,61.177083],[23.864583,61.177083],[23.864583,61.172917]]]},"properties":{"radiance":12.76}},{"type":"Feature","geometry":{"type":"Polygon","coordinates":[[[23.86875,61.172917],[23.872917,61.172917],[23.872917,61.177083],[23.86875,61.177083],[23.86875,61.172917]]]},"properties":{"radiance":13.96}},{"type":"Feature","geometry":{"type":"Polygon","coordinates":[[[23.872917,61.172917],[23.877083,61.172917],[23.877083,61.177083],[23.872917,61.177083],[23.872917,61.172917]]]},"properties":{"radiance":8.07}},{"type":"Feature","geometry":{"type":"Polygon","coordinates":[[[23.877083,61.172917],[23.88125,61.172917],[23.88125,61.177083],[23.877083,61.177083],[23.877083,61.172917]]]},"properties":{"radiance":7.62}},{"type":"Feature","geometry":{"type":"Polygon","coordinates":[[[23.69375,61.16875],[23.697917,61.16875],[23.697917,61.172917],[23.69375,61.172917],[23.69375,61.16875]]]},"properties":{"radiance":7.2}},{"type":"Feature","geometry":{"type":"Polygon","coordinates":[[[23.697917,61.16875],[23.702083,61.16875],[23.702083,61.172917],[23.697917,61.172917],[23.697917,61.16875]]]},"properties":{"radiance":8.17}},{"type":"Feature","geometry":{"type":"Polygon","coordinates":[[[23.702083,61.16875],[23.70625,61.16875],[23.70625,61.172917],[23.702083,61.172917],[23.702083,61.16875]]]},"properties":{"radiance":8.02}},{"type":"Feature","geometry":{"type":"Polygon","coordinates":[[[23.70625,61.16875],[23.710417,61.16875],[23.710417,61.172917],[23.70625,61.172917],[23.70625,61.16875]]]},"properties":{"radiance":6.1}},{"type":"Feature","geometry":{"type":"Polygon","coordinates":[[[23.71875,61.16875],[23.722917,61.16875],[23.722917,61.172917],[23.71875,61.172917],[23.71875,61.16875]]]},"properties":{"radiance":5.28}},{"type":"Feature","geometry":{"type":"Polygon","coordinates":[[[23.84375,61.16875],[23.847917,61.16875],[23.847917,61.172917],[23.84375,61.172917],[23.84375,61.16875]]]},"properties":{"radiance":5.06}},{"type":"Feature","geometry":{"type":"Polygon","coordinates":[[[23.847917,61.16875],[23.852083,61.16875],[23.852083,61.172917],[23.847917,61.172917],[23.847917,61.16875]]]},"properties":{"radiance":7.05}},{"type":"Feature","geometry":{"type":"Polygon","coordinates":[[[23.852083,61.16875],[23.85625,61.16875],[23.85625,61.172917],[23.852083,61.172917],[23.852083,61.16875]]]},"properties":{"radiance":17.6}},{"type":"Feature","geometry":{"type":"Polygon","coordinates":[[[23.85625,61.16875],[23.860417,61.16875],[23.860417,61.172917],[23.85625,61.172917],[23.85625,61.16875]]]},"properties":{"radiance":20.17}},{"type":"Feature","geometry":{"type":"Polygon","coordinates":[[[23.860417,61.16875],[23.864583,61.16875],[23.864583,61.172917],[23.860417,61.172917],[23.860417,61.16875]]]},"properties":{"radiance":22.02}},{"type":"Feature","geometry":{"type":"Polygon","coordinates":[[[23.864583,61.16875],[23.86875,61.16875],[23.86875,61.172917],[23.864583,61.172917],[23.864583,61.16875]]]},"properties":{"radiance":18.85}},{"type":"Feature","geometry":{"type":"Polygon","coordinates":[[[23.86875,61.16875],[23.872917,61.16875],[23.872917,61.172917],[23.86875,61.172917],[23.86875,61.16875]]]},"properties":{"radiance":10.25}},{"type":"Feature","geometry":{"type":"Polygon","coordinates":[[[23.872917,61.16875],[23.877083,61.16875],[23.877083,61.172917],[23.872917,61.172917],[23.872917,61.16875]]]},"properties":{"radiance":8.68}},{"type":"Feature","geometry":{"type":"Polygon","coordinates":[[[23.877083,61.16875],[23.88125,61.16875],[23.88125,61.172917],[23.877083,61.172917],[23.877083,61.16875]]]},"properties":{"radiance":8.03}},{"type":"Feature","geometry":{"type":"Polygon","coordinates":[[[23.689583,61.164583],[23.69375,61.164583],[23.69375,61.16875],[23.689583,61.16875],[23.689583,61.164583]]]},"properties":{"radiance":7.55}},{"type":"Feature","geometry":{"type":"Polygon","coordinates":[[[23.69375,61.164583],[23.697917,61.164583],[23.697917,61.16875],[23.69375,61.16875],[23.69375,61.164583]]]},"properties":{"radiance":5.52}},{"type":"Feature","geometry":{"type":"Polygon","coordinates":[[[23.697917,61.164583],[23.702083,61.164583],[23.702083,61.16875],[23.697917,61.16875],[23.697917,61.164583]]]},"properties":{"radiance":5.52}},{"type":"Feature","geometry":{"type":"Polygon","coordinates":[[[23.852083,61.164583],[23.85625,61.164583],[23.85625,61.16875],[23.852083,61.16875],[23.852083,61.164583]]]},"properties":{"radiance":5.76}},{"type":"Feature","geometry":{"type":"Polygon","coordinates":[[[23.85625,61.164583],[23.860417,61.164583],[23.860417,61.16875],[23.85625,61.16875],[23.85625,61.164583]]]},"properties":{"radiance":6.32}},{"type":"Feature","geometry":{"type":"Polygon","coordinates":[[[23.860417,61.164583],[23.864583,61.164583],[23.864583,61.16875],[23.860417,61.16875],[23.860417,61.164583]]]},"properties":{"radiance":11.8}},{"type":"Feature","geometry":{"type":"Polygon","coordinates":[[[23.864583,61.164583],[23.86875,61.164583],[23.86875,61.16875],[23.864583,61.16875],[23.864583,61.164583]]]},"properties":{"radiance":12.38}},{"type":"Feature","geometry":{"type":"Polygon","coordinates":[[[23.86875,61.164583],[23.872917,61.164583],[23.872917,61.16875],[23.86875,61.16875],[23.86875,61.164583]]]},"properties":{"radiance":11.18}},{"type":"Feature","geometry":{"type":"Polygon","coordinates":[[[23.872917,61.164583],[23.877083,61.164583],[23.877083,61.16875],[23.872917,61.16875],[23.872917,61.164583]]]},"properties":{"radiance":10.73}},{"type":"Feature","geometry":{"type":"Polygon","coordinates":[[[23.877083,61.164583],[23.88125,61.164583],[23.88125,61.16875],[23.877083,61.16875],[23.877083,61.164583]]]},"properties":{"radiance":7.33}},{"type":"Feature","geometry":{"type":"Polygon","coordinates":[[[23.685417,61.160417],[23.689583,61.160417],[23.689583,61.164583],[23.685417,61.164583],[23.685417,61.160417]]]},"properties":{"radiance":9.76}},{"type":"Feature","geometry":{"type":"Polygon","coordinates":[[[23.689583,61.160417],[23.69375,61.160417],[23.69375,61.164583],[23.689583,61.164583],[23.689583,61.160417]]]},"properties":{"radiance":9.04}},{"type":"Feature","geometry":{"type":"Polygon","coordinates":[[[23.69375,61.160417],[23.697917,61.160417],[23.697917,61.164583],[23.69375,61.164583],[23.69375,61.160417]]]},"properties":{"radiance":7.33}},{"type":"Feature","geometry":{"type":"Polygon","coordinates":[[[23.697917,61.160417],[23.702083,61.160417],[23.702083,61.164583],[23.697917,61.164583],[23.697917,61.160417]]]},"properties":{"radiance":6.24}},{"type":"Feature","geometry":{"type":"Polygon","coordinates":[[[23.872917,61.160417],[23.877083,61.160417],[23.877083,61.164583],[23.872917,61.164583],[23.872917,61.160417]]]},"properties":{"radiance":5.5}},{"type":"Feature","geometry":{"type":"Polygon","coordinates":[[[23.68125,61.15625],[23.685417,61.15625],[23.685417,61.160417],[23.68125,61.160417],[23.68125,61.15625]]]},"properties":{"radiance":8.3}},{"type":"Feature","geometry":{"type":"Polygon","coordinates":[[[23.685417,61.15625],[23.689583,61.15625],[23.689583,61.160417],[23.685417,61.160417],[23.685417,61.15625]]]},"properties":{"radiance":10.64}},{"type":"Feature","geometry":{"type":"Polygon","coordinates":[[[23.689583,61.15625],[23.69375,61.15625],[23.69375,61.160417],[23.689583,61.160417],[23.689583,61.15625]]]},"properties":{"radiance":10.75}},{"type":"Feature","geometry":{"type":"Polygon","coordinates":[[[23.69375,61.15625],[23.697917,61.15625],[23.697917,61.160417],[23.69375,61.160417],[23.69375,61.15625]]]},"properties":{"radiance":7.08}},{"type":"Feature","geometry":{"type":"Polygon","coordinates":[[[23.68125,61.152083],[23.685417,61.152083],[23.685417,61.15625],[23.68125,61.15625],[23.68125,61.152083]]]},"properties":{"radiance":10.65}},{"type":"Feature","geometry":{"type":"Polygon","coordinates":[[[23.685417,61.152083],[23.689583,61.152083],[23.689583,61.15625],[23.685417,61.15625],[23.685417,61.152083]]]},"properties":{"radiance":12.06}},{"type":"Feature","geometry":{"type":"Polygon","coordinates":[[[23.689583,61.152083],[23.69375,61.152083],[23.69375,61.15625],[23.689583,61.15625],[23.689583,61.152083]]]},"properties":{"radiance":11.57}},{"type":"Feature","geometry":{"type":"Polygon","coordinates":[[[23.685417,61.147917],[23.689583,61.147917],[23.689583,61.152083],[23.685417,61.152083],[23.685417,61.147917]]]},"properties":{"radiance":10.16}},{"type":"Feature","geometry":{"type":"Polygon","coordinates":[[[23.689583,61.147917],[23.69375,61.147917],[23.69375,61.152083],[23.689583,61.152083],[23.689583,61.147917]]]},"properties":{"radiance":9.73}},{"type":"Feature","geometry":{"type":"Polygon","coordinates":[[[23.69375,61.147917],[23.697917,61.147917],[23.697917,61.152083],[23.69375,61.152083],[23.69375,61.147917]]]},"properties":{"radiance":5.79}},{"type":"Feature","geometry":{"type":"Polygon","coordinates":[[[24.060417,61.139583],[24.064583,61.139583],[24.064583,61.14375],[24.060417,61.14375],[24.060417,61.139583]]]},"properties":{"radiance":5.48}},{"type":"Feature","geometry":{"type":"Polygon","coordinates":[[[24.064583,61.139583],[24.06875,61.139583],[24.06875,61.14375],[24.064583,61.14375],[24.064583,61.139583]]]},"properties":{"radiance":5.46}},{"type":"Feature","geometry":{"type":"Polygon","coordinates":[[[24.147917,61.097917],[24.152083,61.097917],[24.152083,61.102083],[24.147917,61.102083],[24.147917,61.097917]]]},"properties":{"radiance":5.33}},{"type":"Feature","geometry":{"type":"Polygon","coordinates":[[[24.152083,61.097917],[24.15625,61.097917],[24.15625,61.102083],[24.152083,61.102083],[24.152083,61.097917]]]},"properties":{"radiance":6.9}},{"type":"Feature","geometry":{"type":"Polygon","coordinates":[[[24.15625,61.097917],[24.160417,61.097917],[24.160417,61.102083],[24.15625,61.102083],[24.15625,61.097917]]]},"properties":{"radiance":6.57}},{"type":"Feature","geometry":{"type":"Polygon","coordinates":[[[24.160417,61.097917],[24.164583,61.097917],[24.164583,61.102083],[24.160417,61.102083],[24.160417,61.097917]]]},"properties":{"radiance":5.91}},{"type":"Feature","geometry":{"type":"Polygon","coordinates":[[[24.11875,61.09375],[24.122917,61.09375],[24.122917,61.097917],[24.11875,61.097917],[24.11875,61.09375]]]},"properties":{"radiance":5.31}},{"type":"Feature","geometry":{"type":"Polygon","coordinates":[[[24.127083,61.09375],[24.13125,61.09375],[24.13125,61.097917],[24.127083,61.097917],[24.127083,61.09375]]]},"properties":{"radiance":7.36}},{"type":"Feature","geometry":{"type":"Polygon","coordinates":[[[24.13125,61.09375],[24.135417,61.09375],[24.135417,61.097917],[24.13125,61.097917],[24.13125,61.09375]]]},"properties":{"radiance":9.17}},{"type":"Feature","geometry":{"type":"Polygon","coordinates":[[[24.135417,61.09375],[24.139583,61.09375],[24.139583,61.097917],[24.135417,61.097917],[24.135417,61.09375]]]},"properties":{"radiance":10.58}},{"type":"Feature","geometry":{"type":"Polygon","coordinates":[[[24.139583,61.09375],[24.14375,61.09375],[24.14375,61.097917],[24.139583,61.097917],[24.139583,61.09375]]]},"properties":{"radiance":7.94}},{"type":"Feature","geometry":{"type":"Polygon","coordinates":[[[24.14375,61.09375],[24.147917,61.09375],[24.147917,61.097917],[24.14375,61.097917],[24.14375,61.09375]]]},"properties":{"radiance":5.65}},{"type":"Feature","geometry":{"type":"Polygon","coordinates":[[[24.147917,61.09375],[24.152083,61.09375],[24.152083,61.097917],[24.147917,61.097917],[24.147917,61.09375]]]},"properties":{"radiance":5.78}},{"type":"Feature","geometry":{"type":"Polygon","coordinates":[[[24.152083,61.09375],[24.15625,61.09375],[24.15625,61.097917],[24.152083,61.097917],[24.152083,61.09375]]]},"properties":{"radiance":6.18}},{"type":"Feature","geometry":{"type":"Polygon","coordinates":[[[24.15625,61.09375],[24.160417,61.09375],[24.160417,61.097917],[24.15625,61.097917],[24.15625,61.09375]]]},"properties":{"radiance":6.18}},{"type":"Feature","geometry":{"type":"Polygon","coordinates":[[[24.160417,61.09375],[24.164583,61.09375],[24.164583,61.097917],[24.160417,61.097917],[24.160417,61.09375]]]},"properties":{"radiance":6.19}},{"type":"Feature","geometry":{"type":"Polygon","coordinates":[[[24.11875,61.089583],[24.122917,61.089583],[24.122917,61.09375],[24.11875,61.09375],[24.11875,61.089583]]]},"properties":{"radiance":7.71}},{"type":"Feature","geometry":{"type":"Polygon","coordinates":[[[24.122917,61.089583],[24.127083,61.089583],[24.127083,61.09375],[24.122917,61.09375],[24.122917,61.089583]]]},"properties":{"radiance":9.27}},{"type":"Feature","geometry":{"type":"Polygon","coordinates":[[[24.127083,61.089583],[24.13125,61.089583],[24.13125,61.09375],[24.127083,61.09375],[24.127083,61.089583]]]},"properties":{"radiance":17.34}},{"type":"Feature","geometry":{"type":"Polygon","coordinates":[[[24.13125,61.089583],[24.135417,61.089583],[24.135417,61.09375],[24.13125,61.09375],[24.13125,61.089583]]]},"properties":{"radiance":15.93}},{"type":"Feature","geometry":{"type":"Polygon","coordinates":[[[24.135417,61.089583],[24.139583,61.089583],[24.139583,61.09375],[24.135417,61.09375],[24.135417,61.089583]]]},"properties":{"radiance":12.36}},{"type":"Feature","geometry":{"type":"Polygon","coordinates":[[[24.139583,61.089583],[24.14375,61.089583],[24.14375,61.09375],[24.139583,61.09375],[24.139583,61.089583]]]},"properties":{"radiance":7.83}},{"type":"Feature","geometry":{"type":"Polygon","coordinates":[[[24.14375,61.089583],[24.147917,61.089583],[24.147917,61.09375],[24.14375,61.09375],[24.14375,61.089583]]]},"properties":{"radiance":5.14}},{"type":"Feature","geometry":{"type":"Polygon","coordinates":[[[23.527083,61.085417],[23.53125,61.085417],[23.53125,61.089583],[23.527083,61.089583],[23.527083,61.085417]]]},"properties":{"radiance":6.06}},{"type":"Feature","geometry":{"type":"Polygon","coordinates":[[[23.535417,61.085417],[23.539583,61.085417],[23.539583,61.089583],[23.535417,61.089583],[23.535417,61.085417]]]},"properties":{"radiance":6.27}},{"type":"Feature","geometry":{"type":"Polygon","coordinates":[[[23.539583,61.085417],[23.54375,61.085417],[23.54375,61.089583],[23.539583,61.089583],[23.539583,61.085417]]]},"properties":{"radiance":8.43}},{"type":"Feature","geometry":{"type":"Polygon","coordinates":[[[23.54375,61.085417],[23.547917,61.085417],[23.547917,61.089583],[23.54375,61.089583],[23.54375,61.085417]]]},"properties":{"radiance":8.72}},{"type":"Feature","geometry":{"type":"Polygon","coordinates":[[[23.547917,61.085417],[23.552083,61.085417],[23.552083,61.089583],[23.547917,61.089583],[23.547917,61.085417]]]},"properties":{"radiance":6.39}},{"type":"Feature","geometry":{"type":"Polygon","coordinates":[[[23.552083,61.085417],[23.55625,61.085417],[23.55625,61.089583],[23.552083,61.089583],[23.552083,61.085417]]]},"properties":{"radiance":7.31}},{"type":"Feature","geometry":{"type":"Polygon","coordinates":[[[24.13125,61.085417],[24.135417,61.085417],[24.135417,61.089583],[24.13125,61.089583],[24.13125,61.085417]]]},"properties":{"radiance":7.31}},{"type":"Feature","geometry":{"type":"Polygon","coordinates":[[[23.522917,61.08125],[23.527083,61.08125],[23.527083,61.085417],[23.522917,61.085417],[23.522917,61.08125]]]},"properties":{"radiance":6.2}},{"type":"Feature","geometry":{"type":"Polygon","coordinates":[[[23.527083,61.08125],[23.53125,61.08125],[23.53125,61.085417],[23.527083,61.085417],[23.527083,61.08125]]]},"properties":{"radiance":19.22}},{"type":"Feature","geometry":{"type":"Polygon","coordinates":[[[23.53125,61.08125],[23.535417,61.08125],[23.535417,61.085417],[23.53125,61.085417],[23.53125,61.08125]]]},"properties":{"radiance":20.44}},{"type":"Feature","geometry":{"type":"Polygon","coordinates":[[[23.535417,61.08125],[23.539583,61.08125],[23.539583,61.085417],[23.535417,61.085417],[23.535417,61.08125]]]},"properties":{"radiance":19.81}},{"type":"Feature","geometry":{"type":"Polygon","coordinates":[[[23.539583,61.08125],[23.54375,61.08125],[23.54375,61.085417],[23.539583,61.085417],[23.539583,61.08125]]]},"properties":{"radiance":13.76}},{"type":"Feature","geometry":{"type":"Polygon","coordinates":[[[23.54375,61.08125],[23.547917,61.08125],[23.547917,61.085417],[23.54375,61.085417],[23.54375,61.08125]]]},"properties":{"radiance":14.39}},{"type":"Feature","geometry":{"type":"Polygon","coordinates":[[[23.547917,61.08125],[23.552083,61.08125],[23.552083,61.085417],[23.547917,61.085417],[23.547917,61.08125]]]},"properties":{"radiance":10.43}},{"type":"Feature","geometry":{"type":"Polygon","coordinates":[[[23.552083,61.08125],[23.55625,61.08125],[23.55625,61.085417],[23.552083,61.085417],[23.552083,61.08125]]]},"properties":{"radiance":10.24}},{"type":"Feature","geometry":{"type":"Polygon","coordinates":[[[23.55625,61.08125],[23.560417,61.08125],[23.560417,61.085417],[23.55625,61.085417],[23.55625,61.08125]]]},"properties":{"radiance":5.98}},{"type":"Feature","geometry":{"type":"Polygon","coordinates":[[[23.51875,61.077083],[23.522917,61.077083],[23.522917,61.08125],[23.51875,61.08125],[23.51875,61.077083]]]},"properties":{"radiance":5.55}},{"type":"Feature","geometry":{"type":"Polygon","coordinates":[[[23.522917,61.077083],[23.527083,61.077083],[23.527083,61.08125],[23.522917,61.08125],[23.522917,61.077083]]]},"properties":{"radiance":7.12}},{"type":"Feature","geometry":{"type":"Polygon","coordinates":[[[23.527083,61.077083],[23.53125,61.077083],[23.53125,61.08125],[23.527083,61.08125],[23.527083,61.077083]]]},"properties":{"radiance":15.71}},{"type":"Feature","geometry":{"type":"Polygon","coordinates":[[[23.53125,61.077083],[23.535417,61.077083],[23.535417,61.08125],[23.53125,61.08125],[23.53125,61.077083]]]},"properties":{"radiance":12.51}},{"type":"Feature","geometry":{"type":"Polygon","coordinates":[[[23.535417,61.077083],[23.539583,61.077083],[23.539583,61.08125],[23.535417,61.08125],[23.535417,61.077083]]]},"properties":{"radiance":13.76}},{"type":"Feature","geometry":{"type":"Polygon","coordinates":[[[23.539583,61.077083],[23.54375,61.077083],[23.54375,61.08125],[23.539583,61.08125],[23.539583,61.077083]]]},"properties":{"radiance":6.8}},{"type":"Feature","geometry":{"type":"Polygon","coordinates":[[[23.54375,61.077083],[23.547917,61.077083],[23.547917,61.08125],[23.54375,61.08125],[23.54375,61.077083]]]},"properties":{"radiance":6.26}},{"type":"Feature","geometry":{"type":"Polygon","coordinates":[[[23.547917,61.077083],[23.552083,61.077083],[23.552083,61.08125],[23.547917,61.08125],[23.547917,61.077083]]]},"properties":{"radiance":7.33}},{"type":"Feature","geometry":{"type":"Polygon","coordinates":[[[23.552083,61.077083],[23.55625,61.077083],[23.55625,61.08125],[23.552083,61.08125],[23.552083,61.077083]]]},"properties":{"radiance":6.05}},{"type":"Feature","geometry":{"type":"Polygon","coordinates":[[[23.55625,61.077083],[23.560417,61.077083],[23.560417,61.08125],[23.55625,61.08125],[23.55625,61.077083]]]},"properties":{"radiance":6.6}},{"type":"Feature","geometry":{"type":"Polygon","coordinates":[[[24.314583,61.077083],[24.31875,61.077083],[24.31875,61.08125],[24.314583,61.08125],[24.314583,61.077083]]]},"properties":{"radiance":9.87}},{"type":"Feature","geometry":{"type":"Polygon","coordinates":[[[23.522917,61.072917],[23.527083,61.072917],[23.527083,61.077083],[23.522917,61.077083],[23.522917,61.072917]]]},"properties":{"radiance":6.5}},{"type":"Feature","geometry":{"type":"Polygon","coordinates":[[[23.527083,61.072917],[23.53125,61.072917],[23.53125,61.077083],[23.527083,61.077083],[23.527083,61.072917]]]},"properties":{"radiance":6.2}},{"type":"Feature","geometry":{"type":"Polygon","coordinates":[[[24.314583,61.072917],[24.31875,61.072917],[24.31875,61.077083],[24.314583,61.077083],[24.314583,61.072917]]]},"properties":{"radiance":12.25}},{"type":"Feature","geometry":{"type":"Polygon","coordinates":[[[23.51875,61.06875],[23.522917,61.06875],[23.522917,61.072917],[23.51875,61.072917],[23.51875,61.06875]]]},"properties":{"radiance":5.18}},{"type":"Feature","geometry":{"type":"Polygon","coordinates":[[[23.522917,61.06875],[23.527083,61.06875],[23.527083,61.072917],[23.522917,61.072917],[23.522917,61.06875]]]},"properties":{"radiance":5.56}},{"type":"Feature","geometry":{"type":"Polygon","coordinates":[[[23.610417,61.064583],[23.614583,61.064583],[23.614583,61.06875],[23.610417,61.06875],[23.610417,61.064583]]]},"properties":{"radiance":5.57}},{"type":"Feature","geometry":{"type":"Polygon","coordinates":[[[23.614583,61.064583],[23.61875,61.064583],[23.61875,61.06875],[23.614583,61.06875],[23.614583,61.064583]]]},"properties":{"radiance":5.72}}]}