{"type":"FeatureCollection","features":[{"type":"Feature","geometry":{"type":"Polygon","coordinates":[[[20.289583,60.11875],[20.29375,60.11875],[20.29375,60.122917],[20.289583,60.122917],[20.289583,60.11875]]]},"properties":{"radiance":14.23}},{"type":"Feature","geometry":{"type":"Polygon","coordinates":[[[20.289583,60.114583],[20.29375,60.114583],[20.29375,60.11875],[20.289583,60.11875],[20.289583,60.114583]]]},"properties":{"radiance":25.88}},{"type":"Feature","geometry":{"type":"Polygon","coordinates":[[[20.29375,60.114583],[20.297917,60.114583],[20.297917,60.11875],[20.29375,60.11875],[20.29375,60.114583]]]},"properties":{"radiance":26.96}},{"type":"Feature","geometry":{"type":"Polygon","coordinates":[[[20.297917,60.114583],[20.302083,60.114583],[20.302083,60.11875],[20.297917,60.11875],[20.297917,60.114583]]]},"properties":{"radiance":25.93}}]}