{"type":"FeatureCollection","features":[{"type":"Feature","geometry":{"type":"Polygon","coordinates":[[[22.747917,63.76875],[22.752083,63.76875],[22.752083,63.772917],[22.747917,63.772917],[22.747917,63.76875]]]},"properties":{"radiance":5.12}},{"type":"Feature","geometry":{"type":"Polygon","coordinates":[[[22.752083,63.76875],[22.75625,63.76875],[22.75625,63.772917],[22.752083,63.772917],[22.752083,63.76875]]]},"properties":{"radiance":6.74}},{"type":"Feature","geometry":{"type":"Polygon","coordinates":[[[22.739583,63.764583],[22.74375,63.764583],[22.74375,63.76875],[22.739583,63.76875],[22.739583,63.764583]]]},"properties":{"radiance":5.02}},{"type":"Feature","geometry":{"type":"Polygon","coordinates":[[[22.75625,63.764583],[22.760417,63.764583],[22.760417,63.76875],[22.75625,63.76875],[22.75625,63.764583]]]},"properties":{"radiance":5.03}},{"type":"Feature","geometry":{"type":"Polygon","coordinates":[[[22.752083,63.760417],[22.75625,63.760417],[22.75625,63.764583],[22.752083,63.764583],[22.752083,63.760417]]]},"properties":{"radiance":6.24}},{"type":"Feature","geometry":{"type":"Polygon","coordinates":[[[22.735417,63.75625],[22.739583,63.75625],[22.739583,63.760417],[22.735417,63.760417],[22.735417,63.75625]]]},"properties":{"radiance":31.34}},{"type":"Feature","geometry":{"type":"Polygon","coordinates":[[[22.739583,63.75625],[22.74375,63.75625],[22.74375,63.760417],[22.739583,63.760417],[22.739583,63.75625]]]},"properties":{"radiance":30.75}},{"type":"Feature","geometry":{"type":"Polygon","coordinates":[[[22.74375,63.75625],[22.747917,63.75625],[22.747917,63.760417],[22.74375,63.760417],[22.74375,63.75625]]]},"properties":{"radiance":14.13}},{"type":"Feature","geometry":{"type":"Polygon","coordinates":[[[22.747917,63.75625],[22.752083,63.75625],[22.752083,63.760417],[22.747917,63.760417],[22.747917,63.75625]]]},"properties":{"radiance":9.85}},{"type":"Feature","geometry":{"type":"Polygon","coordinates":[[[22.752083,63.75625],[22.75625,63.75625],[22.75625,63.760417],[22.752083,63.760417],[22.752083,63.75625]]]},"properties":{"radiance":6.31}},{"type":"Feature","geometry":{"type":"Polygon","coordinates":[[[22.73125,63.752083],[22.735417,63.752083],[22.735417,63.75625],[22.73125,63.75625],[22.73125,63.752083]]]},"properties":{"radiance":8.89}},{"type":"Feature","geometry":{"type":"Polygon","coordinates":[[[22.739583,63.752083],[22.74375,63.752083],[22.74375,63.75625],[22.739583,63.75625],[22.739583,63.752083]]]},"properties":{"radiance":12.23}},{"type":"Feature","geometry":{"type":"Polygon","coordinates":[[[22.74375,63.752083],[22.747917,63.752083],[22.747917,63.75625],[22.74375,63.75625],[22.74375,63.752083]]]},"properties":{"radiance":24.09}},{"type":"Feature","geometry":{"type":"Polygon","coordinates":[[[22.747917,63.752083],[22.752083,63.752083],[22.752083,63.75625],[22.747917,63.75625],[22.747917,63.752083]]]},"properties":{"radiance":11.92}},{"type":"Feature","geometry":{"type":"Polygon","coordinates":[[[22.735417,63.747917],[22.739583,63.747917],[22.739583,63.752083],[22.735417,63.752083],[22.735417,63.747917]]]},"properties":{"radiance":5.17}},{"type":"Feature","geometry":{"type":"Polygon","coordinates":[[[22.689583,63.722917],[22.69375,63.722917],[22.69375,63.727083],[22.689583,63.727083],[22.689583,63.722917]]]},"properties":{"radiance":8.21}},{"type":"Feature","geometry":{"type":"Polygon","coordinates":[[[22.672917,63.714583],[22.677083,63.714583],[22.677083,63.71875],[22.672917,63.71875],[22.672917,63.714583]]]},"properties":{"radiance":8.16}},{"type":"Feature","geometry":{"type":"Polygon","coordinates":[[[22.677083,63.714583],[22.68125,63.714583],[22.68125,63.71875],[22.677083,63.71875],[22.677083,63.714583]]]},"properties":{"radiance":17.29}},{"type":"Feature","geometry":{"type":"Polygon","coordinates":[[[22.68125,63.714583],[22.685417,63.714583],[22.685417,63.71875],[22.68125,63.71875],[22.68125,63.714583]]]},"properties":{"radiance":29.51}},{"type":"Feature","geometry":{"type":"Polygon","coordinates":[[[22.689583,63.714583],[22.69375,63.714583],[22.69375,63.71875],[22.689583,63.71875],[22.689583,63.714583]]]},"properties":{"radiance":148.47}},{"type":"Feature","geometry":{"type":"Polygon","coordinates":[[[22.69375,63.714583],[22.697917,63.714583],[22.697917,63.71875],[22.69375,63.71875],[22.69375,63.714583]]]},"properties":{"radiance":118.83}},{"type":"Feature","geometry":{"type":"Polygon","coordinates":[[[22.697917,63.714583],[22.702083,63.714583],[22.702083,63.71875],[22.697917,63.71875],[22.697917,63.714583]]]},"properties":{"radiance":75.49}},{"type":"Feature","geometry":{"type":"Polygon","coordinates":[[[22.702083,63.714583],[22.70625,63.714583],[22.70625,63.71875],[22.702083,63.71875],[22.702083,63.714583]]]},"properties":{"radiance":63.31}},{"type":"Feature","geometry":{"type":"Polygon","coordinates":[[[22.70625,63.714583],[22.710417,63.714583],[22.710417,63.71875],[22.70625,63.71875],[22.70625,63.714583]]]},"properties":{"radiance":28.22}},{"type":"Feature","geometry":{"type":"Polygon","coordinates":[[[22.710417,63.714583],[22.714583,63.714583],[22.714583,63.71875],[22.710417,63.71875],[22.710417,63.714583]]]},"properties":{"radiance":9.44}},{"type":"Feature","geometry":{"type":"Polygon","coordinates":[[[22.714583,63.714583],[22.71875,63.714583],[22.71875,63.71875],[22.714583,63.71875],[22.714583,63.714583]]]},"properties":{"radiance":5.59}},{"type":"Feature","geometry":{"type":"Polygon","coordinates":[[[22.752083,63.714583],[22.75625,63.714583],[22.75625,63.71875],[22.752083,63.71875],[22.752083,63.714583]]]},"properties":{"radiance":5.94}},{"type":"Feature","geometry":{"type":"Polygon","coordinates":[[[22.75625,63.714583],[22.760417,63.714583],[22.760417,63.71875],[22.75625,63.71875],[22.75625,63.714583]]]},"properties":{"radiance":9.09}},{"type":"Feature","geometry":{"type":"Polygon","coordinates":[[[22.760417,63.714583],[22.764583,63.714583],[22.764583,63.71875],[22.760417,63.71875],[22.760417,63.714583]]]},"properties":{"radiance":6.25}},{"type":"Feature","geometry":{"type":"Polygon","coordinates":[[[22.672917,63.710417],[22.677083,63.710417],[22.677083,63.714583],[22.672917,63.714583],[22.672917,63.710417]]]},"properties":{"radiance":9.48}},{"type":"Feature","geometry":{"type":"Polygon","coordinates":[[[22.677083,63.710417],[22.68125,63.710417],[22.68125,63.714583],[22.677083,63.714583],[22.677083,63.710417]]]},"properties":{"radiance":13.04}},{"type":"Feature","geometry":{"type":"Polygon","coordinates":[[[22.68125,63.710417],[22.685417,63.710417],[22.685417,63.714583],[22.68125,63.714583],[22.68125,63.710417]]]},"properties":{"radiance":79.15}},{"type":"Feature","geometry":{"type":"Polygon","coordinates":[[[22.685417,63.710417],[22.689583,63.710417],[22.689583,63.714583],[22.685417,63.714583],[22.685417,63.710417]]]},"properties":{"radiance":147.23}},{"type":"Feature","geometry":{"type":"Polygon","coordinates":[[[22.689583,63.710417],[22.69375,63.710417],[22.69375,63.714583],[22.689583,63.714583],[22.689583,63.710417]]]},"properties":{"radiance":197.8}},{"type":"Feature","geometry":{"type":"Polygon","coordinates":[[[22.69375,63.710417],[22.697917,63.710417],[22.697917,63.714583],[22.69375,63.714583],[22.69375,63.710417]]]},"properties":{"radiance":253.31}},{"type":"Feature","geometry":{"type":"Polygon","coordinates":[[[22.697917,63.710417],[22.702083,63.710417],[22.702083,63.714583],[22.697917,63.714583],[22.697917,63.710417]]]},"properties":{"radiance":212.01}},{"type":"Feature","geometry":{"type":"Polygon","coordinates":[[[22.702083,63.710417],[22.70625,63.710417],[22.70625,63.714583],[22.702083,63.714583],[22.702083,63.710417]]]},"properties":{"radiance":195.92}},{"type":"Feature","geometry":{"type":"Polygon","coordinates":[[[22.70625,63.710417],[22.710417,63.710417],[22.710417,63.714583],[22.70625,63.714583],[22.70625,63.710417]]]},"properties":{"radiance":128.02}},{"type":"Feature","geometry":{"type":"Polygon","coordinates":[[[22.710417,63.710417],[22.714583,63.710417],[22.714583,63.714583],[22.710417,63.714583],[22.710417,63.710417]]]},"properties":{"radiance":100.17}},{"type":"Feature","geometry":{"type":"Polygon","coordinates":[[[22.714583,63.710417],[22.71875,63.710417],[22.71875,63.714583],[22.714583,63.714583],[22.714583,63.710417]]]},"properties":{"radiance":42.17}},{"type":"Feature","geometry":{"type":"Polygon","coordinates":[[[22.71875,63.710417],[22.722917,63.710417],[22.722917,63.714583],[22.71875,63.714583],[22.71875,63.710417]]]},"properties":{"radiance":14.42}},{"type":"Feature","geometry":{"type":"Polygon","coordinates":[[[22.722917,63.710417],[22.727083,63.710417],[22.727083,63.714583],[22.722917,63.714583],[22.722917,63.710417]]]},"properties":{"radiance":7.81}},{"type":"Feature","geometry":{"type":"Polygon","coordinates":[[[22.74375,63.710417],[22.747917,63.710417],[22.747917,63.714583],[22.74375,63.714583],[22.74375,63.710417]]]},"properties":{"radiance":5.08}},{"type":"Feature","geometry":{"type":"Polygon","coordinates":[[[22.747917,63.710417],[22.752083,63.710417],[22.752083,63.714583],[22.747917,63.714583],[22.747917,63.710417]]]},"properties":{"radiance":6.52}},{"type":"Feature","geometry":{"type":"Polygon","coordinates":[[[22.752083,63.710417],[22.75625,63.710417],[22.75625,63.714583],[22.752083,63.714583],[22.752083,63.710417]]]},"properties":{"radiance":7.23}},{"type":"Feature","geometry":{"type":"Polygon","coordinates":[[[22.75625,63.710417],[22.760417,63.710417],[22.760417,63.714583],[22.75625,63.714583],[22.75625,63.710417]]]},"properties":{"radiance":7.34}},{"type":"Feature","geometry":{"type":"Polygon","coordinates":[[[22.760417,63.710417],[22.764583,63.710417],[22.764583,63.714583],[22.760417,63.714583],[22.760417,63.710417]]]},"properties":{"radiance":5.48}},{"type":"Feature","geometry":{"type":"Polygon","coordinates":[[[22.672917,63.70625],[22.677083,63.70625],[22.677083,63.710417],[22.672917,63.710417],[22.672917,63.70625]]]},"properties":{"radiance":5.78}},{"type":"Feature","geometry":{"type":"Polygon","coordinates":[[[22.685417,63.70625],[22.689583,63.70625],[22.689583,63.710417],[22.685417,63.710417],[22.685417,63.70625]]]},"properties":{"radiance":91.4}},{"type":"Feature","geometry":{"type":"Polygon","coordinates":[[[22.689583,63.70625],[22.69375,63.70625],[22.69375,63.710417],[22.689583,63.710417],[22.689583,63.70625]]]},"properties":{"radiance":224.87}},{"type":"Feature","geometry":{"type":"Polygon","coordinates":[[[22.69375,63.70625],[22.697917,63.70625],[22.697917,63.710417],[22.69375,63.710417],[22.69375,63.70625]]]},"properties":{"radiance":263.68}},{"type":"Feature","geometry":{"type":"Polygon","coordinates":[[[22.697917,63.70625],[22.702083,63.70625],[22.702083,63.710417],[22.697917,63.710417],[22.697917,63.70625]]]},"properties":{"radiance":282.37}},{"type":"Feature","geometry":{"type":"Polygon","coordinates":[[[22.702083,63.70625],[22.70625,63.70625],[22.70625,63.710417],[22.702083,63.710417],[22.702083,63.70625]]]},"properties":{"radiance":217.07}},{"type":"Feature","geometry":{"type":"Polygon","coordinates":[[[22.70625,63.70625],[22.710417,63.70625],[22.710417,63.710417],[22.70625,63.710417],[22.70625,63.70625]]]},"properties":{"radiance":211.05}},{"type":"Feature","geometry":{"type":"Polygon","coordinates":[[[22.710417,63.70625],[22.714583,63.70625],[22.714583,63.710417],[22.710417,63.710417],[22.710417,63.70625]]]},"properties":{"radiance":149.01}},{"type":"Feature","geometry":{"type":"Polygon","coordinates":[[[22.714583,63.70625],[22.71875,63.70625],[22.71875,63.710417],[22.714583,63.710417],[22.714583,63.70625]]]},"properties":{"radiance":109.53}},{"type":"Feature","geometry":{"type":"Polygon","coordinates":[[[22.71875,63.70625],[22.722917,63.70625],[22.722917,63.710417],[22.71875,63.710417],[22.71875,63.70625]]]},"properties":{"radiance":80.53}},{"type":"Feature","geometry":{"type":"Polygon","coordinates":[[[22.722917,63.70625],[22.727083,63.70625],[22.727083,63.710417],[22.722917,63.710417],[22.722917,63.70625]]]},"properties":{"radiance":10.22}},{"type":"Feature","geometry":{"type":"Polygon","coordinates":[[[22.727083,63.70625],[22.73125,63.70625],[22.73125,63.710417],[22.727083,63.710417],[22.727083,63.70625]]]},"properties":{"radiance":5.67}},{"type":"Feature","geometry":{"type":"Polygon","coordinates":[[[22.747917,63.70625],[22.752083,63.70625],[22.752083,63.710417],[22.747917,63.710417],[22.747917,63.70625]]]},"properties":{"radiance":5.23}},{"type":"Feature","geometry":{"type":"Polygon","coordinates":[[[22.752083,63.70625],[22.75625,63.70625],[22.75625,63.710417],[22.752083,63.710417],[22.752083,63.70625]]]},"properties":{"radiance":6.71}},{"type":"Feature","geometry":{"type":"Polygon","coordinates":[[[22.75625,63.70625],[22.760417,63.70625],[22.760417,63.710417],[22.75625,63.710417],[22.75625,63.70625]]]},"properties":{"radiance":5.79}},{"type":"Feature","geometry":{"type":"Polygon","coordinates":[[[22.672917,63.702083],[22.677083,63.702083],[22.677083,63.70625],[22.672917,63.70625],[22.672917,63.702083]]]},"properties":{"radiance":7.87}},{"type":"Feature","geometry":{"type":"Polygon","coordinates":[[[22.677083,63.702083],[22.68125,63.702083],[22.68125,63.70625],[22.677083,63.70625],[22.677083,63.702083]]]},"properties":{"radiance":9.94}},{"type":"Feature","geometry":{"type":"Polygon","coordinates":[[[22.689583,63.702083],[22.69375,63.702083],[22.69375,63.70625],[22.689583,63.70625],[22.689583,63.702083]]]},"properties":{"radiance":192.65}},{"type":"Feature","geometry":{"type":"Polygon","coordinates":[[[22.69375,63.702083],[22.697917,63.702083],[22.697917,63.70625],[22.69375,63.70625],[22.69375,63.702083]]]},"properties":{"radiance":249.7}},{"type":"Feature","geometry":{"type":"Polygon","coordinates":[[[22.697917,63.702083],[22.702083,63.702083],[22.702083,63.70625],[22.697917,63.70625],[22.697917,63.702083]]]},"properties":{"radiance":257.98}},{"type":"Feature","geometry":{"type":"Polygon","coordinates":[[[22.702083,63.702083],[22.70625,63.702083],[22.70625,63.70625],[22.702083,63.70625],[22.702083,63.702083]]]},"properties":{"radiance":268.21}},{"type":"Feature","geometry":{"type":"Polygon","coordinates":[[[22.70625,63.702083],[22.710417,63.702083],[22.710417,63.70625],[22.70625,63.70625],[22.70625,63.702083]]]},"properties":{"radiance":262.44}},{"type":"Feature","geometry":{"type":"Polygon","coordinates":[[[22.710417,63.702083],[22.714583,63.702083],[22.714583,63.70625],[22.710417,63.70625],[22.710417,63.702083]]]},"properties":{"radiance":225.71}},{"type":"Feature","geometry":{"type":"Polygon","coordinates":[[[22.714583,63.702083],[22.71875,63.702083],[22.71875,63.70625],[22.714583,63.70625],[22.714583,63.702083]]]},"properties":{"radiance":180.57}},{"type":"Feature","geometry":{"type":"Polygon","coordinates":[[[22.71875,63.702083],[22.722917,63.702083],[22.722917,63.70625],[22.71875,63.70625],[22.71875,63.702083]]]},"properties":{"radiance":133.78}},{"type":"Feature","geometry":{"type":"Polygon","coordinates":[[[22.722917,63.702083],[22.727083,63.702083],[22.727083,63.70625],[22.722917,63.70625],[22.722917,63.702083]]]},"properties":{"radiance":59.17}},{"type":"Feature","geometry":{"type":"Polygon","coordinates":[[[22.727083,63.702083],[22.73125,63.702083],[22.73125,63.70625],[22.727083,63.70625],[22.727083,63.702083]]]},"properties":{"radiance":10}},{"type":"Feature","geometry":{"type":"Polygon","coordinates":[[[22.73125,63.702083],[22.735417,63.702083],[22.735417,63.70625],[22.73125,63.70625],[22.73125,63.702083]]]},"properties":{"radiance":8.07}},{"type":"Feature","geometry":{"type":"Polygon","coordinates":[[[22.75625,63.702083],[22.760417,63.702083],[22.760417,63.70625],[22.75625,63.70625],[22.75625,63.702083]]]},"properties":{"radiance":5.04}},{"type":"Feature","geometry":{"type":"Polygon","coordinates":[[[22.689583,63.697917],[22.69375,63.697917],[22.69375,63.702083],[22.689583,63.702083],[22.689583,63.697917]]]},"properties":{"radiance":27.02}},{"type":"Feature","geometry":{"type":"Polygon","coordinates":[[[22.69375,63.697917],[22.697917,63.697917],[22.697917,63.702083],[22.69375,63.702083],[22.69375,63.697917]]]},"properties":{"radiance":94.39}},{"type":"Feature","geometry":{"type":"Polygon","coordinates":[[[22.697917,63.697917],[22.702083,63.697917],[22.702083,63.702083],[22.697917,63.702083],[22.697917,63.697917]]]},"properties":{"radiance":144.85}},{"type":"Feature","geometry":{"type":"Polygon","coordinates":[[[22.702083,63.697917],[22.70625,63.697917],[22.70625,63.702083],[22.702083,63.702083],[22.702083,63.697917]]]},"properties":{"radiance":157.79}},{"type":"Feature","geometry":{"type":"Polygon","coordinates":[[[22.70625,63.697917],[22.710417,63.697917],[22.710417,63.702083],[22.70625,63.702083],[22.70625,63.697917]]]},"properties":{"radiance":258.94}},{"type":"Feature","geometry":{"type":"Polygon","coordinates":[[[22.710417,63.697917],[22.714583,63.697917],[22.714583,63.702083],[22.710417,63.702083],[22.710417,63.697917]]]},"properties":{"radiance":172.89}},{"type":"Feature","geometry":{"type":"Polygon","coordinates":[[[22.714583,63.697917],[22.71875,63.697917],[22.71875,63.702083],[22.714583,63.702083],[22.714583,63.697917]]]},"properties":{"radiance":181.41}},{"type":"Feature","geometry":{"type":"Polygon","coordinates":[[[22.71875,63.697917],[22.722917,63.697917],[22.722917,63.702083],[22.71875,63.702083],[22.71875,63.697917]]]},"properties":{"radiance":91.19}},{"type":"Feature","geometry":{"type":"Polygon","coordinates":[[[22.722917,63.697917],[22.727083,63.697917],[22.727083,63.702083],[22.722917,63.702083],[22.722917,63.697917]]]},"properties":{"radiance":63.37}},{"type":"Feature","geometry":{"type":"Polygon","coordinates":[[[22.727083,63.697917],[22.73125,63.697917],[22.73125,63.702083],[22.727083,63.702083],[22.727083,63.697917]]]},"properties":{"radiance":44.78}},{"type":"Feature","geometry":{"type":"Polygon","coordinates":[[[22.73125,63.697917],[22.735417,63.697917],[22.735417,63.702083],[22.73125,63.702083],[22.73125,63.697917]]]},"properties":{"radiance":10.09}},{"type":"Feature","geometry":{"type":"Polygon","coordinates":[[[22.66875,63.69375],[22.672917,63.69375],[22.672917,63.697917],[22.66875,63.697917],[22.66875,63.69375]]]},"properties":{"radiance":6.61}},{"type":"Feature","geometry":{"type":"Polygon","coordinates":[[[22.689583,63.69375],[22.69375,63.69375],[22.69375,63.697917],[22.689583,63.697917],[22.689583,63.69375]]]},"properties":{"radiance":9.37}},{"type":"Feature","geometry":{"type":"Polygon","coordinates":[[[22.69375,63.69375],[22.697917,63.69375],[22.697917,63.697917],[22.69375,63.697917],[22.69375,63.69375]]]},"properties":{"radiance":12.11}},{"type":"Feature","geometry":{"type":"Polygon","coordinates":[[[22.697917,63.69375],[22.702083,63.69375],[22.702083,63.697917],[22.697917,63.697917],[22.697917,63.69375]]]},"properties":{"radiance":52.92}},{"type":"Feature","geometry":{"type":"Polygon","coordinates":[[[22.702083,63.69375],[22.70625,63.69375],[22.70625,63.697917],[22.702083,63.697917],[22.702083,63.69375]]]},"properties":{"radiance":52.9}},{"type":"Feature","geometry":{"type":"Polygon","coordinates":[[[22.70625,63.69375],[22.710417,63.69375],[22.710417,63.697917],[22.70625,63.697917],[22.70625,63.69375]]]},"properties":{"radiance":41.98}},{"type":"Feature","geometry":{"type":"Polygon","coordinates":[[[22.710417,63.69375],[22.714583,63.69375],[22.714583,63.697917],[22.710417,63.697917],[22.710417,63.69375]]]},"properties":{"radiance":62.09}},{"type":"Feature","geometry":{"type":"Polygon","coordinates":[[[22.714583,63.69375],[22.71875,63.69375],[22.71875,63.697917],[22.714583,63.697917],[22.714583,63.69375]]]},"properties":{"radiance":49.71}},{"type":"Feature","geometry":{"type":"Polygon","coordinates":[[[22.71875,63.69375],[22.722917,63.69375],[22.722917,63.697917],[22.71875,63.697917],[22.71875,63.69375]]]},"properties":{"radiance":41.8}},{"type":"Feature","geometry":{"type":"Polygon","coordinates":[[[22.722917,63.69375],[22.727083,63.69375],[22.727083,63.697917],[22.722917,63.697917],[22.722917,63.69375]]]},"properties":{"radiance":37.98}},{"type":"Feature","geometry":{"type":"Polygon","coordinates":[[[22.727083,63.69375],[22.73125,63.69375],[22.73125,63.697917],[22.727083,63.697917],[22.727083,63.69375]]]},"properties":{"radiance":6.82}},{"type":"Feature","geometry":{"type":"Polygon","coordinates":[[[22.73125,63.69375],[22.735417,63.69375],[22.735417,63.697917],[22.73125,63.697917],[22.73125,63.69375]]]},"properties":{"radiance":6.84}},{"type":"Feature","geometry":{"type":"Polygon","coordinates":[[[22.760417,63.69375],[22.764583,63.69375],[22.764583,63.697917],[22.760417,63.697917],[22.760417,63.69375]]]},"properties":{"radiance":5.52}},{"type":"Feature","geometry":{"type":"Polygon","coordinates":[[[22.66875,63.689583],[22.672917,63.689583],[22.672917,63.69375],[22.66875,63.69375],[22.66875,63.689583]]]},"properties":{"radiance":6.48}},{"type":"Feature","geometry":{"type":"Polygon","coordinates":[[[22.689583,63.689583],[22.69375,63.689583],[22.69375,63.69375],[22.689583,63.69375],[22.689583,63.689583]]]},"properties":{"radiance":10.2}},{"type":"Feature","geometry":{"type":"Polygon","coordinates":[[[22.69375,63.689583],[22.697917,63.689583],[22.697917,63.69375],[22.69375,63.69375],[22.69375,63.689583]]]},"properties":{"radiance":13.4}},{"type":"Feature","geometry":{"type":"Polygon","coordinates":[[[22.697917,63.689583],[22.702083,63.689583],[22.702083,63.69375],[22.697917,63.69375],[22.697917,63.689583]]]},"properties":{"radiance":54.99}},{"type":"Feature","geometry":{"type":"Polygon","coordinates":[[[22.702083,63.689583],[22.70625,63.689583],[22.70625,63.69375],[22.702083,63.69375],[22.702083,63.689583]]]},"properties":{"radiance":69.48}},{"type":"Feature","geometry":{"type":"Polygon","coordinates":[[[22.70625,63.689583],[22.710417,63.689583],[22.710417,63.69375],[22.70625,63.69375],[22.70625,63.689583]]]},"properties":{"radiance":40.9}},{"type":"Feature","geometry":{"type":"Polygon","coordinates":[[[22.710417,63.689583],[22.714583,63.689583],[22.714583,63.69375],[22.710417,63.69375],[22.710417,63.689583]]]},"properties":{"radiance":51.91}},{"type":"Feature","geometry":{"type":"Polygon","coordinates":[[[22.714583,63.689583],[22.71875,63.689583],[22.71875,63.69375],[22.714583,63.69375],[22.714583,63.689583]]]},"properties":{"radiance":42.95}},{"type":"Feature","geometry":{"type":"Polygon","coordinates":[[[22.71875,63.689583],[22.722917,63.689583],[22.722917,63.69375],[22.71875,63.69375],[22.71875,63.689583]]]},"properties":{"radiance":45.01}},{"type":"Feature","geometry":{"type":"Polygon","coordinates":[[[22.722917,63.689583],[22.727083,63.689583],[22.727083,63.69375],[22.722917,63.69375],[22.722917,63.689583]]]},"properties":{"radiance":44.47}},{"type":"Feature","geometry":{"type":"Polygon","coordinates":[[[22.727083,63.689583],[22.73125,63.689583],[22.73125,63.69375],[22.727083,63.69375],[22.727083,63.689583]]]},"properties":{"radiance":32.81}},{"type":"Feature","geometry":{"type":"Polygon","coordinates":[[[22.73125,63.689583],[22.735417,63.689583],[22.735417,63.69375],[22.73125,63.69375],[22.73125,63.689583]]]},"properties":{"radiance":33.74}},{"type":"Feature","geometry":{"type":"Polygon","coordinates":[[[22.735417,63.689583],[22.739583,63.689583],[22.739583,63.69375],[22.735417,63.69375],[22.735417,63.689583]]]},"properties":{"radiance":7.31}},{"type":"Feature","geometry":{"type":"Polygon","coordinates":[[[22.739583,63.689583],[22.74375,63.689583],[22.74375,63.69375],[22.739583,63.69375],[22.739583,63.689583]]]},"properties":{"radiance":7.19}},{"type":"Feature","geometry":{"type":"Polygon","coordinates":[[[22.74375,63.689583],[22.747917,63.689583],[22.747917,63.69375],[22.74375,63.69375],[22.74375,63.689583]]]},"properties":{"radiance":7.88}},{"type":"Feature","geometry":{"type":"Polygon","coordinates":[[[22.747917,63.689583],[22.752083,63.689583],[22.752083,63.69375],[22.747917,63.69375],[22.747917,63.689583]]]},"properties":{"radiance":6.5}},{"type":"Feature","geometry":{"type":"Polygon","coordinates":[[[22.752083,63.689583],[22.75625,63.689583],[22.75625,63.69375],[22.752083,63.69375],[22.752083,63.689583]]]},"properties":{"radiance":7.53}},{"type":"Feature","geometry":{"type":"Polygon","coordinates":[[[22.75625,63.689583],[22.760417,63.689583],[22.760417,63.69375],[22.75625,63.69375],[22.75625,63.689583]]]},"properties":{"radiance":6.02}},{"type":"Feature","geometry":{"type":"Polygon","coordinates":[[[22.66875,63.685417],[22.672917,63.685417],[22.672917,63.689583],[22.66875,63.689583],[22.66875,63.685417]]]},"properties":{"radiance":5.23}},{"type":"Feature","geometry":{"type":"Polygon","coordinates":[[[22.672917,63.685417],[22.677083,63.685417],[22.677083,63.689583],[22.672917,63.689583],[22.672917,63.685417]]]},"properties":{"radiance":5.45}},{"type":"Feature","geometry":{"type":"Polygon","coordinates":[[[22.677083,63.685417],[22.68125,63.685417],[22.68125,63.689583],[22.677083,63.689583],[22.677083,63.685417]]]},"properties":{"radiance":5.21}},{"type":"Feature","geometry":{"type":"Polygon","coordinates":[[[22.685417,63.685417],[22.689583,63.685417],[22.689583,63.689583],[22.685417,63.689583],[22.685417,63.685417]]]},"properties":{"radiance":8.31}},{"type":"Feature","geometry":{"type":"Polygon","coordinates":[[[22.689583,63.685417],[22.69375,63.685417],[22.69375,63.689583],[22.689583,63.689583],[22.689583,63.685417]]]},"properties":{"radiance":12.19}},{"type":"Feature","geometry":{"type":"Polygon","coordinates":[[[22.69375,63.685417],[22.697917,63.685417],[22.697917,63.689583],[22.69375,63.689583],[22.69375,63.685417]]]},"properties":{"radiance":62.61}},{"type":"Feature","geometry":{"type":"Polygon","coordinates":[[[22.697917,63.685417],[22.702083,63.685417],[22.702083,63.689583],[22.697917,63.689583],[22.697917,63.685417]]]},"properties":{"radiance":81.65}},{"type":"Feature","geometry":{"type":"Polygon","coordinates":[[[22.702083,63.685417],[22.70625,63.685417],[22.70625,63.689583],[22.702083,63.689583],[22.702083,63.685417]]]},"properties":{"radiance":103.43}},{"type":"Feature","geometry":{"type":"Polygon","coordinates":[[[22.70625,63.685417],[22.710417,63.685417],[22.710417,63.689583],[22.70625,63.689583],[22.70625,63.685417]]]},"properties":{"radiance":105.75}},{"type":"Feature","geometry":{"type":"Polygon","coordinates":[[[22.710417,63.685417],[22.714583,63.685417],[22.714583,63.689583],[22.710417,63.689583],[22.710417,63.685417]]]},"properties":{"radiance":97.37}},{"type":"Feature","geometry":{"type":"Polygon","coordinates":[[[22.714583,63.685417],[22.71875,63.685417],[22.71875,63.689583],[22.714583,63.689583],[22.714583,63.685417]]]},"properties":{"radiance":87.7}},{"type":"Feature","geometry":{"type":"Polygon","coordinates":[[[22.71875,63.685417],[22.722917,63.685417],[22.722917,63.689583],[22.71875,63.689583],[22.71875,63.685417]]]},"properties":{"radiance":87.07}},{"type":"Feature","geometry":{"type":"Polygon","coordinates":[[[22.722917,63.685417],[22.727083,63.685417],[22.727083,63.689583],[22.722917,63.689583],[22.722917,63.685417]]]},"properties":{"radiance":80.83}},{"type":"Feature","geometry":{"type":"Polygon","coordinates":[[[22.727083,63.685417],[22.73125,63.685417],[22.73125,63.689583],[22.727083,63.689583],[22.727083,63.685417]]]},"properties":{"radiance":59.86}},{"type":"Feature","geometry":{"type":"Polygon","coordinates":[[[22.73125,63.685417],[22.735417,63.685417],[22.735417,63.689583],[22.73125,63.689583],[22.73125,63.685417]]]},"properties":{"radiance":45.37}},{"type":"Feature","geometry":{"type":"Polygon","coordinates":[[[22.735417,63.685417],[22.739583,63.685417],[22.739583,63.689583],[22.735417,63.689583],[22.735417,63.685417]]]},"properties":{"radiance":29.13}},{"type":"Feature","geometry":{"type":"Polygon","coordinates":[[[22.739583,63.685417],[22.74375,63.685417],[22.74375,63.689583],[22.739583,63.689583],[22.739583,63.685417]]]},"properties":{"radiance":8.54}},{"type":"Feature","geometry":{"type":"Polygon","coordinates":[[[22.74375,63.685417],[22.747917,63.685417],[22.747917,63.689583],[22.74375,63.689583],[22.74375,63.685417]]]},"properties":{"radiance":6.4}},{"type":"Feature","geometry":{"type":"Polygon","coordinates":[[[22.747917,63.685417],[22.752083,63.685417],[22.752083,63.689583],[22.747917,63.689583],[22.747917,63.685417]]]},"properties":{"radiance":12.05}},{"type":"Feature","geometry":{"type":"Polygon","coordinates":[[[22.752083,63.685417],[22.75625,63.685417],[22.75625,63.689583],[22.752083,63.689583],[22.752083,63.685417]]]},"properties":{"radiance":5.8}},{"type":"Feature","geometry":{"type":"Polygon","coordinates":[[[22.75625,63.685417],[22.760417,63.685417],[22.760417,63.689583],[22.75625,63.689583],[22.75625,63.685417]]]},"properties":{"radiance":5.96}},{"type":"Feature","geometry":{"type":"Polygon","coordinates":[[[22.664583,63.68125],[22.66875,63.68125],[22.66875,63.685417],[22.664583,63.685417],[22.664583,63.68125]]]},"properties":{"radiance":9.48}},{"type":"Feature","geometry":{"type":"Polygon","coordinates":[[[22.66875,63.68125],[22.672917,63.68125],[22.672917,63.685417],[22.66875,63.685417],[22.66875,63.68125]]]},"properties":{"radiance":23.53}},{"type":"Feature","geometry":{"type":"Polygon","coordinates":[[[22.672917,63.68125],[22.677083,63.68125],[22.677083,63.685417],[22.672917,63.685417],[22.672917,63.68125]]]},"properties":{"radiance":15.11}},{"type":"Feature","geometry":{"type":"Polygon","coordinates":[[[22.677083,63.68125],[22.68125,63.68125],[22.68125,63.685417],[22.677083,63.685417],[22.677083,63.68125]]]},"properties":{"radiance":8.31}},{"type":"Feature","geometry":{"type":"Polygon","coordinates":[[[22.68125,63.68125],[22.685417,63.68125],[22.685417,63.685417],[22.68125,63.685417],[22.68125,63.68125]]]},"properties":{"radiance":5.64}},{"type":"Feature","geometry":{"type":"Polygon","coordinates":[[[22.685417,63.68125],[22.689583,63.68125],[22.689583,63.685417],[22.685417,63.685417],[22.685417,63.68125]]]},"properties":{"radiance":6.81}},{"type":"Feature","geometry":{"type":"Polygon","coordinates":[[[22.689583,63.68125],[22.69375,63.68125],[22.69375,63.685417],[22.689583,63.685417],[22.689583,63.68125]]]},"properties":{"radiance":37.91}},{"type":"Feature","geometry":{"type":"Polygon","coordinates":[[[22.69375,63.68125],[22.697917,63.68125],[22.697917,63.685417],[22.69375,63.685417],[22.69375,63.68125]]]},"properties":{"radiance":54.92}},{"type":"Feature","geometry":{"type":"Polygon","coordinates":[[[22.697917,63.68125],[22.702083,63.68125],[22.702083,63.685417],[22.697917,63.685417],[22.697917,63.68125]]]},"properties":{"radiance":63.86}},{"type":"Feature","geometry":{"type":"Polygon","coordinates":[[[22.702083,63.68125],[22.70625,63.68125],[22.70625,63.685417],[22.702083,63.685417],[22.702083,63.68125]]]},"properties":{"radiance":88.6}},{"type":"Feature","geometry":{"type":"Polygon","coordinates":[[[22.70625,63.68125],[22.710417,63.68125],[22.710417,63.685417],[22.70625,63.685417],[22.70625,63.68125]]]},"properties":{"radiance":103.94}},{"type":"Feature","geometry":{"type":"Polygon","coordinates":[[[22.710417,63.68125],[22.714583,63.68125],[22.714583,63.685417],[22.710417,63.685417],[22.710417,63.68125]]]},"properties":{"radiance":115.14}},{"type":"Feature","geometry":{"type":"Polygon","coordinates":[[[22.714583,63.68125],[22.71875,63.68125],[22.71875,63.685417],[22.714583,63.685417],[22.714583,63.68125]]]},"properties":{"radiance":113.12}},{"type":"Feature","geometry":{"type":"Polygon","coordinates":[[[22.71875,63.68125],[22.722917,63.68125],[22.722917,63.685417],[22.71875,63.685417],[22.71875,63.68125]]]},"properties":{"radiance":100.84}},{"type":"Feature","geometry":{"type":"Polygon","coordinates":[[[22.722917,63.68125],[22.727083,63.68125],[22.727083,63.685417],[22.722917,63.685417],[22.722917,63.68125]]]},"properties":{"radiance":90.24}},{"type":"Feature","geometry":{"type":"Polygon","coordinates":[[[22.727083,63.68125],[22.73125,63.68125],[22.73125,63.685417],[22.727083,63.685417],[22.727083,63.68125]]]},"properties":{"radiance":70.56}},{"type":"Feature","geometry":{"type":"Polygon","coordinates":[[[22.73125,63.68125],[22.735417,63.68125],[22.735417,63.685417],[22.73125,63.685417],[22.73125,63.68125]]]},"properties":{"radiance":53.11}},{"type":"Feature","geometry":{"type":"Polygon","coordinates":[[[22.735417,63.68125],[22.739583,63.68125],[22.739583,63.685417],[22.735417,63.685417],[22.735417,63.68125]]]},"properties":{"radiance":54.89}},{"type":"Feature","geometry":{"type":"Polygon","coordinates":[[[22.739583,63.68125],[22.74375,63.68125],[22.74375,63.685417],[22.739583,63.685417],[22.739583,63.68125]]]},"properties":{"radiance":36.17}},{"type":"Feature","geometry":{"type":"Polygon","coordinates":[[[22.74375,63.68125],[22.747917,63.68125],[22.747917,63.685417],[22.74375,63.685417],[22.74375,63.68125]]]},"properties":{"radiance":7.14}},{"type":"Feature","geometry":{"type":"Polygon","coordinates":[[[22.747917,63.68125],[22.752083,63.68125],[22.752083,63.685417],[22.747917,63.685417],[22.747917,63.68125]]]},"properties":{"radiance":8.84}},{"type":"Feature","geometry":{"type":"Polygon","coordinates":[[[22.752083,63.68125],[22.75625,63.68125],[22.75625,63.685417],[22.752083,63.685417],[22.752083,63.68125]]]},"properties":{"radiance":8.05}},{"type":"Feature","geometry":{"type":"Polygon","coordinates":[[[22.75625,63.68125],[22.760417,63.68125],[22.760417,63.685417],[22.75625,63.685417],[22.75625,63.68125]]]},"properties":{"radiance":5.99}},{"type":"Feature","geometry":{"type":"Polygon","coordinates":[[[22.660417,63.677083],[22.664583,63.677083],[22.664583,63.68125],[22.660417,63.68125],[22.660417,63.677083]]]},"properties":{"radiance":5.23}},{"type":"Feature","geometry":{"type":"Polygon","coordinates":[[[22.664583,63.677083],[22.66875,63.677083],[22.66875,63.68125],[22.664583,63.68125],[22.664583,63.677083]]]},"properties":{"radiance":7.91}},{"type":"Feature","geometry":{"type":"Polygon","coordinates":[[[22.66875,63.677083],[22.672917,63.677083],[22.672917,63.68125],[22.66875,63.68125],[22.66875,63.677083]]]},"properties":{"radiance":32.17}},{"type":"Feature","geometry":{"type":"Polygon","coordinates":[[[22.672917,63.677083],[22.677083,63.677083],[22.677083,63.68125],[22.672917,63.68125],[22.672917,63.677083]]]},"properties":{"radiance":32.02}},{"type":"Feature","geometry":{"type":"Polygon","coordinates":[[[22.677083,63.677083],[22.68125,63.677083],[22.68125,63.68125],[22.677083,63.68125],[22.677083,63.677083]]]},"properties":{"radiance":35.22}},{"type":"Feature","geometry":{"type":"Polygon","coordinates":[[[22.68125,63.677083],[22.685417,63.677083],[22.685417,63.68125],[22.68125,63.68125],[22.68125,63.677083]]]},"properties":{"radiance":35.49}},{"type":"Feature","geometry":{"type":"Polygon","coordinates":[[[22.685417,63.677083],[22.689583,63.677083],[22.689583,63.68125],[22.685417,63.68125],[22.685417,63.677083]]]},"properties":{"radiance":50.34}},{"type":"Feature","geometry":{"type":"Polygon","coordinates":[[[22.689583,63.677083],[22.69375,63.677083],[22.69375,63.68125],[22.689583,63.68125],[22.689583,63.677083]]]},"properties":{"radiance":64.88}},{"type":"Feature","geometry":{"type":"Polygon","coordinates":[[[22.69375,63.677083],[22.697917,63.677083],[22.697917,63.68125],[22.69375,63.68125],[22.69375,63.677083]]]},"properties":{"radiance":75.52}},{"type":"Feature","geometry":{"type":"Polygon","coordinates":[[[22.697917,63.677083],[22.702083,63.677083],[22.702083,63.68125],[22.697917,63.68125],[22.697917,63.677083]]]},"properties":{"radiance":92.52}},{"type":"Feature","geometry":{"type":"Polygon","coordinates":[[[22.702083,63.677083],[22.70625,63.677083],[22.70625,63.68125],[22.702083,63.68125],[22.702083,63.677083]]]},"properties":{"radiance":126.85}},{"type":"Feature","geometry":{"type":"Polygon","coordinates":[[[22.70625,63.677083],[22.710417,63.677083],[22.710417,63.68125],[22.70625,63.68125],[22.70625,63.677083]]]},"properties":{"radiance":140.12}},{"type":"Feature","geometry":{"type":"Polygon","coordinates":[[[22.710417,63.677083],[22.714583,63.677083],[22.714583,63.68125],[22.710417,63.68125],[22.710417,63.677083]]]},"properties":{"radiance":138.17}},{"type":"Feature","geometry":{"type":"Polygon","coordinates":[[[22.714583,63.677083],[22.71875,63.677083],[22.71875,63.68125],[22.714583,63.68125],[22.714583,63.677083]]]},"properties":{"radiance":132.07}},{"type":"Feature","geometry":{"type":"Polygon","coordinates":[[[22.71875,63.677083],[22.722917,63.677083],[22.722917,63.68125],[22.71875,63.68125],[22.71875,63.677083]]]},"properties":{"radiance":97.81}},{"type":"Feature","geometry":{"type":"Polygon","coordinates":[[[22.722917,63.677083],[22.727083,63.677083],[22.727083,63.68125],[22.722917,63.68125],[22.722917,63.677083]]]},"properties":{"radiance":77.74}},{"type":"Feature","geometry":{"type":"Polygon","coordinates":[[[22.727083,63.677083],[22.73125,63.677083],[22.73125,63.68125],[22.727083,63.68125],[22.727083,63.677083]]]},"properties":{"radiance":65.63}},{"type":"Feature","geometry":{"type":"Polygon","coordinates":[[[22.73125,63.677083],[22.735417,63.677083],[22.735417,63.68125],[22.73125,63.68125],[22.73125,63.677083]]]},"properties":{"radiance":57.92}},{"type":"Feature","geometry":{"type":"Polygon","coordinates":[[[22.735417,63.677083],[22.739583,63.677083],[22.739583,63.68125],[22.735417,63.68125],[22.735417,63.677083]]]},"properties":{"radiance":54.44}},{"type":"Feature","geometry":{"type":"Polygon","coordinates":[[[22.739583,63.677083],[22.74375,63.677083],[22.74375,63.68125],[22.739583,63.68125],[22.739583,63.677083]]]},"properties":{"radiance":45.84}},{"type":"Feature","geometry":{"type":"Polygon","coordinates":[[[22.74375,63.677083],[22.747917,63.677083],[22.747917,63.68125],[22.74375,63.68125],[22.74375,63.677083]]]},"properties":{"radiance":47.63}},{"type":"Feature","geometry":{"type":"Polygon","coordinates":[[[22.747917,63.677083],[22.752083,63.677083],[22.752083,63.68125],[22.747917,63.68125],[22.747917,63.677083]]]},"properties":{"radiance":44.67}},{"type":"Feature","geometry":{"type":"Polygon","coordinates":[[[22.752083,63.677083],[22.75625,63.677083],[22.75625,63.68125],[22.752083,63.68125],[22.752083,63.677083]]]},"properties":{"radiance":8.97}},{"type":"Feature","geometry":{"type":"Polygon","coordinates":[[[22.75625,63.677083],[22.760417,63.677083],[22.760417,63.68125],[22.75625,63.68125],[22.75625,63.677083]]]},"properties":{"radiance":5.59}},{"type":"Feature","geometry":{"type":"Polygon","coordinates":[[[22.660417,63.672917],[22.664583,63.672917],[22.664583,63.677083],[22.660417,63.677083],[22.660417,63.672917]]]},"properties":{"radiance":5.08}},{"type":"Feature","geometry":{"type":"Polygon","coordinates":[[[22.664583,63.672917],[22.66875,63.672917],[22.66875,63.677083],[22.664583,63.677083],[22.664583,63.672917]]]},"properties":{"radiance":33.79}},{"type":"Feature","geometry":{"type":"Polygon","coordinates":[[[22.66875,63.672917],[22.672917,63.672917],[22.672917,63.677083],[22.66875,63.677083],[22.66875,63.672917]]]},"properties":{"radiance":50.19}},{"type":"Feature","geometry":{"type":"Polygon","coordinates":[[[22.672917,63.672917],[22.677083,63.672917],[22.677083,63.677083],[22.672917,63.677083],[22.672917,63.672917]]]},"properties":{"radiance":55.13}},{"type":"Feature","geometry":{"type":"Polygon","coordinates":[[[22.677083,63.672917],[22.68125,63.672917],[22.68125,63.677083],[22.677083,63.677083],[22.677083,63.672917]]]},"properties":{"radiance":55.15}},{"type":"Feature","geometry":{"type":"Polygon","coordinates":[[[22.68125,63.672917],[22.685417,63.672917],[22.685417,63.677083],[22.68125,63.677083],[22.68125,63.672917]]]},"properties":{"radiance":52.35}},{"type":"Feature","geometry":{"type":"Polygon","coordinates":[[[22.685417,63.672917],[22.689583,63.672917],[22.689583,63.677083],[22.685417,63.677083],[22.685417,63.672917]]]},"properties":{"radiance":58.46}},{"type":"Feature","geometry":{"type":"Polygon","coordinates":[[[22.689583,63.672917],[22.69375,63.672917],[22.69375,63.677083],[22.689583,63.677083],[22.689583,63.672917]]]},"properties":{"radiance":63.22}},{"type":"Feature","geometry":{"type":"Polygon","coordinates":[[[22.69375,63.672917],[22.697917,63.672917],[22.697917,63.677083],[22.69375,63.677083],[22.69375,63.672917]]]},"properties":{"radiance":90.08}},{"type":"Feature","geometry":{"type":"Polygon","coordinates":[[[22.697917,63.672917],[22.702083,63.672917],[22.702083,63.677083],[22.697917,63.677083],[22.697917,63.672917]]]},"properties":{"radiance":100.66}},{"type":"Feature","geometry":{"type":"Polygon","coordinates":[[[22.702083,63.672917],[22.70625,63.672917],[22.70625,63.677083],[22.702083,63.677083],[22.702083,63.672917]]]},"properties":{"radiance":112.22}},{"type":"Feature","geometry":{"type":"Polygon","coordinates":[[[22.70625,63.672917],[22.710417,63.672917],[22.710417,63.677083],[22.70625,63.677083],[22.70625,63.672917]]]},"properties":{"radiance":111.79}},{"type":"Feature","geometry":{"type":"Polygon","coordinates":[[[22.710417,63.672917],[22.714583,63.672917],[22.714583,63.677083],[22.710417,63.677083],[22.710417,63.672917]]]},"properties":{"radiance":105.79}},{"type":"Feature","geometry":{"type":"Polygon","coordinates":[[[22.714583,63.672917],[22.71875,63.672917],[22.71875,63.677083],[22.714583,63.677083],[22.714583,63.672917]]]},"properties":{"radiance":68.53}},{"type":"Feature","geometry":{"type":"Polygon","coordinates":[[[22.71875,63.672917],[22.722917,63.672917],[22.722917,63.677083],[22.71875,63.677083],[22.71875,63.672917]]]},"properties":{"radiance":49.28}},{"type":"Feature","geometry":{"type":"Polygon","coordinates":[[[22.722917,63.672917],[22.727083,63.672917],[22.727083,63.677083],[22.722917,63.677083],[22.722917,63.672917]]]},"properties":{"radiance":37.97}},{"type":"Feature","geometry":{"type":"Polygon","coordinates":[[[22.727083,63.672917],[22.73125,63.672917],[22.73125,63.677083],[22.727083,63.677083],[22.727083,63.672917]]]},"properties":{"radiance":41.27}},{"type":"Feature","geometry":{"type":"Polygon","coordinates":[[[22.73125,63.672917],[22.735417,63.672917],[22.735417,63.677083],[22.73125,63.677083],[22.73125,63.672917]]]},"properties":{"radiance":48.94}},{"type":"Feature","geometry":{"type":"Polygon","coordinates":[[[22.735417,63.672917],[22.739583,63.672917],[22.739583,63.677083],[22.735417,63.677083],[22.735417,63.672917]]]},"properties":{"radiance":54.24}},{"type":"Feature","geometry":{"type":"Polygon","coordinates":[[[22.739583,63.672917],[22.74375,63.672917],[22.74375,63.677083],[22.739583,63.677083],[22.739583,63.672917]]]},"properties":{"radiance":63.76}},{"type":"Feature","geometry":{"type":"Polygon","coordinates":[[[22.74375,63.672917],[22.747917,63.672917],[22.747917,63.677083],[22.74375,63.677083],[22.74375,63.672917]]]},"properties":{"radiance":64.21}},{"type":"Feature","geometry":{"type":"Polygon","coordinates":[[[22.747917,63.672917],[22.752083,63.672917],[22.752083,63.677083],[22.747917,63.677083],[22.747917,63.672917]]]},"properties":{"radiance":57.31}},{"type":"Feature","geometry":{"type":"Polygon","coordinates":[[[22.752083,63.672917],[22.75625,63.672917],[22.75625,63.677083],[22.752083,63.677083],[22.752083,63.672917]]]},"properties":{"radiance":42.11}},{"type":"Feature","geometry":{"type":"Polygon","coordinates":[[[22.75625,63.672917],[22.760417,63.672917],[22.760417,63.677083],[22.75625,63.677083],[22.75625,63.672917]]]},"properties":{"radiance":15.1}},{"type":"Feature","geometry":{"type":"Polygon","coordinates":[[[22.760417,63.672917],[22.764583,63.672917],[22.764583,63.677083],[22.760417,63.677083],[22.760417,63.672917]]]},"properties":{"radiance":5.4}},{"type":"Feature","geometry":{"type":"Polygon","coordinates":[[[22.664583,63.66875],[22.66875,63.66875],[22.66875,63.672917],[22.664583,63.672917],[22.664583,63.66875]]]},"properties":{"radiance":8.09}},{"type":"Feature","geometry":{"type":"Polygon","coordinates":[[[22.66875,63.66875],[22.672917,63.66875],[22.672917,63.672917],[22.66875,63.672917],[22.66875,63.66875]]]},"properties":{"radiance":10.5}},{"type":"Feature","geometry":{"type":"Polygon","coordinates":[[[22.672917,63.66875],[22.677083,63.66875],[22.677083,63.672917],[22.672917,63.672917],[22.672917,63.66875]]]},"properties":{"radiance":50.08}},{"type":"Feature","geometry":{"type":"Polygon","coordinates":[[[22.677083,63.66875],[22.68125,63.66875],[22.68125,63.672917],[22.677083,63.672917],[22.677083,63.66875]]]},"properties":{"radiance":57.52}},{"type":"Feature","geometry":{"type":"Polygon","coordinates":[[[22.68125,63.66875],[22.685417,63.66875],[22.685417,63.672917],[22.68125,63.672917],[22.68125,63.66875]]]},"properties":{"radiance":53.04}},{"type":"Feature","geometry":{"type":"Polygon","coordinates":[[[22.685417,63.66875],[22.689583,63.66875],[22.689583,63.672917],[22.685417,63.672917],[22.685417,63.66875]]]},"properties":{"radiance":50.52}},{"type":"Feature","geometry":{"type":"Polygon","coordinates":[[[22.689583,63.66875],[22.69375,63.66875],[22.69375,63.672917],[22.689583,63.672917],[22.689583,63.66875]]]},"properties":{"radiance":62.16}},{"type":"Feature","geometry":{"type":"Polygon","coordinates":[[[22.69375,63.66875],[22.697917,63.66875],[22.697917,63.672917],[22.69375,63.672917],[22.69375,63.66875]]]},"properties":{"radiance":83.04}},{"type":"Feature","geometry":{"type":"Polygon","coordinates":[[[22.697917,63.66875],[22.702083,63.66875],[22.702083,63.672917],[22.697917,63.672917],[22.697917,63.66875]]]},"properties":{"radiance":82.99}},{"type":"Feature","geometry":{"type":"Polygon","coordinates":[[[22.702083,63.66875],[22.70625,63.66875],[22.70625,63.672917],[22.702083,63.672917],[22.702083,63.66875]]]},"properties":{"radiance":95.23}},{"type":"Feature","geometry":{"type":"Polygon","coordinates":[[[22.70625,63.66875],[22.710417,63.66875],[22.710417,63.672917],[22.70625,63.672917],[22.70625,63.66875]]]},"properties":{"radiance":82.31}},{"type":"Feature","geometry":{"type":"Polygon","coordinates":[[[22.710417,63.66875],[22.714583,63.66875],[22.714583,63.672917],[22.710417,63.672917],[22.710417,63.66875]]]},"properties":{"radiance":70.44}},{"type":"Feature","geometry":{"type":"Polygon","coordinates":[[[22.714583,63.66875],[22.71875,63.66875],[22.71875,63.672917],[22.714583,63.672917],[22.714583,63.66875]]]},"properties":{"radiance":53.54}},{"type":"Feature","geometry":{"type":"Polygon","coordinates":[[[22.71875,63.66875],[22.722917,63.66875],[22.722917,63.672917],[22.71875,63.672917],[22.71875,63.66875]]]},"properties":{"radiance":53.61}},{"type":"Feature","geometry":{"type":"Polygon","coordinates":[[[22.722917,63.66875],[22.727083,63.66875],[22.727083,63.672917],[22.722917,63.672917],[22.722917,63.66875]]]},"properties":{"radiance":45.2}},{"type":"Feature","geometry":{"type":"Polygon","coordinates":[[[22.727083,63.66875],[22.73125,63.66875],[22.73125,63.672917],[22.727083,63.672917],[22.727083,63.66875]]]},"properties":{"radiance":33.05}},{"type":"Feature","geometry":{"type":"Polygon","coordinates":[[[22.73125,63.66875],[22.735417,63.66875],[22.735417,63.672917],[22.73125,63.672917],[22.73125,63.66875]]]},"properties":{"radiance":30.98}},{"type":"Feature","geometry":{"type":"Polygon","coordinates":[[[22.735417,63.66875],[22.739583,63.66875],[22.739583,63.672917],[22.735417,63.672917],[22.735417,63.66875]]]},"properties":{"radiance":31.59}},{"type":"Feature","geometry":{"type":"Polygon","coordinates":[[[22.739583,63.66875],[22.74375,63.66875],[22.74375,63.672917],[22.739583,63.672917],[22.739583,63.66875]]]},"properties":{"radiance":34.75}},{"type":"Feature","geometry":{"type":"Polygon","coordinates":[[[22.74375,63.66875],[22.747917,63.66875],[22.747917,63.672917],[22.74375,63.672917],[22.74375,63.66875]]]},"properties":{"radiance":40.27}},{"type":"Feature","geometry":{"type":"Polygon","coordinates":[[[22.747917,63.66875],[22.752083,63.66875],[22.752083,63.672917],[22.747917,63.672917],[22.747917,63.66875]]]},"properties":{"radiance":42.3}},{"type":"Feature","geometry":{"type":"Polygon","coordinates":[[[22.752083,63.66875],[22.75625,63.66875],[22.75625,63.672917],[22.752083,63.672917],[22.752083,63.66875]]]},"properties":{"radiance":44.45}},{"type":"Feature","geometry":{"type":"Polygon","coordinates":[[[22.75625,63.66875],[22.760417,63.66875],[22.760417,63.672917],[22.75625,63.672917],[22.75625,63.66875]]]},"properties":{"radiance":18.63}},{"type":"Feature","geometry":{"type":"Polygon","coordinates":[[[22.760417,63.66875],[22.764583,63.66875],[22.764583,63.672917],[22.760417,63.672917],[22.760417,63.66875]]]},"properties":{"radiance":26.77}},{"type":"Feature","geometry":{"type":"Polygon","coordinates":[[[22.66875,63.664583],[22.672917,63.664583],[22.672917,63.66875],[22.66875,63.66875],[22.66875,63.664583]]]},"properties":{"radiance":20.08}},{"type":"Feature","geometry":{"type":"Polygon","coordinates":[[[22.672917,63.664583],[22.677083,63.664583],[22.677083,63.66875],[22.672917,63.66875],[22.672917,63.664583]]]},"properties":{"radiance":35.97}},{"type":"Feature","geometry":{"type":"Polygon","coordinates":[[[22.677083,63.664583],[22.68125,63.664583],[22.68125,63.66875],[22.677083,63.66875],[22.677083,63.664583]]]},"properties":{"radiance":36.18}},{"type":"Feature","geometry":{"type":"Polygon","coordinates":[[[22.68125,63.664583],[22.685417,63.664583],[22.685417,63.66875],[22.68125,63.66875],[22.68125,63.664583]]]},"properties":{"radiance":42.97}},{"type":"Feature","geometry":{"type":"Polygon","coordinates":[[[22.685417,63.664583],[22.689583,63.664583],[22.689583,63.66875],[22.685417,63.66875],[22.685417,63.664583]]]},"properties":{"radiance":46.84}},{"type":"Feature","geometry":{"type":"Polygon","coordinates":[[[22.689583,63.664583],[22.69375,63.664583],[22.69375,63.66875],[22.689583,63.66875],[22.689583,63.664583]]]},"properties":{"radiance":47.28}},{"type":"Feature","geometry":{"type":"Polygon","coordinates":[[[22.69375,63.664583],[22.697917,63.664583],[22.697917,63.66875],[22.69375,63.66875],[22.69375,63.664583]]]},"properties":{"radiance":49.04}},{"type":"Feature","geometry":{"type":"Polygon","coordinates":[[[22.697917,63.664583],[22.702083,63.664583],[22.702083,63.66875],[22.697917,63.66875],[22.697917,63.664583]]]},"properties":{"radiance":55.06}},{"type":"Feature","geometry":{"type":"Polygon","coordinates":[[[22.702083,63.664583],[22.70625,63.664583],[22.70625,63.66875],[22.702083,63.66875],[22.702083,63.664583]]]},"properties":{"radiance":60.26}},{"type":"Feature","geometry":{"type":"Polygon","coordinates":[[[22.70625,63.664583],[22.710417,63.664583],[22.710417,63.66875],[22.70625,63.66875],[22.70625,63.664583]]]},"properties":{"radiance":58.44}},{"type":"Feature","geometry":{"type":"Polygon","coordinates":[[[22.710417,63.664583],[22.714583,63.664583],[22.714583,63.66875],[22.710417,63.66875],[22.710417,63.664583]]]},"properties":{"radiance":63.41}},{"type":"Feature","geometry":{"type":"Polygon","coordinates":[[[22.714583,63.664583],[22.71875,63.664583],[22.71875,63.66875],[22.714583,63.66875],[22.714583,63.664583]]]},"properties":{"radiance":60.71}},{"type":"Feature","geometry":{"type":"Polygon","coordinates":[[[22.71875,63.664583],[22.722917,63.664583],[22.722917,63.66875],[22.71875,63.66875],[22.71875,63.664583]]]},"properties":{"radiance":65.84}},{"type":"Feature","geometry":{"type":"Polygon","coordinates":[[[22.722917,63.664583],[22.727083,63.664583],[22.727083,63.66875],[22.722917,63.66875],[22.722917,63.664583]]]},"properties":{"radiance":57.84}},{"type":"Feature","geometry":{"type":"Polygon","coordinates":[[[22.727083,63.664583],[22.73125,63.664583],[22.73125,63.66875],[22.727083,63.66875],[22.727083,63.664583]]]},"properties":{"radiance":41.62}},{"type":"Feature","geometry":{"type":"Polygon","coordinates":[[[22.73125,63.664583],[22.735417,63.664583],[22.735417,63.66875],[22.73125,63.66875],[22.73125,63.664583]]]},"properties":{"radiance":31.39}},{"type":"Feature","geometry":{"type":"Polygon","coordinates":[[[22.735417,63.664583],[22.739583,63.664583],[22.739583,63.66875],[22.735417,63.66875],[22.735417,63.664583]]]},"properties":{"radiance":5.07}},{"type":"Feature","geometry":{"type":"Polygon","coordinates":[[[22.739583,63.664583],[22.74375,63.664583],[22.74375,63.66875],[22.739583,63.66875],[22.739583,63.664583]]]},"properties":{"radiance":5.29}},{"type":"Feature","geometry":{"type":"Polygon","coordinates":[[[22.74375,63.664583],[22.747917,63.664583],[22.747917,63.66875],[22.74375,63.66875],[22.74375,63.664583]]]},"properties":{"radiance":10.5}},{"type":"Feature","geometry":{"type":"Polygon","coordinates":[[[22.747917,63.664583],[22.752083,63.664583],[22.752083,63.66875],[22.747917,63.66875],[22.747917,63.664583]]]},"properties":{"radiance":6.41}},{"type":"Feature","geometry":{"type":"Polygon","coordinates":[[[22.752083,63.664583],[22.75625,63.664583],[22.75625,63.66875],[22.752083,63.66875],[22.752083,63.664583]]]},"properties":{"radiance":13.88}},{"type":"Feature","geometry":{"type":"Polygon","coordinates":[[[22.75625,63.664583],[22.760417,63.664583],[22.760417,63.66875],[22.75625,63.66875],[22.75625,63.664583]]]},"properties":{"radiance":74.36}},{"type":"Feature","geometry":{"type":"Polygon","coordinates":[[[22.760417,63.664583],[22.764583,63.664583],[22.764583,63.66875],[22.760417,63.66875],[22.760417,63.664583]]]},"properties":{"radiance":63.78}},{"type":"Feature","geometry":{"type":"Polygon","coordinates":[[[22.66875,63.660417],[22.672917,63.660417],[22.672917,63.664583],[22.66875,63.664583],[22.66875,63.660417]]]},"properties":{"radiance":13.09}},{"type":"Feature","geometry":{"type":"Polygon","coordinates":[[[22.672917,63.660417],[22.677083,63.660417],[22.677083,63.664583],[22.672917,63.664583],[22.672917,63.660417]]]},"properties":{"radiance":30.34}},{"type":"Feature","geometry":{"type":"Polygon","coordinates":[[[22.677083,63.660417],[22.68125,63.660417],[22.68125,63.664583],[22.677083,63.664583],[22.677083,63.660417]]]},"properties":{"radiance":28.37}},{"type":"Feature","geometry":{"type":"Polygon","coordinates":[[[22.68125,63.660417],[22.685417,63.660417],[22.685417,63.664583],[22.68125,63.664583],[22.68125,63.660417]]]},"properties":{"radiance":34.05}},{"type":"Feature","geometry":{"type":"Polygon","coordinates":[[[22.685417,63.660417],[22.689583,63.660417],[22.689583,63.664583],[22.685417,63.664583],[22.685417,63.660417]]]},"properties":{"radiance":31.8}},{"type":"Feature","geometry":{"type":"Polygon","coordinates":[[[22.689583,63.660417],[22.69375,63.660417],[22.69375,63.664583],[22.689583,63.664583],[22.689583,63.660417]]]},"properties":{"radiance":32.67}},{"type":"Feature","geometry":{"type":"Polygon","coordinates":[[[22.69375,63.660417],[22.697917,63.660417],[22.697917,63.664583],[22.69375,63.664583],[22.69375,63.660417]]]},"properties":{"radiance":9.39}},{"type":"Feature","geometry":{"type":"Polygon","coordinates":[[[22.697917,63.660417],[22.702083,63.660417],[22.702083,63.664583],[22.697917,63.664583],[22.697917,63.660417]]]},"properties":{"radiance":25.96}},{"type":"Feature","geometry":{"type":"Polygon","coordinates":[[[22.702083,63.660417],[22.70625,63.660417],[22.70625,63.664583],[22.702083,63.664583],[22.702083,63.660417]]]},"properties":{"radiance":36.89}},{"type":"Feature","geometry":{"type":"Polygon","coordinates":[[[22.70625,63.660417],[22.710417,63.660417],[22.710417,63.664583],[22.70625,63.664583],[22.70625,63.660417]]]},"properties":{"radiance":44.78}},{"type":"Feature","geometry":{"type":"Polygon","coordinates":[[[22.710417,63.660417],[22.714583,63.660417],[22.714583,63.664583],[22.710417,63.664583],[22.710417,63.660417]]]},"properties":{"radiance":41.38}},{"type":"Feature","geometry":{"type":"Polygon","coordinates":[[[22.714583,63.660417],[22.71875,63.660417],[22.71875,63.664583],[22.714583,63.664583],[22.714583,63.660417]]]},"properties":{"radiance":52.69}},{"type":"Feature","geometry":{"type":"Polygon","coordinates":[[[22.71875,63.660417],[22.722917,63.660417],[22.722917,63.664583],[22.71875,63.664583],[22.71875,63.660417]]]},"properties":{"radiance":46.05}},{"type":"Feature","geometry":{"type":"Polygon","coordinates":[[[22.722917,63.660417],[22.727083,63.660417],[22.727083,63.664583],[22.722917,63.664583],[22.722917,63.660417]]]},"properties":{"radiance":48.47}},{"type":"Feature","geometry":{"type":"Polygon","coordinates":[[[22.727083,63.660417],[22.73125,63.660417],[22.73125,63.664583],[22.727083,63.664583],[22.727083,63.660417]]]},"properties":{"radiance":30.12}},{"type":"Feature","geometry":{"type":"Polygon","coordinates":[[[22.73125,63.660417],[22.735417,63.660417],[22.735417,63.664583],[22.73125,63.664583],[22.73125,63.660417]]]},"properties":{"radiance":6.89}},{"type":"Feature","geometry":{"type":"Polygon","coordinates":[[[22.735417,63.660417],[22.739583,63.660417],[22.739583,63.664583],[22.735417,63.664583],[22.735417,63.660417]]]},"properties":{"radiance":6.35}},{"type":"Feature","geometry":{"type":"Polygon","coordinates":[[[22.739583,63.660417],[22.74375,63.660417],[22.74375,63.664583],[22.739583,63.664583],[22.739583,63.660417]]]},"properties":{"radiance":5.09}},{"type":"Feature","geometry":{"type":"Polygon","coordinates":[[[22.74375,63.660417],[22.747917,63.660417],[22.747917,63.664583],[22.74375,63.664583],[22.74375,63.660417]]]},"properties":{"radiance":5.26}},{"type":"Feature","geometry":{"type":"Polygon","coordinates":[[[22.752083,63.660417],[22.75625,63.660417],[22.75625,63.664583],[22.752083,63.664583],[22.752083,63.660417]]]},"properties":{"radiance":41.15}},{"type":"Feature","geometry":{"type":"Polygon","coordinates":[[[22.75625,63.660417],[22.760417,63.660417],[22.760417,63.664583],[22.75625,63.664583],[22.75625,63.660417]]]},"properties":{"radiance":58.86}},{"type":"Feature","geometry":{"type":"Polygon","coordinates":[[[22.760417,63.660417],[22.764583,63.660417],[22.764583,63.664583],[22.760417,63.664583],[22.760417,63.660417]]]},"properties":{"radiance":59.92}},{"type":"Feature","geometry":{"type":"Polygon","coordinates":[[[22.66875,63.65625],[22.672917,63.65625],[22.672917,63.660417],[22.66875,63.660417],[22.66875,63.65625]]]},"properties":{"radiance":5.17}},{"type":"Feature","geometry":{"type":"Polygon","coordinates":[[[22.672917,63.65625],[22.677083,63.65625],[22.677083,63.660417],[22.672917,63.660417],[22.672917,63.65625]]]},"properties":{"radiance":5.99}},{"type":"Feature","geometry":{"type":"Polygon","coordinates":[[[22.677083,63.65625],[22.68125,63.65625],[22.68125,63.660417],[22.677083,63.660417],[22.677083,63.65625]]]},"properties":{"radiance":8.29}},{"type":"Feature","geometry":{"type":"Polygon","coordinates":[[[22.68125,63.65625],[22.685417,63.65625],[22.685417,63.660417],[22.68125,63.660417],[22.68125,63.65625]]]},"properties":{"radiance":12.33}},{"type":"Feature","geometry":{"type":"Polygon","coordinates":[[[22.702083,63.65625],[22.70625,63.65625],[22.70625,63.660417],[22.702083,63.660417],[22.702083,63.65625]]]},"properties":{"radiance":10.88}},{"type":"Feature","geometry":{"type":"Polygon","coordinates":[[[22.70625,63.65625],[22.710417,63.65625],[22.710417,63.660417],[22.70625,63.660417],[22.70625,63.65625]]]},"properties":{"radiance":23.02}},{"type":"Feature","geometry":{"type":"Polygon","coordinates":[[[22.710417,63.65625],[22.714583,63.65625],[22.714583,63.660417],[22.710417,63.660417],[22.710417,63.65625]]]},"properties":{"radiance":25.44}},{"type":"Feature","geometry":{"type":"Polygon","coordinates":[[[22.714583,63.65625],[22.71875,63.65625],[22.71875,63.660417],[22.714583,63.660417],[22.714583,63.65625]]]},"properties":{"radiance":15.89}},{"type":"Feature","geometry":{"type":"Polygon","coordinates":[[[22.71875,63.65625],[22.722917,63.65625],[22.722917,63.660417],[22.71875,63.660417],[22.71875,63.65625]]]},"properties":{"radiance":11.92}},{"type":"Feature","geometry":{"type":"Polygon","coordinates":[[[22.722917,63.65625],[22.727083,63.65625],[22.727083,63.660417],[22.722917,63.660417],[22.722917,63.65625]]]},"properties":{"radiance":8.68}},{"type":"Feature","geometry":{"type":"Polygon","coordinates":[[[22.727083,63.65625],[22.73125,63.65625],[22.73125,63.660417],[22.727083,63.660417],[22.727083,63.65625]]]},"properties":{"radiance":7.43}},{"type":"Feature","geometry":{"type":"Polygon","coordinates":[[[22.760417,63.65625],[22.764583,63.65625],[22.764583,63.660417],[22.760417,63.660417],[22.760417,63.65625]]]},"properties":{"radiance":8.95}},{"type":"Feature","geometry":{"type":"Polygon","coordinates":[[[22.685417,63.652083],[22.689583,63.652083],[22.689583,63.65625],[22.685417,63.65625],[22.685417,63.652083]]]},"properties":{"radiance":5.34}},{"type":"Feature","geometry":{"type":"Polygon","coordinates":[[[22.689583,63.652083],[22.69375,63.652083],[22.69375,63.65625],[22.689583,63.65625],[22.689583,63.652083]]]},"properties":{"radiance":8.26}},{"type":"Feature","geometry":{"type":"Polygon","coordinates":[[[22.69375,63.652083],[22.697917,63.652083],[22.697917,63.65625],[22.69375,63.65625],[22.69375,63.652083]]]},"properties":{"radiance":7.2}},{"type":"Feature","geometry":{"type":"Polygon","coordinates":[[[22.697917,63.652083],[22.702083,63.652083],[22.702083,63.65625],[22.697917,63.65625],[22.697917,63.652083]]]},"properties":{"radiance":7.97}},{"type":"Feature","geometry":{"type":"Polygon","coordinates":[[[22.702083,63.652083],[22.70625,63.652083],[22.70625,63.65625],[22.702083,63.65625],[22.702083,63.652083]]]},"properties":{"radiance":9.35}},{"type":"Feature","geometry":{"type":"Polygon","coordinates":[[[22.70625,63.652083],[22.710417,63.652083],[22.710417,63.65625],[22.70625,63.65625],[22.70625,63.652083]]]},"properties":{"radiance":9.83}},{"type":"Feature","geometry":{"type":"Polygon","coordinates":[[[22.710417,63.652083],[22.714583,63.652083],[22.714583,63.65625],[22.710417,63.65625],[22.710417,63.652083]]]},"properties":{"radiance":10.24}},{"type":"Feature","geometry":{"type":"Polygon","coordinates":[[[22.714583,63.652083],[22.71875,63.652083],[22.71875,63.65625],[22.714583,63.65625],[22.714583,63.652083]]]},"properties":{"radiance":8.07}},{"type":"Feature","geometry":{"type":"Polygon","coordinates":[[[22.71875,63.652083],[22.722917,63.652083],[22.722917,63.65625],[22.71875,63.65625],[22.71875,63.652083]]]},"properties":{"radiance":15.08}},{"type":"Feature","geometry":{"type":"Polygon","coordinates":[[[22.722917,63.652083],[22.727083,63.652083],[22.727083,63.65625],[22.722917,63.65625],[22.722917,63.652083]]]},"properties":{"radiance":6.18}},{"type":"Feature","geometry":{"type":"Polygon","coordinates":[[[22.727083,63.652083],[22.73125,63.652083],[22.73125,63.65625],[22.727083,63.65625],[22.727083,63.652083]]]},"properties":{"radiance":5.79}},{"type":"Feature","geometry":{"type":"Polygon","coordinates":[[[22.73125,63.652083],[22.735417,63.652083],[22.735417,63.65625],[22.73125,63.65625],[22.73125,63.652083]]]},"properties":{"radiance":5.65}},{"type":"Feature","geometry":{"type":"Polygon","coordinates":[[[22.68125,63.647917],[22.685417,63.647917],[22.685417,63.652083],[22.68125,63.652083],[22.68125,63.647917]]]},"properties":{"radiance":7.94}},{"type":"Feature","geometry":{"type":"Polygon","coordinates":[[[22.689583,63.647917],[22.69375,63.647917],[22.69375,63.652083],[22.689583,63.652083],[22.689583,63.647917]]]},"properties":{"radiance":7.47}},{"type":"Feature","geometry":{"type":"Polygon","coordinates":[[[22.69375,63.647917],[22.697917,63.647917],[22.697917,63.652083],[22.69375,63.652083],[22.69375,63.647917]]]},"properties":{"radiance":7.18}},{"type":"Feature","geometry":{"type":"Polygon","coordinates":[[[22.697917,63.647917],[22.702083,63.647917],[22.702083,63.652083],[22.697917,63.652083],[22.697917,63.647917]]]},"properties":{"radiance":8.04}},{"type":"Feature","geometry":{"type":"Polygon","coordinates":[[[22.702083,63.647917],[22.70625,63.647917],[22.70625,63.652083],[22.702083,63.652083],[22.702083,63.647917]]]},"properties":{"radiance":6.43}},{"type":"Feature","geometry":{"type":"Polygon","coordinates":[[[22.714583,63.647917],[22.71875,63.647917],[22.71875,63.652083],[22.714583,63.652083],[22.714583,63.647917]]]},"properties":{"radiance":5.81}},{"type":"Feature","geometry":{"type":"Polygon","coordinates":[[[22.71875,63.647917],[22.722917,63.647917],[22.722917,63.652083],[22.71875,63.652083],[22.71875,63.647917]]]},"properties":{"radiance":5.47}},{"type":"Feature","geometry":{"type":"Polygon","coordinates":[[[22.722917,63.647917],[22.727083,63.647917],[22.727083,63.652083],[22.722917,63.652083],[22.722917,63.647917]]]},"properties":{"radiance":7.4}},{"type":"Feature","geometry":{"type":"Polygon","coordinates":[[[22.727083,63.647917],[22.73125,63.647917],[22.73125,63.652083],[22.727083,63.652083],[22.727083,63.647917]]]},"properties":{"radiance":11.61}},{"type":"Feature","geometry":{"type":"Polygon","coordinates":[[[22.73125,63.647917],[22.735417,63.647917],[22.735417,63.652083],[22.73125,63.652083],[22.73125,63.647917]]]},"properties":{"radiance":12.09}},{"type":"Feature","geometry":{"type":"Polygon","coordinates":[[[22.735417,63.647917],[22.739583,63.647917],[22.739583,63.652083],[22.735417,63.652083],[22.735417,63.647917]]]},"properties":{"radiance":8.1}},{"type":"Feature","geometry":{"type":"Polygon","coordinates":[[[22.739583,63.647917],[22.74375,63.647917],[22.74375,63.652083],[22.739583,63.652083],[22.739583,63.647917]]]},"properties":{"radiance":5.49}},{"type":"Feature","geometry":{"type":"Polygon","coordinates":[[[22.722917,63.64375],[22.727083,63.64375],[22.727083,63.647917],[22.722917,63.647917],[22.722917,63.64375]]]},"properties":{"radiance":6.13}},{"type":"Feature","geometry":{"type":"Polygon","coordinates":[[[22.727083,63.64375],[22.73125,63.64375],[22.73125,63.647917],[22.727083,63.647917],[22.727083,63.64375]]]},"properties":{"radiance":8.98}},{"type":"Feature","geometry":{"type":"Polygon","coordinates":[[[22.73125,63.64375],[22.735417,63.64375],[22.735417,63.647917],[22.73125,63.647917],[22.73125,63.64375]]]},"properties":{"radiance":24.01}},{"type":"Feature","geometry":{"type":"Polygon","coordinates":[[[22.735417,63.64375],[22.739583,63.64375],[22.739583,63.647917],[22.735417,63.647917],[22.735417,63.64375]]]},"properties":{"radiance":7.22}},{"type":"Feature","geometry":{"type":"Polygon","coordinates":[[[22.739583,63.64375],[22.74375,63.64375],[22.74375,63.647917],[22.739583,63.647917],[22.739583,63.64375]]]},"properties":{"radiance":5.86}},{"type":"Feature","geometry":{"type":"Polygon","coordinates":[[[22.73125,63.639583],[22.735417,63.639583],[22.735417,63.64375],[22.73125,63.64375],[22.73125,63.639583]]]},"properties":{"radiance":10.83}},{"type":"Feature","geometry":{"type":"Polygon","coordinates":[[[22.735417,63.639583],[22.739583,63.639583],[22.739583,63.64375],[22.735417,63.64375],[22.735417,63.639583]]]},"properties":{"radiance":8.27}},{"type":"Feature","geometry":{"type":"Polygon","coordinates":[[[22.739583,63.635417],[22.74375,63.635417],[22.74375,63.639583],[22.739583,63.639583],[22.739583,63.635417]]]},"properties":{"radiance":5.92}},{"type":"Feature","geometry":{"type":"Polygon","coordinates":[[[22.739583,63.63125],[22.74375,63.63125],[22.74375,63.635417],[22.739583,63.635417],[22.739583,63.63125]]]},"properties":{"radiance":5.35}},{"type":"Feature","geometry":{"type":"Polygon","coordinates":[[[22.74375,63.627083],[22.747917,63.627083],[22.747917,63.63125],[22.74375,63.63125],[22.74375,63.627083]]]},"properties":{"radiance":5.47}},{"type":"Feature","geometry":{"type":"Polygon","coordinates":[[[22.747917,63.627083],[22.752083,63.627083],[22.752083,63.63125],[22.747917,63.63125],[22.747917,63.627083]]]},"properties":{"radiance":5.4}},{"type":"Feature","geometry":{"type":"Polygon","coordinates":[[[22.747917,63.622917],[22.752083,63.622917],[22.752083,63.627083],[22.747917,63.627083],[22.747917,63.622917]]]},"properties":{"radiance":5.89}},{"type":"Feature","geometry":{"type":"Polygon","coordinates":[[[22.752083,63.622917],[22.75625,63.622917],[22.75625,63.627083],[22.752083,63.627083],[22.752083,63.622917]]]},"properties":{"radiance":5.1}},{"type":"Feature","geometry":{"type":"Polygon","coordinates":[[[22.74375,63.61875],[22.747917,63.61875],[22.747917,63.622917],[22.74375,63.622917],[22.74375,63.61875]]]},"properties":{"radiance":6.01}},{"type":"Feature","geometry":{"type":"Polygon","coordinates":[[[22.747917,63.602083],[22.752083,63.602083],[22.752083,63.60625],[22.747917,63.60625],[22.747917,63.602083]]]},"properties":{"radiance":5.5}},{"type":"Feature","geometry":{"type":"Polygon","coordinates":[[[22.752083,63.602083],[22.75625,63.602083],[22.75625,63.60625],[22.752083,63.60625],[22.752083,63.602083]]]},"properties":{"radiance":5.26}},{"type":"Feature","geometry":{"type":"Polygon","coordinates":[[[22.75625,63.602083],[22.760417,63.602083],[22.760417,63.60625],[22.75625,63.60625],[22.75625,63.602083]]]},"properties":{"radiance":7.42}},{"type":"Feature","geometry":{"type":"Polygon","coordinates":[[[22.760417,63.602083],[22.764583,63.602083],[22.764583,63.60625],[22.760417,63.60625],[22.760417,63.602083]]]},"properties":{"radiance":6.05}},{"type":"Feature","geometry":{"type":"Polygon","coordinates":[[[22.747917,63.597917],[22.752083,63.597917],[22.752083,63.602083],[22.747917,63.602083],[22.747917,63.597917]]]},"properties":{"radiance":6.33}},{"type":"Feature","geometry":{"type":"Polygon","coordinates":[[[22.752083,63.597917],[22.75625,63.597917],[22.75625,63.602083],[22.752083,63.602083],[22.752083,63.597917]]]},"properties":{"radiance":8.3}},{"type":"Feature","geometry":{"type":"Polygon","coordinates":[[[22.75625,63.597917],[22.760417,63.597917],[22.760417,63.602083],[22.75625,63.602083],[22.75625,63.597917]]]},"properties":{"radiance":9.25}},{"type":"Feature","geometry":{"type":"Polygon","coordinates":[[[22.760417,63.597917],[22.764583,63.597917],[22.764583,63.602083],[22.760417,63.602083],[22.760417,63.597917]]]},"properties":{"radiance":10.34}},{"type":"Feature","geometry":{"type":"Polygon","coordinates":[[[22.752083,63.59375],[22.75625,63.59375],[22.75625,63.597917],[22.752083,63.597917],[22.752083,63.59375]]]},"properties":{"radiance":8.24}},{"type":"Feature","geometry":{"type":"Polygon","coordinates":[[[22.75625,63.59375],[22.760417,63.59375],[22.760417,63.597917],[22.75625,63.597917],[22.75625,63.59375]]]},"properties":{"radiance":12.08}},{"type":"Feature","geometry":{"type":"Polygon","coordinates":[[[22.53125,63.54375],[22.535417,63.54375],[22.535417,63.547917],[22.53125,63.547917],[22.53125,63.54375]]]},"properties":{"radiance":5.99}},{"type":"Feature","geometry":{"type":"Polygon","coordinates":[[[22.535417,63.54375],[22.539583,63.54375],[22.539583,63.547917],[22.535417,63.547917],[22.535417,63.54375]]]},"properties":{"radiance":10.34}},{"type":"Feature","geometry":{"type":"Polygon","coordinates":[[[22.539583,63.54375],[22.54375,63.54375],[22.54375,63.547917],[22.539583,63.547917],[22.539583,63.54375]]]},"properties":{"radiance":8.62}},{"type":"Feature","geometry":{"type":"Polygon","coordinates":[[[22.53125,63.539583],[22.535417,63.539583],[22.535417,63.54375],[22.53125,63.54375],[22.53125,63.539583]]]},"properties":{"radiance":26.47}},{"type":"Feature","geometry":{"type":"Polygon","coordinates":[[[22.535417,63.539583],[22.539583,63.539583],[22.539583,63.54375],[22.535417,63.54375],[22.535417,63.539583]]]},"properties":{"radiance":32.18}},{"type":"Feature","geometry":{"type":"Polygon","coordinates":[[[22.539583,63.539583],[22.54375,63.539583],[22.54375,63.54375],[22.539583,63.54375],[22.539583,63.539583]]]},"properties":{"radiance":10.76}},{"type":"Feature","geometry":{"type":"Polygon","coordinates":[[[22.54375,63.539583],[22.547917,63.539583],[22.547917,63.54375],[22.54375,63.54375],[22.54375,63.539583]]]},"properties":{"radiance":7.7}},{"type":"Feature","geometry":{"type":"Polygon","coordinates":[[[22.53125,63.535417],[22.535417,63.535417],[22.535417,63.539583],[22.53125,63.539583],[22.53125,63.535417]]]},"properties":{"radiance":8.65}},{"type":"Feature","geometry":{"type":"Polygon","coordinates":[[[22.535417,63.535417],[22.539583,63.535417],[22.539583,63.539583],[22.535417,63.539583],[22.535417,63.535417]]]},"properties":{"radiance":12.58}},{"type":"Feature","geometry":{"type":"Polygon","coordinates":[[[22.539583,63.535417],[22.54375,63.535417],[22.54375,63.539583],[22.539583,63.539583],[22.539583,63.535417]]]},"properties":{"radiance":16.2}},{"type":"Feature","geometry":{"type":"Polygon","coordinates":[[[22.54375,63.535417],[22.547917,63.535417],[22.547917,63.539583],[22.54375,63.539583],[22.54375,63.535417]]]},"properties":{"radiance":15.48}},{"type":"Feature","geometry":{"type":"Polygon","coordinates":[[[22.53125,63.53125],[22.535417,63.53125],[22.535417,63.535417],[22.53125,63.535417],[22.53125,63.53125]]]},"properties":{"radiance":11.98}},{"type":"Feature","geometry":{"type":"Polygon","coordinates":[[[22.535417,63.53125],[22.539583,63.53125],[22.539583,63.535417],[22.535417,63.535417],[22.535417,63.53125]]]},"properties":{"radiance":30.58}},{"type":"Feature","geometry":{"type":"Polygon","coordinates":[[[22.539583,63.53125],[22.54375,63.53125],[22.54375,63.535417],[22.539583,63.535417],[22.539583,63.53125]]]},"properties":{"radiance":7.88}},{"type":"Feature","geometry":{"type":"Polygon","coordinates":[[[22.54375,63.53125],[22.547917,63.53125],[22.547917,63.535417],[22.54375,63.535417],[22.54375,63.53125]]]},"properties":{"radiance":6.25}},{"type":"Feature","geometry":{"type":"Polygon","coordinates":[[[22.51875,63.527083],[22.522917,63.527083],[22.522917,63.53125],[22.51875,63.53125],[22.51875,63.527083]]]},"properties":{"radiance":6.85}},{"type":"Feature","geometry":{"type":"Polygon","coordinates":[[[22.522917,63.527083],[22.527083,63.527083],[22.527083,63.53125],[22.522917,63.53125],[22.522917,63.527083]]]},"properties":{"radiance":6.2}},{"type":"Feature","geometry":{"type":"Polygon","coordinates":[[[22.527083,63.527083],[22.53125,63.527083],[22.53125,63.53125],[22.527083,63.53125],[22.527083,63.527083]]]},"properties":{"radiance":8.44}},{"type":"Feature","geometry":{"type":"Polygon","coordinates":[[[22.53125,63.527083],[22.535417,63.527083],[22.535417,63.53125],[22.53125,63.53125],[22.53125,63.527083]]]},"properties":{"radiance":8.6}},{"type":"Feature","geometry":{"type":"Polygon","coordinates":[[[22.535417,63.527083],[22.539583,63.527083],[22.539583,63.53125],[22.535417,63.53125],[22.535417,63.527083]]]},"properties":{"radiance":18.94}},{"type":"Feature","geometry":{"type":"Polygon","coordinates":[[[22.539583,63.527083],[22.54375,63.527083],[22.54375,63.53125],[22.539583,63.53125],[22.539583,63.527083]]]},"properties":{"radiance":14.77}},{"type":"Feature","geometry":{"type":"Polygon","coordinates":[[[22.54375,63.527083],[22.547917,63.527083],[22.547917,63.53125],[22.54375,63.53125],[22.54375,63.527083]]]},"properties":{"radiance":10.79}},{"type":"Feature","geometry":{"type":"Polygon","coordinates":[[[22.547917,63.527083],[22.552083,63.527083],[22.552083,63.53125],[22.547917,63.53125],[22.547917,63.527083]]]},"properties":{"radiance":9.66}},{"type":"Feature","geometry":{"type":"Polygon","coordinates":[[[22.514583,63.522917],[22.51875,63.522917],[22.51875,63.527083],[22.514583,63.527083],[22.514583,63.522917]]]},"properties":{"radiance":8.69}},{"type":"Feature","geometry":{"type":"Polygon","coordinates":[[[22.51875,63.522917],[22.522917,63.522917],[22.522917,63.527083],[22.51875,63.527083],[22.51875,63.522917]]]},"properties":{"radiance":9.58}},{"type":"Feature","geometry":{"type":"Polygon","coordinates":[[[22.522917,63.522917],[22.527083,63.522917],[22.527083,63.527083],[22.522917,63.527083],[22.522917,63.522917]]]},"properties":{"radiance":15.94}},{"type":"Feature","geometry":{"type":"Polygon","coordinates":[[[22.527083,63.522917],[22.53125,63.522917],[22.53125,63.527083],[22.527083,63.527083],[22.527083,63.522917]]]},"properties":{"radiance":9.7}},{"type":"Feature","geometry":{"type":"Polygon","coordinates":[[[22.53125,63.522917],[22.535417,63.522917],[22.535417,63.527083],[22.53125,63.527083],[22.53125,63.522917]]]},"properties":{"radiance":6.01}},{"type":"Feature","geometry":{"type":"Polygon","coordinates":[[[22.535417,63.522917],[22.539583,63.522917],[22.539583,63.527083],[22.535417,63.527083],[22.535417,63.522917]]]},"properties":{"radiance":12.52}},{"type":"Feature","geometry":{"type":"Polygon","coordinates":[[[22.539583,63.522917],[22.54375,63.522917],[22.54375,63.527083],[22.539583,63.527083],[22.539583,63.522917]]]},"properties":{"radiance":12.3}},{"type":"Feature","geometry":{"type":"Polygon","coordinates":[[[22.54375,63.522917],[22.547917,63.522917],[22.547917,63.527083],[22.54375,63.527083],[22.54375,63.522917]]]},"properties":{"radiance":11.94}},{"type":"Feature","geometry":{"type":"Polygon","coordinates":[[[22.547917,63.522917],[22.552083,63.522917],[22.552083,63.527083],[22.547917,63.527083],[22.547917,63.522917]]]},"properties":{"radiance":5.88}},{"type":"Feature","geometry":{"type":"Polygon","coordinates":[[[22.552083,63.522917],[22.55625,63.522917],[22.55625,63.527083],[22.552083,63.527083],[22.552083,63.522917]]]},"properties":{"radiance":7.24}},{"type":"Feature","geometry":{"type":"Polygon","coordinates":[[[22.51875,63.51875],[22.522917,63.51875],[22.522917,63.522917],[22.51875,63.522917],[22.51875,63.51875]]]},"properties":{"radiance":6.48}},{"type":"Feature","geometry":{"type":"Polygon","coordinates":[[[22.522917,63.51875],[22.527083,63.51875],[22.527083,63.522917],[22.522917,63.522917],[22.522917,63.51875]]]},"properties":{"radiance":11.15}},{"type":"Feature","geometry":{"type":"Polygon","coordinates":[[[22.527083,63.51875],[22.53125,63.51875],[22.53125,63.522917],[22.527083,63.522917],[22.527083,63.51875]]]},"properties":{"radiance":9.18}},{"type":"Feature","geometry":{"type":"Polygon","coordinates":[[[22.53125,63.51875],[22.535417,63.51875],[22.535417,63.522917],[22.53125,63.522917],[22.53125,63.51875]]]},"properties":{"radiance":7.34}},{"type":"Feature","geometry":{"type":"Polygon","coordinates":[[[22.535417,63.51875],[22.539583,63.51875],[22.539583,63.522917],[22.535417,63.522917],[22.535417,63.51875]]]},"properties":{"radiance":5.71}},{"type":"Feature","geometry":{"type":"Polygon","coordinates":[[[22.552083,63.51875],[22.55625,63.51875],[22.55625,63.522917],[22.552083,63.522917],[22.552083,63.51875]]]},"properties":{"radiance":6.16}},{"type":"Feature","geometry":{"type":"Polygon","coordinates":[[[22.514583,63.514583],[22.51875,63.514583],[22.51875,63.51875],[22.514583,63.51875],[22.514583,63.514583]]]},"properties":{"radiance":6.31}},{"type":"Feature","geometry":{"type":"Polygon","coordinates":[[[22.55625,63.44375],[22.560417,63.44375],[22.560417,63.447917],[22.55625,63.447917],[22.55625,63.44375]]]},"properties":{"radiance":7.06}},{"type":"Feature","geometry":{"type":"Polygon","coordinates":[[[22.560417,63.44375],[22.564583,63.44375],[22.564583,63.447917],[22.560417,63.447917],[22.560417,63.44375]]]},"properties":{"radiance":5.42}},{"type":"Feature","geometry":{"type":"Polygon","coordinates":[[[22.627083,63.397917],[22.63125,63.397917],[22.63125,63.402083],[22.627083,63.402083],[22.627083,63.397917]]]},"properties":{"radiance":6.58}},{"type":"Feature","geometry":{"type":"Polygon","coordinates":[[[22.622917,63.39375],[22.627083,63.39375],[22.627083,63.397917],[22.622917,63.397917],[22.622917,63.39375]]]},"properties":{"radiance":11.53}},{"type":"Feature","geometry":{"type":"Polygon","coordinates":[[[22.627083,63.39375],[22.63125,63.39375],[22.63125,63.397917],[22.627083,63.397917],[22.627083,63.39375]]]},"properties":{"radiance":42.66}},{"type":"Feature","geometry":{"type":"Polygon","coordinates":[[[22.63125,63.39375],[22.635417,63.39375],[22.635417,63.397917],[22.63125,63.397917],[22.63125,63.39375]]]},"properties":{"radiance":16.86}},{"type":"Feature","geometry":{"type":"Polygon","coordinates":[[[22.635417,63.39375],[22.639583,63.39375],[22.639583,63.397917],[22.635417,63.397917],[22.635417,63.39375]]]},"properties":{"radiance":27.65}},{"type":"Feature","geometry":{"type":"Polygon","coordinates":[[[22.61875,63.389583],[22.622917,63.389583],[22.622917,63.39375],[22.61875,63.39375],[22.61875,63.389583]]]},"properties":{"radiance":6.02}},{"type":"Feature","geometry":{"type":"Polygon","coordinates":[[[22.622917,63.389583],[22.627083,63.389583],[22.627083,63.39375],[22.622917,63.39375],[22.622917,63.389583]]]},"properties":{"radiance":24.56}},{"type":"Feature","geometry":{"type":"Polygon","coordinates":[[[22.627083,63.389583],[22.63125,63.389583],[22.63125,63.39375],[22.627083,63.39375],[22.627083,63.389583]]]},"properties":{"radiance":33.44}},{"type":"Feature","geometry":{"type":"Polygon","coordinates":[[[22.63125,63.389583],[22.635417,63.389583],[22.635417,63.39375],[22.63125,63.39375],[22.63125,63.389583]]]},"properties":{"radiance":46.35}},{"type":"Feature","geometry":{"type":"Polygon","coordinates":[[[22.635417,63.389583],[22.639583,63.389583],[22.639583,63.39375],[22.635417,63.39375],[22.635417,63.389583]]]},"properties":{"radiance":9.79}},{"type":"Feature","geometry":{"type":"Polygon","coordinates":[[[22.414583,63.314583],[22.41875,63.314583],[22.41875,63.31875],[22.414583,63.31875],[22.414583,63.314583]]]},"properties":{"radiance":6.37}},{"type":"Feature","geometry":{"type":"Polygon","coordinates":[[[22.377083,63.310417],[22.38125,63.310417],[22.38125,63.314583],[22.377083,63.314583],[22.377083,63.310417]]]},"properties":{"radiance":5.87}},{"type":"Feature","geometry":{"type":"Polygon","coordinates":[[[22.38125,63.310417],[22.385417,63.310417],[22.385417,63.314583],[22.38125,63.314583],[22.38125,63.310417]]]},"properties":{"radiance":6.47}},{"type":"Feature","geometry":{"type":"Polygon","coordinates":[[[22.385417,63.310417],[22.389583,63.310417],[22.389583,63.314583],[22.385417,63.314583],[22.385417,63.310417]]]},"properties":{"radiance":5.61}},{"type":"Feature","geometry":{"type":"Polygon","coordinates":[[[22.410417,63.310417],[22.414583,63.310417],[22.414583,63.314583],[22.410417,63.314583],[22.410417,63.310417]]]},"properties":{"radiance":20.38}},{"type":"Feature","geometry":{"type":"Polygon","coordinates":[[[22.414583,63.310417],[22.41875,63.310417],[22.41875,63.314583],[22.414583,63.314583],[22.414583,63.310417]]]},"properties":{"radiance":34.63}},{"type":"Feature","geometry":{"type":"Polygon","coordinates":[[[22.41875,63.310417],[22.422917,63.310417],[22.422917,63.314583],[22.41875,63.314583],[22.41875,63.310417]]]},"properties":{"radiance":25.31}},{"type":"Feature","geometry":{"type":"Polygon","coordinates":[[[22.422917,63.310417],[22.427083,63.310417],[22.427083,63.314583],[22.422917,63.314583],[22.422917,63.310417]]]},"properties":{"radiance":15.17}},{"type":"Feature","geometry":{"type":"Polygon","coordinates":[[[22.372917,63.30625],[22.377083,63.30625],[22.377083,63.310417],[22.372917,63.310417],[22.372917,63.30625]]]},"properties":{"radiance":11.21}},{"type":"Feature","geometry":{"type":"Polygon","coordinates":[[[22.389583,63.30625],[22.39375,63.30625],[22.39375,63.310417],[22.389583,63.310417],[22.389583,63.30625]]]},"properties":{"radiance":6.08}},{"type":"Feature","geometry":{"type":"Polygon","coordinates":[[[22.39375,63.30625],[22.397917,63.30625],[22.397917,63.310417],[22.39375,63.310417],[22.39375,63.30625]]]},"properties":{"radiance":6.65}},{"type":"Feature","geometry":{"type":"Polygon","coordinates":[[[22.41875,63.30625],[22.422917,63.30625],[22.422917,63.310417],[22.41875,63.310417],[22.41875,63.30625]]]},"properties":{"radiance":15.25}},{"type":"Feature","geometry":{"type":"Polygon","coordinates":[[[22.422917,63.30625],[22.427083,63.30625],[22.427083,63.310417],[22.422917,63.310417],[22.422917,63.30625]]]},"properties":{"radiance":11.18}},{"type":"Feature","geometry":{"type":"Polygon","coordinates":[[[22.36875,63.302083],[22.372917,63.302083],[22.372917,63.30625],[22.36875,63.30625],[22.36875,63.302083]]]},"properties":{"radiance":7.77}},{"type":"Feature","geometry":{"type":"Polygon","coordinates":[[[22.36875,63.297917],[22.372917,63.297917],[22.372917,63.302083],[22.36875,63.302083],[22.36875,63.297917]]]},"properties":{"radiance":6.94}},{"type":"Feature","geometry":{"type":"Polygon","coordinates":[[[22.377083,63.297917],[22.38125,63.297917],[22.38125,63.302083],[22.377083,63.302083],[22.377083,63.297917]]]},"properties":{"radiance":6.74}}]}