{"type":"FeatureCollection","features":[{"type":"Feature","geometry":{"type":"Polygon","coordinates":[[[24.514583,63.902083],[24.51875,63.902083],[24.51875,63.90625],[24.514583,63.90625],[24.514583,63.902083]]]},"properties":{"radiance":15.96}},{"type":"Feature","geometry":{"type":"Polygon","coordinates":[[[24.51875,63.902083],[24.522917,63.902083],[24.522917,63.90625],[24.51875,63.90625],[24.51875,63.902083]]]},"properties":{"radiance":15.85}},{"type":"Feature","geometry":{"type":"Polygon","coordinates":[[[24.522917,63.902083],[24.527083,63.902083],[24.527083,63.90625],[24.522917,63.90625],[24.522917,63.902083]]]},"properties":{"radiance":13.02}},{"type":"Feature","geometry":{"type":"Polygon","coordinates":[[[24.527083,63.902083],[24.53125,63.902083],[24.53125,63.90625],[24.527083,63.90625],[24.527083,63.902083]]]},"properties":{"radiance":8.71}},{"type":"Feature","geometry":{"type":"Polygon","coordinates":[[[24.514583,63.897917],[24.51875,63.897917],[24.51875,63.902083],[24.514583,63.902083],[24.514583,63.897917]]]},"properties":{"radiance":7.7}},{"type":"Feature","geometry":{"type":"Polygon","coordinates":[[[24.51875,63.897917],[24.522917,63.897917],[24.522917,63.902083],[24.51875,63.902083],[24.51875,63.897917]]]},"properties":{"radiance":9.27}},{"type":"Feature","geometry":{"type":"Polygon","coordinates":[[[24.522917,63.897917],[24.527083,63.897917],[24.527083,63.902083],[24.522917,63.902083],[24.522917,63.897917]]]},"properties":{"radiance":10.57}},{"type":"Feature","geometry":{"type":"Polygon","coordinates":[[[24.527083,63.897917],[24.53125,63.897917],[24.53125,63.902083],[24.527083,63.902083],[24.527083,63.897917]]]},"properties":{"radiance":11.75}},{"type":"Feature","geometry":{"type":"Polygon","coordinates":[[[24.53125,63.897917],[24.535417,63.897917],[24.535417,63.902083],[24.53125,63.902083],[24.53125,63.897917]]]},"properties":{"radiance":9.84}},{"type":"Feature","geometry":{"type":"Polygon","coordinates":[[[24.535417,63.897917],[24.539583,63.897917],[24.539583,63.902083],[24.535417,63.902083],[24.535417,63.897917]]]},"properties":{"radiance":6.36}},{"type":"Feature","geometry":{"type":"Polygon","coordinates":[[[24.522917,63.89375],[24.527083,63.89375],[24.527083,63.897917],[24.522917,63.897917],[24.522917,63.89375]]]},"properties":{"radiance":5.2}},{"type":"Feature","geometry":{"type":"Polygon","coordinates":[[[24.527083,63.89375],[24.53125,63.89375],[24.53125,63.897917],[24.527083,63.897917],[24.527083,63.89375]]]},"properties":{"radiance":7.59}},{"type":"Feature","geometry":{"type":"Polygon","coordinates":[[[24.53125,63.89375],[24.535417,63.89375],[24.535417,63.897917],[24.53125,63.897917],[24.53125,63.89375]]]},"properties":{"radiance":7.43}},{"type":"Feature","geometry":{"type":"Polygon","coordinates":[[[24.535417,63.89375],[24.539583,63.89375],[24.539583,63.897917],[24.535417,63.897917],[24.535417,63.89375]]]},"properties":{"radiance":6.89}},{"type":"Feature","geometry":{"type":"Polygon","coordinates":[[[24.539583,63.89375],[24.54375,63.89375],[24.54375,63.897917],[24.539583,63.897917],[24.539583,63.89375]]]},"properties":{"radiance":6.58}},{"type":"Feature","geometry":{"type":"Polygon","coordinates":[[[24.54375,63.89375],[24.547917,63.89375],[24.547917,63.897917],[24.54375,63.897917],[24.54375,63.89375]]]},"properties":{"radiance":5.92}},{"type":"Feature","geometry":{"type":"Polygon","coordinates":[[[24.547917,63.89375],[24.552083,63.89375],[24.552083,63.897917],[24.547917,63.897917],[24.547917,63.89375]]]},"properties":{"radiance":5.5}},{"type":"Feature","geometry":{"type":"Polygon","coordinates":[[[24.547917,63.889583],[24.552083,63.889583],[24.552083,63.89375],[24.547917,63.89375],[24.547917,63.889583]]]},"properties":{"radiance":5.23}},{"type":"Feature","geometry":{"type":"Polygon","coordinates":[[[24.552083,63.889583],[24.55625,63.889583],[24.55625,63.89375],[24.552083,63.89375],[24.552083,63.889583]]]},"properties":{"radiance":5.72}},{"type":"Feature","geometry":{"type":"Polygon","coordinates":[[[24.55625,63.889583],[24.560417,63.889583],[24.560417,63.89375],[24.55625,63.89375],[24.55625,63.889583]]]},"properties":{"radiance":5.95}},{"type":"Feature","geometry":{"type":"Polygon","coordinates":[[[24.560417,63.889583],[24.564583,63.889583],[24.564583,63.89375],[24.560417,63.89375],[24.560417,63.889583]]]},"properties":{"radiance":5.37}},{"type":"Feature","geometry":{"type":"Polygon","coordinates":[[[24.564583,63.889583],[24.56875,63.889583],[24.56875,63.89375],[24.564583,63.89375],[24.564583,63.889583]]]},"properties":{"radiance":5.03}},{"type":"Feature","geometry":{"type":"Polygon","coordinates":[[[24.577083,63.88125],[24.58125,63.88125],[24.58125,63.885417],[24.577083,63.885417],[24.577083,63.88125]]]},"properties":{"radiance":5.06}},{"type":"Feature","geometry":{"type":"Polygon","coordinates":[[[24.964583,63.36875],[24.96875,63.36875],[24.96875,63.372917],[24.964583,63.372917],[24.964583,63.36875]]]},"properties":{"radiance":5.05}},{"type":"Feature","geometry":{"type":"Polygon","coordinates":[[[24.964583,63.364583],[24.96875,63.364583],[24.96875,63.36875],[24.964583,63.36875],[24.964583,63.364583]]]},"properties":{"radiance":6.43}}]}