{"type":"FeatureCollection","features":[{"type":"Feature","geometry":{"type":"Polygon","coordinates":[[[26.747917,62.95625],[26.752083,62.95625],[26.752083,62.960417],[26.747917,62.960417],[26.747917,62.95625]]]},"properties":{"radiance":5.82}},{"type":"Feature","geometry":{"type":"Polygon","coordinates":[[[26.752083,62.95625],[26.75625,62.95625],[26.75625,62.960417],[26.752083,62.960417],[26.752083,62.95625]]]},"properties":{"radiance":5.88}},{"type":"Feature","geometry":{"type":"Polygon","coordinates":[[[26.75625,62.952083],[26.760417,62.952083],[26.760417,62.95625],[26.75625,62.95625],[26.75625,62.952083]]]},"properties":{"radiance":5.48}},{"type":"Feature","geometry":{"type":"Polygon","coordinates":[[[26.95625,62.902083],[26.960417,62.902083],[26.960417,62.90625],[26.95625,62.90625],[26.95625,62.902083]]]},"properties":{"radiance":6.07}},{"type":"Feature","geometry":{"type":"Polygon","coordinates":[[[26.960417,62.902083],[26.964583,62.902083],[26.964583,62.90625],[26.960417,62.90625],[26.960417,62.902083]]]},"properties":{"radiance":6.01}},{"type":"Feature","geometry":{"type":"Polygon","coordinates":[[[26.964583,62.902083],[26.96875,62.902083],[26.96875,62.90625],[26.964583,62.90625],[26.964583,62.902083]]]},"properties":{"radiance":8.38}},{"type":"Feature","geometry":{"type":"Polygon","coordinates":[[[26.95625,62.897917],[26.960417,62.897917],[26.960417,62.902083],[26.95625,62.902083],[26.95625,62.897917]]]},"properties":{"radiance":8.07}},{"type":"Feature","geometry":{"type":"Polygon","coordinates":[[[26.960417,62.897917],[26.964583,62.897917],[26.964583,62.902083],[26.960417,62.902083],[26.960417,62.897917]]]},"properties":{"radiance":9.04}},{"type":"Feature","geometry":{"type":"Polygon","coordinates":[[[26.964583,62.897917],[26.96875,62.897917],[26.96875,62.902083],[26.964583,62.902083],[26.964583,62.897917]]]},"properties":{"radiance":8.07}},{"type":"Feature","geometry":{"type":"Polygon","coordinates":[[[26.96875,62.897917],[26.972917,62.897917],[26.972917,62.902083],[26.96875,62.902083],[26.96875,62.897917]]]},"properties":{"radiance":29.58}},{"type":"Feature","geometry":{"type":"Polygon","coordinates":[[[26.972917,62.897917],[26.977083,62.897917],[26.977083,62.902083],[26.972917,62.902083],[26.972917,62.897917]]]},"properties":{"radiance":5.62}},{"type":"Feature","geometry":{"type":"Polygon","coordinates":[[[26.960417,62.89375],[26.964583,62.89375],[26.964583,62.897917],[26.960417,62.897917],[26.960417,62.89375]]]},"properties":{"radiance":28.96}},{"type":"Feature","geometry":{"type":"Polygon","coordinates":[[[26.964583,62.89375],[26.96875,62.89375],[26.96875,62.897917],[26.964583,62.897917],[26.964583,62.89375]]]},"properties":{"radiance":7.81}},{"type":"Feature","geometry":{"type":"Polygon","coordinates":[[[26.96875,62.89375],[26.972917,62.89375],[26.972917,62.897917],[26.96875,62.897917],[26.96875,62.89375]]]},"properties":{"radiance":28.18}},{"type":"Feature","geometry":{"type":"Polygon","coordinates":[[[26.972917,62.89375],[26.977083,62.89375],[26.977083,62.897917],[26.972917,62.897917],[26.972917,62.89375]]]},"properties":{"radiance":27.77}},{"type":"Feature","geometry":{"type":"Polygon","coordinates":[[[26.977083,62.89375],[26.98125,62.89375],[26.98125,62.897917],[26.977083,62.897917],[26.977083,62.89375]]]},"properties":{"radiance":5.52}},{"type":"Feature","geometry":{"type":"Polygon","coordinates":[[[27.485417,62.78125],[27.489583,62.78125],[27.489583,62.785417],[27.485417,62.785417],[27.485417,62.78125]]]},"properties":{"radiance":5.3}},{"type":"Feature","geometry":{"type":"Polygon","coordinates":[[[27.510417,62.777083],[27.514583,62.777083],[27.514583,62.78125],[27.510417,62.78125],[27.510417,62.777083]]]},"properties":{"radiance":5.75}},{"type":"Feature","geometry":{"type":"Polygon","coordinates":[[[27.514583,62.777083],[27.51875,62.777083],[27.51875,62.78125],[27.514583,62.78125],[27.514583,62.777083]]]},"properties":{"radiance":5.54}},{"type":"Feature","geometry":{"type":"Polygon","coordinates":[[[27.514583,62.772917],[27.51875,62.772917],[27.51875,62.777083],[27.514583,62.777083],[27.514583,62.772917]]]},"properties":{"radiance":5.18}},{"type":"Feature","geometry":{"type":"Polygon","coordinates":[[[27.51875,62.772917],[27.522917,62.772917],[27.522917,62.777083],[27.51875,62.777083],[27.51875,62.772917]]]},"properties":{"radiance":5.38}},{"type":"Feature","geometry":{"type":"Polygon","coordinates":[[[27.002083,62.664583],[27.00625,62.664583],[27.00625,62.66875],[27.002083,62.66875],[27.002083,62.664583]]]},"properties":{"radiance":6.84}},{"type":"Feature","geometry":{"type":"Polygon","coordinates":[[[27.00625,62.664583],[27.010417,62.664583],[27.010417,62.66875],[27.00625,62.66875],[27.00625,62.664583]]]},"properties":{"radiance":8.63}},{"type":"Feature","geometry":{"type":"Polygon","coordinates":[[[27.010417,62.664583],[27.014583,62.664583],[27.014583,62.66875],[27.010417,62.66875],[27.010417,62.664583]]]},"properties":{"radiance":10.5}},{"type":"Feature","geometry":{"type":"Polygon","coordinates":[[[27.014583,62.664583],[27.01875,62.664583],[27.01875,62.66875],[27.014583,62.66875],[27.014583,62.664583]]]},"properties":{"radiance":9.35}},{"type":"Feature","geometry":{"type":"Polygon","coordinates":[[[27.00625,62.660417],[27.010417,62.660417],[27.010417,62.664583],[27.00625,62.664583],[27.00625,62.660417]]]},"properties":{"radiance":6.71}},{"type":"Feature","geometry":{"type":"Polygon","coordinates":[[[27.010417,62.660417],[27.014583,62.660417],[27.014583,62.664583],[27.010417,62.664583],[27.010417,62.660417]]]},"properties":{"radiance":9.73}},{"type":"Feature","geometry":{"type":"Polygon","coordinates":[[[27.014583,62.660417],[27.01875,62.660417],[27.01875,62.664583],[27.014583,62.664583],[27.014583,62.660417]]]},"properties":{"radiance":6.71}},{"type":"Feature","geometry":{"type":"Polygon","coordinates":[[[27.01875,62.660417],[27.022917,62.660417],[27.022917,62.664583],[27.01875,62.664583],[27.01875,62.660417]]]},"properties":{"radiance":5.33}},{"type":"Feature","geometry":{"type":"Polygon","coordinates":[[[27.339583,62.660417],[27.34375,62.660417],[27.34375,62.664583],[27.339583,62.664583],[27.339583,62.660417]]]},"properties":{"radiance":5.74}},{"type":"Feature","geometry":{"type":"Polygon","coordinates":[[[27.34375,62.660417],[27.347917,62.660417],[27.347917,62.664583],[27.34375,62.664583],[27.34375,62.660417]]]},"properties":{"radiance":5.93}},{"type":"Feature","geometry":{"type":"Polygon","coordinates":[[[27.072917,62.647917],[27.077083,62.647917],[27.077083,62.652083],[27.072917,62.652083],[27.072917,62.647917]]]},"properties":{"radiance":5.82}},{"type":"Feature","geometry":{"type":"Polygon","coordinates":[[[27.077083,62.647917],[27.08125,62.647917],[27.08125,62.652083],[27.077083,62.652083],[27.077083,62.647917]]]},"properties":{"radiance":5.9}},{"type":"Feature","geometry":{"type":"Polygon","coordinates":[[[27.08125,62.647917],[27.085417,62.647917],[27.085417,62.652083],[27.08125,62.652083],[27.08125,62.647917]]]},"properties":{"radiance":8.29}},{"type":"Feature","geometry":{"type":"Polygon","coordinates":[[[27.077083,62.64375],[27.08125,62.64375],[27.08125,62.647917],[27.077083,62.647917],[27.077083,62.64375]]]},"properties":{"radiance":7.37}},{"type":"Feature","geometry":{"type":"Polygon","coordinates":[[[27.08125,62.64375],[27.085417,62.64375],[27.085417,62.647917],[27.08125,62.647917],[27.08125,62.64375]]]},"properties":{"radiance":12.38}},{"type":"Feature","geometry":{"type":"Polygon","coordinates":[[[27.085417,62.64375],[27.089583,62.64375],[27.089583,62.647917],[27.085417,62.647917],[27.085417,62.64375]]]},"properties":{"radiance":10.38}},{"type":"Feature","geometry":{"type":"Polygon","coordinates":[[[27.089583,62.64375],[27.09375,62.64375],[27.09375,62.647917],[27.089583,62.647917],[27.089583,62.64375]]]},"properties":{"radiance":8.05}},{"type":"Feature","geometry":{"type":"Polygon","coordinates":[[[27.15625,62.64375],[27.160417,62.64375],[27.160417,62.647917],[27.15625,62.647917],[27.15625,62.64375]]]},"properties":{"radiance":6.9}},{"type":"Feature","geometry":{"type":"Polygon","coordinates":[[[27.160417,62.64375],[27.164583,62.64375],[27.164583,62.647917],[27.160417,62.647917],[27.160417,62.64375]]]},"properties":{"radiance":6.59}},{"type":"Feature","geometry":{"type":"Polygon","coordinates":[[[27.164583,62.64375],[27.16875,62.64375],[27.16875,62.647917],[27.164583,62.647917],[27.164583,62.64375]]]},"properties":{"radiance":6.32}},{"type":"Feature","geometry":{"type":"Polygon","coordinates":[[[27.16875,62.64375],[27.172917,62.64375],[27.172917,62.647917],[27.16875,62.647917],[27.16875,62.64375]]]},"properties":{"radiance":5.1}},{"type":"Feature","geometry":{"type":"Polygon","coordinates":[[[27.077083,62.639583],[27.08125,62.639583],[27.08125,62.64375],[27.077083,62.64375],[27.077083,62.639583]]]},"properties":{"radiance":9.74}},{"type":"Feature","geometry":{"type":"Polygon","coordinates":[[[27.08125,62.639583],[27.085417,62.639583],[27.085417,62.64375],[27.08125,62.64375],[27.08125,62.639583]]]},"properties":{"radiance":40.23}},{"type":"Feature","geometry":{"type":"Polygon","coordinates":[[[27.085417,62.639583],[27.089583,62.639583],[27.089583,62.64375],[27.085417,62.64375],[27.085417,62.639583]]]},"properties":{"radiance":34}},{"type":"Feature","geometry":{"type":"Polygon","coordinates":[[[27.089583,62.639583],[27.09375,62.639583],[27.09375,62.64375],[27.089583,62.64375],[27.089583,62.639583]]]},"properties":{"radiance":36.64}},{"type":"Feature","geometry":{"type":"Polygon","coordinates":[[[27.09375,62.639583],[27.097917,62.639583],[27.097917,62.64375],[27.09375,62.64375],[27.09375,62.639583]]]},"properties":{"radiance":8.24}},{"type":"Feature","geometry":{"type":"Polygon","coordinates":[[[27.102083,62.639583],[27.10625,62.639583],[27.10625,62.64375],[27.102083,62.64375],[27.102083,62.639583]]]},"properties":{"radiance":5.06}},{"type":"Feature","geometry":{"type":"Polygon","coordinates":[[[27.08125,62.635417],[27.085417,62.635417],[27.085417,62.639583],[27.08125,62.639583],[27.08125,62.635417]]]},"properties":{"radiance":6.12}},{"type":"Feature","geometry":{"type":"Polygon","coordinates":[[[27.085417,62.635417],[27.089583,62.635417],[27.089583,62.639583],[27.085417,62.639583],[27.085417,62.635417]]]},"properties":{"radiance":45.22}},{"type":"Feature","geometry":{"type":"Polygon","coordinates":[[[27.089583,62.635417],[27.09375,62.635417],[27.09375,62.639583],[27.089583,62.639583],[27.089583,62.635417]]]},"properties":{"radiance":39.5}},{"type":"Feature","geometry":{"type":"Polygon","coordinates":[[[27.09375,62.635417],[27.097917,62.635417],[27.097917,62.639583],[27.09375,62.639583],[27.09375,62.635417]]]},"properties":{"radiance":10.54}},{"type":"Feature","geometry":{"type":"Polygon","coordinates":[[[27.097917,62.635417],[27.102083,62.635417],[27.102083,62.639583],[27.097917,62.639583],[27.097917,62.635417]]]},"properties":{"radiance":8.31}},{"type":"Feature","geometry":{"type":"Polygon","coordinates":[[[27.102083,62.635417],[27.10625,62.635417],[27.10625,62.639583],[27.102083,62.639583],[27.102083,62.635417]]]},"properties":{"radiance":6.35}},{"type":"Feature","geometry":{"type":"Polygon","coordinates":[[[27.10625,62.635417],[27.110417,62.635417],[27.110417,62.639583],[27.10625,62.639583],[27.10625,62.635417]]]},"properties":{"radiance":5.65}},{"type":"Feature","geometry":{"type":"Polygon","coordinates":[[[27.08125,62.63125],[27.085417,62.63125],[27.085417,62.635417],[27.08125,62.635417],[27.08125,62.63125]]]},"properties":{"radiance":6.29}},{"type":"Feature","geometry":{"type":"Polygon","coordinates":[[[27.085417,62.63125],[27.089583,62.63125],[27.089583,62.635417],[27.085417,62.635417],[27.085417,62.63125]]]},"properties":{"radiance":7.01}},{"type":"Feature","geometry":{"type":"Polygon","coordinates":[[[27.089583,62.63125],[27.09375,62.63125],[27.09375,62.635417],[27.089583,62.635417],[27.089583,62.63125]]]},"properties":{"radiance":6.81}},{"type":"Feature","geometry":{"type":"Polygon","coordinates":[[[27.09375,62.63125],[27.097917,62.63125],[27.097917,62.635417],[27.09375,62.635417],[27.09375,62.63125]]]},"properties":{"radiance":7.48}},{"type":"Feature","geometry":{"type":"Polygon","coordinates":[[[27.097917,62.63125],[27.102083,62.63125],[27.102083,62.635417],[27.097917,62.635417],[27.097917,62.63125]]]},"properties":{"radiance":8.74}},{"type":"Feature","geometry":{"type":"Polygon","coordinates":[[[27.102083,62.63125],[27.10625,62.63125],[27.10625,62.635417],[27.102083,62.635417],[27.102083,62.63125]]]},"properties":{"radiance":9.43}},{"type":"Feature","geometry":{"type":"Polygon","coordinates":[[[27.10625,62.63125],[27.110417,62.63125],[27.110417,62.635417],[27.10625,62.635417],[27.10625,62.63125]]]},"properties":{"radiance":9.65}},{"type":"Feature","geometry":{"type":"Polygon","coordinates":[[[27.110417,62.63125],[27.114583,62.63125],[27.114583,62.635417],[27.110417,62.635417],[27.110417,62.63125]]]},"properties":{"radiance":8.86}},{"type":"Feature","geometry":{"type":"Polygon","coordinates":[[[27.114583,62.63125],[27.11875,62.63125],[27.11875,62.635417],[27.114583,62.635417],[27.114583,62.63125]]]},"properties":{"radiance":9.91}},{"type":"Feature","geometry":{"type":"Polygon","coordinates":[[[26.814583,62.627083],[26.81875,62.627083],[26.81875,62.63125],[26.814583,62.63125],[26.814583,62.627083]]]},"properties":{"radiance":5.26}},{"type":"Feature","geometry":{"type":"Polygon","coordinates":[[[26.822917,62.627083],[26.827083,62.627083],[26.827083,62.63125],[26.822917,62.63125],[26.822917,62.627083]]]},"properties":{"radiance":5.42}},{"type":"Feature","geometry":{"type":"Polygon","coordinates":[[[27.09375,62.627083],[27.097917,62.627083],[27.097917,62.63125],[27.09375,62.63125],[27.09375,62.627083]]]},"properties":{"radiance":5.3}},{"type":"Feature","geometry":{"type":"Polygon","coordinates":[[[27.097917,62.627083],[27.102083,62.627083],[27.102083,62.63125],[27.097917,62.63125],[27.097917,62.627083]]]},"properties":{"radiance":7.45}},{"type":"Feature","geometry":{"type":"Polygon","coordinates":[[[27.102083,62.627083],[27.10625,62.627083],[27.10625,62.63125],[27.102083,62.63125],[27.102083,62.627083]]]},"properties":{"radiance":33.84}},{"type":"Feature","geometry":{"type":"Polygon","coordinates":[[[27.10625,62.627083],[27.110417,62.627083],[27.110417,62.63125],[27.10625,62.63125],[27.10625,62.627083]]]},"properties":{"radiance":11.41}},{"type":"Feature","geometry":{"type":"Polygon","coordinates":[[[27.110417,62.627083],[27.114583,62.627083],[27.114583,62.63125],[27.110417,62.63125],[27.110417,62.627083]]]},"properties":{"radiance":13.73}},{"type":"Feature","geometry":{"type":"Polygon","coordinates":[[[27.114583,62.627083],[27.11875,62.627083],[27.11875,62.63125],[27.114583,62.63125],[27.114583,62.627083]]]},"properties":{"radiance":28.49}},{"type":"Feature","geometry":{"type":"Polygon","coordinates":[[[27.11875,62.627083],[27.122917,62.627083],[27.122917,62.63125],[27.11875,62.63125],[27.11875,62.627083]]]},"properties":{"radiance":15.99}},{"type":"Feature","geometry":{"type":"Polygon","coordinates":[[[27.122917,62.627083],[27.127083,62.627083],[27.127083,62.63125],[27.122917,62.63125],[27.122917,62.627083]]]},"properties":{"radiance":13.01}},{"type":"Feature","geometry":{"type":"Polygon","coordinates":[[[27.127083,62.627083],[27.13125,62.627083],[27.13125,62.63125],[27.127083,62.63125],[27.127083,62.627083]]]},"properties":{"radiance":11.69}},{"type":"Feature","geometry":{"type":"Polygon","coordinates":[[[27.13125,62.627083],[27.135417,62.627083],[27.135417,62.63125],[27.13125,62.63125],[27.13125,62.627083]]]},"properties":{"radiance":8.69}},{"type":"Feature","geometry":{"type":"Polygon","coordinates":[[[27.135417,62.627083],[27.139583,62.627083],[27.139583,62.63125],[27.135417,62.63125],[27.135417,62.627083]]]},"properties":{"radiance":8.26}},{"type":"Feature","geometry":{"type":"Polygon","coordinates":[[[27.139583,62.627083],[27.14375,62.627083],[27.14375,62.63125],[27.139583,62.63125],[27.139583,62.627083]]]},"properties":{"radiance":5.66}},{"type":"Feature","geometry":{"type":"Polygon","coordinates":[[[26.81875,62.622917],[26.822917,62.622917],[26.822917,62.627083],[26.81875,62.627083],[26.81875,62.622917]]]},"properties":{"radiance":5.61}},{"type":"Feature","geometry":{"type":"Polygon","coordinates":[[[26.822917,62.622917],[26.827083,62.622917],[26.827083,62.627083],[26.822917,62.627083],[26.822917,62.622917]]]},"properties":{"radiance":7.01}},{"type":"Feature","geometry":{"type":"Polygon","coordinates":[[[26.827083,62.622917],[26.83125,62.622917],[26.83125,62.627083],[26.827083,62.627083],[26.827083,62.622917]]]},"properties":{"radiance":7.18}},{"type":"Feature","geometry":{"type":"Polygon","coordinates":[[[26.83125,62.622917],[26.835417,62.622917],[26.835417,62.627083],[26.83125,62.627083],[26.83125,62.622917]]]},"properties":{"radiance":6.9}},{"type":"Feature","geometry":{"type":"Polygon","coordinates":[[[27.09375,62.622917],[27.097917,62.622917],[27.097917,62.627083],[27.09375,62.627083],[27.09375,62.622917]]]},"properties":{"radiance":5.21}},{"type":"Feature","geometry":{"type":"Polygon","coordinates":[[[27.097917,62.622917],[27.102083,62.622917],[27.102083,62.627083],[27.097917,62.627083],[27.097917,62.622917]]]},"properties":{"radiance":6.97}},{"type":"Feature","geometry":{"type":"Polygon","coordinates":[[[27.102083,62.622917],[27.10625,62.622917],[27.10625,62.627083],[27.102083,62.627083],[27.102083,62.622917]]]},"properties":{"radiance":30.03}},{"type":"Feature","geometry":{"type":"Polygon","coordinates":[[[27.10625,62.622917],[27.110417,62.622917],[27.110417,62.627083],[27.10625,62.627083],[27.10625,62.622917]]]},"properties":{"radiance":37.3}},{"type":"Feature","geometry":{"type":"Polygon","coordinates":[[[27.110417,62.622917],[27.114583,62.622917],[27.114583,62.627083],[27.110417,62.627083],[27.110417,62.622917]]]},"properties":{"radiance":8.08}},{"type":"Feature","geometry":{"type":"Polygon","coordinates":[[[27.114583,62.622917],[27.11875,62.622917],[27.11875,62.627083],[27.114583,62.627083],[27.114583,62.622917]]]},"properties":{"radiance":33.43}},{"type":"Feature","geometry":{"type":"Polygon","coordinates":[[[27.11875,62.622917],[27.122917,62.622917],[27.122917,62.627083],[27.11875,62.627083],[27.11875,62.622917]]]},"properties":{"radiance":34.49}},{"type":"Feature","geometry":{"type":"Polygon","coordinates":[[[27.122917,62.622917],[27.127083,62.622917],[27.127083,62.627083],[27.122917,62.627083],[27.122917,62.622917]]]},"properties":{"radiance":10.53}},{"type":"Feature","geometry":{"type":"Polygon","coordinates":[[[27.127083,62.622917],[27.13125,62.622917],[27.13125,62.627083],[27.127083,62.627083],[27.127083,62.622917]]]},"properties":{"radiance":7.75}},{"type":"Feature","geometry":{"type":"Polygon","coordinates":[[[27.13125,62.622917],[27.135417,62.622917],[27.135417,62.627083],[27.13125,62.627083],[27.13125,62.622917]]]},"properties":{"radiance":32.13}},{"type":"Feature","geometry":{"type":"Polygon","coordinates":[[[27.135417,62.622917],[27.139583,62.622917],[27.139583,62.627083],[27.135417,62.627083],[27.135417,62.622917]]]},"properties":{"radiance":7.84}},{"type":"Feature","geometry":{"type":"Polygon","coordinates":[[[26.827083,62.61875],[26.83125,62.61875],[26.83125,62.622917],[26.827083,62.622917],[26.827083,62.61875]]]},"properties":{"radiance":6.3}},{"type":"Feature","geometry":{"type":"Polygon","coordinates":[[[27.110417,62.61875],[27.114583,62.61875],[27.114583,62.622917],[27.110417,62.622917],[27.110417,62.61875]]]},"properties":{"radiance":6.12}},{"type":"Feature","geometry":{"type":"Polygon","coordinates":[[[27.114583,62.61875],[27.11875,62.61875],[27.11875,62.622917],[27.114583,62.622917],[27.114583,62.61875]]]},"properties":{"radiance":6.3}},{"type":"Feature","geometry":{"type":"Polygon","coordinates":[[[27.11875,62.61875],[27.122917,62.61875],[27.122917,62.622917],[27.11875,62.622917],[27.11875,62.61875]]]},"properties":{"radiance":5.35}},{"type":"Feature","geometry":{"type":"Polygon","coordinates":[[[26.414583,62.402083],[26.41875,62.402083],[26.41875,62.40625],[26.414583,62.40625],[26.414583,62.402083]]]},"properties":{"radiance":5.69}},{"type":"Feature","geometry":{"type":"Polygon","coordinates":[[[26.41875,62.402083],[26.422917,62.402083],[26.422917,62.40625],[26.41875,62.40625],[26.41875,62.402083]]]},"properties":{"radiance":6.34}}]}