{"type":"FeatureCollection","features":[{"type":"Feature","geometry":{"type":"Polygon","coordinates":[[[25.572917,63.38125],[25.577083,63.38125],[25.577083,63.385417],[25.572917,63.385417],[25.572917,63.38125]]]},"properties":{"radiance":5.51}},{"type":"Feature","geometry":{"type":"Polygon","coordinates":[[[25.577083,63.38125],[25.58125,63.38125],[25.58125,63.385417],[25.577083,63.385417],[25.577083,63.38125]]]},"properties":{"radiance":8.17}},{"type":"Feature","geometry":{"type":"Polygon","coordinates":[[[25.547917,63.377083],[25.552083,63.377083],[25.552083,63.38125],[25.547917,63.38125],[25.547917,63.377083]]]},"properties":{"radiance":6.97}},{"type":"Feature","geometry":{"type":"Polygon","coordinates":[[[25.552083,63.377083],[25.55625,63.377083],[25.55625,63.38125],[25.552083,63.38125],[25.552083,63.377083]]]},"properties":{"radiance":6.8}},{"type":"Feature","geometry":{"type":"Polygon","coordinates":[[[25.560417,63.377083],[25.564583,63.377083],[25.564583,63.38125],[25.560417,63.38125],[25.560417,63.377083]]]},"properties":{"radiance":6.77}},{"type":"Feature","geometry":{"type":"Polygon","coordinates":[[[25.577083,63.377083],[25.58125,63.377083],[25.58125,63.38125],[25.577083,63.38125],[25.577083,63.377083]]]},"properties":{"radiance":5.06}},{"type":"Feature","geometry":{"type":"Polygon","coordinates":[[[25.58125,63.377083],[25.585417,63.377083],[25.585417,63.38125],[25.58125,63.38125],[25.58125,63.377083]]]},"properties":{"radiance":5.01}},{"type":"Feature","geometry":{"type":"Polygon","coordinates":[[[25.585417,63.377083],[25.589583,63.377083],[25.589583,63.38125],[25.585417,63.38125],[25.585417,63.377083]]]},"properties":{"radiance":5.08}},{"type":"Feature","geometry":{"type":"Polygon","coordinates":[[[25.589583,63.377083],[25.59375,63.377083],[25.59375,63.38125],[25.589583,63.38125],[25.589583,63.377083]]]},"properties":{"radiance":6.86}},{"type":"Feature","geometry":{"type":"Polygon","coordinates":[[[25.547917,63.372917],[25.552083,63.372917],[25.552083,63.377083],[25.547917,63.377083],[25.547917,63.372917]]]},"properties":{"radiance":7.64}},{"type":"Feature","geometry":{"type":"Polygon","coordinates":[[[25.552083,63.372917],[25.55625,63.372917],[25.55625,63.377083],[25.552083,63.377083],[25.552083,63.372917]]]},"properties":{"radiance":21.56}},{"type":"Feature","geometry":{"type":"Polygon","coordinates":[[[25.55625,63.372917],[25.560417,63.372917],[25.560417,63.377083],[25.55625,63.377083],[25.55625,63.372917]]]},"properties":{"radiance":7.78}},{"type":"Feature","geometry":{"type":"Polygon","coordinates":[[[25.560417,63.372917],[25.564583,63.372917],[25.564583,63.377083],[25.560417,63.377083],[25.560417,63.372917]]]},"properties":{"radiance":5.96}},{"type":"Feature","geometry":{"type":"Polygon","coordinates":[[[25.564583,63.372917],[25.56875,63.372917],[25.56875,63.377083],[25.564583,63.377083],[25.564583,63.372917]]]},"properties":{"radiance":6.73}},{"type":"Feature","geometry":{"type":"Polygon","coordinates":[[[25.56875,63.372917],[25.572917,63.372917],[25.572917,63.377083],[25.56875,63.377083],[25.56875,63.372917]]]},"properties":{"radiance":7.56}},{"type":"Feature","geometry":{"type":"Polygon","coordinates":[[[25.572917,63.372917],[25.577083,63.372917],[25.577083,63.377083],[25.572917,63.377083],[25.572917,63.372917]]]},"properties":{"radiance":11.3}},{"type":"Feature","geometry":{"type":"Polygon","coordinates":[[[25.577083,63.372917],[25.58125,63.372917],[25.58125,63.377083],[25.577083,63.377083],[25.577083,63.372917]]]},"properties":{"radiance":13.04}},{"type":"Feature","geometry":{"type":"Polygon","coordinates":[[[25.58125,63.372917],[25.585417,63.372917],[25.585417,63.377083],[25.58125,63.377083],[25.58125,63.372917]]]},"properties":{"radiance":13.42}},{"type":"Feature","geometry":{"type":"Polygon","coordinates":[[[25.585417,63.372917],[25.589583,63.372917],[25.589583,63.377083],[25.585417,63.377083],[25.585417,63.372917]]]},"properties":{"radiance":13.94}},{"type":"Feature","geometry":{"type":"Polygon","coordinates":[[[25.547917,63.36875],[25.552083,63.36875],[25.552083,63.372917],[25.547917,63.372917],[25.547917,63.36875]]]},"properties":{"radiance":21}},{"type":"Feature","geometry":{"type":"Polygon","coordinates":[[[25.560417,63.36875],[25.564583,63.36875],[25.564583,63.372917],[25.560417,63.372917],[25.560417,63.36875]]]},"properties":{"radiance":5.07}},{"type":"Feature","geometry":{"type":"Polygon","coordinates":[[[25.564583,63.36875],[25.56875,63.36875],[25.56875,63.372917],[25.564583,63.372917],[25.564583,63.36875]]]},"properties":{"radiance":5.33}},{"type":"Feature","geometry":{"type":"Polygon","coordinates":[[[25.56875,63.36875],[25.572917,63.36875],[25.572917,63.372917],[25.56875,63.372917],[25.56875,63.36875]]]},"properties":{"radiance":14.02}},{"type":"Feature","geometry":{"type":"Polygon","coordinates":[[[25.572917,63.36875],[25.577083,63.36875],[25.577083,63.372917],[25.572917,63.372917],[25.572917,63.36875]]]},"properties":{"radiance":19.37}},{"type":"Feature","geometry":{"type":"Polygon","coordinates":[[[25.577083,63.36875],[25.58125,63.36875],[25.58125,63.372917],[25.577083,63.372917],[25.577083,63.36875]]]},"properties":{"radiance":17.91}},{"type":"Feature","geometry":{"type":"Polygon","coordinates":[[[25.58125,63.36875],[25.585417,63.36875],[25.585417,63.372917],[25.58125,63.372917],[25.58125,63.36875]]]},"properties":{"radiance":19.57}},{"type":"Feature","geometry":{"type":"Polygon","coordinates":[[[25.585417,63.36875],[25.589583,63.36875],[25.589583,63.372917],[25.585417,63.372917],[25.585417,63.36875]]]},"properties":{"radiance":12.94}},{"type":"Feature","geometry":{"type":"Polygon","coordinates":[[[25.589583,63.36875],[25.59375,63.36875],[25.59375,63.372917],[25.589583,63.372917],[25.589583,63.36875]]]},"properties":{"radiance":5.05}},{"type":"Feature","geometry":{"type":"Polygon","coordinates":[[[25.56875,63.364583],[25.572917,63.364583],[25.572917,63.36875],[25.56875,63.36875],[25.56875,63.364583]]]},"properties":{"radiance":8.66}},{"type":"Feature","geometry":{"type":"Polygon","coordinates":[[[25.572917,63.364583],[25.577083,63.364583],[25.577083,63.36875],[25.572917,63.36875],[25.572917,63.364583]]]},"properties":{"radiance":9.83}},{"type":"Feature","geometry":{"type":"Polygon","coordinates":[[[25.577083,63.364583],[25.58125,63.364583],[25.58125,63.36875],[25.577083,63.36875],[25.577083,63.364583]]]},"properties":{"radiance":14.57}},{"type":"Feature","geometry":{"type":"Polygon","coordinates":[[[25.58125,63.364583],[25.585417,63.364583],[25.585417,63.36875],[25.58125,63.36875],[25.58125,63.364583]]]},"properties":{"radiance":16.57}},{"type":"Feature","geometry":{"type":"Polygon","coordinates":[[[25.585417,63.364583],[25.589583,63.364583],[25.589583,63.36875],[25.585417,63.36875],[25.585417,63.364583]]]},"properties":{"radiance":8.63}},{"type":"Feature","geometry":{"type":"Polygon","coordinates":[[[25.589583,63.364583],[25.59375,63.364583],[25.59375,63.36875],[25.589583,63.36875],[25.589583,63.364583]]]},"properties":{"radiance":9.38}},{"type":"Feature","geometry":{"type":"Polygon","coordinates":[[[25.59375,63.364583],[25.597917,63.364583],[25.597917,63.36875],[25.59375,63.36875],[25.59375,63.364583]]]},"properties":{"radiance":7.02}},{"type":"Feature","geometry":{"type":"Polygon","coordinates":[[[25.585417,63.360417],[25.589583,63.360417],[25.589583,63.364583],[25.585417,63.364583],[25.585417,63.360417]]]},"properties":{"radiance":5.28}},{"type":"Feature","geometry":{"type":"Polygon","coordinates":[[[25.589583,63.352083],[25.59375,63.352083],[25.59375,63.35625],[25.589583,63.35625],[25.589583,63.352083]]]},"properties":{"radiance":5.64}},{"type":"Feature","geometry":{"type":"Polygon","coordinates":[[[25.585417,63.347917],[25.589583,63.347917],[25.589583,63.352083],[25.585417,63.352083],[25.585417,63.347917]]]},"properties":{"radiance":5.02}},{"type":"Feature","geometry":{"type":"Polygon","coordinates":[[[25.589583,63.347917],[25.59375,63.347917],[25.59375,63.352083],[25.589583,63.352083],[25.589583,63.347917]]]},"properties":{"radiance":15.92}},{"type":"Feature","geometry":{"type":"Polygon","coordinates":[[[25.59375,63.347917],[25.597917,63.347917],[25.597917,63.352083],[25.59375,63.352083],[25.59375,63.347917]]]},"properties":{"radiance":16.69}},{"type":"Feature","geometry":{"type":"Polygon","coordinates":[[[25.597917,63.347917],[25.602083,63.347917],[25.602083,63.352083],[25.597917,63.352083],[25.597917,63.347917]]]},"properties":{"radiance":8.67}},{"type":"Feature","geometry":{"type":"Polygon","coordinates":[[[25.585417,63.34375],[25.589583,63.34375],[25.589583,63.347917],[25.585417,63.347917],[25.585417,63.34375]]]},"properties":{"radiance":6.75}},{"type":"Feature","geometry":{"type":"Polygon","coordinates":[[[25.589583,63.34375],[25.59375,63.34375],[25.59375,63.347917],[25.589583,63.347917],[25.589583,63.34375]]]},"properties":{"radiance":6.65}},{"type":"Feature","geometry":{"type":"Polygon","coordinates":[[[25.59375,63.34375],[25.597917,63.34375],[25.597917,63.347917],[25.59375,63.347917],[25.59375,63.34375]]]},"properties":{"radiance":8.33}},{"type":"Feature","geometry":{"type":"Polygon","coordinates":[[[25.597917,63.34375],[25.602083,63.34375],[25.602083,63.347917],[25.597917,63.347917],[25.597917,63.34375]]]},"properties":{"radiance":6.66}},{"type":"Feature","geometry":{"type":"Polygon","coordinates":[[[25.602083,63.34375],[25.60625,63.34375],[25.60625,63.347917],[25.602083,63.347917],[25.602083,63.34375]]]},"properties":{"radiance":6.13}},{"type":"Feature","geometry":{"type":"Polygon","coordinates":[[[25.59375,63.339583],[25.597917,63.339583],[25.597917,63.34375],[25.59375,63.34375],[25.59375,63.339583]]]},"properties":{"radiance":5.31}},{"type":"Feature","geometry":{"type":"Polygon","coordinates":[[[25.597917,63.339583],[25.602083,63.339583],[25.602083,63.34375],[25.597917,63.34375],[25.597917,63.339583]]]},"properties":{"radiance":5.72}},{"type":"Feature","geometry":{"type":"Polygon","coordinates":[[[25.597917,63.335417],[25.602083,63.335417],[25.602083,63.339583],[25.597917,63.339583],[25.597917,63.335417]]]},"properties":{"radiance":5.8}},{"type":"Feature","geometry":{"type":"Polygon","coordinates":[[[25.602083,63.335417],[25.60625,63.335417],[25.60625,63.339583],[25.602083,63.339583],[25.602083,63.335417]]]},"properties":{"radiance":5.27}},{"type":"Feature","geometry":{"type":"Polygon","coordinates":[[[25.635417,63.29375],[25.639583,63.29375],[25.639583,63.297917],[25.635417,63.297917],[25.635417,63.29375]]]},"properties":{"radiance":5.03}},{"type":"Feature","geometry":{"type":"Polygon","coordinates":[[[25.65625,63.24375],[25.660417,63.24375],[25.660417,63.247917],[25.65625,63.247917],[25.65625,63.24375]]]},"properties":{"radiance":5.32}},{"type":"Feature","geometry":{"type":"Polygon","coordinates":[[[25.660417,63.24375],[25.664583,63.24375],[25.664583,63.247917],[25.660417,63.247917],[25.660417,63.24375]]]},"properties":{"radiance":5.5}},{"type":"Feature","geometry":{"type":"Polygon","coordinates":[[[25.839583,63.097917],[25.84375,63.097917],[25.84375,63.102083],[25.839583,63.102083],[25.839583,63.097917]]]},"properties":{"radiance":7.43}},{"type":"Feature","geometry":{"type":"Polygon","coordinates":[[[25.847917,63.097917],[25.852083,63.097917],[25.852083,63.102083],[25.847917,63.102083],[25.847917,63.097917]]]},"properties":{"radiance":7.68}},{"type":"Feature","geometry":{"type":"Polygon","coordinates":[[[25.852083,63.097917],[25.85625,63.097917],[25.85625,63.102083],[25.852083,63.102083],[25.852083,63.097917]]]},"properties":{"radiance":5.25}},{"type":"Feature","geometry":{"type":"Polygon","coordinates":[[[25.860417,63.097917],[25.864583,63.097917],[25.864583,63.102083],[25.860417,63.102083],[25.860417,63.097917]]]},"properties":{"radiance":5.34}},{"type":"Feature","geometry":{"type":"Polygon","coordinates":[[[25.835417,63.09375],[25.839583,63.09375],[25.839583,63.097917],[25.835417,63.097917],[25.835417,63.09375]]]},"properties":{"radiance":5.64}},{"type":"Feature","geometry":{"type":"Polygon","coordinates":[[[25.839583,63.09375],[25.84375,63.09375],[25.84375,63.097917],[25.839583,63.097917],[25.839583,63.09375]]]},"properties":{"radiance":7.86}},{"type":"Feature","geometry":{"type":"Polygon","coordinates":[[[25.84375,63.09375],[25.847917,63.09375],[25.847917,63.097917],[25.84375,63.097917],[25.84375,63.09375]]]},"properties":{"radiance":9.34}},{"type":"Feature","geometry":{"type":"Polygon","coordinates":[[[25.847917,63.09375],[25.852083,63.09375],[25.852083,63.097917],[25.847917,63.097917],[25.847917,63.09375]]]},"properties":{"radiance":9.49}},{"type":"Feature","geometry":{"type":"Polygon","coordinates":[[[25.852083,63.09375],[25.85625,63.09375],[25.85625,63.097917],[25.852083,63.097917],[25.852083,63.09375]]]},"properties":{"radiance":8.9}},{"type":"Feature","geometry":{"type":"Polygon","coordinates":[[[25.85625,63.09375],[25.860417,63.09375],[25.860417,63.097917],[25.85625,63.097917],[25.85625,63.09375]]]},"properties":{"radiance":7.38}},{"type":"Feature","geometry":{"type":"Polygon","coordinates":[[[25.860417,63.09375],[25.864583,63.09375],[25.864583,63.097917],[25.860417,63.097917],[25.860417,63.09375]]]},"properties":{"radiance":7.92}},{"type":"Feature","geometry":{"type":"Polygon","coordinates":[[[25.864583,63.09375],[25.86875,63.09375],[25.86875,63.097917],[25.864583,63.097917],[25.864583,63.09375]]]},"properties":{"radiance":6.84}},{"type":"Feature","geometry":{"type":"Polygon","coordinates":[[[25.84375,63.089583],[25.847917,63.089583],[25.847917,63.09375],[25.84375,63.09375],[25.84375,63.089583]]]},"properties":{"radiance":5.17}},{"type":"Feature","geometry":{"type":"Polygon","coordinates":[[[25.847917,63.089583],[25.852083,63.089583],[25.852083,63.09375],[25.847917,63.09375],[25.847917,63.089583]]]},"properties":{"radiance":9.46}},{"type":"Feature","geometry":{"type":"Polygon","coordinates":[[[25.852083,63.089583],[25.85625,63.089583],[25.85625,63.09375],[25.852083,63.09375],[25.852083,63.089583]]]},"properties":{"radiance":11.98}},{"type":"Feature","geometry":{"type":"Polygon","coordinates":[[[25.85625,63.089583],[25.860417,63.089583],[25.860417,63.09375],[25.85625,63.09375],[25.85625,63.089583]]]},"properties":{"radiance":9.95}},{"type":"Feature","geometry":{"type":"Polygon","coordinates":[[[25.860417,63.089583],[25.864583,63.089583],[25.864583,63.09375],[25.860417,63.09375],[25.860417,63.089583]]]},"properties":{"radiance":29.1}},{"type":"Feature","geometry":{"type":"Polygon","coordinates":[[[25.864583,63.089583],[25.86875,63.089583],[25.86875,63.09375],[25.864583,63.09375],[25.864583,63.089583]]]},"properties":{"radiance":9.87}},{"type":"Feature","geometry":{"type":"Polygon","coordinates":[[[25.86875,63.089583],[25.872917,63.089583],[25.872917,63.09375],[25.86875,63.09375],[25.86875,63.089583]]]},"properties":{"radiance":7.1}},{"type":"Feature","geometry":{"type":"Polygon","coordinates":[[[25.84375,63.085417],[25.847917,63.085417],[25.847917,63.089583],[25.84375,63.089583],[25.84375,63.085417]]]},"properties":{"radiance":6.16}},{"type":"Feature","geometry":{"type":"Polygon","coordinates":[[[25.847917,63.085417],[25.852083,63.085417],[25.852083,63.089583],[25.847917,63.089583],[25.847917,63.085417]]]},"properties":{"radiance":10.36}},{"type":"Feature","geometry":{"type":"Polygon","coordinates":[[[25.852083,63.085417],[25.85625,63.085417],[25.85625,63.089583],[25.852083,63.089583],[25.852083,63.085417]]]},"properties":{"radiance":13.37}},{"type":"Feature","geometry":{"type":"Polygon","coordinates":[[[25.85625,63.085417],[25.860417,63.085417],[25.860417,63.089583],[25.85625,63.089583],[25.85625,63.085417]]]},"properties":{"radiance":18.31}},{"type":"Feature","geometry":{"type":"Polygon","coordinates":[[[25.860417,63.085417],[25.864583,63.085417],[25.864583,63.089583],[25.860417,63.089583],[25.860417,63.085417]]]},"properties":{"radiance":21.97}},{"type":"Feature","geometry":{"type":"Polygon","coordinates":[[[25.864583,63.085417],[25.86875,63.085417],[25.86875,63.089583],[25.864583,63.089583],[25.864583,63.085417]]]},"properties":{"radiance":14.21}},{"type":"Feature","geometry":{"type":"Polygon","coordinates":[[[25.86875,63.085417],[25.872917,63.085417],[25.872917,63.089583],[25.86875,63.089583],[25.86875,63.085417]]]},"properties":{"radiance":12.07}},{"type":"Feature","geometry":{"type":"Polygon","coordinates":[[[25.872917,63.085417],[25.877083,63.085417],[25.877083,63.089583],[25.872917,63.089583],[25.872917,63.085417]]]},"properties":{"radiance":8.44}},{"type":"Feature","geometry":{"type":"Polygon","coordinates":[[[25.84375,63.08125],[25.847917,63.08125],[25.847917,63.085417],[25.84375,63.085417],[25.84375,63.08125]]]},"properties":{"radiance":10.77}},{"type":"Feature","geometry":{"type":"Polygon","coordinates":[[[25.847917,63.08125],[25.852083,63.08125],[25.852083,63.085417],[25.847917,63.085417],[25.847917,63.08125]]]},"properties":{"radiance":11.67}},{"type":"Feature","geometry":{"type":"Polygon","coordinates":[[[25.852083,63.08125],[25.85625,63.08125],[25.85625,63.085417],[25.852083,63.085417],[25.852083,63.08125]]]},"properties":{"radiance":13.38}},{"type":"Feature","geometry":{"type":"Polygon","coordinates":[[[25.85625,63.08125],[25.860417,63.08125],[25.860417,63.085417],[25.85625,63.085417],[25.85625,63.08125]]]},"properties":{"radiance":36.29}},{"type":"Feature","geometry":{"type":"Polygon","coordinates":[[[25.860417,63.08125],[25.864583,63.08125],[25.864583,63.085417],[25.860417,63.085417],[25.860417,63.08125]]]},"properties":{"radiance":31.91}},{"type":"Feature","geometry":{"type":"Polygon","coordinates":[[[25.864583,63.08125],[25.86875,63.08125],[25.86875,63.085417],[25.864583,63.085417],[25.864583,63.08125]]]},"properties":{"radiance":35.53}},{"type":"Feature","geometry":{"type":"Polygon","coordinates":[[[25.86875,63.08125],[25.872917,63.08125],[25.872917,63.085417],[25.86875,63.085417],[25.86875,63.08125]]]},"properties":{"radiance":46.59}},{"type":"Feature","geometry":{"type":"Polygon","coordinates":[[[25.872917,63.08125],[25.877083,63.08125],[25.877083,63.085417],[25.872917,63.085417],[25.872917,63.08125]]]},"properties":{"radiance":17.35}},{"type":"Feature","geometry":{"type":"Polygon","coordinates":[[[25.88125,63.08125],[25.885417,63.08125],[25.885417,63.085417],[25.88125,63.085417],[25.88125,63.08125]]]},"properties":{"radiance":5.02}},{"type":"Feature","geometry":{"type":"Polygon","coordinates":[[[25.84375,63.077083],[25.847917,63.077083],[25.847917,63.08125],[25.84375,63.08125],[25.84375,63.077083]]]},"properties":{"radiance":5.6}},{"type":"Feature","geometry":{"type":"Polygon","coordinates":[[[25.847917,63.077083],[25.852083,63.077083],[25.852083,63.08125],[25.847917,63.08125],[25.847917,63.077083]]]},"properties":{"radiance":6.56}},{"type":"Feature","geometry":{"type":"Polygon","coordinates":[[[25.852083,63.077083],[25.85625,63.077083],[25.85625,63.08125],[25.852083,63.08125],[25.852083,63.077083]]]},"properties":{"radiance":15.02}},{"type":"Feature","geometry":{"type":"Polygon","coordinates":[[[25.85625,63.077083],[25.860417,63.077083],[25.860417,63.08125],[25.85625,63.08125],[25.85625,63.077083]]]},"properties":{"radiance":22.87}},{"type":"Feature","geometry":{"type":"Polygon","coordinates":[[[25.860417,63.077083],[25.864583,63.077083],[25.864583,63.08125],[25.860417,63.08125],[25.860417,63.077083]]]},"properties":{"radiance":34.35}},{"type":"Feature","geometry":{"type":"Polygon","coordinates":[[[25.864583,63.077083],[25.86875,63.077083],[25.86875,63.08125],[25.864583,63.08125],[25.864583,63.077083]]]},"properties":{"radiance":34.17}},{"type":"Feature","geometry":{"type":"Polygon","coordinates":[[[25.86875,63.077083],[25.872917,63.077083],[25.872917,63.08125],[25.86875,63.08125],[25.86875,63.077083]]]},"properties":{"radiance":17.99}},{"type":"Feature","geometry":{"type":"Polygon","coordinates":[[[25.872917,63.077083],[25.877083,63.077083],[25.877083,63.08125],[25.872917,63.08125],[25.872917,63.077083]]]},"properties":{"radiance":10.65}},{"type":"Feature","geometry":{"type":"Polygon","coordinates":[[[25.877083,63.077083],[25.88125,63.077083],[25.88125,63.08125],[25.877083,63.08125],[25.877083,63.077083]]]},"properties":{"radiance":8.85}},{"type":"Feature","geometry":{"type":"Polygon","coordinates":[[[25.847917,63.072917],[25.852083,63.072917],[25.852083,63.077083],[25.847917,63.077083],[25.847917,63.072917]]]},"properties":{"radiance":8.89}},{"type":"Feature","geometry":{"type":"Polygon","coordinates":[[[25.852083,63.072917],[25.85625,63.072917],[25.85625,63.077083],[25.852083,63.077083],[25.852083,63.072917]]]},"properties":{"radiance":18.34}},{"type":"Feature","geometry":{"type":"Polygon","coordinates":[[[25.85625,63.072917],[25.860417,63.072917],[25.860417,63.077083],[25.85625,63.077083],[25.85625,63.072917]]]},"properties":{"radiance":17.81}},{"type":"Feature","geometry":{"type":"Polygon","coordinates":[[[25.860417,63.072917],[25.864583,63.072917],[25.864583,63.077083],[25.860417,63.077083],[25.860417,63.072917]]]},"properties":{"radiance":15.08}},{"type":"Feature","geometry":{"type":"Polygon","coordinates":[[[25.864583,63.072917],[25.86875,63.072917],[25.86875,63.077083],[25.864583,63.077083],[25.864583,63.072917]]]},"properties":{"radiance":13.65}},{"type":"Feature","geometry":{"type":"Polygon","coordinates":[[[25.839583,63.06875],[25.84375,63.06875],[25.84375,63.072917],[25.839583,63.072917],[25.839583,63.06875]]]},"properties":{"radiance":6.82}},{"type":"Feature","geometry":{"type":"Polygon","coordinates":[[[25.84375,63.06875],[25.847917,63.06875],[25.847917,63.072917],[25.84375,63.072917],[25.84375,63.06875]]]},"properties":{"radiance":7.87}},{"type":"Feature","geometry":{"type":"Polygon","coordinates":[[[25.847917,63.06875],[25.852083,63.06875],[25.852083,63.072917],[25.847917,63.072917],[25.847917,63.06875]]]},"properties":{"radiance":9.86}},{"type":"Feature","geometry":{"type":"Polygon","coordinates":[[[25.852083,63.06875],[25.85625,63.06875],[25.85625,63.072917],[25.852083,63.072917],[25.852083,63.06875]]]},"properties":{"radiance":7.93}},{"type":"Feature","geometry":{"type":"Polygon","coordinates":[[[25.85625,63.06875],[25.860417,63.06875],[25.860417,63.072917],[25.85625,63.072917],[25.85625,63.06875]]]},"properties":{"radiance":7.28}},{"type":"Feature","geometry":{"type":"Polygon","coordinates":[[[25.860417,63.06875],[25.864583,63.06875],[25.864583,63.072917],[25.860417,63.072917],[25.860417,63.06875]]]},"properties":{"radiance":6.45}},{"type":"Feature","geometry":{"type":"Polygon","coordinates":[[[24.539583,63.064583],[24.54375,63.064583],[24.54375,63.06875],[24.539583,63.06875],[24.539583,63.064583]]]},"properties":{"radiance":21.16}},{"type":"Feature","geometry":{"type":"Polygon","coordinates":[[[24.54375,63.064583],[24.547917,63.064583],[24.547917,63.06875],[24.54375,63.06875],[24.54375,63.064583]]]},"properties":{"radiance":9.99}},{"type":"Feature","geometry":{"type":"Polygon","coordinates":[[[24.547917,63.064583],[24.552083,63.064583],[24.552083,63.06875],[24.547917,63.06875],[24.547917,63.064583]]]},"properties":{"radiance":9.21}},{"type":"Feature","geometry":{"type":"Polygon","coordinates":[[[25.847917,63.064583],[25.852083,63.064583],[25.852083,63.06875],[25.847917,63.06875],[25.847917,63.064583]]]},"properties":{"radiance":7.31}},{"type":"Feature","geometry":{"type":"Polygon","coordinates":[[[25.85625,63.064583],[25.860417,63.064583],[25.860417,63.06875],[25.85625,63.06875],[25.85625,63.064583]]]},"properties":{"radiance":5.55}},{"type":"Feature","geometry":{"type":"Polygon","coordinates":[[[24.539583,63.060417],[24.54375,63.060417],[24.54375,63.064583],[24.539583,63.064583],[24.539583,63.060417]]]},"properties":{"radiance":6.72}},{"type":"Feature","geometry":{"type":"Polygon","coordinates":[[[24.54375,63.060417],[24.547917,63.060417],[24.547917,63.064583],[24.54375,63.064583],[24.54375,63.060417]]]},"properties":{"radiance":7.92}},{"type":"Feature","geometry":{"type":"Polygon","coordinates":[[[24.552083,63.060417],[24.55625,63.060417],[24.55625,63.064583],[24.552083,63.064583],[24.552083,63.060417]]]},"properties":{"radiance":5.78}},{"type":"Feature","geometry":{"type":"Polygon","coordinates":[[[24.547917,63.047917],[24.552083,63.047917],[24.552083,63.052083],[24.547917,63.052083],[24.547917,63.047917]]]},"properties":{"radiance":5.15}},{"type":"Feature","geometry":{"type":"Polygon","coordinates":[[[24.552083,63.047917],[24.55625,63.047917],[24.55625,63.052083],[24.552083,63.052083],[24.552083,63.047917]]]},"properties":{"radiance":5.66}},{"type":"Feature","geometry":{"type":"Polygon","coordinates":[[[24.55625,63.047917],[24.560417,63.047917],[24.560417,63.052083],[24.55625,63.052083],[24.55625,63.047917]]]},"properties":{"radiance":6.1}},{"type":"Feature","geometry":{"type":"Polygon","coordinates":[[[24.552083,63.04375],[24.55625,63.04375],[24.55625,63.047917],[24.552083,63.047917],[24.552083,63.04375]]]},"properties":{"radiance":6.44}},{"type":"Feature","geometry":{"type":"Polygon","coordinates":[[[24.55625,63.04375],[24.560417,63.04375],[24.560417,63.047917],[24.55625,63.047917],[24.55625,63.04375]]]},"properties":{"radiance":8.76}},{"type":"Feature","geometry":{"type":"Polygon","coordinates":[[[24.560417,63.04375],[24.564583,63.04375],[24.564583,63.047917],[24.560417,63.047917],[24.560417,63.04375]]]},"properties":{"radiance":7.41}},{"type":"Feature","geometry":{"type":"Polygon","coordinates":[[[24.564583,63.04375],[24.56875,63.04375],[24.56875,63.047917],[24.564583,63.047917],[24.564583,63.04375]]]},"properties":{"radiance":6.8}},{"type":"Feature","geometry":{"type":"Polygon","coordinates":[[[24.564583,63.039583],[24.56875,63.039583],[24.56875,63.04375],[24.564583,63.04375],[24.564583,63.039583]]]},"properties":{"radiance":6.73}},{"type":"Feature","geometry":{"type":"Polygon","coordinates":[[[24.672917,63.01875],[24.677083,63.01875],[24.677083,63.022917],[24.672917,63.022917],[24.672917,63.01875]]]},"properties":{"radiance":6.33}},{"type":"Feature","geometry":{"type":"Polygon","coordinates":[[[25.28125,62.989583],[25.285417,62.989583],[25.285417,62.99375],[25.28125,62.99375],[25.28125,62.989583]]]},"properties":{"radiance":6.15}},{"type":"Feature","geometry":{"type":"Polygon","coordinates":[[[25.260417,62.98125],[25.264583,62.98125],[25.264583,62.985417],[25.260417,62.985417],[25.260417,62.98125]]]},"properties":{"radiance":6.31}},{"type":"Feature","geometry":{"type":"Polygon","coordinates":[[[25.26875,62.98125],[25.272917,62.98125],[25.272917,62.985417],[25.26875,62.985417],[25.26875,62.98125]]]},"properties":{"radiance":5.35}},{"type":"Feature","geometry":{"type":"Polygon","coordinates":[[[25.252083,62.977083],[25.25625,62.977083],[25.25625,62.98125],[25.252083,62.98125],[25.252083,62.977083]]]},"properties":{"radiance":7.99}},{"type":"Feature","geometry":{"type":"Polygon","coordinates":[[[25.25625,62.977083],[25.260417,62.977083],[25.260417,62.98125],[25.25625,62.98125],[25.25625,62.977083]]]},"properties":{"radiance":8.03}},{"type":"Feature","geometry":{"type":"Polygon","coordinates":[[[25.260417,62.977083],[25.264583,62.977083],[25.264583,62.98125],[25.260417,62.98125],[25.260417,62.977083]]]},"properties":{"radiance":8.37}},{"type":"Feature","geometry":{"type":"Polygon","coordinates":[[[25.264583,62.977083],[25.26875,62.977083],[25.26875,62.98125],[25.264583,62.98125],[25.264583,62.977083]]]},"properties":{"radiance":7.03}},{"type":"Feature","geometry":{"type":"Polygon","coordinates":[[[25.247917,62.972917],[25.252083,62.972917],[25.252083,62.977083],[25.247917,62.977083],[25.247917,62.972917]]]},"properties":{"radiance":6.62}},{"type":"Feature","geometry":{"type":"Polygon","coordinates":[[[25.252083,62.972917],[25.25625,62.972917],[25.25625,62.977083],[25.252083,62.977083],[25.252083,62.972917]]]},"properties":{"radiance":6.98}},{"type":"Feature","geometry":{"type":"Polygon","coordinates":[[[24.89375,62.910417],[24.897917,62.910417],[24.897917,62.914583],[24.89375,62.914583],[24.89375,62.910417]]]},"properties":{"radiance":8.47}},{"type":"Feature","geometry":{"type":"Polygon","coordinates":[[[24.897917,62.910417],[24.902083,62.910417],[24.902083,62.914583],[24.897917,62.914583],[24.897917,62.910417]]]},"properties":{"radiance":10.93}},{"type":"Feature","geometry":{"type":"Polygon","coordinates":[[[24.902083,62.910417],[24.90625,62.910417],[24.90625,62.914583],[24.902083,62.914583],[24.902083,62.910417]]]},"properties":{"radiance":11.75}},{"type":"Feature","geometry":{"type":"Polygon","coordinates":[[[24.90625,62.910417],[24.910417,62.910417],[24.910417,62.914583],[24.90625,62.914583],[24.90625,62.910417]]]},"properties":{"radiance":12.84}},{"type":"Feature","geometry":{"type":"Polygon","coordinates":[[[24.910417,62.910417],[24.914583,62.910417],[24.914583,62.914583],[24.910417,62.914583],[24.910417,62.910417]]]},"properties":{"radiance":11.63}},{"type":"Feature","geometry":{"type":"Polygon","coordinates":[[[24.897917,62.90625],[24.902083,62.90625],[24.902083,62.910417],[24.897917,62.910417],[24.897917,62.90625]]]},"properties":{"radiance":6.75}},{"type":"Feature","geometry":{"type":"Polygon","coordinates":[[[24.902083,62.90625],[24.90625,62.90625],[24.90625,62.910417],[24.902083,62.910417],[24.902083,62.90625]]]},"properties":{"radiance":8.4}},{"type":"Feature","geometry":{"type":"Polygon","coordinates":[[[24.90625,62.90625],[24.910417,62.90625],[24.910417,62.910417],[24.90625,62.910417],[24.90625,62.90625]]]},"properties":{"radiance":21.8}},{"type":"Feature","geometry":{"type":"Polygon","coordinates":[[[24.910417,62.90625],[24.914583,62.90625],[24.914583,62.910417],[24.910417,62.910417],[24.910417,62.90625]]]},"properties":{"radiance":10.96}},{"type":"Feature","geometry":{"type":"Polygon","coordinates":[[[24.914583,62.90625],[24.91875,62.90625],[24.91875,62.910417],[24.914583,62.910417],[24.914583,62.90625]]]},"properties":{"radiance":6.86}},{"type":"Feature","geometry":{"type":"Polygon","coordinates":[[[24.910417,62.902083],[24.914583,62.902083],[24.914583,62.90625],[24.910417,62.90625],[24.910417,62.902083]]]},"properties":{"radiance":6.7}},{"type":"Feature","geometry":{"type":"Polygon","coordinates":[[[24.914583,62.902083],[24.91875,62.902083],[24.91875,62.90625],[24.914583,62.90625],[24.914583,62.902083]]]},"properties":{"radiance":5.16}},{"type":"Feature","geometry":{"type":"Polygon","coordinates":[[[24.802083,62.88125],[24.80625,62.88125],[24.80625,62.885417],[24.802083,62.885417],[24.802083,62.88125]]]},"properties":{"radiance":5.45}},{"type":"Feature","geometry":{"type":"Polygon","coordinates":[[[25.239583,62.710417],[25.24375,62.710417],[25.24375,62.714583],[25.239583,62.714583],[25.239583,62.710417]]]},"properties":{"radiance":5.09}},{"type":"Feature","geometry":{"type":"Polygon","coordinates":[[[25.24375,62.710417],[25.247917,62.710417],[25.247917,62.714583],[25.24375,62.714583],[25.24375,62.710417]]]},"properties":{"radiance":14.03}},{"type":"Feature","geometry":{"type":"Polygon","coordinates":[[[25.247917,62.710417],[25.252083,62.710417],[25.252083,62.714583],[25.247917,62.714583],[25.247917,62.710417]]]},"properties":{"radiance":8.86}},{"type":"Feature","geometry":{"type":"Polygon","coordinates":[[[25.252083,62.710417],[25.25625,62.710417],[25.25625,62.714583],[25.252083,62.714583],[25.252083,62.710417]]]},"properties":{"radiance":16.37}},{"type":"Feature","geometry":{"type":"Polygon","coordinates":[[[25.25625,62.710417],[25.260417,62.710417],[25.260417,62.714583],[25.25625,62.714583],[25.25625,62.710417]]]},"properties":{"radiance":27.22}},{"type":"Feature","geometry":{"type":"Polygon","coordinates":[[[25.260417,62.710417],[25.264583,62.710417],[25.264583,62.714583],[25.260417,62.714583],[25.260417,62.710417]]]},"properties":{"radiance":10.03}},{"type":"Feature","geometry":{"type":"Polygon","coordinates":[[[25.264583,62.710417],[25.26875,62.710417],[25.26875,62.714583],[25.264583,62.714583],[25.264583,62.710417]]]},"properties":{"radiance":5.8}},{"type":"Feature","geometry":{"type":"Polygon","coordinates":[[[25.239583,62.70625],[25.24375,62.70625],[25.24375,62.710417],[25.239583,62.710417],[25.239583,62.70625]]]},"properties":{"radiance":11.93}},{"type":"Feature","geometry":{"type":"Polygon","coordinates":[[[25.24375,62.70625],[25.247917,62.70625],[25.247917,62.710417],[25.24375,62.710417],[25.24375,62.70625]]]},"properties":{"radiance":29.15}},{"type":"Feature","geometry":{"type":"Polygon","coordinates":[[[25.247917,62.70625],[25.252083,62.70625],[25.252083,62.710417],[25.247917,62.710417],[25.247917,62.70625]]]},"properties":{"radiance":36.48}},{"type":"Feature","geometry":{"type":"Polygon","coordinates":[[[25.252083,62.70625],[25.25625,62.70625],[25.25625,62.710417],[25.252083,62.710417],[25.252083,62.70625]]]},"properties":{"radiance":47.6}},{"type":"Feature","geometry":{"type":"Polygon","coordinates":[[[25.25625,62.70625],[25.260417,62.70625],[25.260417,62.710417],[25.25625,62.710417],[25.25625,62.70625]]]},"properties":{"radiance":40.22}},{"type":"Feature","geometry":{"type":"Polygon","coordinates":[[[25.260417,62.70625],[25.264583,62.70625],[25.264583,62.710417],[25.260417,62.710417],[25.260417,62.70625]]]},"properties":{"radiance":49.06}},{"type":"Feature","geometry":{"type":"Polygon","coordinates":[[[25.264583,62.70625],[25.26875,62.70625],[25.26875,62.710417],[25.264583,62.710417],[25.264583,62.70625]]]},"properties":{"radiance":13.73}},{"type":"Feature","geometry":{"type":"Polygon","coordinates":[[[25.26875,62.70625],[25.272917,62.70625],[25.272917,62.710417],[25.26875,62.710417],[25.26875,62.70625]]]},"properties":{"radiance":16.28}},{"type":"Feature","geometry":{"type":"Polygon","coordinates":[[[25.252083,62.702083],[25.25625,62.702083],[25.25625,62.70625],[25.252083,62.70625],[25.252083,62.702083]]]},"properties":{"radiance":11.15}},{"type":"Feature","geometry":{"type":"Polygon","coordinates":[[[25.25625,62.702083],[25.260417,62.702083],[25.260417,62.70625],[25.25625,62.70625],[25.25625,62.702083]]]},"properties":{"radiance":17.82}},{"type":"Feature","geometry":{"type":"Polygon","coordinates":[[[25.260417,62.702083],[25.264583,62.702083],[25.264583,62.70625],[25.260417,62.70625],[25.260417,62.702083]]]},"properties":{"radiance":14.13}},{"type":"Feature","geometry":{"type":"Polygon","coordinates":[[[25.264583,62.702083],[25.26875,62.702083],[25.26875,62.70625],[25.264583,62.70625],[25.264583,62.702083]]]},"properties":{"radiance":16.45}},{"type":"Feature","geometry":{"type":"Polygon","coordinates":[[[25.26875,62.702083],[25.272917,62.702083],[25.272917,62.70625],[25.26875,62.70625],[25.26875,62.702083]]]},"properties":{"radiance":19.7}},{"type":"Feature","geometry":{"type":"Polygon","coordinates":[[[25.272917,62.702083],[25.277083,62.702083],[25.277083,62.70625],[25.272917,62.70625],[25.272917,62.702083]]]},"properties":{"radiance":6.73}},{"type":"Feature","geometry":{"type":"Polygon","coordinates":[[[25.277083,62.702083],[25.28125,62.702083],[25.28125,62.70625],[25.277083,62.70625],[25.277083,62.702083]]]},"properties":{"radiance":6.67}},{"type":"Feature","geometry":{"type":"Polygon","coordinates":[[[25.28125,62.702083],[25.285417,62.702083],[25.285417,62.70625],[25.28125,62.70625],[25.28125,62.702083]]]},"properties":{"radiance":6.72}},{"type":"Feature","geometry":{"type":"Polygon","coordinates":[[[25.272917,62.697917],[25.277083,62.697917],[25.277083,62.702083],[25.272917,62.702083],[25.272917,62.697917]]]},"properties":{"radiance":7.2}},{"type":"Feature","geometry":{"type":"Polygon","coordinates":[[[25.277083,62.697917],[25.28125,62.697917],[25.28125,62.702083],[25.277083,62.702083],[25.277083,62.697917]]]},"properties":{"radiance":9.27}},{"type":"Feature","geometry":{"type":"Polygon","coordinates":[[[25.28125,62.697917],[25.285417,62.697917],[25.285417,62.702083],[25.28125,62.702083],[25.28125,62.697917]]]},"properties":{"radiance":7.29}},{"type":"Feature","geometry":{"type":"Polygon","coordinates":[[[25.285417,62.697917],[25.289583,62.697917],[25.289583,62.702083],[25.285417,62.702083],[25.285417,62.697917]]]},"properties":{"radiance":7.65}},{"type":"Feature","geometry":{"type":"Polygon","coordinates":[[[25.289583,62.697917],[25.29375,62.697917],[25.29375,62.702083],[25.289583,62.702083],[25.289583,62.697917]]]},"properties":{"radiance":7.96}},{"type":"Feature","geometry":{"type":"Polygon","coordinates":[[[25.285417,62.69375],[25.289583,62.69375],[25.289583,62.697917],[25.285417,62.697917],[25.285417,62.69375]]]},"properties":{"radiance":8.2}},{"type":"Feature","geometry":{"type":"Polygon","coordinates":[[[25.289583,62.69375],[25.29375,62.69375],[25.29375,62.697917],[25.289583,62.697917],[25.289583,62.69375]]]},"properties":{"radiance":5.17}},{"type":"Feature","geometry":{"type":"Polygon","coordinates":[[[25.29375,62.689583],[25.297917,62.689583],[25.297917,62.69375],[25.29375,62.69375],[25.29375,62.689583]]]},"properties":{"radiance":5.5}},{"type":"Feature","geometry":{"type":"Polygon","coordinates":[[[25.297917,62.689583],[25.302083,62.689583],[25.302083,62.69375],[25.297917,62.69375],[25.297917,62.689583]]]},"properties":{"radiance":5.08}},{"type":"Feature","geometry":{"type":"Polygon","coordinates":[[[25.302083,62.689583],[25.30625,62.689583],[25.30625,62.69375],[25.302083,62.69375],[25.302083,62.689583]]]},"properties":{"radiance":9.51}},{"type":"Feature","geometry":{"type":"Polygon","coordinates":[[[25.30625,62.689583],[25.310417,62.689583],[25.310417,62.69375],[25.30625,62.69375],[25.30625,62.689583]]]},"properties":{"radiance":8.2}},{"type":"Feature","geometry":{"type":"Polygon","coordinates":[[[25.310417,62.689583],[25.314583,62.689583],[25.314583,62.69375],[25.310417,62.69375],[25.310417,62.689583]]]},"properties":{"radiance":9.66}},{"type":"Feature","geometry":{"type":"Polygon","coordinates":[[[25.314583,62.689583],[25.31875,62.689583],[25.31875,62.69375],[25.314583,62.69375],[25.314583,62.689583]]]},"properties":{"radiance":5.05}},{"type":"Feature","geometry":{"type":"Polygon","coordinates":[[[25.30625,62.685417],[25.310417,62.685417],[25.310417,62.689583],[25.30625,62.689583],[25.30625,62.685417]]]},"properties":{"radiance":7.25}},{"type":"Feature","geometry":{"type":"Polygon","coordinates":[[[25.310417,62.685417],[25.314583,62.685417],[25.314583,62.689583],[25.310417,62.689583],[25.310417,62.685417]]]},"properties":{"radiance":9.63}},{"type":"Feature","geometry":{"type":"Polygon","coordinates":[[[25.314583,62.685417],[25.31875,62.685417],[25.31875,62.689583],[25.314583,62.689583],[25.314583,62.685417]]]},"properties":{"radiance":7.38}},{"type":"Feature","geometry":{"type":"Polygon","coordinates":[[[25.31875,62.685417],[25.322917,62.685417],[25.322917,62.689583],[25.31875,62.689583],[25.31875,62.685417]]]},"properties":{"radiance":7.07}},{"type":"Feature","geometry":{"type":"Polygon","coordinates":[[[25.322917,62.685417],[25.327083,62.685417],[25.327083,62.689583],[25.322917,62.689583],[25.322917,62.685417]]]},"properties":{"radiance":7.96}},{"type":"Feature","geometry":{"type":"Polygon","coordinates":[[[25.327083,62.685417],[25.33125,62.685417],[25.33125,62.689583],[25.327083,62.689583],[25.327083,62.685417]]]},"properties":{"radiance":6.42}}]}