{"type":"FeatureCollection","features":[{"type":"Feature","geometry":{"type":"Polygon","coordinates":[[[27.172917,62.327083],[27.177083,62.327083],[27.177083,62.33125],[27.172917,62.33125],[27.172917,62.327083]]]},"properties":{"radiance":5.78}},{"type":"Feature","geometry":{"type":"Polygon","coordinates":[[[27.16875,62.322917],[27.172917,62.322917],[27.172917,62.327083],[27.16875,62.327083],[27.16875,62.322917]]]},"properties":{"radiance":5.1}},{"type":"Feature","geometry":{"type":"Polygon","coordinates":[[[27.164583,62.31875],[27.16875,62.31875],[27.16875,62.322917],[27.164583,62.322917],[27.164583,62.31875]]]},"properties":{"radiance":7.34}},{"type":"Feature","geometry":{"type":"Polygon","coordinates":[[[27.16875,62.31875],[27.172917,62.31875],[27.172917,62.322917],[27.16875,62.322917],[27.16875,62.31875]]]},"properties":{"radiance":5.17}},{"type":"Feature","geometry":{"type":"Polygon","coordinates":[[[27.172917,62.31875],[27.177083,62.31875],[27.177083,62.322917],[27.172917,62.322917],[27.172917,62.31875]]]},"properties":{"radiance":5.56}},{"type":"Feature","geometry":{"type":"Polygon","coordinates":[[[27.177083,62.31875],[27.18125,62.31875],[27.18125,62.322917],[27.177083,62.322917],[27.177083,62.31875]]]},"properties":{"radiance":5.4}},{"type":"Feature","geometry":{"type":"Polygon","coordinates":[[[27.15625,62.314583],[27.160417,62.314583],[27.160417,62.31875],[27.15625,62.31875],[27.15625,62.314583]]]},"properties":{"radiance":8.89}},{"type":"Feature","geometry":{"type":"Polygon","coordinates":[[[27.160417,62.314583],[27.164583,62.314583],[27.164583,62.31875],[27.160417,62.31875],[27.160417,62.314583]]]},"properties":{"radiance":6.12}},{"type":"Feature","geometry":{"type":"Polygon","coordinates":[[[27.164583,62.314583],[27.16875,62.314583],[27.16875,62.31875],[27.164583,62.31875],[27.164583,62.314583]]]},"properties":{"radiance":49.86}},{"type":"Feature","geometry":{"type":"Polygon","coordinates":[[[27.16875,62.314583],[27.172917,62.314583],[27.172917,62.31875],[27.16875,62.31875],[27.16875,62.314583]]]},"properties":{"radiance":11.77}},{"type":"Feature","geometry":{"type":"Polygon","coordinates":[[[27.172917,62.314583],[27.177083,62.314583],[27.177083,62.31875],[27.172917,62.31875],[27.172917,62.314583]]]},"properties":{"radiance":10.57}},{"type":"Feature","geometry":{"type":"Polygon","coordinates":[[[27.177083,62.314583],[27.18125,62.314583],[27.18125,62.31875],[27.177083,62.31875],[27.177083,62.314583]]]},"properties":{"radiance":14.54}},{"type":"Feature","geometry":{"type":"Polygon","coordinates":[[[27.18125,62.314583],[27.185417,62.314583],[27.185417,62.31875],[27.18125,62.31875],[27.18125,62.314583]]]},"properties":{"radiance":61.29}},{"type":"Feature","geometry":{"type":"Polygon","coordinates":[[[27.185417,62.314583],[27.189583,62.314583],[27.189583,62.31875],[27.185417,62.31875],[27.185417,62.314583]]]},"properties":{"radiance":57.98}},{"type":"Feature","geometry":{"type":"Polygon","coordinates":[[[27.189583,62.314583],[27.19375,62.314583],[27.19375,62.31875],[27.189583,62.31875],[27.189583,62.314583]]]},"properties":{"radiance":10.09}},{"type":"Feature","geometry":{"type":"Polygon","coordinates":[[[27.19375,62.314583],[27.197917,62.314583],[27.197917,62.31875],[27.19375,62.31875],[27.19375,62.314583]]]},"properties":{"radiance":5.91}},{"type":"Feature","geometry":{"type":"Polygon","coordinates":[[[27.160417,62.310417],[27.164583,62.310417],[27.164583,62.314583],[27.160417,62.314583],[27.160417,62.310417]]]},"properties":{"radiance":7.69}},{"type":"Feature","geometry":{"type":"Polygon","coordinates":[[[27.164583,62.310417],[27.16875,62.310417],[27.16875,62.314583],[27.164583,62.314583],[27.164583,62.310417]]]},"properties":{"radiance":38.19}},{"type":"Feature","geometry":{"type":"Polygon","coordinates":[[[27.16875,62.310417],[27.172917,62.310417],[27.172917,62.314583],[27.16875,62.314583],[27.16875,62.310417]]]},"properties":{"radiance":50.94}},{"type":"Feature","geometry":{"type":"Polygon","coordinates":[[[27.172917,62.310417],[27.177083,62.310417],[27.177083,62.314583],[27.172917,62.314583],[27.172917,62.310417]]]},"properties":{"radiance":52.06}},{"type":"Feature","geometry":{"type":"Polygon","coordinates":[[[27.177083,62.310417],[27.18125,62.310417],[27.18125,62.314583],[27.177083,62.314583],[27.177083,62.310417]]]},"properties":{"radiance":67.62}},{"type":"Feature","geometry":{"type":"Polygon","coordinates":[[[27.18125,62.310417],[27.185417,62.310417],[27.185417,62.314583],[27.18125,62.314583],[27.18125,62.310417]]]},"properties":{"radiance":10.61}},{"type":"Feature","geometry":{"type":"Polygon","coordinates":[[[27.185417,62.310417],[27.189583,62.310417],[27.189583,62.314583],[27.185417,62.314583],[27.185417,62.310417]]]},"properties":{"radiance":8.21}},{"type":"Feature","geometry":{"type":"Polygon","coordinates":[[[27.189583,62.310417],[27.19375,62.310417],[27.19375,62.314583],[27.189583,62.314583],[27.189583,62.310417]]]},"properties":{"radiance":8.91}},{"type":"Feature","geometry":{"type":"Polygon","coordinates":[[[27.122917,62.30625],[27.127083,62.30625],[27.127083,62.310417],[27.122917,62.310417],[27.122917,62.30625]]]},"properties":{"radiance":34.65}},{"type":"Feature","geometry":{"type":"Polygon","coordinates":[[[27.127083,62.30625],[27.13125,62.30625],[27.13125,62.310417],[27.127083,62.310417],[27.127083,62.30625]]]},"properties":{"radiance":6.27}},{"type":"Feature","geometry":{"type":"Polygon","coordinates":[[[27.13125,62.30625],[27.135417,62.30625],[27.135417,62.310417],[27.13125,62.310417],[27.13125,62.30625]]]},"properties":{"radiance":6.86}},{"type":"Feature","geometry":{"type":"Polygon","coordinates":[[[27.14375,62.30625],[27.147917,62.30625],[27.147917,62.310417],[27.14375,62.310417],[27.14375,62.30625]]]},"properties":{"radiance":10.58}},{"type":"Feature","geometry":{"type":"Polygon","coordinates":[[[27.147917,62.30625],[27.152083,62.30625],[27.152083,62.310417],[27.147917,62.310417],[27.147917,62.30625]]]},"properties":{"radiance":7.72}},{"type":"Feature","geometry":{"type":"Polygon","coordinates":[[[27.15625,62.30625],[27.160417,62.30625],[27.160417,62.310417],[27.15625,62.310417],[27.15625,62.30625]]]},"properties":{"radiance":5.72}},{"type":"Feature","geometry":{"type":"Polygon","coordinates":[[[27.160417,62.30625],[27.164583,62.30625],[27.164583,62.310417],[27.160417,62.310417],[27.160417,62.30625]]]},"properties":{"radiance":7.03}},{"type":"Feature","geometry":{"type":"Polygon","coordinates":[[[27.164583,62.30625],[27.16875,62.30625],[27.16875,62.310417],[27.164583,62.310417],[27.164583,62.30625]]]},"properties":{"radiance":7.2}},{"type":"Feature","geometry":{"type":"Polygon","coordinates":[[[27.16875,62.30625],[27.172917,62.30625],[27.172917,62.310417],[27.16875,62.310417],[27.16875,62.30625]]]},"properties":{"radiance":29.48}},{"type":"Feature","geometry":{"type":"Polygon","coordinates":[[[27.172917,62.30625],[27.177083,62.30625],[27.177083,62.310417],[27.172917,62.310417],[27.172917,62.30625]]]},"properties":{"radiance":7}},{"type":"Feature","geometry":{"type":"Polygon","coordinates":[[[27.177083,62.30625],[27.18125,62.30625],[27.18125,62.310417],[27.177083,62.310417],[27.177083,62.30625]]]},"properties":{"radiance":7.52}},{"type":"Feature","geometry":{"type":"Polygon","coordinates":[[[27.18125,62.30625],[27.185417,62.30625],[27.185417,62.310417],[27.18125,62.310417],[27.18125,62.30625]]]},"properties":{"radiance":6.78}},{"type":"Feature","geometry":{"type":"Polygon","coordinates":[[[27.185417,62.30625],[27.189583,62.30625],[27.189583,62.310417],[27.185417,62.310417],[27.185417,62.30625]]]},"properties":{"radiance":5.65}},{"type":"Feature","geometry":{"type":"Polygon","coordinates":[[[27.189583,62.30625],[27.19375,62.30625],[27.19375,62.310417],[27.189583,62.310417],[27.189583,62.30625]]]},"properties":{"radiance":5.7}},{"type":"Feature","geometry":{"type":"Polygon","coordinates":[[[27.197917,62.30625],[27.202083,62.30625],[27.202083,62.310417],[27.197917,62.310417],[27.197917,62.30625]]]},"properties":{"radiance":5.07}},{"type":"Feature","geometry":{"type":"Polygon","coordinates":[[[27.114583,62.302083],[27.11875,62.302083],[27.11875,62.30625],[27.114583,62.30625],[27.114583,62.302083]]]},"properties":{"radiance":5.49}},{"type":"Feature","geometry":{"type":"Polygon","coordinates":[[[27.11875,62.302083],[27.122917,62.302083],[27.122917,62.30625],[27.11875,62.30625],[27.11875,62.302083]]]},"properties":{"radiance":9.43}},{"type":"Feature","geometry":{"type":"Polygon","coordinates":[[[27.122917,62.302083],[27.127083,62.302083],[27.127083,62.30625],[27.122917,62.30625],[27.122917,62.302083]]]},"properties":{"radiance":48.97}},{"type":"Feature","geometry":{"type":"Polygon","coordinates":[[[27.127083,62.302083],[27.13125,62.302083],[27.13125,62.30625],[27.127083,62.30625],[27.127083,62.302083]]]},"properties":{"radiance":48.65}},{"type":"Feature","geometry":{"type":"Polygon","coordinates":[[[27.13125,62.302083],[27.135417,62.302083],[27.135417,62.30625],[27.13125,62.30625],[27.13125,62.302083]]]},"properties":{"radiance":46.66}},{"type":"Feature","geometry":{"type":"Polygon","coordinates":[[[27.135417,62.302083],[27.139583,62.302083],[27.139583,62.30625],[27.135417,62.30625],[27.135417,62.302083]]]},"properties":{"radiance":43.5}},{"type":"Feature","geometry":{"type":"Polygon","coordinates":[[[27.139583,62.302083],[27.14375,62.302083],[27.14375,62.30625],[27.139583,62.30625],[27.139583,62.302083]]]},"properties":{"radiance":54.99}},{"type":"Feature","geometry":{"type":"Polygon","coordinates":[[[27.14375,62.302083],[27.147917,62.302083],[27.147917,62.30625],[27.14375,62.30625],[27.14375,62.302083]]]},"properties":{"radiance":17.06}},{"type":"Feature","geometry":{"type":"Polygon","coordinates":[[[27.147917,62.302083],[27.152083,62.302083],[27.152083,62.30625],[27.147917,62.30625],[27.147917,62.302083]]]},"properties":{"radiance":16.98}},{"type":"Feature","geometry":{"type":"Polygon","coordinates":[[[27.152083,62.302083],[27.15625,62.302083],[27.15625,62.30625],[27.152083,62.30625],[27.152083,62.302083]]]},"properties":{"radiance":84.64}},{"type":"Feature","geometry":{"type":"Polygon","coordinates":[[[27.15625,62.302083],[27.160417,62.302083],[27.160417,62.30625],[27.15625,62.30625],[27.15625,62.302083]]]},"properties":{"radiance":60.81}},{"type":"Feature","geometry":{"type":"Polygon","coordinates":[[[27.160417,62.302083],[27.164583,62.302083],[27.164583,62.30625],[27.160417,62.30625],[27.160417,62.302083]]]},"properties":{"radiance":23.24}},{"type":"Feature","geometry":{"type":"Polygon","coordinates":[[[27.164583,62.302083],[27.16875,62.302083],[27.16875,62.30625],[27.164583,62.30625],[27.164583,62.302083]]]},"properties":{"radiance":67.24}},{"type":"Feature","geometry":{"type":"Polygon","coordinates":[[[27.16875,62.302083],[27.172917,62.302083],[27.172917,62.30625],[27.16875,62.30625],[27.16875,62.302083]]]},"properties":{"radiance":45.97}},{"type":"Feature","geometry":{"type":"Polygon","coordinates":[[[27.172917,62.302083],[27.177083,62.302083],[27.177083,62.30625],[27.172917,62.30625],[27.172917,62.302083]]]},"properties":{"radiance":38.23}},{"type":"Feature","geometry":{"type":"Polygon","coordinates":[[[27.177083,62.302083],[27.18125,62.302083],[27.18125,62.30625],[27.177083,62.30625],[27.177083,62.302083]]]},"properties":{"radiance":9.62}},{"type":"Feature","geometry":{"type":"Polygon","coordinates":[[[27.18125,62.302083],[27.185417,62.302083],[27.185417,62.30625],[27.18125,62.30625],[27.18125,62.302083]]]},"properties":{"radiance":8.65}},{"type":"Feature","geometry":{"type":"Polygon","coordinates":[[[27.185417,62.302083],[27.189583,62.302083],[27.189583,62.30625],[27.185417,62.30625],[27.185417,62.302083]]]},"properties":{"radiance":6.01}},{"type":"Feature","geometry":{"type":"Polygon","coordinates":[[[27.189583,62.302083],[27.19375,62.302083],[27.19375,62.30625],[27.189583,62.30625],[27.189583,62.302083]]]},"properties":{"radiance":5.3}},{"type":"Feature","geometry":{"type":"Polygon","coordinates":[[[27.11875,62.297917],[27.122917,62.297917],[27.122917,62.302083],[27.11875,62.302083],[27.11875,62.297917]]]},"properties":{"radiance":29.71}},{"type":"Feature","geometry":{"type":"Polygon","coordinates":[[[27.122917,62.297917],[27.127083,62.297917],[27.127083,62.302083],[27.122917,62.302083],[27.122917,62.297917]]]},"properties":{"radiance":35.42}},{"type":"Feature","geometry":{"type":"Polygon","coordinates":[[[27.127083,62.297917],[27.13125,62.297917],[27.13125,62.302083],[27.127083,62.302083],[27.127083,62.297917]]]},"properties":{"radiance":55.14}},{"type":"Feature","geometry":{"type":"Polygon","coordinates":[[[27.13125,62.297917],[27.135417,62.297917],[27.135417,62.302083],[27.13125,62.302083],[27.13125,62.297917]]]},"properties":{"radiance":56.03}},{"type":"Feature","geometry":{"type":"Polygon","coordinates":[[[27.135417,62.297917],[27.139583,62.297917],[27.139583,62.302083],[27.135417,62.302083],[27.135417,62.297917]]]},"properties":{"radiance":71.31}},{"type":"Feature","geometry":{"type":"Polygon","coordinates":[[[27.139583,62.297917],[27.14375,62.297917],[27.14375,62.302083],[27.139583,62.302083],[27.139583,62.297917]]]},"properties":{"radiance":73.88}},{"type":"Feature","geometry":{"type":"Polygon","coordinates":[[[27.14375,62.297917],[27.147917,62.297917],[27.147917,62.302083],[27.14375,62.302083],[27.14375,62.297917]]]},"properties":{"radiance":73.54}},{"type":"Feature","geometry":{"type":"Polygon","coordinates":[[[27.147917,62.297917],[27.152083,62.297917],[27.152083,62.302083],[27.147917,62.302083],[27.147917,62.297917]]]},"properties":{"radiance":44.84}},{"type":"Feature","geometry":{"type":"Polygon","coordinates":[[[27.152083,62.297917],[27.15625,62.297917],[27.15625,62.302083],[27.152083,62.302083],[27.152083,62.297917]]]},"properties":{"radiance":42.91}},{"type":"Feature","geometry":{"type":"Polygon","coordinates":[[[27.15625,62.297917],[27.160417,62.297917],[27.160417,62.302083],[27.15625,62.302083],[27.15625,62.297917]]]},"properties":{"radiance":27.33}},{"type":"Feature","geometry":{"type":"Polygon","coordinates":[[[27.160417,62.297917],[27.164583,62.297917],[27.164583,62.302083],[27.160417,62.302083],[27.160417,62.297917]]]},"properties":{"radiance":26.52}},{"type":"Feature","geometry":{"type":"Polygon","coordinates":[[[27.164583,62.297917],[27.16875,62.297917],[27.16875,62.302083],[27.164583,62.302083],[27.164583,62.297917]]]},"properties":{"radiance":22.5}},{"type":"Feature","geometry":{"type":"Polygon","coordinates":[[[27.16875,62.297917],[27.172917,62.297917],[27.172917,62.302083],[27.16875,62.302083],[27.16875,62.297917]]]},"properties":{"radiance":32.28}},{"type":"Feature","geometry":{"type":"Polygon","coordinates":[[[27.172917,62.297917],[27.177083,62.297917],[27.177083,62.302083],[27.172917,62.302083],[27.172917,62.297917]]]},"properties":{"radiance":8.51}},{"type":"Feature","geometry":{"type":"Polygon","coordinates":[[[27.177083,62.297917],[27.18125,62.297917],[27.18125,62.302083],[27.177083,62.302083],[27.177083,62.297917]]]},"properties":{"radiance":7.93}},{"type":"Feature","geometry":{"type":"Polygon","coordinates":[[[27.18125,62.297917],[27.185417,62.297917],[27.185417,62.302083],[27.18125,62.302083],[27.18125,62.297917]]]},"properties":{"radiance":5.39}},{"type":"Feature","geometry":{"type":"Polygon","coordinates":[[[27.185417,62.297917],[27.189583,62.297917],[27.189583,62.302083],[27.185417,62.302083],[27.185417,62.297917]]]},"properties":{"radiance":7.12}},{"type":"Feature","geometry":{"type":"Polygon","coordinates":[[[27.072917,62.29375],[27.077083,62.29375],[27.077083,62.297917],[27.072917,62.297917],[27.072917,62.29375]]]},"properties":{"radiance":6.99}},{"type":"Feature","geometry":{"type":"Polygon","coordinates":[[[27.077083,62.29375],[27.08125,62.29375],[27.08125,62.297917],[27.077083,62.297917],[27.077083,62.29375]]]},"properties":{"radiance":5.97}},{"type":"Feature","geometry":{"type":"Polygon","coordinates":[[[27.089583,62.29375],[27.09375,62.29375],[27.09375,62.297917],[27.089583,62.297917],[27.089583,62.29375]]]},"properties":{"radiance":8.14}},{"type":"Feature","geometry":{"type":"Polygon","coordinates":[[[27.09375,62.29375],[27.097917,62.29375],[27.097917,62.297917],[27.09375,62.297917],[27.09375,62.29375]]]},"properties":{"radiance":7.03}},{"type":"Feature","geometry":{"type":"Polygon","coordinates":[[[27.097917,62.29375],[27.102083,62.29375],[27.102083,62.297917],[27.097917,62.297917],[27.097917,62.29375]]]},"properties":{"radiance":7.92}},{"type":"Feature","geometry":{"type":"Polygon","coordinates":[[[27.102083,62.29375],[27.10625,62.29375],[27.10625,62.297917],[27.102083,62.297917],[27.102083,62.29375]]]},"properties":{"radiance":9.67}},{"type":"Feature","geometry":{"type":"Polygon","coordinates":[[[27.10625,62.29375],[27.110417,62.29375],[27.110417,62.297917],[27.10625,62.297917],[27.10625,62.29375]]]},"properties":{"radiance":9.76}},{"type":"Feature","geometry":{"type":"Polygon","coordinates":[[[27.110417,62.29375],[27.114583,62.29375],[27.114583,62.297917],[27.110417,62.297917],[27.110417,62.29375]]]},"properties":{"radiance":8.97}},{"type":"Feature","geometry":{"type":"Polygon","coordinates":[[[27.114583,62.29375],[27.11875,62.29375],[27.11875,62.297917],[27.114583,62.297917],[27.114583,62.29375]]]},"properties":{"radiance":9.68}},{"type":"Feature","geometry":{"type":"Polygon","coordinates":[[[27.11875,62.29375],[27.122917,62.29375],[27.122917,62.297917],[27.11875,62.297917],[27.11875,62.29375]]]},"properties":{"radiance":32.15}},{"type":"Feature","geometry":{"type":"Polygon","coordinates":[[[27.122917,62.29375],[27.127083,62.29375],[27.127083,62.297917],[27.122917,62.297917],[27.122917,62.29375]]]},"properties":{"radiance":10.94}},{"type":"Feature","geometry":{"type":"Polygon","coordinates":[[[27.127083,62.29375],[27.13125,62.29375],[27.13125,62.297917],[27.127083,62.297917],[27.127083,62.29375]]]},"properties":{"radiance":13.54}},{"type":"Feature","geometry":{"type":"Polygon","coordinates":[[[27.13125,62.29375],[27.135417,62.29375],[27.135417,62.297917],[27.13125,62.297917],[27.13125,62.29375]]]},"properties":{"radiance":15.34}},{"type":"Feature","geometry":{"type":"Polygon","coordinates":[[[27.135417,62.29375],[27.139583,62.29375],[27.139583,62.297917],[27.135417,62.297917],[27.135417,62.29375]]]},"properties":{"radiance":42.06}},{"type":"Feature","geometry":{"type":"Polygon","coordinates":[[[27.139583,62.29375],[27.14375,62.29375],[27.14375,62.297917],[27.139583,62.297917],[27.139583,62.29375]]]},"properties":{"radiance":32.2}},{"type":"Feature","geometry":{"type":"Polygon","coordinates":[[[27.14375,62.29375],[27.147917,62.29375],[27.147917,62.297917],[27.14375,62.297917],[27.14375,62.29375]]]},"properties":{"radiance":39.88}},{"type":"Feature","geometry":{"type":"Polygon","coordinates":[[[27.147917,62.29375],[27.152083,62.29375],[27.152083,62.297917],[27.147917,62.297917],[27.147917,62.29375]]]},"properties":{"radiance":15.84}},{"type":"Feature","geometry":{"type":"Polygon","coordinates":[[[27.152083,62.29375],[27.15625,62.29375],[27.15625,62.297917],[27.152083,62.297917],[27.152083,62.29375]]]},"properties":{"radiance":61.87}},{"type":"Feature","geometry":{"type":"Polygon","coordinates":[[[27.15625,62.29375],[27.160417,62.29375],[27.160417,62.297917],[27.15625,62.297917],[27.15625,62.29375]]]},"properties":{"radiance":14.42}},{"type":"Feature","geometry":{"type":"Polygon","coordinates":[[[27.160417,62.29375],[27.164583,62.29375],[27.164583,62.297917],[27.160417,62.297917],[27.160417,62.29375]]]},"properties":{"radiance":12.14}},{"type":"Feature","geometry":{"type":"Polygon","coordinates":[[[27.164583,62.29375],[27.16875,62.29375],[27.16875,62.297917],[27.164583,62.297917],[27.164583,62.29375]]]},"properties":{"radiance":12.04}},{"type":"Feature","geometry":{"type":"Polygon","coordinates":[[[27.16875,62.29375],[27.172917,62.29375],[27.172917,62.297917],[27.16875,62.297917],[27.16875,62.29375]]]},"properties":{"radiance":7.53}},{"type":"Feature","geometry":{"type":"Polygon","coordinates":[[[27.172917,62.29375],[27.177083,62.29375],[27.177083,62.297917],[27.172917,62.297917],[27.172917,62.29375]]]},"properties":{"radiance":8.09}},{"type":"Feature","geometry":{"type":"Polygon","coordinates":[[[27.177083,62.29375],[27.18125,62.29375],[27.18125,62.297917],[27.177083,62.297917],[27.177083,62.29375]]]},"properties":{"radiance":9.09}},{"type":"Feature","geometry":{"type":"Polygon","coordinates":[[[27.18125,62.29375],[27.185417,62.29375],[27.185417,62.297917],[27.18125,62.297917],[27.18125,62.29375]]]},"properties":{"radiance":7.71}},{"type":"Feature","geometry":{"type":"Polygon","coordinates":[[[27.04375,62.289583],[27.047917,62.289583],[27.047917,62.29375],[27.04375,62.29375],[27.04375,62.289583]]]},"properties":{"radiance":6.48}},{"type":"Feature","geometry":{"type":"Polygon","coordinates":[[[27.072917,62.289583],[27.077083,62.289583],[27.077083,62.29375],[27.072917,62.29375],[27.072917,62.289583]]]},"properties":{"radiance":9.23}},{"type":"Feature","geometry":{"type":"Polygon","coordinates":[[[27.077083,62.289583],[27.08125,62.289583],[27.08125,62.29375],[27.077083,62.29375],[27.077083,62.289583]]]},"properties":{"radiance":9.77}},{"type":"Feature","geometry":{"type":"Polygon","coordinates":[[[27.08125,62.289583],[27.085417,62.289583],[27.085417,62.29375],[27.08125,62.29375],[27.08125,62.289583]]]},"properties":{"radiance":8.8}},{"type":"Feature","geometry":{"type":"Polygon","coordinates":[[[27.085417,62.289583],[27.089583,62.289583],[27.089583,62.29375],[27.085417,62.29375],[27.085417,62.289583]]]},"properties":{"radiance":9.57}},{"type":"Feature","geometry":{"type":"Polygon","coordinates":[[[27.089583,62.289583],[27.09375,62.289583],[27.09375,62.29375],[27.089583,62.29375],[27.089583,62.289583]]]},"properties":{"radiance":8.13}},{"type":"Feature","geometry":{"type":"Polygon","coordinates":[[[27.09375,62.289583],[27.097917,62.289583],[27.097917,62.29375],[27.09375,62.29375],[27.09375,62.289583]]]},"properties":{"radiance":9.98}},{"type":"Feature","geometry":{"type":"Polygon","coordinates":[[[27.097917,62.289583],[27.102083,62.289583],[27.102083,62.29375],[27.097917,62.29375],[27.097917,62.289583]]]},"properties":{"radiance":39.8}},{"type":"Feature","geometry":{"type":"Polygon","coordinates":[[[27.102083,62.289583],[27.10625,62.289583],[27.10625,62.29375],[27.102083,62.29375],[27.102083,62.289583]]]},"properties":{"radiance":8.42}},{"type":"Feature","geometry":{"type":"Polygon","coordinates":[[[27.10625,62.289583],[27.110417,62.289583],[27.110417,62.29375],[27.10625,62.29375],[27.10625,62.289583]]]},"properties":{"radiance":48.88}},{"type":"Feature","geometry":{"type":"Polygon","coordinates":[[[27.110417,62.289583],[27.114583,62.289583],[27.114583,62.29375],[27.110417,62.29375],[27.110417,62.289583]]]},"properties":{"radiance":12.6}},{"type":"Feature","geometry":{"type":"Polygon","coordinates":[[[27.114583,62.289583],[27.11875,62.289583],[27.11875,62.29375],[27.114583,62.29375],[27.114583,62.289583]]]},"properties":{"radiance":10.1}},{"type":"Feature","geometry":{"type":"Polygon","coordinates":[[[27.11875,62.289583],[27.122917,62.289583],[27.122917,62.29375],[27.11875,62.29375],[27.11875,62.289583]]]},"properties":{"radiance":6.56}},{"type":"Feature","geometry":{"type":"Polygon","coordinates":[[[27.139583,62.289583],[27.14375,62.289583],[27.14375,62.29375],[27.139583,62.29375],[27.139583,62.289583]]]},"properties":{"radiance":5.15}},{"type":"Feature","geometry":{"type":"Polygon","coordinates":[[[27.152083,62.289583],[27.15625,62.289583],[27.15625,62.29375],[27.152083,62.29375],[27.152083,62.289583]]]},"properties":{"radiance":5.26}},{"type":"Feature","geometry":{"type":"Polygon","coordinates":[[[27.15625,62.289583],[27.160417,62.289583],[27.160417,62.29375],[27.15625,62.29375],[27.15625,62.289583]]]},"properties":{"radiance":6.37}},{"type":"Feature","geometry":{"type":"Polygon","coordinates":[[[27.172917,62.289583],[27.177083,62.289583],[27.177083,62.29375],[27.172917,62.29375],[27.172917,62.289583]]]},"properties":{"radiance":7.41}},{"type":"Feature","geometry":{"type":"Polygon","coordinates":[[[27.177083,62.289583],[27.18125,62.289583],[27.18125,62.29375],[27.177083,62.29375],[27.177083,62.289583]]]},"properties":{"radiance":6.36}},{"type":"Feature","geometry":{"type":"Polygon","coordinates":[[[27.039583,62.285417],[27.04375,62.285417],[27.04375,62.289583],[27.039583,62.289583],[27.039583,62.285417]]]},"properties":{"radiance":5.5}},{"type":"Feature","geometry":{"type":"Polygon","coordinates":[[[27.04375,62.285417],[27.047917,62.285417],[27.047917,62.289583],[27.04375,62.289583],[27.04375,62.285417]]]},"properties":{"radiance":23.44}},{"type":"Feature","geometry":{"type":"Polygon","coordinates":[[[27.047917,62.285417],[27.052083,62.285417],[27.052083,62.289583],[27.047917,62.289583],[27.047917,62.285417]]]},"properties":{"radiance":24.77}},{"type":"Feature","geometry":{"type":"Polygon","coordinates":[[[27.052083,62.285417],[27.05625,62.285417],[27.05625,62.289583],[27.052083,62.289583],[27.052083,62.285417]]]},"properties":{"radiance":5.91}},{"type":"Feature","geometry":{"type":"Polygon","coordinates":[[[27.064583,62.285417],[27.06875,62.285417],[27.06875,62.289583],[27.064583,62.289583],[27.064583,62.285417]]]},"properties":{"radiance":5.05}},{"type":"Feature","geometry":{"type":"Polygon","coordinates":[[[27.06875,62.285417],[27.072917,62.285417],[27.072917,62.289583],[27.06875,62.289583],[27.06875,62.285417]]]},"properties":{"radiance":6.54}},{"type":"Feature","geometry":{"type":"Polygon","coordinates":[[[27.072917,62.285417],[27.077083,62.285417],[27.077083,62.289583],[27.072917,62.289583],[27.072917,62.285417]]]},"properties":{"radiance":29.62}},{"type":"Feature","geometry":{"type":"Polygon","coordinates":[[[27.077083,62.285417],[27.08125,62.285417],[27.08125,62.289583],[27.077083,62.289583],[27.077083,62.285417]]]},"properties":{"radiance":8.74}},{"type":"Feature","geometry":{"type":"Polygon","coordinates":[[[27.08125,62.285417],[27.085417,62.285417],[27.085417,62.289583],[27.08125,62.289583],[27.08125,62.285417]]]},"properties":{"radiance":8.47}},{"type":"Feature","geometry":{"type":"Polygon","coordinates":[[[27.089583,62.285417],[27.09375,62.285417],[27.09375,62.289583],[27.089583,62.289583],[27.089583,62.285417]]]},"properties":{"radiance":5.94}},{"type":"Feature","geometry":{"type":"Polygon","coordinates":[[[27.09375,62.285417],[27.097917,62.285417],[27.097917,62.289583],[27.09375,62.289583],[27.09375,62.285417]]]},"properties":{"radiance":6.08}},{"type":"Feature","geometry":{"type":"Polygon","coordinates":[[[27.097917,62.285417],[27.102083,62.285417],[27.102083,62.289583],[27.097917,62.289583],[27.097917,62.285417]]]},"properties":{"radiance":7.87}},{"type":"Feature","geometry":{"type":"Polygon","coordinates":[[[27.177083,62.285417],[27.18125,62.285417],[27.18125,62.289583],[27.177083,62.289583],[27.177083,62.285417]]]},"properties":{"radiance":5.08}},{"type":"Feature","geometry":{"type":"Polygon","coordinates":[[[27.04375,62.28125],[27.047917,62.28125],[27.047917,62.285417],[27.04375,62.285417],[27.04375,62.28125]]]},"properties":{"radiance":5.8}},{"type":"Feature","geometry":{"type":"Polygon","coordinates":[[[27.05625,62.28125],[27.060417,62.28125],[27.060417,62.285417],[27.05625,62.285417],[27.05625,62.28125]]]},"properties":{"radiance":5.17}},{"type":"Feature","geometry":{"type":"Polygon","coordinates":[[[27.177083,62.28125],[27.18125,62.28125],[27.18125,62.285417],[27.177083,62.285417],[27.177083,62.28125]]]},"properties":{"radiance":5.45}},{"type":"Feature","geometry":{"type":"Polygon","coordinates":[[[27.039583,62.277083],[27.04375,62.277083],[27.04375,62.28125],[27.039583,62.28125],[27.039583,62.277083]]]},"properties":{"radiance":6.28}},{"type":"Feature","geometry":{"type":"Polygon","coordinates":[[[27.177083,62.277083],[27.18125,62.277083],[27.18125,62.28125],[27.177083,62.28125],[27.177083,62.277083]]]},"properties":{"radiance":5.18}},{"type":"Feature","geometry":{"type":"Polygon","coordinates":[[[27.19375,62.15625],[27.197917,62.15625],[27.197917,62.160417],[27.19375,62.160417],[27.19375,62.15625]]]},"properties":{"radiance":6.9}},{"type":"Feature","geometry":{"type":"Polygon","coordinates":[[[27.852083,61.902083],[27.85625,61.902083],[27.85625,61.90625],[27.852083,61.90625],[27.852083,61.902083]]]},"properties":{"radiance":8.02}},{"type":"Feature","geometry":{"type":"Polygon","coordinates":[[[27.79375,61.897917],[27.797917,61.897917],[27.797917,61.902083],[27.79375,61.902083],[27.79375,61.897917]]]},"properties":{"radiance":5.48}},{"type":"Feature","geometry":{"type":"Polygon","coordinates":[[[27.797917,61.897917],[27.802083,61.897917],[27.802083,61.902083],[27.797917,61.902083],[27.797917,61.897917]]]},"properties":{"radiance":10.24}},{"type":"Feature","geometry":{"type":"Polygon","coordinates":[[[27.802083,61.897917],[27.80625,61.897917],[27.80625,61.902083],[27.802083,61.902083],[27.802083,61.897917]]]},"properties":{"radiance":10.34}},{"type":"Feature","geometry":{"type":"Polygon","coordinates":[[[27.80625,61.897917],[27.810417,61.897917],[27.810417,61.902083],[27.80625,61.902083],[27.80625,61.897917]]]},"properties":{"radiance":9.34}},{"type":"Feature","geometry":{"type":"Polygon","coordinates":[[[27.84375,61.897917],[27.847917,61.897917],[27.847917,61.902083],[27.84375,61.902083],[27.84375,61.897917]]]},"properties":{"radiance":5.21}},{"type":"Feature","geometry":{"type":"Polygon","coordinates":[[[27.847917,61.897917],[27.852083,61.897917],[27.852083,61.902083],[27.847917,61.902083],[27.847917,61.897917]]]},"properties":{"radiance":8.31}},{"type":"Feature","geometry":{"type":"Polygon","coordinates":[[[27.852083,61.897917],[27.85625,61.897917],[27.85625,61.902083],[27.852083,61.902083],[27.852083,61.897917]]]},"properties":{"radiance":9.17}},{"type":"Feature","geometry":{"type":"Polygon","coordinates":[[[27.85625,61.897917],[27.860417,61.897917],[27.860417,61.902083],[27.85625,61.902083],[27.85625,61.897917]]]},"properties":{"radiance":7.55}},{"type":"Feature","geometry":{"type":"Polygon","coordinates":[[[27.860417,61.897917],[27.864583,61.897917],[27.864583,61.902083],[27.860417,61.902083],[27.860417,61.897917]]]},"properties":{"radiance":6.73}},{"type":"Feature","geometry":{"type":"Polygon","coordinates":[[[27.864583,61.897917],[27.86875,61.897917],[27.86875,61.902083],[27.864583,61.902083],[27.864583,61.897917]]]},"properties":{"radiance":5.45}},{"type":"Feature","geometry":{"type":"Polygon","coordinates":[[[27.797917,61.89375],[27.802083,61.89375],[27.802083,61.897917],[27.797917,61.897917],[27.797917,61.89375]]]},"properties":{"radiance":6.47}},{"type":"Feature","geometry":{"type":"Polygon","coordinates":[[[27.802083,61.89375],[27.80625,61.89375],[27.80625,61.897917],[27.802083,61.897917],[27.802083,61.89375]]]},"properties":{"radiance":6.78}},{"type":"Feature","geometry":{"type":"Polygon","coordinates":[[[27.847917,61.89375],[27.852083,61.89375],[27.852083,61.897917],[27.847917,61.897917],[27.847917,61.89375]]]},"properties":{"radiance":5.28}},{"type":"Feature","geometry":{"type":"Polygon","coordinates":[[[27.852083,61.89375],[27.85625,61.89375],[27.85625,61.897917],[27.852083,61.897917],[27.852083,61.89375]]]},"properties":{"radiance":5.88}},{"type":"Feature","geometry":{"type":"Polygon","coordinates":[[[27.85625,61.89375],[27.860417,61.89375],[27.860417,61.897917],[27.85625,61.897917],[27.85625,61.89375]]]},"properties":{"radiance":7.34}},{"type":"Feature","geometry":{"type":"Polygon","coordinates":[[[27.860417,61.89375],[27.864583,61.89375],[27.864583,61.897917],[27.860417,61.897917],[27.860417,61.89375]]]},"properties":{"radiance":6.88}},{"type":"Feature","geometry":{"type":"Polygon","coordinates":[[[27.864583,61.89375],[27.86875,61.89375],[27.86875,61.897917],[27.864583,61.897917],[27.864583,61.89375]]]},"properties":{"radiance":5.25}},{"type":"Feature","geometry":{"type":"Polygon","coordinates":[[[27.86875,61.89375],[27.872917,61.89375],[27.872917,61.897917],[27.86875,61.897917],[27.86875,61.89375]]]},"properties":{"radiance":5.11}},{"type":"Feature","geometry":{"type":"Polygon","coordinates":[[[27.872917,61.89375],[27.877083,61.89375],[27.877083,61.897917],[27.872917,61.897917],[27.872917,61.89375]]]},"properties":{"radiance":5.28}},{"type":"Feature","geometry":{"type":"Polygon","coordinates":[[[27.71875,61.852083],[27.722917,61.852083],[27.722917,61.85625],[27.71875,61.85625],[27.71875,61.852083]]]},"properties":{"radiance":60.77}},{"type":"Feature","geometry":{"type":"Polygon","coordinates":[[[27.722917,61.852083],[27.727083,61.852083],[27.727083,61.85625],[27.722917,61.85625],[27.722917,61.852083]]]},"properties":{"radiance":16.46}},{"type":"Feature","geometry":{"type":"Polygon","coordinates":[[[27.727083,61.852083],[27.73125,61.852083],[27.73125,61.85625],[27.727083,61.85625],[27.727083,61.852083]]]},"properties":{"radiance":18.31}},{"type":"Feature","geometry":{"type":"Polygon","coordinates":[[[27.73125,61.852083],[27.735417,61.852083],[27.735417,61.85625],[27.73125,61.85625],[27.73125,61.852083]]]},"properties":{"radiance":8.53}},{"type":"Feature","geometry":{"type":"Polygon","coordinates":[[[27.735417,61.852083],[27.739583,61.852083],[27.739583,61.85625],[27.735417,61.85625],[27.735417,61.852083]]]},"properties":{"radiance":9.08}},{"type":"Feature","geometry":{"type":"Polygon","coordinates":[[[27.739583,61.852083],[27.74375,61.852083],[27.74375,61.85625],[27.739583,61.85625],[27.739583,61.852083]]]},"properties":{"radiance":7.41}},{"type":"Feature","geometry":{"type":"Polygon","coordinates":[[[27.714583,61.847917],[27.71875,61.847917],[27.71875,61.852083],[27.714583,61.852083],[27.714583,61.847917]]]},"properties":{"radiance":40.99}},{"type":"Feature","geometry":{"type":"Polygon","coordinates":[[[27.71875,61.847917],[27.722917,61.847917],[27.722917,61.852083],[27.71875,61.852083],[27.71875,61.847917]]]},"properties":{"radiance":185.62}},{"type":"Feature","geometry":{"type":"Polygon","coordinates":[[[27.722917,61.847917],[27.727083,61.847917],[27.727083,61.852083],[27.722917,61.852083],[27.722917,61.847917]]]},"properties":{"radiance":404.72}},{"type":"Feature","geometry":{"type":"Polygon","coordinates":[[[27.727083,61.847917],[27.73125,61.847917],[27.73125,61.852083],[27.727083,61.852083],[27.727083,61.847917]]]},"properties":{"radiance":740.38}},{"type":"Feature","geometry":{"type":"Polygon","coordinates":[[[27.73125,61.847917],[27.735417,61.847917],[27.735417,61.852083],[27.73125,61.852083],[27.73125,61.847917]]]},"properties":{"radiance":497.84}},{"type":"Feature","geometry":{"type":"Polygon","coordinates":[[[27.735417,61.847917],[27.739583,61.847917],[27.739583,61.852083],[27.735417,61.852083],[27.735417,61.847917]]]},"properties":{"radiance":326.03}},{"type":"Feature","geometry":{"type":"Polygon","coordinates":[[[27.739583,61.847917],[27.74375,61.847917],[27.74375,61.852083],[27.739583,61.852083],[27.739583,61.847917]]]},"properties":{"radiance":31.71}},{"type":"Feature","geometry":{"type":"Polygon","coordinates":[[[27.714583,61.84375],[27.71875,61.84375],[27.71875,61.847917],[27.714583,61.847917],[27.714583,61.84375]]]},"properties":{"radiance":10.11}},{"type":"Feature","geometry":{"type":"Polygon","coordinates":[[[27.71875,61.84375],[27.722917,61.84375],[27.722917,61.847917],[27.71875,61.847917],[27.71875,61.84375]]]},"properties":{"radiance":233.85}},{"type":"Feature","geometry":{"type":"Polygon","coordinates":[[[27.722917,61.84375],[27.727083,61.84375],[27.727083,61.847917],[27.722917,61.847917],[27.722917,61.84375]]]},"properties":{"radiance":234.57}},{"type":"Feature","geometry":{"type":"Polygon","coordinates":[[[27.727083,61.84375],[27.73125,61.84375],[27.73125,61.847917],[27.727083,61.847917],[27.727083,61.84375]]]},"properties":{"radiance":284.03}},{"type":"Feature","geometry":{"type":"Polygon","coordinates":[[[27.73125,61.84375],[27.735417,61.84375],[27.735417,61.847917],[27.73125,61.847917],[27.73125,61.84375]]]},"properties":{"radiance":299.9}},{"type":"Feature","geometry":{"type":"Polygon","coordinates":[[[27.735417,61.84375],[27.739583,61.84375],[27.739583,61.847917],[27.735417,61.847917],[27.735417,61.84375]]]},"properties":{"radiance":281.06}},{"type":"Feature","geometry":{"type":"Polygon","coordinates":[[[27.739583,61.84375],[27.74375,61.84375],[27.74375,61.847917],[27.739583,61.847917],[27.739583,61.84375]]]},"properties":{"radiance":16.81}},{"type":"Feature","geometry":{"type":"Polygon","coordinates":[[[27.71875,61.839583],[27.722917,61.839583],[27.722917,61.84375],[27.71875,61.84375],[27.71875,61.839583]]]},"properties":{"radiance":11.72}},{"type":"Feature","geometry":{"type":"Polygon","coordinates":[[[27.722917,61.839583],[27.727083,61.839583],[27.727083,61.84375],[27.722917,61.84375],[27.722917,61.839583]]]},"properties":{"radiance":11.66}},{"type":"Feature","geometry":{"type":"Polygon","coordinates":[[[27.727083,61.839583],[27.73125,61.839583],[27.73125,61.84375],[27.727083,61.84375],[27.727083,61.839583]]]},"properties":{"radiance":10.33}},{"type":"Feature","geometry":{"type":"Polygon","coordinates":[[[27.73125,61.839583],[27.735417,61.839583],[27.735417,61.84375],[27.73125,61.84375],[27.73125,61.839583]]]},"properties":{"radiance":8.69}},{"type":"Feature","geometry":{"type":"Polygon","coordinates":[[[27.585417,61.772917],[27.589583,61.772917],[27.589583,61.777083],[27.585417,61.777083],[27.585417,61.772917]]]},"properties":{"radiance":5.23}},{"type":"Feature","geometry":{"type":"Polygon","coordinates":[[[27.327083,61.714583],[27.33125,61.714583],[27.33125,61.71875],[27.327083,61.71875],[27.327083,61.714583]]]},"properties":{"radiance":5.02}},{"type":"Feature","geometry":{"type":"Polygon","coordinates":[[[27.33125,61.714583],[27.335417,61.714583],[27.335417,61.71875],[27.33125,61.71875],[27.33125,61.714583]]]},"properties":{"radiance":5.06}},{"type":"Feature","geometry":{"type":"Polygon","coordinates":[[[27.30625,61.710417],[27.310417,61.710417],[27.310417,61.714583],[27.30625,61.714583],[27.30625,61.710417]]]},"properties":{"radiance":6.4}},{"type":"Feature","geometry":{"type":"Polygon","coordinates":[[[27.310417,61.710417],[27.314583,61.710417],[27.314583,61.714583],[27.310417,61.714583],[27.310417,61.710417]]]},"properties":{"radiance":7.28}},{"type":"Feature","geometry":{"type":"Polygon","coordinates":[[[27.314583,61.710417],[27.31875,61.710417],[27.31875,61.714583],[27.314583,61.714583],[27.314583,61.710417]]]},"properties":{"radiance":7.71}},{"type":"Feature","geometry":{"type":"Polygon","coordinates":[[[27.31875,61.710417],[27.322917,61.710417],[27.322917,61.714583],[27.31875,61.714583],[27.31875,61.710417]]]},"properties":{"radiance":10.24}},{"type":"Feature","geometry":{"type":"Polygon","coordinates":[[[27.322917,61.710417],[27.327083,61.710417],[27.327083,61.714583],[27.322917,61.714583],[27.322917,61.710417]]]},"properties":{"radiance":8.6}},{"type":"Feature","geometry":{"type":"Polygon","coordinates":[[[27.30625,61.70625],[27.310417,61.70625],[27.310417,61.710417],[27.30625,61.710417],[27.30625,61.70625]]]},"properties":{"radiance":7.79}},{"type":"Feature","geometry":{"type":"Polygon","coordinates":[[[27.310417,61.70625],[27.314583,61.70625],[27.314583,61.710417],[27.310417,61.710417],[27.310417,61.70625]]]},"properties":{"radiance":8.37}},{"type":"Feature","geometry":{"type":"Polygon","coordinates":[[[27.314583,61.70625],[27.31875,61.70625],[27.31875,61.710417],[27.314583,61.710417],[27.314583,61.70625]]]},"properties":{"radiance":8.9}},{"type":"Feature","geometry":{"type":"Polygon","coordinates":[[[27.31875,61.70625],[27.322917,61.70625],[27.322917,61.710417],[27.31875,61.710417],[27.31875,61.70625]]]},"properties":{"radiance":9.6}},{"type":"Feature","geometry":{"type":"Polygon","coordinates":[[[27.322917,61.70625],[27.327083,61.70625],[27.327083,61.710417],[27.322917,61.710417],[27.322917,61.70625]]]},"properties":{"radiance":9.58}},{"type":"Feature","geometry":{"type":"Polygon","coordinates":[[[27.327083,61.70625],[27.33125,61.70625],[27.33125,61.710417],[27.327083,61.710417],[27.327083,61.70625]]]},"properties":{"radiance":8.7}},{"type":"Feature","geometry":{"type":"Polygon","coordinates":[[[27.272917,61.702083],[27.277083,61.702083],[27.277083,61.70625],[27.272917,61.70625],[27.272917,61.702083]]]},"properties":{"radiance":6.25}},{"type":"Feature","geometry":{"type":"Polygon","coordinates":[[[27.277083,61.702083],[27.28125,61.702083],[27.28125,61.70625],[27.277083,61.70625],[27.277083,61.702083]]]},"properties":{"radiance":5.11}},{"type":"Feature","geometry":{"type":"Polygon","coordinates":[[[27.297917,61.702083],[27.302083,61.702083],[27.302083,61.70625],[27.297917,61.70625],[27.297917,61.702083]]]},"properties":{"radiance":6.72}},{"type":"Feature","geometry":{"type":"Polygon","coordinates":[[[27.30625,61.702083],[27.310417,61.702083],[27.310417,61.70625],[27.30625,61.70625],[27.30625,61.702083]]]},"properties":{"radiance":6.32}},{"type":"Feature","geometry":{"type":"Polygon","coordinates":[[[27.310417,61.702083],[27.314583,61.702083],[27.314583,61.70625],[27.310417,61.70625],[27.310417,61.702083]]]},"properties":{"radiance":9.68}},{"type":"Feature","geometry":{"type":"Polygon","coordinates":[[[27.314583,61.702083],[27.31875,61.702083],[27.31875,61.70625],[27.314583,61.70625],[27.314583,61.702083]]]},"properties":{"radiance":6.27}},{"type":"Feature","geometry":{"type":"Polygon","coordinates":[[[27.31875,61.702083],[27.322917,61.702083],[27.322917,61.70625],[27.31875,61.70625],[27.31875,61.702083]]]},"properties":{"radiance":5.35}},{"type":"Feature","geometry":{"type":"Polygon","coordinates":[[[27.20625,61.697917],[27.210417,61.697917],[27.210417,61.702083],[27.20625,61.702083],[27.20625,61.697917]]]},"properties":{"radiance":6.74}},{"type":"Feature","geometry":{"type":"Polygon","coordinates":[[[27.214583,61.697917],[27.21875,61.697917],[27.21875,61.702083],[27.214583,61.702083],[27.214583,61.697917]]]},"properties":{"radiance":5.9}},{"type":"Feature","geometry":{"type":"Polygon","coordinates":[[[27.260417,61.697917],[27.264583,61.697917],[27.264583,61.702083],[27.260417,61.702083],[27.260417,61.697917]]]},"properties":{"radiance":5.83}},{"type":"Feature","geometry":{"type":"Polygon","coordinates":[[[27.264583,61.697917],[27.26875,61.697917],[27.26875,61.702083],[27.264583,61.702083],[27.264583,61.697917]]]},"properties":{"radiance":8.88}},{"type":"Feature","geometry":{"type":"Polygon","coordinates":[[[27.26875,61.697917],[27.272917,61.697917],[27.272917,61.702083],[27.26875,61.702083],[27.26875,61.697917]]]},"properties":{"radiance":48.48}},{"type":"Feature","geometry":{"type":"Polygon","coordinates":[[[27.272917,61.697917],[27.277083,61.697917],[27.277083,61.702083],[27.272917,61.702083],[27.272917,61.697917]]]},"properties":{"radiance":9.91}},{"type":"Feature","geometry":{"type":"Polygon","coordinates":[[[27.277083,61.697917],[27.28125,61.697917],[27.28125,61.702083],[27.277083,61.702083],[27.277083,61.697917]]]},"properties":{"radiance":9.27}},{"type":"Feature","geometry":{"type":"Polygon","coordinates":[[[27.28125,61.697917],[27.285417,61.697917],[27.285417,61.702083],[27.28125,61.702083],[27.28125,61.697917]]]},"properties":{"radiance":9.02}},{"type":"Feature","geometry":{"type":"Polygon","coordinates":[[[27.285417,61.697917],[27.289583,61.697917],[27.289583,61.702083],[27.285417,61.702083],[27.285417,61.697917]]]},"properties":{"radiance":8.13}},{"type":"Feature","geometry":{"type":"Polygon","coordinates":[[[27.289583,61.697917],[27.29375,61.697917],[27.29375,61.702083],[27.289583,61.702083],[27.289583,61.697917]]]},"properties":{"radiance":6.96}},{"type":"Feature","geometry":{"type":"Polygon","coordinates":[[[27.297917,61.697917],[27.302083,61.697917],[27.302083,61.702083],[27.297917,61.702083],[27.297917,61.697917]]]},"properties":{"radiance":6.54}},{"type":"Feature","geometry":{"type":"Polygon","coordinates":[[[27.197917,61.69375],[27.202083,61.69375],[27.202083,61.697917],[27.197917,61.697917],[27.197917,61.69375]]]},"properties":{"radiance":33.32}},{"type":"Feature","geometry":{"type":"Polygon","coordinates":[[[27.202083,61.69375],[27.20625,61.69375],[27.20625,61.697917],[27.202083,61.697917],[27.202083,61.69375]]]},"properties":{"radiance":17.37}},{"type":"Feature","geometry":{"type":"Polygon","coordinates":[[[27.20625,61.69375],[27.210417,61.69375],[27.210417,61.697917],[27.20625,61.697917],[27.20625,61.69375]]]},"properties":{"radiance":16.91}},{"type":"Feature","geometry":{"type":"Polygon","coordinates":[[[27.210417,61.69375],[27.214583,61.69375],[27.214583,61.697917],[27.210417,61.697917],[27.210417,61.69375]]]},"properties":{"radiance":78}},{"type":"Feature","geometry":{"type":"Polygon","coordinates":[[[27.214583,61.69375],[27.21875,61.69375],[27.21875,61.697917],[27.214583,61.697917],[27.214583,61.69375]]]},"properties":{"radiance":63.82}},{"type":"Feature","geometry":{"type":"Polygon","coordinates":[[[27.21875,61.69375],[27.222917,61.69375],[27.222917,61.697917],[27.21875,61.697917],[27.21875,61.69375]]]},"properties":{"radiance":18.82}},{"type":"Feature","geometry":{"type":"Polygon","coordinates":[[[27.222917,61.69375],[27.227083,61.69375],[27.227083,61.697917],[27.222917,61.697917],[27.222917,61.69375]]]},"properties":{"radiance":8.31}},{"type":"Feature","geometry":{"type":"Polygon","coordinates":[[[27.227083,61.69375],[27.23125,61.69375],[27.23125,61.697917],[27.227083,61.697917],[27.227083,61.69375]]]},"properties":{"radiance":5.9}},{"type":"Feature","geometry":{"type":"Polygon","coordinates":[[[27.24375,61.69375],[27.247917,61.69375],[27.247917,61.697917],[27.24375,61.697917],[27.24375,61.69375]]]},"properties":{"radiance":5.64}},{"type":"Feature","geometry":{"type":"Polygon","coordinates":[[[27.247917,61.69375],[27.252083,61.69375],[27.252083,61.697917],[27.247917,61.697917],[27.247917,61.69375]]]},"properties":{"radiance":7.1}},{"type":"Feature","geometry":{"type":"Polygon","coordinates":[[[27.252083,61.69375],[27.25625,61.69375],[27.25625,61.697917],[27.252083,61.697917],[27.252083,61.69375]]]},"properties":{"radiance":7.39}},{"type":"Feature","geometry":{"type":"Polygon","coordinates":[[[27.25625,61.69375],[27.260417,61.69375],[27.260417,61.697917],[27.25625,61.697917],[27.25625,61.69375]]]},"properties":{"radiance":16.81}},{"type":"Feature","geometry":{"type":"Polygon","coordinates":[[[27.260417,61.69375],[27.264583,61.69375],[27.264583,61.697917],[27.260417,61.697917],[27.260417,61.69375]]]},"properties":{"radiance":40.47}},{"type":"Feature","geometry":{"type":"Polygon","coordinates":[[[27.264583,61.69375],[27.26875,61.69375],[27.26875,61.697917],[27.264583,61.697917],[27.264583,61.69375]]]},"properties":{"radiance":54.59}},{"type":"Feature","geometry":{"type":"Polygon","coordinates":[[[27.26875,61.69375],[27.272917,61.69375],[27.272917,61.697917],[27.26875,61.697917],[27.26875,61.69375]]]},"properties":{"radiance":122.44}},{"type":"Feature","geometry":{"type":"Polygon","coordinates":[[[27.272917,61.69375],[27.277083,61.69375],[27.277083,61.697917],[27.272917,61.697917],[27.272917,61.69375]]]},"properties":{"radiance":115.15}},{"type":"Feature","geometry":{"type":"Polygon","coordinates":[[[27.277083,61.69375],[27.28125,61.69375],[27.28125,61.697917],[27.277083,61.697917],[27.277083,61.69375]]]},"properties":{"radiance":85.8}},{"type":"Feature","geometry":{"type":"Polygon","coordinates":[[[27.28125,61.69375],[27.285417,61.69375],[27.285417,61.697917],[27.28125,61.697917],[27.28125,61.69375]]]},"properties":{"radiance":29.86}},{"type":"Feature","geometry":{"type":"Polygon","coordinates":[[[27.285417,61.69375],[27.289583,61.69375],[27.289583,61.697917],[27.285417,61.697917],[27.285417,61.69375]]]},"properties":{"radiance":29.07}},{"type":"Feature","geometry":{"type":"Polygon","coordinates":[[[27.289583,61.69375],[27.29375,61.69375],[27.29375,61.697917],[27.289583,61.697917],[27.289583,61.69375]]]},"properties":{"radiance":11.17}},{"type":"Feature","geometry":{"type":"Polygon","coordinates":[[[27.29375,61.69375],[27.297917,61.69375],[27.297917,61.697917],[27.29375,61.697917],[27.29375,61.69375]]]},"properties":{"radiance":12.78}},{"type":"Feature","geometry":{"type":"Polygon","coordinates":[[[27.297917,61.69375],[27.302083,61.69375],[27.302083,61.697917],[27.297917,61.697917],[27.297917,61.69375]]]},"properties":{"radiance":6.7}},{"type":"Feature","geometry":{"type":"Polygon","coordinates":[[[27.189583,61.689583],[27.19375,61.689583],[27.19375,61.69375],[27.189583,61.69375],[27.189583,61.689583]]]},"properties":{"radiance":5.36}},{"type":"Feature","geometry":{"type":"Polygon","coordinates":[[[27.19375,61.689583],[27.197917,61.689583],[27.197917,61.69375],[27.19375,61.69375],[27.19375,61.689583]]]},"properties":{"radiance":39.29}},{"type":"Feature","geometry":{"type":"Polygon","coordinates":[[[27.197917,61.689583],[27.202083,61.689583],[27.202083,61.69375],[27.197917,61.69375],[27.197917,61.689583]]]},"properties":{"radiance":37.17}},{"type":"Feature","geometry":{"type":"Polygon","coordinates":[[[27.202083,61.689583],[27.20625,61.689583],[27.20625,61.69375],[27.202083,61.69375],[27.202083,61.689583]]]},"properties":{"radiance":28.05}},{"type":"Feature","geometry":{"type":"Polygon","coordinates":[[[27.20625,61.689583],[27.210417,61.689583],[27.210417,61.69375],[27.20625,61.69375],[27.20625,61.689583]]]},"properties":{"radiance":46.9}},{"type":"Feature","geometry":{"type":"Polygon","coordinates":[[[27.210417,61.689583],[27.214583,61.689583],[27.214583,61.69375],[27.210417,61.69375],[27.210417,61.689583]]]},"properties":{"radiance":92.37}},{"type":"Feature","geometry":{"type":"Polygon","coordinates":[[[27.214583,61.689583],[27.21875,61.689583],[27.21875,61.69375],[27.214583,61.69375],[27.214583,61.689583]]]},"properties":{"radiance":71.49}},{"type":"Feature","geometry":{"type":"Polygon","coordinates":[[[27.21875,61.689583],[27.222917,61.689583],[27.222917,61.69375],[27.21875,61.69375],[27.21875,61.689583]]]},"properties":{"radiance":17.52}},{"type":"Feature","geometry":{"type":"Polygon","coordinates":[[[27.222917,61.689583],[27.227083,61.689583],[27.227083,61.69375],[27.222917,61.69375],[27.222917,61.689583]]]},"properties":{"radiance":11.75}},{"type":"Feature","geometry":{"type":"Polygon","coordinates":[[[27.227083,61.689583],[27.23125,61.689583],[27.23125,61.69375],[27.227083,61.69375],[27.227083,61.689583]]]},"properties":{"radiance":10}},{"type":"Feature","geometry":{"type":"Polygon","coordinates":[[[27.239583,61.689583],[27.24375,61.689583],[27.24375,61.69375],[27.239583,61.69375],[27.239583,61.689583]]]},"properties":{"radiance":5.58}},{"type":"Feature","geometry":{"type":"Polygon","coordinates":[[[27.24375,61.689583],[27.247917,61.689583],[27.247917,61.69375],[27.24375,61.69375],[27.24375,61.689583]]]},"properties":{"radiance":7.52}},{"type":"Feature","geometry":{"type":"Polygon","coordinates":[[[27.247917,61.689583],[27.252083,61.689583],[27.252083,61.69375],[27.247917,61.69375],[27.247917,61.689583]]]},"properties":{"radiance":20.84}},{"type":"Feature","geometry":{"type":"Polygon","coordinates":[[[27.252083,61.689583],[27.25625,61.689583],[27.25625,61.69375],[27.252083,61.69375],[27.252083,61.689583]]]},"properties":{"radiance":46.56}},{"type":"Feature","geometry":{"type":"Polygon","coordinates":[[[27.25625,61.689583],[27.260417,61.689583],[27.260417,61.69375],[27.25625,61.69375],[27.25625,61.689583]]]},"properties":{"radiance":53.7}},{"type":"Feature","geometry":{"type":"Polygon","coordinates":[[[27.260417,61.689583],[27.264583,61.689583],[27.264583,61.69375],[27.260417,61.69375],[27.260417,61.689583]]]},"properties":{"radiance":66.61}},{"type":"Feature","geometry":{"type":"Polygon","coordinates":[[[27.264583,61.689583],[27.26875,61.689583],[27.26875,61.69375],[27.264583,61.69375],[27.264583,61.689583]]]},"properties":{"radiance":139.79}},{"type":"Feature","geometry":{"type":"Polygon","coordinates":[[[27.26875,61.689583],[27.272917,61.689583],[27.272917,61.69375],[27.26875,61.69375],[27.26875,61.689583]]]},"properties":{"radiance":177.61}},{"type":"Feature","geometry":{"type":"Polygon","coordinates":[[[27.272917,61.689583],[27.277083,61.689583],[27.277083,61.69375],[27.272917,61.69375],[27.272917,61.689583]]]},"properties":{"radiance":130.99}},{"type":"Feature","geometry":{"type":"Polygon","coordinates":[[[27.277083,61.689583],[27.28125,61.689583],[27.28125,61.69375],[27.277083,61.69375],[27.277083,61.689583]]]},"properties":{"radiance":106.9}},{"type":"Feature","geometry":{"type":"Polygon","coordinates":[[[27.28125,61.689583],[27.285417,61.689583],[27.285417,61.69375],[27.28125,61.69375],[27.28125,61.689583]]]},"properties":{"radiance":46.11}},{"type":"Feature","geometry":{"type":"Polygon","coordinates":[[[27.285417,61.689583],[27.289583,61.689583],[27.289583,61.69375],[27.285417,61.69375],[27.285417,61.689583]]]},"properties":{"radiance":39.96}},{"type":"Feature","geometry":{"type":"Polygon","coordinates":[[[27.289583,61.689583],[27.29375,61.689583],[27.29375,61.69375],[27.289583,61.69375],[27.289583,61.689583]]]},"properties":{"radiance":47.48}},{"type":"Feature","geometry":{"type":"Polygon","coordinates":[[[27.29375,61.689583],[27.297917,61.689583],[27.297917,61.69375],[27.29375,61.69375],[27.29375,61.689583]]]},"properties":{"radiance":51.22}},{"type":"Feature","geometry":{"type":"Polygon","coordinates":[[[27.297917,61.689583],[27.302083,61.689583],[27.302083,61.69375],[27.297917,61.69375],[27.297917,61.689583]]]},"properties":{"radiance":17.83}},{"type":"Feature","geometry":{"type":"Polygon","coordinates":[[[27.302083,61.689583],[27.30625,61.689583],[27.30625,61.69375],[27.302083,61.69375],[27.302083,61.689583]]]},"properties":{"radiance":9.96}},{"type":"Feature","geometry":{"type":"Polygon","coordinates":[[[27.202083,61.685417],[27.20625,61.685417],[27.20625,61.689583],[27.202083,61.689583],[27.202083,61.685417]]]},"properties":{"radiance":5.97}},{"type":"Feature","geometry":{"type":"Polygon","coordinates":[[[27.20625,61.685417],[27.210417,61.685417],[27.210417,61.689583],[27.20625,61.689583],[27.20625,61.685417]]]},"properties":{"radiance":16.29}},{"type":"Feature","geometry":{"type":"Polygon","coordinates":[[[27.210417,61.685417],[27.214583,61.685417],[27.214583,61.689583],[27.210417,61.689583],[27.210417,61.685417]]]},"properties":{"radiance":43.67}},{"type":"Feature","geometry":{"type":"Polygon","coordinates":[[[27.214583,61.685417],[27.21875,61.685417],[27.21875,61.689583],[27.214583,61.689583],[27.214583,61.685417]]]},"properties":{"radiance":58.49}},{"type":"Feature","geometry":{"type":"Polygon","coordinates":[[[27.21875,61.685417],[27.222917,61.685417],[27.222917,61.689583],[27.21875,61.689583],[27.21875,61.685417]]]},"properties":{"radiance":41.49}},{"type":"Feature","geometry":{"type":"Polygon","coordinates":[[[27.222917,61.685417],[27.227083,61.685417],[27.227083,61.689583],[27.222917,61.689583],[27.222917,61.685417]]]},"properties":{"radiance":38.1}},{"type":"Feature","geometry":{"type":"Polygon","coordinates":[[[27.227083,61.685417],[27.23125,61.685417],[27.23125,61.689583],[27.227083,61.689583],[27.227083,61.685417]]]},"properties":{"radiance":14.91}},{"type":"Feature","geometry":{"type":"Polygon","coordinates":[[[27.23125,61.685417],[27.235417,61.685417],[27.235417,61.689583],[27.23125,61.689583],[27.23125,61.685417]]]},"properties":{"radiance":11.44}},{"type":"Feature","geometry":{"type":"Polygon","coordinates":[[[27.235417,61.685417],[27.239583,61.685417],[27.239583,61.689583],[27.235417,61.689583],[27.235417,61.685417]]]},"properties":{"radiance":11.18}},{"type":"Feature","geometry":{"type":"Polygon","coordinates":[[[27.239583,61.685417],[27.24375,61.685417],[27.24375,61.689583],[27.239583,61.689583],[27.239583,61.685417]]]},"properties":{"radiance":10.54}},{"type":"Feature","geometry":{"type":"Polygon","coordinates":[[[27.24375,61.685417],[27.247917,61.685417],[27.247917,61.689583],[27.24375,61.689583],[27.24375,61.685417]]]},"properties":{"radiance":12.11}},{"type":"Feature","geometry":{"type":"Polygon","coordinates":[[[27.247917,61.685417],[27.252083,61.685417],[27.252083,61.689583],[27.247917,61.689583],[27.247917,61.685417]]]},"properties":{"radiance":36.1}},{"type":"Feature","geometry":{"type":"Polygon","coordinates":[[[27.252083,61.685417],[27.25625,61.685417],[27.25625,61.689583],[27.252083,61.689583],[27.252083,61.685417]]]},"properties":{"radiance":36.85}},{"type":"Feature","geometry":{"type":"Polygon","coordinates":[[[27.25625,61.685417],[27.260417,61.685417],[27.260417,61.689583],[27.25625,61.689583],[27.25625,61.685417]]]},"properties":{"radiance":50.01}},{"type":"Feature","geometry":{"type":"Polygon","coordinates":[[[27.260417,61.685417],[27.264583,61.685417],[27.264583,61.689583],[27.260417,61.689583],[27.260417,61.685417]]]},"properties":{"radiance":95.51}},{"type":"Feature","geometry":{"type":"Polygon","coordinates":[[[27.264583,61.685417],[27.26875,61.685417],[27.26875,61.689583],[27.264583,61.689583],[27.264583,61.685417]]]},"properties":{"radiance":128.67}},{"type":"Feature","geometry":{"type":"Polygon","coordinates":[[[27.26875,61.685417],[27.272917,61.685417],[27.272917,61.689583],[27.26875,61.689583],[27.26875,61.685417]]]},"properties":{"radiance":143.29}},{"type":"Feature","geometry":{"type":"Polygon","coordinates":[[[27.272917,61.685417],[27.277083,61.685417],[27.277083,61.689583],[27.272917,61.689583],[27.272917,61.685417]]]},"properties":{"radiance":115.48}},{"type":"Feature","geometry":{"type":"Polygon","coordinates":[[[27.277083,61.685417],[27.28125,61.685417],[27.28125,61.689583],[27.277083,61.689583],[27.277083,61.685417]]]},"properties":{"radiance":119.45}},{"type":"Feature","geometry":{"type":"Polygon","coordinates":[[[27.28125,61.685417],[27.285417,61.685417],[27.285417,61.689583],[27.28125,61.689583],[27.28125,61.685417]]]},"properties":{"radiance":37.82}},{"type":"Feature","geometry":{"type":"Polygon","coordinates":[[[27.285417,61.685417],[27.289583,61.685417],[27.289583,61.689583],[27.285417,61.689583],[27.285417,61.685417]]]},"properties":{"radiance":57.56}},{"type":"Feature","geometry":{"type":"Polygon","coordinates":[[[27.289583,61.685417],[27.29375,61.685417],[27.29375,61.689583],[27.289583,61.689583],[27.289583,61.685417]]]},"properties":{"radiance":49.36}},{"type":"Feature","geometry":{"type":"Polygon","coordinates":[[[27.29375,61.685417],[27.297917,61.685417],[27.297917,61.689583],[27.29375,61.689583],[27.29375,61.685417]]]},"properties":{"radiance":52.06}},{"type":"Feature","geometry":{"type":"Polygon","coordinates":[[[27.297917,61.685417],[27.302083,61.685417],[27.302083,61.689583],[27.297917,61.689583],[27.297917,61.685417]]]},"properties":{"radiance":16.6}},{"type":"Feature","geometry":{"type":"Polygon","coordinates":[[[27.302083,61.685417],[27.30625,61.685417],[27.30625,61.689583],[27.302083,61.689583],[27.302083,61.685417]]]},"properties":{"radiance":12.6}},{"type":"Feature","geometry":{"type":"Polygon","coordinates":[[[27.30625,61.685417],[27.310417,61.685417],[27.310417,61.689583],[27.30625,61.689583],[27.30625,61.685417]]]},"properties":{"radiance":5.97}},{"type":"Feature","geometry":{"type":"Polygon","coordinates":[[[27.20625,61.68125],[27.210417,61.68125],[27.210417,61.685417],[27.20625,61.685417],[27.20625,61.68125]]]},"properties":{"radiance":8.84}},{"type":"Feature","geometry":{"type":"Polygon","coordinates":[[[27.210417,61.68125],[27.214583,61.68125],[27.214583,61.685417],[27.210417,61.685417],[27.210417,61.68125]]]},"properties":{"radiance":8.23}},{"type":"Feature","geometry":{"type":"Polygon","coordinates":[[[27.214583,61.68125],[27.21875,61.68125],[27.21875,61.685417],[27.214583,61.685417],[27.214583,61.68125]]]},"properties":{"radiance":48.86}},{"type":"Feature","geometry":{"type":"Polygon","coordinates":[[[27.21875,61.68125],[27.222917,61.68125],[27.222917,61.685417],[27.21875,61.685417],[27.21875,61.68125]]]},"properties":{"radiance":57.23}},{"type":"Feature","geometry":{"type":"Polygon","coordinates":[[[27.222917,61.68125],[27.227083,61.68125],[27.227083,61.685417],[27.222917,61.685417],[27.222917,61.68125]]]},"properties":{"radiance":64.7}},{"type":"Feature","geometry":{"type":"Polygon","coordinates":[[[27.227083,61.68125],[27.23125,61.68125],[27.23125,61.685417],[27.227083,61.685417],[27.227083,61.68125]]]},"properties":{"radiance":67.14}},{"type":"Feature","geometry":{"type":"Polygon","coordinates":[[[27.23125,61.68125],[27.235417,61.68125],[27.235417,61.685417],[27.23125,61.685417],[27.23125,61.68125]]]},"properties":{"radiance":66.5}},{"type":"Feature","geometry":{"type":"Polygon","coordinates":[[[27.235417,61.68125],[27.239583,61.68125],[27.239583,61.685417],[27.235417,61.685417],[27.235417,61.68125]]]},"properties":{"radiance":68.6}},{"type":"Feature","geometry":{"type":"Polygon","coordinates":[[[27.239583,61.68125],[27.24375,61.68125],[27.24375,61.685417],[27.239583,61.685417],[27.239583,61.68125]]]},"properties":{"radiance":91.75}},{"type":"Feature","geometry":{"type":"Polygon","coordinates":[[[27.24375,61.68125],[27.247917,61.68125],[27.247917,61.685417],[27.24375,61.685417],[27.24375,61.68125]]]},"properties":{"radiance":91.71}},{"type":"Feature","geometry":{"type":"Polygon","coordinates":[[[27.247917,61.68125],[27.252083,61.68125],[27.252083,61.685417],[27.247917,61.685417],[27.247917,61.68125]]]},"properties":{"radiance":60.77}},{"type":"Feature","geometry":{"type":"Polygon","coordinates":[[[27.252083,61.68125],[27.25625,61.68125],[27.25625,61.685417],[27.252083,61.685417],[27.252083,61.68125]]]},"properties":{"radiance":82.12}},{"type":"Feature","geometry":{"type":"Polygon","coordinates":[[[27.25625,61.68125],[27.260417,61.68125],[27.260417,61.685417],[27.25625,61.685417],[27.25625,61.68125]]]},"properties":{"radiance":82.16}},{"type":"Feature","geometry":{"type":"Polygon","coordinates":[[[27.260417,61.68125],[27.264583,61.68125],[27.264583,61.685417],[27.260417,61.685417],[27.260417,61.68125]]]},"properties":{"radiance":88.68}},{"type":"Feature","geometry":{"type":"Polygon","coordinates":[[[27.264583,61.68125],[27.26875,61.68125],[27.26875,61.685417],[27.264583,61.685417],[27.264583,61.68125]]]},"properties":{"radiance":87.06}},{"type":"Feature","geometry":{"type":"Polygon","coordinates":[[[27.26875,61.68125],[27.272917,61.68125],[27.272917,61.685417],[27.26875,61.685417],[27.26875,61.68125]]]},"properties":{"radiance":81.04}},{"type":"Feature","geometry":{"type":"Polygon","coordinates":[[[27.272917,61.68125],[27.277083,61.68125],[27.277083,61.685417],[27.272917,61.685417],[27.272917,61.68125]]]},"properties":{"radiance":63.55}},{"type":"Feature","geometry":{"type":"Polygon","coordinates":[[[27.277083,61.68125],[27.28125,61.68125],[27.28125,61.685417],[27.277083,61.685417],[27.277083,61.68125]]]},"properties":{"radiance":51.11}},{"type":"Feature","geometry":{"type":"Polygon","coordinates":[[[27.28125,61.68125],[27.285417,61.68125],[27.285417,61.685417],[27.28125,61.685417],[27.28125,61.68125]]]},"properties":{"radiance":33.1}},{"type":"Feature","geometry":{"type":"Polygon","coordinates":[[[27.285417,61.68125],[27.289583,61.68125],[27.289583,61.685417],[27.285417,61.685417],[27.285417,61.68125]]]},"properties":{"radiance":9.47}},{"type":"Feature","geometry":{"type":"Polygon","coordinates":[[[27.289583,61.68125],[27.29375,61.68125],[27.29375,61.685417],[27.289583,61.685417],[27.289583,61.68125]]]},"properties":{"radiance":14.24}},{"type":"Feature","geometry":{"type":"Polygon","coordinates":[[[27.29375,61.68125],[27.297917,61.68125],[27.297917,61.685417],[27.29375,61.685417],[27.29375,61.68125]]]},"properties":{"radiance":10.38}},{"type":"Feature","geometry":{"type":"Polygon","coordinates":[[[27.297917,61.68125],[27.302083,61.68125],[27.302083,61.685417],[27.297917,61.685417],[27.297917,61.68125]]]},"properties":{"radiance":9.09}},{"type":"Feature","geometry":{"type":"Polygon","coordinates":[[[27.302083,61.68125],[27.30625,61.68125],[27.30625,61.685417],[27.302083,61.685417],[27.302083,61.68125]]]},"properties":{"radiance":6.91}},{"type":"Feature","geometry":{"type":"Polygon","coordinates":[[[27.30625,61.68125],[27.310417,61.68125],[27.310417,61.685417],[27.30625,61.685417],[27.30625,61.68125]]]},"properties":{"radiance":5.64}},{"type":"Feature","geometry":{"type":"Polygon","coordinates":[[[27.189583,61.677083],[27.19375,61.677083],[27.19375,61.68125],[27.189583,61.68125],[27.189583,61.677083]]]},"properties":{"radiance":6.2}},{"type":"Feature","geometry":{"type":"Polygon","coordinates":[[[27.210417,61.677083],[27.214583,61.677083],[27.214583,61.68125],[27.210417,61.68125],[27.210417,61.677083]]]},"properties":{"radiance":5.85}},{"type":"Feature","geometry":{"type":"Polygon","coordinates":[[[27.214583,61.677083],[27.21875,61.677083],[27.21875,61.68125],[27.214583,61.68125],[27.214583,61.677083]]]},"properties":{"radiance":7.73}},{"type":"Feature","geometry":{"type":"Polygon","coordinates":[[[27.21875,61.677083],[27.222917,61.677083],[27.222917,61.68125],[27.21875,61.68125],[27.21875,61.677083]]]},"properties":{"radiance":12.68}},{"type":"Feature","geometry":{"type":"Polygon","coordinates":[[[27.222917,61.677083],[27.227083,61.677083],[27.227083,61.68125],[27.222917,61.68125],[27.222917,61.677083]]]},"properties":{"radiance":46.83}},{"type":"Feature","geometry":{"type":"Polygon","coordinates":[[[27.227083,61.677083],[27.23125,61.677083],[27.23125,61.68125],[27.227083,61.68125],[27.227083,61.677083]]]},"properties":{"radiance":57.85}},{"type":"Feature","geometry":{"type":"Polygon","coordinates":[[[27.23125,61.677083],[27.235417,61.677083],[27.235417,61.68125],[27.23125,61.68125],[27.23125,61.677083]]]},"properties":{"radiance":81.48}},{"type":"Feature","geometry":{"type":"Polygon","coordinates":[[[27.235417,61.677083],[27.239583,61.677083],[27.239583,61.68125],[27.235417,61.68125],[27.235417,61.677083]]]},"properties":{"radiance":87.51}},{"type":"Feature","geometry":{"type":"Polygon","coordinates":[[[27.239583,61.677083],[27.24375,61.677083],[27.24375,61.68125],[27.239583,61.68125],[27.239583,61.677083]]]},"properties":{"radiance":122.56}},{"type":"Feature","geometry":{"type":"Polygon","coordinates":[[[27.24375,61.677083],[27.247917,61.677083],[27.247917,61.68125],[27.24375,61.68125],[27.24375,61.677083]]]},"properties":{"radiance":122.24}},{"type":"Feature","geometry":{"type":"Polygon","coordinates":[[[27.247917,61.677083],[27.252083,61.677083],[27.252083,61.68125],[27.247917,61.68125],[27.247917,61.677083]]]},"properties":{"radiance":92.95}},{"type":"Feature","geometry":{"type":"Polygon","coordinates":[[[27.252083,61.677083],[27.25625,61.677083],[27.25625,61.68125],[27.252083,61.68125],[27.252083,61.677083]]]},"properties":{"radiance":76.95}},{"type":"Feature","geometry":{"type":"Polygon","coordinates":[[[27.25625,61.677083],[27.260417,61.677083],[27.260417,61.68125],[27.25625,61.68125],[27.25625,61.677083]]]},"properties":{"radiance":71.37}},{"type":"Feature","geometry":{"type":"Polygon","coordinates":[[[27.260417,61.677083],[27.264583,61.677083],[27.264583,61.68125],[27.260417,61.68125],[27.260417,61.677083]]]},"properties":{"radiance":66.38}},{"type":"Feature","geometry":{"type":"Polygon","coordinates":[[[27.264583,61.677083],[27.26875,61.677083],[27.26875,61.68125],[27.264583,61.68125],[27.264583,61.677083]]]},"properties":{"radiance":12.67}},{"type":"Feature","geometry":{"type":"Polygon","coordinates":[[[27.26875,61.677083],[27.272917,61.677083],[27.272917,61.68125],[27.26875,61.68125],[27.26875,61.677083]]]},"properties":{"radiance":33.16}},{"type":"Feature","geometry":{"type":"Polygon","coordinates":[[[27.272917,61.677083],[27.277083,61.677083],[27.277083,61.68125],[27.272917,61.68125],[27.272917,61.677083]]]},"properties":{"radiance":19.64}},{"type":"Feature","geometry":{"type":"Polygon","coordinates":[[[27.277083,61.677083],[27.28125,61.677083],[27.28125,61.68125],[27.277083,61.68125],[27.277083,61.677083]]]},"properties":{"radiance":14.59}},{"type":"Feature","geometry":{"type":"Polygon","coordinates":[[[27.28125,61.677083],[27.285417,61.677083],[27.285417,61.68125],[27.28125,61.68125],[27.28125,61.677083]]]},"properties":{"radiance":20.96}},{"type":"Feature","geometry":{"type":"Polygon","coordinates":[[[27.285417,61.677083],[27.289583,61.677083],[27.289583,61.68125],[27.285417,61.68125],[27.285417,61.677083]]]},"properties":{"radiance":29.73}},{"type":"Feature","geometry":{"type":"Polygon","coordinates":[[[27.289583,61.677083],[27.29375,61.677083],[27.29375,61.68125],[27.289583,61.68125],[27.289583,61.677083]]]},"properties":{"radiance":34.05}},{"type":"Feature","geometry":{"type":"Polygon","coordinates":[[[27.29375,61.677083],[27.297917,61.677083],[27.297917,61.68125],[27.29375,61.68125],[27.29375,61.677083]]]},"properties":{"radiance":6.1}},{"type":"Feature","geometry":{"type":"Polygon","coordinates":[[[27.052083,61.672917],[27.05625,61.672917],[27.05625,61.677083],[27.052083,61.677083],[27.052083,61.672917]]]},"properties":{"radiance":20.96}},{"type":"Feature","geometry":{"type":"Polygon","coordinates":[[[27.05625,61.672917],[27.060417,61.672917],[27.060417,61.677083],[27.05625,61.677083],[27.05625,61.672917]]]},"properties":{"radiance":26.52}},{"type":"Feature","geometry":{"type":"Polygon","coordinates":[[[27.060417,61.672917],[27.064583,61.672917],[27.064583,61.677083],[27.060417,61.677083],[27.060417,61.672917]]]},"properties":{"radiance":6.92}},{"type":"Feature","geometry":{"type":"Polygon","coordinates":[[[27.214583,61.672917],[27.21875,61.672917],[27.21875,61.677083],[27.214583,61.677083],[27.214583,61.672917]]]},"properties":{"radiance":5.38}},{"type":"Feature","geometry":{"type":"Polygon","coordinates":[[[27.21875,61.672917],[27.222917,61.672917],[27.222917,61.677083],[27.21875,61.677083],[27.21875,61.672917]]]},"properties":{"radiance":6.74}},{"type":"Feature","geometry":{"type":"Polygon","coordinates":[[[27.222917,61.672917],[27.227083,61.672917],[27.227083,61.677083],[27.222917,61.677083],[27.222917,61.672917]]]},"properties":{"radiance":6.53}},{"type":"Feature","geometry":{"type":"Polygon","coordinates":[[[27.227083,61.672917],[27.23125,61.672917],[27.23125,61.677083],[27.227083,61.677083],[27.227083,61.672917]]]},"properties":{"radiance":9.99}},{"type":"Feature","geometry":{"type":"Polygon","coordinates":[[[27.23125,61.672917],[27.235417,61.672917],[27.235417,61.677083],[27.23125,61.677083],[27.23125,61.672917]]]},"properties":{"radiance":28.8}},{"type":"Feature","geometry":{"type":"Polygon","coordinates":[[[27.235417,61.672917],[27.239583,61.672917],[27.239583,61.677083],[27.235417,61.677083],[27.235417,61.672917]]]},"properties":{"radiance":30.76}},{"type":"Feature","geometry":{"type":"Polygon","coordinates":[[[27.239583,61.672917],[27.24375,61.672917],[27.24375,61.677083],[27.239583,61.677083],[27.239583,61.672917]]]},"properties":{"radiance":31.03}},{"type":"Feature","geometry":{"type":"Polygon","coordinates":[[[27.24375,61.672917],[27.247917,61.672917],[27.247917,61.677083],[27.24375,61.677083],[27.24375,61.672917]]]},"properties":{"radiance":11.77}},{"type":"Feature","geometry":{"type":"Polygon","coordinates":[[[27.252083,61.672917],[27.25625,61.672917],[27.25625,61.677083],[27.252083,61.677083],[27.252083,61.672917]]]},"properties":{"radiance":11.08}},{"type":"Feature","geometry":{"type":"Polygon","coordinates":[[[27.25625,61.672917],[27.260417,61.672917],[27.260417,61.677083],[27.25625,61.677083],[27.25625,61.672917]]]},"properties":{"radiance":7.83}},{"type":"Feature","geometry":{"type":"Polygon","coordinates":[[[27.260417,61.672917],[27.264583,61.672917],[27.264583,61.677083],[27.260417,61.677083],[27.260417,61.672917]]]},"properties":{"radiance":8.03}},{"type":"Feature","geometry":{"type":"Polygon","coordinates":[[[27.264583,61.672917],[27.26875,61.672917],[27.26875,61.677083],[27.264583,61.677083],[27.264583,61.672917]]]},"properties":{"radiance":8.2}},{"type":"Feature","geometry":{"type":"Polygon","coordinates":[[[27.26875,61.672917],[27.272917,61.672917],[27.272917,61.677083],[27.26875,61.677083],[27.26875,61.672917]]]},"properties":{"radiance":9.04}},{"type":"Feature","geometry":{"type":"Polygon","coordinates":[[[27.272917,61.672917],[27.277083,61.672917],[27.277083,61.677083],[27.272917,61.677083],[27.272917,61.672917]]]},"properties":{"radiance":20.35}},{"type":"Feature","geometry":{"type":"Polygon","coordinates":[[[27.277083,61.672917],[27.28125,61.672917],[27.28125,61.677083],[27.277083,61.677083],[27.277083,61.672917]]]},"properties":{"radiance":23.41}},{"type":"Feature","geometry":{"type":"Polygon","coordinates":[[[27.28125,61.672917],[27.285417,61.672917],[27.285417,61.677083],[27.28125,61.677083],[27.28125,61.672917]]]},"properties":{"radiance":24.57}},{"type":"Feature","geometry":{"type":"Polygon","coordinates":[[[27.285417,61.672917],[27.289583,61.672917],[27.289583,61.677083],[27.285417,61.677083],[27.285417,61.672917]]]},"properties":{"radiance":68.91}},{"type":"Feature","geometry":{"type":"Polygon","coordinates":[[[27.289583,61.672917],[27.29375,61.672917],[27.29375,61.677083],[27.289583,61.677083],[27.289583,61.672917]]]},"properties":{"radiance":16.85}},{"type":"Feature","geometry":{"type":"Polygon","coordinates":[[[27.29375,61.672917],[27.297917,61.672917],[27.297917,61.677083],[27.29375,61.677083],[27.29375,61.672917]]]},"properties":{"radiance":8.9}},{"type":"Feature","geometry":{"type":"Polygon","coordinates":[[[27.297917,61.672917],[27.302083,61.672917],[27.302083,61.677083],[27.297917,61.677083],[27.297917,61.672917]]]},"properties":{"radiance":7.45}},{"type":"Feature","geometry":{"type":"Polygon","coordinates":[[[27.052083,61.66875],[27.05625,61.66875],[27.05625,61.672917],[27.052083,61.672917],[27.052083,61.66875]]]},"properties":{"radiance":12.39}},{"type":"Feature","geometry":{"type":"Polygon","coordinates":[[[27.05625,61.66875],[27.060417,61.66875],[27.060417,61.672917],[27.05625,61.672917],[27.05625,61.66875]]]},"properties":{"radiance":20.16}},{"type":"Feature","geometry":{"type":"Polygon","coordinates":[[[27.060417,61.66875],[27.064583,61.66875],[27.064583,61.672917],[27.060417,61.672917],[27.060417,61.66875]]]},"properties":{"radiance":38.58}},{"type":"Feature","geometry":{"type":"Polygon","coordinates":[[[27.064583,61.66875],[27.06875,61.66875],[27.06875,61.672917],[27.064583,61.672917],[27.064583,61.66875]]]},"properties":{"radiance":11.25}},{"type":"Feature","geometry":{"type":"Polygon","coordinates":[[[27.21875,61.66875],[27.222917,61.66875],[27.222917,61.672917],[27.21875,61.672917],[27.21875,61.66875]]]},"properties":{"radiance":7.28}},{"type":"Feature","geometry":{"type":"Polygon","coordinates":[[[27.222917,61.66875],[27.227083,61.66875],[27.227083,61.672917],[27.222917,61.672917],[27.222917,61.66875]]]},"properties":{"radiance":7.07}},{"type":"Feature","geometry":{"type":"Polygon","coordinates":[[[27.227083,61.66875],[27.23125,61.66875],[27.23125,61.672917],[27.227083,61.672917],[27.227083,61.66875]]]},"properties":{"radiance":6.04}},{"type":"Feature","geometry":{"type":"Polygon","coordinates":[[[27.23125,61.66875],[27.235417,61.66875],[27.235417,61.672917],[27.23125,61.672917],[27.23125,61.66875]]]},"properties":{"radiance":5.44}},{"type":"Feature","geometry":{"type":"Polygon","coordinates":[[[27.260417,61.66875],[27.264583,61.66875],[27.264583,61.672917],[27.260417,61.672917],[27.260417,61.66875]]]},"properties":{"radiance":5.02}},{"type":"Feature","geometry":{"type":"Polygon","coordinates":[[[27.26875,61.66875],[27.272917,61.66875],[27.272917,61.672917],[27.26875,61.672917],[27.26875,61.66875]]]},"properties":{"radiance":6.73}},{"type":"Feature","geometry":{"type":"Polygon","coordinates":[[[27.272917,61.66875],[27.277083,61.66875],[27.277083,61.672917],[27.272917,61.672917],[27.272917,61.66875]]]},"properties":{"radiance":10.56}},{"type":"Feature","geometry":{"type":"Polygon","coordinates":[[[27.277083,61.66875],[27.28125,61.66875],[27.28125,61.672917],[27.277083,61.672917],[27.277083,61.66875]]]},"properties":{"radiance":27.72}},{"type":"Feature","geometry":{"type":"Polygon","coordinates":[[[27.28125,61.66875],[27.285417,61.66875],[27.285417,61.672917],[27.28125,61.672917],[27.28125,61.66875]]]},"properties":{"radiance":57.4}},{"type":"Feature","geometry":{"type":"Polygon","coordinates":[[[27.285417,61.66875],[27.289583,61.66875],[27.289583,61.672917],[27.285417,61.672917],[27.285417,61.66875]]]},"properties":{"radiance":63.9}},{"type":"Feature","geometry":{"type":"Polygon","coordinates":[[[27.289583,61.66875],[27.29375,61.66875],[27.29375,61.672917],[27.289583,61.672917],[27.289583,61.66875]]]},"properties":{"radiance":10.65}},{"type":"Feature","geometry":{"type":"Polygon","coordinates":[[[27.29375,61.66875],[27.297917,61.66875],[27.297917,61.672917],[27.29375,61.672917],[27.29375,61.66875]]]},"properties":{"radiance":9.32}},{"type":"Feature","geometry":{"type":"Polygon","coordinates":[[[27.297917,61.66875],[27.302083,61.66875],[27.302083,61.672917],[27.297917,61.672917],[27.297917,61.66875]]]},"properties":{"radiance":7.51}},{"type":"Feature","geometry":{"type":"Polygon","coordinates":[[[27.05625,61.664583],[27.060417,61.664583],[27.060417,61.66875],[27.05625,61.66875],[27.05625,61.664583]]]},"properties":{"radiance":6.35}},{"type":"Feature","geometry":{"type":"Polygon","coordinates":[[[27.060417,61.664583],[27.064583,61.664583],[27.064583,61.66875],[27.060417,61.66875],[27.060417,61.664583]]]},"properties":{"radiance":9.14}},{"type":"Feature","geometry":{"type":"Polygon","coordinates":[[[27.064583,61.664583],[27.06875,61.664583],[27.06875,61.66875],[27.064583,61.66875],[27.064583,61.664583]]]},"properties":{"radiance":6.91}},{"type":"Feature","geometry":{"type":"Polygon","coordinates":[[[27.26875,61.664583],[27.272917,61.664583],[27.272917,61.66875],[27.26875,61.66875],[27.26875,61.664583]]]},"properties":{"radiance":6.15}},{"type":"Feature","geometry":{"type":"Polygon","coordinates":[[[27.272917,61.664583],[27.277083,61.664583],[27.277083,61.66875],[27.272917,61.66875],[27.272917,61.664583]]]},"properties":{"radiance":8.17}},{"type":"Feature","geometry":{"type":"Polygon","coordinates":[[[27.277083,61.664583],[27.28125,61.664583],[27.28125,61.66875],[27.277083,61.66875],[27.277083,61.664583]]]},"properties":{"radiance":11.08}},{"type":"Feature","geometry":{"type":"Polygon","coordinates":[[[27.28125,61.664583],[27.285417,61.664583],[27.285417,61.66875],[27.28125,61.66875],[27.28125,61.664583]]]},"properties":{"radiance":11.32}},{"type":"Feature","geometry":{"type":"Polygon","coordinates":[[[27.285417,61.664583],[27.289583,61.664583],[27.289583,61.66875],[27.285417,61.66875],[27.285417,61.664583]]]},"properties":{"radiance":7.53}},{"type":"Feature","geometry":{"type":"Polygon","coordinates":[[[27.289583,61.664583],[27.29375,61.664583],[27.29375,61.66875],[27.289583,61.66875],[27.289583,61.664583]]]},"properties":{"radiance":5.66}},{"type":"Feature","geometry":{"type":"Polygon","coordinates":[[[27.29375,61.664583],[27.297917,61.664583],[27.297917,61.66875],[27.29375,61.66875],[27.29375,61.664583]]]},"properties":{"radiance":5.42}},{"type":"Feature","geometry":{"type":"Polygon","coordinates":[[[27.147917,61.660417],[27.152083,61.660417],[27.152083,61.664583],[27.147917,61.664583],[27.147917,61.660417]]]},"properties":{"radiance":6.21}},{"type":"Feature","geometry":{"type":"Polygon","coordinates":[[[27.152083,61.660417],[27.15625,61.660417],[27.15625,61.664583],[27.152083,61.664583],[27.152083,61.660417]]]},"properties":{"radiance":6.23}},{"type":"Feature","geometry":{"type":"Polygon","coordinates":[[[27.26875,61.660417],[27.272917,61.660417],[27.272917,61.664583],[27.26875,61.664583],[27.26875,61.660417]]]},"properties":{"radiance":5.09}},{"type":"Feature","geometry":{"type":"Polygon","coordinates":[[[27.272917,61.660417],[27.277083,61.660417],[27.277083,61.664583],[27.272917,61.664583],[27.272917,61.660417]]]},"properties":{"radiance":5.52}},{"type":"Feature","geometry":{"type":"Polygon","coordinates":[[[27.277083,61.660417],[27.28125,61.660417],[27.28125,61.664583],[27.277083,61.664583],[27.277083,61.660417]]]},"properties":{"radiance":5.36}},{"type":"Feature","geometry":{"type":"Polygon","coordinates":[[[27.14375,61.65625],[27.147917,61.65625],[27.147917,61.660417],[27.14375,61.660417],[27.14375,61.65625]]]},"properties":{"radiance":24.9}},{"type":"Feature","geometry":{"type":"Polygon","coordinates":[[[27.25625,61.65625],[27.260417,61.65625],[27.260417,61.660417],[27.25625,61.660417],[27.25625,61.65625]]]},"properties":{"radiance":6.28}},{"type":"Feature","geometry":{"type":"Polygon","coordinates":[[[27.260417,61.65625],[27.264583,61.65625],[27.264583,61.660417],[27.260417,61.660417],[27.260417,61.65625]]]},"properties":{"radiance":6.14}},{"type":"Feature","geometry":{"type":"Polygon","coordinates":[[[27.252083,61.652083],[27.25625,61.652083],[27.25625,61.65625],[27.252083,61.65625],[27.252083,61.652083]]]},"properties":{"radiance":7.2}},{"type":"Feature","geometry":{"type":"Polygon","coordinates":[[[27.25625,61.652083],[27.260417,61.652083],[27.260417,61.65625],[27.25625,61.65625],[27.25625,61.652083]]]},"properties":{"radiance":8.41}},{"type":"Feature","geometry":{"type":"Polygon","coordinates":[[[27.260417,61.652083],[27.264583,61.652083],[27.264583,61.65625],[27.260417,61.65625],[27.260417,61.652083]]]},"properties":{"radiance":8.04}},{"type":"Feature","geometry":{"type":"Polygon","coordinates":[[[27.252083,61.647917],[27.25625,61.647917],[27.25625,61.652083],[27.252083,61.652083],[27.252083,61.647917]]]},"properties":{"radiance":7.06}},{"type":"Feature","geometry":{"type":"Polygon","coordinates":[[[27.25625,61.647917],[27.260417,61.647917],[27.260417,61.652083],[27.25625,61.652083],[27.25625,61.647917]]]},"properties":{"radiance":6.95}},{"type":"Feature","geometry":{"type":"Polygon","coordinates":[[[27.260417,61.647917],[27.264583,61.647917],[27.264583,61.652083],[27.260417,61.652083],[27.260417,61.647917]]]},"properties":{"radiance":6.17}},{"type":"Feature","geometry":{"type":"Polygon","coordinates":[[[26.764583,61.64375],[26.76875,61.64375],[26.76875,61.647917],[26.764583,61.647917],[26.764583,61.64375]]]},"properties":{"radiance":20.11}},{"type":"Feature","geometry":{"type":"Polygon","coordinates":[[[26.76875,61.64375],[26.772917,61.64375],[26.772917,61.647917],[26.76875,61.647917],[26.76875,61.64375]]]},"properties":{"radiance":6.06}},{"type":"Feature","geometry":{"type":"Polygon","coordinates":[[[26.772917,61.64375],[26.777083,61.64375],[26.777083,61.647917],[26.772917,61.647917],[26.772917,61.64375]]]},"properties":{"radiance":5.27}}]}