{"type":"FeatureCollection","features":[{"type":"Feature","geometry":{"type":"Polygon","coordinates":[[[19.922917,60.13125],[19.927083,60.13125],[19.927083,60.135417],[19.922917,60.135417],[19.922917,60.13125]]]},"properties":{"radiance":12.66}},{"type":"Feature","geometry":{"type":"Polygon","coordinates":[[[19.927083,60.13125],[19.93125,60.13125],[19.93125,60.135417],[19.927083,60.135417],[19.927083,60.13125]]]},"properties":{"radiance":14.86}},{"type":"Feature","geometry":{"type":"Polygon","coordinates":[[[19.93125,60.13125],[19.935417,60.13125],[19.935417,60.135417],[19.93125,60.135417],[19.93125,60.13125]]]},"properties":{"radiance":20.94}},{"type":"Feature","geometry":{"type":"Polygon","coordinates":[[[19.935417,60.13125],[19.939583,60.13125],[19.939583,60.135417],[19.935417,60.135417],[19.935417,60.13125]]]},"properties":{"radiance":14.99}},{"type":"Feature","geometry":{"type":"Polygon","coordinates":[[[19.939583,60.13125],[19.94375,60.13125],[19.94375,60.135417],[19.939583,60.135417],[19.939583,60.13125]]]},"properties":{"radiance":12.55}},{"type":"Feature","geometry":{"type":"Polygon","coordinates":[[[19.94375,60.13125],[19.947917,60.13125],[19.947917,60.135417],[19.94375,60.135417],[19.94375,60.13125]]]},"properties":{"radiance":9.44}},{"type":"Feature","geometry":{"type":"Polygon","coordinates":[[[19.91875,60.127083],[19.922917,60.127083],[19.922917,60.13125],[19.91875,60.13125],[19.91875,60.127083]]]},"properties":{"radiance":6.08}},{"type":"Feature","geometry":{"type":"Polygon","coordinates":[[[19.922917,60.127083],[19.927083,60.127083],[19.927083,60.13125],[19.922917,60.13125],[19.922917,60.127083]]]},"properties":{"radiance":8.66}},{"type":"Feature","geometry":{"type":"Polygon","coordinates":[[[19.927083,60.127083],[19.93125,60.127083],[19.93125,60.13125],[19.927083,60.13125],[19.927083,60.127083]]]},"properties":{"radiance":15.57}},{"type":"Feature","geometry":{"type":"Polygon","coordinates":[[[19.93125,60.127083],[19.935417,60.127083],[19.935417,60.13125],[19.93125,60.13125],[19.93125,60.127083]]]},"properties":{"radiance":19.8}},{"type":"Feature","geometry":{"type":"Polygon","coordinates":[[[19.935417,60.127083],[19.939583,60.127083],[19.939583,60.13125],[19.935417,60.13125],[19.935417,60.127083]]]},"properties":{"radiance":18.21}},{"type":"Feature","geometry":{"type":"Polygon","coordinates":[[[19.939583,60.127083],[19.94375,60.127083],[19.94375,60.13125],[19.939583,60.13125],[19.939583,60.127083]]]},"properties":{"radiance":14.87}},{"type":"Feature","geometry":{"type":"Polygon","coordinates":[[[19.94375,60.127083],[19.947917,60.127083],[19.947917,60.13125],[19.94375,60.13125],[19.94375,60.127083]]]},"properties":{"radiance":9.79}},{"type":"Feature","geometry":{"type":"Polygon","coordinates":[[[19.947917,60.127083],[19.952083,60.127083],[19.952083,60.13125],[19.947917,60.13125],[19.947917,60.127083]]]},"properties":{"radiance":8.11}},{"type":"Feature","geometry":{"type":"Polygon","coordinates":[[[19.952083,60.127083],[19.95625,60.127083],[19.95625,60.13125],[19.952083,60.13125],[19.952083,60.127083]]]},"properties":{"radiance":7.19}},{"type":"Feature","geometry":{"type":"Polygon","coordinates":[[[19.902083,60.122917],[19.90625,60.122917],[19.90625,60.127083],[19.902083,60.127083],[19.902083,60.122917]]]},"properties":{"radiance":9.01}},{"type":"Feature","geometry":{"type":"Polygon","coordinates":[[[19.90625,60.122917],[19.910417,60.122917],[19.910417,60.127083],[19.90625,60.127083],[19.90625,60.122917]]]},"properties":{"radiance":12.14}},{"type":"Feature","geometry":{"type":"Polygon","coordinates":[[[19.910417,60.122917],[19.914583,60.122917],[19.914583,60.127083],[19.910417,60.127083],[19.910417,60.122917]]]},"properties":{"radiance":11.21}},{"type":"Feature","geometry":{"type":"Polygon","coordinates":[[[19.914583,60.122917],[19.91875,60.122917],[19.91875,60.127083],[19.914583,60.127083],[19.914583,60.122917]]]},"properties":{"radiance":5.67}},{"type":"Feature","geometry":{"type":"Polygon","coordinates":[[[19.91875,60.122917],[19.922917,60.122917],[19.922917,60.127083],[19.91875,60.127083],[19.91875,60.122917]]]},"properties":{"radiance":10}},{"type":"Feature","geometry":{"type":"Polygon","coordinates":[[[19.922917,60.122917],[19.927083,60.122917],[19.927083,60.127083],[19.922917,60.127083],[19.922917,60.122917]]]},"properties":{"radiance":9.88}},{"type":"Feature","geometry":{"type":"Polygon","coordinates":[[[19.927083,60.122917],[19.93125,60.122917],[19.93125,60.127083],[19.927083,60.127083],[19.927083,60.122917]]]},"properties":{"radiance":13.03}},{"type":"Feature","geometry":{"type":"Polygon","coordinates":[[[19.93125,60.122917],[19.935417,60.122917],[19.935417,60.127083],[19.93125,60.127083],[19.93125,60.122917]]]},"properties":{"radiance":16.67}},{"type":"Feature","geometry":{"type":"Polygon","coordinates":[[[19.935417,60.122917],[19.939583,60.122917],[19.939583,60.127083],[19.935417,60.127083],[19.935417,60.122917]]]},"properties":{"radiance":16.98}},{"type":"Feature","geometry":{"type":"Polygon","coordinates":[[[19.939583,60.122917],[19.94375,60.122917],[19.94375,60.127083],[19.939583,60.127083],[19.939583,60.122917]]]},"properties":{"radiance":15.77}},{"type":"Feature","geometry":{"type":"Polygon","coordinates":[[[19.94375,60.122917],[19.947917,60.122917],[19.947917,60.127083],[19.94375,60.127083],[19.94375,60.122917]]]},"properties":{"radiance":15.33}},{"type":"Feature","geometry":{"type":"Polygon","coordinates":[[[19.947917,60.122917],[19.952083,60.122917],[19.952083,60.127083],[19.947917,60.127083],[19.947917,60.122917]]]},"properties":{"radiance":14.1}},{"type":"Feature","geometry":{"type":"Polygon","coordinates":[[[19.952083,60.122917],[19.95625,60.122917],[19.95625,60.127083],[19.952083,60.127083],[19.952083,60.122917]]]},"properties":{"radiance":13.93}},{"type":"Feature","geometry":{"type":"Polygon","coordinates":[[[19.95625,60.122917],[19.960417,60.122917],[19.960417,60.127083],[19.95625,60.127083],[19.95625,60.122917]]]},"properties":{"radiance":6.42}},{"type":"Feature","geometry":{"type":"Polygon","coordinates":[[[19.90625,60.11875],[19.910417,60.11875],[19.910417,60.122917],[19.90625,60.122917],[19.90625,60.11875]]]},"properties":{"radiance":10.13}},{"type":"Feature","geometry":{"type":"Polygon","coordinates":[[[19.910417,60.11875],[19.914583,60.11875],[19.914583,60.122917],[19.910417,60.122917],[19.910417,60.11875]]]},"properties":{"radiance":11.9}},{"type":"Feature","geometry":{"type":"Polygon","coordinates":[[[19.914583,60.11875],[19.91875,60.11875],[19.91875,60.122917],[19.914583,60.122917],[19.914583,60.11875]]]},"properties":{"radiance":9.61}},{"type":"Feature","geometry":{"type":"Polygon","coordinates":[[[19.91875,60.11875],[19.922917,60.11875],[19.922917,60.122917],[19.91875,60.122917],[19.91875,60.11875]]]},"properties":{"radiance":9.46}},{"type":"Feature","geometry":{"type":"Polygon","coordinates":[[[19.922917,60.11875],[19.927083,60.11875],[19.927083,60.122917],[19.922917,60.122917],[19.922917,60.11875]]]},"properties":{"radiance":11.84}},{"type":"Feature","geometry":{"type":"Polygon","coordinates":[[[19.927083,60.11875],[19.93125,60.11875],[19.93125,60.122917],[19.927083,60.122917],[19.927083,60.11875]]]},"properties":{"radiance":16.87}},{"type":"Feature","geometry":{"type":"Polygon","coordinates":[[[19.93125,60.11875],[19.935417,60.11875],[19.935417,60.122917],[19.93125,60.122917],[19.93125,60.11875]]]},"properties":{"radiance":19.85}},{"type":"Feature","geometry":{"type":"Polygon","coordinates":[[[19.935417,60.11875],[19.939583,60.11875],[19.939583,60.122917],[19.935417,60.122917],[19.935417,60.11875]]]},"properties":{"radiance":19.15}},{"type":"Feature","geometry":{"type":"Polygon","coordinates":[[[19.939583,60.11875],[19.94375,60.11875],[19.94375,60.122917],[19.939583,60.122917],[19.939583,60.11875]]]},"properties":{"radiance":15.3}},{"type":"Feature","geometry":{"type":"Polygon","coordinates":[[[19.94375,60.11875],[19.947917,60.11875],[19.947917,60.122917],[19.94375,60.122917],[19.94375,60.11875]]]},"properties":{"radiance":15.17}},{"type":"Feature","geometry":{"type":"Polygon","coordinates":[[[19.947917,60.11875],[19.952083,60.11875],[19.952083,60.122917],[19.947917,60.122917],[19.947917,60.11875]]]},"properties":{"radiance":15.32}},{"type":"Feature","geometry":{"type":"Polygon","coordinates":[[[19.952083,60.11875],[19.95625,60.11875],[19.95625,60.122917],[19.952083,60.122917],[19.952083,60.11875]]]},"properties":{"radiance":11.07}},{"type":"Feature","geometry":{"type":"Polygon","coordinates":[[[19.95625,60.11875],[19.960417,60.11875],[19.960417,60.122917],[19.95625,60.122917],[19.95625,60.11875]]]},"properties":{"radiance":6.87}},{"type":"Feature","geometry":{"type":"Polygon","coordinates":[[[19.90625,60.114583],[19.910417,60.114583],[19.910417,60.11875],[19.90625,60.11875],[19.90625,60.114583]]]},"properties":{"radiance":7.63}},{"type":"Feature","geometry":{"type":"Polygon","coordinates":[[[19.910417,60.114583],[19.914583,60.114583],[19.914583,60.11875],[19.910417,60.11875],[19.910417,60.114583]]]},"properties":{"radiance":9.08}},{"type":"Feature","geometry":{"type":"Polygon","coordinates":[[[19.914583,60.114583],[19.91875,60.114583],[19.91875,60.11875],[19.914583,60.11875],[19.914583,60.114583]]]},"properties":{"radiance":11.1}},{"type":"Feature","geometry":{"type":"Polygon","coordinates":[[[19.91875,60.114583],[19.922917,60.114583],[19.922917,60.11875],[19.91875,60.11875],[19.91875,60.114583]]]},"properties":{"radiance":13.58}},{"type":"Feature","geometry":{"type":"Polygon","coordinates":[[[19.922917,60.114583],[19.927083,60.114583],[19.927083,60.11875],[19.922917,60.11875],[19.922917,60.114583]]]},"properties":{"radiance":17.54}},{"type":"Feature","geometry":{"type":"Polygon","coordinates":[[[19.927083,60.114583],[19.93125,60.114583],[19.93125,60.11875],[19.927083,60.11875],[19.927083,60.114583]]]},"properties":{"radiance":24.16}},{"type":"Feature","geometry":{"type":"Polygon","coordinates":[[[19.93125,60.114583],[19.935417,60.114583],[19.935417,60.11875],[19.93125,60.11875],[19.93125,60.114583]]]},"properties":{"radiance":24.93}},{"type":"Feature","geometry":{"type":"Polygon","coordinates":[[[19.935417,60.114583],[19.939583,60.114583],[19.939583,60.11875],[19.935417,60.11875],[19.935417,60.114583]]]},"properties":{"radiance":21.64}},{"type":"Feature","geometry":{"type":"Polygon","coordinates":[[[19.939583,60.114583],[19.94375,60.114583],[19.94375,60.11875],[19.939583,60.11875],[19.939583,60.114583]]]},"properties":{"radiance":17.38}},{"type":"Feature","geometry":{"type":"Polygon","coordinates":[[[19.94375,60.114583],[19.947917,60.114583],[19.947917,60.11875],[19.94375,60.11875],[19.94375,60.114583]]]},"properties":{"radiance":13.94}},{"type":"Feature","geometry":{"type":"Polygon","coordinates":[[[19.947917,60.114583],[19.952083,60.114583],[19.952083,60.11875],[19.947917,60.11875],[19.947917,60.114583]]]},"properties":{"radiance":11.04}},{"type":"Feature","geometry":{"type":"Polygon","coordinates":[[[19.952083,60.114583],[19.95625,60.114583],[19.95625,60.11875],[19.952083,60.11875],[19.952083,60.114583]]]},"properties":{"radiance":6.53}},{"type":"Feature","geometry":{"type":"Polygon","coordinates":[[[19.90625,60.110417],[19.910417,60.110417],[19.910417,60.114583],[19.90625,60.114583],[19.90625,60.110417]]]},"properties":{"radiance":8.08}},{"type":"Feature","geometry":{"type":"Polygon","coordinates":[[[19.910417,60.110417],[19.914583,60.110417],[19.914583,60.114583],[19.910417,60.114583],[19.910417,60.110417]]]},"properties":{"radiance":10.32}},{"type":"Feature","geometry":{"type":"Polygon","coordinates":[[[19.914583,60.110417],[19.91875,60.110417],[19.91875,60.114583],[19.914583,60.114583],[19.914583,60.110417]]]},"properties":{"radiance":13.15}},{"type":"Feature","geometry":{"type":"Polygon","coordinates":[[[19.922917,60.110417],[19.927083,60.110417],[19.927083,60.114583],[19.922917,60.114583],[19.922917,60.110417]]]},"properties":{"radiance":18.13}},{"type":"Feature","geometry":{"type":"Polygon","coordinates":[[[19.927083,60.110417],[19.93125,60.110417],[19.93125,60.114583],[19.927083,60.114583],[19.927083,60.110417]]]},"properties":{"radiance":21.8}},{"type":"Feature","geometry":{"type":"Polygon","coordinates":[[[19.93125,60.110417],[19.935417,60.110417],[19.935417,60.114583],[19.93125,60.114583],[19.93125,60.110417]]]},"properties":{"radiance":21.13}},{"type":"Feature","geometry":{"type":"Polygon","coordinates":[[[19.935417,60.110417],[19.939583,60.110417],[19.939583,60.114583],[19.935417,60.114583],[19.935417,60.110417]]]},"properties":{"radiance":17.2}},{"type":"Feature","geometry":{"type":"Polygon","coordinates":[[[19.939583,60.110417],[19.94375,60.110417],[19.94375,60.114583],[19.939583,60.114583],[19.939583,60.110417]]]},"properties":{"radiance":14.93}},{"type":"Feature","geometry":{"type":"Polygon","coordinates":[[[19.94375,60.110417],[19.947917,60.110417],[19.947917,60.114583],[19.94375,60.114583],[19.94375,60.110417]]]},"properties":{"radiance":11.76}},{"type":"Feature","geometry":{"type":"Polygon","coordinates":[[[19.947917,60.110417],[19.952083,60.110417],[19.952083,60.114583],[19.947917,60.114583],[19.947917,60.110417]]]},"properties":{"radiance":6.78}},{"type":"Feature","geometry":{"type":"Polygon","coordinates":[[[19.914583,60.10625],[19.91875,60.10625],[19.91875,60.110417],[19.914583,60.110417],[19.914583,60.10625]]]},"properties":{"radiance":9.27}},{"type":"Feature","geometry":{"type":"Polygon","coordinates":[[[19.922917,60.10625],[19.927083,60.10625],[19.927083,60.110417],[19.922917,60.110417],[19.922917,60.10625]]]},"properties":{"radiance":17.14}},{"type":"Feature","geometry":{"type":"Polygon","coordinates":[[[19.927083,60.10625],[19.93125,60.10625],[19.93125,60.110417],[19.927083,60.110417],[19.927083,60.10625]]]},"properties":{"radiance":18.04}},{"type":"Feature","geometry":{"type":"Polygon","coordinates":[[[19.93125,60.10625],[19.935417,60.10625],[19.935417,60.110417],[19.93125,60.110417],[19.93125,60.10625]]]},"properties":{"radiance":30.69}},{"type":"Feature","geometry":{"type":"Polygon","coordinates":[[[19.935417,60.10625],[19.939583,60.10625],[19.939583,60.110417],[19.935417,60.110417],[19.935417,60.10625]]]},"properties":{"radiance":21.89}},{"type":"Feature","geometry":{"type":"Polygon","coordinates":[[[19.939583,60.10625],[19.94375,60.10625],[19.94375,60.110417],[19.939583,60.110417],[19.939583,60.10625]]]},"properties":{"radiance":12.55}},{"type":"Feature","geometry":{"type":"Polygon","coordinates":[[[19.94375,60.10625],[19.947917,60.10625],[19.947917,60.110417],[19.94375,60.110417],[19.94375,60.10625]]]},"properties":{"radiance":12.39}},{"type":"Feature","geometry":{"type":"Polygon","coordinates":[[[19.914583,60.102083],[19.91875,60.102083],[19.91875,60.10625],[19.914583,60.10625],[19.914583,60.102083]]]},"properties":{"radiance":6.68}},{"type":"Feature","geometry":{"type":"Polygon","coordinates":[[[19.922917,60.102083],[19.927083,60.102083],[19.927083,60.10625],[19.922917,60.10625],[19.922917,60.102083]]]},"properties":{"radiance":15.35}},{"type":"Feature","geometry":{"type":"Polygon","coordinates":[[[19.927083,60.102083],[19.93125,60.102083],[19.93125,60.10625],[19.927083,60.10625],[19.927083,60.102083]]]},"properties":{"radiance":28.07}},{"type":"Feature","geometry":{"type":"Polygon","coordinates":[[[19.93125,60.102083],[19.935417,60.102083],[19.935417,60.10625],[19.93125,60.10625],[19.93125,60.102083]]]},"properties":{"radiance":39.13}},{"type":"Feature","geometry":{"type":"Polygon","coordinates":[[[19.935417,60.102083],[19.939583,60.102083],[19.939583,60.10625],[19.935417,60.10625],[19.935417,60.102083]]]},"properties":{"radiance":47.15}},{"type":"Feature","geometry":{"type":"Polygon","coordinates":[[[19.939583,60.102083],[19.94375,60.102083],[19.94375,60.10625],[19.939583,60.10625],[19.939583,60.102083]]]},"properties":{"radiance":54.75}},{"type":"Feature","geometry":{"type":"Polygon","coordinates":[[[19.94375,60.102083],[19.947917,60.102083],[19.947917,60.10625],[19.94375,60.10625],[19.94375,60.102083]]]},"properties":{"radiance":32.26}},{"type":"Feature","geometry":{"type":"Polygon","coordinates":[[[19.914583,60.097917],[19.91875,60.097917],[19.91875,60.102083],[19.914583,60.102083],[19.914583,60.097917]]]},"properties":{"radiance":5.96}},{"type":"Feature","geometry":{"type":"Polygon","coordinates":[[[19.922917,60.097917],[19.927083,60.097917],[19.927083,60.102083],[19.922917,60.102083],[19.922917,60.097917]]]},"properties":{"radiance":14.38}},{"type":"Feature","geometry":{"type":"Polygon","coordinates":[[[19.927083,60.097917],[19.93125,60.097917],[19.93125,60.102083],[19.927083,60.102083],[19.927083,60.097917]]]},"properties":{"radiance":26.68}},{"type":"Feature","geometry":{"type":"Polygon","coordinates":[[[19.93125,60.097917],[19.935417,60.097917],[19.935417,60.102083],[19.93125,60.102083],[19.93125,60.097917]]]},"properties":{"radiance":31.93}},{"type":"Feature","geometry":{"type":"Polygon","coordinates":[[[19.935417,60.097917],[19.939583,60.097917],[19.939583,60.102083],[19.935417,60.102083],[19.935417,60.097917]]]},"properties":{"radiance":38.18}},{"type":"Feature","geometry":{"type":"Polygon","coordinates":[[[19.939583,60.097917],[19.94375,60.097917],[19.94375,60.102083],[19.939583,60.102083],[19.939583,60.097917]]]},"properties":{"radiance":36.35}},{"type":"Feature","geometry":{"type":"Polygon","coordinates":[[[19.94375,60.097917],[19.947917,60.097917],[19.947917,60.102083],[19.94375,60.102083],[19.94375,60.097917]]]},"properties":{"radiance":17.26}},{"type":"Feature","geometry":{"type":"Polygon","coordinates":[[[19.922917,60.09375],[19.927083,60.09375],[19.927083,60.097917],[19.922917,60.097917],[19.922917,60.09375]]]},"properties":{"radiance":22.78}},{"type":"Feature","geometry":{"type":"Polygon","coordinates":[[[19.927083,60.09375],[19.93125,60.09375],[19.93125,60.097917],[19.927083,60.097917],[19.927083,60.09375]]]},"properties":{"radiance":32.14}},{"type":"Feature","geometry":{"type":"Polygon","coordinates":[[[19.93125,60.09375],[19.935417,60.09375],[19.935417,60.097917],[19.93125,60.097917],[19.93125,60.09375]]]},"properties":{"radiance":29.95}},{"type":"Feature","geometry":{"type":"Polygon","coordinates":[[[19.935417,60.09375],[19.939583,60.09375],[19.939583,60.097917],[19.935417,60.097917],[19.935417,60.09375]]]},"properties":{"radiance":27.93}},{"type":"Feature","geometry":{"type":"Polygon","coordinates":[[[19.939583,60.09375],[19.94375,60.09375],[19.94375,60.097917],[19.939583,60.097917],[19.939583,60.09375]]]},"properties":{"radiance":16.99}},{"type":"Feature","geometry":{"type":"Polygon","coordinates":[[[19.94375,60.09375],[19.947917,60.09375],[19.947917,60.097917],[19.94375,60.097917],[19.94375,60.09375]]]},"properties":{"radiance":11.98}},{"type":"Feature","geometry":{"type":"Polygon","coordinates":[[[19.947917,60.09375],[19.952083,60.09375],[19.952083,60.097917],[19.947917,60.097917],[19.947917,60.09375]]]},"properties":{"radiance":7.81}},{"type":"Feature","geometry":{"type":"Polygon","coordinates":[[[19.922917,60.089583],[19.927083,60.089583],[19.927083,60.09375],[19.922917,60.09375],[19.922917,60.089583]]]},"properties":{"radiance":19}},{"type":"Feature","geometry":{"type":"Polygon","coordinates":[[[19.927083,60.089583],[19.93125,60.089583],[19.93125,60.09375],[19.927083,60.09375],[19.927083,60.089583]]]},"properties":{"radiance":21.59}},{"type":"Feature","geometry":{"type":"Polygon","coordinates":[[[19.93125,60.089583],[19.935417,60.089583],[19.935417,60.09375],[19.93125,60.09375],[19.93125,60.089583]]]},"properties":{"radiance":19.68}},{"type":"Feature","geometry":{"type":"Polygon","coordinates":[[[19.935417,60.089583],[19.939583,60.089583],[19.939583,60.09375],[19.935417,60.09375],[19.935417,60.089583]]]},"properties":{"radiance":12.97}},{"type":"Feature","geometry":{"type":"Polygon","coordinates":[[[19.939583,60.089583],[19.94375,60.089583],[19.94375,60.09375],[19.939583,60.09375],[19.939583,60.089583]]]},"properties":{"radiance":12.85}},{"type":"Feature","geometry":{"type":"Polygon","coordinates":[[[19.94375,60.089583],[19.947917,60.089583],[19.947917,60.09375],[19.94375,60.09375],[19.94375,60.089583]]]},"properties":{"radiance":11.75}},{"type":"Feature","geometry":{"type":"Polygon","coordinates":[[[19.947917,60.089583],[19.952083,60.089583],[19.952083,60.09375],[19.947917,60.09375],[19.947917,60.089583]]]},"properties":{"radiance":11.08}},{"type":"Feature","geometry":{"type":"Polygon","coordinates":[[[19.952083,60.089583],[19.95625,60.089583],[19.95625,60.09375],[19.952083,60.09375],[19.952083,60.089583]]]},"properties":{"radiance":6.1}},{"type":"Feature","geometry":{"type":"Polygon","coordinates":[[[19.927083,60.085417],[19.93125,60.085417],[19.93125,60.089583],[19.927083,60.089583],[19.927083,60.085417]]]},"properties":{"radiance":7.62}},{"type":"Feature","geometry":{"type":"Polygon","coordinates":[[[19.93125,60.085417],[19.935417,60.085417],[19.935417,60.089583],[19.93125,60.089583],[19.93125,60.085417]]]},"properties":{"radiance":15.72}},{"type":"Feature","geometry":{"type":"Polygon","coordinates":[[[19.935417,60.085417],[19.939583,60.085417],[19.939583,60.089583],[19.935417,60.089583],[19.935417,60.085417]]]},"properties":{"radiance":14.5}},{"type":"Feature","geometry":{"type":"Polygon","coordinates":[[[19.939583,60.085417],[19.94375,60.085417],[19.94375,60.089583],[19.939583,60.089583],[19.939583,60.085417]]]},"properties":{"radiance":12.85}},{"type":"Feature","geometry":{"type":"Polygon","coordinates":[[[19.94375,60.085417],[19.947917,60.085417],[19.947917,60.089583],[19.94375,60.089583],[19.94375,60.085417]]]},"properties":{"radiance":12.41}},{"type":"Feature","geometry":{"type":"Polygon","coordinates":[[[19.947917,60.085417],[19.952083,60.085417],[19.952083,60.089583],[19.947917,60.089583],[19.947917,60.085417]]]},"properties":{"radiance":11.72}},{"type":"Feature","geometry":{"type":"Polygon","coordinates":[[[19.952083,60.085417],[19.95625,60.085417],[19.95625,60.089583],[19.952083,60.089583],[19.952083,60.085417]]]},"properties":{"radiance":11.29}},{"type":"Feature","geometry":{"type":"Polygon","coordinates":[[[19.95625,60.085417],[19.960417,60.085417],[19.960417,60.089583],[19.95625,60.089583],[19.95625,60.085417]]]},"properties":{"radiance":9.8}},{"type":"Feature","geometry":{"type":"Polygon","coordinates":[[[19.93125,60.08125],[19.935417,60.08125],[19.935417,60.085417],[19.93125,60.085417],[19.93125,60.08125]]]},"properties":{"radiance":12.93}},{"type":"Feature","geometry":{"type":"Polygon","coordinates":[[[19.935417,60.08125],[19.939583,60.08125],[19.939583,60.085417],[19.935417,60.085417],[19.935417,60.08125]]]},"properties":{"radiance":18.49}},{"type":"Feature","geometry":{"type":"Polygon","coordinates":[[[19.939583,60.08125],[19.94375,60.08125],[19.94375,60.085417],[19.939583,60.085417],[19.939583,60.08125]]]},"properties":{"radiance":15.25}},{"type":"Feature","geometry":{"type":"Polygon","coordinates":[[[19.94375,60.08125],[19.947917,60.08125],[19.947917,60.085417],[19.94375,60.085417],[19.94375,60.08125]]]},"properties":{"radiance":13.82}},{"type":"Feature","geometry":{"type":"Polygon","coordinates":[[[19.947917,60.08125],[19.952083,60.08125],[19.952083,60.085417],[19.947917,60.085417],[19.947917,60.08125]]]},"properties":{"radiance":12.64}},{"type":"Feature","geometry":{"type":"Polygon","coordinates":[[[19.952083,60.08125],[19.95625,60.08125],[19.95625,60.085417],[19.952083,60.085417],[19.952083,60.08125]]]},"properties":{"radiance":12.26}},{"type":"Feature","geometry":{"type":"Polygon","coordinates":[[[19.95625,60.08125],[19.960417,60.08125],[19.960417,60.085417],[19.95625,60.085417],[19.95625,60.08125]]]},"properties":{"radiance":10.77}},{"type":"Feature","geometry":{"type":"Polygon","coordinates":[[[19.960417,60.08125],[19.964583,60.08125],[19.964583,60.085417],[19.960417,60.085417],[19.960417,60.08125]]]},"properties":{"radiance":5.49}},{"type":"Feature","geometry":{"type":"Polygon","coordinates":[[[19.93125,60.077083],[19.935417,60.077083],[19.935417,60.08125],[19.93125,60.08125],[19.93125,60.077083]]]},"properties":{"radiance":5.15}},{"type":"Feature","geometry":{"type":"Polygon","coordinates":[[[19.935417,60.077083],[19.939583,60.077083],[19.939583,60.08125],[19.935417,60.08125],[19.935417,60.077083]]]},"properties":{"radiance":8.22}},{"type":"Feature","geometry":{"type":"Polygon","coordinates":[[[19.939583,60.077083],[19.94375,60.077083],[19.94375,60.08125],[19.939583,60.08125],[19.939583,60.077083]]]},"properties":{"radiance":10.86}},{"type":"Feature","geometry":{"type":"Polygon","coordinates":[[[19.94375,60.077083],[19.947917,60.077083],[19.947917,60.08125],[19.94375,60.08125],[19.94375,60.077083]]]},"properties":{"radiance":11.26}},{"type":"Feature","geometry":{"type":"Polygon","coordinates":[[[19.947917,60.077083],[19.952083,60.077083],[19.952083,60.08125],[19.947917,60.08125],[19.947917,60.077083]]]},"properties":{"radiance":12.16}},{"type":"Feature","geometry":{"type":"Polygon","coordinates":[[[19.952083,60.077083],[19.95625,60.077083],[19.95625,60.08125],[19.952083,60.08125],[19.952083,60.077083]]]},"properties":{"radiance":11.33}},{"type":"Feature","geometry":{"type":"Polygon","coordinates":[[[19.95625,60.077083],[19.960417,60.077083],[19.960417,60.08125],[19.95625,60.08125],[19.95625,60.077083]]]},"properties":{"radiance":8.42}},{"type":"Feature","geometry":{"type":"Polygon","coordinates":[[[19.94375,60.072917],[19.947917,60.072917],[19.947917,60.077083],[19.94375,60.077083],[19.94375,60.072917]]]},"properties":{"radiance":5.14}},{"type":"Feature","geometry":{"type":"Polygon","coordinates":[[[19.947917,60.072917],[19.952083,60.072917],[19.952083,60.077083],[19.947917,60.077083],[19.947917,60.072917]]]},"properties":{"radiance":6.15}},{"type":"Feature","geometry":{"type":"Polygon","coordinates":[[[19.952083,60.072917],[19.95625,60.072917],[19.95625,60.077083],[19.952083,60.077083],[19.952083,60.072917]]]},"properties":{"radiance":5.69}}]}