{"type":"FeatureCollection","features":[{"type":"Feature","geometry":{"type":"Polygon","coordinates":[[[23.239583,62.910417],[23.24375,62.910417],[23.24375,62.914583],[23.239583,62.914583],[23.239583,62.910417]]]},"properties":{"radiance":5.24}},{"type":"Feature","geometry":{"type":"Polygon","coordinates":[[[23.24375,62.910417],[23.247917,62.910417],[23.247917,62.914583],[23.24375,62.914583],[23.24375,62.910417]]]},"properties":{"radiance":5.24}},{"type":"Feature","geometry":{"type":"Polygon","coordinates":[[[24.20625,62.897917],[24.210417,62.897917],[24.210417,62.902083],[24.20625,62.902083],[24.20625,62.897917]]]},"properties":{"radiance":5.55}},{"type":"Feature","geometry":{"type":"Polygon","coordinates":[[[24.202083,62.89375],[24.20625,62.89375],[24.20625,62.897917],[24.202083,62.897917],[24.202083,62.89375]]]},"properties":{"radiance":5.13}},{"type":"Feature","geometry":{"type":"Polygon","coordinates":[[[24.20625,62.89375],[24.210417,62.89375],[24.210417,62.897917],[24.20625,62.897917],[24.20625,62.89375]]]},"properties":{"radiance":5.52}},{"type":"Feature","geometry":{"type":"Polygon","coordinates":[[[23.49375,62.81875],[23.497917,62.81875],[23.497917,62.822917],[23.49375,62.822917],[23.49375,62.81875]]]},"properties":{"radiance":5.83}},{"type":"Feature","geometry":{"type":"Polygon","coordinates":[[[23.497917,62.81875],[23.502083,62.81875],[23.502083,62.822917],[23.497917,62.822917],[23.497917,62.81875]]]},"properties":{"radiance":7.61}},{"type":"Feature","geometry":{"type":"Polygon","coordinates":[[[23.502083,62.81875],[23.50625,62.81875],[23.50625,62.822917],[23.502083,62.822917],[23.502083,62.81875]]]},"properties":{"radiance":10.15}},{"type":"Feature","geometry":{"type":"Polygon","coordinates":[[[23.497917,62.814583],[23.502083,62.814583],[23.502083,62.81875],[23.497917,62.81875],[23.497917,62.814583]]]},"properties":{"radiance":5.42}},{"type":"Feature","geometry":{"type":"Polygon","coordinates":[[[23.502083,62.814583],[23.50625,62.814583],[23.50625,62.81875],[23.502083,62.81875],[23.502083,62.814583]]]},"properties":{"radiance":11.25}},{"type":"Feature","geometry":{"type":"Polygon","coordinates":[[[23.50625,62.814583],[23.510417,62.814583],[23.510417,62.81875],[23.50625,62.81875],[23.50625,62.814583]]]},"properties":{"radiance":8.16}},{"type":"Feature","geometry":{"type":"Polygon","coordinates":[[[23.50625,62.810417],[23.510417,62.810417],[23.510417,62.814583],[23.50625,62.814583],[23.50625,62.810417]]]},"properties":{"radiance":8.59}},{"type":"Feature","geometry":{"type":"Polygon","coordinates":[[[23.510417,62.810417],[23.514583,62.810417],[23.514583,62.814583],[23.510417,62.814583],[23.510417,62.810417]]]},"properties":{"radiance":7.24}},{"type":"Feature","geometry":{"type":"Polygon","coordinates":[[[23.50625,62.80625],[23.510417,62.80625],[23.510417,62.810417],[23.50625,62.810417],[23.50625,62.80625]]]},"properties":{"radiance":9.02}},{"type":"Feature","geometry":{"type":"Polygon","coordinates":[[[23.510417,62.80625],[23.514583,62.80625],[23.514583,62.810417],[23.510417,62.810417],[23.510417,62.80625]]]},"properties":{"radiance":9.26}},{"type":"Feature","geometry":{"type":"Polygon","coordinates":[[[23.514583,62.80625],[23.51875,62.80625],[23.51875,62.810417],[23.514583,62.810417],[23.514583,62.80625]]]},"properties":{"radiance":5.94}},{"type":"Feature","geometry":{"type":"Polygon","coordinates":[[[23.510417,62.802083],[23.514583,62.802083],[23.514583,62.80625],[23.510417,62.80625],[23.510417,62.802083]]]},"properties":{"radiance":9.84}},{"type":"Feature","geometry":{"type":"Polygon","coordinates":[[[23.514583,62.802083],[23.51875,62.802083],[23.51875,62.80625],[23.514583,62.80625],[23.514583,62.802083]]]},"properties":{"radiance":7.83}},{"type":"Feature","geometry":{"type":"Polygon","coordinates":[[[23.51875,62.802083],[23.522917,62.802083],[23.522917,62.80625],[23.51875,62.80625],[23.51875,62.802083]]]},"properties":{"radiance":15.78}},{"type":"Feature","geometry":{"type":"Polygon","coordinates":[[[23.510417,62.797917],[23.514583,62.797917],[23.514583,62.802083],[23.510417,62.802083],[23.510417,62.797917]]]},"properties":{"radiance":5.59}},{"type":"Feature","geometry":{"type":"Polygon","coordinates":[[[23.514583,62.797917],[23.51875,62.797917],[23.51875,62.802083],[23.514583,62.802083],[23.514583,62.797917]]]},"properties":{"radiance":6.43}},{"type":"Feature","geometry":{"type":"Polygon","coordinates":[[[23.51875,62.797917],[23.522917,62.797917],[23.522917,62.802083],[23.51875,62.802083],[23.51875,62.797917]]]},"properties":{"radiance":6.68}},{"type":"Feature","geometry":{"type":"Polygon","coordinates":[[[23.514583,62.76875],[23.51875,62.76875],[23.51875,62.772917],[23.514583,62.772917],[23.514583,62.76875]]]},"properties":{"radiance":7.53}},{"type":"Feature","geometry":{"type":"Polygon","coordinates":[[[23.602083,62.61875],[23.60625,62.61875],[23.60625,62.622917],[23.602083,62.622917],[23.602083,62.61875]]]},"properties":{"radiance":9.78}},{"type":"Feature","geometry":{"type":"Polygon","coordinates":[[[23.60625,62.61875],[23.610417,62.61875],[23.610417,62.622917],[23.60625,62.622917],[23.60625,62.61875]]]},"properties":{"radiance":10.5}},{"type":"Feature","geometry":{"type":"Polygon","coordinates":[[[23.610417,62.61875],[23.614583,62.61875],[23.614583,62.622917],[23.610417,62.622917],[23.610417,62.61875]]]},"properties":{"radiance":9.74}},{"type":"Feature","geometry":{"type":"Polygon","coordinates":[[[23.597917,62.614583],[23.602083,62.614583],[23.602083,62.61875],[23.597917,62.61875],[23.597917,62.614583]]]},"properties":{"radiance":5.23}},{"type":"Feature","geometry":{"type":"Polygon","coordinates":[[[23.602083,62.614583],[23.60625,62.614583],[23.60625,62.61875],[23.602083,62.61875],[23.602083,62.614583]]]},"properties":{"radiance":7.71}},{"type":"Feature","geometry":{"type":"Polygon","coordinates":[[[23.60625,62.614583],[23.610417,62.614583],[23.610417,62.61875],[23.60625,62.61875],[23.60625,62.614583]]]},"properties":{"radiance":8.8}},{"type":"Feature","geometry":{"type":"Polygon","coordinates":[[[23.610417,62.614583],[23.614583,62.614583],[23.614583,62.61875],[23.610417,62.61875],[23.610417,62.614583]]]},"properties":{"radiance":7.91}},{"type":"Feature","geometry":{"type":"Polygon","coordinates":[[[23.614583,62.614583],[23.61875,62.614583],[23.61875,62.61875],[23.614583,62.61875],[23.614583,62.614583]]]},"properties":{"radiance":7.79}},{"type":"Feature","geometry":{"type":"Polygon","coordinates":[[[23.61875,62.614583],[23.622917,62.614583],[23.622917,62.61875],[23.61875,62.61875],[23.61875,62.614583]]]},"properties":{"radiance":6.9}},{"type":"Feature","geometry":{"type":"Polygon","coordinates":[[[23.71875,62.60625],[23.722917,62.60625],[23.722917,62.610417],[23.71875,62.610417],[23.71875,62.60625]]]},"properties":{"radiance":6.58}},{"type":"Feature","geometry":{"type":"Polygon","coordinates":[[[23.722917,62.60625],[23.727083,62.60625],[23.727083,62.610417],[23.722917,62.610417],[23.722917,62.60625]]]},"properties":{"radiance":7.59}},{"type":"Feature","geometry":{"type":"Polygon","coordinates":[[[23.727083,62.60625],[23.73125,62.60625],[23.73125,62.610417],[23.727083,62.610417],[23.727083,62.60625]]]},"properties":{"radiance":6.83}},{"type":"Feature","geometry":{"type":"Polygon","coordinates":[[[23.73125,62.60625],[23.735417,62.60625],[23.735417,62.610417],[23.73125,62.610417],[23.73125,62.60625]]]},"properties":{"radiance":6.61}},{"type":"Feature","geometry":{"type":"Polygon","coordinates":[[[23.735417,62.60625],[23.739583,62.60625],[23.739583,62.610417],[23.735417,62.610417],[23.735417,62.60625]]]},"properties":{"radiance":5.96}},{"type":"Feature","geometry":{"type":"Polygon","coordinates":[[[23.739583,62.60625],[23.74375,62.60625],[23.74375,62.610417],[23.739583,62.610417],[23.739583,62.60625]]]},"properties":{"radiance":6.28}},{"type":"Feature","geometry":{"type":"Polygon","coordinates":[[[23.90625,62.60625],[23.910417,62.60625],[23.910417,62.610417],[23.90625,62.610417],[23.90625,62.60625]]]},"properties":{"radiance":7.35}},{"type":"Feature","geometry":{"type":"Polygon","coordinates":[[[23.60625,62.602083],[23.610417,62.602083],[23.610417,62.60625],[23.60625,62.60625],[23.60625,62.602083]]]},"properties":{"radiance":5.73}},{"type":"Feature","geometry":{"type":"Polygon","coordinates":[[[23.610417,62.602083],[23.614583,62.602083],[23.614583,62.60625],[23.610417,62.60625],[23.610417,62.602083]]]},"properties":{"radiance":6.09}},{"type":"Feature","geometry":{"type":"Polygon","coordinates":[[[23.714583,62.602083],[23.71875,62.602083],[23.71875,62.60625],[23.714583,62.60625],[23.714583,62.602083]]]},"properties":{"radiance":6.99}},{"type":"Feature","geometry":{"type":"Polygon","coordinates":[[[23.71875,62.602083],[23.722917,62.602083],[23.722917,62.60625],[23.71875,62.60625],[23.71875,62.602083]]]},"properties":{"radiance":9.25}},{"type":"Feature","geometry":{"type":"Polygon","coordinates":[[[23.722917,62.602083],[23.727083,62.602083],[23.727083,62.60625],[23.722917,62.60625],[23.722917,62.602083]]]},"properties":{"radiance":8.2}},{"type":"Feature","geometry":{"type":"Polygon","coordinates":[[[23.727083,62.602083],[23.73125,62.602083],[23.73125,62.60625],[23.727083,62.60625],[23.727083,62.602083]]]},"properties":{"radiance":7.66}},{"type":"Feature","geometry":{"type":"Polygon","coordinates":[[[23.73125,62.602083],[23.735417,62.602083],[23.735417,62.60625],[23.73125,62.60625],[23.73125,62.602083]]]},"properties":{"radiance":5.45}},{"type":"Feature","geometry":{"type":"Polygon","coordinates":[[[23.735417,62.602083],[23.739583,62.602083],[23.739583,62.60625],[23.735417,62.60625],[23.735417,62.602083]]]},"properties":{"radiance":5.56}},{"type":"Feature","geometry":{"type":"Polygon","coordinates":[[[23.602083,62.597917],[23.60625,62.597917],[23.60625,62.602083],[23.602083,62.602083],[23.602083,62.597917]]]},"properties":{"radiance":13.46}},{"type":"Feature","geometry":{"type":"Polygon","coordinates":[[[23.60625,62.597917],[23.610417,62.597917],[23.610417,62.602083],[23.60625,62.602083],[23.60625,62.597917]]]},"properties":{"radiance":7.64}},{"type":"Feature","geometry":{"type":"Polygon","coordinates":[[[23.610417,62.597917],[23.614583,62.597917],[23.614583,62.602083],[23.610417,62.602083],[23.610417,62.597917]]]},"properties":{"radiance":8.08}},{"type":"Feature","geometry":{"type":"Polygon","coordinates":[[[23.614583,62.597917],[23.61875,62.597917],[23.61875,62.602083],[23.614583,62.602083],[23.614583,62.597917]]]},"properties":{"radiance":6.83}},{"type":"Feature","geometry":{"type":"Polygon","coordinates":[[[23.71875,62.597917],[23.722917,62.597917],[23.722917,62.602083],[23.71875,62.602083],[23.71875,62.597917]]]},"properties":{"radiance":8.64}},{"type":"Feature","geometry":{"type":"Polygon","coordinates":[[[23.722917,62.597917],[23.727083,62.597917],[23.727083,62.602083],[23.722917,62.602083],[23.722917,62.597917]]]},"properties":{"radiance":9.47}},{"type":"Feature","geometry":{"type":"Polygon","coordinates":[[[23.727083,62.597917],[23.73125,62.597917],[23.73125,62.602083],[23.727083,62.602083],[23.727083,62.597917]]]},"properties":{"radiance":6.39}},{"type":"Feature","geometry":{"type":"Polygon","coordinates":[[[23.59375,62.59375],[23.597917,62.59375],[23.597917,62.597917],[23.59375,62.597917],[23.59375,62.59375]]]},"properties":{"radiance":6.29}},{"type":"Feature","geometry":{"type":"Polygon","coordinates":[[[23.597917,62.59375],[23.602083,62.59375],[23.602083,62.597917],[23.597917,62.597917],[23.597917,62.59375]]]},"properties":{"radiance":15.44}},{"type":"Feature","geometry":{"type":"Polygon","coordinates":[[[23.602083,62.59375],[23.60625,62.59375],[23.60625,62.597917],[23.602083,62.597917],[23.602083,62.59375]]]},"properties":{"radiance":17.83}},{"type":"Feature","geometry":{"type":"Polygon","coordinates":[[[23.60625,62.59375],[23.610417,62.59375],[23.610417,62.597917],[23.60625,62.597917],[23.60625,62.59375]]]},"properties":{"radiance":11.97}},{"type":"Feature","geometry":{"type":"Polygon","coordinates":[[[23.610417,62.59375],[23.614583,62.59375],[23.614583,62.597917],[23.610417,62.597917],[23.610417,62.59375]]]},"properties":{"radiance":13.27}},{"type":"Feature","geometry":{"type":"Polygon","coordinates":[[[23.614583,62.59375],[23.61875,62.59375],[23.61875,62.597917],[23.614583,62.597917],[23.614583,62.59375]]]},"properties":{"radiance":12.26}},{"type":"Feature","geometry":{"type":"Polygon","coordinates":[[[23.61875,62.59375],[23.622917,62.59375],[23.622917,62.597917],[23.61875,62.597917],[23.61875,62.59375]]]},"properties":{"radiance":7.57}},{"type":"Feature","geometry":{"type":"Polygon","coordinates":[[[23.622917,62.59375],[23.627083,62.59375],[23.627083,62.597917],[23.622917,62.597917],[23.622917,62.59375]]]},"properties":{"radiance":8.03}},{"type":"Feature","geometry":{"type":"Polygon","coordinates":[[[23.635417,62.59375],[23.639583,62.59375],[23.639583,62.597917],[23.635417,62.597917],[23.635417,62.59375]]]},"properties":{"radiance":5.61}},{"type":"Feature","geometry":{"type":"Polygon","coordinates":[[[23.639583,62.59375],[23.64375,62.59375],[23.64375,62.597917],[23.639583,62.597917],[23.639583,62.59375]]]},"properties":{"radiance":6.03}},{"type":"Feature","geometry":{"type":"Polygon","coordinates":[[[23.64375,62.59375],[23.647917,62.59375],[23.647917,62.597917],[23.64375,62.597917],[23.64375,62.59375]]]},"properties":{"radiance":5.36}},{"type":"Feature","geometry":{"type":"Polygon","coordinates":[[[23.647917,62.59375],[23.652083,62.59375],[23.652083,62.597917],[23.647917,62.597917],[23.647917,62.59375]]]},"properties":{"radiance":6.2}},{"type":"Feature","geometry":{"type":"Polygon","coordinates":[[[23.652083,62.59375],[23.65625,62.59375],[23.65625,62.597917],[23.652083,62.597917],[23.652083,62.59375]]]},"properties":{"radiance":7.16}},{"type":"Feature","geometry":{"type":"Polygon","coordinates":[[[23.65625,62.59375],[23.660417,62.59375],[23.660417,62.597917],[23.65625,62.597917],[23.65625,62.59375]]]},"properties":{"radiance":6.65}},{"type":"Feature","geometry":{"type":"Polygon","coordinates":[[[23.660417,62.59375],[23.664583,62.59375],[23.664583,62.597917],[23.660417,62.597917],[23.660417,62.59375]]]},"properties":{"radiance":5.29}},{"type":"Feature","geometry":{"type":"Polygon","coordinates":[[[23.585417,62.589583],[23.589583,62.589583],[23.589583,62.59375],[23.585417,62.59375],[23.585417,62.589583]]]},"properties":{"radiance":5.86}},{"type":"Feature","geometry":{"type":"Polygon","coordinates":[[[23.589583,62.589583],[23.59375,62.589583],[23.59375,62.59375],[23.589583,62.59375],[23.589583,62.589583]]]},"properties":{"radiance":5.48}},{"type":"Feature","geometry":{"type":"Polygon","coordinates":[[[23.59375,62.589583],[23.597917,62.589583],[23.597917,62.59375],[23.59375,62.59375],[23.59375,62.589583]]]},"properties":{"radiance":10.27}},{"type":"Feature","geometry":{"type":"Polygon","coordinates":[[[23.597917,62.589583],[23.602083,62.589583],[23.602083,62.59375],[23.597917,62.59375],[23.597917,62.589583]]]},"properties":{"radiance":14.14}},{"type":"Feature","geometry":{"type":"Polygon","coordinates":[[[23.602083,62.589583],[23.60625,62.589583],[23.60625,62.59375],[23.602083,62.59375],[23.602083,62.589583]]]},"properties":{"radiance":43.52}},{"type":"Feature","geometry":{"type":"Polygon","coordinates":[[[23.60625,62.589583],[23.610417,62.589583],[23.610417,62.59375],[23.60625,62.59375],[23.60625,62.589583]]]},"properties":{"radiance":48.35}},{"type":"Feature","geometry":{"type":"Polygon","coordinates":[[[23.610417,62.589583],[23.614583,62.589583],[23.614583,62.59375],[23.610417,62.59375],[23.610417,62.589583]]]},"properties":{"radiance":36}},{"type":"Feature","geometry":{"type":"Polygon","coordinates":[[[23.614583,62.589583],[23.61875,62.589583],[23.61875,62.59375],[23.614583,62.59375],[23.614583,62.589583]]]},"properties":{"radiance":8.69}},{"type":"Feature","geometry":{"type":"Polygon","coordinates":[[[23.61875,62.589583],[23.622917,62.589583],[23.622917,62.59375],[23.61875,62.59375],[23.61875,62.589583]]]},"properties":{"radiance":10.57}},{"type":"Feature","geometry":{"type":"Polygon","coordinates":[[[23.622917,62.589583],[23.627083,62.589583],[23.627083,62.59375],[23.622917,62.59375],[23.622917,62.589583]]]},"properties":{"radiance":8.72}},{"type":"Feature","geometry":{"type":"Polygon","coordinates":[[[23.597917,62.585417],[23.602083,62.585417],[23.602083,62.589583],[23.597917,62.589583],[23.597917,62.585417]]]},"properties":{"radiance":8.9}},{"type":"Feature","geometry":{"type":"Polygon","coordinates":[[[23.602083,62.585417],[23.60625,62.585417],[23.60625,62.589583],[23.602083,62.589583],[23.602083,62.585417]]]},"properties":{"radiance":9.87}},{"type":"Feature","geometry":{"type":"Polygon","coordinates":[[[23.60625,62.585417],[23.610417,62.585417],[23.610417,62.589583],[23.60625,62.589583],[23.60625,62.585417]]]},"properties":{"radiance":10.16}},{"type":"Feature","geometry":{"type":"Polygon","coordinates":[[[23.610417,62.585417],[23.614583,62.585417],[23.614583,62.589583],[23.610417,62.589583],[23.610417,62.585417]]]},"properties":{"radiance":12.85}},{"type":"Feature","geometry":{"type":"Polygon","coordinates":[[[23.614583,62.585417],[23.61875,62.585417],[23.61875,62.589583],[23.614583,62.589583],[23.614583,62.585417]]]},"properties":{"radiance":35.92}},{"type":"Feature","geometry":{"type":"Polygon","coordinates":[[[23.61875,62.585417],[23.622917,62.585417],[23.622917,62.589583],[23.61875,62.589583],[23.61875,62.585417]]]},"properties":{"radiance":11.71}},{"type":"Feature","geometry":{"type":"Polygon","coordinates":[[[23.622917,62.585417],[23.627083,62.585417],[23.627083,62.589583],[23.622917,62.589583],[23.622917,62.585417]]]},"properties":{"radiance":7.18}},{"type":"Feature","geometry":{"type":"Polygon","coordinates":[[[23.60625,62.58125],[23.610417,62.58125],[23.610417,62.585417],[23.60625,62.585417],[23.60625,62.58125]]]},"properties":{"radiance":5.3}},{"type":"Feature","geometry":{"type":"Polygon","coordinates":[[[23.610417,62.58125],[23.614583,62.58125],[23.614583,62.585417],[23.610417,62.585417],[23.610417,62.58125]]]},"properties":{"radiance":5.86}},{"type":"Feature","geometry":{"type":"Polygon","coordinates":[[[23.614583,62.58125],[23.61875,62.58125],[23.61875,62.585417],[23.614583,62.585417],[23.614583,62.58125]]]},"properties":{"radiance":8.8}},{"type":"Feature","geometry":{"type":"Polygon","coordinates":[[[23.602083,62.577083],[23.60625,62.577083],[23.60625,62.58125],[23.602083,62.58125],[23.602083,62.577083]]]},"properties":{"radiance":5.41}},{"type":"Feature","geometry":{"type":"Polygon","coordinates":[[[23.60625,62.577083],[23.610417,62.577083],[23.610417,62.58125],[23.60625,62.58125],[23.60625,62.577083]]]},"properties":{"radiance":5.11}},{"type":"Feature","geometry":{"type":"Polygon","coordinates":[[[23.597917,62.572917],[23.602083,62.572917],[23.602083,62.577083],[23.597917,62.577083],[23.597917,62.572917]]]},"properties":{"radiance":6.25}},{"type":"Feature","geometry":{"type":"Polygon","coordinates":[[[23.602083,62.572917],[23.60625,62.572917],[23.60625,62.577083],[23.602083,62.577083],[23.602083,62.572917]]]},"properties":{"radiance":5.69}},{"type":"Feature","geometry":{"type":"Polygon","coordinates":[[[23.59375,62.56875],[23.597917,62.56875],[23.597917,62.572917],[23.59375,62.572917],[23.59375,62.56875]]]},"properties":{"radiance":5.14}},{"type":"Feature","geometry":{"type":"Polygon","coordinates":[[[23.597917,62.56875],[23.602083,62.56875],[23.602083,62.572917],[23.597917,62.572917],[23.597917,62.56875]]]},"properties":{"radiance":7.18}},{"type":"Feature","geometry":{"type":"Polygon","coordinates":[[[23.602083,62.56875],[23.60625,62.56875],[23.60625,62.572917],[23.602083,62.572917],[23.602083,62.56875]]]},"properties":{"radiance":5.94}}]}