{"type":"FeatureCollection","features":[{"type":"Feature","geometry":{"type":"Polygon","coordinates":[[[27.864583,70.08125],[27.86875,70.08125],[27.86875,70.085417],[27.864583,70.085417],[27.864583,70.08125]]]},"properties":{"radiance":5.71}},{"type":"Feature","geometry":{"type":"Polygon","coordinates":[[[27.86875,70.08125],[27.872917,70.08125],[27.872917,70.085417],[27.86875,70.085417],[27.86875,70.08125]]]},"properties":{"radiance":6.34}},{"type":"Feature","geometry":{"type":"Polygon","coordinates":[[[27.872917,70.08125],[27.877083,70.08125],[27.877083,70.085417],[27.872917,70.085417],[27.872917,70.08125]]]},"properties":{"radiance":5.72}},{"type":"Feature","geometry":{"type":"Polygon","coordinates":[[[27.01875,69.914583],[27.022917,69.914583],[27.022917,69.91875],[27.01875,69.91875],[27.01875,69.914583]]]},"properties":{"radiance":17.6}},{"type":"Feature","geometry":{"type":"Polygon","coordinates":[[[27.010417,69.910417],[27.014583,69.910417],[27.014583,69.914583],[27.010417,69.914583],[27.010417,69.910417]]]},"properties":{"radiance":22.09}},{"type":"Feature","geometry":{"type":"Polygon","coordinates":[[[27.014583,69.910417],[27.01875,69.910417],[27.01875,69.914583],[27.014583,69.914583],[27.014583,69.910417]]]},"properties":{"radiance":30.8}},{"type":"Feature","geometry":{"type":"Polygon","coordinates":[[[27.01875,69.910417],[27.022917,69.910417],[27.022917,69.914583],[27.01875,69.914583],[27.01875,69.910417]]]},"properties":{"radiance":30.87}},{"type":"Feature","geometry":{"type":"Polygon","coordinates":[[[27.022917,69.910417],[27.027083,69.910417],[27.027083,69.914583],[27.022917,69.914583],[27.022917,69.910417]]]},"properties":{"radiance":51.22}},{"type":"Feature","geometry":{"type":"Polygon","coordinates":[[[27.027083,69.910417],[27.03125,69.910417],[27.03125,69.914583],[27.027083,69.914583],[27.027083,69.910417]]]},"properties":{"radiance":58.98}},{"type":"Feature","geometry":{"type":"Polygon","coordinates":[[[27.03125,69.910417],[27.035417,69.910417],[27.035417,69.914583],[27.03125,69.914583],[27.03125,69.910417]]]},"properties":{"radiance":18.33}},{"type":"Feature","geometry":{"type":"Polygon","coordinates":[[[27.035417,69.910417],[27.039583,69.910417],[27.039583,69.914583],[27.035417,69.914583],[27.035417,69.910417]]]},"properties":{"radiance":12.09}},{"type":"Feature","geometry":{"type":"Polygon","coordinates":[[[27.04375,69.910417],[27.047917,69.910417],[27.047917,69.914583],[27.04375,69.914583],[27.04375,69.910417]]]},"properties":{"radiance":5.64}},{"type":"Feature","geometry":{"type":"Polygon","coordinates":[[[27.014583,69.90625],[27.01875,69.90625],[27.01875,69.910417],[27.014583,69.910417],[27.014583,69.90625]]]},"properties":{"radiance":9}},{"type":"Feature","geometry":{"type":"Polygon","coordinates":[[[27.01875,69.90625],[27.022917,69.90625],[27.022917,69.910417],[27.01875,69.910417],[27.01875,69.90625]]]},"properties":{"radiance":29.58}},{"type":"Feature","geometry":{"type":"Polygon","coordinates":[[[27.022917,69.90625],[27.027083,69.90625],[27.027083,69.910417],[27.022917,69.910417],[27.022917,69.90625]]]},"properties":{"radiance":17.79}},{"type":"Feature","geometry":{"type":"Polygon","coordinates":[[[27.027083,69.90625],[27.03125,69.90625],[27.03125,69.910417],[27.027083,69.910417],[27.027083,69.90625]]]},"properties":{"radiance":15.09}},{"type":"Feature","geometry":{"type":"Polygon","coordinates":[[[27.03125,69.90625],[27.035417,69.90625],[27.035417,69.910417],[27.03125,69.910417],[27.03125,69.90625]]]},"properties":{"radiance":12.16}},{"type":"Feature","geometry":{"type":"Polygon","coordinates":[[[27.035417,69.90625],[27.039583,69.90625],[27.039583,69.910417],[27.035417,69.910417],[27.035417,69.90625]]]},"properties":{"radiance":5.29}},{"type":"Feature","geometry":{"type":"Polygon","coordinates":[[[27.039583,69.90625],[27.04375,69.90625],[27.04375,69.910417],[27.039583,69.910417],[27.039583,69.90625]]]},"properties":{"radiance":6.31}},{"type":"Feature","geometry":{"type":"Polygon","coordinates":[[[27.04375,69.90625],[27.047917,69.90625],[27.047917,69.910417],[27.04375,69.910417],[27.04375,69.90625]]]},"properties":{"radiance":7.6}},{"type":"Feature","geometry":{"type":"Polygon","coordinates":[[[29.102083,69.66875],[29.10625,69.66875],[29.10625,69.672917],[29.102083,69.672917],[29.102083,69.66875]]]},"properties":{"radiance":5.89}},{"type":"Feature","geometry":{"type":"Polygon","coordinates":[[[29.10625,69.66875],[29.110417,69.66875],[29.110417,69.672917],[29.10625,69.672917],[29.10625,69.66875]]]},"properties":{"radiance":8.74}},{"type":"Feature","geometry":{"type":"Polygon","coordinates":[[[29.10625,69.664583],[29.110417,69.664583],[29.110417,69.66875],[29.10625,69.66875],[29.10625,69.664583]]]},"properties":{"radiance":8.34}},{"type":"Feature","geometry":{"type":"Polygon","coordinates":[[[25.827083,69.40625],[25.83125,69.40625],[25.83125,69.410417],[25.827083,69.410417],[25.827083,69.40625]]]},"properties":{"radiance":5.57}},{"type":"Feature","geometry":{"type":"Polygon","coordinates":[[[25.83125,69.402083],[25.835417,69.402083],[25.835417,69.40625],[25.83125,69.40625],[25.83125,69.402083]]]},"properties":{"radiance":9.6}},{"type":"Feature","geometry":{"type":"Polygon","coordinates":[[[25.839583,69.402083],[25.84375,69.402083],[25.84375,69.40625],[25.839583,69.40625],[25.839583,69.402083]]]},"properties":{"radiance":12.43}},{"type":"Feature","geometry":{"type":"Polygon","coordinates":[[[25.84375,69.402083],[25.847917,69.402083],[25.847917,69.40625],[25.84375,69.40625],[25.84375,69.402083]]]},"properties":{"radiance":36.16}},{"type":"Feature","geometry":{"type":"Polygon","coordinates":[[[25.847917,69.402083],[25.852083,69.402083],[25.852083,69.40625],[25.847917,69.40625],[25.847917,69.402083]]]},"properties":{"radiance":55.41}},{"type":"Feature","geometry":{"type":"Polygon","coordinates":[[[25.852083,69.402083],[25.85625,69.402083],[25.85625,69.40625],[25.852083,69.40625],[25.852083,69.402083]]]},"properties":{"radiance":6.64}},{"type":"Feature","geometry":{"type":"Polygon","coordinates":[[[25.835417,69.397917],[25.839583,69.397917],[25.839583,69.402083],[25.835417,69.402083],[25.835417,69.397917]]]},"properties":{"radiance":8.82}},{"type":"Feature","geometry":{"type":"Polygon","coordinates":[[[25.839583,69.397917],[25.84375,69.397917],[25.84375,69.402083],[25.839583,69.402083],[25.839583,69.397917]]]},"properties":{"radiance":13.47}},{"type":"Feature","geometry":{"type":"Polygon","coordinates":[[[25.84375,69.397917],[25.847917,69.397917],[25.847917,69.402083],[25.84375,69.402083],[25.84375,69.397917]]]},"properties":{"radiance":35.05}},{"type":"Feature","geometry":{"type":"Polygon","coordinates":[[[25.847917,69.397917],[25.852083,69.397917],[25.852083,69.402083],[25.847917,69.402083],[25.847917,69.397917]]]},"properties":{"radiance":44.08}},{"type":"Feature","geometry":{"type":"Polygon","coordinates":[[[25.852083,69.397917],[25.85625,69.397917],[25.85625,69.402083],[25.852083,69.402083],[25.852083,69.397917]]]},"properties":{"radiance":41.59}},{"type":"Feature","geometry":{"type":"Polygon","coordinates":[[[25.85625,69.397917],[25.860417,69.397917],[25.860417,69.402083],[25.85625,69.402083],[25.85625,69.397917]]]},"properties":{"radiance":8.06}},{"type":"Feature","geometry":{"type":"Polygon","coordinates":[[[25.860417,69.397917],[25.864583,69.397917],[25.864583,69.402083],[25.860417,69.402083],[25.860417,69.397917]]]},"properties":{"radiance":6.57}},{"type":"Feature","geometry":{"type":"Polygon","coordinates":[[[25.864583,69.397917],[25.86875,69.397917],[25.86875,69.402083],[25.864583,69.402083],[25.864583,69.397917]]]},"properties":{"radiance":5.06}},{"type":"Feature","geometry":{"type":"Polygon","coordinates":[[[25.847917,69.39375],[25.852083,69.39375],[25.852083,69.397917],[25.847917,69.397917],[25.847917,69.39375]]]},"properties":{"radiance":6.97}},{"type":"Feature","geometry":{"type":"Polygon","coordinates":[[[27.10625,69.06875],[27.110417,69.06875],[27.110417,69.072917],[27.10625,69.072917],[27.10625,69.06875]]]},"properties":{"radiance":5.06}},{"type":"Feature","geometry":{"type":"Polygon","coordinates":[[[27.110417,69.06875],[27.114583,69.06875],[27.114583,69.072917],[27.110417,69.072917],[27.110417,69.06875]]]},"properties":{"radiance":6.12}},{"type":"Feature","geometry":{"type":"Polygon","coordinates":[[[27.10625,69.064583],[27.110417,69.064583],[27.110417,69.06875],[27.10625,69.06875],[27.10625,69.064583]]]},"properties":{"radiance":5.72}},{"type":"Feature","geometry":{"type":"Polygon","coordinates":[[[27.110417,69.064583],[27.114583,69.064583],[27.114583,69.06875],[27.110417,69.06875],[27.110417,69.064583]]]},"properties":{"radiance":5.34}},{"type":"Feature","geometry":{"type":"Polygon","coordinates":[[[26.997917,68.910417],[27.002083,68.910417],[27.002083,68.914583],[26.997917,68.914583],[26.997917,68.910417]]]},"properties":{"radiance":5.01}},{"type":"Feature","geometry":{"type":"Polygon","coordinates":[[[27.002083,68.910417],[27.00625,68.910417],[27.00625,68.914583],[27.002083,68.914583],[27.002083,68.910417]]]},"properties":{"radiance":6.23}},{"type":"Feature","geometry":{"type":"Polygon","coordinates":[[[27.00625,68.910417],[27.010417,68.910417],[27.010417,68.914583],[27.00625,68.914583],[27.00625,68.910417]]]},"properties":{"radiance":6.89}},{"type":"Feature","geometry":{"type":"Polygon","coordinates":[[[27.010417,68.910417],[27.014583,68.910417],[27.014583,68.914583],[27.010417,68.914583],[27.010417,68.910417]]]},"properties":{"radiance":7.43}},{"type":"Feature","geometry":{"type":"Polygon","coordinates":[[[27.014583,68.910417],[27.01875,68.910417],[27.01875,68.914583],[27.014583,68.914583],[27.014583,68.910417]]]},"properties":{"radiance":27.4}},{"type":"Feature","geometry":{"type":"Polygon","coordinates":[[[27.01875,68.910417],[27.022917,68.910417],[27.022917,68.914583],[27.01875,68.914583],[27.01875,68.910417]]]},"properties":{"radiance":30.38}},{"type":"Feature","geometry":{"type":"Polygon","coordinates":[[[26.989583,68.90625],[26.99375,68.90625],[26.99375,68.910417],[26.989583,68.910417],[26.989583,68.90625]]]},"properties":{"radiance":5.83}},{"type":"Feature","geometry":{"type":"Polygon","coordinates":[[[26.99375,68.90625],[26.997917,68.90625],[26.997917,68.910417],[26.99375,68.910417],[26.99375,68.90625]]]},"properties":{"radiance":10.93}},{"type":"Feature","geometry":{"type":"Polygon","coordinates":[[[26.997917,68.90625],[27.002083,68.90625],[27.002083,68.910417],[26.997917,68.910417],[26.997917,68.90625]]]},"properties":{"radiance":6.32}},{"type":"Feature","geometry":{"type":"Polygon","coordinates":[[[27.002083,68.90625],[27.00625,68.90625],[27.00625,68.910417],[27.002083,68.910417],[27.002083,68.90625]]]},"properties":{"radiance":35.39}},{"type":"Feature","geometry":{"type":"Polygon","coordinates":[[[27.00625,68.90625],[27.010417,68.90625],[27.010417,68.910417],[27.00625,68.910417],[27.00625,68.90625]]]},"properties":{"radiance":40.27}},{"type":"Feature","geometry":{"type":"Polygon","coordinates":[[[27.010417,68.90625],[27.014583,68.90625],[27.014583,68.910417],[27.010417,68.910417],[27.010417,68.90625]]]},"properties":{"radiance":51.51}},{"type":"Feature","geometry":{"type":"Polygon","coordinates":[[[27.014583,68.90625],[27.01875,68.90625],[27.01875,68.910417],[27.014583,68.910417],[27.014583,68.90625]]]},"properties":{"radiance":56.58}},{"type":"Feature","geometry":{"type":"Polygon","coordinates":[[[27.01875,68.90625],[27.022917,68.90625],[27.022917,68.910417],[27.01875,68.910417],[27.01875,68.90625]]]},"properties":{"radiance":61.73}},{"type":"Feature","geometry":{"type":"Polygon","coordinates":[[[27.022917,68.90625],[27.027083,68.90625],[27.027083,68.910417],[27.022917,68.910417],[27.022917,68.90625]]]},"properties":{"radiance":54.29}},{"type":"Feature","geometry":{"type":"Polygon","coordinates":[[[27.027083,68.90625],[27.03125,68.90625],[27.03125,68.910417],[27.027083,68.910417],[27.027083,68.90625]]]},"properties":{"radiance":59.45}},{"type":"Feature","geometry":{"type":"Polygon","coordinates":[[[27.03125,68.90625],[27.035417,68.90625],[27.035417,68.910417],[27.03125,68.910417],[27.03125,68.90625]]]},"properties":{"radiance":37.94}},{"type":"Feature","geometry":{"type":"Polygon","coordinates":[[[26.989583,68.902083],[26.99375,68.902083],[26.99375,68.90625],[26.989583,68.90625],[26.989583,68.902083]]]},"properties":{"radiance":9.88}},{"type":"Feature","geometry":{"type":"Polygon","coordinates":[[[26.99375,68.902083],[26.997917,68.902083],[26.997917,68.90625],[26.99375,68.90625],[26.99375,68.902083]]]},"properties":{"radiance":5.95}},{"type":"Feature","geometry":{"type":"Polygon","coordinates":[[[26.997917,68.902083],[27.002083,68.902083],[27.002083,68.90625],[26.997917,68.90625],[26.997917,68.902083]]]},"properties":{"radiance":6.72}},{"type":"Feature","geometry":{"type":"Polygon","coordinates":[[[27.002083,68.902083],[27.00625,68.902083],[27.00625,68.90625],[27.002083,68.90625],[27.002083,68.902083]]]},"properties":{"radiance":7.07}},{"type":"Feature","geometry":{"type":"Polygon","coordinates":[[[27.00625,68.902083],[27.010417,68.902083],[27.010417,68.90625],[27.00625,68.90625],[27.00625,68.902083]]]},"properties":{"radiance":6.96}},{"type":"Feature","geometry":{"type":"Polygon","coordinates":[[[27.010417,68.902083],[27.014583,68.902083],[27.014583,68.90625],[27.010417,68.90625],[27.010417,68.902083]]]},"properties":{"radiance":7.77}},{"type":"Feature","geometry":{"type":"Polygon","coordinates":[[[27.014583,68.902083],[27.01875,68.902083],[27.01875,68.90625],[27.014583,68.90625],[27.014583,68.902083]]]},"properties":{"radiance":36.51}},{"type":"Feature","geometry":{"type":"Polygon","coordinates":[[[27.01875,68.902083],[27.022917,68.902083],[27.022917,68.90625],[27.01875,68.90625],[27.01875,68.902083]]]},"properties":{"radiance":44.14}},{"type":"Feature","geometry":{"type":"Polygon","coordinates":[[[27.022917,68.902083],[27.027083,68.902083],[27.027083,68.90625],[27.022917,68.90625],[27.022917,68.902083]]]},"properties":{"radiance":48.04}},{"type":"Feature","geometry":{"type":"Polygon","coordinates":[[[27.027083,68.902083],[27.03125,68.902083],[27.03125,68.90625],[27.027083,68.90625],[27.027083,68.902083]]]},"properties":{"radiance":39.66}},{"type":"Feature","geometry":{"type":"Polygon","coordinates":[[[27.03125,68.902083],[27.035417,68.902083],[27.035417,68.90625],[27.03125,68.90625],[27.03125,68.902083]]]},"properties":{"radiance":30.22}},{"type":"Feature","geometry":{"type":"Polygon","coordinates":[[[27.035417,68.902083],[27.039583,68.902083],[27.039583,68.90625],[27.035417,68.90625],[27.035417,68.902083]]]},"properties":{"radiance":7.85}},{"type":"Feature","geometry":{"type":"Polygon","coordinates":[[[27.039583,68.902083],[27.04375,68.902083],[27.04375,68.90625],[27.039583,68.90625],[27.039583,68.902083]]]},"properties":{"radiance":6.55}},{"type":"Feature","geometry":{"type":"Polygon","coordinates":[[[27.04375,68.902083],[27.047917,68.902083],[27.047917,68.90625],[27.04375,68.90625],[27.04375,68.902083]]]},"properties":{"radiance":6.7}},{"type":"Feature","geometry":{"type":"Polygon","coordinates":[[[27.047917,68.902083],[27.052083,68.902083],[27.052083,68.90625],[27.047917,68.90625],[27.047917,68.902083]]]},"properties":{"radiance":7.89}},{"type":"Feature","geometry":{"type":"Polygon","coordinates":[[[27.052083,68.902083],[27.05625,68.902083],[27.05625,68.90625],[27.052083,68.90625],[27.052083,68.902083]]]},"properties":{"radiance":7.48}},{"type":"Feature","geometry":{"type":"Polygon","coordinates":[[[27.05625,68.902083],[27.060417,68.902083],[27.060417,68.90625],[27.05625,68.90625],[27.05625,68.902083]]]},"properties":{"radiance":7.11}},{"type":"Feature","geometry":{"type":"Polygon","coordinates":[[[27.060417,68.902083],[27.064583,68.902083],[27.064583,68.90625],[27.060417,68.90625],[27.060417,68.902083]]]},"properties":{"radiance":8.63}},{"type":"Feature","geometry":{"type":"Polygon","coordinates":[[[27.064583,68.902083],[27.06875,68.902083],[27.06875,68.90625],[27.064583,68.90625],[27.064583,68.902083]]]},"properties":{"radiance":6.56}},{"type":"Feature","geometry":{"type":"Polygon","coordinates":[[[27.06875,68.902083],[27.072917,68.902083],[27.072917,68.90625],[27.06875,68.90625],[27.06875,68.902083]]]},"properties":{"radiance":6.23}},{"type":"Feature","geometry":{"type":"Polygon","coordinates":[[[27.072917,68.902083],[27.077083,68.902083],[27.077083,68.90625],[27.072917,68.90625],[27.072917,68.902083]]]},"properties":{"radiance":5.14}},{"type":"Feature","geometry":{"type":"Polygon","coordinates":[[[27.077083,68.902083],[27.08125,68.902083],[27.08125,68.90625],[27.077083,68.90625],[27.077083,68.902083]]]},"properties":{"radiance":5.79}},{"type":"Feature","geometry":{"type":"Polygon","coordinates":[[[27.08125,68.902083],[27.085417,68.902083],[27.085417,68.90625],[27.08125,68.90625],[27.08125,68.902083]]]},"properties":{"radiance":8.95}},{"type":"Feature","geometry":{"type":"Polygon","coordinates":[[[27.089583,68.902083],[27.09375,68.902083],[27.09375,68.90625],[27.089583,68.90625],[27.089583,68.902083]]]},"properties":{"radiance":9.28}},{"type":"Feature","geometry":{"type":"Polygon","coordinates":[[[27.010417,68.897917],[27.014583,68.897917],[27.014583,68.902083],[27.010417,68.902083],[27.010417,68.897917]]]},"properties":{"radiance":8.51}},{"type":"Feature","geometry":{"type":"Polygon","coordinates":[[[27.03125,68.897917],[27.035417,68.897917],[27.035417,68.902083],[27.03125,68.902083],[27.03125,68.897917]]]},"properties":{"radiance":5.64}},{"type":"Feature","geometry":{"type":"Polygon","coordinates":[[[27.035417,68.897917],[27.039583,68.897917],[27.039583,68.902083],[27.035417,68.902083],[27.035417,68.897917]]]},"properties":{"radiance":5.2}},{"type":"Feature","geometry":{"type":"Polygon","coordinates":[[[27.039583,68.897917],[27.04375,68.897917],[27.04375,68.902083],[27.039583,68.902083],[27.039583,68.897917]]]},"properties":{"radiance":5.52}},{"type":"Feature","geometry":{"type":"Polygon","coordinates":[[[27.052083,68.897917],[27.05625,68.897917],[27.05625,68.902083],[27.052083,68.902083],[27.052083,68.897917]]]},"properties":{"radiance":6.25}},{"type":"Feature","geometry":{"type":"Polygon","coordinates":[[[27.05625,68.897917],[27.060417,68.897917],[27.060417,68.902083],[27.05625,68.902083],[27.05625,68.897917]]]},"properties":{"radiance":6.52}},{"type":"Feature","geometry":{"type":"Polygon","coordinates":[[[27.060417,68.897917],[27.064583,68.897917],[27.064583,68.902083],[27.060417,68.902083],[27.060417,68.897917]]]},"properties":{"radiance":6.04}},{"type":"Feature","geometry":{"type":"Polygon","coordinates":[[[27.064583,68.897917],[27.06875,68.897917],[27.06875,68.902083],[27.064583,68.902083],[27.064583,68.897917]]]},"properties":{"radiance":7.33}},{"type":"Feature","geometry":{"type":"Polygon","coordinates":[[[27.06875,68.897917],[27.072917,68.897917],[27.072917,68.902083],[27.06875,68.902083],[27.06875,68.897917]]]},"properties":{"radiance":7.37}},{"type":"Feature","geometry":{"type":"Polygon","coordinates":[[[27.072917,68.897917],[27.077083,68.897917],[27.077083,68.902083],[27.072917,68.902083],[27.072917,68.897917]]]},"properties":{"radiance":6.74}},{"type":"Feature","geometry":{"type":"Polygon","coordinates":[[[27.077083,68.897917],[27.08125,68.897917],[27.08125,68.902083],[27.077083,68.902083],[27.077083,68.897917]]]},"properties":{"radiance":7.53}},{"type":"Feature","geometry":{"type":"Polygon","coordinates":[[[27.08125,68.897917],[27.085417,68.897917],[27.085417,68.902083],[27.08125,68.902083],[27.08125,68.897917]]]},"properties":{"radiance":8.2}},{"type":"Feature","geometry":{"type":"Polygon","coordinates":[[[27.085417,68.897917],[27.089583,68.897917],[27.089583,68.902083],[27.085417,68.902083],[27.085417,68.897917]]]},"properties":{"radiance":6.24}},{"type":"Feature","geometry":{"type":"Polygon","coordinates":[[[27.089583,68.897917],[27.09375,68.897917],[27.09375,68.902083],[27.089583,68.902083],[27.089583,68.897917]]]},"properties":{"radiance":5.39}},{"type":"Feature","geometry":{"type":"Polygon","coordinates":[[[27.072917,68.89375],[27.077083,68.89375],[27.077083,68.897917],[27.072917,68.897917],[27.072917,68.89375]]]},"properties":{"radiance":5.32}},{"type":"Feature","geometry":{"type":"Polygon","coordinates":[[[27.077083,68.89375],[27.08125,68.89375],[27.08125,68.897917],[27.077083,68.897917],[27.077083,68.89375]]]},"properties":{"radiance":5.56}},{"type":"Feature","geometry":{"type":"Polygon","coordinates":[[[27.08125,68.89375],[27.085417,68.89375],[27.085417,68.897917],[27.08125,68.897917],[27.08125,68.89375]]]},"properties":{"radiance":6.57}},{"type":"Feature","geometry":{"type":"Polygon","coordinates":[[[27.085417,68.89375],[27.089583,68.89375],[27.089583,68.897917],[27.085417,68.897917],[27.085417,68.89375]]]},"properties":{"radiance":6.06}},{"type":"Feature","geometry":{"type":"Polygon","coordinates":[[[27.089583,68.89375],[27.09375,68.89375],[27.09375,68.897917],[27.089583,68.897917],[27.089583,68.89375]]]},"properties":{"radiance":5.08}},{"type":"Feature","geometry":{"type":"Polygon","coordinates":[[[27.614583,68.727083],[27.61875,68.727083],[27.61875,68.73125],[27.614583,68.73125],[27.614583,68.727083]]]},"properties":{"radiance":5.31}},{"type":"Feature","geometry":{"type":"Polygon","coordinates":[[[27.61875,68.727083],[27.622917,68.727083],[27.622917,68.73125],[27.61875,68.73125],[27.61875,68.727083]]]},"properties":{"radiance":5.27}},{"type":"Feature","geometry":{"type":"Polygon","coordinates":[[[27.647917,68.685417],[27.652083,68.685417],[27.652083,68.689583],[27.647917,68.689583],[27.647917,68.685417]]]},"properties":{"radiance":9.74}},{"type":"Feature","geometry":{"type":"Polygon","coordinates":[[[27.652083,68.685417],[27.65625,68.685417],[27.65625,68.689583],[27.652083,68.689583],[27.652083,68.685417]]]},"properties":{"radiance":11.04}},{"type":"Feature","geometry":{"type":"Polygon","coordinates":[[[27.65625,68.685417],[27.660417,68.685417],[27.660417,68.689583],[27.65625,68.689583],[27.65625,68.685417]]]},"properties":{"radiance":13.43}},{"type":"Feature","geometry":{"type":"Polygon","coordinates":[[[27.66875,68.685417],[27.672917,68.685417],[27.672917,68.689583],[27.66875,68.689583],[27.66875,68.685417]]]},"properties":{"radiance":5.73}},{"type":"Feature","geometry":{"type":"Polygon","coordinates":[[[27.672917,68.685417],[27.677083,68.685417],[27.677083,68.689583],[27.672917,68.689583],[27.672917,68.685417]]]},"properties":{"radiance":7.79}},{"type":"Feature","geometry":{"type":"Polygon","coordinates":[[[27.677083,68.685417],[27.68125,68.685417],[27.68125,68.689583],[27.677083,68.689583],[27.677083,68.685417]]]},"properties":{"radiance":8.41}},{"type":"Feature","geometry":{"type":"Polygon","coordinates":[[[27.68125,68.685417],[27.685417,68.685417],[27.685417,68.689583],[27.68125,68.689583],[27.68125,68.685417]]]},"properties":{"radiance":8.59}},{"type":"Feature","geometry":{"type":"Polygon","coordinates":[[[27.689583,68.685417],[27.69375,68.685417],[27.69375,68.689583],[27.689583,68.689583],[27.689583,68.685417]]]},"properties":{"radiance":7.04}},{"type":"Feature","geometry":{"type":"Polygon","coordinates":[[[27.660417,68.68125],[27.664583,68.68125],[27.664583,68.685417],[27.660417,68.685417],[27.660417,68.68125]]]},"properties":{"radiance":6.23}},{"type":"Feature","geometry":{"type":"Polygon","coordinates":[[[27.685417,68.68125],[27.689583,68.68125],[27.689583,68.685417],[27.685417,68.685417],[27.685417,68.68125]]]},"properties":{"radiance":5.33}},{"type":"Feature","geometry":{"type":"Polygon","coordinates":[[[27.702083,68.68125],[27.70625,68.68125],[27.70625,68.685417],[27.702083,68.685417],[27.702083,68.68125]]]},"properties":{"radiance":7.09}},{"type":"Feature","geometry":{"type":"Polygon","coordinates":[[[27.572917,68.677083],[27.577083,68.677083],[27.577083,68.68125],[27.572917,68.68125],[27.572917,68.677083]]]},"properties":{"radiance":5.45}},{"type":"Feature","geometry":{"type":"Polygon","coordinates":[[[27.660417,68.677083],[27.664583,68.677083],[27.664583,68.68125],[27.660417,68.68125],[27.660417,68.677083]]]},"properties":{"radiance":6.57}},{"type":"Feature","geometry":{"type":"Polygon","coordinates":[[[27.66875,68.677083],[27.672917,68.677083],[27.672917,68.68125],[27.66875,68.68125],[27.66875,68.677083]]]},"properties":{"radiance":5.89}},{"type":"Feature","geometry":{"type":"Polygon","coordinates":[[[27.50625,68.672917],[27.510417,68.672917],[27.510417,68.677083],[27.50625,68.677083],[27.50625,68.672917]]]},"properties":{"radiance":8.9}},{"type":"Feature","geometry":{"type":"Polygon","coordinates":[[[27.510417,68.672917],[27.514583,68.672917],[27.514583,68.677083],[27.510417,68.677083],[27.510417,68.672917]]]},"properties":{"radiance":8.14}},{"type":"Feature","geometry":{"type":"Polygon","coordinates":[[[27.514583,68.672917],[27.51875,68.672917],[27.51875,68.677083],[27.514583,68.677083],[27.514583,68.672917]]]},"properties":{"radiance":10.72}},{"type":"Feature","geometry":{"type":"Polygon","coordinates":[[[27.51875,68.672917],[27.522917,68.672917],[27.522917,68.677083],[27.51875,68.677083],[27.51875,68.672917]]]},"properties":{"radiance":7.01}},{"type":"Feature","geometry":{"type":"Polygon","coordinates":[[[27.522917,68.672917],[27.527083,68.672917],[27.527083,68.677083],[27.522917,68.677083],[27.522917,68.672917]]]},"properties":{"radiance":5.43}},{"type":"Feature","geometry":{"type":"Polygon","coordinates":[[[27.547917,68.672917],[27.552083,68.672917],[27.552083,68.677083],[27.547917,68.677083],[27.547917,68.672917]]]},"properties":{"radiance":7.11}},{"type":"Feature","geometry":{"type":"Polygon","coordinates":[[[27.552083,68.672917],[27.55625,68.672917],[27.55625,68.677083],[27.552083,68.677083],[27.552083,68.672917]]]},"properties":{"radiance":6.83}},{"type":"Feature","geometry":{"type":"Polygon","coordinates":[[[27.55625,68.672917],[27.560417,68.672917],[27.560417,68.677083],[27.55625,68.677083],[27.55625,68.672917]]]},"properties":{"radiance":7.03}},{"type":"Feature","geometry":{"type":"Polygon","coordinates":[[[27.564583,68.672917],[27.56875,68.672917],[27.56875,68.677083],[27.564583,68.677083],[27.564583,68.672917]]]},"properties":{"radiance":8.89}},{"type":"Feature","geometry":{"type":"Polygon","coordinates":[[[27.56875,68.672917],[27.572917,68.672917],[27.572917,68.677083],[27.56875,68.677083],[27.56875,68.672917]]]},"properties":{"radiance":8.41}},{"type":"Feature","geometry":{"type":"Polygon","coordinates":[[[27.572917,68.672917],[27.577083,68.672917],[27.577083,68.677083],[27.572917,68.677083],[27.572917,68.672917]]]},"properties":{"radiance":6.54}},{"type":"Feature","geometry":{"type":"Polygon","coordinates":[[[27.577083,68.672917],[27.58125,68.672917],[27.58125,68.677083],[27.577083,68.677083],[27.577083,68.672917]]]},"properties":{"radiance":7.25}},{"type":"Feature","geometry":{"type":"Polygon","coordinates":[[[27.58125,68.672917],[27.585417,68.672917],[27.585417,68.677083],[27.58125,68.677083],[27.58125,68.672917]]]},"properties":{"radiance":6.15}},{"type":"Feature","geometry":{"type":"Polygon","coordinates":[[[27.610417,68.672917],[27.614583,68.672917],[27.614583,68.677083],[27.610417,68.677083],[27.610417,68.672917]]]},"properties":{"radiance":5.96}},{"type":"Feature","geometry":{"type":"Polygon","coordinates":[[[27.614583,68.672917],[27.61875,68.672917],[27.61875,68.677083],[27.614583,68.677083],[27.614583,68.672917]]]},"properties":{"radiance":5.49}},{"type":"Feature","geometry":{"type":"Polygon","coordinates":[[[27.70625,68.672917],[27.710417,68.672917],[27.710417,68.677083],[27.70625,68.677083],[27.70625,68.672917]]]},"properties":{"radiance":5.7}},{"type":"Feature","geometry":{"type":"Polygon","coordinates":[[[27.710417,68.672917],[27.714583,68.672917],[27.714583,68.677083],[27.710417,68.677083],[27.710417,68.672917]]]},"properties":{"radiance":5.26}},{"type":"Feature","geometry":{"type":"Polygon","coordinates":[[[27.50625,68.66875],[27.510417,68.66875],[27.510417,68.672917],[27.50625,68.672917],[27.50625,68.66875]]]},"properties":{"radiance":6.8}},{"type":"Feature","geometry":{"type":"Polygon","coordinates":[[[27.510417,68.66875],[27.514583,68.66875],[27.514583,68.672917],[27.510417,68.672917],[27.510417,68.66875]]]},"properties":{"radiance":13.4}},{"type":"Feature","geometry":{"type":"Polygon","coordinates":[[[27.514583,68.66875],[27.51875,68.66875],[27.51875,68.672917],[27.514583,68.672917],[27.514583,68.66875]]]},"properties":{"radiance":10.75}},{"type":"Feature","geometry":{"type":"Polygon","coordinates":[[[27.51875,68.66875],[27.522917,68.66875],[27.522917,68.672917],[27.51875,68.672917],[27.51875,68.66875]]]},"properties":{"radiance":5.72}},{"type":"Feature","geometry":{"type":"Polygon","coordinates":[[[27.522917,68.66875],[27.527083,68.66875],[27.527083,68.672917],[27.522917,68.672917],[27.522917,68.66875]]]},"properties":{"radiance":25.9}},{"type":"Feature","geometry":{"type":"Polygon","coordinates":[[[27.527083,68.66875],[27.53125,68.66875],[27.53125,68.672917],[27.527083,68.672917],[27.527083,68.66875]]]},"properties":{"radiance":33.74}},{"type":"Feature","geometry":{"type":"Polygon","coordinates":[[[27.53125,68.66875],[27.535417,68.66875],[27.535417,68.672917],[27.53125,68.672917],[27.53125,68.66875]]]},"properties":{"radiance":24.3}},{"type":"Feature","geometry":{"type":"Polygon","coordinates":[[[27.535417,68.66875],[27.539583,68.66875],[27.539583,68.672917],[27.535417,68.672917],[27.535417,68.66875]]]},"properties":{"radiance":26.68}},{"type":"Feature","geometry":{"type":"Polygon","coordinates":[[[27.539583,68.66875],[27.54375,68.66875],[27.54375,68.672917],[27.539583,68.672917],[27.539583,68.66875]]]},"properties":{"radiance":22.18}},{"type":"Feature","geometry":{"type":"Polygon","coordinates":[[[27.54375,68.66875],[27.547917,68.66875],[27.547917,68.672917],[27.54375,68.672917],[27.54375,68.66875]]]},"properties":{"radiance":24.73}},{"type":"Feature","geometry":{"type":"Polygon","coordinates":[[[27.547917,68.66875],[27.552083,68.66875],[27.552083,68.672917],[27.547917,68.672917],[27.547917,68.66875]]]},"properties":{"radiance":15.67}},{"type":"Feature","geometry":{"type":"Polygon","coordinates":[[[27.552083,68.66875],[27.55625,68.66875],[27.55625,68.672917],[27.552083,68.672917],[27.552083,68.66875]]]},"properties":{"radiance":9.02}},{"type":"Feature","geometry":{"type":"Polygon","coordinates":[[[27.55625,68.66875],[27.560417,68.66875],[27.560417,68.672917],[27.55625,68.672917],[27.55625,68.66875]]]},"properties":{"radiance":14.4}},{"type":"Feature","geometry":{"type":"Polygon","coordinates":[[[27.577083,68.66875],[27.58125,68.66875],[27.58125,68.672917],[27.577083,68.672917],[27.577083,68.66875]]]},"properties":{"radiance":10.93}},{"type":"Feature","geometry":{"type":"Polygon","coordinates":[[[27.58125,68.66875],[27.585417,68.66875],[27.585417,68.672917],[27.58125,68.672917],[27.58125,68.66875]]]},"properties":{"radiance":9.71}},{"type":"Feature","geometry":{"type":"Polygon","coordinates":[[[27.585417,68.66875],[27.589583,68.66875],[27.589583,68.672917],[27.585417,68.672917],[27.585417,68.66875]]]},"properties":{"radiance":7.01}},{"type":"Feature","geometry":{"type":"Polygon","coordinates":[[[27.597917,68.66875],[27.602083,68.66875],[27.602083,68.672917],[27.597917,68.672917],[27.597917,68.66875]]]},"properties":{"radiance":7.66}},{"type":"Feature","geometry":{"type":"Polygon","coordinates":[[[27.602083,68.66875],[27.60625,68.66875],[27.60625,68.672917],[27.602083,68.672917],[27.602083,68.66875]]]},"properties":{"radiance":5.67}},{"type":"Feature","geometry":{"type":"Polygon","coordinates":[[[27.610417,68.66875],[27.614583,68.66875],[27.614583,68.672917],[27.610417,68.672917],[27.610417,68.66875]]]},"properties":{"radiance":6.45}},{"type":"Feature","geometry":{"type":"Polygon","coordinates":[[[27.614583,68.66875],[27.61875,68.66875],[27.61875,68.672917],[27.614583,68.672917],[27.614583,68.66875]]]},"properties":{"radiance":7}},{"type":"Feature","geometry":{"type":"Polygon","coordinates":[[[27.50625,68.664583],[27.510417,68.664583],[27.510417,68.66875],[27.50625,68.66875],[27.50625,68.664583]]]},"properties":{"radiance":6.24}},{"type":"Feature","geometry":{"type":"Polygon","coordinates":[[[27.514583,68.664583],[27.51875,68.664583],[27.51875,68.66875],[27.514583,68.66875],[27.514583,68.664583]]]},"properties":{"radiance":21.3}},{"type":"Feature","geometry":{"type":"Polygon","coordinates":[[[27.51875,68.664583],[27.522917,68.664583],[27.522917,68.66875],[27.51875,68.66875],[27.51875,68.664583]]]},"properties":{"radiance":43.16}},{"type":"Feature","geometry":{"type":"Polygon","coordinates":[[[27.522917,68.664583],[27.527083,68.664583],[27.527083,68.66875],[27.522917,68.66875],[27.522917,68.664583]]]},"properties":{"radiance":55.67}},{"type":"Feature","geometry":{"type":"Polygon","coordinates":[[[27.527083,68.664583],[27.53125,68.664583],[27.53125,68.66875],[27.527083,68.66875],[27.527083,68.664583]]]},"properties":{"radiance":69.86}},{"type":"Feature","geometry":{"type":"Polygon","coordinates":[[[27.53125,68.664583],[27.535417,68.664583],[27.535417,68.66875],[27.53125,68.66875],[27.53125,68.664583]]]},"properties":{"radiance":50.48}},{"type":"Feature","geometry":{"type":"Polygon","coordinates":[[[27.535417,68.664583],[27.539583,68.664583],[27.539583,68.66875],[27.535417,68.66875],[27.535417,68.664583]]]},"properties":{"radiance":62.77}},{"type":"Feature","geometry":{"type":"Polygon","coordinates":[[[27.539583,68.664583],[27.54375,68.664583],[27.54375,68.66875],[27.539583,68.66875],[27.539583,68.664583]]]},"properties":{"radiance":71.92}},{"type":"Feature","geometry":{"type":"Polygon","coordinates":[[[27.54375,68.664583],[27.547917,68.664583],[27.547917,68.66875],[27.54375,68.66875],[27.54375,68.664583]]]},"properties":{"radiance":47.73}},{"type":"Feature","geometry":{"type":"Polygon","coordinates":[[[27.547917,68.664583],[27.552083,68.664583],[27.552083,68.66875],[27.547917,68.66875],[27.547917,68.664583]]]},"properties":{"radiance":12.55}},{"type":"Feature","geometry":{"type":"Polygon","coordinates":[[[27.552083,68.664583],[27.55625,68.664583],[27.55625,68.66875],[27.552083,68.66875],[27.552083,68.664583]]]},"properties":{"radiance":25.13}},{"type":"Feature","geometry":{"type":"Polygon","coordinates":[[[27.55625,68.664583],[27.560417,68.664583],[27.560417,68.66875],[27.55625,68.66875],[27.55625,68.664583]]]},"properties":{"radiance":7.49}},{"type":"Feature","geometry":{"type":"Polygon","coordinates":[[[27.560417,68.664583],[27.564583,68.664583],[27.564583,68.66875],[27.560417,68.66875],[27.560417,68.664583]]]},"properties":{"radiance":10.93}},{"type":"Feature","geometry":{"type":"Polygon","coordinates":[[[27.564583,68.664583],[27.56875,68.664583],[27.56875,68.66875],[27.564583,68.66875],[27.564583,68.664583]]]},"properties":{"radiance":12.37}},{"type":"Feature","geometry":{"type":"Polygon","coordinates":[[[27.56875,68.664583],[27.572917,68.664583],[27.572917,68.66875],[27.56875,68.66875],[27.56875,68.664583]]]},"properties":{"radiance":6.94}},{"type":"Feature","geometry":{"type":"Polygon","coordinates":[[[27.572917,68.664583],[27.577083,68.664583],[27.577083,68.66875],[27.572917,68.66875],[27.572917,68.664583]]]},"properties":{"radiance":10.31}},{"type":"Feature","geometry":{"type":"Polygon","coordinates":[[[27.577083,68.664583],[27.58125,68.664583],[27.58125,68.66875],[27.577083,68.66875],[27.577083,68.664583]]]},"properties":{"radiance":10.1}},{"type":"Feature","geometry":{"type":"Polygon","coordinates":[[[27.58125,68.664583],[27.585417,68.664583],[27.585417,68.66875],[27.58125,68.66875],[27.58125,68.664583]]]},"properties":{"radiance":5.96}},{"type":"Feature","geometry":{"type":"Polygon","coordinates":[[[27.589583,68.664583],[27.59375,68.664583],[27.59375,68.66875],[27.589583,68.66875],[27.589583,68.664583]]]},"properties":{"radiance":5.55}},{"type":"Feature","geometry":{"type":"Polygon","coordinates":[[[27.59375,68.664583],[27.597917,68.664583],[27.597917,68.66875],[27.59375,68.66875],[27.59375,68.664583]]]},"properties":{"radiance":9.2}},{"type":"Feature","geometry":{"type":"Polygon","coordinates":[[[27.597917,68.664583],[27.602083,68.664583],[27.602083,68.66875],[27.597917,68.66875],[27.597917,68.664583]]]},"properties":{"radiance":7.53}},{"type":"Feature","geometry":{"type":"Polygon","coordinates":[[[27.60625,68.664583],[27.610417,68.664583],[27.610417,68.66875],[27.60625,68.66875],[27.60625,68.664583]]]},"properties":{"radiance":7.33}},{"type":"Feature","geometry":{"type":"Polygon","coordinates":[[[27.610417,68.664583],[27.614583,68.664583],[27.614583,68.66875],[27.610417,68.66875],[27.610417,68.664583]]]},"properties":{"radiance":5.98}},{"type":"Feature","geometry":{"type":"Polygon","coordinates":[[[27.510417,68.660417],[27.514583,68.660417],[27.514583,68.664583],[27.510417,68.664583],[27.510417,68.660417]]]},"properties":{"radiance":12.19}},{"type":"Feature","geometry":{"type":"Polygon","coordinates":[[[27.514583,68.660417],[27.51875,68.660417],[27.51875,68.664583],[27.514583,68.664583],[27.514583,68.660417]]]},"properties":{"radiance":17.68}},{"type":"Feature","geometry":{"type":"Polygon","coordinates":[[[27.51875,68.660417],[27.522917,68.660417],[27.522917,68.664583],[27.51875,68.664583],[27.51875,68.660417]]]},"properties":{"radiance":78.26}},{"type":"Feature","geometry":{"type":"Polygon","coordinates":[[[27.522917,68.660417],[27.527083,68.660417],[27.527083,68.664583],[27.522917,68.664583],[27.522917,68.660417]]]},"properties":{"radiance":103.21}},{"type":"Feature","geometry":{"type":"Polygon","coordinates":[[[27.527083,68.660417],[27.53125,68.660417],[27.53125,68.664583],[27.527083,68.664583],[27.527083,68.660417]]]},"properties":{"radiance":102.95}},{"type":"Feature","geometry":{"type":"Polygon","coordinates":[[[27.53125,68.660417],[27.535417,68.660417],[27.535417,68.664583],[27.53125,68.664583],[27.53125,68.660417]]]},"properties":{"radiance":107.04}},{"type":"Feature","geometry":{"type":"Polygon","coordinates":[[[27.535417,68.660417],[27.539583,68.660417],[27.539583,68.664583],[27.535417,68.664583],[27.535417,68.660417]]]},"properties":{"radiance":104.72}},{"type":"Feature","geometry":{"type":"Polygon","coordinates":[[[27.539583,68.660417],[27.54375,68.660417],[27.54375,68.664583],[27.539583,68.664583],[27.539583,68.660417]]]},"properties":{"radiance":110.07}},{"type":"Feature","geometry":{"type":"Polygon","coordinates":[[[27.54375,68.660417],[27.547917,68.660417],[27.547917,68.664583],[27.54375,68.664583],[27.54375,68.660417]]]},"properties":{"radiance":81.03}},{"type":"Feature","geometry":{"type":"Polygon","coordinates":[[[27.547917,68.660417],[27.552083,68.660417],[27.552083,68.664583],[27.547917,68.664583],[27.547917,68.660417]]]},"properties":{"radiance":71.39}},{"type":"Feature","geometry":{"type":"Polygon","coordinates":[[[27.552083,68.660417],[27.55625,68.660417],[27.55625,68.664583],[27.552083,68.664583],[27.552083,68.660417]]]},"properties":{"radiance":65.16}},{"type":"Feature","geometry":{"type":"Polygon","coordinates":[[[27.55625,68.660417],[27.560417,68.660417],[27.560417,68.664583],[27.55625,68.664583],[27.55625,68.660417]]]},"properties":{"radiance":46.96}},{"type":"Feature","geometry":{"type":"Polygon","coordinates":[[[27.560417,68.660417],[27.564583,68.660417],[27.564583,68.664583],[27.560417,68.664583],[27.560417,68.660417]]]},"properties":{"radiance":36.48}},{"type":"Feature","geometry":{"type":"Polygon","coordinates":[[[27.564583,68.660417],[27.56875,68.660417],[27.56875,68.664583],[27.564583,68.664583],[27.564583,68.660417]]]},"properties":{"radiance":38.12}},{"type":"Feature","geometry":{"type":"Polygon","coordinates":[[[27.56875,68.660417],[27.572917,68.660417],[27.572917,68.664583],[27.56875,68.664583],[27.56875,68.660417]]]},"properties":{"radiance":15.21}},{"type":"Feature","geometry":{"type":"Polygon","coordinates":[[[27.572917,68.660417],[27.577083,68.660417],[27.577083,68.664583],[27.572917,68.664583],[27.572917,68.660417]]]},"properties":{"radiance":12.05}},{"type":"Feature","geometry":{"type":"Polygon","coordinates":[[[27.577083,68.660417],[27.58125,68.660417],[27.58125,68.664583],[27.577083,68.664583],[27.577083,68.660417]]]},"properties":{"radiance":9.69}},{"type":"Feature","geometry":{"type":"Polygon","coordinates":[[[27.602083,68.660417],[27.60625,68.660417],[27.60625,68.664583],[27.602083,68.664583],[27.602083,68.660417]]]},"properties":{"radiance":5.67}},{"type":"Feature","geometry":{"type":"Polygon","coordinates":[[[27.502083,68.65625],[27.50625,68.65625],[27.50625,68.660417],[27.502083,68.660417],[27.502083,68.65625]]]},"properties":{"radiance":6.83}},{"type":"Feature","geometry":{"type":"Polygon","coordinates":[[[27.50625,68.65625],[27.510417,68.65625],[27.510417,68.660417],[27.50625,68.660417],[27.50625,68.65625]]]},"properties":{"radiance":11.9}},{"type":"Feature","geometry":{"type":"Polygon","coordinates":[[[27.510417,68.65625],[27.514583,68.65625],[27.514583,68.660417],[27.510417,68.660417],[27.510417,68.65625]]]},"properties":{"radiance":11.64}},{"type":"Feature","geometry":{"type":"Polygon","coordinates":[[[27.514583,68.65625],[27.51875,68.65625],[27.51875,68.660417],[27.514583,68.660417],[27.514583,68.65625]]]},"properties":{"radiance":33.44}},{"type":"Feature","geometry":{"type":"Polygon","coordinates":[[[27.51875,68.65625],[27.522917,68.65625],[27.522917,68.660417],[27.51875,68.660417],[27.51875,68.65625]]]},"properties":{"radiance":78.47}},{"type":"Feature","geometry":{"type":"Polygon","coordinates":[[[27.522917,68.65625],[27.527083,68.65625],[27.527083,68.660417],[27.522917,68.660417],[27.522917,68.65625]]]},"properties":{"radiance":102.91}},{"type":"Feature","geometry":{"type":"Polygon","coordinates":[[[27.527083,68.65625],[27.53125,68.65625],[27.53125,68.660417],[27.527083,68.660417],[27.527083,68.65625]]]},"properties":{"radiance":106.82}},{"type":"Feature","geometry":{"type":"Polygon","coordinates":[[[27.53125,68.65625],[27.535417,68.65625],[27.535417,68.660417],[27.53125,68.660417],[27.53125,68.65625]]]},"properties":{"radiance":123.37}},{"type":"Feature","geometry":{"type":"Polygon","coordinates":[[[27.535417,68.65625],[27.539583,68.65625],[27.539583,68.660417],[27.535417,68.660417],[27.535417,68.65625]]]},"properties":{"radiance":119.32}},{"type":"Feature","geometry":{"type":"Polygon","coordinates":[[[27.539583,68.65625],[27.54375,68.65625],[27.54375,68.660417],[27.539583,68.660417],[27.539583,68.65625]]]},"properties":{"radiance":99.99}},{"type":"Feature","geometry":{"type":"Polygon","coordinates":[[[27.54375,68.65625],[27.547917,68.65625],[27.547917,68.660417],[27.54375,68.660417],[27.54375,68.65625]]]},"properties":{"radiance":96.55}},{"type":"Feature","geometry":{"type":"Polygon","coordinates":[[[27.547917,68.65625],[27.552083,68.65625],[27.552083,68.660417],[27.547917,68.660417],[27.547917,68.65625]]]},"properties":{"radiance":74.64}},{"type":"Feature","geometry":{"type":"Polygon","coordinates":[[[27.552083,68.65625],[27.55625,68.65625],[27.55625,68.660417],[27.552083,68.660417],[27.552083,68.65625]]]},"properties":{"radiance":66.84}},{"type":"Feature","geometry":{"type":"Polygon","coordinates":[[[27.55625,68.65625],[27.560417,68.65625],[27.560417,68.660417],[27.55625,68.660417],[27.55625,68.65625]]]},"properties":{"radiance":43.59}},{"type":"Feature","geometry":{"type":"Polygon","coordinates":[[[27.560417,68.65625],[27.564583,68.65625],[27.564583,68.660417],[27.560417,68.660417],[27.560417,68.65625]]]},"properties":{"radiance":8.98}},{"type":"Feature","geometry":{"type":"Polygon","coordinates":[[[27.564583,68.65625],[27.56875,68.65625],[27.56875,68.660417],[27.564583,68.660417],[27.564583,68.65625]]]},"properties":{"radiance":25.59}},{"type":"Feature","geometry":{"type":"Polygon","coordinates":[[[27.56875,68.65625],[27.572917,68.65625],[27.572917,68.660417],[27.56875,68.660417],[27.56875,68.65625]]]},"properties":{"radiance":10.8}},{"type":"Feature","geometry":{"type":"Polygon","coordinates":[[[27.572917,68.65625],[27.577083,68.65625],[27.577083,68.660417],[27.572917,68.660417],[27.572917,68.65625]]]},"properties":{"radiance":6.03}},{"type":"Feature","geometry":{"type":"Polygon","coordinates":[[[27.577083,68.65625],[27.58125,68.65625],[27.58125,68.660417],[27.577083,68.660417],[27.577083,68.65625]]]},"properties":{"radiance":5.27}},{"type":"Feature","geometry":{"type":"Polygon","coordinates":[[[27.510417,68.652083],[27.514583,68.652083],[27.514583,68.65625],[27.510417,68.65625],[27.510417,68.652083]]]},"properties":{"radiance":8.43}},{"type":"Feature","geometry":{"type":"Polygon","coordinates":[[[27.514583,68.652083],[27.51875,68.652083],[27.51875,68.65625],[27.514583,68.65625],[27.514583,68.652083]]]},"properties":{"radiance":18.33}},{"type":"Feature","geometry":{"type":"Polygon","coordinates":[[[27.51875,68.652083],[27.522917,68.652083],[27.522917,68.65625],[27.51875,68.65625],[27.51875,68.652083]]]},"properties":{"radiance":12.43}},{"type":"Feature","geometry":{"type":"Polygon","coordinates":[[[27.522917,68.652083],[27.527083,68.652083],[27.527083,68.65625],[27.522917,68.65625],[27.522917,68.652083]]]},"properties":{"radiance":56.18}},{"type":"Feature","geometry":{"type":"Polygon","coordinates":[[[27.527083,68.652083],[27.53125,68.652083],[27.53125,68.65625],[27.527083,68.65625],[27.527083,68.652083]]]},"properties":{"radiance":73.02}},{"type":"Feature","geometry":{"type":"Polygon","coordinates":[[[27.53125,68.652083],[27.535417,68.652083],[27.535417,68.65625],[27.53125,68.65625],[27.53125,68.652083]]]},"properties":{"radiance":67.63}},{"type":"Feature","geometry":{"type":"Polygon","coordinates":[[[27.535417,68.652083],[27.539583,68.652083],[27.539583,68.65625],[27.535417,68.65625],[27.535417,68.652083]]]},"properties":{"radiance":82.38}},{"type":"Feature","geometry":{"type":"Polygon","coordinates":[[[27.539583,68.652083],[27.54375,68.652083],[27.54375,68.65625],[27.539583,68.65625],[27.539583,68.652083]]]},"properties":{"radiance":86.99}},{"type":"Feature","geometry":{"type":"Polygon","coordinates":[[[27.54375,68.652083],[27.547917,68.652083],[27.547917,68.65625],[27.54375,68.65625],[27.54375,68.652083]]]},"properties":{"radiance":75.11}},{"type":"Feature","geometry":{"type":"Polygon","coordinates":[[[27.547917,68.652083],[27.552083,68.652083],[27.552083,68.65625],[27.547917,68.65625],[27.547917,68.652083]]]},"properties":{"radiance":71.79}},{"type":"Feature","geometry":{"type":"Polygon","coordinates":[[[27.552083,68.652083],[27.55625,68.652083],[27.55625,68.65625],[27.552083,68.65625],[27.552083,68.652083]]]},"properties":{"radiance":51.04}},{"type":"Feature","geometry":{"type":"Polygon","coordinates":[[[27.55625,68.652083],[27.560417,68.652083],[27.560417,68.65625],[27.55625,68.65625],[27.55625,68.652083]]]},"properties":{"radiance":13.79}},{"type":"Feature","geometry":{"type":"Polygon","coordinates":[[[27.560417,68.652083],[27.564583,68.652083],[27.564583,68.65625],[27.560417,68.65625],[27.560417,68.652083]]]},"properties":{"radiance":6.8}},{"type":"Feature","geometry":{"type":"Polygon","coordinates":[[[27.56875,68.652083],[27.572917,68.652083],[27.572917,68.65625],[27.56875,68.65625],[27.56875,68.652083]]]},"properties":{"radiance":5.18}},{"type":"Feature","geometry":{"type":"Polygon","coordinates":[[[27.572917,68.652083],[27.577083,68.652083],[27.577083,68.65625],[27.572917,68.65625],[27.572917,68.652083]]]},"properties":{"radiance":5.59}},{"type":"Feature","geometry":{"type":"Polygon","coordinates":[[[27.522917,68.647917],[27.527083,68.647917],[27.527083,68.652083],[27.522917,68.652083],[27.522917,68.647917]]]},"properties":{"radiance":9.63}},{"type":"Feature","geometry":{"type":"Polygon","coordinates":[[[27.527083,68.647917],[27.53125,68.647917],[27.53125,68.652083],[27.527083,68.652083],[27.527083,68.647917]]]},"properties":{"radiance":8.14}},{"type":"Feature","geometry":{"type":"Polygon","coordinates":[[[27.53125,68.647917],[27.535417,68.647917],[27.535417,68.652083],[27.53125,68.652083],[27.53125,68.647917]]]},"properties":{"radiance":31.7}},{"type":"Feature","geometry":{"type":"Polygon","coordinates":[[[27.535417,68.647917],[27.539583,68.647917],[27.539583,68.652083],[27.535417,68.652083],[27.535417,68.647917]]]},"properties":{"radiance":48.33}},{"type":"Feature","geometry":{"type":"Polygon","coordinates":[[[27.539583,68.647917],[27.54375,68.647917],[27.54375,68.652083],[27.539583,68.652083],[27.539583,68.647917]]]},"properties":{"radiance":81.99}},{"type":"Feature","geometry":{"type":"Polygon","coordinates":[[[27.54375,68.647917],[27.547917,68.647917],[27.547917,68.652083],[27.54375,68.652083],[27.54375,68.647917]]]},"properties":{"radiance":52.14}},{"type":"Feature","geometry":{"type":"Polygon","coordinates":[[[27.547917,68.647917],[27.552083,68.647917],[27.552083,68.652083],[27.547917,68.652083],[27.547917,68.647917]]]},"properties":{"radiance":17.11}},{"type":"Feature","geometry":{"type":"Polygon","coordinates":[[[27.552083,68.647917],[27.55625,68.647917],[27.55625,68.652083],[27.552083,68.652083],[27.552083,68.647917]]]},"properties":{"radiance":36.49}},{"type":"Feature","geometry":{"type":"Polygon","coordinates":[[[27.560417,68.647917],[27.564583,68.647917],[27.564583,68.652083],[27.560417,68.652083],[27.560417,68.647917]]]},"properties":{"radiance":7.2}},{"type":"Feature","geometry":{"type":"Polygon","coordinates":[[[27.56875,68.647917],[27.572917,68.647917],[27.572917,68.652083],[27.56875,68.652083],[27.56875,68.647917]]]},"properties":{"radiance":5.12}},{"type":"Feature","geometry":{"type":"Polygon","coordinates":[[[27.572917,68.647917],[27.577083,68.647917],[27.577083,68.652083],[27.572917,68.652083],[27.572917,68.647917]]]},"properties":{"radiance":5.13}},{"type":"Feature","geometry":{"type":"Polygon","coordinates":[[[27.51875,68.64375],[27.522917,68.64375],[27.522917,68.647917],[27.51875,68.647917],[27.51875,68.64375]]]},"properties":{"radiance":7.81}},{"type":"Feature","geometry":{"type":"Polygon","coordinates":[[[27.522917,68.64375],[27.527083,68.64375],[27.527083,68.647917],[27.522917,68.647917],[27.522917,68.64375]]]},"properties":{"radiance":6.47}},{"type":"Feature","geometry":{"type":"Polygon","coordinates":[[[27.527083,68.64375],[27.53125,68.64375],[27.53125,68.647917],[27.527083,68.647917],[27.527083,68.64375]]]},"properties":{"radiance":34.76}},{"type":"Feature","geometry":{"type":"Polygon","coordinates":[[[27.53125,68.64375],[27.535417,68.64375],[27.535417,68.647917],[27.53125,68.647917],[27.53125,68.64375]]]},"properties":{"radiance":28.32}},{"type":"Feature","geometry":{"type":"Polygon","coordinates":[[[27.535417,68.64375],[27.539583,68.64375],[27.539583,68.647917],[27.535417,68.647917],[27.535417,68.64375]]]},"properties":{"radiance":37.28}},{"type":"Feature","geometry":{"type":"Polygon","coordinates":[[[27.539583,68.64375],[27.54375,68.64375],[27.54375,68.647917],[27.539583,68.647917],[27.539583,68.64375]]]},"properties":{"radiance":40.56}},{"type":"Feature","geometry":{"type":"Polygon","coordinates":[[[27.54375,68.64375],[27.547917,68.64375],[27.547917,68.647917],[27.54375,68.647917],[27.54375,68.64375]]]},"properties":{"radiance":42.21}},{"type":"Feature","geometry":{"type":"Polygon","coordinates":[[[27.547917,68.64375],[27.552083,68.64375],[27.552083,68.647917],[27.547917,68.647917],[27.547917,68.64375]]]},"properties":{"radiance":49}},{"type":"Feature","geometry":{"type":"Polygon","coordinates":[[[27.552083,68.64375],[27.55625,68.64375],[27.55625,68.647917],[27.552083,68.647917],[27.552083,68.64375]]]},"properties":{"radiance":54.24}},{"type":"Feature","geometry":{"type":"Polygon","coordinates":[[[27.55625,68.64375],[27.560417,68.64375],[27.560417,68.647917],[27.55625,68.647917],[27.55625,68.64375]]]},"properties":{"radiance":49.8}},{"type":"Feature","geometry":{"type":"Polygon","coordinates":[[[27.560417,68.64375],[27.564583,68.64375],[27.564583,68.647917],[27.560417,68.647917],[27.560417,68.64375]]]},"properties":{"radiance":55.02}},{"type":"Feature","geometry":{"type":"Polygon","coordinates":[[[27.564583,68.64375],[27.56875,68.64375],[27.56875,68.647917],[27.564583,68.647917],[27.564583,68.64375]]]},"properties":{"radiance":59.28}},{"type":"Feature","geometry":{"type":"Polygon","coordinates":[[[27.56875,68.64375],[27.572917,68.64375],[27.572917,68.647917],[27.56875,68.647917],[27.56875,68.64375]]]},"properties":{"radiance":45.68}},{"type":"Feature","geometry":{"type":"Polygon","coordinates":[[[27.572917,68.64375],[27.577083,68.64375],[27.577083,68.647917],[27.572917,68.647917],[27.572917,68.64375]]]},"properties":{"radiance":50.5}},{"type":"Feature","geometry":{"type":"Polygon","coordinates":[[[27.577083,68.64375],[27.58125,68.64375],[27.58125,68.647917],[27.577083,68.647917],[27.577083,68.64375]]]},"properties":{"radiance":35.62}},{"type":"Feature","geometry":{"type":"Polygon","coordinates":[[[27.522917,68.639583],[27.527083,68.639583],[27.527083,68.64375],[27.522917,68.64375],[27.522917,68.639583]]]},"properties":{"radiance":8.68}},{"type":"Feature","geometry":{"type":"Polygon","coordinates":[[[27.527083,68.639583],[27.53125,68.639583],[27.53125,68.64375],[27.527083,68.64375],[27.527083,68.639583]]]},"properties":{"radiance":11.03}},{"type":"Feature","geometry":{"type":"Polygon","coordinates":[[[27.53125,68.639583],[27.535417,68.639583],[27.535417,68.64375],[27.53125,68.64375],[27.53125,68.639583]]]},"properties":{"radiance":7.36}},{"type":"Feature","geometry":{"type":"Polygon","coordinates":[[[27.535417,68.639583],[27.539583,68.639583],[27.539583,68.64375],[27.535417,68.64375],[27.535417,68.639583]]]},"properties":{"radiance":30.56}},{"type":"Feature","geometry":{"type":"Polygon","coordinates":[[[27.539583,68.639583],[27.54375,68.639583],[27.54375,68.64375],[27.539583,68.64375],[27.539583,68.639583]]]},"properties":{"radiance":27.29}},{"type":"Feature","geometry":{"type":"Polygon","coordinates":[[[27.54375,68.639583],[27.547917,68.639583],[27.547917,68.64375],[27.54375,68.64375],[27.54375,68.639583]]]},"properties":{"radiance":27.93}},{"type":"Feature","geometry":{"type":"Polygon","coordinates":[[[27.547917,68.639583],[27.552083,68.639583],[27.552083,68.64375],[27.547917,68.64375],[27.547917,68.639583]]]},"properties":{"radiance":41.24}},{"type":"Feature","geometry":{"type":"Polygon","coordinates":[[[27.552083,68.639583],[27.55625,68.639583],[27.55625,68.64375],[27.552083,68.64375],[27.552083,68.639583]]]},"properties":{"radiance":62.05}},{"type":"Feature","geometry":{"type":"Polygon","coordinates":[[[27.55625,68.639583],[27.560417,68.639583],[27.560417,68.64375],[27.55625,68.64375],[27.55625,68.639583]]]},"properties":{"radiance":72.28}},{"type":"Feature","geometry":{"type":"Polygon","coordinates":[[[27.560417,68.639583],[27.564583,68.639583],[27.564583,68.64375],[27.560417,68.64375],[27.560417,68.639583]]]},"properties":{"radiance":65.88}},{"type":"Feature","geometry":{"type":"Polygon","coordinates":[[[27.564583,68.639583],[27.56875,68.639583],[27.56875,68.64375],[27.564583,68.64375],[27.564583,68.639583]]]},"properties":{"radiance":79.9}},{"type":"Feature","geometry":{"type":"Polygon","coordinates":[[[27.56875,68.639583],[27.572917,68.639583],[27.572917,68.64375],[27.56875,68.64375],[27.56875,68.639583]]]},"properties":{"radiance":57.9}},{"type":"Feature","geometry":{"type":"Polygon","coordinates":[[[27.572917,68.639583],[27.577083,68.639583],[27.577083,68.64375],[27.572917,68.64375],[27.572917,68.639583]]]},"properties":{"radiance":31.01}},{"type":"Feature","geometry":{"type":"Polygon","coordinates":[[[27.577083,68.639583],[27.58125,68.639583],[27.58125,68.64375],[27.577083,68.64375],[27.577083,68.639583]]]},"properties":{"radiance":31.04}},{"type":"Feature","geometry":{"type":"Polygon","coordinates":[[[27.58125,68.639583],[27.585417,68.639583],[27.585417,68.64375],[27.58125,68.64375],[27.58125,68.639583]]]},"properties":{"radiance":5.22}},{"type":"Feature","geometry":{"type":"Polygon","coordinates":[[[27.527083,68.635417],[27.53125,68.635417],[27.53125,68.639583],[27.527083,68.639583],[27.527083,68.635417]]]},"properties":{"radiance":11.58}},{"type":"Feature","geometry":{"type":"Polygon","coordinates":[[[27.53125,68.635417],[27.535417,68.635417],[27.535417,68.639583],[27.53125,68.639583],[27.53125,68.635417]]]},"properties":{"radiance":6.98}},{"type":"Feature","geometry":{"type":"Polygon","coordinates":[[[27.535417,68.635417],[27.539583,68.635417],[27.539583,68.639583],[27.535417,68.639583],[27.535417,68.635417]]]},"properties":{"radiance":7.27}},{"type":"Feature","geometry":{"type":"Polygon","coordinates":[[[27.539583,68.635417],[27.54375,68.635417],[27.54375,68.639583],[27.539583,68.639583],[27.539583,68.635417]]]},"properties":{"radiance":7.98}},{"type":"Feature","geometry":{"type":"Polygon","coordinates":[[[27.54375,68.635417],[27.547917,68.635417],[27.547917,68.639583],[27.54375,68.639583],[27.54375,68.635417]]]},"properties":{"radiance":8.7}},{"type":"Feature","geometry":{"type":"Polygon","coordinates":[[[27.547917,68.635417],[27.552083,68.635417],[27.552083,68.639583],[27.547917,68.639583],[27.547917,68.635417]]]},"properties":{"radiance":7.97}},{"type":"Feature","geometry":{"type":"Polygon","coordinates":[[[27.55625,68.635417],[27.560417,68.635417],[27.560417,68.639583],[27.55625,68.639583],[27.55625,68.635417]]]},"properties":{"radiance":7.32}},{"type":"Feature","geometry":{"type":"Polygon","coordinates":[[[27.560417,68.635417],[27.564583,68.635417],[27.564583,68.639583],[27.560417,68.639583],[27.560417,68.635417]]]},"properties":{"radiance":7.13}},{"type":"Feature","geometry":{"type":"Polygon","coordinates":[[[27.564583,68.635417],[27.56875,68.635417],[27.56875,68.639583],[27.564583,68.639583],[27.564583,68.635417]]]},"properties":{"radiance":5.92}},{"type":"Feature","geometry":{"type":"Polygon","coordinates":[[[27.56875,68.635417],[27.572917,68.635417],[27.572917,68.639583],[27.56875,68.639583],[27.56875,68.635417]]]},"properties":{"radiance":7.24}},{"type":"Feature","geometry":{"type":"Polygon","coordinates":[[[27.572917,68.635417],[27.577083,68.635417],[27.577083,68.639583],[27.572917,68.639583],[27.572917,68.635417]]]},"properties":{"radiance":7.34}},{"type":"Feature","geometry":{"type":"Polygon","coordinates":[[[27.577083,68.635417],[27.58125,68.635417],[27.58125,68.639583],[27.577083,68.639583],[27.577083,68.635417]]]},"properties":{"radiance":5.11}},{"type":"Feature","geometry":{"type":"Polygon","coordinates":[[[27.527083,68.63125],[27.53125,68.63125],[27.53125,68.635417],[27.527083,68.635417],[27.527083,68.63125]]]},"properties":{"radiance":5.67}},{"type":"Feature","geometry":{"type":"Polygon","coordinates":[[[27.53125,68.63125],[27.535417,68.63125],[27.535417,68.635417],[27.53125,68.635417],[27.53125,68.63125]]]},"properties":{"radiance":6.87}},{"type":"Feature","geometry":{"type":"Polygon","coordinates":[[[27.535417,68.63125],[27.539583,68.63125],[27.539583,68.635417],[27.535417,68.635417],[27.535417,68.63125]]]},"properties":{"radiance":6.61}},{"type":"Feature","geometry":{"type":"Polygon","coordinates":[[[27.539583,68.63125],[27.54375,68.63125],[27.54375,68.635417],[27.539583,68.635417],[27.539583,68.63125]]]},"properties":{"radiance":5.78}},{"type":"Feature","geometry":{"type":"Polygon","coordinates":[[[27.54375,68.63125],[27.547917,68.63125],[27.547917,68.635417],[27.54375,68.635417],[27.54375,68.63125]]]},"properties":{"radiance":5.82}},{"type":"Feature","geometry":{"type":"Polygon","coordinates":[[[27.552083,68.63125],[27.55625,68.63125],[27.55625,68.635417],[27.552083,68.635417],[27.552083,68.63125]]]},"properties":{"radiance":7.12}},{"type":"Feature","geometry":{"type":"Polygon","coordinates":[[[27.55625,68.63125],[27.560417,68.63125],[27.560417,68.635417],[27.55625,68.635417],[27.55625,68.63125]]]},"properties":{"radiance":6.4}},{"type":"Feature","geometry":{"type":"Polygon","coordinates":[[[27.53125,68.627083],[27.535417,68.627083],[27.535417,68.63125],[27.53125,68.63125],[27.53125,68.627083]]]},"properties":{"radiance":6.56}},{"type":"Feature","geometry":{"type":"Polygon","coordinates":[[[27.535417,68.627083],[27.539583,68.627083],[27.539583,68.63125],[27.535417,68.63125],[27.535417,68.627083]]]},"properties":{"radiance":11.3}},{"type":"Feature","geometry":{"type":"Polygon","coordinates":[[[27.547917,68.627083],[27.552083,68.627083],[27.552083,68.63125],[27.547917,68.63125],[27.547917,68.627083]]]},"properties":{"radiance":10.84}},{"type":"Feature","geometry":{"type":"Polygon","coordinates":[[[27.552083,68.627083],[27.55625,68.627083],[27.55625,68.63125],[27.552083,68.63125],[27.552083,68.627083]]]},"properties":{"radiance":5.94}},{"type":"Feature","geometry":{"type":"Polygon","coordinates":[[[27.522917,68.622917],[27.527083,68.622917],[27.527083,68.627083],[27.522917,68.627083],[27.522917,68.622917]]]},"properties":{"radiance":9.53}},{"type":"Feature","geometry":{"type":"Polygon","coordinates":[[[27.527083,68.622917],[27.53125,68.622917],[27.53125,68.627083],[27.527083,68.627083],[27.527083,68.622917]]]},"properties":{"radiance":9.54}},{"type":"Feature","geometry":{"type":"Polygon","coordinates":[[[27.53125,68.622917],[27.535417,68.622917],[27.535417,68.627083],[27.53125,68.627083],[27.53125,68.622917]]]},"properties":{"radiance":11.43}},{"type":"Feature","geometry":{"type":"Polygon","coordinates":[[[27.535417,68.622917],[27.539583,68.622917],[27.539583,68.627083],[27.535417,68.627083],[27.535417,68.622917]]]},"properties":{"radiance":7.32}},{"type":"Feature","geometry":{"type":"Polygon","coordinates":[[[27.539583,68.622917],[27.54375,68.622917],[27.54375,68.627083],[27.539583,68.627083],[27.539583,68.622917]]]},"properties":{"radiance":6.68}},{"type":"Feature","geometry":{"type":"Polygon","coordinates":[[[27.54375,68.622917],[27.547917,68.622917],[27.547917,68.627083],[27.54375,68.627083],[27.54375,68.622917]]]},"properties":{"radiance":5.1}},{"type":"Feature","geometry":{"type":"Polygon","coordinates":[[[27.547917,68.622917],[27.552083,68.622917],[27.552083,68.627083],[27.547917,68.627083],[27.547917,68.622917]]]},"properties":{"radiance":5.26}},{"type":"Feature","geometry":{"type":"Polygon","coordinates":[[[27.552083,68.622917],[27.55625,68.622917],[27.55625,68.627083],[27.552083,68.627083],[27.552083,68.622917]]]},"properties":{"radiance":5.26}},{"type":"Feature","geometry":{"type":"Polygon","coordinates":[[[27.55625,68.622917],[27.560417,68.622917],[27.560417,68.627083],[27.55625,68.627083],[27.55625,68.622917]]]},"properties":{"radiance":5.77}},{"type":"Feature","geometry":{"type":"Polygon","coordinates":[[[27.51875,68.61875],[27.522917,68.61875],[27.522917,68.622917],[27.51875,68.622917],[27.51875,68.61875]]]},"properties":{"radiance":6.2}},{"type":"Feature","geometry":{"type":"Polygon","coordinates":[[[27.522917,68.61875],[27.527083,68.61875],[27.527083,68.622917],[27.522917,68.622917],[27.522917,68.61875]]]},"properties":{"radiance":7.31}},{"type":"Feature","geometry":{"type":"Polygon","coordinates":[[[27.527083,68.61875],[27.53125,68.61875],[27.53125,68.622917],[27.527083,68.622917],[27.527083,68.61875]]]},"properties":{"radiance":8.2}},{"type":"Feature","geometry":{"type":"Polygon","coordinates":[[[27.54375,68.61875],[27.547917,68.61875],[27.547917,68.622917],[27.54375,68.622917],[27.54375,68.61875]]]},"properties":{"radiance":10.67}},{"type":"Feature","geometry":{"type":"Polygon","coordinates":[[[27.547917,68.61875],[27.552083,68.61875],[27.552083,68.622917],[27.547917,68.622917],[27.547917,68.61875]]]},"properties":{"radiance":7.04}},{"type":"Feature","geometry":{"type":"Polygon","coordinates":[[[27.552083,68.61875],[27.55625,68.61875],[27.55625,68.622917],[27.552083,68.622917],[27.552083,68.61875]]]},"properties":{"radiance":6.01}},{"type":"Feature","geometry":{"type":"Polygon","coordinates":[[[27.50625,68.614583],[27.510417,68.614583],[27.510417,68.61875],[27.50625,68.61875],[27.50625,68.614583]]]},"properties":{"radiance":6.07}},{"type":"Feature","geometry":{"type":"Polygon","coordinates":[[[27.510417,68.614583],[27.514583,68.614583],[27.514583,68.61875],[27.510417,68.61875],[27.510417,68.614583]]]},"properties":{"radiance":7.44}},{"type":"Feature","geometry":{"type":"Polygon","coordinates":[[[27.522917,68.614583],[27.527083,68.614583],[27.527083,68.61875],[27.522917,68.61875],[27.522917,68.614583]]]},"properties":{"radiance":8.63}},{"type":"Feature","geometry":{"type":"Polygon","coordinates":[[[27.527083,68.614583],[27.53125,68.614583],[27.53125,68.61875],[27.527083,68.61875],[27.527083,68.614583]]]},"properties":{"radiance":7.84}},{"type":"Feature","geometry":{"type":"Polygon","coordinates":[[[27.539583,68.614583],[27.54375,68.614583],[27.54375,68.61875],[27.539583,68.61875],[27.539583,68.614583]]]},"properties":{"radiance":10.3}},{"type":"Feature","geometry":{"type":"Polygon","coordinates":[[[27.54375,68.614583],[27.547917,68.614583],[27.547917,68.61875],[27.54375,68.61875],[27.54375,68.614583]]]},"properties":{"radiance":6.77}},{"type":"Feature","geometry":{"type":"Polygon","coordinates":[[[27.414583,68.610417],[27.41875,68.610417],[27.41875,68.614583],[27.414583,68.614583],[27.414583,68.610417]]]},"properties":{"radiance":10.58}},{"type":"Feature","geometry":{"type":"Polygon","coordinates":[[[27.41875,68.610417],[27.422917,68.610417],[27.422917,68.614583],[27.41875,68.614583],[27.41875,68.610417]]]},"properties":{"radiance":31.08}},{"type":"Feature","geometry":{"type":"Polygon","coordinates":[[[27.422917,68.610417],[27.427083,68.610417],[27.427083,68.614583],[27.422917,68.614583],[27.422917,68.610417]]]},"properties":{"radiance":8.64}},{"type":"Feature","geometry":{"type":"Polygon","coordinates":[[[27.464583,68.610417],[27.46875,68.610417],[27.46875,68.614583],[27.464583,68.614583],[27.464583,68.610417]]]},"properties":{"radiance":7.47}},{"type":"Feature","geometry":{"type":"Polygon","coordinates":[[[27.472917,68.610417],[27.477083,68.610417],[27.477083,68.614583],[27.472917,68.614583],[27.472917,68.610417]]]},"properties":{"radiance":6.48}},{"type":"Feature","geometry":{"type":"Polygon","coordinates":[[[27.477083,68.610417],[27.48125,68.610417],[27.48125,68.614583],[27.477083,68.614583],[27.477083,68.610417]]]},"properties":{"radiance":8.87}},{"type":"Feature","geometry":{"type":"Polygon","coordinates":[[[27.48125,68.610417],[27.485417,68.610417],[27.485417,68.614583],[27.48125,68.614583],[27.48125,68.610417]]]},"properties":{"radiance":8.6}},{"type":"Feature","geometry":{"type":"Polygon","coordinates":[[[27.485417,68.610417],[27.489583,68.610417],[27.489583,68.614583],[27.485417,68.614583],[27.485417,68.610417]]]},"properties":{"radiance":7.56}},{"type":"Feature","geometry":{"type":"Polygon","coordinates":[[[27.50625,68.610417],[27.510417,68.610417],[27.510417,68.614583],[27.50625,68.614583],[27.50625,68.610417]]]},"properties":{"radiance":7.36}},{"type":"Feature","geometry":{"type":"Polygon","coordinates":[[[27.510417,68.610417],[27.514583,68.610417],[27.514583,68.614583],[27.510417,68.614583],[27.510417,68.610417]]]},"properties":{"radiance":8.77}},{"type":"Feature","geometry":{"type":"Polygon","coordinates":[[[27.514583,68.610417],[27.51875,68.610417],[27.51875,68.614583],[27.514583,68.614583],[27.514583,68.610417]]]},"properties":{"radiance":7.24}},{"type":"Feature","geometry":{"type":"Polygon","coordinates":[[[27.51875,68.610417],[27.522917,68.610417],[27.522917,68.614583],[27.51875,68.614583],[27.51875,68.610417]]]},"properties":{"radiance":6.25}},{"type":"Feature","geometry":{"type":"Polygon","coordinates":[[[27.527083,68.610417],[27.53125,68.610417],[27.53125,68.614583],[27.527083,68.614583],[27.527083,68.610417]]]},"properties":{"radiance":7.18}},{"type":"Feature","geometry":{"type":"Polygon","coordinates":[[[27.53125,68.610417],[27.535417,68.610417],[27.535417,68.614583],[27.53125,68.614583],[27.53125,68.610417]]]},"properties":{"radiance":5.15}},{"type":"Feature","geometry":{"type":"Polygon","coordinates":[[[27.535417,68.610417],[27.539583,68.610417],[27.539583,68.614583],[27.535417,68.614583],[27.535417,68.610417]]]},"properties":{"radiance":5.12}},{"type":"Feature","geometry":{"type":"Polygon","coordinates":[[[27.410417,68.60625],[27.414583,68.60625],[27.414583,68.610417],[27.410417,68.610417],[27.410417,68.60625]]]},"properties":{"radiance":6.33}},{"type":"Feature","geometry":{"type":"Polygon","coordinates":[[[27.414583,68.60625],[27.41875,68.60625],[27.41875,68.610417],[27.414583,68.610417],[27.414583,68.60625]]]},"properties":{"radiance":16.07}},{"type":"Feature","geometry":{"type":"Polygon","coordinates":[[[27.41875,68.60625],[27.422917,68.60625],[27.422917,68.610417],[27.41875,68.610417],[27.41875,68.60625]]]},"properties":{"radiance":38.9}},{"type":"Feature","geometry":{"type":"Polygon","coordinates":[[[27.422917,68.60625],[27.427083,68.60625],[27.427083,68.610417],[27.422917,68.610417],[27.422917,68.60625]]]},"properties":{"radiance":13.12}},{"type":"Feature","geometry":{"type":"Polygon","coordinates":[[[27.427083,68.60625],[27.43125,68.60625],[27.43125,68.610417],[27.427083,68.610417],[27.427083,68.60625]]]},"properties":{"radiance":5.67}},{"type":"Feature","geometry":{"type":"Polygon","coordinates":[[[27.44375,68.60625],[27.447917,68.60625],[27.447917,68.610417],[27.44375,68.610417],[27.44375,68.60625]]]},"properties":{"radiance":5.18}},{"type":"Feature","geometry":{"type":"Polygon","coordinates":[[[27.452083,68.60625],[27.45625,68.60625],[27.45625,68.610417],[27.452083,68.610417],[27.452083,68.60625]]]},"properties":{"radiance":5.02}},{"type":"Feature","geometry":{"type":"Polygon","coordinates":[[[27.45625,68.60625],[27.460417,68.60625],[27.460417,68.610417],[27.45625,68.610417],[27.45625,68.60625]]]},"properties":{"radiance":5.65}},{"type":"Feature","geometry":{"type":"Polygon","coordinates":[[[27.460417,68.60625],[27.464583,68.60625],[27.464583,68.610417],[27.460417,68.610417],[27.460417,68.60625]]]},"properties":{"radiance":5.21}},{"type":"Feature","geometry":{"type":"Polygon","coordinates":[[[27.464583,68.60625],[27.46875,68.60625],[27.46875,68.610417],[27.464583,68.610417],[27.464583,68.60625]]]},"properties":{"radiance":6.02}},{"type":"Feature","geometry":{"type":"Polygon","coordinates":[[[27.472917,68.60625],[27.477083,68.60625],[27.477083,68.610417],[27.472917,68.610417],[27.472917,68.60625]]]},"properties":{"radiance":5.25}},{"type":"Feature","geometry":{"type":"Polygon","coordinates":[[[27.477083,68.60625],[27.48125,68.60625],[27.48125,68.610417],[27.477083,68.610417],[27.477083,68.60625]]]},"properties":{"radiance":17.92}},{"type":"Feature","geometry":{"type":"Polygon","coordinates":[[[27.48125,68.60625],[27.485417,68.60625],[27.485417,68.610417],[27.48125,68.610417],[27.48125,68.60625]]]},"properties":{"radiance":8.72}},{"type":"Feature","geometry":{"type":"Polygon","coordinates":[[[27.485417,68.60625],[27.489583,68.60625],[27.489583,68.610417],[27.485417,68.610417],[27.485417,68.60625]]]},"properties":{"radiance":7.09}},{"type":"Feature","geometry":{"type":"Polygon","coordinates":[[[27.502083,68.60625],[27.50625,68.60625],[27.50625,68.610417],[27.502083,68.610417],[27.502083,68.60625]]]},"properties":{"radiance":8.45}},{"type":"Feature","geometry":{"type":"Polygon","coordinates":[[[27.50625,68.60625],[27.510417,68.60625],[27.510417,68.610417],[27.50625,68.610417],[27.50625,68.60625]]]},"properties":{"radiance":5.95}},{"type":"Feature","geometry":{"type":"Polygon","coordinates":[[[27.510417,68.60625],[27.514583,68.60625],[27.514583,68.610417],[27.510417,68.610417],[27.510417,68.60625]]]},"properties":{"radiance":8.93}},{"type":"Feature","geometry":{"type":"Polygon","coordinates":[[[27.464583,68.602083],[27.46875,68.602083],[27.46875,68.60625],[27.464583,68.60625],[27.464583,68.602083]]]},"properties":{"radiance":5.09}},{"type":"Feature","geometry":{"type":"Polygon","coordinates":[[[27.46875,68.602083],[27.472917,68.602083],[27.472917,68.60625],[27.46875,68.60625],[27.46875,68.602083]]]},"properties":{"radiance":9.08}},{"type":"Feature","geometry":{"type":"Polygon","coordinates":[[[27.477083,68.602083],[27.48125,68.602083],[27.48125,68.60625],[27.477083,68.60625],[27.477083,68.602083]]]},"properties":{"radiance":10.99}},{"type":"Feature","geometry":{"type":"Polygon","coordinates":[[[28.435417,68.48125],[28.439583,68.48125],[28.439583,68.485417],[28.435417,68.485417],[28.435417,68.48125]]]},"properties":{"radiance":14.46}},{"type":"Feature","geometry":{"type":"Polygon","coordinates":[[[28.439583,68.48125],[28.44375,68.48125],[28.44375,68.485417],[28.439583,68.485417],[28.439583,68.48125]]]},"properties":{"radiance":8.63}},{"type":"Feature","geometry":{"type":"Polygon","coordinates":[[[28.44375,68.48125],[28.447917,68.48125],[28.447917,68.485417],[28.44375,68.485417],[28.44375,68.48125]]]},"properties":{"radiance":7.61}},{"type":"Feature","geometry":{"type":"Polygon","coordinates":[[[28.447917,68.48125],[28.452083,68.48125],[28.452083,68.485417],[28.447917,68.485417],[28.447917,68.48125]]]},"properties":{"radiance":5.98}},{"type":"Feature","geometry":{"type":"Polygon","coordinates":[[[28.452083,68.48125],[28.45625,68.48125],[28.45625,68.485417],[28.452083,68.485417],[28.452083,68.48125]]]},"properties":{"radiance":8.22}},{"type":"Feature","geometry":{"type":"Polygon","coordinates":[[[28.460417,68.48125],[28.464583,68.48125],[28.464583,68.485417],[28.460417,68.485417],[28.460417,68.48125]]]},"properties":{"radiance":8.21}},{"type":"Feature","geometry":{"type":"Polygon","coordinates":[[[28.435417,68.477083],[28.439583,68.477083],[28.439583,68.48125],[28.435417,68.48125],[28.435417,68.477083]]]},"properties":{"radiance":9.91}},{"type":"Feature","geometry":{"type":"Polygon","coordinates":[[[28.44375,68.477083],[28.447917,68.477083],[28.447917,68.48125],[28.44375,68.48125],[28.44375,68.477083]]]},"properties":{"radiance":9.62}},{"type":"Feature","geometry":{"type":"Polygon","coordinates":[[[28.447917,68.477083],[28.452083,68.477083],[28.452083,68.48125],[28.447917,68.48125],[28.447917,68.477083]]]},"properties":{"radiance":8.08}},{"type":"Feature","geometry":{"type":"Polygon","coordinates":[[[28.452083,68.477083],[28.45625,68.477083],[28.45625,68.48125],[28.452083,68.48125],[28.452083,68.477083]]]},"properties":{"radiance":8.4}},{"type":"Feature","geometry":{"type":"Polygon","coordinates":[[[28.45625,68.477083],[28.460417,68.477083],[28.460417,68.48125],[28.45625,68.48125],[28.45625,68.477083]]]},"properties":{"radiance":35.16}},{"type":"Feature","geometry":{"type":"Polygon","coordinates":[[[28.460417,68.477083],[28.464583,68.477083],[28.464583,68.48125],[28.460417,68.48125],[28.460417,68.477083]]]},"properties":{"radiance":42.15}},{"type":"Feature","geometry":{"type":"Polygon","coordinates":[[[28.464583,68.477083],[28.46875,68.477083],[28.46875,68.48125],[28.464583,68.48125],[28.464583,68.477083]]]},"properties":{"radiance":39.94}},{"type":"Feature","geometry":{"type":"Polygon","coordinates":[[[28.46875,68.477083],[28.472917,68.477083],[28.472917,68.48125],[28.46875,68.48125],[28.46875,68.477083]]]},"properties":{"radiance":40.77}},{"type":"Feature","geometry":{"type":"Polygon","coordinates":[[[28.464583,68.472917],[28.46875,68.472917],[28.46875,68.477083],[28.464583,68.477083],[28.464583,68.472917]]]},"properties":{"radiance":5.47}},{"type":"Feature","geometry":{"type":"Polygon","coordinates":[[[28.46875,68.472917],[28.472917,68.472917],[28.472917,68.477083],[28.46875,68.477083],[28.46875,68.472917]]]},"properties":{"radiance":7.39}},{"type":"Feature","geometry":{"type":"Polygon","coordinates":[[[27.402083,68.43125],[27.40625,68.43125],[27.40625,68.435417],[27.402083,68.435417],[27.402083,68.43125]]]},"properties":{"radiance":5.96}},{"type":"Feature","geometry":{"type":"Polygon","coordinates":[[[27.40625,68.43125],[27.410417,68.43125],[27.410417,68.435417],[27.40625,68.435417],[27.40625,68.43125]]]},"properties":{"radiance":6.24}},{"type":"Feature","geometry":{"type":"Polygon","coordinates":[[[27.41875,68.43125],[27.422917,68.43125],[27.422917,68.435417],[27.41875,68.435417],[27.41875,68.43125]]]},"properties":{"radiance":13.86}},{"type":"Feature","geometry":{"type":"Polygon","coordinates":[[[27.422917,68.43125],[27.427083,68.43125],[27.427083,68.435417],[27.422917,68.435417],[27.422917,68.43125]]]},"properties":{"radiance":13.32}},{"type":"Feature","geometry":{"type":"Polygon","coordinates":[[[27.427083,68.43125],[27.43125,68.43125],[27.43125,68.435417],[27.427083,68.435417],[27.427083,68.43125]]]},"properties":{"radiance":13.35}},{"type":"Feature","geometry":{"type":"Polygon","coordinates":[[[27.397917,68.427083],[27.402083,68.427083],[27.402083,68.43125],[27.397917,68.43125],[27.397917,68.427083]]]},"properties":{"radiance":7.48}},{"type":"Feature","geometry":{"type":"Polygon","coordinates":[[[27.402083,68.427083],[27.40625,68.427083],[27.40625,68.43125],[27.402083,68.43125],[27.402083,68.427083]]]},"properties":{"radiance":8.55}},{"type":"Feature","geometry":{"type":"Polygon","coordinates":[[[27.40625,68.427083],[27.410417,68.427083],[27.410417,68.43125],[27.40625,68.43125],[27.40625,68.427083]]]},"properties":{"radiance":17.27}},{"type":"Feature","geometry":{"type":"Polygon","coordinates":[[[27.410417,68.427083],[27.414583,68.427083],[27.414583,68.43125],[27.410417,68.43125],[27.410417,68.427083]]]},"properties":{"radiance":13.33}},{"type":"Feature","geometry":{"type":"Polygon","coordinates":[[[27.414583,68.427083],[27.41875,68.427083],[27.41875,68.43125],[27.414583,68.43125],[27.414583,68.427083]]]},"properties":{"radiance":48.31}},{"type":"Feature","geometry":{"type":"Polygon","coordinates":[[[27.41875,68.427083],[27.422917,68.427083],[27.422917,68.43125],[27.41875,68.43125],[27.41875,68.427083]]]},"properties":{"radiance":20.87}},{"type":"Feature","geometry":{"type":"Polygon","coordinates":[[[27.422917,68.427083],[27.427083,68.427083],[27.427083,68.43125],[27.422917,68.43125],[27.422917,68.427083]]]},"properties":{"radiance":22.07}},{"type":"Feature","geometry":{"type":"Polygon","coordinates":[[[27.427083,68.427083],[27.43125,68.427083],[27.43125,68.43125],[27.427083,68.43125],[27.427083,68.427083]]]},"properties":{"radiance":5.1}},{"type":"Feature","geometry":{"type":"Polygon","coordinates":[[[27.435417,68.427083],[27.439583,68.427083],[27.439583,68.43125],[27.435417,68.43125],[27.435417,68.427083]]]},"properties":{"radiance":5.39}},{"type":"Feature","geometry":{"type":"Polygon","coordinates":[[[27.439583,68.427083],[27.44375,68.427083],[27.44375,68.43125],[27.439583,68.43125],[27.439583,68.427083]]]},"properties":{"radiance":5.28}},{"type":"Feature","geometry":{"type":"Polygon","coordinates":[[[27.44375,68.427083],[27.447917,68.427083],[27.447917,68.43125],[27.44375,68.43125],[27.44375,68.427083]]]},"properties":{"radiance":5.94}},{"type":"Feature","geometry":{"type":"Polygon","coordinates":[[[27.447917,68.427083],[27.452083,68.427083],[27.452083,68.43125],[27.447917,68.43125],[27.447917,68.427083]]]},"properties":{"radiance":13.47}},{"type":"Feature","geometry":{"type":"Polygon","coordinates":[[[27.452083,68.427083],[27.45625,68.427083],[27.45625,68.43125],[27.452083,68.43125],[27.452083,68.427083]]]},"properties":{"radiance":5.93}},{"type":"Feature","geometry":{"type":"Polygon","coordinates":[[[27.39375,68.422917],[27.397917,68.422917],[27.397917,68.427083],[27.39375,68.427083],[27.39375,68.422917]]]},"properties":{"radiance":13.42}},{"type":"Feature","geometry":{"type":"Polygon","coordinates":[[[27.397917,68.422917],[27.402083,68.422917],[27.402083,68.427083],[27.397917,68.427083],[27.397917,68.422917]]]},"properties":{"radiance":16.6}},{"type":"Feature","geometry":{"type":"Polygon","coordinates":[[[27.402083,68.422917],[27.40625,68.422917],[27.40625,68.427083],[27.402083,68.427083],[27.402083,68.422917]]]},"properties":{"radiance":49.21}},{"type":"Feature","geometry":{"type":"Polygon","coordinates":[[[27.40625,68.422917],[27.410417,68.422917],[27.410417,68.427083],[27.40625,68.427083],[27.40625,68.422917]]]},"properties":{"radiance":76.41}},{"type":"Feature","geometry":{"type":"Polygon","coordinates":[[[27.410417,68.422917],[27.414583,68.422917],[27.414583,68.427083],[27.410417,68.427083],[27.410417,68.422917]]]},"properties":{"radiance":70.46}},{"type":"Feature","geometry":{"type":"Polygon","coordinates":[[[27.414583,68.422917],[27.41875,68.422917],[27.41875,68.427083],[27.414583,68.427083],[27.414583,68.422917]]]},"properties":{"radiance":66.49}},{"type":"Feature","geometry":{"type":"Polygon","coordinates":[[[27.41875,68.422917],[27.422917,68.422917],[27.422917,68.427083],[27.41875,68.427083],[27.41875,68.422917]]]},"properties":{"radiance":60.17}},{"type":"Feature","geometry":{"type":"Polygon","coordinates":[[[27.422917,68.422917],[27.427083,68.422917],[27.427083,68.427083],[27.422917,68.427083],[27.422917,68.422917]]]},"properties":{"radiance":86.08}},{"type":"Feature","geometry":{"type":"Polygon","coordinates":[[[27.427083,68.422917],[27.43125,68.422917],[27.43125,68.427083],[27.427083,68.427083],[27.427083,68.422917]]]},"properties":{"radiance":5.09}},{"type":"Feature","geometry":{"type":"Polygon","coordinates":[[[27.43125,68.422917],[27.435417,68.422917],[27.435417,68.427083],[27.43125,68.427083],[27.43125,68.422917]]]},"properties":{"radiance":25.08}},{"type":"Feature","geometry":{"type":"Polygon","coordinates":[[[27.435417,68.422917],[27.439583,68.422917],[27.439583,68.427083],[27.435417,68.427083],[27.435417,68.422917]]]},"properties":{"radiance":8.79}},{"type":"Feature","geometry":{"type":"Polygon","coordinates":[[[27.389583,68.41875],[27.39375,68.41875],[27.39375,68.422917],[27.389583,68.422917],[27.389583,68.41875]]]},"properties":{"radiance":8.72}},{"type":"Feature","geometry":{"type":"Polygon","coordinates":[[[27.39375,68.41875],[27.397917,68.41875],[27.397917,68.422917],[27.39375,68.422917],[27.39375,68.41875]]]},"properties":{"radiance":9.95}},{"type":"Feature","geometry":{"type":"Polygon","coordinates":[[[27.397917,68.41875],[27.402083,68.41875],[27.402083,68.422917],[27.397917,68.422917],[27.397917,68.41875]]]},"properties":{"radiance":43.78}},{"type":"Feature","geometry":{"type":"Polygon","coordinates":[[[27.402083,68.41875],[27.40625,68.41875],[27.40625,68.422917],[27.402083,68.422917],[27.402083,68.41875]]]},"properties":{"radiance":58.28}},{"type":"Feature","geometry":{"type":"Polygon","coordinates":[[[27.40625,68.41875],[27.410417,68.41875],[27.410417,68.422917],[27.40625,68.422917],[27.40625,68.41875]]]},"properties":{"radiance":65.5}},{"type":"Feature","geometry":{"type":"Polygon","coordinates":[[[27.410417,68.41875],[27.414583,68.41875],[27.414583,68.422917],[27.410417,68.422917],[27.410417,68.41875]]]},"properties":{"radiance":62.01}},{"type":"Feature","geometry":{"type":"Polygon","coordinates":[[[27.414583,68.41875],[27.41875,68.41875],[27.41875,68.422917],[27.414583,68.422917],[27.414583,68.41875]]]},"properties":{"radiance":62.58}},{"type":"Feature","geometry":{"type":"Polygon","coordinates":[[[27.41875,68.41875],[27.422917,68.41875],[27.422917,68.422917],[27.41875,68.422917],[27.41875,68.41875]]]},"properties":{"radiance":46.77}},{"type":"Feature","geometry":{"type":"Polygon","coordinates":[[[27.422917,68.41875],[27.427083,68.41875],[27.427083,68.422917],[27.422917,68.422917],[27.422917,68.41875]]]},"properties":{"radiance":11.15}},{"type":"Feature","geometry":{"type":"Polygon","coordinates":[[[27.427083,68.41875],[27.43125,68.41875],[27.43125,68.422917],[27.427083,68.422917],[27.427083,68.41875]]]},"properties":{"radiance":10.7}},{"type":"Feature","geometry":{"type":"Polygon","coordinates":[[[27.43125,68.41875],[27.435417,68.41875],[27.435417,68.422917],[27.43125,68.422917],[27.43125,68.41875]]]},"properties":{"radiance":10.72}},{"type":"Feature","geometry":{"type":"Polygon","coordinates":[[[27.39375,68.414583],[27.397917,68.414583],[27.397917,68.41875],[27.39375,68.41875],[27.39375,68.414583]]]},"properties":{"radiance":9.88}},{"type":"Feature","geometry":{"type":"Polygon","coordinates":[[[27.397917,68.414583],[27.402083,68.414583],[27.402083,68.41875],[27.397917,68.41875],[27.397917,68.414583]]]},"properties":{"radiance":30.43}},{"type":"Feature","geometry":{"type":"Polygon","coordinates":[[[27.402083,68.414583],[27.40625,68.414583],[27.40625,68.41875],[27.402083,68.41875],[27.402083,68.414583]]]},"properties":{"radiance":33.74}},{"type":"Feature","geometry":{"type":"Polygon","coordinates":[[[27.40625,68.414583],[27.410417,68.414583],[27.410417,68.41875],[27.40625,68.41875],[27.40625,68.414583]]]},"properties":{"radiance":40.7}},{"type":"Feature","geometry":{"type":"Polygon","coordinates":[[[27.410417,68.414583],[27.414583,68.414583],[27.414583,68.41875],[27.410417,68.41875],[27.410417,68.414583]]]},"properties":{"radiance":45.11}},{"type":"Feature","geometry":{"type":"Polygon","coordinates":[[[27.414583,68.414583],[27.41875,68.414583],[27.41875,68.41875],[27.414583,68.41875],[27.414583,68.414583]]]},"properties":{"radiance":12.89}},{"type":"Feature","geometry":{"type":"Polygon","coordinates":[[[27.41875,68.414583],[27.422917,68.414583],[27.422917,68.41875],[27.41875,68.41875],[27.41875,68.414583]]]},"properties":{"radiance":9.57}},{"type":"Feature","geometry":{"type":"Polygon","coordinates":[[[27.422917,68.414583],[27.427083,68.414583],[27.427083,68.41875],[27.422917,68.41875],[27.422917,68.414583]]]},"properties":{"radiance":9.05}},{"type":"Feature","geometry":{"type":"Polygon","coordinates":[[[27.427083,68.414583],[27.43125,68.414583],[27.43125,68.41875],[27.427083,68.41875],[27.427083,68.414583]]]},"properties":{"radiance":6.52}},{"type":"Feature","geometry":{"type":"Polygon","coordinates":[[[27.385417,68.410417],[27.389583,68.410417],[27.389583,68.414583],[27.385417,68.414583],[27.385417,68.410417]]]},"properties":{"radiance":5.47}},{"type":"Feature","geometry":{"type":"Polygon","coordinates":[[[27.389583,68.410417],[27.39375,68.410417],[27.39375,68.414583],[27.389583,68.414583],[27.389583,68.410417]]]},"properties":{"radiance":6.92}},{"type":"Feature","geometry":{"type":"Polygon","coordinates":[[[27.39375,68.410417],[27.397917,68.410417],[27.397917,68.414583],[27.39375,68.414583],[27.39375,68.410417]]]},"properties":{"radiance":10.15}},{"type":"Feature","geometry":{"type":"Polygon","coordinates":[[[27.397917,68.410417],[27.402083,68.410417],[27.402083,68.414583],[27.397917,68.414583],[27.397917,68.410417]]]},"properties":{"radiance":10.64}},{"type":"Feature","geometry":{"type":"Polygon","coordinates":[[[27.402083,68.410417],[27.40625,68.410417],[27.40625,68.414583],[27.402083,68.414583],[27.402083,68.410417]]]},"properties":{"radiance":8.03}},{"type":"Feature","geometry":{"type":"Polygon","coordinates":[[[27.40625,68.410417],[27.410417,68.410417],[27.410417,68.414583],[27.40625,68.414583],[27.40625,68.410417]]]},"properties":{"radiance":7.59}},{"type":"Feature","geometry":{"type":"Polygon","coordinates":[[[27.410417,68.410417],[27.414583,68.410417],[27.414583,68.414583],[27.410417,68.414583],[27.410417,68.410417]]]},"properties":{"radiance":8.74}},{"type":"Feature","geometry":{"type":"Polygon","coordinates":[[[27.414583,68.410417],[27.41875,68.410417],[27.41875,68.414583],[27.414583,68.414583],[27.414583,68.410417]]]},"properties":{"radiance":8.4}},{"type":"Feature","geometry":{"type":"Polygon","coordinates":[[[27.41875,68.410417],[27.422917,68.410417],[27.422917,68.414583],[27.41875,68.414583],[27.41875,68.410417]]]},"properties":{"radiance":5.78}},{"type":"Feature","geometry":{"type":"Polygon","coordinates":[[[27.422917,68.410417],[27.427083,68.410417],[27.427083,68.414583],[27.422917,68.414583],[27.422917,68.410417]]]},"properties":{"radiance":5.35}},{"type":"Feature","geometry":{"type":"Polygon","coordinates":[[[27.389583,68.40625],[27.39375,68.40625],[27.39375,68.410417],[27.389583,68.410417],[27.389583,68.40625]]]},"properties":{"radiance":5.6}},{"type":"Feature","geometry":{"type":"Polygon","coordinates":[[[27.39375,68.40625],[27.397917,68.40625],[27.397917,68.410417],[27.39375,68.410417],[27.39375,68.40625]]]},"properties":{"radiance":5.48}},{"type":"Feature","geometry":{"type":"Polygon","coordinates":[[[27.410417,68.40625],[27.414583,68.40625],[27.414583,68.410417],[27.410417,68.410417],[27.410417,68.40625]]]},"properties":{"radiance":10.62}},{"type":"Feature","geometry":{"type":"Polygon","coordinates":[[[27.414583,68.40625],[27.41875,68.40625],[27.41875,68.410417],[27.414583,68.410417],[27.414583,68.40625]]]},"properties":{"radiance":5.69}},{"type":"Feature","geometry":{"type":"Polygon","coordinates":[[[27.39375,68.402083],[27.397917,68.402083],[27.397917,68.40625],[27.39375,68.40625],[27.39375,68.402083]]]},"properties":{"radiance":6.21}},{"type":"Feature","geometry":{"type":"Polygon","coordinates":[[[27.397917,68.402083],[27.402083,68.402083],[27.402083,68.40625],[27.397917,68.40625],[27.397917,68.402083]]]},"properties":{"radiance":10.48}},{"type":"Feature","geometry":{"type":"Polygon","coordinates":[[[27.40625,68.402083],[27.410417,68.402083],[27.410417,68.40625],[27.40625,68.40625],[27.40625,68.402083]]]},"properties":{"radiance":5.36}},{"type":"Feature","geometry":{"type":"Polygon","coordinates":[[[27.410417,68.402083],[27.414583,68.402083],[27.414583,68.40625],[27.410417,68.40625],[27.410417,68.402083]]]},"properties":{"radiance":5.58}},{"type":"Feature","geometry":{"type":"Polygon","coordinates":[[[27.389583,68.397917],[27.39375,68.397917],[27.39375,68.402083],[27.389583,68.402083],[27.389583,68.397917]]]},"properties":{"radiance":6.66}},{"type":"Feature","geometry":{"type":"Polygon","coordinates":[[[27.39375,68.397917],[27.397917,68.397917],[27.397917,68.402083],[27.39375,68.402083],[27.39375,68.397917]]]},"properties":{"radiance":8.07}},{"type":"Feature","geometry":{"type":"Polygon","coordinates":[[[27.397917,68.397917],[27.402083,68.397917],[27.402083,68.402083],[27.397917,68.402083],[27.397917,68.397917]]]},"properties":{"radiance":7.95}},{"type":"Feature","geometry":{"type":"Polygon","coordinates":[[[27.402083,68.397917],[27.40625,68.397917],[27.40625,68.402083],[27.402083,68.402083],[27.402083,68.397917]]]},"properties":{"radiance":5.79}},{"type":"Feature","geometry":{"type":"Polygon","coordinates":[[[27.40625,68.397917],[27.410417,68.397917],[27.410417,68.402083],[27.40625,68.402083],[27.40625,68.397917]]]},"properties":{"radiance":5.05}},{"type":"Feature","geometry":{"type":"Polygon","coordinates":[[[27.39375,68.39375],[27.397917,68.39375],[27.397917,68.397917],[27.39375,68.397917],[27.39375,68.39375]]]},"properties":{"radiance":5.41}},{"type":"Feature","geometry":{"type":"Polygon","coordinates":[[[27.397917,68.39375],[27.402083,68.39375],[27.402083,68.397917],[27.397917,68.397917],[27.397917,68.39375]]]},"properties":{"radiance":6.48}},{"type":"Feature","geometry":{"type":"Polygon","coordinates":[[[27.402083,68.39375],[27.40625,68.39375],[27.40625,68.397917],[27.402083,68.397917],[27.402083,68.39375]]]},"properties":{"radiance":5.76}},{"type":"Feature","geometry":{"type":"Polygon","coordinates":[[[27.272917,68.327083],[27.277083,68.327083],[27.277083,68.33125],[27.272917,68.33125],[27.272917,68.327083]]]},"properties":{"radiance":7.69}},{"type":"Feature","geometry":{"type":"Polygon","coordinates":[[[27.277083,68.327083],[27.28125,68.327083],[27.28125,68.33125],[27.277083,68.33125],[27.277083,68.327083]]]},"properties":{"radiance":7.68}},{"type":"Feature","geometry":{"type":"Polygon","coordinates":[[[27.28125,68.327083],[27.285417,68.327083],[27.285417,68.33125],[27.28125,68.33125],[27.28125,68.327083]]]},"properties":{"radiance":5.81}},{"type":"Feature","geometry":{"type":"Polygon","coordinates":[[[27.285417,68.327083],[27.289583,68.327083],[27.289583,68.33125],[27.285417,68.33125],[27.285417,68.327083]]]},"properties":{"radiance":7.58}},{"type":"Feature","geometry":{"type":"Polygon","coordinates":[[[27.272917,68.322917],[27.277083,68.322917],[27.277083,68.327083],[27.272917,68.327083],[27.272917,68.322917]]]},"properties":{"radiance":5.6}}]}