{"type":"FeatureCollection","features":[{"type":"Feature","geometry":{"type":"Polygon","coordinates":[[[29.11875,63.564583],[29.122917,63.564583],[29.122917,63.56875],[29.11875,63.56875],[29.11875,63.564583]]]},"properties":{"radiance":5.98}},{"type":"Feature","geometry":{"type":"Polygon","coordinates":[[[29.11875,63.560417],[29.122917,63.560417],[29.122917,63.564583],[29.11875,63.564583],[29.11875,63.560417]]]},"properties":{"radiance":6.51}},{"type":"Feature","geometry":{"type":"Polygon","coordinates":[[[29.122917,63.560417],[29.127083,63.560417],[29.127083,63.564583],[29.122917,63.564583],[29.122917,63.560417]]]},"properties":{"radiance":5.56}},{"type":"Feature","geometry":{"type":"Polygon","coordinates":[[[29.127083,63.560417],[29.13125,63.560417],[29.13125,63.564583],[29.127083,63.564583],[29.127083,63.560417]]]},"properties":{"radiance":5.38}},{"type":"Feature","geometry":{"type":"Polygon","coordinates":[[[29.11875,63.55625],[29.122917,63.55625],[29.122917,63.560417],[29.11875,63.560417],[29.11875,63.55625]]]},"properties":{"radiance":12.85}},{"type":"Feature","geometry":{"type":"Polygon","coordinates":[[[29.122917,63.55625],[29.127083,63.55625],[29.127083,63.560417],[29.122917,63.560417],[29.122917,63.55625]]]},"properties":{"radiance":6.27}},{"type":"Feature","geometry":{"type":"Polygon","coordinates":[[[29.127083,63.55625],[29.13125,63.55625],[29.13125,63.560417],[29.127083,63.560417],[29.127083,63.55625]]]},"properties":{"radiance":7.06}},{"type":"Feature","geometry":{"type":"Polygon","coordinates":[[[29.11875,63.552083],[29.122917,63.552083],[29.122917,63.55625],[29.11875,63.55625],[29.11875,63.552083]]]},"properties":{"radiance":9.24}},{"type":"Feature","geometry":{"type":"Polygon","coordinates":[[[29.122917,63.552083],[29.127083,63.552083],[29.127083,63.55625],[29.122917,63.55625],[29.122917,63.552083]]]},"properties":{"radiance":10.87}},{"type":"Feature","geometry":{"type":"Polygon","coordinates":[[[29.127083,63.552083],[29.13125,63.552083],[29.13125,63.55625],[29.127083,63.55625],[29.127083,63.552083]]]},"properties":{"radiance":8.26}},{"type":"Feature","geometry":{"type":"Polygon","coordinates":[[[29.13125,63.552083],[29.135417,63.552083],[29.135417,63.55625],[29.13125,63.55625],[29.13125,63.552083]]]},"properties":{"radiance":6.23}},{"type":"Feature","geometry":{"type":"Polygon","coordinates":[[[29.152083,63.552083],[29.15625,63.552083],[29.15625,63.55625],[29.152083,63.55625],[29.152083,63.552083]]]},"properties":{"radiance":5.22}},{"type":"Feature","geometry":{"type":"Polygon","coordinates":[[[29.15625,63.552083],[29.160417,63.552083],[29.160417,63.55625],[29.15625,63.55625],[29.15625,63.552083]]]},"properties":{"radiance":5.04}},{"type":"Feature","geometry":{"type":"Polygon","coordinates":[[[29.160417,63.552083],[29.164583,63.552083],[29.164583,63.55625],[29.160417,63.55625],[29.160417,63.552083]]]},"properties":{"radiance":5.17}},{"type":"Feature","geometry":{"type":"Polygon","coordinates":[[[29.185417,63.552083],[29.189583,63.552083],[29.189583,63.55625],[29.185417,63.55625],[29.185417,63.552083]]]},"properties":{"radiance":5.17}},{"type":"Feature","geometry":{"type":"Polygon","coordinates":[[[29.11875,63.547917],[29.122917,63.547917],[29.122917,63.552083],[29.11875,63.552083],[29.11875,63.547917]]]},"properties":{"radiance":9.81}},{"type":"Feature","geometry":{"type":"Polygon","coordinates":[[[29.122917,63.547917],[29.127083,63.547917],[29.127083,63.552083],[29.122917,63.552083],[29.122917,63.547917]]]},"properties":{"radiance":9.11}},{"type":"Feature","geometry":{"type":"Polygon","coordinates":[[[29.127083,63.547917],[29.13125,63.547917],[29.13125,63.552083],[29.127083,63.552083],[29.127083,63.547917]]]},"properties":{"radiance":11.68}},{"type":"Feature","geometry":{"type":"Polygon","coordinates":[[[29.13125,63.547917],[29.135417,63.547917],[29.135417,63.552083],[29.13125,63.552083],[29.13125,63.547917]]]},"properties":{"radiance":16.23}},{"type":"Feature","geometry":{"type":"Polygon","coordinates":[[[29.135417,63.547917],[29.139583,63.547917],[29.139583,63.552083],[29.135417,63.552083],[29.135417,63.547917]]]},"properties":{"radiance":12.02}},{"type":"Feature","geometry":{"type":"Polygon","coordinates":[[[29.139583,63.547917],[29.14375,63.547917],[29.14375,63.552083],[29.139583,63.552083],[29.139583,63.547917]]]},"properties":{"radiance":10.82}},{"type":"Feature","geometry":{"type":"Polygon","coordinates":[[[29.14375,63.547917],[29.147917,63.547917],[29.147917,63.552083],[29.14375,63.552083],[29.14375,63.547917]]]},"properties":{"radiance":7.87}},{"type":"Feature","geometry":{"type":"Polygon","coordinates":[[[29.147917,63.547917],[29.152083,63.547917],[29.152083,63.552083],[29.147917,63.552083],[29.147917,63.547917]]]},"properties":{"radiance":11.28}},{"type":"Feature","geometry":{"type":"Polygon","coordinates":[[[29.152083,63.547917],[29.15625,63.547917],[29.15625,63.552083],[29.152083,63.552083],[29.152083,63.547917]]]},"properties":{"radiance":9.08}},{"type":"Feature","geometry":{"type":"Polygon","coordinates":[[[29.15625,63.547917],[29.160417,63.547917],[29.160417,63.552083],[29.15625,63.552083],[29.15625,63.547917]]]},"properties":{"radiance":9.27}},{"type":"Feature","geometry":{"type":"Polygon","coordinates":[[[29.160417,63.547917],[29.164583,63.547917],[29.164583,63.552083],[29.160417,63.552083],[29.160417,63.547917]]]},"properties":{"radiance":16.66}},{"type":"Feature","geometry":{"type":"Polygon","coordinates":[[[29.164583,63.547917],[29.16875,63.547917],[29.16875,63.552083],[29.164583,63.552083],[29.164583,63.547917]]]},"properties":{"radiance":8.29}},{"type":"Feature","geometry":{"type":"Polygon","coordinates":[[[29.16875,63.547917],[29.172917,63.547917],[29.172917,63.552083],[29.16875,63.552083],[29.16875,63.547917]]]},"properties":{"radiance":7.8}},{"type":"Feature","geometry":{"type":"Polygon","coordinates":[[[29.172917,63.547917],[29.177083,63.547917],[29.177083,63.552083],[29.172917,63.552083],[29.172917,63.547917]]]},"properties":{"radiance":6.88}},{"type":"Feature","geometry":{"type":"Polygon","coordinates":[[[29.122917,63.54375],[29.127083,63.54375],[29.127083,63.547917],[29.122917,63.547917],[29.122917,63.54375]]]},"properties":{"radiance":30.77}},{"type":"Feature","geometry":{"type":"Polygon","coordinates":[[[29.127083,63.54375],[29.13125,63.54375],[29.13125,63.547917],[29.127083,63.547917],[29.127083,63.54375]]]},"properties":{"radiance":39.47}},{"type":"Feature","geometry":{"type":"Polygon","coordinates":[[[29.13125,63.54375],[29.135417,63.54375],[29.135417,63.547917],[29.13125,63.547917],[29.13125,63.54375]]]},"properties":{"radiance":41.14}},{"type":"Feature","geometry":{"type":"Polygon","coordinates":[[[29.135417,63.54375],[29.139583,63.54375],[29.139583,63.547917],[29.135417,63.547917],[29.135417,63.54375]]]},"properties":{"radiance":40.21}},{"type":"Feature","geometry":{"type":"Polygon","coordinates":[[[29.139583,63.54375],[29.14375,63.54375],[29.14375,63.547917],[29.139583,63.547917],[29.139583,63.54375]]]},"properties":{"radiance":14.05}},{"type":"Feature","geometry":{"type":"Polygon","coordinates":[[[29.14375,63.54375],[29.147917,63.54375],[29.147917,63.547917],[29.14375,63.547917],[29.14375,63.54375]]]},"properties":{"radiance":6.1}},{"type":"Feature","geometry":{"type":"Polygon","coordinates":[[[29.147917,63.54375],[29.152083,63.54375],[29.152083,63.547917],[29.147917,63.547917],[29.147917,63.54375]]]},"properties":{"radiance":7.19}},{"type":"Feature","geometry":{"type":"Polygon","coordinates":[[[29.152083,63.54375],[29.15625,63.54375],[29.15625,63.547917],[29.152083,63.547917],[29.152083,63.54375]]]},"properties":{"radiance":13.24}},{"type":"Feature","geometry":{"type":"Polygon","coordinates":[[[29.15625,63.54375],[29.160417,63.54375],[29.160417,63.547917],[29.15625,63.547917],[29.15625,63.54375]]]},"properties":{"radiance":12.97}},{"type":"Feature","geometry":{"type":"Polygon","coordinates":[[[29.160417,63.54375],[29.164583,63.54375],[29.164583,63.547917],[29.160417,63.547917],[29.160417,63.54375]]]},"properties":{"radiance":34.97}},{"type":"Feature","geometry":{"type":"Polygon","coordinates":[[[29.164583,63.54375],[29.16875,63.54375],[29.16875,63.547917],[29.164583,63.547917],[29.164583,63.54375]]]},"properties":{"radiance":41.51}},{"type":"Feature","geometry":{"type":"Polygon","coordinates":[[[29.16875,63.54375],[29.172917,63.54375],[29.172917,63.547917],[29.16875,63.547917],[29.16875,63.54375]]]},"properties":{"radiance":22.72}},{"type":"Feature","geometry":{"type":"Polygon","coordinates":[[[29.172917,63.54375],[29.177083,63.54375],[29.177083,63.547917],[29.172917,63.547917],[29.172917,63.54375]]]},"properties":{"radiance":14.91}},{"type":"Feature","geometry":{"type":"Polygon","coordinates":[[[29.177083,63.54375],[29.18125,63.54375],[29.18125,63.547917],[29.177083,63.547917],[29.177083,63.54375]]]},"properties":{"radiance":9.64}},{"type":"Feature","geometry":{"type":"Polygon","coordinates":[[[29.185417,63.54375],[29.189583,63.54375],[29.189583,63.547917],[29.185417,63.547917],[29.185417,63.54375]]]},"properties":{"radiance":15.93}},{"type":"Feature","geometry":{"type":"Polygon","coordinates":[[[29.189583,63.54375],[29.19375,63.54375],[29.19375,63.547917],[29.189583,63.547917],[29.189583,63.54375]]]},"properties":{"radiance":7.64}},{"type":"Feature","geometry":{"type":"Polygon","coordinates":[[[29.122917,63.539583],[29.127083,63.539583],[29.127083,63.54375],[29.122917,63.54375],[29.122917,63.539583]]]},"properties":{"radiance":5.18}},{"type":"Feature","geometry":{"type":"Polygon","coordinates":[[[29.127083,63.539583],[29.13125,63.539583],[29.13125,63.54375],[29.127083,63.54375],[29.127083,63.539583]]]},"properties":{"radiance":26.22}},{"type":"Feature","geometry":{"type":"Polygon","coordinates":[[[29.13125,63.539583],[29.135417,63.539583],[29.135417,63.54375],[29.13125,63.54375],[29.13125,63.539583]]]},"properties":{"radiance":39.72}},{"type":"Feature","geometry":{"type":"Polygon","coordinates":[[[29.135417,63.539583],[29.139583,63.539583],[29.139583,63.54375],[29.135417,63.54375],[29.135417,63.539583]]]},"properties":{"radiance":13.6}},{"type":"Feature","geometry":{"type":"Polygon","coordinates":[[[29.139583,63.539583],[29.14375,63.539583],[29.14375,63.54375],[29.139583,63.54375],[29.139583,63.539583]]]},"properties":{"radiance":8.43}},{"type":"Feature","geometry":{"type":"Polygon","coordinates":[[[29.14375,63.539583],[29.147917,63.539583],[29.147917,63.54375],[29.14375,63.54375],[29.14375,63.539583]]]},"properties":{"radiance":11.8}},{"type":"Feature","geometry":{"type":"Polygon","coordinates":[[[29.147917,63.539583],[29.152083,63.539583],[29.152083,63.54375],[29.147917,63.54375],[29.147917,63.539583]]]},"properties":{"radiance":13.4}},{"type":"Feature","geometry":{"type":"Polygon","coordinates":[[[29.152083,63.539583],[29.15625,63.539583],[29.15625,63.54375],[29.152083,63.54375],[29.152083,63.539583]]]},"properties":{"radiance":31.73}},{"type":"Feature","geometry":{"type":"Polygon","coordinates":[[[29.15625,63.539583],[29.160417,63.539583],[29.160417,63.54375],[29.15625,63.54375],[29.15625,63.539583]]]},"properties":{"radiance":59.1}},{"type":"Feature","geometry":{"type":"Polygon","coordinates":[[[29.160417,63.539583],[29.164583,63.539583],[29.164583,63.54375],[29.160417,63.54375],[29.160417,63.539583]]]},"properties":{"radiance":65.89}},{"type":"Feature","geometry":{"type":"Polygon","coordinates":[[[29.164583,63.539583],[29.16875,63.539583],[29.16875,63.54375],[29.164583,63.54375],[29.164583,63.539583]]]},"properties":{"radiance":66.92}},{"type":"Feature","geometry":{"type":"Polygon","coordinates":[[[29.16875,63.539583],[29.172917,63.539583],[29.172917,63.54375],[29.16875,63.54375],[29.16875,63.539583]]]},"properties":{"radiance":50.86}},{"type":"Feature","geometry":{"type":"Polygon","coordinates":[[[29.172917,63.539583],[29.177083,63.539583],[29.177083,63.54375],[29.172917,63.54375],[29.172917,63.539583]]]},"properties":{"radiance":10.29}},{"type":"Feature","geometry":{"type":"Polygon","coordinates":[[[29.177083,63.539583],[29.18125,63.539583],[29.18125,63.54375],[29.177083,63.54375],[29.177083,63.539583]]]},"properties":{"radiance":10.19}},{"type":"Feature","geometry":{"type":"Polygon","coordinates":[[[29.18125,63.539583],[29.185417,63.539583],[29.185417,63.54375],[29.18125,63.54375],[29.18125,63.539583]]]},"properties":{"radiance":7.16}},{"type":"Feature","geometry":{"type":"Polygon","coordinates":[[[29.185417,63.539583],[29.189583,63.539583],[29.189583,63.54375],[29.185417,63.54375],[29.185417,63.539583]]]},"properties":{"radiance":8.99}},{"type":"Feature","geometry":{"type":"Polygon","coordinates":[[[29.189583,63.539583],[29.19375,63.539583],[29.19375,63.54375],[29.189583,63.54375],[29.189583,63.539583]]]},"properties":{"radiance":6.86}},{"type":"Feature","geometry":{"type":"Polygon","coordinates":[[[29.13125,63.535417],[29.135417,63.535417],[29.135417,63.539583],[29.13125,63.539583],[29.13125,63.535417]]]},"properties":{"radiance":6.12}},{"type":"Feature","geometry":{"type":"Polygon","coordinates":[[[29.139583,63.535417],[29.14375,63.535417],[29.14375,63.539583],[29.139583,63.539583],[29.139583,63.535417]]]},"properties":{"radiance":7.48}},{"type":"Feature","geometry":{"type":"Polygon","coordinates":[[[29.14375,63.535417],[29.147917,63.535417],[29.147917,63.539583],[29.14375,63.539583],[29.14375,63.535417]]]},"properties":{"radiance":9.6}},{"type":"Feature","geometry":{"type":"Polygon","coordinates":[[[29.147917,63.535417],[29.152083,63.535417],[29.152083,63.539583],[29.147917,63.539583],[29.147917,63.535417]]]},"properties":{"radiance":8.96}},{"type":"Feature","geometry":{"type":"Polygon","coordinates":[[[29.152083,63.535417],[29.15625,63.535417],[29.15625,63.539583],[29.152083,63.539583],[29.152083,63.535417]]]},"properties":{"radiance":37.13}},{"type":"Feature","geometry":{"type":"Polygon","coordinates":[[[29.15625,63.535417],[29.160417,63.535417],[29.160417,63.539583],[29.15625,63.539583],[29.15625,63.535417]]]},"properties":{"radiance":40.94}},{"type":"Feature","geometry":{"type":"Polygon","coordinates":[[[29.160417,63.535417],[29.164583,63.535417],[29.164583,63.539583],[29.160417,63.539583],[29.160417,63.535417]]]},"properties":{"radiance":63.91}},{"type":"Feature","geometry":{"type":"Polygon","coordinates":[[[29.164583,63.535417],[29.16875,63.535417],[29.16875,63.539583],[29.164583,63.539583],[29.164583,63.535417]]]},"properties":{"radiance":51.93}},{"type":"Feature","geometry":{"type":"Polygon","coordinates":[[[29.16875,63.535417],[29.172917,63.535417],[29.172917,63.539583],[29.16875,63.539583],[29.16875,63.535417]]]},"properties":{"radiance":15.43}},{"type":"Feature","geometry":{"type":"Polygon","coordinates":[[[29.172917,63.535417],[29.177083,63.535417],[29.177083,63.539583],[29.172917,63.539583],[29.172917,63.535417]]]},"properties":{"radiance":9.65}},{"type":"Feature","geometry":{"type":"Polygon","coordinates":[[[29.177083,63.535417],[29.18125,63.535417],[29.18125,63.539583],[29.177083,63.539583],[29.177083,63.535417]]]},"properties":{"radiance":11.32}},{"type":"Feature","geometry":{"type":"Polygon","coordinates":[[[29.18125,63.535417],[29.185417,63.535417],[29.185417,63.539583],[29.18125,63.539583],[29.18125,63.535417]]]},"properties":{"radiance":11.45}},{"type":"Feature","geometry":{"type":"Polygon","coordinates":[[[29.185417,63.535417],[29.189583,63.535417],[29.189583,63.539583],[29.185417,63.539583],[29.185417,63.535417]]]},"properties":{"radiance":9.53}},{"type":"Feature","geometry":{"type":"Polygon","coordinates":[[[29.189583,63.535417],[29.19375,63.535417],[29.19375,63.539583],[29.189583,63.539583],[29.189583,63.535417]]]},"properties":{"radiance":7.99}},{"type":"Feature","geometry":{"type":"Polygon","coordinates":[[[29.19375,63.535417],[29.197917,63.535417],[29.197917,63.539583],[29.19375,63.539583],[29.19375,63.535417]]]},"properties":{"radiance":7.59}},{"type":"Feature","geometry":{"type":"Polygon","coordinates":[[[29.147917,63.53125],[29.152083,63.53125],[29.152083,63.535417],[29.147917,63.535417],[29.147917,63.53125]]]},"properties":{"radiance":6.13}},{"type":"Feature","geometry":{"type":"Polygon","coordinates":[[[29.160417,63.53125],[29.164583,63.53125],[29.164583,63.535417],[29.160417,63.535417],[29.160417,63.53125]]]},"properties":{"radiance":15.22}},{"type":"Feature","geometry":{"type":"Polygon","coordinates":[[[29.164583,63.53125],[29.16875,63.53125],[29.16875,63.535417],[29.164583,63.535417],[29.164583,63.53125]]]},"properties":{"radiance":13.42}},{"type":"Feature","geometry":{"type":"Polygon","coordinates":[[[29.16875,63.53125],[29.172917,63.53125],[29.172917,63.535417],[29.16875,63.535417],[29.16875,63.53125]]]},"properties":{"radiance":19.03}},{"type":"Feature","geometry":{"type":"Polygon","coordinates":[[[29.172917,63.53125],[29.177083,63.53125],[29.177083,63.535417],[29.172917,63.535417],[29.172917,63.53125]]]},"properties":{"radiance":24.1}},{"type":"Feature","geometry":{"type":"Polygon","coordinates":[[[29.177083,63.53125],[29.18125,63.53125],[29.18125,63.535417],[29.177083,63.535417],[29.177083,63.53125]]]},"properties":{"radiance":8.86}},{"type":"Feature","geometry":{"type":"Polygon","coordinates":[[[29.19375,63.53125],[29.197917,63.53125],[29.197917,63.535417],[29.19375,63.535417],[29.19375,63.53125]]]},"properties":{"radiance":5.1}},{"type":"Feature","geometry":{"type":"Polygon","coordinates":[[[29.197917,63.53125],[29.202083,63.53125],[29.202083,63.535417],[29.197917,63.535417],[29.197917,63.53125]]]},"properties":{"radiance":10.92}},{"type":"Feature","geometry":{"type":"Polygon","coordinates":[[[29.435417,63.45625],[29.439583,63.45625],[29.439583,63.460417],[29.435417,63.460417],[29.435417,63.45625]]]},"properties":{"radiance":5.52}},{"type":"Feature","geometry":{"type":"Polygon","coordinates":[[[29.439583,63.45625],[29.44375,63.45625],[29.44375,63.460417],[29.439583,63.460417],[29.439583,63.45625]]]},"properties":{"radiance":6.67}},{"type":"Feature","geometry":{"type":"Polygon","coordinates":[[[29.96875,63.33125],[29.972917,63.33125],[29.972917,63.335417],[29.96875,63.335417],[29.96875,63.33125]]]},"properties":{"radiance":5.47}},{"type":"Feature","geometry":{"type":"Polygon","coordinates":[[[29.972917,63.33125],[29.977083,63.33125],[29.977083,63.335417],[29.972917,63.335417],[29.972917,63.33125]]]},"properties":{"radiance":5.06}},{"type":"Feature","geometry":{"type":"Polygon","coordinates":[[[29.964583,63.327083],[29.96875,63.327083],[29.96875,63.33125],[29.964583,63.33125],[29.964583,63.327083]]]},"properties":{"radiance":19.65}},{"type":"Feature","geometry":{"type":"Polygon","coordinates":[[[29.96875,63.327083],[29.972917,63.327083],[29.972917,63.33125],[29.96875,63.33125],[29.96875,63.327083]]]},"properties":{"radiance":23.86}},{"type":"Feature","geometry":{"type":"Polygon","coordinates":[[[29.972917,63.327083],[29.977083,63.327083],[29.977083,63.33125],[29.972917,63.33125],[29.972917,63.327083]]]},"properties":{"radiance":7.99}},{"type":"Feature","geometry":{"type":"Polygon","coordinates":[[[29.977083,63.327083],[29.98125,63.327083],[29.98125,63.33125],[29.977083,63.33125],[29.977083,63.327083]]]},"properties":{"radiance":8.65}},{"type":"Feature","geometry":{"type":"Polygon","coordinates":[[[29.98125,63.327083],[29.985417,63.327083],[29.985417,63.33125],[29.98125,63.33125],[29.98125,63.327083]]]},"properties":{"radiance":10.32}},{"type":"Feature","geometry":{"type":"Polygon","coordinates":[[[29.985417,63.327083],[29.989583,63.327083],[29.989583,63.33125],[29.985417,63.33125],[29.985417,63.327083]]]},"properties":{"radiance":14.61}},{"type":"Feature","geometry":{"type":"Polygon","coordinates":[[[29.989583,63.327083],[29.99375,63.327083],[29.99375,63.33125],[29.989583,63.33125],[29.989583,63.327083]]]},"properties":{"radiance":33.1}},{"type":"Feature","geometry":{"type":"Polygon","coordinates":[[[29.99375,63.327083],[29.997917,63.327083],[29.997917,63.33125],[29.99375,63.33125],[29.99375,63.327083]]]},"properties":{"radiance":8.19}},{"type":"Feature","geometry":{"type":"Polygon","coordinates":[[[29.96875,63.322917],[29.972917,63.322917],[29.972917,63.327083],[29.96875,63.327083],[29.96875,63.322917]]]},"properties":{"radiance":16.99}},{"type":"Feature","geometry":{"type":"Polygon","coordinates":[[[29.972917,63.322917],[29.977083,63.322917],[29.977083,63.327083],[29.972917,63.327083],[29.972917,63.322917]]]},"properties":{"radiance":8.49}},{"type":"Feature","geometry":{"type":"Polygon","coordinates":[[[29.977083,63.322917],[29.98125,63.322917],[29.98125,63.327083],[29.977083,63.327083],[29.977083,63.322917]]]},"properties":{"radiance":43.26}},{"type":"Feature","geometry":{"type":"Polygon","coordinates":[[[29.98125,63.322917],[29.985417,63.322917],[29.985417,63.327083],[29.98125,63.327083],[29.98125,63.322917]]]},"properties":{"radiance":58.75}},{"type":"Feature","geometry":{"type":"Polygon","coordinates":[[[29.985417,63.322917],[29.989583,63.322917],[29.989583,63.327083],[29.985417,63.327083],[29.985417,63.322917]]]},"properties":{"radiance":55.06}},{"type":"Feature","geometry":{"type":"Polygon","coordinates":[[[29.989583,63.322917],[29.99375,63.322917],[29.99375,63.327083],[29.989583,63.327083],[29.989583,63.322917]]]},"properties":{"radiance":58.06}},{"type":"Feature","geometry":{"type":"Polygon","coordinates":[[[29.99375,63.322917],[29.997917,63.322917],[29.997917,63.327083],[29.99375,63.327083],[29.99375,63.322917]]]},"properties":{"radiance":41.19}},{"type":"Feature","geometry":{"type":"Polygon","coordinates":[[[29.972917,63.31875],[29.977083,63.31875],[29.977083,63.322917],[29.972917,63.322917],[29.972917,63.31875]]]},"properties":{"radiance":7.85}},{"type":"Feature","geometry":{"type":"Polygon","coordinates":[[[29.977083,63.31875],[29.98125,63.31875],[29.98125,63.322917],[29.977083,63.322917],[29.977083,63.31875]]]},"properties":{"radiance":15.94}},{"type":"Feature","geometry":{"type":"Polygon","coordinates":[[[29.98125,63.31875],[29.985417,63.31875],[29.985417,63.322917],[29.98125,63.322917],[29.98125,63.31875]]]},"properties":{"radiance":88.78}},{"type":"Feature","geometry":{"type":"Polygon","coordinates":[[[29.985417,63.31875],[29.989583,63.31875],[29.989583,63.322917],[29.985417,63.322917],[29.985417,63.31875]]]},"properties":{"radiance":124.99}},{"type":"Feature","geometry":{"type":"Polygon","coordinates":[[[29.989583,63.31875],[29.99375,63.31875],[29.99375,63.322917],[29.989583,63.322917],[29.989583,63.31875]]]},"properties":{"radiance":144.63}},{"type":"Feature","geometry":{"type":"Polygon","coordinates":[[[29.99375,63.31875],[29.997917,63.31875],[29.997917,63.322917],[29.99375,63.322917],[29.99375,63.31875]]]},"properties":{"radiance":59.23}},{"type":"Feature","geometry":{"type":"Polygon","coordinates":[[[29.977083,63.314583],[29.98125,63.314583],[29.98125,63.31875],[29.977083,63.31875],[29.977083,63.314583]]]},"properties":{"radiance":16.83}},{"type":"Feature","geometry":{"type":"Polygon","coordinates":[[[29.98125,63.314583],[29.985417,63.314583],[29.985417,63.31875],[29.98125,63.31875],[29.98125,63.314583]]]},"properties":{"radiance":7.44}},{"type":"Feature","geometry":{"type":"Polygon","coordinates":[[[29.985417,63.314583],[29.989583,63.314583],[29.989583,63.31875],[29.985417,63.31875],[29.985417,63.314583]]]},"properties":{"radiance":17.2}},{"type":"Feature","geometry":{"type":"Polygon","coordinates":[[[29.989583,63.314583],[29.99375,63.314583],[29.99375,63.31875],[29.989583,63.31875],[29.989583,63.314583]]]},"properties":{"radiance":48.47}},{"type":"Feature","geometry":{"type":"Polygon","coordinates":[[[29.99375,63.314583],[29.997917,63.314583],[29.997917,63.31875],[29.99375,63.31875],[29.99375,63.314583]]]},"properties":{"radiance":40.5}},{"type":"Feature","geometry":{"type":"Polygon","coordinates":[[[29.235417,63.247917],[29.239583,63.247917],[29.239583,63.252083],[29.235417,63.252083],[29.235417,63.247917]]]},"properties":{"radiance":7.37}},{"type":"Feature","geometry":{"type":"Polygon","coordinates":[[[29.239583,63.247917],[29.24375,63.247917],[29.24375,63.252083],[29.239583,63.252083],[29.239583,63.247917]]]},"properties":{"radiance":8.61}},{"type":"Feature","geometry":{"type":"Polygon","coordinates":[[[29.24375,63.247917],[29.247917,63.247917],[29.247917,63.252083],[29.24375,63.252083],[29.24375,63.247917]]]},"properties":{"radiance":7.34}},{"type":"Feature","geometry":{"type":"Polygon","coordinates":[[[29.247917,63.247917],[29.252083,63.247917],[29.252083,63.252083],[29.247917,63.252083],[29.247917,63.247917]]]},"properties":{"radiance":13.84}},{"type":"Feature","geometry":{"type":"Polygon","coordinates":[[[29.252083,63.247917],[29.25625,63.247917],[29.25625,63.252083],[29.252083,63.252083],[29.252083,63.247917]]]},"properties":{"radiance":12.04}},{"type":"Feature","geometry":{"type":"Polygon","coordinates":[[[29.25625,63.247917],[29.260417,63.247917],[29.260417,63.252083],[29.25625,63.252083],[29.25625,63.247917]]]},"properties":{"radiance":17.99}},{"type":"Feature","geometry":{"type":"Polygon","coordinates":[[[29.260417,63.247917],[29.264583,63.247917],[29.264583,63.252083],[29.260417,63.252083],[29.260417,63.247917]]]},"properties":{"radiance":13.63}},{"type":"Feature","geometry":{"type":"Polygon","coordinates":[[[29.264583,63.247917],[29.26875,63.247917],[29.26875,63.252083],[29.264583,63.252083],[29.264583,63.247917]]]},"properties":{"radiance":12.32}},{"type":"Feature","geometry":{"type":"Polygon","coordinates":[[[29.214583,63.24375],[29.21875,63.24375],[29.21875,63.247917],[29.214583,63.247917],[29.214583,63.24375]]]},"properties":{"radiance":5.28}},{"type":"Feature","geometry":{"type":"Polygon","coordinates":[[[29.222917,63.24375],[29.227083,63.24375],[29.227083,63.247917],[29.222917,63.247917],[29.222917,63.24375]]]},"properties":{"radiance":5.65}},{"type":"Feature","geometry":{"type":"Polygon","coordinates":[[[29.227083,63.24375],[29.23125,63.24375],[29.23125,63.247917],[29.227083,63.247917],[29.227083,63.24375]]]},"properties":{"radiance":5.54}},{"type":"Feature","geometry":{"type":"Polygon","coordinates":[[[29.23125,63.24375],[29.235417,63.24375],[29.235417,63.247917],[29.23125,63.247917],[29.23125,63.24375]]]},"properties":{"radiance":5}},{"type":"Feature","geometry":{"type":"Polygon","coordinates":[[[29.235417,63.24375],[29.239583,63.24375],[29.239583,63.247917],[29.235417,63.247917],[29.235417,63.24375]]]},"properties":{"radiance":7.84}},{"type":"Feature","geometry":{"type":"Polygon","coordinates":[[[29.239583,63.24375],[29.24375,63.24375],[29.24375,63.247917],[29.239583,63.247917],[29.239583,63.24375]]]},"properties":{"radiance":11.76}},{"type":"Feature","geometry":{"type":"Polygon","coordinates":[[[29.24375,63.24375],[29.247917,63.24375],[29.247917,63.247917],[29.24375,63.247917],[29.24375,63.24375]]]},"properties":{"radiance":42.84}},{"type":"Feature","geometry":{"type":"Polygon","coordinates":[[[29.247917,63.24375],[29.252083,63.24375],[29.252083,63.247917],[29.247917,63.247917],[29.247917,63.24375]]]},"properties":{"radiance":15.48}},{"type":"Feature","geometry":{"type":"Polygon","coordinates":[[[29.252083,63.24375],[29.25625,63.24375],[29.25625,63.247917],[29.252083,63.247917],[29.252083,63.24375]]]},"properties":{"radiance":17.85}},{"type":"Feature","geometry":{"type":"Polygon","coordinates":[[[29.25625,63.24375],[29.260417,63.24375],[29.260417,63.247917],[29.25625,63.247917],[29.25625,63.24375]]]},"properties":{"radiance":32.84}},{"type":"Feature","geometry":{"type":"Polygon","coordinates":[[[29.260417,63.24375],[29.264583,63.24375],[29.264583,63.247917],[29.260417,63.247917],[29.260417,63.24375]]]},"properties":{"radiance":12.94}},{"type":"Feature","geometry":{"type":"Polygon","coordinates":[[[29.264583,63.24375],[29.26875,63.24375],[29.26875,63.247917],[29.264583,63.247917],[29.264583,63.24375]]]},"properties":{"radiance":8.56}},{"type":"Feature","geometry":{"type":"Polygon","coordinates":[[[29.26875,63.24375],[29.272917,63.24375],[29.272917,63.247917],[29.26875,63.247917],[29.26875,63.24375]]]},"properties":{"radiance":8.86}},{"type":"Feature","geometry":{"type":"Polygon","coordinates":[[[29.272917,63.24375],[29.277083,63.24375],[29.277083,63.247917],[29.272917,63.247917],[29.272917,63.24375]]]},"properties":{"radiance":5.36}},{"type":"Feature","geometry":{"type":"Polygon","coordinates":[[[29.235417,63.239583],[29.239583,63.239583],[29.239583,63.24375],[29.235417,63.24375],[29.235417,63.239583]]]},"properties":{"radiance":6.18}},{"type":"Feature","geometry":{"type":"Polygon","coordinates":[[[29.239583,63.239583],[29.24375,63.239583],[29.24375,63.24375],[29.239583,63.24375],[29.239583,63.239583]]]},"properties":{"radiance":34.14}},{"type":"Feature","geometry":{"type":"Polygon","coordinates":[[[29.24375,63.239583],[29.247917,63.239583],[29.247917,63.24375],[29.24375,63.24375],[29.24375,63.239583]]]},"properties":{"radiance":31.17}},{"type":"Feature","geometry":{"type":"Polygon","coordinates":[[[29.247917,63.239583],[29.252083,63.239583],[29.252083,63.24375],[29.247917,63.24375],[29.247917,63.239583]]]},"properties":{"radiance":13.84}},{"type":"Feature","geometry":{"type":"Polygon","coordinates":[[[29.252083,63.239583],[29.25625,63.239583],[29.25625,63.24375],[29.252083,63.24375],[29.252083,63.239583]]]},"properties":{"radiance":40.52}},{"type":"Feature","geometry":{"type":"Polygon","coordinates":[[[29.25625,63.239583],[29.260417,63.239583],[29.260417,63.24375],[29.25625,63.24375],[29.25625,63.239583]]]},"properties":{"radiance":10.8}},{"type":"Feature","geometry":{"type":"Polygon","coordinates":[[[29.260417,63.239583],[29.264583,63.239583],[29.264583,63.24375],[29.260417,63.24375],[29.260417,63.239583]]]},"properties":{"radiance":8.13}},{"type":"Feature","geometry":{"type":"Polygon","coordinates":[[[29.264583,63.239583],[29.26875,63.239583],[29.26875,63.24375],[29.264583,63.24375],[29.264583,63.239583]]]},"properties":{"radiance":7.1}},{"type":"Feature","geometry":{"type":"Polygon","coordinates":[[[29.26875,63.239583],[29.272917,63.239583],[29.272917,63.24375],[29.26875,63.24375],[29.26875,63.239583]]]},"properties":{"radiance":5.68}},{"type":"Feature","geometry":{"type":"Polygon","coordinates":[[[29.272917,63.239583],[29.277083,63.239583],[29.277083,63.24375],[29.272917,63.24375],[29.272917,63.239583]]]},"properties":{"radiance":5.85}},{"type":"Feature","geometry":{"type":"Polygon","coordinates":[[[29.277083,63.239583],[29.28125,63.239583],[29.28125,63.24375],[29.277083,63.24375],[29.277083,63.239583]]]},"properties":{"radiance":10.17}},{"type":"Feature","geometry":{"type":"Polygon","coordinates":[[[29.28125,63.239583],[29.285417,63.239583],[29.285417,63.24375],[29.28125,63.24375],[29.28125,63.239583]]]},"properties":{"radiance":8.2}},{"type":"Feature","geometry":{"type":"Polygon","coordinates":[[[29.235417,63.235417],[29.239583,63.235417],[29.239583,63.239583],[29.235417,63.239583],[29.235417,63.235417]]]},"properties":{"radiance":6.09}},{"type":"Feature","geometry":{"type":"Polygon","coordinates":[[[29.239583,63.235417],[29.24375,63.235417],[29.24375,63.239583],[29.239583,63.239583],[29.239583,63.235417]]]},"properties":{"radiance":5.21}},{"type":"Feature","geometry":{"type":"Polygon","coordinates":[[[29.24375,63.235417],[29.247917,63.235417],[29.247917,63.239583],[29.24375,63.239583],[29.24375,63.235417]]]},"properties":{"radiance":8.82}},{"type":"Feature","geometry":{"type":"Polygon","coordinates":[[[29.247917,63.235417],[29.252083,63.235417],[29.252083,63.239583],[29.247917,63.239583],[29.247917,63.235417]]]},"properties":{"radiance":6.63}},{"type":"Feature","geometry":{"type":"Polygon","coordinates":[[[29.427083,63.177083],[29.43125,63.177083],[29.43125,63.18125],[29.427083,63.18125],[29.427083,63.177083]]]},"properties":{"radiance":5.53}},{"type":"Feature","geometry":{"type":"Polygon","coordinates":[[[29.43125,63.177083],[29.435417,63.177083],[29.435417,63.18125],[29.43125,63.18125],[29.43125,63.177083]]]},"properties":{"radiance":5.45}},{"type":"Feature","geometry":{"type":"Polygon","coordinates":[[[29.435417,63.172917],[29.439583,63.172917],[29.439583,63.177083],[29.435417,63.177083],[29.435417,63.172917]]]},"properties":{"radiance":5.12}},{"type":"Feature","geometry":{"type":"Polygon","coordinates":[[[29.439583,63.172917],[29.44375,63.172917],[29.44375,63.177083],[29.439583,63.177083],[29.439583,63.172917]]]},"properties":{"radiance":5.74}},{"type":"Feature","geometry":{"type":"Polygon","coordinates":[[[29.44375,63.172917],[29.447917,63.172917],[29.447917,63.177083],[29.44375,63.177083],[29.44375,63.172917]]]},"properties":{"radiance":9.53}},{"type":"Feature","geometry":{"type":"Polygon","coordinates":[[[29.447917,63.172917],[29.452083,63.172917],[29.452083,63.177083],[29.447917,63.177083],[29.447917,63.172917]]]},"properties":{"radiance":6.66}},{"type":"Feature","geometry":{"type":"Polygon","coordinates":[[[29.452083,63.172917],[29.45625,63.172917],[29.45625,63.177083],[29.452083,63.177083],[29.452083,63.172917]]]},"properties":{"radiance":14.93}},{"type":"Feature","geometry":{"type":"Polygon","coordinates":[[[29.76875,63.114583],[29.772917,63.114583],[29.772917,63.11875],[29.76875,63.11875],[29.76875,63.114583]]]},"properties":{"radiance":5.49}},{"type":"Feature","geometry":{"type":"Polygon","coordinates":[[[29.772917,63.114583],[29.777083,63.114583],[29.777083,63.11875],[29.772917,63.11875],[29.772917,63.114583]]]},"properties":{"radiance":7.05}},{"type":"Feature","geometry":{"type":"Polygon","coordinates":[[[29.610417,63.097917],[29.614583,63.097917],[29.614583,63.102083],[29.610417,63.102083],[29.610417,63.097917]]]},"properties":{"radiance":10.89}},{"type":"Feature","geometry":{"type":"Polygon","coordinates":[[[29.60625,63.09375],[29.610417,63.09375],[29.610417,63.097917],[29.60625,63.097917],[29.60625,63.09375]]]},"properties":{"radiance":15.27}},{"type":"Feature","geometry":{"type":"Polygon","coordinates":[[[29.610417,63.09375],[29.614583,63.09375],[29.614583,63.097917],[29.610417,63.097917],[29.610417,63.09375]]]},"properties":{"radiance":15.86}},{"type":"Feature","geometry":{"type":"Polygon","coordinates":[[[29.614583,63.09375],[29.61875,63.09375],[29.61875,63.097917],[29.614583,63.097917],[29.614583,63.09375]]]},"properties":{"radiance":5.13}},{"type":"Feature","geometry":{"type":"Polygon","coordinates":[[[30.01875,63.33125],[30.022917,63.33125],[30.022917,63.335417],[30.01875,63.335417],[30.01875,63.33125]]]},"properties":{"radiance":5.78}},{"type":"Feature","geometry":{"type":"Polygon","coordinates":[[[30.022917,63.33125],[30.027083,63.33125],[30.027083,63.335417],[30.022917,63.335417],[30.022917,63.33125]]]},"properties":{"radiance":5.95}},{"type":"Feature","geometry":{"type":"Polygon","coordinates":[[[29.997917,63.327083],[30.002083,63.327083],[30.002083,63.33125],[29.997917,63.33125],[29.997917,63.327083]]]},"properties":{"radiance":9.17}},{"type":"Feature","geometry":{"type":"Polygon","coordinates":[[[30.002083,63.327083],[30.00625,63.327083],[30.00625,63.33125],[30.002083,63.33125],[30.002083,63.327083]]]},"properties":{"radiance":5.34}},{"type":"Feature","geometry":{"type":"Polygon","coordinates":[[[30.00625,63.327083],[30.010417,63.327083],[30.010417,63.33125],[30.00625,63.33125],[30.00625,63.327083]]]},"properties":{"radiance":6.55}},{"type":"Feature","geometry":{"type":"Polygon","coordinates":[[[30.010417,63.327083],[30.014583,63.327083],[30.014583,63.33125],[30.010417,63.33125],[30.010417,63.327083]]]},"properties":{"radiance":5.5}},{"type":"Feature","geometry":{"type":"Polygon","coordinates":[[[30.014583,63.327083],[30.01875,63.327083],[30.01875,63.33125],[30.014583,63.33125],[30.014583,63.327083]]]},"properties":{"radiance":7.83}},{"type":"Feature","geometry":{"type":"Polygon","coordinates":[[[30.01875,63.327083],[30.022917,63.327083],[30.022917,63.33125],[30.01875,63.33125],[30.01875,63.327083]]]},"properties":{"radiance":8.27}},{"type":"Feature","geometry":{"type":"Polygon","coordinates":[[[30.022917,63.327083],[30.027083,63.327083],[30.027083,63.33125],[30.022917,63.33125],[30.022917,63.327083]]]},"properties":{"radiance":8.92}},{"type":"Feature","geometry":{"type":"Polygon","coordinates":[[[30.027083,63.327083],[30.03125,63.327083],[30.03125,63.33125],[30.027083,63.33125],[30.027083,63.327083]]]},"properties":{"radiance":6.06}},{"type":"Feature","geometry":{"type":"Polygon","coordinates":[[[30.03125,63.327083],[30.035417,63.327083],[30.035417,63.33125],[30.03125,63.33125],[30.03125,63.327083]]]},"properties":{"radiance":6.68}},{"type":"Feature","geometry":{"type":"Polygon","coordinates":[[[30.122917,63.327083],[30.127083,63.327083],[30.127083,63.33125],[30.122917,63.33125],[30.122917,63.327083]]]},"properties":{"radiance":12.32}},{"type":"Feature","geometry":{"type":"Polygon","coordinates":[[[30.127083,63.327083],[30.13125,63.327083],[30.13125,63.33125],[30.127083,63.33125],[30.127083,63.327083]]]},"properties":{"radiance":8.83}},{"type":"Feature","geometry":{"type":"Polygon","coordinates":[[[30.13125,63.327083],[30.135417,63.327083],[30.135417,63.33125],[30.13125,63.33125],[30.13125,63.327083]]]},"properties":{"radiance":30.09}},{"type":"Feature","geometry":{"type":"Polygon","coordinates":[[[30.135417,63.327083],[30.139583,63.327083],[30.139583,63.33125],[30.135417,63.33125],[30.135417,63.327083]]]},"properties":{"radiance":23.56}},{"type":"Feature","geometry":{"type":"Polygon","coordinates":[[[30.139583,63.327083],[30.14375,63.327083],[30.14375,63.33125],[30.139583,63.33125],[30.139583,63.327083]]]},"properties":{"radiance":19.91}},{"type":"Feature","geometry":{"type":"Polygon","coordinates":[[[29.997917,63.322917],[30.002083,63.322917],[30.002083,63.327083],[29.997917,63.327083],[29.997917,63.322917]]]},"properties":{"radiance":42.34}},{"type":"Feature","geometry":{"type":"Polygon","coordinates":[[[30.002083,63.322917],[30.00625,63.322917],[30.00625,63.327083],[30.002083,63.327083],[30.002083,63.322917]]]},"properties":{"radiance":36.35}},{"type":"Feature","geometry":{"type":"Polygon","coordinates":[[[30.00625,63.322917],[30.010417,63.322917],[30.010417,63.327083],[30.00625,63.327083],[30.00625,63.322917]]]},"properties":{"radiance":26.22}},{"type":"Feature","geometry":{"type":"Polygon","coordinates":[[[30.010417,63.322917],[30.014583,63.322917],[30.014583,63.327083],[30.010417,63.327083],[30.010417,63.322917]]]},"properties":{"radiance":35.56}},{"type":"Feature","geometry":{"type":"Polygon","coordinates":[[[30.014583,63.322917],[30.01875,63.322917],[30.01875,63.327083],[30.014583,63.327083],[30.014583,63.322917]]]},"properties":{"radiance":41.34}},{"type":"Feature","geometry":{"type":"Polygon","coordinates":[[[30.01875,63.322917],[30.022917,63.322917],[30.022917,63.327083],[30.01875,63.327083],[30.01875,63.322917]]]},"properties":{"radiance":46.65}},{"type":"Feature","geometry":{"type":"Polygon","coordinates":[[[30.022917,63.322917],[30.027083,63.322917],[30.027083,63.327083],[30.022917,63.327083],[30.022917,63.322917]]]},"properties":{"radiance":36.55}},{"type":"Feature","geometry":{"type":"Polygon","coordinates":[[[30.027083,63.322917],[30.03125,63.322917],[30.03125,63.327083],[30.027083,63.327083],[30.027083,63.322917]]]},"properties":{"radiance":9.43}},{"type":"Feature","geometry":{"type":"Polygon","coordinates":[[[30.03125,63.322917],[30.035417,63.322917],[30.035417,63.327083],[30.03125,63.327083],[30.03125,63.322917]]]},"properties":{"radiance":8.86}},{"type":"Feature","geometry":{"type":"Polygon","coordinates":[[[30.11875,63.322917],[30.122917,63.322917],[30.122917,63.327083],[30.11875,63.327083],[30.11875,63.322917]]]},"properties":{"radiance":6.84}},{"type":"Feature","geometry":{"type":"Polygon","coordinates":[[[30.122917,63.322917],[30.127083,63.322917],[30.127083,63.327083],[30.122917,63.327083],[30.122917,63.322917]]]},"properties":{"radiance":18.95}},{"type":"Feature","geometry":{"type":"Polygon","coordinates":[[[30.127083,63.322917],[30.13125,63.322917],[30.13125,63.327083],[30.127083,63.327083],[30.127083,63.322917]]]},"properties":{"radiance":31.76}},{"type":"Feature","geometry":{"type":"Polygon","coordinates":[[[30.13125,63.322917],[30.135417,63.322917],[30.135417,63.327083],[30.13125,63.327083],[30.13125,63.322917]]]},"properties":{"radiance":31.77}},{"type":"Feature","geometry":{"type":"Polygon","coordinates":[[[30.135417,63.322917],[30.139583,63.322917],[30.139583,63.327083],[30.135417,63.327083],[30.135417,63.322917]]]},"properties":{"radiance":31.05}},{"type":"Feature","geometry":{"type":"Polygon","coordinates":[[[30.139583,63.322917],[30.14375,63.322917],[30.14375,63.327083],[30.139583,63.327083],[30.139583,63.322917]]]},"properties":{"radiance":24.93}},{"type":"Feature","geometry":{"type":"Polygon","coordinates":[[[29.997917,63.31875],[30.002083,63.31875],[30.002083,63.322917],[29.997917,63.322917],[29.997917,63.31875]]]},"properties":{"radiance":44.97}},{"type":"Feature","geometry":{"type":"Polygon","coordinates":[[[30.002083,63.31875],[30.00625,63.31875],[30.00625,63.322917],[30.002083,63.322917],[30.002083,63.31875]]]},"properties":{"radiance":32.28}},{"type":"Feature","geometry":{"type":"Polygon","coordinates":[[[30.00625,63.31875],[30.010417,63.31875],[30.010417,63.322917],[30.00625,63.322917],[30.00625,63.31875]]]},"properties":{"radiance":22.94}},{"type":"Feature","geometry":{"type":"Polygon","coordinates":[[[30.010417,63.31875],[30.014583,63.31875],[30.014583,63.322917],[30.010417,63.322917],[30.010417,63.31875]]]},"properties":{"radiance":39.87}},{"type":"Feature","geometry":{"type":"Polygon","coordinates":[[[30.014583,63.31875],[30.01875,63.31875],[30.01875,63.322917],[30.014583,63.322917],[30.014583,63.31875]]]},"properties":{"radiance":45.76}},{"type":"Feature","geometry":{"type":"Polygon","coordinates":[[[30.01875,63.31875],[30.022917,63.31875],[30.022917,63.322917],[30.01875,63.322917],[30.01875,63.31875]]]},"properties":{"radiance":52.3}},{"type":"Feature","geometry":{"type":"Polygon","coordinates":[[[30.022917,63.31875],[30.027083,63.31875],[30.027083,63.322917],[30.022917,63.322917],[30.022917,63.31875]]]},"properties":{"radiance":52.87}},{"type":"Feature","geometry":{"type":"Polygon","coordinates":[[[30.027083,63.31875],[30.03125,63.31875],[30.03125,63.322917],[30.027083,63.322917],[30.027083,63.31875]]]},"properties":{"radiance":42.78}},{"type":"Feature","geometry":{"type":"Polygon","coordinates":[[[30.03125,63.31875],[30.035417,63.31875],[30.035417,63.322917],[30.03125,63.322917],[30.03125,63.31875]]]},"properties":{"radiance":12.82}},{"type":"Feature","geometry":{"type":"Polygon","coordinates":[[[30.035417,63.31875],[30.039583,63.31875],[30.039583,63.322917],[30.035417,63.322917],[30.035417,63.31875]]]},"properties":{"radiance":6.26}},{"type":"Feature","geometry":{"type":"Polygon","coordinates":[[[30.052083,63.31875],[30.05625,63.31875],[30.05625,63.322917],[30.052083,63.322917],[30.052083,63.31875]]]},"properties":{"radiance":6.34}},{"type":"Feature","geometry":{"type":"Polygon","coordinates":[[[29.997917,63.314583],[30.002083,63.314583],[30.002083,63.31875],[29.997917,63.31875],[29.997917,63.314583]]]},"properties":{"radiance":37.81}},{"type":"Feature","geometry":{"type":"Polygon","coordinates":[[[30.002083,63.314583],[30.00625,63.314583],[30.00625,63.31875],[30.002083,63.31875],[30.002083,63.314583]]]},"properties":{"radiance":21.63}},{"type":"Feature","geometry":{"type":"Polygon","coordinates":[[[30.00625,63.314583],[30.010417,63.314583],[30.010417,63.31875],[30.00625,63.31875],[30.00625,63.314583]]]},"properties":{"radiance":8.01}},{"type":"Feature","geometry":{"type":"Polygon","coordinates":[[[30.010417,63.314583],[30.014583,63.314583],[30.014583,63.31875],[30.010417,63.31875],[30.010417,63.314583]]]},"properties":{"radiance":8.64}},{"type":"Feature","geometry":{"type":"Polygon","coordinates":[[[30.014583,63.314583],[30.01875,63.314583],[30.01875,63.31875],[30.014583,63.31875],[30.014583,63.314583]]]},"properties":{"radiance":10.18}},{"type":"Feature","geometry":{"type":"Polygon","coordinates":[[[30.01875,63.314583],[30.022917,63.314583],[30.022917,63.31875],[30.01875,63.31875],[30.01875,63.314583]]]},"properties":{"radiance":11.42}},{"type":"Feature","geometry":{"type":"Polygon","coordinates":[[[30.022917,63.314583],[30.027083,63.314583],[30.027083,63.31875],[30.022917,63.31875],[30.022917,63.314583]]]},"properties":{"radiance":13.88}},{"type":"Feature","geometry":{"type":"Polygon","coordinates":[[[30.027083,63.314583],[30.03125,63.314583],[30.03125,63.31875],[30.027083,63.31875],[30.027083,63.314583]]]},"properties":{"radiance":12.05}},{"type":"Feature","geometry":{"type":"Polygon","coordinates":[[[30.03125,63.314583],[30.035417,63.314583],[30.035417,63.31875],[30.03125,63.31875],[30.03125,63.314583]]]},"properties":{"radiance":12.53}},{"type":"Feature","geometry":{"type":"Polygon","coordinates":[[[30.035417,63.314583],[30.039583,63.314583],[30.039583,63.31875],[30.035417,63.31875],[30.035417,63.314583]]]},"properties":{"radiance":8.18}},{"type":"Feature","geometry":{"type":"Polygon","coordinates":[[[30.039583,63.314583],[30.04375,63.314583],[30.04375,63.31875],[30.039583,63.31875],[30.039583,63.314583]]]},"properties":{"radiance":6.02}},{"type":"Feature","geometry":{"type":"Polygon","coordinates":[[[30.04375,63.314583],[30.047917,63.314583],[30.047917,63.31875],[30.04375,63.31875],[30.04375,63.314583]]]},"properties":{"radiance":8.96}},{"type":"Feature","geometry":{"type":"Polygon","coordinates":[[[30.047917,63.314583],[30.052083,63.314583],[30.052083,63.31875],[30.047917,63.31875],[30.047917,63.314583]]]},"properties":{"radiance":9.73}},{"type":"Feature","geometry":{"type":"Polygon","coordinates":[[[30.052083,63.314583],[30.05625,63.314583],[30.05625,63.31875],[30.052083,63.31875],[30.052083,63.314583]]]},"properties":{"radiance":9.38}},{"type":"Feature","geometry":{"type":"Polygon","coordinates":[[[30.05625,63.314583],[30.060417,63.314583],[30.060417,63.31875],[30.05625,63.31875],[30.05625,63.314583]]]},"properties":{"radiance":8.44}},{"type":"Feature","geometry":{"type":"Polygon","coordinates":[[[30.060417,63.314583],[30.064583,63.314583],[30.064583,63.31875],[30.060417,63.31875],[30.060417,63.314583]]]},"properties":{"radiance":5.74}},{"type":"Feature","geometry":{"type":"Polygon","coordinates":[[[30.064583,63.314583],[30.06875,63.314583],[30.06875,63.31875],[30.064583,63.31875],[30.064583,63.314583]]]},"properties":{"radiance":5.33}},{"type":"Feature","geometry":{"type":"Polygon","coordinates":[[[30.022917,63.310417],[30.027083,63.310417],[30.027083,63.314583],[30.022917,63.314583],[30.022917,63.310417]]]},"properties":{"radiance":6.25}},{"type":"Feature","geometry":{"type":"Polygon","coordinates":[[[30.027083,63.310417],[30.03125,63.310417],[30.03125,63.314583],[30.027083,63.314583],[30.027083,63.310417]]]},"properties":{"radiance":6.34}},{"type":"Feature","geometry":{"type":"Polygon","coordinates":[[[30.03125,63.310417],[30.035417,63.310417],[30.035417,63.314583],[30.03125,63.314583],[30.03125,63.310417]]]},"properties":{"radiance":9.5}},{"type":"Feature","geometry":{"type":"Polygon","coordinates":[[[30.035417,63.310417],[30.039583,63.310417],[30.039583,63.314583],[30.035417,63.314583],[30.035417,63.310417]]]},"properties":{"radiance":5.21}},{"type":"Feature","geometry":{"type":"Polygon","coordinates":[[[30.052083,63.310417],[30.05625,63.310417],[30.05625,63.314583],[30.052083,63.314583],[30.052083,63.310417]]]},"properties":{"radiance":7.29}},{"type":"Feature","geometry":{"type":"Polygon","coordinates":[[[30.047917,63.302083],[30.052083,63.302083],[30.052083,63.30625],[30.047917,63.30625],[30.047917,63.302083]]]},"properties":{"radiance":5.23}},{"type":"Feature","geometry":{"type":"Polygon","coordinates":[[[30.052083,63.302083],[30.05625,63.302083],[30.05625,63.30625],[30.052083,63.30625],[30.052083,63.302083]]]},"properties":{"radiance":5.48}},{"type":"Feature","geometry":{"type":"Polygon","coordinates":[[[30.060417,63.302083],[30.064583,63.302083],[30.064583,63.30625],[30.060417,63.30625],[30.060417,63.302083]]]},"properties":{"radiance":5.92}},{"type":"Feature","geometry":{"type":"Polygon","coordinates":[[[30.064583,63.302083],[30.06875,63.302083],[30.06875,63.30625],[30.064583,63.30625],[30.064583,63.302083]]]},"properties":{"radiance":5.21}},{"type":"Feature","geometry":{"type":"Polygon","coordinates":[[[30.022917,63.297917],[30.027083,63.297917],[30.027083,63.302083],[30.022917,63.302083],[30.022917,63.297917]]]},"properties":{"radiance":5.42}},{"type":"Feature","geometry":{"type":"Polygon","coordinates":[[[30.060417,63.297917],[30.064583,63.297917],[30.064583,63.302083],[30.060417,63.302083],[30.060417,63.297917]]]},"properties":{"radiance":5.42}},{"type":"Feature","geometry":{"type":"Polygon","coordinates":[[[30.064583,63.297917],[30.06875,63.297917],[30.06875,63.302083],[30.064583,63.302083],[30.064583,63.297917]]]},"properties":{"radiance":5.13}}]}