{"type":"FeatureCollection","features":[{"type":"Feature","geometry":{"type":"Polygon","coordinates":[[[27.572917,62.71875],[27.577083,62.71875],[27.577083,62.722917],[27.572917,62.722917],[27.572917,62.71875]]]},"properties":{"radiance":6.7}},{"type":"Feature","geometry":{"type":"Polygon","coordinates":[[[27.56875,62.714583],[27.572917,62.714583],[27.572917,62.71875],[27.56875,62.71875],[27.56875,62.714583]]]},"properties":{"radiance":5.87}},{"type":"Feature","geometry":{"type":"Polygon","coordinates":[[[27.572917,62.714583],[27.577083,62.714583],[27.577083,62.71875],[27.572917,62.71875],[27.572917,62.714583]]]},"properties":{"radiance":6.24}},{"type":"Feature","geometry":{"type":"Polygon","coordinates":[[[27.76875,62.502083],[27.772917,62.502083],[27.772917,62.50625],[27.76875,62.50625],[27.76875,62.502083]]]},"properties":{"radiance":5.78}},{"type":"Feature","geometry":{"type":"Polygon","coordinates":[[[27.74375,62.497917],[27.747917,62.497917],[27.747917,62.502083],[27.74375,62.502083],[27.74375,62.497917]]]},"properties":{"radiance":6.19}},{"type":"Feature","geometry":{"type":"Polygon","coordinates":[[[27.747917,62.497917],[27.752083,62.497917],[27.752083,62.502083],[27.747917,62.502083],[27.747917,62.497917]]]},"properties":{"radiance":7.72}},{"type":"Feature","geometry":{"type":"Polygon","coordinates":[[[27.752083,62.497917],[27.75625,62.497917],[27.75625,62.502083],[27.752083,62.502083],[27.752083,62.497917]]]},"properties":{"radiance":7.89}},{"type":"Feature","geometry":{"type":"Polygon","coordinates":[[[27.75625,62.497917],[27.760417,62.497917],[27.760417,62.502083],[27.75625,62.502083],[27.75625,62.497917]]]},"properties":{"radiance":39.12}},{"type":"Feature","geometry":{"type":"Polygon","coordinates":[[[27.760417,62.497917],[27.764583,62.497917],[27.764583,62.502083],[27.760417,62.502083],[27.760417,62.497917]]]},"properties":{"radiance":7.28}},{"type":"Feature","geometry":{"type":"Polygon","coordinates":[[[27.764583,62.497917],[27.76875,62.497917],[27.76875,62.502083],[27.764583,62.502083],[27.764583,62.497917]]]},"properties":{"radiance":6.84}},{"type":"Feature","geometry":{"type":"Polygon","coordinates":[[[27.76875,62.497917],[27.772917,62.497917],[27.772917,62.502083],[27.76875,62.502083],[27.76875,62.497917]]]},"properties":{"radiance":5.78}},{"type":"Feature","geometry":{"type":"Polygon","coordinates":[[[27.772917,62.497917],[27.777083,62.497917],[27.777083,62.502083],[27.772917,62.502083],[27.772917,62.497917]]]},"properties":{"radiance":25.67}},{"type":"Feature","geometry":{"type":"Polygon","coordinates":[[[27.777083,62.497917],[27.78125,62.497917],[27.78125,62.502083],[27.777083,62.502083],[27.777083,62.497917]]]},"properties":{"radiance":7.93}},{"type":"Feature","geometry":{"type":"Polygon","coordinates":[[[27.78125,62.497917],[27.785417,62.497917],[27.785417,62.502083],[27.78125,62.502083],[27.78125,62.497917]]]},"properties":{"radiance":31.81}},{"type":"Feature","geometry":{"type":"Polygon","coordinates":[[[27.785417,62.497917],[27.789583,62.497917],[27.789583,62.502083],[27.785417,62.502083],[27.785417,62.497917]]]},"properties":{"radiance":32.79}},{"type":"Feature","geometry":{"type":"Polygon","coordinates":[[[27.789583,62.497917],[27.79375,62.497917],[27.79375,62.502083],[27.789583,62.502083],[27.789583,62.497917]]]},"properties":{"radiance":7.19}},{"type":"Feature","geometry":{"type":"Polygon","coordinates":[[[27.74375,62.49375],[27.747917,62.49375],[27.747917,62.497917],[27.74375,62.497917],[27.74375,62.49375]]]},"properties":{"radiance":7.06}},{"type":"Feature","geometry":{"type":"Polygon","coordinates":[[[27.747917,62.49375],[27.752083,62.49375],[27.752083,62.497917],[27.747917,62.497917],[27.747917,62.49375]]]},"properties":{"radiance":39.89}},{"type":"Feature","geometry":{"type":"Polygon","coordinates":[[[27.752083,62.49375],[27.75625,62.49375],[27.75625,62.497917],[27.752083,62.497917],[27.752083,62.49375]]]},"properties":{"radiance":41.31}},{"type":"Feature","geometry":{"type":"Polygon","coordinates":[[[27.75625,62.49375],[27.760417,62.49375],[27.760417,62.497917],[27.75625,62.497917],[27.75625,62.49375]]]},"properties":{"radiance":42.54}},{"type":"Feature","geometry":{"type":"Polygon","coordinates":[[[27.760417,62.49375],[27.764583,62.49375],[27.764583,62.497917],[27.760417,62.497917],[27.760417,62.49375]]]},"properties":{"radiance":42.76}},{"type":"Feature","geometry":{"type":"Polygon","coordinates":[[[27.764583,62.49375],[27.76875,62.49375],[27.76875,62.497917],[27.764583,62.497917],[27.764583,62.49375]]]},"properties":{"radiance":45.35}},{"type":"Feature","geometry":{"type":"Polygon","coordinates":[[[27.76875,62.49375],[27.772917,62.49375],[27.772917,62.497917],[27.76875,62.497917],[27.76875,62.49375]]]},"properties":{"radiance":45.93}},{"type":"Feature","geometry":{"type":"Polygon","coordinates":[[[27.772917,62.49375],[27.777083,62.49375],[27.777083,62.497917],[27.772917,62.497917],[27.772917,62.49375]]]},"properties":{"radiance":44.04}},{"type":"Feature","geometry":{"type":"Polygon","coordinates":[[[27.777083,62.49375],[27.78125,62.49375],[27.78125,62.497917],[27.777083,62.497917],[27.777083,62.49375]]]},"properties":{"radiance":12.03}},{"type":"Feature","geometry":{"type":"Polygon","coordinates":[[[27.78125,62.49375],[27.785417,62.49375],[27.785417,62.497917],[27.78125,62.497917],[27.78125,62.49375]]]},"properties":{"radiance":11.11}},{"type":"Feature","geometry":{"type":"Polygon","coordinates":[[[27.785417,62.49375],[27.789583,62.49375],[27.789583,62.497917],[27.785417,62.497917],[27.785417,62.49375]]]},"properties":{"radiance":48.82}},{"type":"Feature","geometry":{"type":"Polygon","coordinates":[[[27.789583,62.49375],[27.79375,62.49375],[27.79375,62.497917],[27.789583,62.497917],[27.789583,62.49375]]]},"properties":{"radiance":6.16}},{"type":"Feature","geometry":{"type":"Polygon","coordinates":[[[27.79375,62.49375],[27.797917,62.49375],[27.797917,62.497917],[27.79375,62.497917],[27.79375,62.49375]]]},"properties":{"radiance":24.34}},{"type":"Feature","geometry":{"type":"Polygon","coordinates":[[[27.797917,62.49375],[27.802083,62.49375],[27.802083,62.497917],[27.797917,62.497917],[27.797917,62.49375]]]},"properties":{"radiance":5.37}},{"type":"Feature","geometry":{"type":"Polygon","coordinates":[[[27.75625,62.489583],[27.760417,62.489583],[27.760417,62.49375],[27.75625,62.49375],[27.75625,62.489583]]]},"properties":{"radiance":36.27}},{"type":"Feature","geometry":{"type":"Polygon","coordinates":[[[27.760417,62.489583],[27.764583,62.489583],[27.764583,62.49375],[27.760417,62.49375],[27.760417,62.489583]]]},"properties":{"radiance":44.41}},{"type":"Feature","geometry":{"type":"Polygon","coordinates":[[[27.764583,62.489583],[27.76875,62.489583],[27.76875,62.49375],[27.764583,62.49375],[27.764583,62.489583]]]},"properties":{"radiance":48.14}},{"type":"Feature","geometry":{"type":"Polygon","coordinates":[[[27.76875,62.489583],[27.772917,62.489583],[27.772917,62.49375],[27.76875,62.49375],[27.76875,62.489583]]]},"properties":{"radiance":44.68}},{"type":"Feature","geometry":{"type":"Polygon","coordinates":[[[27.772917,62.489583],[27.777083,62.489583],[27.777083,62.49375],[27.772917,62.49375],[27.772917,62.489583]]]},"properties":{"radiance":44.77}},{"type":"Feature","geometry":{"type":"Polygon","coordinates":[[[27.777083,62.489583],[27.78125,62.489583],[27.78125,62.49375],[27.777083,62.49375],[27.777083,62.489583]]]},"properties":{"radiance":49}},{"type":"Feature","geometry":{"type":"Polygon","coordinates":[[[27.78125,62.489583],[27.785417,62.489583],[27.785417,62.49375],[27.78125,62.49375],[27.78125,62.489583]]]},"properties":{"radiance":58.34}},{"type":"Feature","geometry":{"type":"Polygon","coordinates":[[[27.785417,62.489583],[27.789583,62.489583],[27.789583,62.49375],[27.785417,62.49375],[27.785417,62.489583]]]},"properties":{"radiance":59.36}},{"type":"Feature","geometry":{"type":"Polygon","coordinates":[[[27.789583,62.489583],[27.79375,62.489583],[27.79375,62.49375],[27.789583,62.49375],[27.789583,62.489583]]]},"properties":{"radiance":58.8}},{"type":"Feature","geometry":{"type":"Polygon","coordinates":[[[27.79375,62.489583],[27.797917,62.489583],[27.797917,62.49375],[27.79375,62.49375],[27.79375,62.489583]]]},"properties":{"radiance":43.95}},{"type":"Feature","geometry":{"type":"Polygon","coordinates":[[[27.797917,62.489583],[27.802083,62.489583],[27.802083,62.49375],[27.797917,62.49375],[27.797917,62.489583]]]},"properties":{"radiance":24.68}},{"type":"Feature","geometry":{"type":"Polygon","coordinates":[[[27.75625,62.485417],[27.760417,62.485417],[27.760417,62.489583],[27.75625,62.489583],[27.75625,62.485417]]]},"properties":{"radiance":5.58}},{"type":"Feature","geometry":{"type":"Polygon","coordinates":[[[27.760417,62.485417],[27.764583,62.485417],[27.764583,62.489583],[27.760417,62.489583],[27.760417,62.485417]]]},"properties":{"radiance":8.53}},{"type":"Feature","geometry":{"type":"Polygon","coordinates":[[[27.764583,62.485417],[27.76875,62.485417],[27.76875,62.489583],[27.764583,62.489583],[27.764583,62.485417]]]},"properties":{"radiance":11.87}},{"type":"Feature","geometry":{"type":"Polygon","coordinates":[[[27.76875,62.485417],[27.772917,62.485417],[27.772917,62.489583],[27.76875,62.489583],[27.76875,62.485417]]]},"properties":{"radiance":33.4}},{"type":"Feature","geometry":{"type":"Polygon","coordinates":[[[27.772917,62.485417],[27.777083,62.485417],[27.777083,62.489583],[27.772917,62.489583],[27.772917,62.485417]]]},"properties":{"radiance":5.23}},{"type":"Feature","geometry":{"type":"Polygon","coordinates":[[[27.777083,62.485417],[27.78125,62.485417],[27.78125,62.489583],[27.777083,62.489583],[27.777083,62.485417]]]},"properties":{"radiance":5.47}},{"type":"Feature","geometry":{"type":"Polygon","coordinates":[[[27.785417,62.485417],[27.789583,62.485417],[27.789583,62.489583],[27.785417,62.489583],[27.785417,62.485417]]]},"properties":{"radiance":10.77}},{"type":"Feature","geometry":{"type":"Polygon","coordinates":[[[27.789583,62.485417],[27.79375,62.485417],[27.79375,62.489583],[27.789583,62.489583],[27.789583,62.485417]]]},"properties":{"radiance":5.02}},{"type":"Feature","geometry":{"type":"Polygon","coordinates":[[[27.79375,62.485417],[27.797917,62.485417],[27.797917,62.489583],[27.79375,62.489583],[27.79375,62.485417]]]},"properties":{"radiance":6.7}},{"type":"Feature","geometry":{"type":"Polygon","coordinates":[[[27.797917,62.485417],[27.802083,62.485417],[27.802083,62.489583],[27.797917,62.489583],[27.797917,62.485417]]]},"properties":{"radiance":20.7}},{"type":"Feature","geometry":{"type":"Polygon","coordinates":[[[27.65625,62.452083],[27.660417,62.452083],[27.660417,62.45625],[27.65625,62.45625],[27.65625,62.452083]]]},"properties":{"radiance":5.97}},{"type":"Feature","geometry":{"type":"Polygon","coordinates":[[[27.660417,62.452083],[27.664583,62.452083],[27.664583,62.45625],[27.660417,62.45625],[27.660417,62.452083]]]},"properties":{"radiance":5.42}},{"type":"Feature","geometry":{"type":"Polygon","coordinates":[[[27.664583,62.452083],[27.66875,62.452083],[27.66875,62.45625],[27.664583,62.45625],[27.664583,62.452083]]]},"properties":{"radiance":5.4}},{"type":"Feature","geometry":{"type":"Polygon","coordinates":[[[27.652083,62.447917],[27.65625,62.447917],[27.65625,62.452083],[27.652083,62.452083],[27.652083,62.447917]]]},"properties":{"radiance":5.41}},{"type":"Feature","geometry":{"type":"Polygon","coordinates":[[[27.65625,62.447917],[27.660417,62.447917],[27.660417,62.452083],[27.65625,62.452083],[27.65625,62.447917]]]},"properties":{"radiance":5.64}},{"type":"Feature","geometry":{"type":"Polygon","coordinates":[[[27.660417,62.447917],[27.664583,62.447917],[27.664583,62.452083],[27.660417,62.452083],[27.660417,62.447917]]]},"properties":{"radiance":5.73}},{"type":"Feature","geometry":{"type":"Polygon","coordinates":[[[28.64375,62.41875],[28.647917,62.41875],[28.647917,62.422917],[28.64375,62.422917],[28.64375,62.41875]]]},"properties":{"radiance":5.47}},{"type":"Feature","geometry":{"type":"Polygon","coordinates":[[[28.647917,62.41875],[28.652083,62.41875],[28.652083,62.422917],[28.647917,62.422917],[28.647917,62.41875]]]},"properties":{"radiance":6.11}},{"type":"Feature","geometry":{"type":"Polygon","coordinates":[[[28.652083,62.41875],[28.65625,62.41875],[28.65625,62.422917],[28.652083,62.422917],[28.652083,62.41875]]]},"properties":{"radiance":5.12}},{"type":"Feature","geometry":{"type":"Polygon","coordinates":[[[27.43125,62.377083],[27.435417,62.377083],[27.435417,62.38125],[27.43125,62.38125],[27.43125,62.377083]]]},"properties":{"radiance":5.29}},{"type":"Feature","geometry":{"type":"Polygon","coordinates":[[[27.73125,62.372917],[27.735417,62.372917],[27.735417,62.377083],[27.73125,62.377083],[27.73125,62.372917]]]},"properties":{"radiance":7.42}},{"type":"Feature","geometry":{"type":"Polygon","coordinates":[[[27.735417,62.372917],[27.739583,62.372917],[27.739583,62.377083],[27.735417,62.377083],[27.735417,62.372917]]]},"properties":{"radiance":9.24}},{"type":"Feature","geometry":{"type":"Polygon","coordinates":[[[27.739583,62.372917],[27.74375,62.372917],[27.74375,62.377083],[27.739583,62.377083],[27.739583,62.372917]]]},"properties":{"radiance":6.3}},{"type":"Feature","geometry":{"type":"Polygon","coordinates":[[[27.810417,62.352083],[27.814583,62.352083],[27.814583,62.35625],[27.810417,62.35625],[27.810417,62.352083]]]},"properties":{"radiance":5.02}},{"type":"Feature","geometry":{"type":"Polygon","coordinates":[[[27.814583,62.352083],[27.81875,62.352083],[27.81875,62.35625],[27.814583,62.35625],[27.814583,62.352083]]]},"properties":{"radiance":5.23}},{"type":"Feature","geometry":{"type":"Polygon","coordinates":[[[27.814583,62.339583],[27.81875,62.339583],[27.81875,62.34375],[27.814583,62.34375],[27.814583,62.339583]]]},"properties":{"radiance":8.26}},{"type":"Feature","geometry":{"type":"Polygon","coordinates":[[[27.81875,62.339583],[27.822917,62.339583],[27.822917,62.34375],[27.81875,62.34375],[27.81875,62.339583]]]},"properties":{"radiance":8.09}},{"type":"Feature","geometry":{"type":"Polygon","coordinates":[[[27.822917,62.339583],[27.827083,62.339583],[27.827083,62.34375],[27.822917,62.34375],[27.822917,62.339583]]]},"properties":{"radiance":5.52}},{"type":"Feature","geometry":{"type":"Polygon","coordinates":[[[27.810417,62.335417],[27.814583,62.335417],[27.814583,62.339583],[27.810417,62.339583],[27.810417,62.335417]]]},"properties":{"radiance":5.71}},{"type":"Feature","geometry":{"type":"Polygon","coordinates":[[[27.814583,62.335417],[27.81875,62.335417],[27.81875,62.339583],[27.814583,62.339583],[27.814583,62.335417]]]},"properties":{"radiance":7.39}},{"type":"Feature","geometry":{"type":"Polygon","coordinates":[[[27.81875,62.335417],[27.822917,62.335417],[27.822917,62.339583],[27.81875,62.339583],[27.81875,62.335417]]]},"properties":{"radiance":81.81}},{"type":"Feature","geometry":{"type":"Polygon","coordinates":[[[27.822917,62.335417],[27.827083,62.335417],[27.827083,62.339583],[27.822917,62.339583],[27.822917,62.335417]]]},"properties":{"radiance":91.64}},{"type":"Feature","geometry":{"type":"Polygon","coordinates":[[[27.827083,62.335417],[27.83125,62.335417],[27.83125,62.339583],[27.827083,62.339583],[27.827083,62.335417]]]},"properties":{"radiance":79.48}},{"type":"Feature","geometry":{"type":"Polygon","coordinates":[[[27.83125,62.335417],[27.835417,62.335417],[27.835417,62.339583],[27.83125,62.339583],[27.83125,62.335417]]]},"properties":{"radiance":11.48}},{"type":"Feature","geometry":{"type":"Polygon","coordinates":[[[27.835417,62.335417],[27.839583,62.335417],[27.839583,62.339583],[27.835417,62.339583],[27.835417,62.335417]]]},"properties":{"radiance":6.95}},{"type":"Feature","geometry":{"type":"Polygon","coordinates":[[[27.839583,62.335417],[27.84375,62.335417],[27.84375,62.339583],[27.839583,62.339583],[27.839583,62.335417]]]},"properties":{"radiance":5.51}},{"type":"Feature","geometry":{"type":"Polygon","coordinates":[[[27.86875,62.335417],[27.872917,62.335417],[27.872917,62.339583],[27.86875,62.339583],[27.86875,62.335417]]]},"properties":{"radiance":5.98}},{"type":"Feature","geometry":{"type":"Polygon","coordinates":[[[27.872917,62.335417],[27.877083,62.335417],[27.877083,62.339583],[27.872917,62.339583],[27.872917,62.335417]]]},"properties":{"radiance":40.34}},{"type":"Feature","geometry":{"type":"Polygon","coordinates":[[[27.877083,62.335417],[27.88125,62.335417],[27.88125,62.339583],[27.877083,62.339583],[27.877083,62.335417]]]},"properties":{"radiance":38.28}},{"type":"Feature","geometry":{"type":"Polygon","coordinates":[[[27.88125,62.335417],[27.885417,62.335417],[27.885417,62.339583],[27.88125,62.339583],[27.88125,62.335417]]]},"properties":{"radiance":5.98}},{"type":"Feature","geometry":{"type":"Polygon","coordinates":[[[27.885417,62.335417],[27.889583,62.335417],[27.889583,62.339583],[27.885417,62.339583],[27.885417,62.335417]]]},"properties":{"radiance":5.31}},{"type":"Feature","geometry":{"type":"Polygon","coordinates":[[[27.889583,62.335417],[27.89375,62.335417],[27.89375,62.339583],[27.889583,62.339583],[27.889583,62.335417]]]},"properties":{"radiance":5.29}},{"type":"Feature","geometry":{"type":"Polygon","coordinates":[[[27.814583,62.33125],[27.81875,62.33125],[27.81875,62.335417],[27.814583,62.335417],[27.814583,62.33125]]]},"properties":{"radiance":81.31}},{"type":"Feature","geometry":{"type":"Polygon","coordinates":[[[27.81875,62.33125],[27.822917,62.33125],[27.822917,62.335417],[27.81875,62.335417],[27.81875,62.33125]]]},"properties":{"radiance":90.69}},{"type":"Feature","geometry":{"type":"Polygon","coordinates":[[[27.822917,62.33125],[27.827083,62.33125],[27.827083,62.335417],[27.822917,62.335417],[27.822917,62.33125]]]},"properties":{"radiance":99.15}},{"type":"Feature","geometry":{"type":"Polygon","coordinates":[[[27.827083,62.33125],[27.83125,62.33125],[27.83125,62.335417],[27.827083,62.335417],[27.827083,62.33125]]]},"properties":{"radiance":90.46}},{"type":"Feature","geometry":{"type":"Polygon","coordinates":[[[27.83125,62.33125],[27.835417,62.33125],[27.835417,62.335417],[27.83125,62.335417],[27.83125,62.33125]]]},"properties":{"radiance":20.72}},{"type":"Feature","geometry":{"type":"Polygon","coordinates":[[[27.835417,62.33125],[27.839583,62.33125],[27.839583,62.335417],[27.835417,62.335417],[27.835417,62.33125]]]},"properties":{"radiance":11.36}},{"type":"Feature","geometry":{"type":"Polygon","coordinates":[[[27.839583,62.33125],[27.84375,62.33125],[27.84375,62.335417],[27.839583,62.335417],[27.839583,62.33125]]]},"properties":{"radiance":8.87}},{"type":"Feature","geometry":{"type":"Polygon","coordinates":[[[27.84375,62.33125],[27.847917,62.33125],[27.847917,62.335417],[27.84375,62.335417],[27.84375,62.33125]]]},"properties":{"radiance":6.92}},{"type":"Feature","geometry":{"type":"Polygon","coordinates":[[[27.847917,62.33125],[27.852083,62.33125],[27.852083,62.335417],[27.847917,62.335417],[27.847917,62.33125]]]},"properties":{"radiance":26.19}},{"type":"Feature","geometry":{"type":"Polygon","coordinates":[[[27.860417,62.33125],[27.864583,62.33125],[27.864583,62.335417],[27.860417,62.335417],[27.860417,62.33125]]]},"properties":{"radiance":8.39}},{"type":"Feature","geometry":{"type":"Polygon","coordinates":[[[27.864583,62.33125],[27.86875,62.33125],[27.86875,62.335417],[27.864583,62.335417],[27.864583,62.33125]]]},"properties":{"radiance":5.92}},{"type":"Feature","geometry":{"type":"Polygon","coordinates":[[[27.86875,62.33125],[27.872917,62.33125],[27.872917,62.335417],[27.86875,62.335417],[27.86875,62.33125]]]},"properties":{"radiance":56.45}},{"type":"Feature","geometry":{"type":"Polygon","coordinates":[[[27.872917,62.33125],[27.877083,62.33125],[27.877083,62.335417],[27.872917,62.335417],[27.872917,62.33125]]]},"properties":{"radiance":64.19}},{"type":"Feature","geometry":{"type":"Polygon","coordinates":[[[27.877083,62.33125],[27.88125,62.33125],[27.88125,62.335417],[27.877083,62.335417],[27.877083,62.33125]]]},"properties":{"radiance":45.46}},{"type":"Feature","geometry":{"type":"Polygon","coordinates":[[[27.88125,62.33125],[27.885417,62.33125],[27.885417,62.335417],[27.88125,62.335417],[27.88125,62.33125]]]},"properties":{"radiance":44.94}},{"type":"Feature","geometry":{"type":"Polygon","coordinates":[[[27.885417,62.33125],[27.889583,62.33125],[27.889583,62.335417],[27.885417,62.335417],[27.885417,62.33125]]]},"properties":{"radiance":36.69}},{"type":"Feature","geometry":{"type":"Polygon","coordinates":[[[27.889583,62.33125],[27.89375,62.33125],[27.89375,62.335417],[27.889583,62.335417],[27.889583,62.33125]]]},"properties":{"radiance":10.15}},{"type":"Feature","geometry":{"type":"Polygon","coordinates":[[[27.89375,62.33125],[27.897917,62.33125],[27.897917,62.335417],[27.89375,62.335417],[27.89375,62.33125]]]},"properties":{"radiance":6.7}},{"type":"Feature","geometry":{"type":"Polygon","coordinates":[[[27.80625,62.327083],[27.810417,62.327083],[27.810417,62.33125],[27.80625,62.33125],[27.80625,62.327083]]]},"properties":{"radiance":8.3}},{"type":"Feature","geometry":{"type":"Polygon","coordinates":[[[27.810417,62.327083],[27.814583,62.327083],[27.814583,62.33125],[27.810417,62.33125],[27.810417,62.327083]]]},"properties":{"radiance":109.6}},{"type":"Feature","geometry":{"type":"Polygon","coordinates":[[[27.814583,62.327083],[27.81875,62.327083],[27.81875,62.33125],[27.814583,62.33125],[27.814583,62.327083]]]},"properties":{"radiance":114.67}},{"type":"Feature","geometry":{"type":"Polygon","coordinates":[[[27.81875,62.327083],[27.822917,62.327083],[27.822917,62.33125],[27.81875,62.33125],[27.81875,62.327083]]]},"properties":{"radiance":101}},{"type":"Feature","geometry":{"type":"Polygon","coordinates":[[[27.822917,62.327083],[27.827083,62.327083],[27.827083,62.33125],[27.822917,62.33125],[27.822917,62.327083]]]},"properties":{"radiance":99.15}},{"type":"Feature","geometry":{"type":"Polygon","coordinates":[[[27.827083,62.327083],[27.83125,62.327083],[27.83125,62.33125],[27.827083,62.33125],[27.827083,62.327083]]]},"properties":{"radiance":61.26}},{"type":"Feature","geometry":{"type":"Polygon","coordinates":[[[27.83125,62.327083],[27.835417,62.327083],[27.835417,62.33125],[27.83125,62.33125],[27.83125,62.327083]]]},"properties":{"radiance":57.06}},{"type":"Feature","geometry":{"type":"Polygon","coordinates":[[[27.835417,62.327083],[27.839583,62.327083],[27.839583,62.33125],[27.835417,62.33125],[27.835417,62.327083]]]},"properties":{"radiance":42.64}},{"type":"Feature","geometry":{"type":"Polygon","coordinates":[[[27.839583,62.327083],[27.84375,62.327083],[27.84375,62.33125],[27.839583,62.33125],[27.839583,62.327083]]]},"properties":{"radiance":11.97}},{"type":"Feature","geometry":{"type":"Polygon","coordinates":[[[27.84375,62.327083],[27.847917,62.327083],[27.847917,62.33125],[27.84375,62.33125],[27.84375,62.327083]]]},"properties":{"radiance":36.45}},{"type":"Feature","geometry":{"type":"Polygon","coordinates":[[[27.847917,62.327083],[27.852083,62.327083],[27.852083,62.33125],[27.847917,62.33125],[27.847917,62.327083]]]},"properties":{"radiance":28.3}},{"type":"Feature","geometry":{"type":"Polygon","coordinates":[[[27.852083,62.327083],[27.85625,62.327083],[27.85625,62.33125],[27.852083,62.33125],[27.852083,62.327083]]]},"properties":{"radiance":9.38}},{"type":"Feature","geometry":{"type":"Polygon","coordinates":[[[27.85625,62.327083],[27.860417,62.327083],[27.860417,62.33125],[27.85625,62.33125],[27.85625,62.327083]]]},"properties":{"radiance":8.17}},{"type":"Feature","geometry":{"type":"Polygon","coordinates":[[[27.860417,62.327083],[27.864583,62.327083],[27.864583,62.33125],[27.860417,62.33125],[27.860417,62.327083]]]},"properties":{"radiance":5.49}},{"type":"Feature","geometry":{"type":"Polygon","coordinates":[[[27.864583,62.327083],[27.86875,62.327083],[27.86875,62.33125],[27.864583,62.33125],[27.864583,62.327083]]]},"properties":{"radiance":6.12}},{"type":"Feature","geometry":{"type":"Polygon","coordinates":[[[27.86875,62.327083],[27.872917,62.327083],[27.872917,62.33125],[27.86875,62.33125],[27.86875,62.327083]]]},"properties":{"radiance":7.28}},{"type":"Feature","geometry":{"type":"Polygon","coordinates":[[[27.872917,62.327083],[27.877083,62.327083],[27.877083,62.33125],[27.872917,62.33125],[27.872917,62.327083]]]},"properties":{"radiance":49.86}},{"type":"Feature","geometry":{"type":"Polygon","coordinates":[[[27.877083,62.327083],[27.88125,62.327083],[27.88125,62.33125],[27.877083,62.33125],[27.877083,62.327083]]]},"properties":{"radiance":40.34}},{"type":"Feature","geometry":{"type":"Polygon","coordinates":[[[27.88125,62.327083],[27.885417,62.327083],[27.885417,62.33125],[27.88125,62.33125],[27.88125,62.327083]]]},"properties":{"radiance":48.56}},{"type":"Feature","geometry":{"type":"Polygon","coordinates":[[[27.885417,62.327083],[27.889583,62.327083],[27.889583,62.33125],[27.885417,62.33125],[27.885417,62.327083]]]},"properties":{"radiance":41.35}},{"type":"Feature","geometry":{"type":"Polygon","coordinates":[[[27.889583,62.327083],[27.89375,62.327083],[27.89375,62.33125],[27.889583,62.33125],[27.889583,62.327083]]]},"properties":{"radiance":32.84}},{"type":"Feature","geometry":{"type":"Polygon","coordinates":[[[27.89375,62.327083],[27.897917,62.327083],[27.897917,62.33125],[27.89375,62.33125],[27.89375,62.327083]]]},"properties":{"radiance":15.62}},{"type":"Feature","geometry":{"type":"Polygon","coordinates":[[[27.897917,62.327083],[27.902083,62.327083],[27.902083,62.33125],[27.897917,62.33125],[27.897917,62.327083]]]},"properties":{"radiance":5.42}},{"type":"Feature","geometry":{"type":"Polygon","coordinates":[[[27.902083,62.327083],[27.90625,62.327083],[27.90625,62.33125],[27.902083,62.33125],[27.902083,62.327083]]]},"properties":{"radiance":5.05}},{"type":"Feature","geometry":{"type":"Polygon","coordinates":[[[27.80625,62.322917],[27.810417,62.322917],[27.810417,62.327083],[27.80625,62.327083],[27.80625,62.322917]]]},"properties":{"radiance":7.88}},{"type":"Feature","geometry":{"type":"Polygon","coordinates":[[[27.810417,62.322917],[27.814583,62.322917],[27.814583,62.327083],[27.810417,62.327083],[27.810417,62.322917]]]},"properties":{"radiance":12.22}},{"type":"Feature","geometry":{"type":"Polygon","coordinates":[[[27.814583,62.322917],[27.81875,62.322917],[27.81875,62.327083],[27.814583,62.327083],[27.814583,62.322917]]]},"properties":{"radiance":11.11}},{"type":"Feature","geometry":{"type":"Polygon","coordinates":[[[27.81875,62.322917],[27.822917,62.322917],[27.822917,62.327083],[27.81875,62.327083],[27.81875,62.322917]]]},"properties":{"radiance":8.7}},{"type":"Feature","geometry":{"type":"Polygon","coordinates":[[[27.822917,62.322917],[27.827083,62.322917],[27.827083,62.327083],[27.822917,62.327083],[27.822917,62.322917]]]},"properties":{"radiance":8.17}},{"type":"Feature","geometry":{"type":"Polygon","coordinates":[[[27.827083,62.322917],[27.83125,62.322917],[27.83125,62.327083],[27.827083,62.327083],[27.827083,62.322917]]]},"properties":{"radiance":32.65}},{"type":"Feature","geometry":{"type":"Polygon","coordinates":[[[27.83125,62.322917],[27.835417,62.322917],[27.835417,62.327083],[27.83125,62.327083],[27.83125,62.322917]]]},"properties":{"radiance":40.76}},{"type":"Feature","geometry":{"type":"Polygon","coordinates":[[[27.835417,62.322917],[27.839583,62.322917],[27.839583,62.327083],[27.835417,62.327083],[27.835417,62.322917]]]},"properties":{"radiance":55.91}},{"type":"Feature","geometry":{"type":"Polygon","coordinates":[[[27.839583,62.322917],[27.84375,62.322917],[27.84375,62.327083],[27.839583,62.327083],[27.839583,62.322917]]]},"properties":{"radiance":62.36}},{"type":"Feature","geometry":{"type":"Polygon","coordinates":[[[27.84375,62.322917],[27.847917,62.322917],[27.847917,62.327083],[27.84375,62.327083],[27.84375,62.322917]]]},"properties":{"radiance":52.16}},{"type":"Feature","geometry":{"type":"Polygon","coordinates":[[[27.847917,62.322917],[27.852083,62.322917],[27.852083,62.327083],[27.847917,62.327083],[27.847917,62.322917]]]},"properties":{"radiance":54.93}},{"type":"Feature","geometry":{"type":"Polygon","coordinates":[[[27.852083,62.322917],[27.85625,62.322917],[27.85625,62.327083],[27.852083,62.327083],[27.852083,62.322917]]]},"properties":{"radiance":60.88}},{"type":"Feature","geometry":{"type":"Polygon","coordinates":[[[27.85625,62.322917],[27.860417,62.322917],[27.860417,62.327083],[27.85625,62.327083],[27.85625,62.322917]]]},"properties":{"radiance":65.77}},{"type":"Feature","geometry":{"type":"Polygon","coordinates":[[[27.860417,62.322917],[27.864583,62.322917],[27.864583,62.327083],[27.860417,62.327083],[27.860417,62.322917]]]},"properties":{"radiance":60.48}},{"type":"Feature","geometry":{"type":"Polygon","coordinates":[[[27.864583,62.322917],[27.86875,62.322917],[27.86875,62.327083],[27.864583,62.327083],[27.864583,62.322917]]]},"properties":{"radiance":12.12}},{"type":"Feature","geometry":{"type":"Polygon","coordinates":[[[27.86875,62.322917],[27.872917,62.322917],[27.872917,62.327083],[27.86875,62.327083],[27.86875,62.322917]]]},"properties":{"radiance":31.09}},{"type":"Feature","geometry":{"type":"Polygon","coordinates":[[[27.872917,62.322917],[27.877083,62.322917],[27.877083,62.327083],[27.872917,62.327083],[27.872917,62.322917]]]},"properties":{"radiance":19.34}},{"type":"Feature","geometry":{"type":"Polygon","coordinates":[[[27.877083,62.322917],[27.88125,62.322917],[27.88125,62.327083],[27.877083,62.327083],[27.877083,62.322917]]]},"properties":{"radiance":28.25}},{"type":"Feature","geometry":{"type":"Polygon","coordinates":[[[27.88125,62.322917],[27.885417,62.322917],[27.885417,62.327083],[27.88125,62.327083],[27.88125,62.322917]]]},"properties":{"radiance":65.08}},{"type":"Feature","geometry":{"type":"Polygon","coordinates":[[[27.885417,62.322917],[27.889583,62.322917],[27.889583,62.327083],[27.885417,62.327083],[27.885417,62.322917]]]},"properties":{"radiance":76.38}},{"type":"Feature","geometry":{"type":"Polygon","coordinates":[[[27.889583,62.322917],[27.89375,62.322917],[27.89375,62.327083],[27.889583,62.327083],[27.889583,62.322917]]]},"properties":{"radiance":89.46}},{"type":"Feature","geometry":{"type":"Polygon","coordinates":[[[27.89375,62.322917],[27.897917,62.322917],[27.897917,62.327083],[27.89375,62.327083],[27.89375,62.322917]]]},"properties":{"radiance":103.4}},{"type":"Feature","geometry":{"type":"Polygon","coordinates":[[[27.897917,62.322917],[27.902083,62.322917],[27.902083,62.327083],[27.897917,62.327083],[27.897917,62.322917]]]},"properties":{"radiance":96.1}},{"type":"Feature","geometry":{"type":"Polygon","coordinates":[[[27.902083,62.322917],[27.90625,62.322917],[27.90625,62.327083],[27.902083,62.327083],[27.902083,62.322917]]]},"properties":{"radiance":38.22}},{"type":"Feature","geometry":{"type":"Polygon","coordinates":[[[27.90625,62.322917],[27.910417,62.322917],[27.910417,62.327083],[27.90625,62.327083],[27.90625,62.322917]]]},"properties":{"radiance":13.63}},{"type":"Feature","geometry":{"type":"Polygon","coordinates":[[[27.914583,62.322917],[27.91875,62.322917],[27.91875,62.327083],[27.914583,62.327083],[27.914583,62.322917]]]},"properties":{"radiance":6.57}},{"type":"Feature","geometry":{"type":"Polygon","coordinates":[[[27.822917,62.31875],[27.827083,62.31875],[27.827083,62.322917],[27.822917,62.322917],[27.822917,62.31875]]]},"properties":{"radiance":6.04}},{"type":"Feature","geometry":{"type":"Polygon","coordinates":[[[27.827083,62.31875],[27.83125,62.31875],[27.83125,62.322917],[27.827083,62.322917],[27.827083,62.31875]]]},"properties":{"radiance":8.71}},{"type":"Feature","geometry":{"type":"Polygon","coordinates":[[[27.83125,62.31875],[27.835417,62.31875],[27.835417,62.322917],[27.83125,62.322917],[27.83125,62.31875]]]},"properties":{"radiance":13.26}},{"type":"Feature","geometry":{"type":"Polygon","coordinates":[[[27.835417,62.31875],[27.839583,62.31875],[27.839583,62.322917],[27.835417,62.322917],[27.835417,62.31875]]]},"properties":{"radiance":18.94}},{"type":"Feature","geometry":{"type":"Polygon","coordinates":[[[27.839583,62.31875],[27.84375,62.31875],[27.84375,62.322917],[27.839583,62.322917],[27.839583,62.31875]]]},"properties":{"radiance":59.74}},{"type":"Feature","geometry":{"type":"Polygon","coordinates":[[[27.84375,62.31875],[27.847917,62.31875],[27.847917,62.322917],[27.84375,62.322917],[27.84375,62.31875]]]},"properties":{"radiance":69.02}},{"type":"Feature","geometry":{"type":"Polygon","coordinates":[[[27.847917,62.31875],[27.852083,62.31875],[27.852083,62.322917],[27.847917,62.322917],[27.847917,62.31875]]]},"properties":{"radiance":76.98}},{"type":"Feature","geometry":{"type":"Polygon","coordinates":[[[27.852083,62.31875],[27.85625,62.31875],[27.85625,62.322917],[27.852083,62.322917],[27.852083,62.31875]]]},"properties":{"radiance":100.4}},{"type":"Feature","geometry":{"type":"Polygon","coordinates":[[[27.85625,62.31875],[27.860417,62.31875],[27.860417,62.322917],[27.85625,62.322917],[27.85625,62.31875]]]},"properties":{"radiance":106.18}},{"type":"Feature","geometry":{"type":"Polygon","coordinates":[[[27.860417,62.31875],[27.864583,62.31875],[27.864583,62.322917],[27.860417,62.322917],[27.860417,62.31875]]]},"properties":{"radiance":100.84}},{"type":"Feature","geometry":{"type":"Polygon","coordinates":[[[27.864583,62.31875],[27.86875,62.31875],[27.86875,62.322917],[27.864583,62.322917],[27.864583,62.31875]]]},"properties":{"radiance":90.27}},{"type":"Feature","geometry":{"type":"Polygon","coordinates":[[[27.86875,62.31875],[27.872917,62.31875],[27.872917,62.322917],[27.86875,62.322917],[27.86875,62.31875]]]},"properties":{"radiance":65.61}},{"type":"Feature","geometry":{"type":"Polygon","coordinates":[[[27.872917,62.31875],[27.877083,62.31875],[27.877083,62.322917],[27.872917,62.322917],[27.872917,62.31875]]]},"properties":{"radiance":60.38}},{"type":"Feature","geometry":{"type":"Polygon","coordinates":[[[27.877083,62.31875],[27.88125,62.31875],[27.88125,62.322917],[27.877083,62.322917],[27.877083,62.31875]]]},"properties":{"radiance":45.65}},{"type":"Feature","geometry":{"type":"Polygon","coordinates":[[[27.88125,62.31875],[27.885417,62.31875],[27.885417,62.322917],[27.88125,62.322917],[27.88125,62.31875]]]},"properties":{"radiance":40.73}},{"type":"Feature","geometry":{"type":"Polygon","coordinates":[[[27.885417,62.31875],[27.889583,62.31875],[27.889583,62.322917],[27.885417,62.322917],[27.885417,62.31875]]]},"properties":{"radiance":71.77}},{"type":"Feature","geometry":{"type":"Polygon","coordinates":[[[27.889583,62.31875],[27.89375,62.31875],[27.89375,62.322917],[27.889583,62.322917],[27.889583,62.31875]]]},"properties":{"radiance":177.42}},{"type":"Feature","geometry":{"type":"Polygon","coordinates":[[[27.89375,62.31875],[27.897917,62.31875],[27.897917,62.322917],[27.89375,62.322917],[27.89375,62.31875]]]},"properties":{"radiance":202.6}},{"type":"Feature","geometry":{"type":"Polygon","coordinates":[[[27.897917,62.31875],[27.902083,62.31875],[27.902083,62.322917],[27.897917,62.322917],[27.897917,62.31875]]]},"properties":{"radiance":159.16}},{"type":"Feature","geometry":{"type":"Polygon","coordinates":[[[27.902083,62.31875],[27.90625,62.31875],[27.90625,62.322917],[27.902083,62.322917],[27.902083,62.31875]]]},"properties":{"radiance":108.34}},{"type":"Feature","geometry":{"type":"Polygon","coordinates":[[[27.90625,62.31875],[27.910417,62.31875],[27.910417,62.322917],[27.90625,62.322917],[27.90625,62.31875]]]},"properties":{"radiance":63.48}},{"type":"Feature","geometry":{"type":"Polygon","coordinates":[[[27.910417,62.31875],[27.914583,62.31875],[27.914583,62.322917],[27.910417,62.322917],[27.910417,62.31875]]]},"properties":{"radiance":50.93}},{"type":"Feature","geometry":{"type":"Polygon","coordinates":[[[27.914583,62.31875],[27.91875,62.31875],[27.91875,62.322917],[27.914583,62.322917],[27.914583,62.31875]]]},"properties":{"radiance":8.76}},{"type":"Feature","geometry":{"type":"Polygon","coordinates":[[[27.83125,62.314583],[27.835417,62.314583],[27.835417,62.31875],[27.83125,62.31875],[27.83125,62.314583]]]},"properties":{"radiance":5.75}},{"type":"Feature","geometry":{"type":"Polygon","coordinates":[[[27.835417,62.314583],[27.839583,62.314583],[27.839583,62.31875],[27.835417,62.31875],[27.835417,62.314583]]]},"properties":{"radiance":6.91}},{"type":"Feature","geometry":{"type":"Polygon","coordinates":[[[27.839583,62.314583],[27.84375,62.314583],[27.84375,62.31875],[27.839583,62.31875],[27.839583,62.314583]]]},"properties":{"radiance":30.47}},{"type":"Feature","geometry":{"type":"Polygon","coordinates":[[[27.84375,62.314583],[27.847917,62.314583],[27.847917,62.31875],[27.84375,62.31875],[27.84375,62.314583]]]},"properties":{"radiance":64.36}},{"type":"Feature","geometry":{"type":"Polygon","coordinates":[[[27.847917,62.314583],[27.852083,62.314583],[27.852083,62.31875],[27.847917,62.31875],[27.847917,62.314583]]]},"properties":{"radiance":86.32}},{"type":"Feature","geometry":{"type":"Polygon","coordinates":[[[27.852083,62.314583],[27.85625,62.314583],[27.85625,62.31875],[27.852083,62.31875],[27.852083,62.314583]]]},"properties":{"radiance":98.91}},{"type":"Feature","geometry":{"type":"Polygon","coordinates":[[[27.85625,62.314583],[27.860417,62.314583],[27.860417,62.31875],[27.85625,62.31875],[27.85625,62.314583]]]},"properties":{"radiance":89.34}},{"type":"Feature","geometry":{"type":"Polygon","coordinates":[[[27.860417,62.314583],[27.864583,62.314583],[27.864583,62.31875],[27.860417,62.31875],[27.860417,62.314583]]]},"properties":{"radiance":94.83}},{"type":"Feature","geometry":{"type":"Polygon","coordinates":[[[27.864583,62.314583],[27.86875,62.314583],[27.86875,62.31875],[27.864583,62.31875],[27.864583,62.314583]]]},"properties":{"radiance":89.31}},{"type":"Feature","geometry":{"type":"Polygon","coordinates":[[[27.86875,62.314583],[27.872917,62.314583],[27.872917,62.31875],[27.86875,62.31875],[27.86875,62.314583]]]},"properties":{"radiance":93.38}},{"type":"Feature","geometry":{"type":"Polygon","coordinates":[[[27.872917,62.314583],[27.877083,62.314583],[27.877083,62.31875],[27.872917,62.31875],[27.872917,62.314583]]]},"properties":{"radiance":79.44}},{"type":"Feature","geometry":{"type":"Polygon","coordinates":[[[27.877083,62.314583],[27.88125,62.314583],[27.88125,62.31875],[27.877083,62.31875],[27.877083,62.314583]]]},"properties":{"radiance":57.35}},{"type":"Feature","geometry":{"type":"Polygon","coordinates":[[[27.88125,62.314583],[27.885417,62.314583],[27.885417,62.31875],[27.88125,62.31875],[27.88125,62.314583]]]},"properties":{"radiance":64.45}},{"type":"Feature","geometry":{"type":"Polygon","coordinates":[[[27.885417,62.314583],[27.889583,62.314583],[27.889583,62.31875],[27.885417,62.31875],[27.885417,62.314583]]]},"properties":{"radiance":78.4}},{"type":"Feature","geometry":{"type":"Polygon","coordinates":[[[27.889583,62.314583],[27.89375,62.314583],[27.89375,62.31875],[27.889583,62.31875],[27.889583,62.314583]]]},"properties":{"radiance":81.84}},{"type":"Feature","geometry":{"type":"Polygon","coordinates":[[[27.89375,62.314583],[27.897917,62.314583],[27.897917,62.31875],[27.89375,62.31875],[27.89375,62.314583]]]},"properties":{"radiance":84.5}},{"type":"Feature","geometry":{"type":"Polygon","coordinates":[[[27.897917,62.314583],[27.902083,62.314583],[27.902083,62.31875],[27.897917,62.31875],[27.897917,62.314583]]]},"properties":{"radiance":86.4}},{"type":"Feature","geometry":{"type":"Polygon","coordinates":[[[27.902083,62.314583],[27.90625,62.314583],[27.90625,62.31875],[27.902083,62.31875],[27.902083,62.314583]]]},"properties":{"radiance":89.75}},{"type":"Feature","geometry":{"type":"Polygon","coordinates":[[[27.90625,62.314583],[27.910417,62.314583],[27.910417,62.31875],[27.90625,62.31875],[27.90625,62.314583]]]},"properties":{"radiance":71.93}},{"type":"Feature","geometry":{"type":"Polygon","coordinates":[[[27.910417,62.314583],[27.914583,62.314583],[27.914583,62.31875],[27.910417,62.31875],[27.910417,62.314583]]]},"properties":{"radiance":51.89}},{"type":"Feature","geometry":{"type":"Polygon","coordinates":[[[27.914583,62.314583],[27.91875,62.314583],[27.91875,62.31875],[27.914583,62.31875],[27.914583,62.314583]]]},"properties":{"radiance":51.75}},{"type":"Feature","geometry":{"type":"Polygon","coordinates":[[[27.839583,62.310417],[27.84375,62.310417],[27.84375,62.314583],[27.839583,62.314583],[27.839583,62.310417]]]},"properties":{"radiance":9.11}},{"type":"Feature","geometry":{"type":"Polygon","coordinates":[[[27.84375,62.310417],[27.847917,62.310417],[27.847917,62.314583],[27.84375,62.314583],[27.84375,62.310417]]]},"properties":{"radiance":39.79}},{"type":"Feature","geometry":{"type":"Polygon","coordinates":[[[27.847917,62.310417],[27.852083,62.310417],[27.852083,62.314583],[27.847917,62.314583],[27.847917,62.310417]]]},"properties":{"radiance":64.96}},{"type":"Feature","geometry":{"type":"Polygon","coordinates":[[[27.852083,62.310417],[27.85625,62.310417],[27.85625,62.314583],[27.852083,62.314583],[27.852083,62.310417]]]},"properties":{"radiance":65.77}},{"type":"Feature","geometry":{"type":"Polygon","coordinates":[[[27.85625,62.310417],[27.860417,62.310417],[27.860417,62.314583],[27.85625,62.314583],[27.85625,62.310417]]]},"properties":{"radiance":63.4}},{"type":"Feature","geometry":{"type":"Polygon","coordinates":[[[27.860417,62.310417],[27.864583,62.310417],[27.864583,62.314583],[27.860417,62.314583],[27.860417,62.310417]]]},"properties":{"radiance":62.14}},{"type":"Feature","geometry":{"type":"Polygon","coordinates":[[[27.864583,62.310417],[27.86875,62.310417],[27.86875,62.314583],[27.864583,62.314583],[27.864583,62.310417]]]},"properties":{"radiance":62.54}},{"type":"Feature","geometry":{"type":"Polygon","coordinates":[[[27.86875,62.310417],[27.872917,62.310417],[27.872917,62.314583],[27.86875,62.314583],[27.86875,62.310417]]]},"properties":{"radiance":79.02}},{"type":"Feature","geometry":{"type":"Polygon","coordinates":[[[27.872917,62.310417],[27.877083,62.310417],[27.877083,62.314583],[27.872917,62.314583],[27.872917,62.310417]]]},"properties":{"radiance":77.31}},{"type":"Feature","geometry":{"type":"Polygon","coordinates":[[[27.877083,62.310417],[27.88125,62.310417],[27.88125,62.314583],[27.877083,62.314583],[27.877083,62.310417]]]},"properties":{"radiance":68.11}},{"type":"Feature","geometry":{"type":"Polygon","coordinates":[[[27.88125,62.310417],[27.885417,62.310417],[27.885417,62.314583],[27.88125,62.314583],[27.88125,62.310417]]]},"properties":{"radiance":99.16}},{"type":"Feature","geometry":{"type":"Polygon","coordinates":[[[27.885417,62.310417],[27.889583,62.310417],[27.889583,62.314583],[27.885417,62.314583],[27.885417,62.310417]]]},"properties":{"radiance":39.43}},{"type":"Feature","geometry":{"type":"Polygon","coordinates":[[[27.889583,62.310417],[27.89375,62.310417],[27.89375,62.314583],[27.889583,62.314583],[27.889583,62.310417]]]},"properties":{"radiance":66.72}},{"type":"Feature","geometry":{"type":"Polygon","coordinates":[[[27.89375,62.310417],[27.897917,62.310417],[27.897917,62.314583],[27.89375,62.314583],[27.89375,62.310417]]]},"properties":{"radiance":28.49}},{"type":"Feature","geometry":{"type":"Polygon","coordinates":[[[27.897917,62.310417],[27.902083,62.310417],[27.902083,62.314583],[27.897917,62.314583],[27.897917,62.310417]]]},"properties":{"radiance":35.68}},{"type":"Feature","geometry":{"type":"Polygon","coordinates":[[[27.902083,62.310417],[27.90625,62.310417],[27.90625,62.314583],[27.902083,62.314583],[27.902083,62.310417]]]},"properties":{"radiance":41.09}},{"type":"Feature","geometry":{"type":"Polygon","coordinates":[[[27.90625,62.310417],[27.910417,62.310417],[27.910417,62.314583],[27.90625,62.314583],[27.90625,62.310417]]]},"properties":{"radiance":44.81}},{"type":"Feature","geometry":{"type":"Polygon","coordinates":[[[27.910417,62.310417],[27.914583,62.310417],[27.914583,62.314583],[27.910417,62.314583],[27.910417,62.310417]]]},"properties":{"radiance":20.45}},{"type":"Feature","geometry":{"type":"Polygon","coordinates":[[[27.914583,62.310417],[27.91875,62.310417],[27.91875,62.314583],[27.914583,62.314583],[27.914583,62.310417]]]},"properties":{"radiance":11.8}},{"type":"Feature","geometry":{"type":"Polygon","coordinates":[[[27.839583,62.30625],[27.84375,62.30625],[27.84375,62.310417],[27.839583,62.310417],[27.839583,62.30625]]]},"properties":{"radiance":5.11}},{"type":"Feature","geometry":{"type":"Polygon","coordinates":[[[27.84375,62.30625],[27.847917,62.30625],[27.847917,62.310417],[27.84375,62.310417],[27.84375,62.30625]]]},"properties":{"radiance":45.37}},{"type":"Feature","geometry":{"type":"Polygon","coordinates":[[[27.847917,62.30625],[27.852083,62.30625],[27.852083,62.310417],[27.847917,62.310417],[27.847917,62.30625]]]},"properties":{"radiance":44.18}},{"type":"Feature","geometry":{"type":"Polygon","coordinates":[[[27.852083,62.30625],[27.85625,62.30625],[27.85625,62.310417],[27.852083,62.310417],[27.852083,62.30625]]]},"properties":{"radiance":61.56}},{"type":"Feature","geometry":{"type":"Polygon","coordinates":[[[27.85625,62.30625],[27.860417,62.30625],[27.860417,62.310417],[27.85625,62.310417],[27.85625,62.30625]]]},"properties":{"radiance":61.56}},{"type":"Feature","geometry":{"type":"Polygon","coordinates":[[[27.860417,62.30625],[27.864583,62.30625],[27.864583,62.310417],[27.860417,62.310417],[27.860417,62.30625]]]},"properties":{"radiance":49.07}},{"type":"Feature","geometry":{"type":"Polygon","coordinates":[[[27.864583,62.30625],[27.86875,62.30625],[27.86875,62.310417],[27.864583,62.310417],[27.864583,62.30625]]]},"properties":{"radiance":39.06}},{"type":"Feature","geometry":{"type":"Polygon","coordinates":[[[27.86875,62.30625],[27.872917,62.30625],[27.872917,62.310417],[27.86875,62.310417],[27.86875,62.30625]]]},"properties":{"radiance":45.21}},{"type":"Feature","geometry":{"type":"Polygon","coordinates":[[[27.872917,62.30625],[27.877083,62.30625],[27.877083,62.310417],[27.872917,62.310417],[27.872917,62.30625]]]},"properties":{"radiance":40.27}},{"type":"Feature","geometry":{"type":"Polygon","coordinates":[[[27.877083,62.30625],[27.88125,62.30625],[27.88125,62.310417],[27.877083,62.310417],[27.877083,62.30625]]]},"properties":{"radiance":7.84}},{"type":"Feature","geometry":{"type":"Polygon","coordinates":[[[27.88125,62.30625],[27.885417,62.30625],[27.885417,62.310417],[27.88125,62.310417],[27.88125,62.30625]]]},"properties":{"radiance":6.41}},{"type":"Feature","geometry":{"type":"Polygon","coordinates":[[[27.885417,62.30625],[27.889583,62.30625],[27.889583,62.310417],[27.885417,62.310417],[27.885417,62.30625]]]},"properties":{"radiance":7.21}},{"type":"Feature","geometry":{"type":"Polygon","coordinates":[[[27.889583,62.30625],[27.89375,62.30625],[27.89375,62.310417],[27.889583,62.310417],[27.889583,62.30625]]]},"properties":{"radiance":27.02}},{"type":"Feature","geometry":{"type":"Polygon","coordinates":[[[27.89375,62.30625],[27.897917,62.30625],[27.897917,62.310417],[27.89375,62.310417],[27.89375,62.30625]]]},"properties":{"radiance":12.89}},{"type":"Feature","geometry":{"type":"Polygon","coordinates":[[[27.897917,62.30625],[27.902083,62.30625],[27.902083,62.310417],[27.897917,62.310417],[27.897917,62.30625]]]},"properties":{"radiance":9.71}},{"type":"Feature","geometry":{"type":"Polygon","coordinates":[[[27.902083,62.30625],[27.90625,62.30625],[27.90625,62.310417],[27.902083,62.310417],[27.902083,62.30625]]]},"properties":{"radiance":11.67}},{"type":"Feature","geometry":{"type":"Polygon","coordinates":[[[27.90625,62.30625],[27.910417,62.30625],[27.910417,62.310417],[27.90625,62.310417],[27.90625,62.30625]]]},"properties":{"radiance":6.57}},{"type":"Feature","geometry":{"type":"Polygon","coordinates":[[[27.910417,62.30625],[27.914583,62.30625],[27.914583,62.310417],[27.910417,62.310417],[27.910417,62.30625]]]},"properties":{"radiance":5.14}},{"type":"Feature","geometry":{"type":"Polygon","coordinates":[[[27.914583,62.30625],[27.91875,62.30625],[27.91875,62.310417],[27.914583,62.310417],[27.914583,62.30625]]]},"properties":{"radiance":5.35}},{"type":"Feature","geometry":{"type":"Polygon","coordinates":[[[27.84375,62.302083],[27.847917,62.302083],[27.847917,62.30625],[27.84375,62.30625],[27.84375,62.302083]]]},"properties":{"radiance":5.27}},{"type":"Feature","geometry":{"type":"Polygon","coordinates":[[[27.847917,62.302083],[27.852083,62.302083],[27.852083,62.30625],[27.847917,62.30625],[27.847917,62.302083]]]},"properties":{"radiance":30.55}},{"type":"Feature","geometry":{"type":"Polygon","coordinates":[[[27.852083,62.302083],[27.85625,62.302083],[27.85625,62.30625],[27.852083,62.30625],[27.852083,62.302083]]]},"properties":{"radiance":48.34}},{"type":"Feature","geometry":{"type":"Polygon","coordinates":[[[27.85625,62.302083],[27.860417,62.302083],[27.860417,62.30625],[27.85625,62.30625],[27.85625,62.302083]]]},"properties":{"radiance":55.16}},{"type":"Feature","geometry":{"type":"Polygon","coordinates":[[[27.860417,62.302083],[27.864583,62.302083],[27.864583,62.30625],[27.860417,62.30625],[27.860417,62.302083]]]},"properties":{"radiance":54.85}},{"type":"Feature","geometry":{"type":"Polygon","coordinates":[[[27.864583,62.302083],[27.86875,62.302083],[27.86875,62.30625],[27.864583,62.30625],[27.864583,62.302083]]]},"properties":{"radiance":40.28}},{"type":"Feature","geometry":{"type":"Polygon","coordinates":[[[27.872917,62.302083],[27.877083,62.302083],[27.877083,62.30625],[27.872917,62.30625],[27.872917,62.302083]]]},"properties":{"radiance":6.01}},{"type":"Feature","geometry":{"type":"Polygon","coordinates":[[[27.93125,62.302083],[27.935417,62.302083],[27.935417,62.30625],[27.93125,62.30625],[27.93125,62.302083]]]},"properties":{"radiance":5.38}},{"type":"Feature","geometry":{"type":"Polygon","coordinates":[[[27.852083,62.297917],[27.85625,62.297917],[27.85625,62.302083],[27.852083,62.302083],[27.852083,62.297917]]]},"properties":{"radiance":7.37}},{"type":"Feature","geometry":{"type":"Polygon","coordinates":[[[27.85625,62.297917],[27.860417,62.297917],[27.860417,62.302083],[27.85625,62.302083],[27.85625,62.297917]]]},"properties":{"radiance":9.74}},{"type":"Feature","geometry":{"type":"Polygon","coordinates":[[[27.860417,62.297917],[27.864583,62.297917],[27.864583,62.302083],[27.860417,62.302083],[27.860417,62.297917]]]},"properties":{"radiance":10.47}},{"type":"Feature","geometry":{"type":"Polygon","coordinates":[[[27.864583,62.297917],[27.86875,62.297917],[27.86875,62.302083],[27.864583,62.302083],[27.864583,62.297917]]]},"properties":{"radiance":10.23}},{"type":"Feature","geometry":{"type":"Polygon","coordinates":[[[27.86875,62.297917],[27.872917,62.297917],[27.872917,62.302083],[27.86875,62.302083],[27.86875,62.297917]]]},"properties":{"radiance":7.12}},{"type":"Feature","geometry":{"type":"Polygon","coordinates":[[[27.872917,62.297917],[27.877083,62.297917],[27.877083,62.302083],[27.872917,62.302083],[27.872917,62.297917]]]},"properties":{"radiance":5.49}},{"type":"Feature","geometry":{"type":"Polygon","coordinates":[[[27.860417,62.29375],[27.864583,62.29375],[27.864583,62.297917],[27.860417,62.297917],[27.860417,62.29375]]]},"properties":{"radiance":11.78}},{"type":"Feature","geometry":{"type":"Polygon","coordinates":[[[27.864583,62.29375],[27.86875,62.29375],[27.86875,62.297917],[27.864583,62.297917],[27.864583,62.29375]]]},"properties":{"radiance":30.77}},{"type":"Feature","geometry":{"type":"Polygon","coordinates":[[[27.86875,62.29375],[27.872917,62.29375],[27.872917,62.297917],[27.86875,62.297917],[27.86875,62.29375]]]},"properties":{"radiance":9.34}},{"type":"Feature","geometry":{"type":"Polygon","coordinates":[[[27.872917,62.29375],[27.877083,62.29375],[27.877083,62.297917],[27.872917,62.297917],[27.872917,62.29375]]]},"properties":{"radiance":9.08}},{"type":"Feature","geometry":{"type":"Polygon","coordinates":[[[27.877083,62.29375],[27.88125,62.29375],[27.88125,62.297917],[27.877083,62.297917],[27.877083,62.29375]]]},"properties":{"radiance":5.29}},{"type":"Feature","geometry":{"type":"Polygon","coordinates":[[[27.860417,62.289583],[27.864583,62.289583],[27.864583,62.29375],[27.860417,62.29375],[27.860417,62.289583]]]},"properties":{"radiance":8.5}},{"type":"Feature","geometry":{"type":"Polygon","coordinates":[[[27.864583,62.289583],[27.86875,62.289583],[27.86875,62.29375],[27.864583,62.29375],[27.864583,62.289583]]]},"properties":{"radiance":9.67}},{"type":"Feature","geometry":{"type":"Polygon","coordinates":[[[27.86875,62.289583],[27.872917,62.289583],[27.872917,62.29375],[27.86875,62.29375],[27.86875,62.289583]]]},"properties":{"radiance":9.71}},{"type":"Feature","geometry":{"type":"Polygon","coordinates":[[[27.872917,62.289583],[27.877083,62.289583],[27.877083,62.29375],[27.872917,62.29375],[27.872917,62.289583]]]},"properties":{"radiance":7.48}},{"type":"Feature","geometry":{"type":"Polygon","coordinates":[[[27.860417,62.285417],[27.864583,62.285417],[27.864583,62.289583],[27.860417,62.289583],[27.860417,62.285417]]]},"properties":{"radiance":6.46}},{"type":"Feature","geometry":{"type":"Polygon","coordinates":[[[27.864583,62.285417],[27.86875,62.285417],[27.86875,62.289583],[27.864583,62.289583],[27.864583,62.285417]]]},"properties":{"radiance":9.41}},{"type":"Feature","geometry":{"type":"Polygon","coordinates":[[[27.86875,62.285417],[27.872917,62.285417],[27.872917,62.289583],[27.86875,62.289583],[27.86875,62.285417]]]},"properties":{"radiance":9.75}},{"type":"Feature","geometry":{"type":"Polygon","coordinates":[[[27.872917,62.285417],[27.877083,62.285417],[27.877083,62.289583],[27.872917,62.289583],[27.872917,62.285417]]]},"properties":{"radiance":7.18}},{"type":"Feature","geometry":{"type":"Polygon","coordinates":[[[27.860417,62.28125],[27.864583,62.28125],[27.864583,62.285417],[27.860417,62.285417],[27.860417,62.28125]]]},"properties":{"radiance":5.74}},{"type":"Feature","geometry":{"type":"Polygon","coordinates":[[[27.864583,62.28125],[27.86875,62.28125],[27.86875,62.285417],[27.864583,62.285417],[27.864583,62.28125]]]},"properties":{"radiance":7.86}},{"type":"Feature","geometry":{"type":"Polygon","coordinates":[[[27.86875,62.28125],[27.872917,62.28125],[27.872917,62.285417],[27.86875,62.285417],[27.86875,62.28125]]]},"properties":{"radiance":6.37}},{"type":"Feature","geometry":{"type":"Polygon","coordinates":[[[27.872917,62.28125],[27.877083,62.28125],[27.877083,62.285417],[27.872917,62.285417],[27.872917,62.28125]]]},"properties":{"radiance":7.1}},{"type":"Feature","geometry":{"type":"Polygon","coordinates":[[[27.93125,62.28125],[27.935417,62.28125],[27.935417,62.285417],[27.93125,62.285417],[27.93125,62.28125]]]},"properties":{"radiance":5.5}},{"type":"Feature","geometry":{"type":"Polygon","coordinates":[[[27.939583,62.28125],[27.94375,62.28125],[27.94375,62.285417],[27.939583,62.285417],[27.939583,62.28125]]]},"properties":{"radiance":5.59}},{"type":"Feature","geometry":{"type":"Polygon","coordinates":[[[27.860417,62.277083],[27.864583,62.277083],[27.864583,62.28125],[27.860417,62.28125],[27.860417,62.277083]]]},"properties":{"radiance":6.82}},{"type":"Feature","geometry":{"type":"Polygon","coordinates":[[[27.864583,62.277083],[27.86875,62.277083],[27.86875,62.28125],[27.864583,62.28125],[27.864583,62.277083]]]},"properties":{"radiance":6.81}},{"type":"Feature","geometry":{"type":"Polygon","coordinates":[[[27.86875,62.277083],[27.872917,62.277083],[27.872917,62.28125],[27.86875,62.28125],[27.86875,62.277083]]]},"properties":{"radiance":6.42}},{"type":"Feature","geometry":{"type":"Polygon","coordinates":[[[27.872917,62.277083],[27.877083,62.277083],[27.877083,62.28125],[27.872917,62.28125],[27.872917,62.277083]]]},"properties":{"radiance":5.43}},{"type":"Feature","geometry":{"type":"Polygon","coordinates":[[[27.88125,62.277083],[27.885417,62.277083],[27.885417,62.28125],[27.88125,62.28125],[27.88125,62.277083]]]},"properties":{"radiance":5.48}},{"type":"Feature","geometry":{"type":"Polygon","coordinates":[[[27.935417,62.277083],[27.939583,62.277083],[27.939583,62.28125],[27.935417,62.28125],[27.935417,62.277083]]]},"properties":{"radiance":5.06}},{"type":"Feature","geometry":{"type":"Polygon","coordinates":[[[27.939583,62.277083],[27.94375,62.277083],[27.94375,62.28125],[27.939583,62.28125],[27.939583,62.277083]]]},"properties":{"radiance":5.81}},{"type":"Feature","geometry":{"type":"Polygon","coordinates":[[[27.94375,62.277083],[27.947917,62.277083],[27.947917,62.28125],[27.94375,62.28125],[27.94375,62.277083]]]},"properties":{"radiance":5.63}},{"type":"Feature","geometry":{"type":"Polygon","coordinates":[[[27.947917,62.277083],[27.952083,62.277083],[27.952083,62.28125],[27.947917,62.28125],[27.947917,62.277083]]]},"properties":{"radiance":6.09}},{"type":"Feature","geometry":{"type":"Polygon","coordinates":[[[27.85625,62.272917],[27.860417,62.272917],[27.860417,62.277083],[27.85625,62.277083],[27.85625,62.272917]]]},"properties":{"radiance":6.05}},{"type":"Feature","geometry":{"type":"Polygon","coordinates":[[[27.860417,62.272917],[27.864583,62.272917],[27.864583,62.277083],[27.860417,62.277083],[27.860417,62.272917]]]},"properties":{"radiance":7.28}},{"type":"Feature","geometry":{"type":"Polygon","coordinates":[[[27.864583,62.272917],[27.86875,62.272917],[27.86875,62.277083],[27.864583,62.277083],[27.864583,62.272917]]]},"properties":{"radiance":7.1}},{"type":"Feature","geometry":{"type":"Polygon","coordinates":[[[27.860417,62.26875],[27.864583,62.26875],[27.864583,62.272917],[27.860417,62.272917],[27.860417,62.26875]]]},"properties":{"radiance":7}},{"type":"Feature","geometry":{"type":"Polygon","coordinates":[[[27.864583,62.26875],[27.86875,62.26875],[27.86875,62.272917],[27.864583,62.272917],[27.864583,62.26875]]]},"properties":{"radiance":6.96}},{"type":"Feature","geometry":{"type":"Polygon","coordinates":[[[27.86875,62.26875],[27.872917,62.26875],[27.872917,62.272917],[27.86875,62.272917],[27.86875,62.26875]]]},"properties":{"radiance":5.99}},{"type":"Feature","geometry":{"type":"Polygon","coordinates":[[[27.85625,62.264583],[27.860417,62.264583],[27.860417,62.26875],[27.85625,62.26875],[27.85625,62.264583]]]},"properties":{"radiance":5.35}},{"type":"Feature","geometry":{"type":"Polygon","coordinates":[[[27.860417,62.264583],[27.864583,62.264583],[27.864583,62.26875],[27.860417,62.26875],[27.860417,62.264583]]]},"properties":{"radiance":6.74}},{"type":"Feature","geometry":{"type":"Polygon","coordinates":[[[27.864583,62.264583],[27.86875,62.264583],[27.86875,62.26875],[27.864583,62.26875],[27.864583,62.264583]]]},"properties":{"radiance":7.18}},{"type":"Feature","geometry":{"type":"Polygon","coordinates":[[[27.86875,62.264583],[27.872917,62.264583],[27.872917,62.26875],[27.86875,62.26875],[27.86875,62.264583]]]},"properties":{"radiance":8.15}},{"type":"Feature","geometry":{"type":"Polygon","coordinates":[[[27.872917,62.264583],[27.877083,62.264583],[27.877083,62.26875],[27.872917,62.26875],[27.872917,62.264583]]]},"properties":{"radiance":6.35}},{"type":"Feature","geometry":{"type":"Polygon","coordinates":[[[27.860417,62.260417],[27.864583,62.260417],[27.864583,62.264583],[27.860417,62.264583],[27.860417,62.260417]]]},"properties":{"radiance":7.27}},{"type":"Feature","geometry":{"type":"Polygon","coordinates":[[[27.864583,62.260417],[27.86875,62.260417],[27.86875,62.264583],[27.864583,62.264583],[27.864583,62.260417]]]},"properties":{"radiance":11.67}},{"type":"Feature","geometry":{"type":"Polygon","coordinates":[[[27.86875,62.260417],[27.872917,62.260417],[27.872917,62.264583],[27.86875,62.264583],[27.86875,62.260417]]]},"properties":{"radiance":10.59}},{"type":"Feature","geometry":{"type":"Polygon","coordinates":[[[27.872917,62.260417],[27.877083,62.260417],[27.877083,62.264583],[27.872917,62.264583],[27.872917,62.260417]]]},"properties":{"radiance":8.42}},{"type":"Feature","geometry":{"type":"Polygon","coordinates":[[[27.864583,62.25625],[27.86875,62.25625],[27.86875,62.260417],[27.864583,62.260417],[27.864583,62.25625]]]},"properties":{"radiance":10}},{"type":"Feature","geometry":{"type":"Polygon","coordinates":[[[27.86875,62.25625],[27.872917,62.25625],[27.872917,62.260417],[27.86875,62.260417],[27.86875,62.25625]]]},"properties":{"radiance":8.89}},{"type":"Feature","geometry":{"type":"Polygon","coordinates":[[[27.872917,62.25625],[27.877083,62.25625],[27.877083,62.260417],[27.872917,62.260417],[27.872917,62.25625]]]},"properties":{"radiance":6.37}},{"type":"Feature","geometry":{"type":"Polygon","coordinates":[[[27.877083,62.227083],[27.88125,62.227083],[27.88125,62.23125],[27.877083,62.23125],[27.877083,62.227083]]]},"properties":{"radiance":5.27}},{"type":"Feature","geometry":{"type":"Polygon","coordinates":[[[27.88125,62.227083],[27.885417,62.227083],[27.885417,62.23125],[27.88125,62.23125],[27.88125,62.227083]]]},"properties":{"radiance":8.73}},{"type":"Feature","geometry":{"type":"Polygon","coordinates":[[[27.885417,62.227083],[27.889583,62.227083],[27.889583,62.23125],[27.885417,62.23125],[27.885417,62.227083]]]},"properties":{"radiance":8.82}},{"type":"Feature","geometry":{"type":"Polygon","coordinates":[[[27.889583,62.227083],[27.89375,62.227083],[27.89375,62.23125],[27.889583,62.23125],[27.889583,62.227083]]]},"properties":{"radiance":5.17}},{"type":"Feature","geometry":{"type":"Polygon","coordinates":[[[27.777083,62.222917],[27.78125,62.222917],[27.78125,62.227083],[27.777083,62.227083],[27.777083,62.222917]]]},"properties":{"radiance":5.44}},{"type":"Feature","geometry":{"type":"Polygon","coordinates":[[[27.78125,62.222917],[27.785417,62.222917],[27.785417,62.227083],[27.78125,62.227083],[27.78125,62.222917]]]},"properties":{"radiance":12.08}},{"type":"Feature","geometry":{"type":"Polygon","coordinates":[[[27.785417,62.222917],[27.789583,62.222917],[27.789583,62.227083],[27.785417,62.227083],[27.785417,62.222917]]]},"properties":{"radiance":5.16}},{"type":"Feature","geometry":{"type":"Polygon","coordinates":[[[27.789583,62.222917],[27.79375,62.222917],[27.79375,62.227083],[27.789583,62.227083],[27.789583,62.222917]]]},"properties":{"radiance":9.34}},{"type":"Feature","geometry":{"type":"Polygon","coordinates":[[[27.88125,62.222917],[27.885417,62.222917],[27.885417,62.227083],[27.88125,62.227083],[27.88125,62.222917]]]},"properties":{"radiance":8.79}},{"type":"Feature","geometry":{"type":"Polygon","coordinates":[[[27.885417,62.222917],[27.889583,62.222917],[27.889583,62.227083],[27.885417,62.227083],[27.885417,62.222917]]]},"properties":{"radiance":6.94}},{"type":"Feature","geometry":{"type":"Polygon","coordinates":[[[27.889583,62.222917],[27.89375,62.222917],[27.89375,62.227083],[27.889583,62.227083],[27.889583,62.222917]]]},"properties":{"radiance":20.15}},{"type":"Feature","geometry":{"type":"Polygon","coordinates":[[[27.772917,62.21875],[27.777083,62.21875],[27.777083,62.222917],[27.772917,62.222917],[27.772917,62.21875]]]},"properties":{"radiance":5.43}},{"type":"Feature","geometry":{"type":"Polygon","coordinates":[[[27.777083,62.21875],[27.78125,62.21875],[27.78125,62.222917],[27.777083,62.222917],[27.777083,62.21875]]]},"properties":{"radiance":10.15}},{"type":"Feature","geometry":{"type":"Polygon","coordinates":[[[27.78125,62.21875],[27.785417,62.21875],[27.785417,62.222917],[27.78125,62.222917],[27.78125,62.21875]]]},"properties":{"radiance":15.28}},{"type":"Feature","geometry":{"type":"Polygon","coordinates":[[[27.785417,62.21875],[27.789583,62.21875],[27.789583,62.222917],[27.785417,62.222917],[27.785417,62.21875]]]},"properties":{"radiance":13.31}},{"type":"Feature","geometry":{"type":"Polygon","coordinates":[[[27.789583,62.21875],[27.79375,62.21875],[27.79375,62.222917],[27.789583,62.222917],[27.789583,62.21875]]]},"properties":{"radiance":10.52}},{"type":"Feature","geometry":{"type":"Polygon","coordinates":[[[27.79375,62.21875],[27.797917,62.21875],[27.797917,62.222917],[27.79375,62.222917],[27.79375,62.21875]]]},"properties":{"radiance":5.86}},{"type":"Feature","geometry":{"type":"Polygon","coordinates":[[[27.80625,62.21875],[27.810417,62.21875],[27.810417,62.222917],[27.80625,62.222917],[27.80625,62.21875]]]},"properties":{"radiance":5.42}},{"type":"Feature","geometry":{"type":"Polygon","coordinates":[[[27.752083,62.214583],[27.75625,62.214583],[27.75625,62.21875],[27.752083,62.21875],[27.752083,62.214583]]]},"properties":{"radiance":6.3}},{"type":"Feature","geometry":{"type":"Polygon","coordinates":[[[27.75625,62.214583],[27.760417,62.214583],[27.760417,62.21875],[27.75625,62.21875],[27.75625,62.214583]]]},"properties":{"radiance":5.62}},{"type":"Feature","geometry":{"type":"Polygon","coordinates":[[[27.760417,62.214583],[27.764583,62.214583],[27.764583,62.21875],[27.760417,62.21875],[27.760417,62.214583]]]},"properties":{"radiance":5.53}},{"type":"Feature","geometry":{"type":"Polygon","coordinates":[[[27.764583,62.214583],[27.76875,62.214583],[27.76875,62.21875],[27.764583,62.21875],[27.764583,62.214583]]]},"properties":{"radiance":9.71}},{"type":"Feature","geometry":{"type":"Polygon","coordinates":[[[27.76875,62.214583],[27.772917,62.214583],[27.772917,62.21875],[27.76875,62.21875],[27.76875,62.214583]]]},"properties":{"radiance":6.73}},{"type":"Feature","geometry":{"type":"Polygon","coordinates":[[[27.772917,62.214583],[27.777083,62.214583],[27.777083,62.21875],[27.772917,62.21875],[27.772917,62.214583]]]},"properties":{"radiance":42.34}},{"type":"Feature","geometry":{"type":"Polygon","coordinates":[[[27.777083,62.214583],[27.78125,62.214583],[27.78125,62.21875],[27.777083,62.21875],[27.777083,62.214583]]]},"properties":{"radiance":440.83}},{"type":"Feature","geometry":{"type":"Polygon","coordinates":[[[27.78125,62.214583],[27.785417,62.214583],[27.785417,62.21875],[27.78125,62.21875],[27.78125,62.214583]]]},"properties":{"radiance":375.94}},{"type":"Feature","geometry":{"type":"Polygon","coordinates":[[[27.785417,62.214583],[27.789583,62.214583],[27.789583,62.21875],[27.785417,62.21875],[27.785417,62.214583]]]},"properties":{"radiance":91.02}},{"type":"Feature","geometry":{"type":"Polygon","coordinates":[[[27.789583,62.214583],[27.79375,62.214583],[27.79375,62.21875],[27.789583,62.21875],[27.789583,62.214583]]]},"properties":{"radiance":128.34}},{"type":"Feature","geometry":{"type":"Polygon","coordinates":[[[27.79375,62.214583],[27.797917,62.214583],[27.797917,62.21875],[27.79375,62.21875],[27.79375,62.214583]]]},"properties":{"radiance":40.29}},{"type":"Feature","geometry":{"type":"Polygon","coordinates":[[[27.797917,62.214583],[27.802083,62.214583],[27.802083,62.21875],[27.797917,62.21875],[27.797917,62.214583]]]},"properties":{"radiance":38.15}},{"type":"Feature","geometry":{"type":"Polygon","coordinates":[[[27.802083,62.214583],[27.80625,62.214583],[27.80625,62.21875],[27.802083,62.21875],[27.802083,62.214583]]]},"properties":{"radiance":5.79}},{"type":"Feature","geometry":{"type":"Polygon","coordinates":[[[27.747917,62.210417],[27.752083,62.210417],[27.752083,62.214583],[27.747917,62.214583],[27.747917,62.210417]]]},"properties":{"radiance":5.69}},{"type":"Feature","geometry":{"type":"Polygon","coordinates":[[[27.752083,62.210417],[27.75625,62.210417],[27.75625,62.214583],[27.752083,62.214583],[27.752083,62.210417]]]},"properties":{"radiance":9.37}},{"type":"Feature","geometry":{"type":"Polygon","coordinates":[[[27.760417,62.210417],[27.764583,62.210417],[27.764583,62.214583],[27.760417,62.214583],[27.760417,62.210417]]]},"properties":{"radiance":9.44}},{"type":"Feature","geometry":{"type":"Polygon","coordinates":[[[27.764583,62.210417],[27.76875,62.210417],[27.76875,62.214583],[27.764583,62.214583],[27.764583,62.210417]]]},"properties":{"radiance":8.52}},{"type":"Feature","geometry":{"type":"Polygon","coordinates":[[[27.76875,62.210417],[27.772917,62.210417],[27.772917,62.214583],[27.76875,62.214583],[27.76875,62.210417]]]},"properties":{"radiance":101.73}},{"type":"Feature","geometry":{"type":"Polygon","coordinates":[[[27.772917,62.210417],[27.777083,62.210417],[27.777083,62.214583],[27.772917,62.214583],[27.772917,62.210417]]]},"properties":{"radiance":1000.23}},{"type":"Feature","geometry":{"type":"Polygon","coordinates":[[[27.777083,62.210417],[27.78125,62.210417],[27.78125,62.214583],[27.777083,62.214583],[27.777083,62.210417]]]},"properties":{"radiance":1604.19}},{"type":"Feature","geometry":{"type":"Polygon","coordinates":[[[27.78125,62.210417],[27.785417,62.210417],[27.785417,62.214583],[27.78125,62.214583],[27.78125,62.210417]]]},"properties":{"radiance":1669.29}},{"type":"Feature","geometry":{"type":"Polygon","coordinates":[[[27.785417,62.210417],[27.789583,62.210417],[27.789583,62.214583],[27.785417,62.214583],[27.785417,62.210417]]]},"properties":{"radiance":1579.84}},{"type":"Feature","geometry":{"type":"Polygon","coordinates":[[[27.789583,62.210417],[27.79375,62.210417],[27.79375,62.214583],[27.789583,62.214583],[27.789583,62.210417]]]},"properties":{"radiance":194.8}},{"type":"Feature","geometry":{"type":"Polygon","coordinates":[[[27.79375,62.210417],[27.797917,62.210417],[27.797917,62.214583],[27.79375,62.214583],[27.79375,62.210417]]]},"properties":{"radiance":124.79}},{"type":"Feature","geometry":{"type":"Polygon","coordinates":[[[27.797917,62.210417],[27.802083,62.210417],[27.802083,62.214583],[27.797917,62.214583],[27.797917,62.210417]]]},"properties":{"radiance":43.7}},{"type":"Feature","geometry":{"type":"Polygon","coordinates":[[[27.802083,62.210417],[27.80625,62.210417],[27.80625,62.214583],[27.802083,62.214583],[27.802083,62.210417]]]},"properties":{"radiance":11.37}},{"type":"Feature","geometry":{"type":"Polygon","coordinates":[[[27.80625,62.210417],[27.810417,62.210417],[27.810417,62.214583],[27.80625,62.214583],[27.80625,62.210417]]]},"properties":{"radiance":5.29}},{"type":"Feature","geometry":{"type":"Polygon","coordinates":[[[27.810417,62.210417],[27.814583,62.210417],[27.814583,62.214583],[27.810417,62.214583],[27.810417,62.210417]]]},"properties":{"radiance":8.03}},{"type":"Feature","geometry":{"type":"Polygon","coordinates":[[[27.752083,62.20625],[27.75625,62.20625],[27.75625,62.210417],[27.752083,62.210417],[27.752083,62.20625]]]},"properties":{"radiance":5.02}},{"type":"Feature","geometry":{"type":"Polygon","coordinates":[[[27.75625,62.20625],[27.760417,62.20625],[27.760417,62.210417],[27.75625,62.210417],[27.75625,62.20625]]]},"properties":{"radiance":5.41}},{"type":"Feature","geometry":{"type":"Polygon","coordinates":[[[27.764583,62.20625],[27.76875,62.20625],[27.76875,62.210417],[27.764583,62.210417],[27.764583,62.20625]]]},"properties":{"radiance":7.31}},{"type":"Feature","geometry":{"type":"Polygon","coordinates":[[[27.76875,62.20625],[27.772917,62.20625],[27.772917,62.210417],[27.76875,62.210417],[27.76875,62.20625]]]},"properties":{"radiance":30.19}},{"type":"Feature","geometry":{"type":"Polygon","coordinates":[[[27.772917,62.20625],[27.777083,62.20625],[27.777083,62.210417],[27.772917,62.210417],[27.772917,62.20625]]]},"properties":{"radiance":55.88}},{"type":"Feature","geometry":{"type":"Polygon","coordinates":[[[27.777083,62.20625],[27.78125,62.20625],[27.78125,62.210417],[27.777083,62.210417],[27.777083,62.20625]]]},"properties":{"radiance":994.14}},{"type":"Feature","geometry":{"type":"Polygon","coordinates":[[[27.78125,62.20625],[27.785417,62.20625],[27.785417,62.210417],[27.78125,62.210417],[27.78125,62.20625]]]},"properties":{"radiance":576.31}},{"type":"Feature","geometry":{"type":"Polygon","coordinates":[[[27.785417,62.20625],[27.789583,62.20625],[27.789583,62.210417],[27.785417,62.210417],[27.785417,62.20625]]]},"properties":{"radiance":542.01}},{"type":"Feature","geometry":{"type":"Polygon","coordinates":[[[27.789583,62.20625],[27.79375,62.20625],[27.79375,62.210417],[27.789583,62.210417],[27.789583,62.20625]]]},"properties":{"radiance":365.44}},{"type":"Feature","geometry":{"type":"Polygon","coordinates":[[[27.79375,62.20625],[27.797917,62.20625],[27.797917,62.210417],[27.79375,62.210417],[27.79375,62.20625]]]},"properties":{"radiance":63.14}},{"type":"Feature","geometry":{"type":"Polygon","coordinates":[[[27.797917,62.20625],[27.802083,62.20625],[27.802083,62.210417],[27.797917,62.210417],[27.797917,62.20625]]]},"properties":{"radiance":23.11}},{"type":"Feature","geometry":{"type":"Polygon","coordinates":[[[27.802083,62.20625],[27.80625,62.20625],[27.80625,62.210417],[27.802083,62.210417],[27.802083,62.20625]]]},"properties":{"radiance":8.86}},{"type":"Feature","geometry":{"type":"Polygon","coordinates":[[[27.80625,62.20625],[27.810417,62.20625],[27.810417,62.210417],[27.80625,62.210417],[27.80625,62.20625]]]},"properties":{"radiance":7.93}},{"type":"Feature","geometry":{"type":"Polygon","coordinates":[[[27.810417,62.20625],[27.814583,62.20625],[27.814583,62.210417],[27.810417,62.210417],[27.810417,62.20625]]]},"properties":{"radiance":6.95}},{"type":"Feature","geometry":{"type":"Polygon","coordinates":[[[27.814583,62.20625],[27.81875,62.20625],[27.81875,62.210417],[27.814583,62.210417],[27.814583,62.20625]]]},"properties":{"radiance":5.49}},{"type":"Feature","geometry":{"type":"Polygon","coordinates":[[[27.76875,62.202083],[27.772917,62.202083],[27.772917,62.20625],[27.76875,62.20625],[27.76875,62.202083]]]},"properties":{"radiance":11.86}},{"type":"Feature","geometry":{"type":"Polygon","coordinates":[[[27.772917,62.202083],[27.777083,62.202083],[27.777083,62.20625],[27.772917,62.20625],[27.772917,62.202083]]]},"properties":{"radiance":13.23}},{"type":"Feature","geometry":{"type":"Polygon","coordinates":[[[27.777083,62.202083],[27.78125,62.202083],[27.78125,62.20625],[27.777083,62.20625],[27.777083,62.202083]]]},"properties":{"radiance":25.22}},{"type":"Feature","geometry":{"type":"Polygon","coordinates":[[[27.78125,62.202083],[27.785417,62.202083],[27.785417,62.20625],[27.78125,62.20625],[27.78125,62.202083]]]},"properties":{"radiance":16.32}},{"type":"Feature","geometry":{"type":"Polygon","coordinates":[[[27.785417,62.202083],[27.789583,62.202083],[27.789583,62.20625],[27.785417,62.20625],[27.785417,62.202083]]]},"properties":{"radiance":45.53}},{"type":"Feature","geometry":{"type":"Polygon","coordinates":[[[27.789583,62.202083],[27.79375,62.202083],[27.79375,62.20625],[27.789583,62.20625],[27.789583,62.202083]]]},"properties":{"radiance":23.36}},{"type":"Feature","geometry":{"type":"Polygon","coordinates":[[[27.79375,62.202083],[27.797917,62.202083],[27.797917,62.20625],[27.79375,62.20625],[27.79375,62.202083]]]},"properties":{"radiance":18.19}},{"type":"Feature","geometry":{"type":"Polygon","coordinates":[[[27.802083,62.202083],[27.80625,62.202083],[27.80625,62.20625],[27.802083,62.20625],[27.802083,62.202083]]]},"properties":{"radiance":5.78}},{"type":"Feature","geometry":{"type":"Polygon","coordinates":[[[27.80625,62.202083],[27.810417,62.202083],[27.810417,62.20625],[27.80625,62.20625],[27.80625,62.202083]]]},"properties":{"radiance":5.64}},{"type":"Feature","geometry":{"type":"Polygon","coordinates":[[[27.760417,62.197917],[27.764583,62.197917],[27.764583,62.202083],[27.760417,62.202083],[27.760417,62.197917]]]},"properties":{"radiance":9.33}},{"type":"Feature","geometry":{"type":"Polygon","coordinates":[[[27.764583,62.197917],[27.76875,62.197917],[27.76875,62.202083],[27.764583,62.202083],[27.764583,62.197917]]]},"properties":{"radiance":11.42}},{"type":"Feature","geometry":{"type":"Polygon","coordinates":[[[27.772917,62.197917],[27.777083,62.197917],[27.777083,62.202083],[27.772917,62.202083],[27.772917,62.197917]]]},"properties":{"radiance":14.8}},{"type":"Feature","geometry":{"type":"Polygon","coordinates":[[[27.777083,62.197917],[27.78125,62.197917],[27.78125,62.202083],[27.777083,62.202083],[27.777083,62.197917]]]},"properties":{"radiance":12.69}},{"type":"Feature","geometry":{"type":"Polygon","coordinates":[[[27.78125,62.197917],[27.785417,62.197917],[27.785417,62.202083],[27.78125,62.202083],[27.78125,62.197917]]]},"properties":{"radiance":12.67}},{"type":"Feature","geometry":{"type":"Polygon","coordinates":[[[27.79375,62.197917],[27.797917,62.197917],[27.797917,62.202083],[27.79375,62.202083],[27.79375,62.197917]]]},"properties":{"radiance":5.29}},{"type":"Feature","geometry":{"type":"Polygon","coordinates":[[[27.80625,62.197917],[27.810417,62.197917],[27.810417,62.202083],[27.80625,62.202083],[27.80625,62.197917]]]},"properties":{"radiance":5.09}},{"type":"Feature","geometry":{"type":"Polygon","coordinates":[[[27.81875,62.185417],[27.822917,62.185417],[27.822917,62.189583],[27.81875,62.189583],[27.81875,62.185417]]]},"properties":{"radiance":5.56}},{"type":"Feature","geometry":{"type":"Polygon","coordinates":[[[27.810417,62.18125],[27.814583,62.18125],[27.814583,62.185417],[27.810417,62.185417],[27.810417,62.18125]]]},"properties":{"radiance":5.84}},{"type":"Feature","geometry":{"type":"Polygon","coordinates":[[[27.814583,62.18125],[27.81875,62.18125],[27.81875,62.185417],[27.814583,62.185417],[27.814583,62.18125]]]},"properties":{"radiance":5.33}},{"type":"Feature","geometry":{"type":"Polygon","coordinates":[[[27.81875,62.18125],[27.822917,62.18125],[27.822917,62.185417],[27.81875,62.185417],[27.81875,62.18125]]]},"properties":{"radiance":8.49}},{"type":"Feature","geometry":{"type":"Polygon","coordinates":[[[27.822917,62.18125],[27.827083,62.18125],[27.827083,62.185417],[27.822917,62.185417],[27.822917,62.18125]]]},"properties":{"radiance":8.37}},{"type":"Feature","geometry":{"type":"Polygon","coordinates":[[[27.827083,62.18125],[27.83125,62.18125],[27.83125,62.185417],[27.827083,62.185417],[27.827083,62.18125]]]},"properties":{"radiance":10.65}},{"type":"Feature","geometry":{"type":"Polygon","coordinates":[[[27.83125,62.18125],[27.835417,62.18125],[27.835417,62.185417],[27.83125,62.185417],[27.83125,62.18125]]]},"properties":{"radiance":30.32}},{"type":"Feature","geometry":{"type":"Polygon","coordinates":[[[27.835417,62.18125],[27.839583,62.18125],[27.839583,62.185417],[27.835417,62.185417],[27.835417,62.18125]]]},"properties":{"radiance":30.37}},{"type":"Feature","geometry":{"type":"Polygon","coordinates":[[[27.839583,62.18125],[27.84375,62.18125],[27.84375,62.185417],[27.839583,62.185417],[27.839583,62.18125]]]},"properties":{"radiance":7.51}},{"type":"Feature","geometry":{"type":"Polygon","coordinates":[[[27.84375,62.18125],[27.847917,62.18125],[27.847917,62.185417],[27.84375,62.185417],[27.84375,62.18125]]]},"properties":{"radiance":9.22}},{"type":"Feature","geometry":{"type":"Polygon","coordinates":[[[27.847917,62.18125],[27.852083,62.18125],[27.852083,62.185417],[27.847917,62.185417],[27.847917,62.18125]]]},"properties":{"radiance":5.51}},{"type":"Feature","geometry":{"type":"Polygon","coordinates":[[[27.797917,62.177083],[27.802083,62.177083],[27.802083,62.18125],[27.797917,62.18125],[27.797917,62.177083]]]},"properties":{"radiance":5.54}},{"type":"Feature","geometry":{"type":"Polygon","coordinates":[[[27.802083,62.177083],[27.80625,62.177083],[27.80625,62.18125],[27.802083,62.18125],[27.802083,62.177083]]]},"properties":{"radiance":5.69}},{"type":"Feature","geometry":{"type":"Polygon","coordinates":[[[27.80625,62.177083],[27.810417,62.177083],[27.810417,62.18125],[27.80625,62.18125],[27.80625,62.177083]]]},"properties":{"radiance":6.04}},{"type":"Feature","geometry":{"type":"Polygon","coordinates":[[[27.810417,62.177083],[27.814583,62.177083],[27.814583,62.18125],[27.810417,62.18125],[27.810417,62.177083]]]},"properties":{"radiance":6.66}},{"type":"Feature","geometry":{"type":"Polygon","coordinates":[[[27.814583,62.177083],[27.81875,62.177083],[27.81875,62.18125],[27.814583,62.18125],[27.814583,62.177083]]]},"properties":{"radiance":5.58}},{"type":"Feature","geometry":{"type":"Polygon","coordinates":[[[27.81875,62.177083],[27.822917,62.177083],[27.822917,62.18125],[27.81875,62.18125],[27.81875,62.177083]]]},"properties":{"radiance":7.58}},{"type":"Feature","geometry":{"type":"Polygon","coordinates":[[[27.822917,62.177083],[27.827083,62.177083],[27.827083,62.18125],[27.822917,62.18125],[27.822917,62.177083]]]},"properties":{"radiance":9.04}},{"type":"Feature","geometry":{"type":"Polygon","coordinates":[[[27.827083,62.177083],[27.83125,62.177083],[27.83125,62.18125],[27.827083,62.18125],[27.827083,62.177083]]]},"properties":{"radiance":10.49}},{"type":"Feature","geometry":{"type":"Polygon","coordinates":[[[27.83125,62.177083],[27.835417,62.177083],[27.835417,62.18125],[27.83125,62.18125],[27.83125,62.177083]]]},"properties":{"radiance":42.96}},{"type":"Feature","geometry":{"type":"Polygon","coordinates":[[[27.835417,62.177083],[27.839583,62.177083],[27.839583,62.18125],[27.835417,62.18125],[27.835417,62.177083]]]},"properties":{"radiance":27.99}},{"type":"Feature","geometry":{"type":"Polygon","coordinates":[[[27.839583,62.177083],[27.84375,62.177083],[27.84375,62.18125],[27.839583,62.18125],[27.839583,62.177083]]]},"properties":{"radiance":15.55}},{"type":"Feature","geometry":{"type":"Polygon","coordinates":[[[27.84375,62.177083],[27.847917,62.177083],[27.847917,62.18125],[27.84375,62.18125],[27.84375,62.177083]]]},"properties":{"radiance":16.13}},{"type":"Feature","geometry":{"type":"Polygon","coordinates":[[[27.847917,62.177083],[27.852083,62.177083],[27.852083,62.18125],[27.847917,62.18125],[27.847917,62.177083]]]},"properties":{"radiance":8.79}},{"type":"Feature","geometry":{"type":"Polygon","coordinates":[[[27.80625,62.172917],[27.810417,62.172917],[27.810417,62.177083],[27.80625,62.177083],[27.80625,62.172917]]]},"properties":{"radiance":5.71}},{"type":"Feature","geometry":{"type":"Polygon","coordinates":[[[27.810417,62.172917],[27.814583,62.172917],[27.814583,62.177083],[27.810417,62.177083],[27.810417,62.172917]]]},"properties":{"radiance":5.82}},{"type":"Feature","geometry":{"type":"Polygon","coordinates":[[[27.814583,62.172917],[27.81875,62.172917],[27.81875,62.177083],[27.814583,62.177083],[27.814583,62.172917]]]},"properties":{"radiance":5.82}},{"type":"Feature","geometry":{"type":"Polygon","coordinates":[[[27.827083,62.172917],[27.83125,62.172917],[27.83125,62.177083],[27.827083,62.177083],[27.827083,62.172917]]]},"properties":{"radiance":6.38}},{"type":"Feature","geometry":{"type":"Polygon","coordinates":[[[27.83125,62.172917],[27.835417,62.172917],[27.835417,62.177083],[27.83125,62.177083],[27.83125,62.172917]]]},"properties":{"radiance":5.79}},{"type":"Feature","geometry":{"type":"Polygon","coordinates":[[[27.835417,62.172917],[27.839583,62.172917],[27.839583,62.177083],[27.835417,62.177083],[27.835417,62.172917]]]},"properties":{"radiance":42.61}},{"type":"Feature","geometry":{"type":"Polygon","coordinates":[[[27.839583,62.172917],[27.84375,62.172917],[27.84375,62.177083],[27.839583,62.177083],[27.839583,62.172917]]]},"properties":{"radiance":13.66}},{"type":"Feature","geometry":{"type":"Polygon","coordinates":[[[27.84375,62.172917],[27.847917,62.172917],[27.847917,62.177083],[27.84375,62.177083],[27.84375,62.172917]]]},"properties":{"radiance":8.6}},{"type":"Feature","geometry":{"type":"Polygon","coordinates":[[[27.847917,62.172917],[27.852083,62.172917],[27.852083,62.177083],[27.847917,62.177083],[27.847917,62.172917]]]},"properties":{"radiance":5.95}},{"type":"Feature","geometry":{"type":"Polygon","coordinates":[[[27.835417,62.16875],[27.839583,62.16875],[27.839583,62.172917],[27.835417,62.172917],[27.835417,62.16875]]]},"properties":{"radiance":5.15}},{"type":"Feature","geometry":{"type":"Polygon","coordinates":[[[27.839583,62.16875],[27.84375,62.16875],[27.84375,62.172917],[27.839583,62.172917],[27.839583,62.16875]]]},"properties":{"radiance":5.92}},{"type":"Feature","geometry":{"type":"Polygon","coordinates":[[[27.84375,62.16875],[27.847917,62.16875],[27.847917,62.172917],[27.84375,62.172917],[27.84375,62.16875]]]},"properties":{"radiance":5.72}},{"type":"Feature","geometry":{"type":"Polygon","coordinates":[[[27.847917,62.16875],[27.852083,62.16875],[27.852083,62.172917],[27.847917,62.172917],[27.847917,62.16875]]]},"properties":{"radiance":5.05}},{"type":"Feature","geometry":{"type":"Polygon","coordinates":[[[27.827083,62.160417],[27.83125,62.160417],[27.83125,62.164583],[27.827083,62.164583],[27.827083,62.160417]]]},"properties":{"radiance":5.63}},{"type":"Feature","geometry":{"type":"Polygon","coordinates":[[[27.83125,62.160417],[27.835417,62.160417],[27.835417,62.164583],[27.83125,62.164583],[27.83125,62.160417]]]},"properties":{"radiance":7.41}},{"type":"Feature","geometry":{"type":"Polygon","coordinates":[[[27.835417,62.160417],[27.839583,62.160417],[27.839583,62.164583],[27.835417,62.164583],[27.835417,62.160417]]]},"properties":{"radiance":7.1}},{"type":"Feature","geometry":{"type":"Polygon","coordinates":[[[27.827083,62.15625],[27.83125,62.15625],[27.83125,62.160417],[27.827083,62.160417],[27.827083,62.15625]]]},"properties":{"radiance":6.03}},{"type":"Feature","geometry":{"type":"Polygon","coordinates":[[[27.83125,62.15625],[27.835417,62.15625],[27.835417,62.160417],[27.83125,62.160417],[27.83125,62.15625]]]},"properties":{"radiance":6.42}},{"type":"Feature","geometry":{"type":"Polygon","coordinates":[[[27.835417,62.15625],[27.839583,62.15625],[27.839583,62.160417],[27.835417,62.160417],[27.835417,62.15625]]]},"properties":{"radiance":6.44}},{"type":"Feature","geometry":{"type":"Polygon","coordinates":[[[28.29375,62.122917],[28.297917,62.122917],[28.297917,62.127083],[28.29375,62.127083],[28.29375,62.122917]]]},"properties":{"radiance":14.02}},{"type":"Feature","geometry":{"type":"Polygon","coordinates":[[[28.297917,62.122917],[28.302083,62.122917],[28.302083,62.127083],[28.297917,62.127083],[28.297917,62.122917]]]},"properties":{"radiance":25.48}},{"type":"Feature","geometry":{"type":"Polygon","coordinates":[[[28.302083,62.122917],[28.30625,62.122917],[28.30625,62.127083],[28.302083,62.127083],[28.302083,62.122917]]]},"properties":{"radiance":36.05}},{"type":"Feature","geometry":{"type":"Polygon","coordinates":[[[28.30625,62.122917],[28.310417,62.122917],[28.310417,62.127083],[28.30625,62.127083],[28.30625,62.122917]]]},"properties":{"radiance":43.95}},{"type":"Feature","geometry":{"type":"Polygon","coordinates":[[[28.310417,62.122917],[28.314583,62.122917],[28.314583,62.127083],[28.310417,62.127083],[28.310417,62.122917]]]},"properties":{"radiance":32.61}},{"type":"Feature","geometry":{"type":"Polygon","coordinates":[[[28.314583,62.122917],[28.31875,62.122917],[28.31875,62.127083],[28.314583,62.127083],[28.314583,62.122917]]]},"properties":{"radiance":9.6}},{"type":"Feature","geometry":{"type":"Polygon","coordinates":[[[28.297917,62.11875],[28.302083,62.11875],[28.302083,62.122917],[28.297917,62.122917],[28.297917,62.11875]]]},"properties":{"radiance":34.44}},{"type":"Feature","geometry":{"type":"Polygon","coordinates":[[[28.302083,62.11875],[28.30625,62.11875],[28.30625,62.122917],[28.302083,62.122917],[28.302083,62.11875]]]},"properties":{"radiance":38.02}},{"type":"Feature","geometry":{"type":"Polygon","coordinates":[[[28.30625,62.11875],[28.310417,62.11875],[28.310417,62.122917],[28.30625,62.122917],[28.30625,62.11875]]]},"properties":{"radiance":30.93}},{"type":"Feature","geometry":{"type":"Polygon","coordinates":[[[28.310417,62.11875],[28.314583,62.11875],[28.314583,62.122917],[28.310417,62.122917],[28.310417,62.11875]]]},"properties":{"radiance":19.37}}]}