{"type":"FeatureCollection","features":[{"type":"Feature","geometry":{"type":"Polygon","coordinates":[[[23.360417,60.94375],[23.364583,60.94375],[23.364583,60.947917],[23.360417,60.947917],[23.360417,60.94375]]]},"properties":{"radiance":5.81}},{"type":"Feature","geometry":{"type":"Polygon","coordinates":[[[23.364583,60.94375],[23.36875,60.94375],[23.36875,60.947917],[23.364583,60.947917],[23.364583,60.94375]]]},"properties":{"radiance":5.24}},{"type":"Feature","geometry":{"type":"Polygon","coordinates":[[[23.360417,60.939583],[23.364583,60.939583],[23.364583,60.94375],[23.360417,60.94375],[23.360417,60.939583]]]},"properties":{"radiance":7.57}},{"type":"Feature","geometry":{"type":"Polygon","coordinates":[[[23.364583,60.939583],[23.36875,60.939583],[23.36875,60.94375],[23.364583,60.94375],[23.364583,60.939583]]]},"properties":{"radiance":6.28}},{"type":"Feature","geometry":{"type":"Polygon","coordinates":[[[23.56875,60.83125],[23.572917,60.83125],[23.572917,60.835417],[23.56875,60.835417],[23.56875,60.83125]]]},"properties":{"radiance":5.82}},{"type":"Feature","geometry":{"type":"Polygon","coordinates":[[[23.58125,60.83125],[23.585417,60.83125],[23.585417,60.835417],[23.58125,60.835417],[23.58125,60.83125]]]},"properties":{"radiance":5.05}},{"type":"Feature","geometry":{"type":"Polygon","coordinates":[[[23.61875,60.83125],[23.622917,60.83125],[23.622917,60.835417],[23.61875,60.835417],[23.61875,60.83125]]]},"properties":{"radiance":5.09}},{"type":"Feature","geometry":{"type":"Polygon","coordinates":[[[23.560417,60.827083],[23.564583,60.827083],[23.564583,60.83125],[23.560417,60.83125],[23.560417,60.827083]]]},"properties":{"radiance":7.46}},{"type":"Feature","geometry":{"type":"Polygon","coordinates":[[[23.564583,60.827083],[23.56875,60.827083],[23.56875,60.83125],[23.564583,60.83125],[23.564583,60.827083]]]},"properties":{"radiance":12.4}},{"type":"Feature","geometry":{"type":"Polygon","coordinates":[[[23.56875,60.827083],[23.572917,60.827083],[23.572917,60.83125],[23.56875,60.83125],[23.56875,60.827083]]]},"properties":{"radiance":15.13}},{"type":"Feature","geometry":{"type":"Polygon","coordinates":[[[23.572917,60.827083],[23.577083,60.827083],[23.577083,60.83125],[23.572917,60.83125],[23.572917,60.827083]]]},"properties":{"radiance":16.44}},{"type":"Feature","geometry":{"type":"Polygon","coordinates":[[[23.577083,60.827083],[23.58125,60.827083],[23.58125,60.83125],[23.577083,60.83125],[23.577083,60.827083]]]},"properties":{"radiance":17.06}},{"type":"Feature","geometry":{"type":"Polygon","coordinates":[[[23.58125,60.827083],[23.585417,60.827083],[23.585417,60.83125],[23.58125,60.83125],[23.58125,60.827083]]]},"properties":{"radiance":17.18}},{"type":"Feature","geometry":{"type":"Polygon","coordinates":[[[23.585417,60.827083],[23.589583,60.827083],[23.589583,60.83125],[23.585417,60.83125],[23.585417,60.827083]]]},"properties":{"radiance":11.06}},{"type":"Feature","geometry":{"type":"Polygon","coordinates":[[[23.589583,60.827083],[23.59375,60.827083],[23.59375,60.83125],[23.589583,60.83125],[23.589583,60.827083]]]},"properties":{"radiance":12.48}},{"type":"Feature","geometry":{"type":"Polygon","coordinates":[[[23.59375,60.827083],[23.597917,60.827083],[23.597917,60.83125],[23.59375,60.83125],[23.59375,60.827083]]]},"properties":{"radiance":12.97}},{"type":"Feature","geometry":{"type":"Polygon","coordinates":[[[23.597917,60.827083],[23.602083,60.827083],[23.602083,60.83125],[23.597917,60.83125],[23.597917,60.827083]]]},"properties":{"radiance":11.27}},{"type":"Feature","geometry":{"type":"Polygon","coordinates":[[[23.602083,60.827083],[23.60625,60.827083],[23.60625,60.83125],[23.602083,60.83125],[23.602083,60.827083]]]},"properties":{"radiance":7.33}},{"type":"Feature","geometry":{"type":"Polygon","coordinates":[[[23.60625,60.827083],[23.610417,60.827083],[23.610417,60.83125],[23.60625,60.83125],[23.60625,60.827083]]]},"properties":{"radiance":8.47}},{"type":"Feature","geometry":{"type":"Polygon","coordinates":[[[23.610417,60.827083],[23.614583,60.827083],[23.614583,60.83125],[23.610417,60.83125],[23.610417,60.827083]]]},"properties":{"radiance":9.21}},{"type":"Feature","geometry":{"type":"Polygon","coordinates":[[[23.614583,60.827083],[23.61875,60.827083],[23.61875,60.83125],[23.614583,60.83125],[23.614583,60.827083]]]},"properties":{"radiance":7.88}},{"type":"Feature","geometry":{"type":"Polygon","coordinates":[[[23.61875,60.827083],[23.622917,60.827083],[23.622917,60.83125],[23.61875,60.83125],[23.61875,60.827083]]]},"properties":{"radiance":7.17}},{"type":"Feature","geometry":{"type":"Polygon","coordinates":[[[23.622917,60.827083],[23.627083,60.827083],[23.627083,60.83125],[23.622917,60.83125],[23.622917,60.827083]]]},"properties":{"radiance":7.1}},{"type":"Feature","geometry":{"type":"Polygon","coordinates":[[[23.627083,60.827083],[23.63125,60.827083],[23.63125,60.83125],[23.627083,60.83125],[23.627083,60.827083]]]},"properties":{"radiance":6.23}},{"type":"Feature","geometry":{"type":"Polygon","coordinates":[[[23.63125,60.827083],[23.635417,60.827083],[23.635417,60.83125],[23.63125,60.83125],[23.63125,60.827083]]]},"properties":{"radiance":5.5}},{"type":"Feature","geometry":{"type":"Polygon","coordinates":[[[23.635417,60.827083],[23.639583,60.827083],[23.639583,60.83125],[23.635417,60.83125],[23.635417,60.827083]]]},"properties":{"radiance":5.31}},{"type":"Feature","geometry":{"type":"Polygon","coordinates":[[[23.552083,60.822917],[23.55625,60.822917],[23.55625,60.827083],[23.552083,60.827083],[23.552083,60.822917]]]},"properties":{"radiance":5}},{"type":"Feature","geometry":{"type":"Polygon","coordinates":[[[23.560417,60.822917],[23.564583,60.822917],[23.564583,60.827083],[23.560417,60.827083],[23.560417,60.822917]]]},"properties":{"radiance":6.53}},{"type":"Feature","geometry":{"type":"Polygon","coordinates":[[[23.564583,60.822917],[23.56875,60.822917],[23.56875,60.827083],[23.564583,60.827083],[23.564583,60.822917]]]},"properties":{"radiance":10.1}},{"type":"Feature","geometry":{"type":"Polygon","coordinates":[[[23.56875,60.822917],[23.572917,60.822917],[23.572917,60.827083],[23.56875,60.827083],[23.56875,60.822917]]]},"properties":{"radiance":12.73}},{"type":"Feature","geometry":{"type":"Polygon","coordinates":[[[23.572917,60.822917],[23.577083,60.822917],[23.577083,60.827083],[23.572917,60.827083],[23.572917,60.822917]]]},"properties":{"radiance":13.87}},{"type":"Feature","geometry":{"type":"Polygon","coordinates":[[[23.577083,60.822917],[23.58125,60.822917],[23.58125,60.827083],[23.577083,60.827083],[23.577083,60.822917]]]},"properties":{"radiance":15.5}},{"type":"Feature","geometry":{"type":"Polygon","coordinates":[[[23.58125,60.822917],[23.585417,60.822917],[23.585417,60.827083],[23.58125,60.827083],[23.58125,60.822917]]]},"properties":{"radiance":16.87}},{"type":"Feature","geometry":{"type":"Polygon","coordinates":[[[23.585417,60.822917],[23.589583,60.822917],[23.589583,60.827083],[23.585417,60.827083],[23.585417,60.822917]]]},"properties":{"radiance":19.31}},{"type":"Feature","geometry":{"type":"Polygon","coordinates":[[[23.589583,60.822917],[23.59375,60.822917],[23.59375,60.827083],[23.589583,60.827083],[23.589583,60.822917]]]},"properties":{"radiance":22.14}},{"type":"Feature","geometry":{"type":"Polygon","coordinates":[[[23.59375,60.822917],[23.597917,60.822917],[23.597917,60.827083],[23.59375,60.827083],[23.59375,60.822917]]]},"properties":{"radiance":18.24}},{"type":"Feature","geometry":{"type":"Polygon","coordinates":[[[23.597917,60.822917],[23.602083,60.822917],[23.602083,60.827083],[23.597917,60.827083],[23.597917,60.822917]]]},"properties":{"radiance":13.93}},{"type":"Feature","geometry":{"type":"Polygon","coordinates":[[[23.602083,60.822917],[23.60625,60.822917],[23.60625,60.827083],[23.602083,60.827083],[23.602083,60.822917]]]},"properties":{"radiance":13.94}},{"type":"Feature","geometry":{"type":"Polygon","coordinates":[[[23.60625,60.822917],[23.610417,60.822917],[23.610417,60.827083],[23.60625,60.827083],[23.60625,60.822917]]]},"properties":{"radiance":10.6}},{"type":"Feature","geometry":{"type":"Polygon","coordinates":[[[23.610417,60.822917],[23.614583,60.822917],[23.614583,60.827083],[23.610417,60.827083],[23.610417,60.822917]]]},"properties":{"radiance":11.72}},{"type":"Feature","geometry":{"type":"Polygon","coordinates":[[[23.614583,60.822917],[23.61875,60.822917],[23.61875,60.827083],[23.614583,60.827083],[23.614583,60.822917]]]},"properties":{"radiance":9.81}},{"type":"Feature","geometry":{"type":"Polygon","coordinates":[[[23.61875,60.822917],[23.622917,60.822917],[23.622917,60.827083],[23.61875,60.827083],[23.61875,60.822917]]]},"properties":{"radiance":12.32}},{"type":"Feature","geometry":{"type":"Polygon","coordinates":[[[23.622917,60.822917],[23.627083,60.822917],[23.627083,60.827083],[23.622917,60.827083],[23.622917,60.822917]]]},"properties":{"radiance":13.27}},{"type":"Feature","geometry":{"type":"Polygon","coordinates":[[[23.627083,60.822917],[23.63125,60.822917],[23.63125,60.827083],[23.627083,60.827083],[23.627083,60.822917]]]},"properties":{"radiance":14.51}},{"type":"Feature","geometry":{"type":"Polygon","coordinates":[[[23.63125,60.822917],[23.635417,60.822917],[23.635417,60.827083],[23.63125,60.827083],[23.63125,60.822917]]]},"properties":{"radiance":13.37}},{"type":"Feature","geometry":{"type":"Polygon","coordinates":[[[23.635417,60.822917],[23.639583,60.822917],[23.639583,60.827083],[23.635417,60.827083],[23.635417,60.822917]]]},"properties":{"radiance":11.77}},{"type":"Feature","geometry":{"type":"Polygon","coordinates":[[[23.639583,60.822917],[23.64375,60.822917],[23.64375,60.827083],[23.639583,60.827083],[23.639583,60.822917]]]},"properties":{"radiance":8.73}},{"type":"Feature","geometry":{"type":"Polygon","coordinates":[[[23.64375,60.822917],[23.647917,60.822917],[23.647917,60.827083],[23.64375,60.827083],[23.64375,60.822917]]]},"properties":{"radiance":5.86}},{"type":"Feature","geometry":{"type":"Polygon","coordinates":[[[23.577083,60.81875],[23.58125,60.81875],[23.58125,60.822917],[23.577083,60.822917],[23.577083,60.81875]]]},"properties":{"radiance":5.73}},{"type":"Feature","geometry":{"type":"Polygon","coordinates":[[[23.58125,60.81875],[23.585417,60.81875],[23.585417,60.822917],[23.58125,60.822917],[23.58125,60.81875]]]},"properties":{"radiance":5.48}},{"type":"Feature","geometry":{"type":"Polygon","coordinates":[[[23.585417,60.81875],[23.589583,60.81875],[23.589583,60.822917],[23.585417,60.822917],[23.585417,60.81875]]]},"properties":{"radiance":10.99}},{"type":"Feature","geometry":{"type":"Polygon","coordinates":[[[23.589583,60.81875],[23.59375,60.81875],[23.59375,60.822917],[23.589583,60.822917],[23.589583,60.81875]]]},"properties":{"radiance":6.8}},{"type":"Feature","geometry":{"type":"Polygon","coordinates":[[[23.59375,60.81875],[23.597917,60.81875],[23.597917,60.822917],[23.59375,60.822917],[23.59375,60.81875]]]},"properties":{"radiance":14.86}},{"type":"Feature","geometry":{"type":"Polygon","coordinates":[[[23.597917,60.81875],[23.602083,60.81875],[23.602083,60.822917],[23.597917,60.822917],[23.597917,60.81875]]]},"properties":{"radiance":13.57}},{"type":"Feature","geometry":{"type":"Polygon","coordinates":[[[23.602083,60.81875],[23.60625,60.81875],[23.60625,60.822917],[23.602083,60.822917],[23.602083,60.81875]]]},"properties":{"radiance":14.61}},{"type":"Feature","geometry":{"type":"Polygon","coordinates":[[[23.60625,60.81875],[23.610417,60.81875],[23.610417,60.822917],[23.60625,60.822917],[23.60625,60.81875]]]},"properties":{"radiance":15.61}},{"type":"Feature","geometry":{"type":"Polygon","coordinates":[[[23.610417,60.81875],[23.614583,60.81875],[23.614583,60.822917],[23.610417,60.822917],[23.610417,60.81875]]]},"properties":{"radiance":16.51}},{"type":"Feature","geometry":{"type":"Polygon","coordinates":[[[23.614583,60.81875],[23.61875,60.81875],[23.61875,60.822917],[23.614583,60.822917],[23.614583,60.81875]]]},"properties":{"radiance":17.99}},{"type":"Feature","geometry":{"type":"Polygon","coordinates":[[[23.61875,60.81875],[23.622917,60.81875],[23.622917,60.822917],[23.61875,60.822917],[23.61875,60.81875]]]},"properties":{"radiance":23.33}},{"type":"Feature","geometry":{"type":"Polygon","coordinates":[[[23.622917,60.81875],[23.627083,60.81875],[23.627083,60.822917],[23.622917,60.822917],[23.622917,60.81875]]]},"properties":{"radiance":40.51}},{"type":"Feature","geometry":{"type":"Polygon","coordinates":[[[23.627083,60.81875],[23.63125,60.81875],[23.63125,60.822917],[23.627083,60.822917],[23.627083,60.81875]]]},"properties":{"radiance":33.02}},{"type":"Feature","geometry":{"type":"Polygon","coordinates":[[[23.63125,60.81875],[23.635417,60.81875],[23.635417,60.822917],[23.63125,60.822917],[23.63125,60.81875]]]},"properties":{"radiance":40.84}},{"type":"Feature","geometry":{"type":"Polygon","coordinates":[[[23.635417,60.81875],[23.639583,60.81875],[23.639583,60.822917],[23.635417,60.822917],[23.635417,60.81875]]]},"properties":{"radiance":28.49}},{"type":"Feature","geometry":{"type":"Polygon","coordinates":[[[23.639583,60.81875],[23.64375,60.81875],[23.64375,60.822917],[23.639583,60.822917],[23.639583,60.81875]]]},"properties":{"radiance":23.45}},{"type":"Feature","geometry":{"type":"Polygon","coordinates":[[[23.64375,60.81875],[23.647917,60.81875],[23.647917,60.822917],[23.64375,60.822917],[23.64375,60.81875]]]},"properties":{"radiance":7.07}},{"type":"Feature","geometry":{"type":"Polygon","coordinates":[[[23.647917,60.81875],[23.652083,60.81875],[23.652083,60.822917],[23.647917,60.822917],[23.647917,60.81875]]]},"properties":{"radiance":6.55}},{"type":"Feature","geometry":{"type":"Polygon","coordinates":[[[23.652083,60.81875],[23.65625,60.81875],[23.65625,60.822917],[23.652083,60.822917],[23.652083,60.81875]]]},"properties":{"radiance":6.03}},{"type":"Feature","geometry":{"type":"Polygon","coordinates":[[[23.577083,60.814583],[23.58125,60.814583],[23.58125,60.81875],[23.577083,60.81875],[23.577083,60.814583]]]},"properties":{"radiance":5.1}},{"type":"Feature","geometry":{"type":"Polygon","coordinates":[[[23.58125,60.814583],[23.585417,60.814583],[23.585417,60.81875],[23.58125,60.81875],[23.58125,60.814583]]]},"properties":{"radiance":5.79}},{"type":"Feature","geometry":{"type":"Polygon","coordinates":[[[23.585417,60.814583],[23.589583,60.814583],[23.589583,60.81875],[23.585417,60.81875],[23.585417,60.814583]]]},"properties":{"radiance":10.2}},{"type":"Feature","geometry":{"type":"Polygon","coordinates":[[[23.589583,60.814583],[23.59375,60.814583],[23.59375,60.81875],[23.589583,60.81875],[23.589583,60.814583]]]},"properties":{"radiance":9.56}},{"type":"Feature","geometry":{"type":"Polygon","coordinates":[[[23.59375,60.814583],[23.597917,60.814583],[23.597917,60.81875],[23.59375,60.81875],[23.59375,60.814583]]]},"properties":{"radiance":8.74}},{"type":"Feature","geometry":{"type":"Polygon","coordinates":[[[23.597917,60.814583],[23.602083,60.814583],[23.602083,60.81875],[23.597917,60.81875],[23.597917,60.814583]]]},"properties":{"radiance":11.41}},{"type":"Feature","geometry":{"type":"Polygon","coordinates":[[[23.602083,60.814583],[23.60625,60.814583],[23.60625,60.81875],[23.602083,60.81875],[23.602083,60.814583]]]},"properties":{"radiance":16.46}},{"type":"Feature","geometry":{"type":"Polygon","coordinates":[[[23.60625,60.814583],[23.610417,60.814583],[23.610417,60.81875],[23.60625,60.81875],[23.60625,60.814583]]]},"properties":{"radiance":20.58}},{"type":"Feature","geometry":{"type":"Polygon","coordinates":[[[23.610417,60.814583],[23.614583,60.814583],[23.614583,60.81875],[23.610417,60.81875],[23.610417,60.814583]]]},"properties":{"radiance":23.04}},{"type":"Feature","geometry":{"type":"Polygon","coordinates":[[[23.614583,60.814583],[23.61875,60.814583],[23.61875,60.81875],[23.614583,60.81875],[23.614583,60.814583]]]},"properties":{"radiance":26.29}},{"type":"Feature","geometry":{"type":"Polygon","coordinates":[[[23.61875,60.814583],[23.622917,60.814583],[23.622917,60.81875],[23.61875,60.81875],[23.61875,60.814583]]]},"properties":{"radiance":36.15}},{"type":"Feature","geometry":{"type":"Polygon","coordinates":[[[23.622917,60.814583],[23.627083,60.814583],[23.627083,60.81875],[23.622917,60.81875],[23.622917,60.814583]]]},"properties":{"radiance":42.57}},{"type":"Feature","geometry":{"type":"Polygon","coordinates":[[[23.627083,60.814583],[23.63125,60.814583],[23.63125,60.81875],[23.627083,60.81875],[23.627083,60.814583]]]},"properties":{"radiance":42.97}},{"type":"Feature","geometry":{"type":"Polygon","coordinates":[[[23.63125,60.814583],[23.635417,60.814583],[23.635417,60.81875],[23.63125,60.81875],[23.63125,60.814583]]]},"properties":{"radiance":51.53}},{"type":"Feature","geometry":{"type":"Polygon","coordinates":[[[23.635417,60.814583],[23.639583,60.814583],[23.639583,60.81875],[23.635417,60.81875],[23.635417,60.814583]]]},"properties":{"radiance":29.15}},{"type":"Feature","geometry":{"type":"Polygon","coordinates":[[[23.639583,60.814583],[23.64375,60.814583],[23.64375,60.81875],[23.639583,60.81875],[23.639583,60.814583]]]},"properties":{"radiance":24.07}},{"type":"Feature","geometry":{"type":"Polygon","coordinates":[[[23.64375,60.814583],[23.647917,60.814583],[23.647917,60.81875],[23.64375,60.81875],[23.64375,60.814583]]]},"properties":{"radiance":11.91}},{"type":"Feature","geometry":{"type":"Polygon","coordinates":[[[23.647917,60.814583],[23.652083,60.814583],[23.652083,60.81875],[23.647917,60.81875],[23.647917,60.814583]]]},"properties":{"radiance":9.06}},{"type":"Feature","geometry":{"type":"Polygon","coordinates":[[[23.652083,60.814583],[23.65625,60.814583],[23.65625,60.81875],[23.652083,60.81875],[23.652083,60.814583]]]},"properties":{"radiance":7.13}},{"type":"Feature","geometry":{"type":"Polygon","coordinates":[[[23.65625,60.814583],[23.660417,60.814583],[23.660417,60.81875],[23.65625,60.81875],[23.65625,60.814583]]]},"properties":{"radiance":5.31}},{"type":"Feature","geometry":{"type":"Polygon","coordinates":[[[23.660417,60.814583],[23.664583,60.814583],[23.664583,60.81875],[23.660417,60.81875],[23.660417,60.814583]]]},"properties":{"radiance":5.3}},{"type":"Feature","geometry":{"type":"Polygon","coordinates":[[[23.48125,60.810417],[23.485417,60.810417],[23.485417,60.814583],[23.48125,60.814583],[23.48125,60.810417]]]},"properties":{"radiance":12.82}},{"type":"Feature","geometry":{"type":"Polygon","coordinates":[[[23.485417,60.810417],[23.489583,60.810417],[23.489583,60.814583],[23.485417,60.814583],[23.485417,60.810417]]]},"properties":{"radiance":12.7}},{"type":"Feature","geometry":{"type":"Polygon","coordinates":[[[23.489583,60.810417],[23.49375,60.810417],[23.49375,60.814583],[23.489583,60.814583],[23.489583,60.810417]]]},"properties":{"radiance":12.63}},{"type":"Feature","geometry":{"type":"Polygon","coordinates":[[[23.49375,60.810417],[23.497917,60.810417],[23.497917,60.814583],[23.49375,60.814583],[23.49375,60.810417]]]},"properties":{"radiance":7.27}},{"type":"Feature","geometry":{"type":"Polygon","coordinates":[[[23.497917,60.810417],[23.502083,60.810417],[23.502083,60.814583],[23.497917,60.814583],[23.497917,60.810417]]]},"properties":{"radiance":5.41}},{"type":"Feature","geometry":{"type":"Polygon","coordinates":[[[23.58125,60.810417],[23.585417,60.810417],[23.585417,60.814583],[23.58125,60.814583],[23.58125,60.810417]]]},"properties":{"radiance":9.91}},{"type":"Feature","geometry":{"type":"Polygon","coordinates":[[[23.585417,60.810417],[23.589583,60.810417],[23.589583,60.814583],[23.585417,60.814583],[23.585417,60.810417]]]},"properties":{"radiance":15.44}},{"type":"Feature","geometry":{"type":"Polygon","coordinates":[[[23.589583,60.810417],[23.59375,60.810417],[23.59375,60.814583],[23.589583,60.814583],[23.589583,60.810417]]]},"properties":{"radiance":17.72}},{"type":"Feature","geometry":{"type":"Polygon","coordinates":[[[23.59375,60.810417],[23.597917,60.810417],[23.597917,60.814583],[23.59375,60.814583],[23.59375,60.810417]]]},"properties":{"radiance":20.48}},{"type":"Feature","geometry":{"type":"Polygon","coordinates":[[[23.597917,60.810417],[23.602083,60.810417],[23.602083,60.814583],[23.597917,60.814583],[23.597917,60.810417]]]},"properties":{"radiance":17.54}},{"type":"Feature","geometry":{"type":"Polygon","coordinates":[[[23.602083,60.810417],[23.60625,60.810417],[23.60625,60.814583],[23.602083,60.814583],[23.602083,60.810417]]]},"properties":{"radiance":18.12}},{"type":"Feature","geometry":{"type":"Polygon","coordinates":[[[23.60625,60.810417],[23.610417,60.810417],[23.610417,60.814583],[23.60625,60.814583],[23.60625,60.810417]]]},"properties":{"radiance":21.53}},{"type":"Feature","geometry":{"type":"Polygon","coordinates":[[[23.610417,60.810417],[23.614583,60.810417],[23.614583,60.814583],[23.610417,60.814583],[23.610417,60.810417]]]},"properties":{"radiance":23.11}},{"type":"Feature","geometry":{"type":"Polygon","coordinates":[[[23.614583,60.810417],[23.61875,60.810417],[23.61875,60.814583],[23.614583,60.814583],[23.614583,60.810417]]]},"properties":{"radiance":23.84}},{"type":"Feature","geometry":{"type":"Polygon","coordinates":[[[23.61875,60.810417],[23.622917,60.810417],[23.622917,60.814583],[23.61875,60.814583],[23.61875,60.810417]]]},"properties":{"radiance":23.82}},{"type":"Feature","geometry":{"type":"Polygon","coordinates":[[[23.622917,60.810417],[23.627083,60.810417],[23.627083,60.814583],[23.622917,60.814583],[23.622917,60.810417]]]},"properties":{"radiance":25.16}},{"type":"Feature","geometry":{"type":"Polygon","coordinates":[[[23.627083,60.810417],[23.63125,60.810417],[23.63125,60.814583],[23.627083,60.814583],[23.627083,60.810417]]]},"properties":{"radiance":20.87}},{"type":"Feature","geometry":{"type":"Polygon","coordinates":[[[23.63125,60.810417],[23.635417,60.810417],[23.635417,60.814583],[23.63125,60.814583],[23.63125,60.810417]]]},"properties":{"radiance":18.77}},{"type":"Feature","geometry":{"type":"Polygon","coordinates":[[[23.635417,60.810417],[23.639583,60.810417],[23.639583,60.814583],[23.635417,60.814583],[23.635417,60.810417]]]},"properties":{"radiance":16.33}},{"type":"Feature","geometry":{"type":"Polygon","coordinates":[[[23.639583,60.810417],[23.64375,60.810417],[23.64375,60.814583],[23.639583,60.814583],[23.639583,60.810417]]]},"properties":{"radiance":10.99}},{"type":"Feature","geometry":{"type":"Polygon","coordinates":[[[23.64375,60.810417],[23.647917,60.810417],[23.647917,60.814583],[23.64375,60.814583],[23.64375,60.810417]]]},"properties":{"radiance":9.28}},{"type":"Feature","geometry":{"type":"Polygon","coordinates":[[[23.647917,60.810417],[23.652083,60.810417],[23.652083,60.814583],[23.647917,60.814583],[23.647917,60.810417]]]},"properties":{"radiance":6.06}},{"type":"Feature","geometry":{"type":"Polygon","coordinates":[[[23.652083,60.810417],[23.65625,60.810417],[23.65625,60.814583],[23.652083,60.814583],[23.652083,60.810417]]]},"properties":{"radiance":5.82}},{"type":"Feature","geometry":{"type":"Polygon","coordinates":[[[23.660417,60.810417],[23.664583,60.810417],[23.664583,60.814583],[23.660417,60.814583],[23.660417,60.810417]]]},"properties":{"radiance":5.12}},{"type":"Feature","geometry":{"type":"Polygon","coordinates":[[[23.760417,60.810417],[23.764583,60.810417],[23.764583,60.814583],[23.760417,60.814583],[23.760417,60.810417]]]},"properties":{"radiance":5.32}},{"type":"Feature","geometry":{"type":"Polygon","coordinates":[[[23.477083,60.80625],[23.48125,60.80625],[23.48125,60.810417],[23.477083,60.810417],[23.477083,60.80625]]]},"properties":{"radiance":11.57}},{"type":"Feature","geometry":{"type":"Polygon","coordinates":[[[23.48125,60.80625],[23.485417,60.80625],[23.485417,60.810417],[23.48125,60.810417],[23.48125,60.80625]]]},"properties":{"radiance":13.48}},{"type":"Feature","geometry":{"type":"Polygon","coordinates":[[[23.485417,60.80625],[23.489583,60.80625],[23.489583,60.810417],[23.485417,60.810417],[23.485417,60.80625]]]},"properties":{"radiance":14}},{"type":"Feature","geometry":{"type":"Polygon","coordinates":[[[23.489583,60.80625],[23.49375,60.80625],[23.49375,60.810417],[23.489583,60.810417],[23.489583,60.80625]]]},"properties":{"radiance":10.2}},{"type":"Feature","geometry":{"type":"Polygon","coordinates":[[[23.547917,60.80625],[23.552083,60.80625],[23.552083,60.810417],[23.547917,60.810417],[23.547917,60.80625]]]},"properties":{"radiance":10.97}},{"type":"Feature","geometry":{"type":"Polygon","coordinates":[[[23.552083,60.80625],[23.55625,60.80625],[23.55625,60.810417],[23.552083,60.810417],[23.552083,60.80625]]]},"properties":{"radiance":12.87}},{"type":"Feature","geometry":{"type":"Polygon","coordinates":[[[23.55625,60.80625],[23.560417,60.80625],[23.560417,60.810417],[23.55625,60.810417],[23.55625,60.80625]]]},"properties":{"radiance":16.26}},{"type":"Feature","geometry":{"type":"Polygon","coordinates":[[[23.560417,60.80625],[23.564583,60.80625],[23.564583,60.810417],[23.560417,60.810417],[23.560417,60.80625]]]},"properties":{"radiance":16.65}},{"type":"Feature","geometry":{"type":"Polygon","coordinates":[[[23.564583,60.80625],[23.56875,60.80625],[23.56875,60.810417],[23.564583,60.810417],[23.564583,60.80625]]]},"properties":{"radiance":5.73}},{"type":"Feature","geometry":{"type":"Polygon","coordinates":[[[23.577083,60.80625],[23.58125,60.80625],[23.58125,60.810417],[23.577083,60.810417],[23.577083,60.80625]]]},"properties":{"radiance":5.05}},{"type":"Feature","geometry":{"type":"Polygon","coordinates":[[[23.58125,60.80625],[23.585417,60.80625],[23.585417,60.810417],[23.58125,60.810417],[23.58125,60.80625]]]},"properties":{"radiance":12.88}},{"type":"Feature","geometry":{"type":"Polygon","coordinates":[[[23.585417,60.80625],[23.589583,60.80625],[23.589583,60.810417],[23.585417,60.810417],[23.585417,60.80625]]]},"properties":{"radiance":17.93}},{"type":"Feature","geometry":{"type":"Polygon","coordinates":[[[23.589583,60.80625],[23.59375,60.80625],[23.59375,60.810417],[23.589583,60.810417],[23.589583,60.80625]]]},"properties":{"radiance":18.63}},{"type":"Feature","geometry":{"type":"Polygon","coordinates":[[[23.59375,60.80625],[23.597917,60.80625],[23.597917,60.810417],[23.59375,60.810417],[23.59375,60.80625]]]},"properties":{"radiance":28.03}},{"type":"Feature","geometry":{"type":"Polygon","coordinates":[[[23.597917,60.80625],[23.602083,60.80625],[23.602083,60.810417],[23.597917,60.810417],[23.597917,60.80625]]]},"properties":{"radiance":28.11}},{"type":"Feature","geometry":{"type":"Polygon","coordinates":[[[23.602083,60.80625],[23.60625,60.80625],[23.60625,60.810417],[23.602083,60.810417],[23.602083,60.80625]]]},"properties":{"radiance":22.29}},{"type":"Feature","geometry":{"type":"Polygon","coordinates":[[[23.60625,60.80625],[23.610417,60.80625],[23.610417,60.810417],[23.60625,60.810417],[23.60625,60.80625]]]},"properties":{"radiance":19.03}},{"type":"Feature","geometry":{"type":"Polygon","coordinates":[[[23.610417,60.80625],[23.614583,60.80625],[23.614583,60.810417],[23.610417,60.810417],[23.610417,60.80625]]]},"properties":{"radiance":16.17}},{"type":"Feature","geometry":{"type":"Polygon","coordinates":[[[23.614583,60.80625],[23.61875,60.80625],[23.61875,60.810417],[23.614583,60.810417],[23.614583,60.80625]]]},"properties":{"radiance":15.03}},{"type":"Feature","geometry":{"type":"Polygon","coordinates":[[[23.61875,60.80625],[23.622917,60.80625],[23.622917,60.810417],[23.61875,60.810417],[23.61875,60.80625]]]},"properties":{"radiance":14.33}},{"type":"Feature","geometry":{"type":"Polygon","coordinates":[[[23.622917,60.80625],[23.627083,60.80625],[23.627083,60.810417],[23.622917,60.810417],[23.622917,60.80625]]]},"properties":{"radiance":18.22}},{"type":"Feature","geometry":{"type":"Polygon","coordinates":[[[23.627083,60.80625],[23.63125,60.80625],[23.63125,60.810417],[23.627083,60.810417],[23.627083,60.80625]]]},"properties":{"radiance":17.24}},{"type":"Feature","geometry":{"type":"Polygon","coordinates":[[[23.63125,60.80625],[23.635417,60.80625],[23.635417,60.810417],[23.63125,60.810417],[23.63125,60.80625]]]},"properties":{"radiance":17.97}},{"type":"Feature","geometry":{"type":"Polygon","coordinates":[[[23.635417,60.80625],[23.639583,60.80625],[23.639583,60.810417],[23.635417,60.810417],[23.635417,60.80625]]]},"properties":{"radiance":15.95}},{"type":"Feature","geometry":{"type":"Polygon","coordinates":[[[23.639583,60.80625],[23.64375,60.80625],[23.64375,60.810417],[23.639583,60.810417],[23.639583,60.80625]]]},"properties":{"radiance":10.2}},{"type":"Feature","geometry":{"type":"Polygon","coordinates":[[[23.64375,60.80625],[23.647917,60.80625],[23.647917,60.810417],[23.64375,60.810417],[23.64375,60.80625]]]},"properties":{"radiance":6.79}},{"type":"Feature","geometry":{"type":"Polygon","coordinates":[[[23.272917,60.802083],[23.277083,60.802083],[23.277083,60.80625],[23.272917,60.80625],[23.272917,60.802083]]]},"properties":{"radiance":6.26}},{"type":"Feature","geometry":{"type":"Polygon","coordinates":[[[23.277083,60.802083],[23.28125,60.802083],[23.28125,60.80625],[23.277083,60.80625],[23.277083,60.802083]]]},"properties":{"radiance":5.28}},{"type":"Feature","geometry":{"type":"Polygon","coordinates":[[[23.28125,60.802083],[23.285417,60.802083],[23.285417,60.80625],[23.28125,60.80625],[23.28125,60.802083]]]},"properties":{"radiance":5.27}},{"type":"Feature","geometry":{"type":"Polygon","coordinates":[[[23.472917,60.802083],[23.477083,60.802083],[23.477083,60.80625],[23.472917,60.80625],[23.472917,60.802083]]]},"properties":{"radiance":7.3}},{"type":"Feature","geometry":{"type":"Polygon","coordinates":[[[23.477083,60.802083],[23.48125,60.802083],[23.48125,60.80625],[23.477083,60.80625],[23.477083,60.802083]]]},"properties":{"radiance":10.77}},{"type":"Feature","geometry":{"type":"Polygon","coordinates":[[[23.48125,60.802083],[23.485417,60.802083],[23.485417,60.80625],[23.48125,60.80625],[23.48125,60.802083]]]},"properties":{"radiance":11.02}},{"type":"Feature","geometry":{"type":"Polygon","coordinates":[[[23.485417,60.802083],[23.489583,60.802083],[23.489583,60.80625],[23.485417,60.80625],[23.485417,60.802083]]]},"properties":{"radiance":10.59}},{"type":"Feature","geometry":{"type":"Polygon","coordinates":[[[23.552083,60.802083],[23.55625,60.802083],[23.55625,60.80625],[23.552083,60.80625],[23.552083,60.802083]]]},"properties":{"radiance":11.08}},{"type":"Feature","geometry":{"type":"Polygon","coordinates":[[[23.55625,60.802083],[23.560417,60.802083],[23.560417,60.80625],[23.55625,60.80625],[23.55625,60.802083]]]},"properties":{"radiance":14.8}},{"type":"Feature","geometry":{"type":"Polygon","coordinates":[[[23.560417,60.802083],[23.564583,60.802083],[23.564583,60.80625],[23.560417,60.80625],[23.560417,60.802083]]]},"properties":{"radiance":15.45}},{"type":"Feature","geometry":{"type":"Polygon","coordinates":[[[23.564583,60.802083],[23.56875,60.802083],[23.56875,60.80625],[23.564583,60.80625],[23.564583,60.802083]]]},"properties":{"radiance":5.87}},{"type":"Feature","geometry":{"type":"Polygon","coordinates":[[[23.56875,60.802083],[23.572917,60.802083],[23.572917,60.80625],[23.56875,60.80625],[23.56875,60.802083]]]},"properties":{"radiance":6.98}},{"type":"Feature","geometry":{"type":"Polygon","coordinates":[[[23.572917,60.802083],[23.577083,60.802083],[23.577083,60.80625],[23.572917,60.80625],[23.572917,60.802083]]]},"properties":{"radiance":5.56}},{"type":"Feature","geometry":{"type":"Polygon","coordinates":[[[23.577083,60.802083],[23.58125,60.802083],[23.58125,60.80625],[23.577083,60.80625],[23.577083,60.802083]]]},"properties":{"radiance":5.92}},{"type":"Feature","geometry":{"type":"Polygon","coordinates":[[[23.58125,60.802083],[23.585417,60.802083],[23.585417,60.80625],[23.58125,60.80625],[23.58125,60.802083]]]},"properties":{"radiance":8.68}},{"type":"Feature","geometry":{"type":"Polygon","coordinates":[[[23.585417,60.802083],[23.589583,60.802083],[23.589583,60.80625],[23.585417,60.80625],[23.585417,60.802083]]]},"properties":{"radiance":10.15}},{"type":"Feature","geometry":{"type":"Polygon","coordinates":[[[23.589583,60.802083],[23.59375,60.802083],[23.59375,60.80625],[23.589583,60.80625],[23.589583,60.802083]]]},"properties":{"radiance":12.01}},{"type":"Feature","geometry":{"type":"Polygon","coordinates":[[[23.59375,60.802083],[23.597917,60.802083],[23.597917,60.80625],[23.59375,60.80625],[23.59375,60.802083]]]},"properties":{"radiance":20.47}},{"type":"Feature","geometry":{"type":"Polygon","coordinates":[[[23.597917,60.802083],[23.602083,60.802083],[23.602083,60.80625],[23.597917,60.80625],[23.597917,60.802083]]]},"properties":{"radiance":19.94}},{"type":"Feature","geometry":{"type":"Polygon","coordinates":[[[23.602083,60.802083],[23.60625,60.802083],[23.60625,60.80625],[23.602083,60.80625],[23.602083,60.802083]]]},"properties":{"radiance":17.45}},{"type":"Feature","geometry":{"type":"Polygon","coordinates":[[[23.60625,60.802083],[23.610417,60.802083],[23.610417,60.80625],[23.60625,60.80625],[23.60625,60.802083]]]},"properties":{"radiance":11.61}},{"type":"Feature","geometry":{"type":"Polygon","coordinates":[[[23.610417,60.802083],[23.614583,60.802083],[23.614583,60.80625],[23.610417,60.80625],[23.610417,60.802083]]]},"properties":{"radiance":13.57}},{"type":"Feature","geometry":{"type":"Polygon","coordinates":[[[23.614583,60.802083],[23.61875,60.802083],[23.61875,60.80625],[23.614583,60.80625],[23.614583,60.802083]]]},"properties":{"radiance":13.12}},{"type":"Feature","geometry":{"type":"Polygon","coordinates":[[[23.61875,60.802083],[23.622917,60.802083],[23.622917,60.80625],[23.61875,60.80625],[23.61875,60.802083]]]},"properties":{"radiance":11.46}},{"type":"Feature","geometry":{"type":"Polygon","coordinates":[[[23.622917,60.802083],[23.627083,60.802083],[23.627083,60.80625],[23.622917,60.80625],[23.622917,60.802083]]]},"properties":{"radiance":12.7}},{"type":"Feature","geometry":{"type":"Polygon","coordinates":[[[23.627083,60.802083],[23.63125,60.802083],[23.63125,60.80625],[23.627083,60.80625],[23.627083,60.802083]]]},"properties":{"radiance":13.92}},{"type":"Feature","geometry":{"type":"Polygon","coordinates":[[[23.63125,60.802083],[23.635417,60.802083],[23.635417,60.80625],[23.63125,60.80625],[23.63125,60.802083]]]},"properties":{"radiance":15.2}},{"type":"Feature","geometry":{"type":"Polygon","coordinates":[[[23.635417,60.802083],[23.639583,60.802083],[23.639583,60.80625],[23.635417,60.80625],[23.635417,60.802083]]]},"properties":{"radiance":17.15}},{"type":"Feature","geometry":{"type":"Polygon","coordinates":[[[23.639583,60.802083],[23.64375,60.802083],[23.64375,60.80625],[23.639583,60.80625],[23.639583,60.802083]]]},"properties":{"radiance":12.44}},{"type":"Feature","geometry":{"type":"Polygon","coordinates":[[[23.64375,60.802083],[23.647917,60.802083],[23.647917,60.80625],[23.64375,60.80625],[23.64375,60.802083]]]},"properties":{"radiance":10.47}},{"type":"Feature","geometry":{"type":"Polygon","coordinates":[[[23.560417,60.797917],[23.564583,60.797917],[23.564583,60.802083],[23.560417,60.802083],[23.560417,60.797917]]]},"properties":{"radiance":5.4}},{"type":"Feature","geometry":{"type":"Polygon","coordinates":[[[23.56875,60.797917],[23.572917,60.797917],[23.572917,60.802083],[23.56875,60.802083],[23.56875,60.797917]]]},"properties":{"radiance":5.95}},{"type":"Feature","geometry":{"type":"Polygon","coordinates":[[[23.585417,60.797917],[23.589583,60.797917],[23.589583,60.802083],[23.585417,60.802083],[23.585417,60.797917]]]},"properties":{"radiance":5.74}},{"type":"Feature","geometry":{"type":"Polygon","coordinates":[[[23.589583,60.797917],[23.59375,60.797917],[23.59375,60.802083],[23.589583,60.802083],[23.589583,60.797917]]]},"properties":{"radiance":7.59}},{"type":"Feature","geometry":{"type":"Polygon","coordinates":[[[23.59375,60.797917],[23.597917,60.797917],[23.597917,60.802083],[23.59375,60.802083],[23.59375,60.797917]]]},"properties":{"radiance":7.37}},{"type":"Feature","geometry":{"type":"Polygon","coordinates":[[[23.597917,60.797917],[23.602083,60.797917],[23.602083,60.802083],[23.597917,60.802083],[23.597917,60.797917]]]},"properties":{"radiance":6.36}},{"type":"Feature","geometry":{"type":"Polygon","coordinates":[[[23.602083,60.797917],[23.60625,60.797917],[23.60625,60.802083],[23.602083,60.802083],[23.602083,60.797917]]]},"properties":{"radiance":5.43}},{"type":"Feature","geometry":{"type":"Polygon","coordinates":[[[23.622917,60.797917],[23.627083,60.797917],[23.627083,60.802083],[23.622917,60.802083],[23.622917,60.797917]]]},"properties":{"radiance":8.37}},{"type":"Feature","geometry":{"type":"Polygon","coordinates":[[[23.627083,60.797917],[23.63125,60.797917],[23.63125,60.802083],[23.627083,60.802083],[23.627083,60.797917]]]},"properties":{"radiance":7.14}},{"type":"Feature","geometry":{"type":"Polygon","coordinates":[[[23.63125,60.797917],[23.635417,60.797917],[23.635417,60.802083],[23.63125,60.802083],[23.63125,60.797917]]]},"properties":{"radiance":12.78}},{"type":"Feature","geometry":{"type":"Polygon","coordinates":[[[23.635417,60.797917],[23.639583,60.797917],[23.639583,60.802083],[23.635417,60.802083],[23.635417,60.797917]]]},"properties":{"radiance":11.09}},{"type":"Feature","geometry":{"type":"Polygon","coordinates":[[[23.639583,60.797917],[23.64375,60.797917],[23.64375,60.802083],[23.639583,60.802083],[23.639583,60.797917]]]},"properties":{"radiance":11.95}},{"type":"Feature","geometry":{"type":"Polygon","coordinates":[[[23.64375,60.797917],[23.647917,60.797917],[23.647917,60.802083],[23.64375,60.802083],[23.64375,60.797917]]]},"properties":{"radiance":9.81}},{"type":"Feature","geometry":{"type":"Polygon","coordinates":[[[23.63125,60.79375],[23.635417,60.79375],[23.635417,60.797917],[23.63125,60.797917],[23.63125,60.79375]]]},"properties":{"radiance":8.25}},{"type":"Feature","geometry":{"type":"Polygon","coordinates":[[[23.635417,60.79375],[23.639583,60.79375],[23.639583,60.797917],[23.635417,60.797917],[23.635417,60.79375]]]},"properties":{"radiance":13.05}},{"type":"Feature","geometry":{"type":"Polygon","coordinates":[[[23.639583,60.79375],[23.64375,60.79375],[23.64375,60.797917],[23.639583,60.797917],[23.639583,60.79375]]]},"properties":{"radiance":11.05}},{"type":"Feature","geometry":{"type":"Polygon","coordinates":[[[23.64375,60.79375],[23.647917,60.79375],[23.647917,60.797917],[23.64375,60.797917],[23.64375,60.79375]]]},"properties":{"radiance":11.5}},{"type":"Feature","geometry":{"type":"Polygon","coordinates":[[[23.647917,60.79375],[23.652083,60.79375],[23.652083,60.797917],[23.647917,60.797917],[23.647917,60.79375]]]},"properties":{"radiance":6.21}},{"type":"Feature","geometry":{"type":"Polygon","coordinates":[[[23.56875,60.789583],[23.572917,60.789583],[23.572917,60.79375],[23.56875,60.79375],[23.56875,60.789583]]]},"properties":{"radiance":5.31}},{"type":"Feature","geometry":{"type":"Polygon","coordinates":[[[23.572917,60.789583],[23.577083,60.789583],[23.577083,60.79375],[23.572917,60.79375],[23.572917,60.789583]]]},"properties":{"radiance":9.34}},{"type":"Feature","geometry":{"type":"Polygon","coordinates":[[[23.577083,60.789583],[23.58125,60.789583],[23.58125,60.79375],[23.577083,60.79375],[23.577083,60.789583]]]},"properties":{"radiance":9.42}},{"type":"Feature","geometry":{"type":"Polygon","coordinates":[[[23.58125,60.789583],[23.585417,60.789583],[23.585417,60.79375],[23.58125,60.79375],[23.58125,60.789583]]]},"properties":{"radiance":12.24}},{"type":"Feature","geometry":{"type":"Polygon","coordinates":[[[23.585417,60.789583],[23.589583,60.789583],[23.589583,60.79375],[23.585417,60.79375],[23.585417,60.789583]]]},"properties":{"radiance":9.2}},{"type":"Feature","geometry":{"type":"Polygon","coordinates":[[[23.589583,60.789583],[23.59375,60.789583],[23.59375,60.79375],[23.589583,60.79375],[23.589583,60.789583]]]},"properties":{"radiance":6.13}},{"type":"Feature","geometry":{"type":"Polygon","coordinates":[[[23.63125,60.789583],[23.635417,60.789583],[23.635417,60.79375],[23.63125,60.79375],[23.63125,60.789583]]]},"properties":{"radiance":5.31}},{"type":"Feature","geometry":{"type":"Polygon","coordinates":[[[23.635417,60.789583],[23.639583,60.789583],[23.639583,60.79375],[23.635417,60.79375],[23.635417,60.789583]]]},"properties":{"radiance":12.44}},{"type":"Feature","geometry":{"type":"Polygon","coordinates":[[[23.639583,60.789583],[23.64375,60.789583],[23.64375,60.79375],[23.639583,60.79375],[23.639583,60.789583]]]},"properties":{"radiance":13.9}},{"type":"Feature","geometry":{"type":"Polygon","coordinates":[[[23.64375,60.789583],[23.647917,60.789583],[23.647917,60.79375],[23.64375,60.79375],[23.64375,60.789583]]]},"properties":{"radiance":11.88}},{"type":"Feature","geometry":{"type":"Polygon","coordinates":[[[23.647917,60.789583],[23.652083,60.789583],[23.652083,60.79375],[23.647917,60.79375],[23.647917,60.789583]]]},"properties":{"radiance":7.91}},{"type":"Feature","geometry":{"type":"Polygon","coordinates":[[[23.652083,60.789583],[23.65625,60.789583],[23.65625,60.79375],[23.652083,60.79375],[23.652083,60.789583]]]},"properties":{"radiance":6.81}},{"type":"Feature","geometry":{"type":"Polygon","coordinates":[[[23.627083,60.785417],[23.63125,60.785417],[23.63125,60.789583],[23.627083,60.789583],[23.627083,60.785417]]]},"properties":{"radiance":5.07}},{"type":"Feature","geometry":{"type":"Polygon","coordinates":[[[23.635417,60.785417],[23.639583,60.785417],[23.639583,60.789583],[23.635417,60.789583],[23.635417,60.785417]]]},"properties":{"radiance":5.76}},{"type":"Feature","geometry":{"type":"Polygon","coordinates":[[[23.639583,60.785417],[23.64375,60.785417],[23.64375,60.789583],[23.639583,60.789583],[23.639583,60.785417]]]},"properties":{"radiance":6.4}},{"type":"Feature","geometry":{"type":"Polygon","coordinates":[[[23.64375,60.785417],[23.647917,60.785417],[23.647917,60.789583],[23.64375,60.789583],[23.64375,60.785417]]]},"properties":{"radiance":5.44}},{"type":"Feature","geometry":{"type":"Polygon","coordinates":[[[23.672917,60.785417],[23.677083,60.785417],[23.677083,60.789583],[23.672917,60.789583],[23.672917,60.785417]]]},"properties":{"radiance":6.38}},{"type":"Feature","geometry":{"type":"Polygon","coordinates":[[[23.677083,60.785417],[23.68125,60.785417],[23.68125,60.789583],[23.677083,60.789583],[23.677083,60.785417]]]},"properties":{"radiance":6.25}},{"type":"Feature","geometry":{"type":"Polygon","coordinates":[[[23.68125,60.785417],[23.685417,60.785417],[23.685417,60.789583],[23.68125,60.789583],[23.68125,60.785417]]]},"properties":{"radiance":6.85}},{"type":"Feature","geometry":{"type":"Polygon","coordinates":[[[23.785417,60.727083],[23.789583,60.727083],[23.789583,60.73125],[23.785417,60.73125],[23.785417,60.727083]]]},"properties":{"radiance":5.51}},{"type":"Feature","geometry":{"type":"Polygon","coordinates":[[[23.78125,60.722917],[23.785417,60.722917],[23.785417,60.727083],[23.78125,60.727083],[23.78125,60.722917]]]},"properties":{"radiance":5.59}},{"type":"Feature","geometry":{"type":"Polygon","coordinates":[[[23.13125,60.660417],[23.135417,60.660417],[23.135417,60.664583],[23.13125,60.664583],[23.13125,60.660417]]]},"properties":{"radiance":5.88}},{"type":"Feature","geometry":{"type":"Polygon","coordinates":[[[23.135417,60.660417],[23.139583,60.660417],[23.139583,60.664583],[23.135417,60.664583],[23.135417,60.660417]]]},"properties":{"radiance":7.4}},{"type":"Feature","geometry":{"type":"Polygon","coordinates":[[[23.139583,60.660417],[23.14375,60.660417],[23.14375,60.664583],[23.139583,60.664583],[23.139583,60.660417]]]},"properties":{"radiance":6.77}},{"type":"Feature","geometry":{"type":"Polygon","coordinates":[[[23.127083,60.65625],[23.13125,60.65625],[23.13125,60.660417],[23.127083,60.660417],[23.127083,60.65625]]]},"properties":{"radiance":6.19}},{"type":"Feature","geometry":{"type":"Polygon","coordinates":[[[23.13125,60.65625],[23.135417,60.65625],[23.135417,60.660417],[23.13125,60.660417],[23.13125,60.65625]]]},"properties":{"radiance":8.96}},{"type":"Feature","geometry":{"type":"Polygon","coordinates":[[[23.135417,60.65625],[23.139583,60.65625],[23.139583,60.660417],[23.135417,60.660417],[23.135417,60.65625]]]},"properties":{"radiance":9.51}},{"type":"Feature","geometry":{"type":"Polygon","coordinates":[[[23.139583,60.65625],[23.14375,60.65625],[23.14375,60.660417],[23.139583,60.660417],[23.139583,60.65625]]]},"properties":{"radiance":9.21}},{"type":"Feature","geometry":{"type":"Polygon","coordinates":[[[23.127083,60.652083],[23.13125,60.652083],[23.13125,60.65625],[23.127083,60.65625],[23.127083,60.652083]]]},"properties":{"radiance":5.94}},{"type":"Feature","geometry":{"type":"Polygon","coordinates":[[[23.13125,60.652083],[23.135417,60.652083],[23.135417,60.65625],[23.13125,60.65625],[23.13125,60.652083]]]},"properties":{"radiance":6.63}},{"type":"Feature","geometry":{"type":"Polygon","coordinates":[[[23.135417,60.652083],[23.139583,60.652083],[23.139583,60.65625],[23.135417,60.65625],[23.135417,60.652083]]]},"properties":{"radiance":7.83}},{"type":"Feature","geometry":{"type":"Polygon","coordinates":[[[23.139583,60.652083],[23.14375,60.652083],[23.14375,60.65625],[23.139583,60.65625],[23.139583,60.652083]]]},"properties":{"radiance":6.91}},{"type":"Feature","geometry":{"type":"Polygon","coordinates":[[[23.13125,60.647917],[23.135417,60.647917],[23.135417,60.652083],[23.13125,60.652083],[23.13125,60.647917]]]},"properties":{"radiance":5.37}},{"type":"Feature","geometry":{"type":"Polygon","coordinates":[[[23.50625,60.639583],[23.510417,60.639583],[23.510417,60.64375],[23.50625,60.64375],[23.50625,60.639583]]]},"properties":{"radiance":9.36}},{"type":"Feature","geometry":{"type":"Polygon","coordinates":[[[23.510417,60.639583],[23.514583,60.639583],[23.514583,60.64375],[23.510417,60.64375],[23.510417,60.639583]]]},"properties":{"radiance":10.05}},{"type":"Feature","geometry":{"type":"Polygon","coordinates":[[[23.514583,60.639583],[23.51875,60.639583],[23.51875,60.64375],[23.514583,60.64375],[23.514583,60.639583]]]},"properties":{"radiance":10.33}},{"type":"Feature","geometry":{"type":"Polygon","coordinates":[[[23.49375,60.635417],[23.497917,60.635417],[23.497917,60.639583],[23.49375,60.639583],[23.49375,60.635417]]]},"properties":{"radiance":5.27}},{"type":"Feature","geometry":{"type":"Polygon","coordinates":[[[23.497917,60.635417],[23.502083,60.635417],[23.502083,60.639583],[23.497917,60.639583],[23.497917,60.635417]]]},"properties":{"radiance":7.19}},{"type":"Feature","geometry":{"type":"Polygon","coordinates":[[[23.502083,60.635417],[23.50625,60.635417],[23.50625,60.639583],[23.502083,60.639583],[23.502083,60.635417]]]},"properties":{"radiance":12.79}},{"type":"Feature","geometry":{"type":"Polygon","coordinates":[[[23.50625,60.635417],[23.510417,60.635417],[23.510417,60.639583],[23.50625,60.639583],[23.50625,60.635417]]]},"properties":{"radiance":16.21}},{"type":"Feature","geometry":{"type":"Polygon","coordinates":[[[23.510417,60.635417],[23.514583,60.635417],[23.514583,60.639583],[23.510417,60.639583],[23.510417,60.635417]]]},"properties":{"radiance":14.81}},{"type":"Feature","geometry":{"type":"Polygon","coordinates":[[[23.514583,60.635417],[23.51875,60.635417],[23.51875,60.639583],[23.514583,60.639583],[23.514583,60.635417]]]},"properties":{"radiance":15.54}},{"type":"Feature","geometry":{"type":"Polygon","coordinates":[[[23.51875,60.635417],[23.522917,60.635417],[23.522917,60.639583],[23.51875,60.639583],[23.51875,60.635417]]]},"properties":{"radiance":10.88}},{"type":"Feature","geometry":{"type":"Polygon","coordinates":[[[23.522917,60.635417],[23.527083,60.635417],[23.527083,60.639583],[23.522917,60.639583],[23.522917,60.635417]]]},"properties":{"radiance":6.27}},{"type":"Feature","geometry":{"type":"Polygon","coordinates":[[[23.489583,60.63125],[23.49375,60.63125],[23.49375,60.635417],[23.489583,60.635417],[23.489583,60.63125]]]},"properties":{"radiance":5.3}},{"type":"Feature","geometry":{"type":"Polygon","coordinates":[[[23.49375,60.63125],[23.497917,60.63125],[23.497917,60.635417],[23.49375,60.635417],[23.49375,60.63125]]]},"properties":{"radiance":6.08}},{"type":"Feature","geometry":{"type":"Polygon","coordinates":[[[23.497917,60.63125],[23.502083,60.63125],[23.502083,60.635417],[23.497917,60.635417],[23.497917,60.63125]]]},"properties":{"radiance":10.34}},{"type":"Feature","geometry":{"type":"Polygon","coordinates":[[[23.502083,60.63125],[23.50625,60.63125],[23.50625,60.635417],[23.502083,60.635417],[23.502083,60.63125]]]},"properties":{"radiance":8.64}},{"type":"Feature","geometry":{"type":"Polygon","coordinates":[[[23.50625,60.63125],[23.510417,60.63125],[23.510417,60.635417],[23.50625,60.635417],[23.50625,60.63125]]]},"properties":{"radiance":19.12}},{"type":"Feature","geometry":{"type":"Polygon","coordinates":[[[23.510417,60.63125],[23.514583,60.63125],[23.514583,60.635417],[23.510417,60.635417],[23.510417,60.63125]]]},"properties":{"radiance":22.36}},{"type":"Feature","geometry":{"type":"Polygon","coordinates":[[[23.514583,60.63125],[23.51875,60.63125],[23.51875,60.635417],[23.514583,60.635417],[23.514583,60.63125]]]},"properties":{"radiance":20.83}},{"type":"Feature","geometry":{"type":"Polygon","coordinates":[[[23.51875,60.63125],[23.522917,60.63125],[23.522917,60.635417],[23.51875,60.635417],[23.51875,60.63125]]]},"properties":{"radiance":12.32}},{"type":"Feature","geometry":{"type":"Polygon","coordinates":[[[23.522917,60.63125],[23.527083,60.63125],[23.527083,60.635417],[23.522917,60.635417],[23.522917,60.63125]]]},"properties":{"radiance":12.29}},{"type":"Feature","geometry":{"type":"Polygon","coordinates":[[[23.527083,60.63125],[23.53125,60.63125],[23.53125,60.635417],[23.527083,60.635417],[23.527083,60.63125]]]},"properties":{"radiance":7.32}},{"type":"Feature","geometry":{"type":"Polygon","coordinates":[[[23.53125,60.63125],[23.535417,60.63125],[23.535417,60.635417],[23.53125,60.635417],[23.53125,60.63125]]]},"properties":{"radiance":6.63}},{"type":"Feature","geometry":{"type":"Polygon","coordinates":[[[23.922917,60.63125],[23.927083,60.63125],[23.927083,60.635417],[23.922917,60.635417],[23.922917,60.63125]]]},"properties":{"radiance":6.46}},{"type":"Feature","geometry":{"type":"Polygon","coordinates":[[[23.927083,60.63125],[23.93125,60.63125],[23.93125,60.635417],[23.927083,60.635417],[23.927083,60.63125]]]},"properties":{"radiance":7.44}},{"type":"Feature","geometry":{"type":"Polygon","coordinates":[[[23.497917,60.627083],[23.502083,60.627083],[23.502083,60.63125],[23.497917,60.63125],[23.497917,60.627083]]]},"properties":{"radiance":5.08}},{"type":"Feature","geometry":{"type":"Polygon","coordinates":[[[23.502083,60.627083],[23.50625,60.627083],[23.50625,60.63125],[23.502083,60.63125],[23.502083,60.627083]]]},"properties":{"radiance":8.65}},{"type":"Feature","geometry":{"type":"Polygon","coordinates":[[[23.50625,60.627083],[23.510417,60.627083],[23.510417,60.63125],[23.50625,60.63125],[23.50625,60.627083]]]},"properties":{"radiance":8.97}},{"type":"Feature","geometry":{"type":"Polygon","coordinates":[[[23.510417,60.627083],[23.514583,60.627083],[23.514583,60.63125],[23.510417,60.63125],[23.510417,60.627083]]]},"properties":{"radiance":11.04}},{"type":"Feature","geometry":{"type":"Polygon","coordinates":[[[23.514583,60.627083],[23.51875,60.627083],[23.51875,60.63125],[23.514583,60.63125],[23.514583,60.627083]]]},"properties":{"radiance":11.39}},{"type":"Feature","geometry":{"type":"Polygon","coordinates":[[[23.51875,60.627083],[23.522917,60.627083],[23.522917,60.63125],[23.51875,60.63125],[23.51875,60.627083]]]},"properties":{"radiance":11.08}},{"type":"Feature","geometry":{"type":"Polygon","coordinates":[[[23.522917,60.627083],[23.527083,60.627083],[23.527083,60.63125],[23.522917,60.63125],[23.522917,60.627083]]]},"properties":{"radiance":9.3}},{"type":"Feature","geometry":{"type":"Polygon","coordinates":[[[23.527083,60.627083],[23.53125,60.627083],[23.53125,60.63125],[23.527083,60.63125],[23.527083,60.627083]]]},"properties":{"radiance":7.46}},{"type":"Feature","geometry":{"type":"Polygon","coordinates":[[[23.53125,60.627083],[23.535417,60.627083],[23.535417,60.63125],[23.53125,60.63125],[23.53125,60.627083]]]},"properties":{"radiance":6.15}},{"type":"Feature","geometry":{"type":"Polygon","coordinates":[[[23.502083,60.622917],[23.50625,60.622917],[23.50625,60.627083],[23.502083,60.627083],[23.502083,60.622917]]]},"properties":{"radiance":7.76}},{"type":"Feature","geometry":{"type":"Polygon","coordinates":[[[23.50625,60.622917],[23.510417,60.622917],[23.510417,60.627083],[23.50625,60.627083],[23.50625,60.622917]]]},"properties":{"radiance":8.88}},{"type":"Feature","geometry":{"type":"Polygon","coordinates":[[[23.510417,60.622917],[23.514583,60.622917],[23.514583,60.627083],[23.510417,60.627083],[23.510417,60.622917]]]},"properties":{"radiance":9.61}},{"type":"Feature","geometry":{"type":"Polygon","coordinates":[[[23.514583,60.622917],[23.51875,60.622917],[23.51875,60.627083],[23.514583,60.627083],[23.514583,60.622917]]]},"properties":{"radiance":9.82}},{"type":"Feature","geometry":{"type":"Polygon","coordinates":[[[23.51875,60.622917],[23.522917,60.622917],[23.522917,60.627083],[23.51875,60.627083],[23.51875,60.622917]]]},"properties":{"radiance":9.63}},{"type":"Feature","geometry":{"type":"Polygon","coordinates":[[[23.522917,60.622917],[23.527083,60.622917],[23.527083,60.627083],[23.522917,60.627083],[23.522917,60.622917]]]},"properties":{"radiance":8.08}},{"type":"Feature","geometry":{"type":"Polygon","coordinates":[[[23.527083,60.622917],[23.53125,60.622917],[23.53125,60.627083],[23.527083,60.627083],[23.527083,60.622917]]]},"properties":{"radiance":6.31}},{"type":"Feature","geometry":{"type":"Polygon","coordinates":[[[23.53125,60.622917],[23.535417,60.622917],[23.535417,60.627083],[23.53125,60.627083],[23.53125,60.622917]]]},"properties":{"radiance":6.5}},{"type":"Feature","geometry":{"type":"Polygon","coordinates":[[[23.502083,60.61875],[23.50625,60.61875],[23.50625,60.622917],[23.502083,60.622917],[23.502083,60.61875]]]},"properties":{"radiance":6.64}},{"type":"Feature","geometry":{"type":"Polygon","coordinates":[[[23.50625,60.61875],[23.510417,60.61875],[23.510417,60.622917],[23.50625,60.622917],[23.50625,60.61875]]]},"properties":{"radiance":7.41}},{"type":"Feature","geometry":{"type":"Polygon","coordinates":[[[23.510417,60.61875],[23.514583,60.61875],[23.514583,60.622917],[23.510417,60.622917],[23.510417,60.61875]]]},"properties":{"radiance":8.01}},{"type":"Feature","geometry":{"type":"Polygon","coordinates":[[[23.514583,60.61875],[23.51875,60.61875],[23.51875,60.622917],[23.514583,60.622917],[23.514583,60.61875]]]},"properties":{"radiance":8.28}},{"type":"Feature","geometry":{"type":"Polygon","coordinates":[[[23.51875,60.61875],[23.522917,60.61875],[23.522917,60.622917],[23.51875,60.622917],[23.51875,60.61875]]]},"properties":{"radiance":9.96}},{"type":"Feature","geometry":{"type":"Polygon","coordinates":[[[23.522917,60.61875],[23.527083,60.61875],[23.527083,60.622917],[23.522917,60.622917],[23.522917,60.61875]]]},"properties":{"radiance":8.71}},{"type":"Feature","geometry":{"type":"Polygon","coordinates":[[[23.527083,60.61875],[23.53125,60.61875],[23.53125,60.622917],[23.527083,60.622917],[23.527083,60.61875]]]},"properties":{"radiance":7.15}},{"type":"Feature","geometry":{"type":"Polygon","coordinates":[[[23.53125,60.61875],[23.535417,60.61875],[23.535417,60.622917],[23.53125,60.622917],[23.53125,60.61875]]]},"properties":{"radiance":5.12}}]}