{"type":"FeatureCollection","features":[{"type":"Feature","geometry":{"type":"Polygon","coordinates":[[[24.06875,62.55625],[24.072917,62.55625],[24.072917,62.560417],[24.06875,62.560417],[24.06875,62.55625]]]},"properties":{"radiance":5.46}},{"type":"Feature","geometry":{"type":"Polygon","coordinates":[[[24.08125,62.55625],[24.085417,62.55625],[24.085417,62.560417],[24.08125,62.560417],[24.08125,62.55625]]]},"properties":{"radiance":7.59}},{"type":"Feature","geometry":{"type":"Polygon","coordinates":[[[24.089583,62.55625],[24.09375,62.55625],[24.09375,62.560417],[24.089583,62.560417],[24.089583,62.55625]]]},"properties":{"radiance":5.92}},{"type":"Feature","geometry":{"type":"Polygon","coordinates":[[[24.097917,62.55625],[24.102083,62.55625],[24.102083,62.560417],[24.097917,62.560417],[24.097917,62.55625]]]},"properties":{"radiance":5.63}},{"type":"Feature","geometry":{"type":"Polygon","coordinates":[[[24.060417,62.552083],[24.064583,62.552083],[24.064583,62.55625],[24.060417,62.55625],[24.060417,62.552083]]]},"properties":{"radiance":5.54}},{"type":"Feature","geometry":{"type":"Polygon","coordinates":[[[24.064583,62.552083],[24.06875,62.552083],[24.06875,62.55625],[24.064583,62.55625],[24.064583,62.552083]]]},"properties":{"radiance":6.88}},{"type":"Feature","geometry":{"type":"Polygon","coordinates":[[[24.06875,62.552083],[24.072917,62.552083],[24.072917,62.55625],[24.06875,62.55625],[24.06875,62.552083]]]},"properties":{"radiance":8.07}},{"type":"Feature","geometry":{"type":"Polygon","coordinates":[[[24.072917,62.552083],[24.077083,62.552083],[24.077083,62.55625],[24.072917,62.55625],[24.072917,62.552083]]]},"properties":{"radiance":8.19}},{"type":"Feature","geometry":{"type":"Polygon","coordinates":[[[24.077083,62.552083],[24.08125,62.552083],[24.08125,62.55625],[24.077083,62.55625],[24.077083,62.552083]]]},"properties":{"radiance":8.4}},{"type":"Feature","geometry":{"type":"Polygon","coordinates":[[[24.08125,62.552083],[24.085417,62.552083],[24.085417,62.55625],[24.08125,62.55625],[24.08125,62.552083]]]},"properties":{"radiance":10.73}},{"type":"Feature","geometry":{"type":"Polygon","coordinates":[[[24.085417,62.552083],[24.089583,62.552083],[24.089583,62.55625],[24.085417,62.55625],[24.085417,62.552083]]]},"properties":{"radiance":8.07}},{"type":"Feature","geometry":{"type":"Polygon","coordinates":[[[24.089583,62.552083],[24.09375,62.552083],[24.09375,62.55625],[24.089583,62.55625],[24.089583,62.552083]]]},"properties":{"radiance":7.08}},{"type":"Feature","geometry":{"type":"Polygon","coordinates":[[[24.09375,62.552083],[24.097917,62.552083],[24.097917,62.55625],[24.09375,62.55625],[24.09375,62.552083]]]},"properties":{"radiance":5.7}},{"type":"Feature","geometry":{"type":"Polygon","coordinates":[[[24.097917,62.552083],[24.102083,62.552083],[24.102083,62.55625],[24.097917,62.55625],[24.097917,62.552083]]]},"properties":{"radiance":5.19}},{"type":"Feature","geometry":{"type":"Polygon","coordinates":[[[24.102083,62.552083],[24.10625,62.552083],[24.10625,62.55625],[24.102083,62.55625],[24.102083,62.552083]]]},"properties":{"radiance":5.41}},{"type":"Feature","geometry":{"type":"Polygon","coordinates":[[[24.072917,62.547917],[24.077083,62.547917],[24.077083,62.552083],[24.072917,62.552083],[24.072917,62.547917]]]},"properties":{"radiance":5.08}},{"type":"Feature","geometry":{"type":"Polygon","coordinates":[[[24.077083,62.547917],[24.08125,62.547917],[24.08125,62.552083],[24.077083,62.552083],[24.077083,62.547917]]]},"properties":{"radiance":9.05}},{"type":"Feature","geometry":{"type":"Polygon","coordinates":[[[24.08125,62.547917],[24.085417,62.547917],[24.085417,62.552083],[24.08125,62.552083],[24.08125,62.547917]]]},"properties":{"radiance":9.76}},{"type":"Feature","geometry":{"type":"Polygon","coordinates":[[[24.085417,62.547917],[24.089583,62.547917],[24.089583,62.552083],[24.085417,62.552083],[24.085417,62.547917]]]},"properties":{"radiance":7.69}},{"type":"Feature","geometry":{"type":"Polygon","coordinates":[[[24.089583,62.547917],[24.09375,62.547917],[24.09375,62.552083],[24.089583,62.552083],[24.089583,62.547917]]]},"properties":{"radiance":7.13}},{"type":"Feature","geometry":{"type":"Polygon","coordinates":[[[24.172917,62.535417],[24.177083,62.535417],[24.177083,62.539583],[24.172917,62.539583],[24.172917,62.535417]]]},"properties":{"radiance":6.37}},{"type":"Feature","geometry":{"type":"Polygon","coordinates":[[[24.177083,62.535417],[24.18125,62.535417],[24.18125,62.539583],[24.177083,62.539583],[24.177083,62.535417]]]},"properties":{"radiance":7.37}},{"type":"Feature","geometry":{"type":"Polygon","coordinates":[[[24.785417,62.40625],[24.789583,62.40625],[24.789583,62.410417],[24.785417,62.410417],[24.785417,62.40625]]]},"properties":{"radiance":6.52}},{"type":"Feature","geometry":{"type":"Polygon","coordinates":[[[24.789583,62.40625],[24.79375,62.40625],[24.79375,62.410417],[24.789583,62.410417],[24.789583,62.40625]]]},"properties":{"radiance":5.26}},{"type":"Feature","geometry":{"type":"Polygon","coordinates":[[[24.702083,62.272917],[24.70625,62.272917],[24.70625,62.277083],[24.702083,62.277083],[24.702083,62.272917]]]},"properties":{"radiance":5.09}},{"type":"Feature","geometry":{"type":"Polygon","coordinates":[[[24.697917,62.26875],[24.702083,62.26875],[24.702083,62.272917],[24.697917,62.272917],[24.697917,62.26875]]]},"properties":{"radiance":5.43}},{"type":"Feature","geometry":{"type":"Polygon","coordinates":[[[24.689583,62.264583],[24.69375,62.264583],[24.69375,62.26875],[24.689583,62.26875],[24.689583,62.264583]]]},"properties":{"radiance":6.93}},{"type":"Feature","geometry":{"type":"Polygon","coordinates":[[[24.69375,62.264583],[24.697917,62.264583],[24.697917,62.26875],[24.69375,62.26875],[24.69375,62.264583]]]},"properties":{"radiance":16.85}},{"type":"Feature","geometry":{"type":"Polygon","coordinates":[[[24.697917,62.264583],[24.702083,62.264583],[24.702083,62.26875],[24.697917,62.26875],[24.697917,62.264583]]]},"properties":{"radiance":20.53}},{"type":"Feature","geometry":{"type":"Polygon","coordinates":[[[24.702083,62.264583],[24.70625,62.264583],[24.70625,62.26875],[24.702083,62.26875],[24.702083,62.264583]]]},"properties":{"radiance":16.81}},{"type":"Feature","geometry":{"type":"Polygon","coordinates":[[[24.710417,62.264583],[24.714583,62.264583],[24.714583,62.26875],[24.710417,62.26875],[24.710417,62.264583]]]},"properties":{"radiance":7.62}},{"type":"Feature","geometry":{"type":"Polygon","coordinates":[[[24.677083,62.260417],[24.68125,62.260417],[24.68125,62.264583],[24.677083,62.264583],[24.677083,62.260417]]]},"properties":{"radiance":7.57}},{"type":"Feature","geometry":{"type":"Polygon","coordinates":[[[24.68125,62.260417],[24.685417,62.260417],[24.685417,62.264583],[24.68125,62.264583],[24.68125,62.260417]]]},"properties":{"radiance":5.8}},{"type":"Feature","geometry":{"type":"Polygon","coordinates":[[[24.685417,62.260417],[24.689583,62.260417],[24.689583,62.264583],[24.685417,62.264583],[24.685417,62.260417]]]},"properties":{"radiance":9.13}},{"type":"Feature","geometry":{"type":"Polygon","coordinates":[[[24.689583,62.260417],[24.69375,62.260417],[24.69375,62.264583],[24.689583,62.264583],[24.689583,62.260417]]]},"properties":{"radiance":11.46}},{"type":"Feature","geometry":{"type":"Polygon","coordinates":[[[24.69375,62.260417],[24.697917,62.260417],[24.697917,62.264583],[24.69375,62.264583],[24.69375,62.260417]]]},"properties":{"radiance":11.46}},{"type":"Feature","geometry":{"type":"Polygon","coordinates":[[[24.697917,62.260417],[24.702083,62.260417],[24.702083,62.264583],[24.697917,62.264583],[24.697917,62.260417]]]},"properties":{"radiance":8.24}},{"type":"Feature","geometry":{"type":"Polygon","coordinates":[[[24.702083,62.260417],[24.70625,62.260417],[24.70625,62.264583],[24.702083,62.264583],[24.702083,62.260417]]]},"properties":{"radiance":10.65}},{"type":"Feature","geometry":{"type":"Polygon","coordinates":[[[24.70625,62.260417],[24.710417,62.260417],[24.710417,62.264583],[24.70625,62.264583],[24.70625,62.260417]]]},"properties":{"radiance":12.27}},{"type":"Feature","geometry":{"type":"Polygon","coordinates":[[[24.710417,62.260417],[24.714583,62.260417],[24.714583,62.264583],[24.710417,62.264583],[24.710417,62.260417]]]},"properties":{"radiance":8.33}},{"type":"Feature","geometry":{"type":"Polygon","coordinates":[[[24.677083,62.25625],[24.68125,62.25625],[24.68125,62.260417],[24.677083,62.260417],[24.677083,62.25625]]]},"properties":{"radiance":5.68}},{"type":"Feature","geometry":{"type":"Polygon","coordinates":[[[24.68125,62.25625],[24.685417,62.25625],[24.685417,62.260417],[24.68125,62.260417],[24.68125,62.25625]]]},"properties":{"radiance":14.68}},{"type":"Feature","geometry":{"type":"Polygon","coordinates":[[[24.685417,62.25625],[24.689583,62.25625],[24.689583,62.260417],[24.685417,62.260417],[24.685417,62.25625]]]},"properties":{"radiance":11.24}},{"type":"Feature","geometry":{"type":"Polygon","coordinates":[[[24.689583,62.25625],[24.69375,62.25625],[24.69375,62.260417],[24.689583,62.260417],[24.689583,62.25625]]]},"properties":{"radiance":8.55}},{"type":"Feature","geometry":{"type":"Polygon","coordinates":[[[24.69375,62.25625],[24.697917,62.25625],[24.697917,62.260417],[24.69375,62.260417],[24.69375,62.25625]]]},"properties":{"radiance":9.73}},{"type":"Feature","geometry":{"type":"Polygon","coordinates":[[[24.697917,62.25625],[24.702083,62.25625],[24.702083,62.260417],[24.697917,62.260417],[24.697917,62.25625]]]},"properties":{"radiance":7.77}},{"type":"Feature","geometry":{"type":"Polygon","coordinates":[[[24.702083,62.25625],[24.70625,62.25625],[24.70625,62.260417],[24.702083,62.260417],[24.702083,62.25625]]]},"properties":{"radiance":5.37}},{"type":"Feature","geometry":{"type":"Polygon","coordinates":[[[24.70625,62.25625],[24.710417,62.25625],[24.710417,62.260417],[24.70625,62.260417],[24.70625,62.25625]]]},"properties":{"radiance":6.48}},{"type":"Feature","geometry":{"type":"Polygon","coordinates":[[[24.710417,62.25625],[24.714583,62.25625],[24.714583,62.260417],[24.710417,62.260417],[24.710417,62.25625]]]},"properties":{"radiance":7.1}},{"type":"Feature","geometry":{"type":"Polygon","coordinates":[[[24.714583,62.25625],[24.71875,62.25625],[24.71875,62.260417],[24.714583,62.260417],[24.714583,62.25625]]]},"properties":{"radiance":6.81}},{"type":"Feature","geometry":{"type":"Polygon","coordinates":[[[24.71875,62.25625],[24.722917,62.25625],[24.722917,62.260417],[24.71875,62.260417],[24.71875,62.25625]]]},"properties":{"radiance":5.07}},{"type":"Feature","geometry":{"type":"Polygon","coordinates":[[[24.74375,62.25625],[24.747917,62.25625],[24.747917,62.260417],[24.74375,62.260417],[24.74375,62.25625]]]},"properties":{"radiance":8.29}},{"type":"Feature","geometry":{"type":"Polygon","coordinates":[[[24.45625,62.252083],[24.460417,62.252083],[24.460417,62.25625],[24.45625,62.25625],[24.45625,62.252083]]]},"properties":{"radiance":15.1}},{"type":"Feature","geometry":{"type":"Polygon","coordinates":[[[24.68125,62.252083],[24.685417,62.252083],[24.685417,62.25625],[24.68125,62.25625],[24.68125,62.252083]]]},"properties":{"radiance":5.23}},{"type":"Feature","geometry":{"type":"Polygon","coordinates":[[[24.685417,62.252083],[24.689583,62.252083],[24.689583,62.25625],[24.685417,62.25625],[24.685417,62.252083]]]},"properties":{"radiance":9.37}},{"type":"Feature","geometry":{"type":"Polygon","coordinates":[[[24.689583,62.252083],[24.69375,62.252083],[24.69375,62.25625],[24.689583,62.25625],[24.689583,62.252083]]]},"properties":{"radiance":6.6}},{"type":"Feature","geometry":{"type":"Polygon","coordinates":[[[24.697917,62.252083],[24.702083,62.252083],[24.702083,62.25625],[24.697917,62.25625],[24.697917,62.252083]]]},"properties":{"radiance":5.72}},{"type":"Feature","geometry":{"type":"Polygon","coordinates":[[[24.702083,62.252083],[24.70625,62.252083],[24.70625,62.25625],[24.702083,62.25625],[24.702083,62.252083]]]},"properties":{"radiance":5.37}},{"type":"Feature","geometry":{"type":"Polygon","coordinates":[[[24.70625,62.252083],[24.710417,62.252083],[24.710417,62.25625],[24.70625,62.25625],[24.70625,62.252083]]]},"properties":{"radiance":7.9}},{"type":"Feature","geometry":{"type":"Polygon","coordinates":[[[24.710417,62.252083],[24.714583,62.252083],[24.714583,62.25625],[24.710417,62.25625],[24.710417,62.252083]]]},"properties":{"radiance":11.71}},{"type":"Feature","geometry":{"type":"Polygon","coordinates":[[[24.714583,62.252083],[24.71875,62.252083],[24.71875,62.25625],[24.714583,62.25625],[24.714583,62.252083]]]},"properties":{"radiance":6.21}},{"type":"Feature","geometry":{"type":"Polygon","coordinates":[[[24.71875,62.252083],[24.722917,62.252083],[24.722917,62.25625],[24.71875,62.25625],[24.71875,62.252083]]]},"properties":{"radiance":23.93}},{"type":"Feature","geometry":{"type":"Polygon","coordinates":[[[24.722917,62.252083],[24.727083,62.252083],[24.727083,62.25625],[24.722917,62.25625],[24.722917,62.252083]]]},"properties":{"radiance":9.15}},{"type":"Feature","geometry":{"type":"Polygon","coordinates":[[[24.727083,62.252083],[24.73125,62.252083],[24.73125,62.25625],[24.727083,62.25625],[24.727083,62.252083]]]},"properties":{"radiance":7.96}},{"type":"Feature","geometry":{"type":"Polygon","coordinates":[[[24.73125,62.252083],[24.735417,62.252083],[24.735417,62.25625],[24.73125,62.25625],[24.73125,62.252083]]]},"properties":{"radiance":11.02}},{"type":"Feature","geometry":{"type":"Polygon","coordinates":[[[24.735417,62.252083],[24.739583,62.252083],[24.739583,62.25625],[24.735417,62.25625],[24.735417,62.252083]]]},"properties":{"radiance":6.8}},{"type":"Feature","geometry":{"type":"Polygon","coordinates":[[[24.739583,62.252083],[24.74375,62.252083],[24.74375,62.25625],[24.739583,62.25625],[24.739583,62.252083]]]},"properties":{"radiance":5.28}},{"type":"Feature","geometry":{"type":"Polygon","coordinates":[[[24.74375,62.252083],[24.747917,62.252083],[24.747917,62.25625],[24.74375,62.25625],[24.74375,62.252083]]]},"properties":{"radiance":6.48}},{"type":"Feature","geometry":{"type":"Polygon","coordinates":[[[24.44375,62.247917],[24.447917,62.247917],[24.447917,62.252083],[24.44375,62.252083],[24.44375,62.247917]]]},"properties":{"radiance":8.27}},{"type":"Feature","geometry":{"type":"Polygon","coordinates":[[[24.45625,62.247917],[24.460417,62.247917],[24.460417,62.252083],[24.45625,62.252083],[24.45625,62.247917]]]},"properties":{"radiance":7.66}},{"type":"Feature","geometry":{"type":"Polygon","coordinates":[[[24.464583,62.247917],[24.46875,62.247917],[24.46875,62.252083],[24.464583,62.252083],[24.464583,62.247917]]]},"properties":{"radiance":8.35}},{"type":"Feature","geometry":{"type":"Polygon","coordinates":[[[24.46875,62.247917],[24.472917,62.247917],[24.472917,62.252083],[24.46875,62.252083],[24.46875,62.247917]]]},"properties":{"radiance":5.03}},{"type":"Feature","geometry":{"type":"Polygon","coordinates":[[[24.710417,62.247917],[24.714583,62.247917],[24.714583,62.252083],[24.710417,62.252083],[24.710417,62.247917]]]},"properties":{"radiance":6.55}},{"type":"Feature","geometry":{"type":"Polygon","coordinates":[[[24.714583,62.247917],[24.71875,62.247917],[24.71875,62.252083],[24.714583,62.252083],[24.714583,62.247917]]]},"properties":{"radiance":5.64}},{"type":"Feature","geometry":{"type":"Polygon","coordinates":[[[24.71875,62.247917],[24.722917,62.247917],[24.722917,62.252083],[24.71875,62.252083],[24.71875,62.247917]]]},"properties":{"radiance":10.46}},{"type":"Feature","geometry":{"type":"Polygon","coordinates":[[[24.722917,62.247917],[24.727083,62.247917],[24.727083,62.252083],[24.722917,62.252083],[24.722917,62.247917]]]},"properties":{"radiance":9.12}},{"type":"Feature","geometry":{"type":"Polygon","coordinates":[[[24.727083,62.247917],[24.73125,62.247917],[24.73125,62.252083],[24.727083,62.252083],[24.727083,62.247917]]]},"properties":{"radiance":10.26}},{"type":"Feature","geometry":{"type":"Polygon","coordinates":[[[24.73125,62.247917],[24.735417,62.247917],[24.735417,62.252083],[24.73125,62.252083],[24.73125,62.247917]]]},"properties":{"radiance":8.84}},{"type":"Feature","geometry":{"type":"Polygon","coordinates":[[[24.735417,62.247917],[24.739583,62.247917],[24.739583,62.252083],[24.735417,62.252083],[24.735417,62.247917]]]},"properties":{"radiance":15.75}},{"type":"Feature","geometry":{"type":"Polygon","coordinates":[[[24.439583,62.24375],[24.44375,62.24375],[24.44375,62.247917],[24.439583,62.247917],[24.439583,62.24375]]]},"properties":{"radiance":5.1}},{"type":"Feature","geometry":{"type":"Polygon","coordinates":[[[24.45625,62.24375],[24.460417,62.24375],[24.460417,62.247917],[24.45625,62.247917],[24.45625,62.24375]]]},"properties":{"radiance":8.6}},{"type":"Feature","geometry":{"type":"Polygon","coordinates":[[[24.460417,62.24375],[24.464583,62.24375],[24.464583,62.247917],[24.460417,62.247917],[24.460417,62.24375]]]},"properties":{"radiance":10.05}},{"type":"Feature","geometry":{"type":"Polygon","coordinates":[[[24.464583,62.24375],[24.46875,62.24375],[24.46875,62.247917],[24.464583,62.247917],[24.464583,62.24375]]]},"properties":{"radiance":9.63}},{"type":"Feature","geometry":{"type":"Polygon","coordinates":[[[24.777083,62.23125],[24.78125,62.23125],[24.78125,62.235417],[24.777083,62.235417],[24.777083,62.23125]]]},"properties":{"radiance":6.11}},{"type":"Feature","geometry":{"type":"Polygon","coordinates":[[[24.49375,62.03125],[24.497917,62.03125],[24.497917,62.035417],[24.49375,62.035417],[24.49375,62.03125]]]},"properties":{"radiance":9.6}},{"type":"Feature","geometry":{"type":"Polygon","coordinates":[[[24.472917,62.022917],[24.477083,62.022917],[24.477083,62.027083],[24.472917,62.027083],[24.472917,62.022917]]]},"properties":{"radiance":5.44}},{"type":"Feature","geometry":{"type":"Polygon","coordinates":[[[24.477083,62.022917],[24.48125,62.022917],[24.48125,62.027083],[24.477083,62.027083],[24.477083,62.022917]]]},"properties":{"radiance":6.95}},{"type":"Feature","geometry":{"type":"Polygon","coordinates":[[[24.48125,62.022917],[24.485417,62.022917],[24.485417,62.027083],[24.48125,62.027083],[24.48125,62.022917]]]},"properties":{"radiance":8.61}},{"type":"Feature","geometry":{"type":"Polygon","coordinates":[[[24.489583,62.022917],[24.49375,62.022917],[24.49375,62.027083],[24.489583,62.027083],[24.489583,62.022917]]]},"properties":{"radiance":5.04}},{"type":"Feature","geometry":{"type":"Polygon","coordinates":[[[24.49375,62.022917],[24.497917,62.022917],[24.497917,62.027083],[24.49375,62.027083],[24.49375,62.022917]]]},"properties":{"radiance":7.08}},{"type":"Feature","geometry":{"type":"Polygon","coordinates":[[[24.497917,62.022917],[24.502083,62.022917],[24.502083,62.027083],[24.497917,62.027083],[24.497917,62.022917]]]},"properties":{"radiance":16.66}},{"type":"Feature","geometry":{"type":"Polygon","coordinates":[[[24.477083,62.01875],[24.48125,62.01875],[24.48125,62.022917],[24.477083,62.022917],[24.477083,62.01875]]]},"properties":{"radiance":5.04}},{"type":"Feature","geometry":{"type":"Polygon","coordinates":[[[24.48125,62.01875],[24.485417,62.01875],[24.485417,62.022917],[24.48125,62.022917],[24.48125,62.01875]]]},"properties":{"radiance":9.61}},{"type":"Feature","geometry":{"type":"Polygon","coordinates":[[[24.489583,62.01875],[24.49375,62.01875],[24.49375,62.022917],[24.489583,62.022917],[24.489583,62.01875]]]},"properties":{"radiance":5.08}},{"type":"Feature","geometry":{"type":"Polygon","coordinates":[[[24.49375,62.01875],[24.497917,62.01875],[24.497917,62.022917],[24.49375,62.022917],[24.49375,62.01875]]]},"properties":{"radiance":5.48}},{"type":"Feature","geometry":{"type":"Polygon","coordinates":[[[24.497917,62.01875],[24.502083,62.01875],[24.502083,62.022917],[24.497917,62.022917],[24.497917,62.01875]]]},"properties":{"radiance":5.66}},{"type":"Feature","geometry":{"type":"Polygon","coordinates":[[[24.502083,62.01875],[24.50625,62.01875],[24.50625,62.022917],[24.502083,62.022917],[24.502083,62.01875]]]},"properties":{"radiance":5.3}},{"type":"Feature","geometry":{"type":"Polygon","coordinates":[[[24.460417,62.014583],[24.464583,62.014583],[24.464583,62.01875],[24.460417,62.01875],[24.460417,62.014583]]]},"properties":{"radiance":5.59}},{"type":"Feature","geometry":{"type":"Polygon","coordinates":[[[24.477083,62.014583],[24.48125,62.014583],[24.48125,62.01875],[24.477083,62.01875],[24.477083,62.014583]]]},"properties":{"radiance":8.02}},{"type":"Feature","geometry":{"type":"Polygon","coordinates":[[[24.48125,62.014583],[24.485417,62.014583],[24.485417,62.01875],[24.48125,62.01875],[24.48125,62.014583]]]},"properties":{"radiance":7.73}},{"type":"Feature","geometry":{"type":"Polygon","coordinates":[[[24.45625,62.010417],[24.460417,62.010417],[24.460417,62.014583],[24.45625,62.014583],[24.45625,62.010417]]]},"properties":{"radiance":6.99}},{"type":"Feature","geometry":{"type":"Polygon","coordinates":[[[24.460417,62.010417],[24.464583,62.010417],[24.464583,62.014583],[24.460417,62.014583],[24.460417,62.010417]]]},"properties":{"radiance":48.06}},{"type":"Feature","geometry":{"type":"Polygon","coordinates":[[[24.464583,62.010417],[24.46875,62.010417],[24.46875,62.014583],[24.464583,62.014583],[24.464583,62.010417]]]},"properties":{"radiance":86.52}},{"type":"Feature","geometry":{"type":"Polygon","coordinates":[[[24.46875,62.010417],[24.472917,62.010417],[24.472917,62.014583],[24.46875,62.014583],[24.46875,62.010417]]]},"properties":{"radiance":107.79}},{"type":"Feature","geometry":{"type":"Polygon","coordinates":[[[24.472917,62.010417],[24.477083,62.010417],[24.477083,62.014583],[24.472917,62.014583],[24.472917,62.010417]]]},"properties":{"radiance":119.28}},{"type":"Feature","geometry":{"type":"Polygon","coordinates":[[[24.477083,62.010417],[24.48125,62.010417],[24.48125,62.014583],[24.477083,62.014583],[24.477083,62.010417]]]},"properties":{"radiance":32.28}},{"type":"Feature","geometry":{"type":"Polygon","coordinates":[[[24.48125,62.010417],[24.485417,62.010417],[24.485417,62.014583],[24.48125,62.014583],[24.48125,62.010417]]]},"properties":{"radiance":8.36}},{"type":"Feature","geometry":{"type":"Polygon","coordinates":[[[24.460417,62.00625],[24.464583,62.00625],[24.464583,62.010417],[24.460417,62.010417],[24.460417,62.00625]]]},"properties":{"radiance":16.63}},{"type":"Feature","geometry":{"type":"Polygon","coordinates":[[[24.464583,62.00625],[24.46875,62.00625],[24.46875,62.010417],[24.464583,62.010417],[24.464583,62.00625]]]},"properties":{"radiance":64.61}},{"type":"Feature","geometry":{"type":"Polygon","coordinates":[[[24.46875,62.00625],[24.472917,62.00625],[24.472917,62.010417],[24.46875,62.010417],[24.46875,62.00625]]]},"properties":{"radiance":57.32}},{"type":"Feature","geometry":{"type":"Polygon","coordinates":[[[24.472917,62.00625],[24.477083,62.00625],[24.477083,62.010417],[24.472917,62.010417],[24.472917,62.00625]]]},"properties":{"radiance":44.91}},{"type":"Feature","geometry":{"type":"Polygon","coordinates":[[[24.477083,62.00625],[24.48125,62.00625],[24.48125,62.010417],[24.477083,62.010417],[24.477083,62.00625]]]},"properties":{"radiance":34.38}},{"type":"Feature","geometry":{"type":"Polygon","coordinates":[[[24.48125,62.00625],[24.485417,62.00625],[24.485417,62.010417],[24.48125,62.010417],[24.48125,62.00625]]]},"properties":{"radiance":8.06}},{"type":"Feature","geometry":{"type":"Polygon","coordinates":[[[24.485417,62.00625],[24.489583,62.00625],[24.489583,62.010417],[24.485417,62.010417],[24.485417,62.00625]]]},"properties":{"radiance":6.16}},{"type":"Feature","geometry":{"type":"Polygon","coordinates":[[[24.460417,62.002083],[24.464583,62.002083],[24.464583,62.00625],[24.460417,62.00625],[24.460417,62.002083]]]},"properties":{"radiance":6.05}},{"type":"Feature","geometry":{"type":"Polygon","coordinates":[[[24.472917,62.002083],[24.477083,62.002083],[24.477083,62.00625],[24.472917,62.00625],[24.472917,62.002083]]]},"properties":{"radiance":5.28}}]}