{"type":"FeatureCollection","features":[{"type":"Feature","geometry":{"type":"Polygon","coordinates":[[[28.85625,66.28125],[28.860417,66.28125],[28.860417,66.285417],[28.85625,66.285417],[28.85625,66.28125]]]},"properties":{"radiance":7.87}},{"type":"Feature","geometry":{"type":"Polygon","coordinates":[[[29.122917,66.18125],[29.127083,66.18125],[29.127083,66.185417],[29.122917,66.185417],[29.122917,66.18125]]]},"properties":{"radiance":5.06}},{"type":"Feature","geometry":{"type":"Polygon","coordinates":[[[29.11875,66.177083],[29.122917,66.177083],[29.122917,66.18125],[29.11875,66.18125],[29.11875,66.177083]]]},"properties":{"radiance":5.32}},{"type":"Feature","geometry":{"type":"Polygon","coordinates":[[[29.13125,66.177083],[29.135417,66.177083],[29.135417,66.18125],[29.13125,66.18125],[29.13125,66.177083]]]},"properties":{"radiance":6.68}},{"type":"Feature","geometry":{"type":"Polygon","coordinates":[[[29.139583,66.177083],[29.14375,66.177083],[29.14375,66.18125],[29.139583,66.18125],[29.139583,66.177083]]]},"properties":{"radiance":5.52}},{"type":"Feature","geometry":{"type":"Polygon","coordinates":[[[29.114583,66.172917],[29.11875,66.172917],[29.11875,66.177083],[29.114583,66.177083],[29.114583,66.172917]]]},"properties":{"radiance":9}},{"type":"Feature","geometry":{"type":"Polygon","coordinates":[[[29.11875,66.172917],[29.122917,66.172917],[29.122917,66.177083],[29.11875,66.177083],[29.11875,66.172917]]]},"properties":{"radiance":13.1}},{"type":"Feature","geometry":{"type":"Polygon","coordinates":[[[29.122917,66.172917],[29.127083,66.172917],[29.127083,66.177083],[29.122917,66.177083],[29.122917,66.172917]]]},"properties":{"radiance":23.86}},{"type":"Feature","geometry":{"type":"Polygon","coordinates":[[[29.127083,66.172917],[29.13125,66.172917],[29.13125,66.177083],[29.127083,66.177083],[29.127083,66.172917]]]},"properties":{"radiance":6.63}},{"type":"Feature","geometry":{"type":"Polygon","coordinates":[[[29.13125,66.172917],[29.135417,66.172917],[29.135417,66.177083],[29.13125,66.177083],[29.13125,66.172917]]]},"properties":{"radiance":28.79}},{"type":"Feature","geometry":{"type":"Polygon","coordinates":[[[29.135417,66.172917],[29.139583,66.172917],[29.139583,66.177083],[29.135417,66.177083],[29.135417,66.172917]]]},"properties":{"radiance":18.69}},{"type":"Feature","geometry":{"type":"Polygon","coordinates":[[[29.139583,66.172917],[29.14375,66.172917],[29.14375,66.177083],[29.139583,66.177083],[29.139583,66.172917]]]},"properties":{"radiance":17.77}},{"type":"Feature","geometry":{"type":"Polygon","coordinates":[[[29.14375,66.172917],[29.147917,66.172917],[29.147917,66.177083],[29.14375,66.177083],[29.14375,66.172917]]]},"properties":{"radiance":11.76}},{"type":"Feature","geometry":{"type":"Polygon","coordinates":[[[29.147917,66.172917],[29.152083,66.172917],[29.152083,66.177083],[29.147917,66.177083],[29.147917,66.172917]]]},"properties":{"radiance":9.15}},{"type":"Feature","geometry":{"type":"Polygon","coordinates":[[[29.160417,66.172917],[29.164583,66.172917],[29.164583,66.177083],[29.160417,66.177083],[29.160417,66.172917]]]},"properties":{"radiance":9.51}},{"type":"Feature","geometry":{"type":"Polygon","coordinates":[[[29.164583,66.172917],[29.16875,66.172917],[29.16875,66.177083],[29.164583,66.177083],[29.164583,66.172917]]]},"properties":{"radiance":6.18}},{"type":"Feature","geometry":{"type":"Polygon","coordinates":[[[29.172917,66.172917],[29.177083,66.172917],[29.177083,66.177083],[29.172917,66.177083],[29.172917,66.172917]]]},"properties":{"radiance":6.61}},{"type":"Feature","geometry":{"type":"Polygon","coordinates":[[[29.110417,66.16875],[29.114583,66.16875],[29.114583,66.172917],[29.110417,66.172917],[29.110417,66.16875]]]},"properties":{"radiance":8.59}},{"type":"Feature","geometry":{"type":"Polygon","coordinates":[[[29.114583,66.16875],[29.11875,66.16875],[29.11875,66.172917],[29.114583,66.172917],[29.114583,66.16875]]]},"properties":{"radiance":20.7}},{"type":"Feature","geometry":{"type":"Polygon","coordinates":[[[29.11875,66.16875],[29.122917,66.16875],[29.122917,66.172917],[29.11875,66.172917],[29.11875,66.16875]]]},"properties":{"radiance":20.12}},{"type":"Feature","geometry":{"type":"Polygon","coordinates":[[[29.122917,66.16875],[29.127083,66.16875],[29.127083,66.172917],[29.122917,66.172917],[29.122917,66.16875]]]},"properties":{"radiance":18.79}},{"type":"Feature","geometry":{"type":"Polygon","coordinates":[[[29.127083,66.16875],[29.13125,66.16875],[29.13125,66.172917],[29.127083,66.172917],[29.127083,66.16875]]]},"properties":{"radiance":50.1}},{"type":"Feature","geometry":{"type":"Polygon","coordinates":[[[29.13125,66.16875],[29.135417,66.16875],[29.135417,66.172917],[29.13125,66.172917],[29.13125,66.16875]]]},"properties":{"radiance":66.59}},{"type":"Feature","geometry":{"type":"Polygon","coordinates":[[[29.135417,66.16875],[29.139583,66.16875],[29.139583,66.172917],[29.135417,66.172917],[29.135417,66.16875]]]},"properties":{"radiance":67.7}},{"type":"Feature","geometry":{"type":"Polygon","coordinates":[[[29.139583,66.16875],[29.14375,66.16875],[29.14375,66.172917],[29.139583,66.172917],[29.139583,66.16875]]]},"properties":{"radiance":70.09}},{"type":"Feature","geometry":{"type":"Polygon","coordinates":[[[29.14375,66.16875],[29.147917,66.16875],[29.147917,66.172917],[29.14375,66.172917],[29.14375,66.16875]]]},"properties":{"radiance":31.97}},{"type":"Feature","geometry":{"type":"Polygon","coordinates":[[[29.147917,66.16875],[29.152083,66.16875],[29.152083,66.172917],[29.147917,66.172917],[29.147917,66.16875]]]},"properties":{"radiance":21.51}},{"type":"Feature","geometry":{"type":"Polygon","coordinates":[[[29.152083,66.16875],[29.15625,66.16875],[29.15625,66.172917],[29.152083,66.172917],[29.152083,66.16875]]]},"properties":{"radiance":13.79}},{"type":"Feature","geometry":{"type":"Polygon","coordinates":[[[29.15625,66.16875],[29.160417,66.16875],[29.160417,66.172917],[29.15625,66.172917],[29.15625,66.16875]]]},"properties":{"radiance":10.7}},{"type":"Feature","geometry":{"type":"Polygon","coordinates":[[[29.160417,66.16875],[29.164583,66.16875],[29.164583,66.172917],[29.160417,66.172917],[29.160417,66.16875]]]},"properties":{"radiance":14.42}},{"type":"Feature","geometry":{"type":"Polygon","coordinates":[[[29.164583,66.16875],[29.16875,66.16875],[29.16875,66.172917],[29.164583,66.172917],[29.164583,66.16875]]]},"properties":{"radiance":21.89}},{"type":"Feature","geometry":{"type":"Polygon","coordinates":[[[29.16875,66.16875],[29.172917,66.16875],[29.172917,66.172917],[29.16875,66.172917],[29.16875,66.16875]]]},"properties":{"radiance":7.51}},{"type":"Feature","geometry":{"type":"Polygon","coordinates":[[[29.172917,66.16875],[29.177083,66.16875],[29.177083,66.172917],[29.172917,66.172917],[29.172917,66.16875]]]},"properties":{"radiance":6.54}},{"type":"Feature","geometry":{"type":"Polygon","coordinates":[[[29.177083,66.16875],[29.18125,66.16875],[29.18125,66.172917],[29.177083,66.172917],[29.177083,66.16875]]]},"properties":{"radiance":6.95}},{"type":"Feature","geometry":{"type":"Polygon","coordinates":[[[29.18125,66.16875],[29.185417,66.16875],[29.185417,66.172917],[29.18125,66.172917],[29.18125,66.16875]]]},"properties":{"radiance":5.1}},{"type":"Feature","geometry":{"type":"Polygon","coordinates":[[[29.185417,66.16875],[29.189583,66.16875],[29.189583,66.172917],[29.185417,66.172917],[29.185417,66.16875]]]},"properties":{"radiance":5.48}},{"type":"Feature","geometry":{"type":"Polygon","coordinates":[[[29.189583,66.16875],[29.19375,66.16875],[29.19375,66.172917],[29.189583,66.172917],[29.189583,66.16875]]]},"properties":{"radiance":7.55}},{"type":"Feature","geometry":{"type":"Polygon","coordinates":[[[29.10625,66.164583],[29.110417,66.164583],[29.110417,66.16875],[29.10625,66.16875],[29.10625,66.164583]]]},"properties":{"radiance":8.78}},{"type":"Feature","geometry":{"type":"Polygon","coordinates":[[[29.110417,66.164583],[29.114583,66.164583],[29.114583,66.16875],[29.110417,66.16875],[29.110417,66.164583]]]},"properties":{"radiance":11.3}},{"type":"Feature","geometry":{"type":"Polygon","coordinates":[[[29.114583,66.164583],[29.11875,66.164583],[29.11875,66.16875],[29.114583,66.16875],[29.114583,66.164583]]]},"properties":{"radiance":27.73}},{"type":"Feature","geometry":{"type":"Polygon","coordinates":[[[29.11875,66.164583],[29.122917,66.164583],[29.122917,66.16875],[29.11875,66.16875],[29.11875,66.164583]]]},"properties":{"radiance":14.67}},{"type":"Feature","geometry":{"type":"Polygon","coordinates":[[[29.122917,66.164583],[29.127083,66.164583],[29.127083,66.16875],[29.122917,66.16875],[29.122917,66.164583]]]},"properties":{"radiance":35.15}},{"type":"Feature","geometry":{"type":"Polygon","coordinates":[[[29.127083,66.164583],[29.13125,66.164583],[29.13125,66.16875],[29.127083,66.16875],[29.127083,66.164583]]]},"properties":{"radiance":43.14}},{"type":"Feature","geometry":{"type":"Polygon","coordinates":[[[29.13125,66.164583],[29.135417,66.164583],[29.135417,66.16875],[29.13125,66.16875],[29.13125,66.164583]]]},"properties":{"radiance":52.55}},{"type":"Feature","geometry":{"type":"Polygon","coordinates":[[[29.135417,66.164583],[29.139583,66.164583],[29.139583,66.16875],[29.135417,66.16875],[29.135417,66.164583]]]},"properties":{"radiance":50.08}},{"type":"Feature","geometry":{"type":"Polygon","coordinates":[[[29.139583,66.164583],[29.14375,66.164583],[29.14375,66.16875],[29.139583,66.16875],[29.139583,66.164583]]]},"properties":{"radiance":58.59}},{"type":"Feature","geometry":{"type":"Polygon","coordinates":[[[29.14375,66.164583],[29.147917,66.164583],[29.147917,66.16875],[29.14375,66.16875],[29.14375,66.164583]]]},"properties":{"radiance":41.44}},{"type":"Feature","geometry":{"type":"Polygon","coordinates":[[[29.147917,66.164583],[29.152083,66.164583],[29.152083,66.16875],[29.147917,66.16875],[29.147917,66.164583]]]},"properties":{"radiance":22.65}},{"type":"Feature","geometry":{"type":"Polygon","coordinates":[[[29.152083,66.164583],[29.15625,66.164583],[29.15625,66.16875],[29.152083,66.16875],[29.152083,66.164583]]]},"properties":{"radiance":25.33}},{"type":"Feature","geometry":{"type":"Polygon","coordinates":[[[29.15625,66.164583],[29.160417,66.164583],[29.160417,66.16875],[29.15625,66.16875],[29.15625,66.164583]]]},"properties":{"radiance":7.53}},{"type":"Feature","geometry":{"type":"Polygon","coordinates":[[[29.160417,66.164583],[29.164583,66.164583],[29.164583,66.16875],[29.160417,66.16875],[29.160417,66.164583]]]},"properties":{"radiance":12.87}},{"type":"Feature","geometry":{"type":"Polygon","coordinates":[[[29.164583,66.164583],[29.16875,66.164583],[29.16875,66.16875],[29.164583,66.16875],[29.164583,66.164583]]]},"properties":{"radiance":7.29}},{"type":"Feature","geometry":{"type":"Polygon","coordinates":[[[29.16875,66.164583],[29.172917,66.164583],[29.172917,66.16875],[29.16875,66.16875],[29.16875,66.164583]]]},"properties":{"radiance":17.29}},{"type":"Feature","geometry":{"type":"Polygon","coordinates":[[[29.172917,66.164583],[29.177083,66.164583],[29.177083,66.16875],[29.172917,66.16875],[29.172917,66.164583]]]},"properties":{"radiance":14.29}},{"type":"Feature","geometry":{"type":"Polygon","coordinates":[[[29.177083,66.164583],[29.18125,66.164583],[29.18125,66.16875],[29.177083,66.16875],[29.177083,66.164583]]]},"properties":{"radiance":15.84}},{"type":"Feature","geometry":{"type":"Polygon","coordinates":[[[29.18125,66.164583],[29.185417,66.164583],[29.185417,66.16875],[29.18125,66.16875],[29.18125,66.164583]]]},"properties":{"radiance":16.73}},{"type":"Feature","geometry":{"type":"Polygon","coordinates":[[[29.185417,66.164583],[29.189583,66.164583],[29.189583,66.16875],[29.185417,66.16875],[29.185417,66.164583]]]},"properties":{"radiance":12.63}},{"type":"Feature","geometry":{"type":"Polygon","coordinates":[[[29.189583,66.164583],[29.19375,66.164583],[29.19375,66.16875],[29.189583,66.16875],[29.189583,66.164583]]]},"properties":{"radiance":10.62}},{"type":"Feature","geometry":{"type":"Polygon","coordinates":[[[29.102083,66.160417],[29.10625,66.160417],[29.10625,66.164583],[29.102083,66.164583],[29.102083,66.160417]]]},"properties":{"radiance":7.34}},{"type":"Feature","geometry":{"type":"Polygon","coordinates":[[[29.10625,66.160417],[29.110417,66.160417],[29.110417,66.164583],[29.10625,66.164583],[29.10625,66.160417]]]},"properties":{"radiance":7.14}},{"type":"Feature","geometry":{"type":"Polygon","coordinates":[[[29.110417,66.160417],[29.114583,66.160417],[29.114583,66.164583],[29.110417,66.164583],[29.110417,66.160417]]]},"properties":{"radiance":9.36}},{"type":"Feature","geometry":{"type":"Polygon","coordinates":[[[29.114583,66.160417],[29.11875,66.160417],[29.11875,66.164583],[29.114583,66.164583],[29.114583,66.160417]]]},"properties":{"radiance":6.47}},{"type":"Feature","geometry":{"type":"Polygon","coordinates":[[[29.11875,66.160417],[29.122917,66.160417],[29.122917,66.164583],[29.11875,66.164583],[29.11875,66.160417]]]},"properties":{"radiance":11.75}},{"type":"Feature","geometry":{"type":"Polygon","coordinates":[[[29.122917,66.160417],[29.127083,66.160417],[29.127083,66.164583],[29.122917,66.164583],[29.122917,66.160417]]]},"properties":{"radiance":10.12}},{"type":"Feature","geometry":{"type":"Polygon","coordinates":[[[29.127083,66.160417],[29.13125,66.160417],[29.13125,66.164583],[29.127083,66.164583],[29.127083,66.160417]]]},"properties":{"radiance":10.4}},{"type":"Feature","geometry":{"type":"Polygon","coordinates":[[[29.13125,66.160417],[29.135417,66.160417],[29.135417,66.164583],[29.13125,66.164583],[29.13125,66.160417]]]},"properties":{"radiance":12.99}},{"type":"Feature","geometry":{"type":"Polygon","coordinates":[[[29.135417,66.160417],[29.139583,66.160417],[29.139583,66.164583],[29.135417,66.164583],[29.135417,66.160417]]]},"properties":{"radiance":33.5}},{"type":"Feature","geometry":{"type":"Polygon","coordinates":[[[29.139583,66.160417],[29.14375,66.160417],[29.14375,66.164583],[29.139583,66.164583],[29.139583,66.160417]]]},"properties":{"radiance":30.79}},{"type":"Feature","geometry":{"type":"Polygon","coordinates":[[[29.14375,66.160417],[29.147917,66.160417],[29.147917,66.164583],[29.14375,66.164583],[29.14375,66.160417]]]},"properties":{"radiance":8.86}},{"type":"Feature","geometry":{"type":"Polygon","coordinates":[[[29.147917,66.160417],[29.152083,66.160417],[29.152083,66.164583],[29.147917,66.164583],[29.147917,66.160417]]]},"properties":{"radiance":7.16}},{"type":"Feature","geometry":{"type":"Polygon","coordinates":[[[29.152083,66.160417],[29.15625,66.160417],[29.15625,66.164583],[29.152083,66.164583],[29.152083,66.160417]]]},"properties":{"radiance":10.07}},{"type":"Feature","geometry":{"type":"Polygon","coordinates":[[[29.15625,66.160417],[29.160417,66.160417],[29.160417,66.164583],[29.15625,66.164583],[29.15625,66.160417]]]},"properties":{"radiance":8.14}},{"type":"Feature","geometry":{"type":"Polygon","coordinates":[[[29.160417,66.160417],[29.164583,66.160417],[29.164583,66.164583],[29.160417,66.164583],[29.160417,66.160417]]]},"properties":{"radiance":6.99}},{"type":"Feature","geometry":{"type":"Polygon","coordinates":[[[29.164583,66.160417],[29.16875,66.160417],[29.16875,66.164583],[29.164583,66.164583],[29.164583,66.160417]]]},"properties":{"radiance":8.38}},{"type":"Feature","geometry":{"type":"Polygon","coordinates":[[[29.16875,66.160417],[29.172917,66.160417],[29.172917,66.164583],[29.16875,66.164583],[29.16875,66.160417]]]},"properties":{"radiance":15.52}},{"type":"Feature","geometry":{"type":"Polygon","coordinates":[[[29.172917,66.160417],[29.177083,66.160417],[29.177083,66.164583],[29.172917,66.164583],[29.172917,66.160417]]]},"properties":{"radiance":9.59}},{"type":"Feature","geometry":{"type":"Polygon","coordinates":[[[29.177083,66.160417],[29.18125,66.160417],[29.18125,66.164583],[29.177083,66.164583],[29.177083,66.160417]]]},"properties":{"radiance":17.69}},{"type":"Feature","geometry":{"type":"Polygon","coordinates":[[[29.189583,66.160417],[29.19375,66.160417],[29.19375,66.164583],[29.189583,66.164583],[29.189583,66.160417]]]},"properties":{"radiance":10.74}},{"type":"Feature","geometry":{"type":"Polygon","coordinates":[[[29.19375,66.160417],[29.197917,66.160417],[29.197917,66.164583],[29.19375,66.164583],[29.19375,66.160417]]]},"properties":{"radiance":7.67}},{"type":"Feature","geometry":{"type":"Polygon","coordinates":[[[29.10625,66.15625],[29.110417,66.15625],[29.110417,66.160417],[29.10625,66.160417],[29.10625,66.15625]]]},"properties":{"radiance":5.36}},{"type":"Feature","geometry":{"type":"Polygon","coordinates":[[[29.110417,66.15625],[29.114583,66.15625],[29.114583,66.160417],[29.110417,66.160417],[29.110417,66.15625]]]},"properties":{"radiance":7.11}},{"type":"Feature","geometry":{"type":"Polygon","coordinates":[[[29.114583,66.15625],[29.11875,66.15625],[29.11875,66.160417],[29.114583,66.160417],[29.114583,66.15625]]]},"properties":{"radiance":6.85}},{"type":"Feature","geometry":{"type":"Polygon","coordinates":[[[29.122917,66.15625],[29.127083,66.15625],[29.127083,66.160417],[29.122917,66.160417],[29.122917,66.15625]]]},"properties":{"radiance":5.13}},{"type":"Feature","geometry":{"type":"Polygon","coordinates":[[[29.127083,66.15625],[29.13125,66.15625],[29.13125,66.160417],[29.127083,66.160417],[29.127083,66.15625]]]},"properties":{"radiance":7.81}},{"type":"Feature","geometry":{"type":"Polygon","coordinates":[[[29.13125,66.15625],[29.135417,66.15625],[29.135417,66.160417],[29.13125,66.160417],[29.13125,66.15625]]]},"properties":{"radiance":8.64}},{"type":"Feature","geometry":{"type":"Polygon","coordinates":[[[29.135417,66.15625],[29.139583,66.15625],[29.139583,66.160417],[29.135417,66.160417],[29.135417,66.15625]]]},"properties":{"radiance":9.25}},{"type":"Feature","geometry":{"type":"Polygon","coordinates":[[[29.139583,66.15625],[29.14375,66.15625],[29.14375,66.160417],[29.139583,66.160417],[29.139583,66.15625]]]},"properties":{"radiance":35.5}},{"type":"Feature","geometry":{"type":"Polygon","coordinates":[[[29.14375,66.15625],[29.147917,66.15625],[29.147917,66.160417],[29.14375,66.160417],[29.14375,66.15625]]]},"properties":{"radiance":32.45}},{"type":"Feature","geometry":{"type":"Polygon","coordinates":[[[29.147917,66.15625],[29.152083,66.15625],[29.152083,66.160417],[29.147917,66.160417],[29.147917,66.15625]]]},"properties":{"radiance":21.18}},{"type":"Feature","geometry":{"type":"Polygon","coordinates":[[[29.152083,66.15625],[29.15625,66.15625],[29.15625,66.160417],[29.152083,66.160417],[29.152083,66.15625]]]},"properties":{"radiance":7.01}},{"type":"Feature","geometry":{"type":"Polygon","coordinates":[[[29.15625,66.15625],[29.160417,66.15625],[29.160417,66.160417],[29.15625,66.160417],[29.15625,66.15625]]]},"properties":{"radiance":16.69}},{"type":"Feature","geometry":{"type":"Polygon","coordinates":[[[29.160417,66.15625],[29.164583,66.15625],[29.164583,66.160417],[29.160417,66.160417],[29.160417,66.15625]]]},"properties":{"radiance":10.89}},{"type":"Feature","geometry":{"type":"Polygon","coordinates":[[[29.164583,66.15625],[29.16875,66.15625],[29.16875,66.160417],[29.164583,66.160417],[29.164583,66.15625]]]},"properties":{"radiance":16.56}},{"type":"Feature","geometry":{"type":"Polygon","coordinates":[[[29.16875,66.15625],[29.172917,66.15625],[29.172917,66.160417],[29.16875,66.160417],[29.16875,66.15625]]]},"properties":{"radiance":13.29}},{"type":"Feature","geometry":{"type":"Polygon","coordinates":[[[29.172917,66.15625],[29.177083,66.15625],[29.177083,66.160417],[29.172917,66.160417],[29.172917,66.15625]]]},"properties":{"radiance":11.83}},{"type":"Feature","geometry":{"type":"Polygon","coordinates":[[[29.177083,66.15625],[29.18125,66.15625],[29.18125,66.160417],[29.177083,66.160417],[29.177083,66.15625]]]},"properties":{"radiance":8.82}},{"type":"Feature","geometry":{"type":"Polygon","coordinates":[[[29.18125,66.15625],[29.185417,66.15625],[29.185417,66.160417],[29.18125,66.160417],[29.18125,66.15625]]]},"properties":{"radiance":7.99}},{"type":"Feature","geometry":{"type":"Polygon","coordinates":[[[29.10625,66.152083],[29.110417,66.152083],[29.110417,66.15625],[29.10625,66.15625],[29.10625,66.152083]]]},"properties":{"radiance":5.94}},{"type":"Feature","geometry":{"type":"Polygon","coordinates":[[[29.127083,66.152083],[29.13125,66.152083],[29.13125,66.15625],[29.127083,66.15625],[29.127083,66.152083]]]},"properties":{"radiance":10.32}},{"type":"Feature","geometry":{"type":"Polygon","coordinates":[[[29.13125,66.152083],[29.135417,66.152083],[29.135417,66.15625],[29.13125,66.15625],[29.13125,66.152083]]]},"properties":{"radiance":11.21}},{"type":"Feature","geometry":{"type":"Polygon","coordinates":[[[29.135417,66.152083],[29.139583,66.152083],[29.139583,66.15625],[29.135417,66.15625],[29.135417,66.152083]]]},"properties":{"radiance":6.9}},{"type":"Feature","geometry":{"type":"Polygon","coordinates":[[[29.139583,66.152083],[29.14375,66.152083],[29.14375,66.15625],[29.139583,66.15625],[29.139583,66.152083]]]},"properties":{"radiance":7.23}},{"type":"Feature","geometry":{"type":"Polygon","coordinates":[[[29.14375,66.152083],[29.147917,66.152083],[29.147917,66.15625],[29.14375,66.15625],[29.14375,66.152083]]]},"properties":{"radiance":7.77}},{"type":"Feature","geometry":{"type":"Polygon","coordinates":[[[29.147917,66.152083],[29.152083,66.152083],[29.152083,66.15625],[29.147917,66.15625],[29.147917,66.152083]]]},"properties":{"radiance":5.82}},{"type":"Feature","geometry":{"type":"Polygon","coordinates":[[[29.152083,66.152083],[29.15625,66.152083],[29.15625,66.15625],[29.152083,66.15625],[29.152083,66.152083]]]},"properties":{"radiance":9.46}},{"type":"Feature","geometry":{"type":"Polygon","coordinates":[[[29.160417,66.152083],[29.164583,66.152083],[29.164583,66.15625],[29.160417,66.15625],[29.160417,66.152083]]]},"properties":{"radiance":10.92}},{"type":"Feature","geometry":{"type":"Polygon","coordinates":[[[29.164583,66.152083],[29.16875,66.152083],[29.16875,66.15625],[29.164583,66.15625],[29.164583,66.152083]]]},"properties":{"radiance":13.54}},{"type":"Feature","geometry":{"type":"Polygon","coordinates":[[[29.172917,66.152083],[29.177083,66.152083],[29.177083,66.15625],[29.172917,66.15625],[29.172917,66.152083]]]},"properties":{"radiance":8.12}},{"type":"Feature","geometry":{"type":"Polygon","coordinates":[[[29.10625,66.147917],[29.110417,66.147917],[29.110417,66.152083],[29.10625,66.152083],[29.10625,66.147917]]]},"properties":{"radiance":5.96}},{"type":"Feature","geometry":{"type":"Polygon","coordinates":[[[29.110417,66.147917],[29.114583,66.147917],[29.114583,66.152083],[29.110417,66.152083],[29.110417,66.147917]]]},"properties":{"radiance":7.37}},{"type":"Feature","geometry":{"type":"Polygon","coordinates":[[[29.114583,66.147917],[29.11875,66.147917],[29.11875,66.152083],[29.114583,66.152083],[29.114583,66.147917]]]},"properties":{"radiance":7.28}},{"type":"Feature","geometry":{"type":"Polygon","coordinates":[[[29.11875,66.147917],[29.122917,66.147917],[29.122917,66.152083],[29.11875,66.152083],[29.11875,66.147917]]]},"properties":{"radiance":6.83}},{"type":"Feature","geometry":{"type":"Polygon","coordinates":[[[29.135417,66.147917],[29.139583,66.147917],[29.139583,66.152083],[29.135417,66.152083],[29.135417,66.147917]]]},"properties":{"radiance":5.35}},{"type":"Feature","geometry":{"type":"Polygon","coordinates":[[[29.147917,66.147917],[29.152083,66.147917],[29.152083,66.152083],[29.147917,66.152083],[29.147917,66.147917]]]},"properties":{"radiance":5.13}},{"type":"Feature","geometry":{"type":"Polygon","coordinates":[[[29.152083,66.147917],[29.15625,66.147917],[29.15625,66.152083],[29.152083,66.152083],[29.152083,66.147917]]]},"properties":{"radiance":5.41}},{"type":"Feature","geometry":{"type":"Polygon","coordinates":[[[28.14375,66.135417],[28.147917,66.135417],[28.147917,66.139583],[28.14375,66.139583],[28.14375,66.135417]]]},"properties":{"radiance":7.05}},{"type":"Feature","geometry":{"type":"Polygon","coordinates":[[[28.147917,66.135417],[28.152083,66.135417],[28.152083,66.139583],[28.147917,66.139583],[28.147917,66.135417]]]},"properties":{"radiance":5.73}},{"type":"Feature","geometry":{"type":"Polygon","coordinates":[[[28.139583,66.13125],[28.14375,66.13125],[28.14375,66.135417],[28.139583,66.135417],[28.139583,66.13125]]]},"properties":{"radiance":6.13}},{"type":"Feature","geometry":{"type":"Polygon","coordinates":[[[28.14375,66.13125],[28.147917,66.13125],[28.147917,66.135417],[28.14375,66.135417],[28.14375,66.13125]]]},"properties":{"radiance":8.94}},{"type":"Feature","geometry":{"type":"Polygon","coordinates":[[[28.147917,66.13125],[28.152083,66.13125],[28.152083,66.135417],[28.147917,66.135417],[28.147917,66.13125]]]},"properties":{"radiance":11.4}},{"type":"Feature","geometry":{"type":"Polygon","coordinates":[[[28.152083,66.13125],[28.15625,66.13125],[28.15625,66.135417],[28.152083,66.135417],[28.152083,66.13125]]]},"properties":{"radiance":5.97}},{"type":"Feature","geometry":{"type":"Polygon","coordinates":[[[28.15625,66.13125],[28.160417,66.13125],[28.160417,66.135417],[28.15625,66.135417],[28.15625,66.13125]]]},"properties":{"radiance":5.08}},{"type":"Feature","geometry":{"type":"Polygon","coordinates":[[[28.139583,66.127083],[28.14375,66.127083],[28.14375,66.13125],[28.139583,66.13125],[28.139583,66.127083]]]},"properties":{"radiance":8.41}},{"type":"Feature","geometry":{"type":"Polygon","coordinates":[[[28.14375,66.127083],[28.147917,66.127083],[28.147917,66.13125],[28.14375,66.13125],[28.14375,66.127083]]]},"properties":{"radiance":11.52}},{"type":"Feature","geometry":{"type":"Polygon","coordinates":[[[28.147917,66.127083],[28.152083,66.127083],[28.152083,66.13125],[28.147917,66.13125],[28.147917,66.127083]]]},"properties":{"radiance":16.66}},{"type":"Feature","geometry":{"type":"Polygon","coordinates":[[[28.152083,66.127083],[28.15625,66.127083],[28.15625,66.13125],[28.152083,66.13125],[28.152083,66.127083]]]},"properties":{"radiance":13.72}},{"type":"Feature","geometry":{"type":"Polygon","coordinates":[[[28.15625,66.127083],[28.160417,66.127083],[28.160417,66.13125],[28.15625,66.13125],[28.15625,66.127083]]]},"properties":{"radiance":9.18}},{"type":"Feature","geometry":{"type":"Polygon","coordinates":[[[28.160417,66.127083],[28.164583,66.127083],[28.164583,66.13125],[28.160417,66.13125],[28.160417,66.127083]]]},"properties":{"radiance":5.36}},{"type":"Feature","geometry":{"type":"Polygon","coordinates":[[[28.14375,66.122917],[28.147917,66.122917],[28.147917,66.127083],[28.14375,66.127083],[28.14375,66.122917]]]},"properties":{"radiance":9.46}},{"type":"Feature","geometry":{"type":"Polygon","coordinates":[[[28.147917,66.122917],[28.152083,66.122917],[28.152083,66.127083],[28.147917,66.127083],[28.147917,66.122917]]]},"properties":{"radiance":15.59}},{"type":"Feature","geometry":{"type":"Polygon","coordinates":[[[28.152083,66.122917],[28.15625,66.122917],[28.15625,66.127083],[28.152083,66.127083],[28.152083,66.122917]]]},"properties":{"radiance":8.79}},{"type":"Feature","geometry":{"type":"Polygon","coordinates":[[[28.15625,66.122917],[28.160417,66.122917],[28.160417,66.127083],[28.15625,66.127083],[28.15625,66.122917]]]},"properties":{"radiance":8.84}},{"type":"Feature","geometry":{"type":"Polygon","coordinates":[[[28.139583,66.11875],[28.14375,66.11875],[28.14375,66.122917],[28.139583,66.122917],[28.139583,66.11875]]]},"properties":{"radiance":11.65}},{"type":"Feature","geometry":{"type":"Polygon","coordinates":[[[28.14375,66.11875],[28.147917,66.11875],[28.147917,66.122917],[28.14375,66.122917],[28.14375,66.11875]]]},"properties":{"radiance":14.12}},{"type":"Feature","geometry":{"type":"Polygon","coordinates":[[[28.147917,66.11875],[28.152083,66.11875],[28.152083,66.122917],[28.147917,66.122917],[28.147917,66.11875]]]},"properties":{"radiance":7.71}},{"type":"Feature","geometry":{"type":"Polygon","coordinates":[[[28.152083,66.11875],[28.15625,66.11875],[28.15625,66.122917],[28.152083,66.122917],[28.152083,66.11875]]]},"properties":{"radiance":8.42}},{"type":"Feature","geometry":{"type":"Polygon","coordinates":[[[28.15625,66.11875],[28.160417,66.11875],[28.160417,66.122917],[28.15625,66.122917],[28.15625,66.11875]]]},"properties":{"radiance":5.85}},{"type":"Feature","geometry":{"type":"Polygon","coordinates":[[[28.14375,66.114583],[28.147917,66.114583],[28.147917,66.11875],[28.14375,66.11875],[28.14375,66.114583]]]},"properties":{"radiance":6.44}},{"type":"Feature","geometry":{"type":"Polygon","coordinates":[[[28.147917,66.114583],[28.152083,66.114583],[28.152083,66.11875],[28.147917,66.11875],[28.147917,66.114583]]]},"properties":{"radiance":9.23}},{"type":"Feature","geometry":{"type":"Polygon","coordinates":[[[28.152083,66.114583],[28.15625,66.114583],[28.15625,66.11875],[28.152083,66.11875],[28.152083,66.114583]]]},"properties":{"radiance":28.39}},{"type":"Feature","geometry":{"type":"Polygon","coordinates":[[[28.15625,66.114583],[28.160417,66.114583],[28.160417,66.11875],[28.15625,66.11875],[28.15625,66.114583]]]},"properties":{"radiance":11.65}},{"type":"Feature","geometry":{"type":"Polygon","coordinates":[[[28.160417,66.114583],[28.164583,66.114583],[28.164583,66.11875],[28.160417,66.11875],[28.160417,66.114583]]]},"properties":{"radiance":10.29}},{"type":"Feature","geometry":{"type":"Polygon","coordinates":[[[28.164583,66.114583],[28.16875,66.114583],[28.16875,66.11875],[28.164583,66.11875],[28.164583,66.114583]]]},"properties":{"radiance":9.14}},{"type":"Feature","geometry":{"type":"Polygon","coordinates":[[[28.16875,66.114583],[28.172917,66.114583],[28.172917,66.11875],[28.16875,66.11875],[28.16875,66.114583]]]},"properties":{"radiance":8.65}},{"type":"Feature","geometry":{"type":"Polygon","coordinates":[[[28.177083,66.114583],[28.18125,66.114583],[28.18125,66.11875],[28.177083,66.11875],[28.177083,66.114583]]]},"properties":{"radiance":7.26}},{"type":"Feature","geometry":{"type":"Polygon","coordinates":[[[28.18125,66.114583],[28.185417,66.114583],[28.185417,66.11875],[28.18125,66.11875],[28.18125,66.114583]]]},"properties":{"radiance":6.24}},{"type":"Feature","geometry":{"type":"Polygon","coordinates":[[[28.185417,66.114583],[28.189583,66.114583],[28.189583,66.11875],[28.185417,66.11875],[28.185417,66.114583]]]},"properties":{"radiance":5.96}},{"type":"Feature","geometry":{"type":"Polygon","coordinates":[[[28.147917,66.110417],[28.152083,66.110417],[28.152083,66.114583],[28.147917,66.114583],[28.147917,66.110417]]]},"properties":{"radiance":26.89}},{"type":"Feature","geometry":{"type":"Polygon","coordinates":[[[28.152083,66.110417],[28.15625,66.110417],[28.15625,66.114583],[28.152083,66.114583],[28.152083,66.110417]]]},"properties":{"radiance":21.78}},{"type":"Feature","geometry":{"type":"Polygon","coordinates":[[[28.15625,66.110417],[28.160417,66.110417],[28.160417,66.114583],[28.15625,66.114583],[28.15625,66.110417]]]},"properties":{"radiance":29.32}},{"type":"Feature","geometry":{"type":"Polygon","coordinates":[[[28.160417,66.110417],[28.164583,66.110417],[28.164583,66.114583],[28.160417,66.114583],[28.160417,66.110417]]]},"properties":{"radiance":33.88}},{"type":"Feature","geometry":{"type":"Polygon","coordinates":[[[28.164583,66.110417],[28.16875,66.110417],[28.16875,66.114583],[28.164583,66.114583],[28.164583,66.110417]]]},"properties":{"radiance":22.28}},{"type":"Feature","geometry":{"type":"Polygon","coordinates":[[[28.16875,66.110417],[28.172917,66.110417],[28.172917,66.114583],[28.16875,66.114583],[28.16875,66.110417]]]},"properties":{"radiance":22.36}},{"type":"Feature","geometry":{"type":"Polygon","coordinates":[[[28.172917,66.110417],[28.177083,66.110417],[28.177083,66.114583],[28.172917,66.114583],[28.172917,66.110417]]]},"properties":{"radiance":11.75}},{"type":"Feature","geometry":{"type":"Polygon","coordinates":[[[28.177083,66.110417],[28.18125,66.110417],[28.18125,66.114583],[28.177083,66.114583],[28.177083,66.110417]]]},"properties":{"radiance":10.08}},{"type":"Feature","geometry":{"type":"Polygon","coordinates":[[[28.18125,66.110417],[28.185417,66.110417],[28.185417,66.114583],[28.18125,66.114583],[28.18125,66.110417]]]},"properties":{"radiance":5.59}},{"type":"Feature","geometry":{"type":"Polygon","coordinates":[[[28.147917,66.10625],[28.152083,66.10625],[28.152083,66.110417],[28.147917,66.110417],[28.147917,66.10625]]]},"properties":{"radiance":5.12}},{"type":"Feature","geometry":{"type":"Polygon","coordinates":[[[28.152083,66.10625],[28.15625,66.10625],[28.15625,66.110417],[28.152083,66.110417],[28.152083,66.10625]]]},"properties":{"radiance":8.35}},{"type":"Feature","geometry":{"type":"Polygon","coordinates":[[[28.15625,66.10625],[28.160417,66.10625],[28.160417,66.110417],[28.15625,66.110417],[28.15625,66.10625]]]},"properties":{"radiance":7.76}},{"type":"Feature","geometry":{"type":"Polygon","coordinates":[[[28.160417,66.10625],[28.164583,66.10625],[28.164583,66.110417],[28.160417,66.110417],[28.160417,66.10625]]]},"properties":{"radiance":6.12}},{"type":"Feature","geometry":{"type":"Polygon","coordinates":[[[28.164583,66.10625],[28.16875,66.10625],[28.16875,66.110417],[28.164583,66.110417],[28.164583,66.10625]]]},"properties":{"radiance":13.03}},{"type":"Feature","geometry":{"type":"Polygon","coordinates":[[[28.16875,66.10625],[28.172917,66.10625],[28.172917,66.110417],[28.16875,66.110417],[28.16875,66.10625]]]},"properties":{"radiance":16.57}},{"type":"Feature","geometry":{"type":"Polygon","coordinates":[[[28.172917,66.10625],[28.177083,66.10625],[28.177083,66.110417],[28.172917,66.110417],[28.172917,66.10625]]]},"properties":{"radiance":10.69}},{"type":"Feature","geometry":{"type":"Polygon","coordinates":[[[28.177083,66.10625],[28.18125,66.10625],[28.18125,66.110417],[28.177083,66.110417],[28.177083,66.10625]]]},"properties":{"radiance":10.54}},{"type":"Feature","geometry":{"type":"Polygon","coordinates":[[[28.18125,66.10625],[28.185417,66.10625],[28.185417,66.110417],[28.18125,66.110417],[28.18125,66.10625]]]},"properties":{"radiance":5.76}},{"type":"Feature","geometry":{"type":"Polygon","coordinates":[[[28.139583,66.102083],[28.14375,66.102083],[28.14375,66.10625],[28.139583,66.10625],[28.139583,66.102083]]]},"properties":{"radiance":6.2}},{"type":"Feature","geometry":{"type":"Polygon","coordinates":[[[28.147917,66.102083],[28.152083,66.102083],[28.152083,66.10625],[28.147917,66.10625],[28.147917,66.102083]]]},"properties":{"radiance":6.77}},{"type":"Feature","geometry":{"type":"Polygon","coordinates":[[[28.152083,66.102083],[28.15625,66.102083],[28.15625,66.10625],[28.152083,66.10625],[28.152083,66.102083]]]},"properties":{"radiance":6.79}},{"type":"Feature","geometry":{"type":"Polygon","coordinates":[[[28.160417,66.102083],[28.164583,66.102083],[28.164583,66.10625],[28.160417,66.10625],[28.160417,66.102083]]]},"properties":{"radiance":5.96}},{"type":"Feature","geometry":{"type":"Polygon","coordinates":[[[28.135417,66.097917],[28.139583,66.097917],[28.139583,66.102083],[28.135417,66.102083],[28.135417,66.097917]]]},"properties":{"radiance":9.57}},{"type":"Feature","geometry":{"type":"Polygon","coordinates":[[[28.139583,66.097917],[28.14375,66.097917],[28.14375,66.102083],[28.139583,66.102083],[28.139583,66.097917]]]},"properties":{"radiance":9.45}},{"type":"Feature","geometry":{"type":"Polygon","coordinates":[[[28.14375,66.097917],[28.147917,66.097917],[28.147917,66.102083],[28.14375,66.102083],[28.14375,66.097917]]]},"properties":{"radiance":7}},{"type":"Feature","geometry":{"type":"Polygon","coordinates":[[[28.147917,66.097917],[28.152083,66.097917],[28.152083,66.102083],[28.147917,66.102083],[28.147917,66.097917]]]},"properties":{"radiance":11.48}},{"type":"Feature","geometry":{"type":"Polygon","coordinates":[[[28.285417,66.097917],[28.289583,66.097917],[28.289583,66.102083],[28.285417,66.102083],[28.285417,66.097917]]]},"properties":{"radiance":6.95}},{"type":"Feature","geometry":{"type":"Polygon","coordinates":[[[28.289583,66.097917],[28.29375,66.097917],[28.29375,66.102083],[28.289583,66.102083],[28.289583,66.097917]]]},"properties":{"radiance":6.77}},{"type":"Feature","geometry":{"type":"Polygon","coordinates":[[[28.29375,66.097917],[28.297917,66.097917],[28.297917,66.102083],[28.29375,66.102083],[28.29375,66.097917]]]},"properties":{"radiance":5.29}},{"type":"Feature","geometry":{"type":"Polygon","coordinates":[[[28.122917,66.09375],[28.127083,66.09375],[28.127083,66.097917],[28.122917,66.097917],[28.122917,66.09375]]]},"properties":{"radiance":5.29}},{"type":"Feature","geometry":{"type":"Polygon","coordinates":[[[28.13125,66.09375],[28.135417,66.09375],[28.135417,66.097917],[28.13125,66.097917],[28.13125,66.09375]]]},"properties":{"radiance":9.75}},{"type":"Feature","geometry":{"type":"Polygon","coordinates":[[[28.135417,66.09375],[28.139583,66.09375],[28.139583,66.097917],[28.135417,66.097917],[28.135417,66.09375]]]},"properties":{"radiance":6.38}},{"type":"Feature","geometry":{"type":"Polygon","coordinates":[[[28.139583,66.09375],[28.14375,66.09375],[28.14375,66.097917],[28.139583,66.097917],[28.139583,66.09375]]]},"properties":{"radiance":6.21}},{"type":"Feature","geometry":{"type":"Polygon","coordinates":[[[28.14375,66.09375],[28.147917,66.09375],[28.147917,66.097917],[28.14375,66.097917],[28.14375,66.09375]]]},"properties":{"radiance":5.7}},{"type":"Feature","geometry":{"type":"Polygon","coordinates":[[[28.26875,66.09375],[28.272917,66.09375],[28.272917,66.097917],[28.26875,66.097917],[28.26875,66.09375]]]},"properties":{"radiance":5.15}},{"type":"Feature","geometry":{"type":"Polygon","coordinates":[[[28.272917,66.09375],[28.277083,66.09375],[28.277083,66.097917],[28.272917,66.097917],[28.272917,66.09375]]]},"properties":{"radiance":6}},{"type":"Feature","geometry":{"type":"Polygon","coordinates":[[[29.122917,66.039583],[29.127083,66.039583],[29.127083,66.04375],[29.122917,66.04375],[29.122917,66.039583]]]},"properties":{"radiance":7.15}},{"type":"Feature","geometry":{"type":"Polygon","coordinates":[[[29.127083,66.039583],[29.13125,66.039583],[29.13125,66.04375],[29.127083,66.04375],[29.127083,66.039583]]]},"properties":{"radiance":6.05}},{"type":"Feature","geometry":{"type":"Polygon","coordinates":[[[29.13125,66.039583],[29.135417,66.039583],[29.135417,66.04375],[29.13125,66.04375],[29.13125,66.039583]]]},"properties":{"radiance":5.98}},{"type":"Feature","geometry":{"type":"Polygon","coordinates":[[[29.122917,66.035417],[29.127083,66.035417],[29.127083,66.039583],[29.122917,66.039583],[29.122917,66.035417]]]},"properties":{"radiance":5.79}},{"type":"Feature","geometry":{"type":"Polygon","coordinates":[[[29.127083,66.035417],[29.13125,66.035417],[29.13125,66.039583],[29.127083,66.039583],[29.127083,66.035417]]]},"properties":{"radiance":5.47}},{"type":"Feature","geometry":{"type":"Polygon","coordinates":[[[29.11875,66.03125],[29.122917,66.03125],[29.122917,66.035417],[29.11875,66.035417],[29.11875,66.03125]]]},"properties":{"radiance":5.5}},{"type":"Feature","geometry":{"type":"Polygon","coordinates":[[[29.122917,66.01875],[29.127083,66.01875],[29.127083,66.022917],[29.122917,66.022917],[29.122917,66.01875]]]},"properties":{"radiance":48.19}},{"type":"Feature","geometry":{"type":"Polygon","coordinates":[[[29.127083,66.01875],[29.13125,66.01875],[29.13125,66.022917],[29.127083,66.022917],[29.127083,66.01875]]]},"properties":{"radiance":52.8}},{"type":"Feature","geometry":{"type":"Polygon","coordinates":[[[29.13125,66.01875],[29.135417,66.01875],[29.135417,66.022917],[29.13125,66.022917],[29.13125,66.01875]]]},"properties":{"radiance":50.32}},{"type":"Feature","geometry":{"type":"Polygon","coordinates":[[[29.135417,66.01875],[29.139583,66.01875],[29.139583,66.022917],[29.135417,66.022917],[29.135417,66.01875]]]},"properties":{"radiance":44.34}},{"type":"Feature","geometry":{"type":"Polygon","coordinates":[[[29.139583,66.01875],[29.14375,66.01875],[29.14375,66.022917],[29.139583,66.022917],[29.139583,66.01875]]]},"properties":{"radiance":9.2}},{"type":"Feature","geometry":{"type":"Polygon","coordinates":[[[29.11875,66.014583],[29.122917,66.014583],[29.122917,66.01875],[29.11875,66.01875],[29.11875,66.014583]]]},"properties":{"radiance":17.24}},{"type":"Feature","geometry":{"type":"Polygon","coordinates":[[[29.122917,66.014583],[29.127083,66.014583],[29.127083,66.01875],[29.122917,66.01875],[29.122917,66.014583]]]},"properties":{"radiance":45.93}},{"type":"Feature","geometry":{"type":"Polygon","coordinates":[[[29.127083,66.014583],[29.13125,66.014583],[29.13125,66.01875],[29.127083,66.01875],[29.127083,66.014583]]]},"properties":{"radiance":65.8}},{"type":"Feature","geometry":{"type":"Polygon","coordinates":[[[29.13125,66.014583],[29.135417,66.014583],[29.135417,66.01875],[29.13125,66.01875],[29.13125,66.014583]]]},"properties":{"radiance":57.32}},{"type":"Feature","geometry":{"type":"Polygon","coordinates":[[[29.135417,66.014583],[29.139583,66.014583],[29.139583,66.01875],[29.135417,66.01875],[29.135417,66.014583]]]},"properties":{"radiance":29.1}},{"type":"Feature","geometry":{"type":"Polygon","coordinates":[[[29.139583,66.014583],[29.14375,66.014583],[29.14375,66.01875],[29.139583,66.01875],[29.139583,66.014583]]]},"properties":{"radiance":29.02}},{"type":"Feature","geometry":{"type":"Polygon","coordinates":[[[29.14375,66.014583],[29.147917,66.014583],[29.147917,66.01875],[29.14375,66.01875],[29.14375,66.014583]]]},"properties":{"radiance":7.34}},{"type":"Feature","geometry":{"type":"Polygon","coordinates":[[[29.147917,66.014583],[29.152083,66.014583],[29.152083,66.01875],[29.147917,66.01875],[29.147917,66.014583]]]},"properties":{"radiance":6.08}},{"type":"Feature","geometry":{"type":"Polygon","coordinates":[[[29.127083,66.010417],[29.13125,66.010417],[29.13125,66.014583],[29.127083,66.014583],[29.127083,66.010417]]]},"properties":{"radiance":16.94}},{"type":"Feature","geometry":{"type":"Polygon","coordinates":[[[29.13125,66.010417],[29.135417,66.010417],[29.135417,66.014583],[29.13125,66.014583],[29.13125,66.010417]]]},"properties":{"radiance":17.67}},{"type":"Feature","geometry":{"type":"Polygon","coordinates":[[[29.135417,66.010417],[29.139583,66.010417],[29.139583,66.014583],[29.135417,66.014583],[29.135417,66.010417]]]},"properties":{"radiance":17.67}},{"type":"Feature","geometry":{"type":"Polygon","coordinates":[[[29.147917,66.010417],[29.152083,66.010417],[29.152083,66.014583],[29.147917,66.014583],[29.147917,66.010417]]]},"properties":{"radiance":5.12}},{"type":"Feature","geometry":{"type":"Polygon","coordinates":[[[29.152083,66.010417],[29.15625,66.010417],[29.15625,66.014583],[29.152083,66.014583],[29.152083,66.010417]]]},"properties":{"radiance":6.14}},{"type":"Feature","geometry":{"type":"Polygon","coordinates":[[[29.14375,66.00625],[29.147917,66.00625],[29.147917,66.010417],[29.14375,66.010417],[29.14375,66.00625]]]},"properties":{"radiance":6.52}},{"type":"Feature","geometry":{"type":"Polygon","coordinates":[[[29.147917,66.00625],[29.152083,66.00625],[29.152083,66.010417],[29.147917,66.010417],[29.147917,66.00625]]]},"properties":{"radiance":6.99}},{"type":"Feature","geometry":{"type":"Polygon","coordinates":[[[29.15625,66.00625],[29.160417,66.00625],[29.160417,66.010417],[29.15625,66.010417],[29.15625,66.00625]]]},"properties":{"radiance":6.48}},{"type":"Feature","geometry":{"type":"Polygon","coordinates":[[[29.139583,66.002083],[29.14375,66.002083],[29.14375,66.00625],[29.139583,66.00625],[29.139583,66.002083]]]},"properties":{"radiance":7.67}},{"type":"Feature","geometry":{"type":"Polygon","coordinates":[[[29.14375,66.002083],[29.147917,66.002083],[29.147917,66.00625],[29.14375,66.00625],[29.14375,66.002083]]]},"properties":{"radiance":10.43}},{"type":"Feature","geometry":{"type":"Polygon","coordinates":[[[29.147917,66.002083],[29.152083,66.002083],[29.152083,66.00625],[29.147917,66.00625],[29.147917,66.002083]]]},"properties":{"radiance":8.15}},{"type":"Feature","geometry":{"type":"Polygon","coordinates":[[[29.152083,66.002083],[29.15625,66.002083],[29.15625,66.00625],[29.152083,66.00625],[29.152083,66.002083]]]},"properties":{"radiance":8.23}},{"type":"Feature","geometry":{"type":"Polygon","coordinates":[[[29.15625,66.002083],[29.160417,66.002083],[29.160417,66.00625],[29.15625,66.00625],[29.15625,66.002083]]]},"properties":{"radiance":5.39}},{"type":"Feature","geometry":{"type":"Polygon","coordinates":[[[29.160417,66.002083],[29.164583,66.002083],[29.164583,66.00625],[29.160417,66.00625],[29.160417,66.002083]]]},"properties":{"radiance":11.07}},{"type":"Feature","geometry":{"type":"Polygon","coordinates":[[[29.164583,66.002083],[29.16875,66.002083],[29.16875,66.00625],[29.164583,66.00625],[29.164583,66.002083]]]},"properties":{"radiance":11.74}},{"type":"Feature","geometry":{"type":"Polygon","coordinates":[[[29.19375,66.002083],[29.197917,66.002083],[29.197917,66.00625],[29.19375,66.00625],[29.19375,66.002083]]]},"properties":{"radiance":6.19}},{"type":"Feature","geometry":{"type":"Polygon","coordinates":[[[29.197917,66.002083],[29.202083,66.002083],[29.202083,66.00625],[29.197917,66.00625],[29.197917,66.002083]]]},"properties":{"radiance":5.74}},{"type":"Feature","geometry":{"type":"Polygon","coordinates":[[[29.202083,66.002083],[29.20625,66.002083],[29.20625,66.00625],[29.202083,66.00625],[29.202083,66.002083]]]},"properties":{"radiance":6.43}},{"type":"Feature","geometry":{"type":"Polygon","coordinates":[[[29.20625,66.002083],[29.210417,66.002083],[29.210417,66.00625],[29.20625,66.00625],[29.20625,66.002083]]]},"properties":{"radiance":6.43}},{"type":"Feature","geometry":{"type":"Polygon","coordinates":[[[29.210417,66.002083],[29.214583,66.002083],[29.214583,66.00625],[29.210417,66.00625],[29.210417,66.002083]]]},"properties":{"radiance":10.25}},{"type":"Feature","geometry":{"type":"Polygon","coordinates":[[[29.214583,66.002083],[29.21875,66.002083],[29.21875,66.00625],[29.214583,66.00625],[29.214583,66.002083]]]},"properties":{"radiance":10.38}},{"type":"Feature","geometry":{"type":"Polygon","coordinates":[[[29.21875,66.002083],[29.222917,66.002083],[29.222917,66.00625],[29.21875,66.00625],[29.21875,66.002083]]]},"properties":{"radiance":7.5}},{"type":"Feature","geometry":{"type":"Polygon","coordinates":[[[29.222917,66.002083],[29.227083,66.002083],[29.227083,66.00625],[29.222917,66.00625],[29.222917,66.002083]]]},"properties":{"radiance":6.51}},{"type":"Feature","geometry":{"type":"Polygon","coordinates":[[[29.139583,65.997917],[29.14375,65.997917],[29.14375,66.002083],[29.139583,66.002083],[29.139583,65.997917]]]},"properties":{"radiance":8.3}},{"type":"Feature","geometry":{"type":"Polygon","coordinates":[[[29.14375,65.997917],[29.147917,65.997917],[29.147917,66.002083],[29.14375,66.002083],[29.14375,65.997917]]]},"properties":{"radiance":6.13}},{"type":"Feature","geometry":{"type":"Polygon","coordinates":[[[29.152083,65.997917],[29.15625,65.997917],[29.15625,66.002083],[29.152083,66.002083],[29.152083,65.997917]]]},"properties":{"radiance":7.87}},{"type":"Feature","geometry":{"type":"Polygon","coordinates":[[[29.15625,65.997917],[29.160417,65.997917],[29.160417,66.002083],[29.15625,66.002083],[29.15625,65.997917]]]},"properties":{"radiance":6.69}},{"type":"Feature","geometry":{"type":"Polygon","coordinates":[[[29.160417,65.997917],[29.164583,65.997917],[29.164583,66.002083],[29.160417,66.002083],[29.160417,65.997917]]]},"properties":{"radiance":7.39}},{"type":"Feature","geometry":{"type":"Polygon","coordinates":[[[29.16875,65.997917],[29.172917,65.997917],[29.172917,66.002083],[29.16875,66.002083],[29.16875,65.997917]]]},"properties":{"radiance":12.78}},{"type":"Feature","geometry":{"type":"Polygon","coordinates":[[[29.172917,65.997917],[29.177083,65.997917],[29.177083,66.002083],[29.172917,66.002083],[29.172917,65.997917]]]},"properties":{"radiance":5.53}},{"type":"Feature","geometry":{"type":"Polygon","coordinates":[[[29.189583,65.997917],[29.19375,65.997917],[29.19375,66.002083],[29.189583,66.002083],[29.189583,65.997917]]]},"properties":{"radiance":7.67}},{"type":"Feature","geometry":{"type":"Polygon","coordinates":[[[29.19375,65.997917],[29.197917,65.997917],[29.197917,66.002083],[29.19375,66.002083],[29.19375,65.997917]]]},"properties":{"radiance":6.38}},{"type":"Feature","geometry":{"type":"Polygon","coordinates":[[[29.197917,65.997917],[29.202083,65.997917],[29.202083,66.002083],[29.197917,66.002083],[29.197917,65.997917]]]},"properties":{"radiance":7.15}},{"type":"Feature","geometry":{"type":"Polygon","coordinates":[[[29.202083,65.997917],[29.20625,65.997917],[29.20625,66.002083],[29.202083,66.002083],[29.202083,65.997917]]]},"properties":{"radiance":5.19}},{"type":"Feature","geometry":{"type":"Polygon","coordinates":[[[29.210417,65.997917],[29.214583,65.997917],[29.214583,66.002083],[29.210417,66.002083],[29.210417,65.997917]]]},"properties":{"radiance":9.7}},{"type":"Feature","geometry":{"type":"Polygon","coordinates":[[[29.214583,65.997917],[29.21875,65.997917],[29.21875,66.002083],[29.214583,66.002083],[29.214583,65.997917]]]},"properties":{"radiance":14.88}},{"type":"Feature","geometry":{"type":"Polygon","coordinates":[[[29.21875,65.997917],[29.222917,65.997917],[29.222917,66.002083],[29.21875,66.002083],[29.21875,65.997917]]]},"properties":{"radiance":16.61}},{"type":"Feature","geometry":{"type":"Polygon","coordinates":[[[29.222917,65.997917],[29.227083,65.997917],[29.227083,66.002083],[29.222917,66.002083],[29.222917,65.997917]]]},"properties":{"radiance":15.03}},{"type":"Feature","geometry":{"type":"Polygon","coordinates":[[[29.227083,65.997917],[29.23125,65.997917],[29.23125,66.002083],[29.227083,66.002083],[29.227083,65.997917]]]},"properties":{"radiance":9.14}},{"type":"Feature","geometry":{"type":"Polygon","coordinates":[[[29.23125,65.997917],[29.235417,65.997917],[29.235417,66.002083],[29.23125,66.002083],[29.23125,65.997917]]]},"properties":{"radiance":8.93}},{"type":"Feature","geometry":{"type":"Polygon","coordinates":[[[29.14375,65.99375],[29.147917,65.99375],[29.147917,65.997917],[29.14375,65.997917],[29.14375,65.99375]]]},"properties":{"radiance":5.88}},{"type":"Feature","geometry":{"type":"Polygon","coordinates":[[[29.152083,65.99375],[29.15625,65.99375],[29.15625,65.997917],[29.152083,65.997917],[29.152083,65.99375]]]},"properties":{"radiance":19.58}},{"type":"Feature","geometry":{"type":"Polygon","coordinates":[[[29.15625,65.99375],[29.160417,65.99375],[29.160417,65.997917],[29.15625,65.997917],[29.15625,65.99375]]]},"properties":{"radiance":17.71}},{"type":"Feature","geometry":{"type":"Polygon","coordinates":[[[29.160417,65.99375],[29.164583,65.99375],[29.164583,65.997917],[29.160417,65.997917],[29.160417,65.99375]]]},"properties":{"radiance":6.91}},{"type":"Feature","geometry":{"type":"Polygon","coordinates":[[[29.164583,65.99375],[29.16875,65.99375],[29.16875,65.997917],[29.164583,65.997917],[29.164583,65.99375]]]},"properties":{"radiance":11.82}},{"type":"Feature","geometry":{"type":"Polygon","coordinates":[[[29.189583,65.99375],[29.19375,65.99375],[29.19375,65.997917],[29.189583,65.997917],[29.189583,65.99375]]]},"properties":{"radiance":7.35}},{"type":"Feature","geometry":{"type":"Polygon","coordinates":[[[29.19375,65.99375],[29.197917,65.99375],[29.197917,65.997917],[29.19375,65.997917],[29.19375,65.99375]]]},"properties":{"radiance":8.88}},{"type":"Feature","geometry":{"type":"Polygon","coordinates":[[[29.197917,65.99375],[29.202083,65.99375],[29.202083,65.997917],[29.197917,65.997917],[29.197917,65.99375]]]},"properties":{"radiance":7.28}},{"type":"Feature","geometry":{"type":"Polygon","coordinates":[[[29.214583,65.99375],[29.21875,65.99375],[29.21875,65.997917],[29.214583,65.997917],[29.214583,65.99375]]]},"properties":{"radiance":8.75}},{"type":"Feature","geometry":{"type":"Polygon","coordinates":[[[29.21875,65.99375],[29.222917,65.99375],[29.222917,65.997917],[29.21875,65.997917],[29.21875,65.99375]]]},"properties":{"radiance":8.37}},{"type":"Feature","geometry":{"type":"Polygon","coordinates":[[[29.227083,65.99375],[29.23125,65.99375],[29.23125,65.997917],[29.227083,65.997917],[29.227083,65.99375]]]},"properties":{"radiance":8.32}},{"type":"Feature","geometry":{"type":"Polygon","coordinates":[[[29.23125,65.99375],[29.235417,65.99375],[29.235417,65.997917],[29.23125,65.997917],[29.23125,65.99375]]]},"properties":{"radiance":8.02}},{"type":"Feature","geometry":{"type":"Polygon","coordinates":[[[29.235417,65.99375],[29.239583,65.99375],[29.239583,65.997917],[29.235417,65.997917],[29.235417,65.99375]]]},"properties":{"radiance":6.9}},{"type":"Feature","geometry":{"type":"Polygon","coordinates":[[[29.14375,65.989583],[29.147917,65.989583],[29.147917,65.99375],[29.14375,65.99375],[29.14375,65.989583]]]},"properties":{"radiance":13.45}},{"type":"Feature","geometry":{"type":"Polygon","coordinates":[[[29.147917,65.989583],[29.152083,65.989583],[29.152083,65.99375],[29.147917,65.99375],[29.147917,65.989583]]]},"properties":{"radiance":14.6}},{"type":"Feature","geometry":{"type":"Polygon","coordinates":[[[29.152083,65.989583],[29.15625,65.989583],[29.15625,65.99375],[29.152083,65.99375],[29.152083,65.989583]]]},"properties":{"radiance":23.83}},{"type":"Feature","geometry":{"type":"Polygon","coordinates":[[[29.15625,65.989583],[29.160417,65.989583],[29.160417,65.99375],[29.15625,65.99375],[29.15625,65.989583]]]},"properties":{"radiance":26.15}},{"type":"Feature","geometry":{"type":"Polygon","coordinates":[[[29.160417,65.989583],[29.164583,65.989583],[29.164583,65.99375],[29.160417,65.99375],[29.160417,65.989583]]]},"properties":{"radiance":5.05}},{"type":"Feature","geometry":{"type":"Polygon","coordinates":[[[29.164583,65.989583],[29.16875,65.989583],[29.16875,65.99375],[29.164583,65.99375],[29.164583,65.989583]]]},"properties":{"radiance":8.35}},{"type":"Feature","geometry":{"type":"Polygon","coordinates":[[[29.16875,65.989583],[29.172917,65.989583],[29.172917,65.99375],[29.16875,65.99375],[29.16875,65.989583]]]},"properties":{"radiance":8.65}},{"type":"Feature","geometry":{"type":"Polygon","coordinates":[[[29.172917,65.989583],[29.177083,65.989583],[29.177083,65.99375],[29.172917,65.99375],[29.172917,65.989583]]]},"properties":{"radiance":8.24}},{"type":"Feature","geometry":{"type":"Polygon","coordinates":[[[29.177083,65.989583],[29.18125,65.989583],[29.18125,65.99375],[29.177083,65.99375],[29.177083,65.989583]]]},"properties":{"radiance":8.11}},{"type":"Feature","geometry":{"type":"Polygon","coordinates":[[[29.18125,65.989583],[29.185417,65.989583],[29.185417,65.99375],[29.18125,65.99375],[29.18125,65.989583]]]},"properties":{"radiance":7.93}},{"type":"Feature","geometry":{"type":"Polygon","coordinates":[[[29.185417,65.989583],[29.189583,65.989583],[29.189583,65.99375],[29.185417,65.99375],[29.185417,65.989583]]]},"properties":{"radiance":9.67}},{"type":"Feature","geometry":{"type":"Polygon","coordinates":[[[29.189583,65.989583],[29.19375,65.989583],[29.19375,65.99375],[29.189583,65.99375],[29.189583,65.989583]]]},"properties":{"radiance":5.76}},{"type":"Feature","geometry":{"type":"Polygon","coordinates":[[[29.19375,65.989583],[29.197917,65.989583],[29.197917,65.99375],[29.19375,65.99375],[29.19375,65.989583]]]},"properties":{"radiance":7.88}},{"type":"Feature","geometry":{"type":"Polygon","coordinates":[[[29.15625,65.985417],[29.160417,65.985417],[29.160417,65.989583],[29.15625,65.989583],[29.15625,65.985417]]]},"properties":{"radiance":27.82}},{"type":"Feature","geometry":{"type":"Polygon","coordinates":[[[29.160417,65.985417],[29.164583,65.985417],[29.164583,65.989583],[29.160417,65.989583],[29.160417,65.985417]]]},"properties":{"radiance":30.87}},{"type":"Feature","geometry":{"type":"Polygon","coordinates":[[[29.164583,65.985417],[29.16875,65.985417],[29.16875,65.989583],[29.164583,65.989583],[29.164583,65.985417]]]},"properties":{"radiance":27.04}},{"type":"Feature","geometry":{"type":"Polygon","coordinates":[[[29.16875,65.985417],[29.172917,65.985417],[29.172917,65.989583],[29.16875,65.989583],[29.16875,65.985417]]]},"properties":{"radiance":14.67}},{"type":"Feature","geometry":{"type":"Polygon","coordinates":[[[29.172917,65.985417],[29.177083,65.985417],[29.177083,65.989583],[29.172917,65.989583],[29.172917,65.985417]]]},"properties":{"radiance":12.35}},{"type":"Feature","geometry":{"type":"Polygon","coordinates":[[[29.177083,65.985417],[29.18125,65.985417],[29.18125,65.989583],[29.177083,65.989583],[29.177083,65.985417]]]},"properties":{"radiance":9.48}},{"type":"Feature","geometry":{"type":"Polygon","coordinates":[[[29.18125,65.985417],[29.185417,65.985417],[29.185417,65.989583],[29.18125,65.989583],[29.18125,65.985417]]]},"properties":{"radiance":7.17}},{"type":"Feature","geometry":{"type":"Polygon","coordinates":[[[29.185417,65.985417],[29.189583,65.985417],[29.189583,65.989583],[29.185417,65.989583],[29.185417,65.985417]]]},"properties":{"radiance":5.63}},{"type":"Feature","geometry":{"type":"Polygon","coordinates":[[[29.189583,65.985417],[29.19375,65.985417],[29.19375,65.989583],[29.189583,65.989583],[29.189583,65.985417]]]},"properties":{"radiance":6.28}},{"type":"Feature","geometry":{"type":"Polygon","coordinates":[[[29.152083,65.98125],[29.15625,65.98125],[29.15625,65.985417],[29.152083,65.985417],[29.152083,65.98125]]]},"properties":{"radiance":12.75}},{"type":"Feature","geometry":{"type":"Polygon","coordinates":[[[29.15625,65.98125],[29.160417,65.98125],[29.160417,65.985417],[29.15625,65.985417],[29.15625,65.98125]]]},"properties":{"radiance":27.13}},{"type":"Feature","geometry":{"type":"Polygon","coordinates":[[[29.160417,65.98125],[29.164583,65.98125],[29.164583,65.985417],[29.160417,65.985417],[29.160417,65.98125]]]},"properties":{"radiance":44.85}},{"type":"Feature","geometry":{"type":"Polygon","coordinates":[[[29.164583,65.98125],[29.16875,65.98125],[29.16875,65.985417],[29.164583,65.985417],[29.164583,65.98125]]]},"properties":{"radiance":33.18}},{"type":"Feature","geometry":{"type":"Polygon","coordinates":[[[29.16875,65.98125],[29.172917,65.98125],[29.172917,65.985417],[29.16875,65.985417],[29.16875,65.98125]]]},"properties":{"radiance":15.36}},{"type":"Feature","geometry":{"type":"Polygon","coordinates":[[[29.172917,65.98125],[29.177083,65.98125],[29.177083,65.985417],[29.172917,65.985417],[29.172917,65.98125]]]},"properties":{"radiance":15.1}},{"type":"Feature","geometry":{"type":"Polygon","coordinates":[[[29.177083,65.98125],[29.18125,65.98125],[29.18125,65.985417],[29.177083,65.985417],[29.177083,65.98125]]]},"properties":{"radiance":10.62}},{"type":"Feature","geometry":{"type":"Polygon","coordinates":[[[29.18125,65.98125],[29.185417,65.98125],[29.185417,65.985417],[29.18125,65.985417],[29.18125,65.98125]]]},"properties":{"radiance":6.64}},{"type":"Feature","geometry":{"type":"Polygon","coordinates":[[[29.185417,65.98125],[29.189583,65.98125],[29.189583,65.985417],[29.185417,65.985417],[29.185417,65.98125]]]},"properties":{"radiance":7.22}},{"type":"Feature","geometry":{"type":"Polygon","coordinates":[[[29.147917,65.977083],[29.152083,65.977083],[29.152083,65.98125],[29.147917,65.98125],[29.147917,65.977083]]]},"properties":{"radiance":8.33}},{"type":"Feature","geometry":{"type":"Polygon","coordinates":[[[29.152083,65.977083],[29.15625,65.977083],[29.15625,65.98125],[29.152083,65.98125],[29.152083,65.977083]]]},"properties":{"radiance":15.52}},{"type":"Feature","geometry":{"type":"Polygon","coordinates":[[[29.15625,65.977083],[29.160417,65.977083],[29.160417,65.98125],[29.15625,65.98125],[29.15625,65.977083]]]},"properties":{"radiance":13.9}},{"type":"Feature","geometry":{"type":"Polygon","coordinates":[[[29.160417,65.977083],[29.164583,65.977083],[29.164583,65.98125],[29.160417,65.98125],[29.160417,65.977083]]]},"properties":{"radiance":15.76}},{"type":"Feature","geometry":{"type":"Polygon","coordinates":[[[29.164583,65.977083],[29.16875,65.977083],[29.16875,65.98125],[29.164583,65.98125],[29.164583,65.977083]]]},"properties":{"radiance":44.53}},{"type":"Feature","geometry":{"type":"Polygon","coordinates":[[[29.16875,65.977083],[29.172917,65.977083],[29.172917,65.98125],[29.16875,65.98125],[29.16875,65.977083]]]},"properties":{"radiance":45.44}},{"type":"Feature","geometry":{"type":"Polygon","coordinates":[[[29.172917,65.977083],[29.177083,65.977083],[29.177083,65.98125],[29.172917,65.98125],[29.172917,65.977083]]]},"properties":{"radiance":42.19}},{"type":"Feature","geometry":{"type":"Polygon","coordinates":[[[29.177083,65.977083],[29.18125,65.977083],[29.18125,65.98125],[29.177083,65.98125],[29.177083,65.977083]]]},"properties":{"radiance":43.89}},{"type":"Feature","geometry":{"type":"Polygon","coordinates":[[[29.18125,65.977083],[29.185417,65.977083],[29.185417,65.98125],[29.18125,65.98125],[29.18125,65.977083]]]},"properties":{"radiance":28.13}},{"type":"Feature","geometry":{"type":"Polygon","coordinates":[[[29.185417,65.977083],[29.189583,65.977083],[29.189583,65.98125],[29.185417,65.98125],[29.185417,65.977083]]]},"properties":{"radiance":9.52}},{"type":"Feature","geometry":{"type":"Polygon","coordinates":[[[29.189583,65.977083],[29.19375,65.977083],[29.19375,65.98125],[29.189583,65.98125],[29.189583,65.977083]]]},"properties":{"radiance":5.07}},{"type":"Feature","geometry":{"type":"Polygon","coordinates":[[[29.202083,65.977083],[29.20625,65.977083],[29.20625,65.98125],[29.202083,65.98125],[29.202083,65.977083]]]},"properties":{"radiance":6.49}},{"type":"Feature","geometry":{"type":"Polygon","coordinates":[[[29.20625,65.977083],[29.210417,65.977083],[29.210417,65.98125],[29.20625,65.98125],[29.20625,65.977083]]]},"properties":{"radiance":11.38}},{"type":"Feature","geometry":{"type":"Polygon","coordinates":[[[29.210417,65.977083],[29.214583,65.977083],[29.214583,65.98125],[29.210417,65.98125],[29.210417,65.977083]]]},"properties":{"radiance":8.02}},{"type":"Feature","geometry":{"type":"Polygon","coordinates":[[[29.214583,65.977083],[29.21875,65.977083],[29.21875,65.98125],[29.214583,65.98125],[29.214583,65.977083]]]},"properties":{"radiance":8.49}},{"type":"Feature","geometry":{"type":"Polygon","coordinates":[[[29.21875,65.977083],[29.222917,65.977083],[29.222917,65.98125],[29.21875,65.98125],[29.21875,65.977083]]]},"properties":{"radiance":5.4}},{"type":"Feature","geometry":{"type":"Polygon","coordinates":[[[29.147917,65.972917],[29.152083,65.972917],[29.152083,65.977083],[29.147917,65.977083],[29.147917,65.972917]]]},"properties":{"radiance":6.88}},{"type":"Feature","geometry":{"type":"Polygon","coordinates":[[[29.152083,65.972917],[29.15625,65.972917],[29.15625,65.977083],[29.152083,65.977083],[29.152083,65.972917]]]},"properties":{"radiance":9.33}},{"type":"Feature","geometry":{"type":"Polygon","coordinates":[[[29.15625,65.972917],[29.160417,65.972917],[29.160417,65.977083],[29.15625,65.977083],[29.15625,65.972917]]]},"properties":{"radiance":21.4}},{"type":"Feature","geometry":{"type":"Polygon","coordinates":[[[29.160417,65.972917],[29.164583,65.972917],[29.164583,65.977083],[29.160417,65.977083],[29.160417,65.972917]]]},"properties":{"radiance":7.22}},{"type":"Feature","geometry":{"type":"Polygon","coordinates":[[[29.164583,65.972917],[29.16875,65.972917],[29.16875,65.977083],[29.164583,65.977083],[29.164583,65.972917]]]},"properties":{"radiance":37.96}},{"type":"Feature","geometry":{"type":"Polygon","coordinates":[[[29.16875,65.972917],[29.172917,65.972917],[29.172917,65.977083],[29.16875,65.977083],[29.16875,65.972917]]]},"properties":{"radiance":43.84}},{"type":"Feature","geometry":{"type":"Polygon","coordinates":[[[29.172917,65.972917],[29.177083,65.972917],[29.177083,65.977083],[29.172917,65.977083],[29.172917,65.972917]]]},"properties":{"radiance":57.81}},{"type":"Feature","geometry":{"type":"Polygon","coordinates":[[[29.177083,65.972917],[29.18125,65.972917],[29.18125,65.977083],[29.177083,65.977083],[29.177083,65.972917]]]},"properties":{"radiance":41.52}},{"type":"Feature","geometry":{"type":"Polygon","coordinates":[[[29.18125,65.972917],[29.185417,65.972917],[29.185417,65.977083],[29.18125,65.977083],[29.18125,65.972917]]]},"properties":{"radiance":34.97}},{"type":"Feature","geometry":{"type":"Polygon","coordinates":[[[29.185417,65.972917],[29.189583,65.972917],[29.189583,65.977083],[29.185417,65.977083],[29.185417,65.972917]]]},"properties":{"radiance":26.5}},{"type":"Feature","geometry":{"type":"Polygon","coordinates":[[[29.189583,65.972917],[29.19375,65.972917],[29.19375,65.977083],[29.189583,65.977083],[29.189583,65.972917]]]},"properties":{"radiance":8.24}},{"type":"Feature","geometry":{"type":"Polygon","coordinates":[[[29.19375,65.972917],[29.197917,65.972917],[29.197917,65.977083],[29.19375,65.977083],[29.19375,65.972917]]]},"properties":{"radiance":5.9}},{"type":"Feature","geometry":{"type":"Polygon","coordinates":[[[29.197917,65.972917],[29.202083,65.972917],[29.202083,65.977083],[29.197917,65.977083],[29.197917,65.972917]]]},"properties":{"radiance":5}},{"type":"Feature","geometry":{"type":"Polygon","coordinates":[[[29.20625,65.972917],[29.210417,65.972917],[29.210417,65.977083],[29.20625,65.977083],[29.20625,65.972917]]]},"properties":{"radiance":10.27}},{"type":"Feature","geometry":{"type":"Polygon","coordinates":[[[29.210417,65.972917],[29.214583,65.972917],[29.214583,65.977083],[29.210417,65.977083],[29.210417,65.972917]]]},"properties":{"radiance":11.88}},{"type":"Feature","geometry":{"type":"Polygon","coordinates":[[[29.214583,65.972917],[29.21875,65.972917],[29.21875,65.977083],[29.214583,65.977083],[29.214583,65.972917]]]},"properties":{"radiance":8.47}},{"type":"Feature","geometry":{"type":"Polygon","coordinates":[[[29.227083,65.972917],[29.23125,65.972917],[29.23125,65.977083],[29.227083,65.977083],[29.227083,65.972917]]]},"properties":{"radiance":6.17}},{"type":"Feature","geometry":{"type":"Polygon","coordinates":[[[29.139583,65.96875],[29.14375,65.96875],[29.14375,65.972917],[29.139583,65.972917],[29.139583,65.96875]]]},"properties":{"radiance":6}},{"type":"Feature","geometry":{"type":"Polygon","coordinates":[[[29.14375,65.96875],[29.147917,65.96875],[29.147917,65.972917],[29.14375,65.972917],[29.14375,65.96875]]]},"properties":{"radiance":6.76}},{"type":"Feature","geometry":{"type":"Polygon","coordinates":[[[29.147917,65.96875],[29.152083,65.96875],[29.152083,65.972917],[29.147917,65.972917],[29.147917,65.96875]]]},"properties":{"radiance":13.98}},{"type":"Feature","geometry":{"type":"Polygon","coordinates":[[[29.152083,65.96875],[29.15625,65.96875],[29.15625,65.972917],[29.152083,65.972917],[29.152083,65.96875]]]},"properties":{"radiance":6.41}},{"type":"Feature","geometry":{"type":"Polygon","coordinates":[[[29.15625,65.96875],[29.160417,65.96875],[29.160417,65.972917],[29.15625,65.972917],[29.15625,65.96875]]]},"properties":{"radiance":30.43}},{"type":"Feature","geometry":{"type":"Polygon","coordinates":[[[29.160417,65.96875],[29.164583,65.96875],[29.164583,65.972917],[29.160417,65.972917],[29.160417,65.96875]]]},"properties":{"radiance":58.34}},{"type":"Feature","geometry":{"type":"Polygon","coordinates":[[[29.164583,65.96875],[29.16875,65.96875],[29.16875,65.972917],[29.164583,65.972917],[29.164583,65.96875]]]},"properties":{"radiance":52.93}},{"type":"Feature","geometry":{"type":"Polygon","coordinates":[[[29.16875,65.96875],[29.172917,65.96875],[29.172917,65.972917],[29.16875,65.972917],[29.16875,65.96875]]]},"properties":{"radiance":56.09}},{"type":"Feature","geometry":{"type":"Polygon","coordinates":[[[29.172917,65.96875],[29.177083,65.96875],[29.177083,65.972917],[29.172917,65.972917],[29.172917,65.96875]]]},"properties":{"radiance":60.62}},{"type":"Feature","geometry":{"type":"Polygon","coordinates":[[[29.177083,65.96875],[29.18125,65.96875],[29.18125,65.972917],[29.177083,65.972917],[29.177083,65.96875]]]},"properties":{"radiance":65.37}},{"type":"Feature","geometry":{"type":"Polygon","coordinates":[[[29.18125,65.96875],[29.185417,65.96875],[29.185417,65.972917],[29.18125,65.972917],[29.18125,65.96875]]]},"properties":{"radiance":73.12}},{"type":"Feature","geometry":{"type":"Polygon","coordinates":[[[29.185417,65.96875],[29.189583,65.96875],[29.189583,65.972917],[29.185417,65.972917],[29.185417,65.96875]]]},"properties":{"radiance":66.94}},{"type":"Feature","geometry":{"type":"Polygon","coordinates":[[[29.189583,65.96875],[29.19375,65.96875],[29.19375,65.972917],[29.189583,65.972917],[29.189583,65.96875]]]},"properties":{"radiance":47.3}},{"type":"Feature","geometry":{"type":"Polygon","coordinates":[[[29.19375,65.96875],[29.197917,65.96875],[29.197917,65.972917],[29.19375,65.972917],[29.19375,65.96875]]]},"properties":{"radiance":10.67}},{"type":"Feature","geometry":{"type":"Polygon","coordinates":[[[29.14375,65.964583],[29.147917,65.964583],[29.147917,65.96875],[29.14375,65.96875],[29.14375,65.964583]]]},"properties":{"radiance":9.31}},{"type":"Feature","geometry":{"type":"Polygon","coordinates":[[[29.147917,65.964583],[29.152083,65.964583],[29.152083,65.96875],[29.147917,65.96875],[29.147917,65.964583]]]},"properties":{"radiance":30.18}},{"type":"Feature","geometry":{"type":"Polygon","coordinates":[[[29.152083,65.964583],[29.15625,65.964583],[29.15625,65.96875],[29.152083,65.96875],[29.152083,65.964583]]]},"properties":{"radiance":39}},{"type":"Feature","geometry":{"type":"Polygon","coordinates":[[[29.15625,65.964583],[29.160417,65.964583],[29.160417,65.96875],[29.15625,65.96875],[29.15625,65.964583]]]},"properties":{"radiance":70.65}},{"type":"Feature","geometry":{"type":"Polygon","coordinates":[[[29.160417,65.964583],[29.164583,65.964583],[29.164583,65.96875],[29.160417,65.96875],[29.160417,65.964583]]]},"properties":{"radiance":59.1}},{"type":"Feature","geometry":{"type":"Polygon","coordinates":[[[29.164583,65.964583],[29.16875,65.964583],[29.16875,65.96875],[29.164583,65.96875],[29.164583,65.964583]]]},"properties":{"radiance":61.72}},{"type":"Feature","geometry":{"type":"Polygon","coordinates":[[[29.16875,65.964583],[29.172917,65.964583],[29.172917,65.96875],[29.16875,65.96875],[29.16875,65.964583]]]},"properties":{"radiance":67.64}},{"type":"Feature","geometry":{"type":"Polygon","coordinates":[[[29.172917,65.964583],[29.177083,65.964583],[29.177083,65.96875],[29.172917,65.96875],[29.172917,65.964583]]]},"properties":{"radiance":89.06}},{"type":"Feature","geometry":{"type":"Polygon","coordinates":[[[29.177083,65.964583],[29.18125,65.964583],[29.18125,65.96875],[29.177083,65.96875],[29.177083,65.964583]]]},"properties":{"radiance":103.74}},{"type":"Feature","geometry":{"type":"Polygon","coordinates":[[[29.18125,65.964583],[29.185417,65.964583],[29.185417,65.96875],[29.18125,65.96875],[29.18125,65.964583]]]},"properties":{"radiance":104.46}},{"type":"Feature","geometry":{"type":"Polygon","coordinates":[[[29.185417,65.964583],[29.189583,65.964583],[29.189583,65.96875],[29.185417,65.96875],[29.185417,65.964583]]]},"properties":{"radiance":88.63}},{"type":"Feature","geometry":{"type":"Polygon","coordinates":[[[29.189583,65.964583],[29.19375,65.964583],[29.19375,65.96875],[29.189583,65.96875],[29.189583,65.964583]]]},"properties":{"radiance":62.2}},{"type":"Feature","geometry":{"type":"Polygon","coordinates":[[[29.19375,65.964583],[29.197917,65.964583],[29.197917,65.96875],[29.19375,65.96875],[29.19375,65.964583]]]},"properties":{"radiance":48.43}},{"type":"Feature","geometry":{"type":"Polygon","coordinates":[[[29.197917,65.964583],[29.202083,65.964583],[29.202083,65.96875],[29.197917,65.96875],[29.197917,65.964583]]]},"properties":{"radiance":14.07}},{"type":"Feature","geometry":{"type":"Polygon","coordinates":[[[29.202083,65.964583],[29.20625,65.964583],[29.20625,65.96875],[29.202083,65.96875],[29.202083,65.964583]]]},"properties":{"radiance":10.94}},{"type":"Feature","geometry":{"type":"Polygon","coordinates":[[[29.135417,65.960417],[29.139583,65.960417],[29.139583,65.964583],[29.135417,65.964583],[29.135417,65.960417]]]},"properties":{"radiance":10.43}},{"type":"Feature","geometry":{"type":"Polygon","coordinates":[[[29.139583,65.960417],[29.14375,65.960417],[29.14375,65.964583],[29.139583,65.964583],[29.139583,65.960417]]]},"properties":{"radiance":29.2}},{"type":"Feature","geometry":{"type":"Polygon","coordinates":[[[29.14375,65.960417],[29.147917,65.960417],[29.147917,65.964583],[29.14375,65.964583],[29.14375,65.960417]]]},"properties":{"radiance":13.98}},{"type":"Feature","geometry":{"type":"Polygon","coordinates":[[[29.147917,65.960417],[29.152083,65.960417],[29.152083,65.964583],[29.147917,65.964583],[29.147917,65.960417]]]},"properties":{"radiance":36.77}},{"type":"Feature","geometry":{"type":"Polygon","coordinates":[[[29.152083,65.960417],[29.15625,65.960417],[29.15625,65.964583],[29.152083,65.964583],[29.152083,65.960417]]]},"properties":{"radiance":57.51}},{"type":"Feature","geometry":{"type":"Polygon","coordinates":[[[29.15625,65.960417],[29.160417,65.960417],[29.160417,65.964583],[29.15625,65.964583],[29.15625,65.960417]]]},"properties":{"radiance":61.87}},{"type":"Feature","geometry":{"type":"Polygon","coordinates":[[[29.160417,65.960417],[29.164583,65.960417],[29.164583,65.964583],[29.160417,65.964583],[29.160417,65.960417]]]},"properties":{"radiance":61.49}},{"type":"Feature","geometry":{"type":"Polygon","coordinates":[[[29.164583,65.960417],[29.16875,65.960417],[29.16875,65.964583],[29.164583,65.964583],[29.164583,65.960417]]]},"properties":{"radiance":71.51}},{"type":"Feature","geometry":{"type":"Polygon","coordinates":[[[29.16875,65.960417],[29.172917,65.960417],[29.172917,65.964583],[29.16875,65.964583],[29.16875,65.960417]]]},"properties":{"radiance":56.07}},{"type":"Feature","geometry":{"type":"Polygon","coordinates":[[[29.172917,65.960417],[29.177083,65.960417],[29.177083,65.964583],[29.172917,65.964583],[29.172917,65.960417]]]},"properties":{"radiance":63.24}},{"type":"Feature","geometry":{"type":"Polygon","coordinates":[[[29.177083,65.960417],[29.18125,65.960417],[29.18125,65.964583],[29.177083,65.964583],[29.177083,65.960417]]]},"properties":{"radiance":22.12}},{"type":"Feature","geometry":{"type":"Polygon","coordinates":[[[29.18125,65.960417],[29.185417,65.960417],[29.185417,65.964583],[29.18125,65.964583],[29.18125,65.960417]]]},"properties":{"radiance":22.28}},{"type":"Feature","geometry":{"type":"Polygon","coordinates":[[[29.185417,65.960417],[29.189583,65.960417],[29.189583,65.964583],[29.185417,65.964583],[29.185417,65.960417]]]},"properties":{"radiance":35.75}},{"type":"Feature","geometry":{"type":"Polygon","coordinates":[[[29.189583,65.960417],[29.19375,65.960417],[29.19375,65.964583],[29.189583,65.964583],[29.189583,65.960417]]]},"properties":{"radiance":42.58}},{"type":"Feature","geometry":{"type":"Polygon","coordinates":[[[29.19375,65.960417],[29.197917,65.960417],[29.197917,65.964583],[29.19375,65.964583],[29.19375,65.960417]]]},"properties":{"radiance":44.17}},{"type":"Feature","geometry":{"type":"Polygon","coordinates":[[[29.197917,65.960417],[29.202083,65.960417],[29.202083,65.964583],[29.197917,65.964583],[29.197917,65.960417]]]},"properties":{"radiance":30.06}},{"type":"Feature","geometry":{"type":"Polygon","coordinates":[[[29.202083,65.960417],[29.20625,65.960417],[29.20625,65.964583],[29.202083,65.964583],[29.202083,65.960417]]]},"properties":{"radiance":8.27}},{"type":"Feature","geometry":{"type":"Polygon","coordinates":[[[29.20625,65.960417],[29.210417,65.960417],[29.210417,65.964583],[29.20625,65.964583],[29.20625,65.960417]]]},"properties":{"radiance":7.61}},{"type":"Feature","geometry":{"type":"Polygon","coordinates":[[[29.210417,65.960417],[29.214583,65.960417],[29.214583,65.964583],[29.210417,65.964583],[29.210417,65.960417]]]},"properties":{"radiance":7.18}},{"type":"Feature","geometry":{"type":"Polygon","coordinates":[[[29.135417,65.95625],[29.139583,65.95625],[29.139583,65.960417],[29.135417,65.960417],[29.135417,65.95625]]]},"properties":{"radiance":16.13}},{"type":"Feature","geometry":{"type":"Polygon","coordinates":[[[29.139583,65.95625],[29.14375,65.95625],[29.14375,65.960417],[29.139583,65.960417],[29.139583,65.95625]]]},"properties":{"radiance":15.51}},{"type":"Feature","geometry":{"type":"Polygon","coordinates":[[[29.14375,65.95625],[29.147917,65.95625],[29.147917,65.960417],[29.14375,65.960417],[29.14375,65.95625]]]},"properties":{"radiance":58.77}},{"type":"Feature","geometry":{"type":"Polygon","coordinates":[[[29.147917,65.95625],[29.152083,65.95625],[29.152083,65.960417],[29.147917,65.960417],[29.147917,65.95625]]]},"properties":{"radiance":60.04}},{"type":"Feature","geometry":{"type":"Polygon","coordinates":[[[29.152083,65.95625],[29.15625,65.95625],[29.15625,65.960417],[29.152083,65.960417],[29.152083,65.95625]]]},"properties":{"radiance":54.88}},{"type":"Feature","geometry":{"type":"Polygon","coordinates":[[[29.15625,65.95625],[29.160417,65.95625],[29.160417,65.960417],[29.15625,65.960417],[29.15625,65.95625]]]},"properties":{"radiance":41.92}},{"type":"Feature","geometry":{"type":"Polygon","coordinates":[[[29.160417,65.95625],[29.164583,65.95625],[29.164583,65.960417],[29.160417,65.960417],[29.160417,65.95625]]]},"properties":{"radiance":68.59}},{"type":"Feature","geometry":{"type":"Polygon","coordinates":[[[29.164583,65.95625],[29.16875,65.95625],[29.16875,65.960417],[29.164583,65.960417],[29.164583,65.95625]]]},"properties":{"radiance":11.67}},{"type":"Feature","geometry":{"type":"Polygon","coordinates":[[[29.16875,65.95625],[29.172917,65.95625],[29.172917,65.960417],[29.16875,65.960417],[29.16875,65.95625]]]},"properties":{"radiance":24.73}},{"type":"Feature","geometry":{"type":"Polygon","coordinates":[[[29.18125,65.95625],[29.185417,65.95625],[29.185417,65.960417],[29.18125,65.960417],[29.18125,65.95625]]]},"properties":{"radiance":12.04}},{"type":"Feature","geometry":{"type":"Polygon","coordinates":[[[29.185417,65.95625],[29.189583,65.95625],[29.189583,65.960417],[29.185417,65.960417],[29.185417,65.95625]]]},"properties":{"radiance":22.03}},{"type":"Feature","geometry":{"type":"Polygon","coordinates":[[[29.189583,65.95625],[29.19375,65.95625],[29.19375,65.960417],[29.189583,65.960417],[29.189583,65.95625]]]},"properties":{"radiance":16.87}},{"type":"Feature","geometry":{"type":"Polygon","coordinates":[[[29.19375,65.95625],[29.197917,65.95625],[29.197917,65.960417],[29.19375,65.960417],[29.19375,65.95625]]]},"properties":{"radiance":7.84}},{"type":"Feature","geometry":{"type":"Polygon","coordinates":[[[29.197917,65.95625],[29.202083,65.95625],[29.202083,65.960417],[29.197917,65.960417],[29.197917,65.95625]]]},"properties":{"radiance":7.65}},{"type":"Feature","geometry":{"type":"Polygon","coordinates":[[[29.202083,65.95625],[29.20625,65.95625],[29.20625,65.960417],[29.202083,65.960417],[29.202083,65.95625]]]},"properties":{"radiance":8.85}},{"type":"Feature","geometry":{"type":"Polygon","coordinates":[[[29.20625,65.95625],[29.210417,65.95625],[29.210417,65.960417],[29.20625,65.960417],[29.20625,65.95625]]]},"properties":{"radiance":7.51}},{"type":"Feature","geometry":{"type":"Polygon","coordinates":[[[29.210417,65.95625],[29.214583,65.95625],[29.214583,65.960417],[29.210417,65.960417],[29.210417,65.95625]]]},"properties":{"radiance":6.42}},{"type":"Feature","geometry":{"type":"Polygon","coordinates":[[[29.114583,65.952083],[29.11875,65.952083],[29.11875,65.95625],[29.114583,65.95625],[29.114583,65.952083]]]},"properties":{"radiance":5.4}},{"type":"Feature","geometry":{"type":"Polygon","coordinates":[[[29.11875,65.952083],[29.122917,65.952083],[29.122917,65.95625],[29.11875,65.95625],[29.11875,65.952083]]]},"properties":{"radiance":6.25}},{"type":"Feature","geometry":{"type":"Polygon","coordinates":[[[29.122917,65.952083],[29.127083,65.952083],[29.127083,65.95625],[29.122917,65.95625],[29.122917,65.952083]]]},"properties":{"radiance":6.78}},{"type":"Feature","geometry":{"type":"Polygon","coordinates":[[[29.127083,65.952083],[29.13125,65.952083],[29.13125,65.95625],[29.127083,65.95625],[29.127083,65.952083]]]},"properties":{"radiance":7.95}},{"type":"Feature","geometry":{"type":"Polygon","coordinates":[[[29.135417,65.952083],[29.139583,65.952083],[29.139583,65.95625],[29.135417,65.95625],[29.135417,65.952083]]]},"properties":{"radiance":6.11}},{"type":"Feature","geometry":{"type":"Polygon","coordinates":[[[29.139583,65.952083],[29.14375,65.952083],[29.14375,65.95625],[29.139583,65.95625],[29.139583,65.952083]]]},"properties":{"radiance":9.37}},{"type":"Feature","geometry":{"type":"Polygon","coordinates":[[[29.14375,65.952083],[29.147917,65.952083],[29.147917,65.95625],[29.14375,65.95625],[29.14375,65.952083]]]},"properties":{"radiance":6.72}},{"type":"Feature","geometry":{"type":"Polygon","coordinates":[[[29.152083,65.952083],[29.15625,65.952083],[29.15625,65.95625],[29.152083,65.95625],[29.152083,65.952083]]]},"properties":{"radiance":5.8}},{"type":"Feature","geometry":{"type":"Polygon","coordinates":[[[29.15625,65.952083],[29.160417,65.952083],[29.160417,65.95625],[29.15625,65.95625],[29.15625,65.952083]]]},"properties":{"radiance":10.18}},{"type":"Feature","geometry":{"type":"Polygon","coordinates":[[[29.160417,65.952083],[29.164583,65.952083],[29.164583,65.95625],[29.160417,65.95625],[29.160417,65.952083]]]},"properties":{"radiance":5.94}},{"type":"Feature","geometry":{"type":"Polygon","coordinates":[[[29.164583,65.952083],[29.16875,65.952083],[29.16875,65.95625],[29.164583,65.95625],[29.164583,65.952083]]]},"properties":{"radiance":21.04}},{"type":"Feature","geometry":{"type":"Polygon","coordinates":[[[29.202083,65.952083],[29.20625,65.952083],[29.20625,65.95625],[29.202083,65.95625],[29.202083,65.952083]]]},"properties":{"radiance":8.05}},{"type":"Feature","geometry":{"type":"Polygon","coordinates":[[[29.214583,65.952083],[29.21875,65.952083],[29.21875,65.95625],[29.214583,65.95625],[29.214583,65.952083]]]},"properties":{"radiance":5.9}},{"type":"Feature","geometry":{"type":"Polygon","coordinates":[[[29.21875,65.952083],[29.222917,65.952083],[29.222917,65.95625],[29.21875,65.95625],[29.21875,65.952083]]]},"properties":{"radiance":5.23}},{"type":"Feature","geometry":{"type":"Polygon","coordinates":[[[29.13125,65.947917],[29.135417,65.947917],[29.135417,65.952083],[29.13125,65.952083],[29.13125,65.947917]]]},"properties":{"radiance":7.21}},{"type":"Feature","geometry":{"type":"Polygon","coordinates":[[[29.135417,65.947917],[29.139583,65.947917],[29.139583,65.952083],[29.135417,65.952083],[29.135417,65.947917]]]},"properties":{"radiance":7.22}},{"type":"Feature","geometry":{"type":"Polygon","coordinates":[[[29.139583,65.947917],[29.14375,65.947917],[29.14375,65.952083],[29.139583,65.952083],[29.139583,65.947917]]]},"properties":{"radiance":5.6}},{"type":"Feature","geometry":{"type":"Polygon","coordinates":[[[29.152083,65.947917],[29.15625,65.947917],[29.15625,65.952083],[29.152083,65.952083],[29.152083,65.947917]]]},"properties":{"radiance":9.45}},{"type":"Feature","geometry":{"type":"Polygon","coordinates":[[[29.15625,65.947917],[29.160417,65.947917],[29.160417,65.952083],[29.15625,65.952083],[29.15625,65.947917]]]},"properties":{"radiance":10.23}},{"type":"Feature","geometry":{"type":"Polygon","coordinates":[[[29.164583,65.947917],[29.16875,65.947917],[29.16875,65.952083],[29.164583,65.952083],[29.164583,65.947917]]]},"properties":{"radiance":9.57}},{"type":"Feature","geometry":{"type":"Polygon","coordinates":[[[29.16875,65.947917],[29.172917,65.947917],[29.172917,65.952083],[29.16875,65.952083],[29.16875,65.947917]]]},"properties":{"radiance":10.1}},{"type":"Feature","geometry":{"type":"Polygon","coordinates":[[[29.185417,65.947917],[29.189583,65.947917],[29.189583,65.952083],[29.185417,65.952083],[29.185417,65.947917]]]},"properties":{"radiance":7.7}},{"type":"Feature","geometry":{"type":"Polygon","coordinates":[[[29.189583,65.947917],[29.19375,65.947917],[29.19375,65.952083],[29.189583,65.952083],[29.189583,65.947917]]]},"properties":{"radiance":7.29}},{"type":"Feature","geometry":{"type":"Polygon","coordinates":[[[29.19375,65.947917],[29.197917,65.947917],[29.197917,65.952083],[29.19375,65.952083],[29.19375,65.947917]]]},"properties":{"radiance":6.66}},{"type":"Feature","geometry":{"type":"Polygon","coordinates":[[[29.24375,65.947917],[29.247917,65.947917],[29.247917,65.952083],[29.24375,65.952083],[29.24375,65.947917]]]},"properties":{"radiance":5.85}},{"type":"Feature","geometry":{"type":"Polygon","coordinates":[[[29.15625,65.94375],[29.160417,65.94375],[29.160417,65.947917],[29.15625,65.947917],[29.15625,65.94375]]]},"properties":{"radiance":6.31}},{"type":"Feature","geometry":{"type":"Polygon","coordinates":[[[29.160417,65.94375],[29.164583,65.94375],[29.164583,65.947917],[29.160417,65.947917],[29.160417,65.94375]]]},"properties":{"radiance":7.21}},{"type":"Feature","geometry":{"type":"Polygon","coordinates":[[[29.164583,65.94375],[29.16875,65.94375],[29.16875,65.947917],[29.164583,65.947917],[29.164583,65.94375]]]},"properties":{"radiance":6.91}},{"type":"Feature","geometry":{"type":"Polygon","coordinates":[[[28.039583,65.602083],[28.04375,65.602083],[28.04375,65.60625],[28.039583,65.60625],[28.039583,65.602083]]]},"properties":{"radiance":7.64}},{"type":"Feature","geometry":{"type":"Polygon","coordinates":[[[28.04375,65.602083],[28.047917,65.602083],[28.047917,65.60625],[28.04375,65.60625],[28.04375,65.602083]]]},"properties":{"radiance":6.21}},{"type":"Feature","geometry":{"type":"Polygon","coordinates":[[[28.202083,65.585417],[28.20625,65.585417],[28.20625,65.589583],[28.202083,65.589583],[28.202083,65.585417]]]},"properties":{"radiance":13.04}},{"type":"Feature","geometry":{"type":"Polygon","coordinates":[[[28.20625,65.585417],[28.210417,65.585417],[28.210417,65.589583],[28.20625,65.589583],[28.20625,65.585417]]]},"properties":{"radiance":15.13}},{"type":"Feature","geometry":{"type":"Polygon","coordinates":[[[28.210417,65.585417],[28.214583,65.585417],[28.214583,65.589583],[28.210417,65.589583],[28.210417,65.585417]]]},"properties":{"radiance":16.39}},{"type":"Feature","geometry":{"type":"Polygon","coordinates":[[[28.214583,65.585417],[28.21875,65.585417],[28.21875,65.589583],[28.214583,65.589583],[28.214583,65.585417]]]},"properties":{"radiance":9.49}},{"type":"Feature","geometry":{"type":"Polygon","coordinates":[[[28.21875,65.585417],[28.222917,65.585417],[28.222917,65.589583],[28.21875,65.589583],[28.21875,65.585417]]]},"properties":{"radiance":9.02}},{"type":"Feature","geometry":{"type":"Polygon","coordinates":[[[28.197917,65.58125],[28.202083,65.58125],[28.202083,65.585417],[28.197917,65.585417],[28.197917,65.58125]]]},"properties":{"radiance":7.54}},{"type":"Feature","geometry":{"type":"Polygon","coordinates":[[[28.202083,65.58125],[28.20625,65.58125],[28.20625,65.585417],[28.202083,65.585417],[28.202083,65.58125]]]},"properties":{"radiance":44.89}},{"type":"Feature","geometry":{"type":"Polygon","coordinates":[[[28.20625,65.58125],[28.210417,65.58125],[28.210417,65.585417],[28.20625,65.585417],[28.20625,65.58125]]]},"properties":{"radiance":51.08}},{"type":"Feature","geometry":{"type":"Polygon","coordinates":[[[28.210417,65.58125],[28.214583,65.58125],[28.214583,65.585417],[28.210417,65.585417],[28.210417,65.58125]]]},"properties":{"radiance":53.08}},{"type":"Feature","geometry":{"type":"Polygon","coordinates":[[[28.214583,65.58125],[28.21875,65.58125],[28.21875,65.585417],[28.214583,65.585417],[28.214583,65.58125]]]},"properties":{"radiance":49.94}},{"type":"Feature","geometry":{"type":"Polygon","coordinates":[[[28.21875,65.58125],[28.222917,65.58125],[28.222917,65.585417],[28.21875,65.585417],[28.21875,65.58125]]]},"properties":{"radiance":32.27}},{"type":"Feature","geometry":{"type":"Polygon","coordinates":[[[28.222917,65.58125],[28.227083,65.58125],[28.227083,65.585417],[28.222917,65.585417],[28.222917,65.58125]]]},"properties":{"radiance":27.35}},{"type":"Feature","geometry":{"type":"Polygon","coordinates":[[[28.227083,65.58125],[28.23125,65.58125],[28.23125,65.585417],[28.227083,65.585417],[28.227083,65.58125]]]},"properties":{"radiance":10.24}},{"type":"Feature","geometry":{"type":"Polygon","coordinates":[[[28.23125,65.58125],[28.235417,65.58125],[28.235417,65.585417],[28.23125,65.585417],[28.23125,65.58125]]]},"properties":{"radiance":10.23}},{"type":"Feature","geometry":{"type":"Polygon","coordinates":[[[28.235417,65.58125],[28.239583,65.58125],[28.239583,65.585417],[28.235417,65.585417],[28.235417,65.58125]]]},"properties":{"radiance":6.51}},{"type":"Feature","geometry":{"type":"Polygon","coordinates":[[[28.239583,65.58125],[28.24375,65.58125],[28.24375,65.585417],[28.239583,65.585417],[28.239583,65.58125]]]},"properties":{"radiance":8.33}},{"type":"Feature","geometry":{"type":"Polygon","coordinates":[[[28.20625,65.577083],[28.210417,65.577083],[28.210417,65.58125],[28.20625,65.58125],[28.20625,65.577083]]]},"properties":{"radiance":7.49}},{"type":"Feature","geometry":{"type":"Polygon","coordinates":[[[28.210417,65.577083],[28.214583,65.577083],[28.214583,65.58125],[28.210417,65.58125],[28.210417,65.577083]]]},"properties":{"radiance":10.57}},{"type":"Feature","geometry":{"type":"Polygon","coordinates":[[[28.214583,65.577083],[28.21875,65.577083],[28.21875,65.58125],[28.214583,65.58125],[28.214583,65.577083]]]},"properties":{"radiance":19.79}},{"type":"Feature","geometry":{"type":"Polygon","coordinates":[[[28.21875,65.577083],[28.222917,65.577083],[28.222917,65.58125],[28.21875,65.58125],[28.21875,65.577083]]]},"properties":{"radiance":18.87}},{"type":"Feature","geometry":{"type":"Polygon","coordinates":[[[28.222917,65.577083],[28.227083,65.577083],[28.227083,65.58125],[28.222917,65.58125],[28.222917,65.577083]]]},"properties":{"radiance":8.55}},{"type":"Feature","geometry":{"type":"Polygon","coordinates":[[[28.227083,65.577083],[28.23125,65.577083],[28.23125,65.58125],[28.227083,65.58125],[28.227083,65.577083]]]},"properties":{"radiance":8.47}},{"type":"Feature","geometry":{"type":"Polygon","coordinates":[[[28.23125,65.577083],[28.235417,65.577083],[28.235417,65.58125],[28.23125,65.58125],[28.23125,65.577083]]]},"properties":{"radiance":9.45}},{"type":"Feature","geometry":{"type":"Polygon","coordinates":[[[28.235417,65.577083],[28.239583,65.577083],[28.239583,65.58125],[28.235417,65.58125],[28.235417,65.577083]]]},"properties":{"radiance":22.92}},{"type":"Feature","geometry":{"type":"Polygon","coordinates":[[[28.239583,65.577083],[28.24375,65.577083],[28.24375,65.58125],[28.239583,65.58125],[28.239583,65.577083]]]},"properties":{"radiance":36.24}},{"type":"Feature","geometry":{"type":"Polygon","coordinates":[[[28.24375,65.577083],[28.247917,65.577083],[28.247917,65.58125],[28.24375,65.58125],[28.24375,65.577083]]]},"properties":{"radiance":5.9}},{"type":"Feature","geometry":{"type":"Polygon","coordinates":[[[28.247917,65.577083],[28.252083,65.577083],[28.252083,65.58125],[28.247917,65.58125],[28.247917,65.577083]]]},"properties":{"radiance":11.15}},{"type":"Feature","geometry":{"type":"Polygon","coordinates":[[[28.252083,65.577083],[28.25625,65.577083],[28.25625,65.58125],[28.252083,65.58125],[28.252083,65.577083]]]},"properties":{"radiance":8.32}},{"type":"Feature","geometry":{"type":"Polygon","coordinates":[[[28.260417,65.577083],[28.264583,65.577083],[28.264583,65.58125],[28.260417,65.58125],[28.260417,65.577083]]]},"properties":{"radiance":7.31}},{"type":"Feature","geometry":{"type":"Polygon","coordinates":[[[28.264583,65.577083],[28.26875,65.577083],[28.26875,65.58125],[28.264583,65.58125],[28.264583,65.577083]]]},"properties":{"radiance":7.03}},{"type":"Feature","geometry":{"type":"Polygon","coordinates":[[[28.210417,65.572917],[28.214583,65.572917],[28.214583,65.577083],[28.210417,65.577083],[28.210417,65.572917]]]},"properties":{"radiance":7.11}},{"type":"Feature","geometry":{"type":"Polygon","coordinates":[[[28.214583,65.572917],[28.21875,65.572917],[28.21875,65.577083],[28.214583,65.577083],[28.214583,65.572917]]]},"properties":{"radiance":9.47}},{"type":"Feature","geometry":{"type":"Polygon","coordinates":[[[28.21875,65.572917],[28.222917,65.572917],[28.222917,65.577083],[28.21875,65.577083],[28.21875,65.572917]]]},"properties":{"radiance":10.61}},{"type":"Feature","geometry":{"type":"Polygon","coordinates":[[[28.222917,65.572917],[28.227083,65.572917],[28.227083,65.577083],[28.222917,65.577083],[28.222917,65.572917]]]},"properties":{"radiance":6.5}},{"type":"Feature","geometry":{"type":"Polygon","coordinates":[[[28.227083,65.572917],[28.23125,65.572917],[28.23125,65.577083],[28.227083,65.577083],[28.227083,65.572917]]]},"properties":{"radiance":12.51}},{"type":"Feature","geometry":{"type":"Polygon","coordinates":[[[28.23125,65.572917],[28.235417,65.572917],[28.235417,65.577083],[28.23125,65.577083],[28.23125,65.572917]]]},"properties":{"radiance":12.51}},{"type":"Feature","geometry":{"type":"Polygon","coordinates":[[[28.235417,65.572917],[28.239583,65.572917],[28.239583,65.577083],[28.235417,65.577083],[28.235417,65.572917]]]},"properties":{"radiance":15.2}},{"type":"Feature","geometry":{"type":"Polygon","coordinates":[[[28.239583,65.572917],[28.24375,65.572917],[28.24375,65.577083],[28.239583,65.577083],[28.239583,65.572917]]]},"properties":{"radiance":10.39}},{"type":"Feature","geometry":{"type":"Polygon","coordinates":[[[28.24375,65.572917],[28.247917,65.572917],[28.247917,65.577083],[28.24375,65.577083],[28.24375,65.572917]]]},"properties":{"radiance":30.3}},{"type":"Feature","geometry":{"type":"Polygon","coordinates":[[[28.247917,65.572917],[28.252083,65.572917],[28.252083,65.577083],[28.247917,65.577083],[28.247917,65.572917]]]},"properties":{"radiance":19.15}},{"type":"Feature","geometry":{"type":"Polygon","coordinates":[[[28.252083,65.572917],[28.25625,65.572917],[28.25625,65.577083],[28.252083,65.577083],[28.252083,65.572917]]]},"properties":{"radiance":8.24}},{"type":"Feature","geometry":{"type":"Polygon","coordinates":[[[28.25625,65.572917],[28.260417,65.572917],[28.260417,65.577083],[28.25625,65.577083],[28.25625,65.572917]]]},"properties":{"radiance":6.65}},{"type":"Feature","geometry":{"type":"Polygon","coordinates":[[[28.260417,65.572917],[28.264583,65.572917],[28.264583,65.577083],[28.260417,65.577083],[28.260417,65.572917]]]},"properties":{"radiance":5.25}},{"type":"Feature","geometry":{"type":"Polygon","coordinates":[[[28.264583,65.572917],[28.26875,65.572917],[28.26875,65.577083],[28.264583,65.577083],[28.264583,65.572917]]]},"properties":{"radiance":7.48}},{"type":"Feature","geometry":{"type":"Polygon","coordinates":[[[28.210417,65.56875],[28.214583,65.56875],[28.214583,65.572917],[28.210417,65.572917],[28.210417,65.56875]]]},"properties":{"radiance":7.73}},{"type":"Feature","geometry":{"type":"Polygon","coordinates":[[[28.214583,65.56875],[28.21875,65.56875],[28.21875,65.572917],[28.214583,65.572917],[28.214583,65.56875]]]},"properties":{"radiance":11.01}},{"type":"Feature","geometry":{"type":"Polygon","coordinates":[[[28.21875,65.56875],[28.222917,65.56875],[28.222917,65.572917],[28.21875,65.572917],[28.21875,65.56875]]]},"properties":{"radiance":7.5}},{"type":"Feature","geometry":{"type":"Polygon","coordinates":[[[28.222917,65.56875],[28.227083,65.56875],[28.227083,65.572917],[28.222917,65.572917],[28.222917,65.56875]]]},"properties":{"radiance":9.82}},{"type":"Feature","geometry":{"type":"Polygon","coordinates":[[[28.227083,65.56875],[28.23125,65.56875],[28.23125,65.572917],[28.227083,65.572917],[28.227083,65.56875]]]},"properties":{"radiance":8.49}},{"type":"Feature","geometry":{"type":"Polygon","coordinates":[[[28.239583,65.56875],[28.24375,65.56875],[28.24375,65.572917],[28.239583,65.572917],[28.239583,65.56875]]]},"properties":{"radiance":10.55}},{"type":"Feature","geometry":{"type":"Polygon","coordinates":[[[28.24375,65.56875],[28.247917,65.56875],[28.247917,65.572917],[28.24375,65.572917],[28.24375,65.56875]]]},"properties":{"radiance":5.36}},{"type":"Feature","geometry":{"type":"Polygon","coordinates":[[[28.21875,65.564583],[28.222917,65.564583],[28.222917,65.56875],[28.21875,65.56875],[28.21875,65.564583]]]},"properties":{"radiance":7.49}},{"type":"Feature","geometry":{"type":"Polygon","coordinates":[[[28.222917,65.564583],[28.227083,65.564583],[28.227083,65.56875],[28.222917,65.56875],[28.222917,65.564583]]]},"properties":{"radiance":8.66}},{"type":"Feature","geometry":{"type":"Polygon","coordinates":[[[29.022917,65.39375],[29.027083,65.39375],[29.027083,65.397917],[29.022917,65.397917],[29.022917,65.39375]]]},"properties":{"radiance":6.3}},{"type":"Feature","geometry":{"type":"Polygon","coordinates":[[[29.027083,65.39375],[29.03125,65.39375],[29.03125,65.397917],[29.027083,65.397917],[29.027083,65.39375]]]},"properties":{"radiance":7.25}},{"type":"Feature","geometry":{"type":"Polygon","coordinates":[[[29.03125,65.39375],[29.035417,65.39375],[29.035417,65.397917],[29.03125,65.397917],[29.03125,65.39375]]]},"properties":{"radiance":5.54}},{"type":"Feature","geometry":{"type":"Polygon","coordinates":[[[30.085417,65.802083],[30.089583,65.802083],[30.089583,65.80625],[30.085417,65.80625],[30.085417,65.802083]]]},"properties":{"radiance":6.44}},{"type":"Feature","geometry":{"type":"Polygon","coordinates":[[[30.089583,65.802083],[30.09375,65.802083],[30.09375,65.80625],[30.089583,65.80625],[30.089583,65.802083]]]},"properties":{"radiance":8.32}},{"type":"Feature","geometry":{"type":"Polygon","coordinates":[[[30.09375,65.802083],[30.097917,65.802083],[30.097917,65.80625],[30.09375,65.80625],[30.09375,65.802083]]]},"properties":{"radiance":6.11}},{"type":"Feature","geometry":{"type":"Polygon","coordinates":[[[30.097917,65.802083],[30.102083,65.802083],[30.102083,65.80625],[30.097917,65.80625],[30.097917,65.802083]]]},"properties":{"radiance":7.86}},{"type":"Feature","geometry":{"type":"Polygon","coordinates":[[[30.08125,65.797917],[30.085417,65.797917],[30.085417,65.802083],[30.08125,65.802083],[30.08125,65.797917]]]},"properties":{"radiance":6.74}},{"type":"Feature","geometry":{"type":"Polygon","coordinates":[[[30.085417,65.797917],[30.089583,65.797917],[30.089583,65.802083],[30.085417,65.802083],[30.085417,65.797917]]]},"properties":{"radiance":13.6}},{"type":"Feature","geometry":{"type":"Polygon","coordinates":[[[30.089583,65.797917],[30.09375,65.797917],[30.09375,65.802083],[30.089583,65.802083],[30.089583,65.797917]]]},"properties":{"radiance":10.63}},{"type":"Feature","geometry":{"type":"Polygon","coordinates":[[[30.09375,65.797917],[30.097917,65.797917],[30.097917,65.802083],[30.09375,65.802083],[30.09375,65.797917]]]},"properties":{"radiance":12.37}},{"type":"Feature","geometry":{"type":"Polygon","coordinates":[[[30.097917,65.797917],[30.102083,65.797917],[30.102083,65.802083],[30.097917,65.802083],[30.097917,65.797917]]]},"properties":{"radiance":36.68}},{"type":"Feature","geometry":{"type":"Polygon","coordinates":[[[30.102083,65.797917],[30.10625,65.797917],[30.10625,65.802083],[30.102083,65.802083],[30.102083,65.797917]]]},"properties":{"radiance":18.7}},{"type":"Feature","geometry":{"type":"Polygon","coordinates":[[[30.097917,65.79375],[30.102083,65.79375],[30.102083,65.797917],[30.097917,65.797917],[30.097917,65.79375]]]},"properties":{"radiance":5.71}},{"type":"Feature","geometry":{"type":"Polygon","coordinates":[[[30.102083,65.79375],[30.10625,65.79375],[30.10625,65.797917],[30.102083,65.797917],[30.102083,65.79375]]]},"properties":{"radiance":16.41}}]}