{"type":"FeatureCollection","features":[{"type":"Feature","geometry":{"type":"Polygon","coordinates":[[[24.50625,62.13125],[24.510417,62.13125],[24.510417,62.135417],[24.50625,62.135417],[24.50625,62.13125]]]},"properties":{"radiance":5.91}},{"type":"Feature","geometry":{"type":"Polygon","coordinates":[[[25.610417,62.089583],[25.614583,62.089583],[25.614583,62.09375],[25.610417,62.09375],[25.610417,62.089583]]]},"properties":{"radiance":5.84}},{"type":"Feature","geometry":{"type":"Polygon","coordinates":[[[25.610417,62.085417],[25.614583,62.085417],[25.614583,62.089583],[25.610417,62.089583],[25.610417,62.085417]]]},"properties":{"radiance":14.34}},{"type":"Feature","geometry":{"type":"Polygon","coordinates":[[[25.59375,62.06875],[25.597917,62.06875],[25.597917,62.072917],[25.59375,62.072917],[25.59375,62.06875]]]},"properties":{"radiance":5.21}},{"type":"Feature","geometry":{"type":"Polygon","coordinates":[[[24.602083,62.039583],[24.60625,62.039583],[24.60625,62.04375],[24.602083,62.04375],[24.602083,62.039583]]]},"properties":{"radiance":5.01}},{"type":"Feature","geometry":{"type":"Polygon","coordinates":[[[24.60625,62.035417],[24.610417,62.035417],[24.610417,62.039583],[24.60625,62.039583],[24.60625,62.035417]]]},"properties":{"radiance":5.01}},{"type":"Feature","geometry":{"type":"Polygon","coordinates":[[[24.61875,62.035417],[24.622917,62.035417],[24.622917,62.039583],[24.61875,62.039583],[24.61875,62.035417]]]},"properties":{"radiance":5.74}},{"type":"Feature","geometry":{"type":"Polygon","coordinates":[[[24.622917,62.035417],[24.627083,62.035417],[24.627083,62.039583],[24.622917,62.039583],[24.622917,62.035417]]]},"properties":{"radiance":5.45}},{"type":"Feature","geometry":{"type":"Polygon","coordinates":[[[24.552083,62.03125],[24.55625,62.03125],[24.55625,62.035417],[24.552083,62.035417],[24.552083,62.03125]]]},"properties":{"radiance":23.08}},{"type":"Feature","geometry":{"type":"Polygon","coordinates":[[[24.55625,62.03125],[24.560417,62.03125],[24.560417,62.035417],[24.55625,62.035417],[24.55625,62.03125]]]},"properties":{"radiance":12.01}},{"type":"Feature","geometry":{"type":"Polygon","coordinates":[[[24.560417,62.03125],[24.564583,62.03125],[24.564583,62.035417],[24.560417,62.035417],[24.560417,62.03125]]]},"properties":{"radiance":12.98}},{"type":"Feature","geometry":{"type":"Polygon","coordinates":[[[24.564583,62.03125],[24.56875,62.03125],[24.56875,62.035417],[24.564583,62.035417],[24.564583,62.03125]]]},"properties":{"radiance":10.89}},{"type":"Feature","geometry":{"type":"Polygon","coordinates":[[[24.56875,62.03125],[24.572917,62.03125],[24.572917,62.035417],[24.56875,62.035417],[24.56875,62.03125]]]},"properties":{"radiance":23.64}},{"type":"Feature","geometry":{"type":"Polygon","coordinates":[[[24.572917,62.03125],[24.577083,62.03125],[24.577083,62.035417],[24.572917,62.035417],[24.572917,62.03125]]]},"properties":{"radiance":7.09}},{"type":"Feature","geometry":{"type":"Polygon","coordinates":[[[24.577083,62.03125],[24.58125,62.03125],[24.58125,62.035417],[24.577083,62.035417],[24.577083,62.03125]]]},"properties":{"radiance":5.39}},{"type":"Feature","geometry":{"type":"Polygon","coordinates":[[[24.58125,62.03125],[24.585417,62.03125],[24.585417,62.035417],[24.58125,62.035417],[24.58125,62.03125]]]},"properties":{"radiance":5.05}},{"type":"Feature","geometry":{"type":"Polygon","coordinates":[[[24.585417,62.03125],[24.589583,62.03125],[24.589583,62.035417],[24.585417,62.035417],[24.585417,62.03125]]]},"properties":{"radiance":5.69}},{"type":"Feature","geometry":{"type":"Polygon","coordinates":[[[24.589583,62.03125],[24.59375,62.03125],[24.59375,62.035417],[24.589583,62.035417],[24.589583,62.03125]]]},"properties":{"radiance":5.06}},{"type":"Feature","geometry":{"type":"Polygon","coordinates":[[[24.59375,62.03125],[24.597917,62.03125],[24.597917,62.035417],[24.59375,62.035417],[24.59375,62.03125]]]},"properties":{"radiance":5.24}},{"type":"Feature","geometry":{"type":"Polygon","coordinates":[[[24.602083,62.03125],[24.60625,62.03125],[24.60625,62.035417],[24.602083,62.035417],[24.602083,62.03125]]]},"properties":{"radiance":7.79}},{"type":"Feature","geometry":{"type":"Polygon","coordinates":[[[24.60625,62.03125],[24.610417,62.03125],[24.610417,62.035417],[24.60625,62.035417],[24.60625,62.03125]]]},"properties":{"radiance":9.04}},{"type":"Feature","geometry":{"type":"Polygon","coordinates":[[[24.610417,62.03125],[24.614583,62.03125],[24.614583,62.035417],[24.610417,62.035417],[24.610417,62.03125]]]},"properties":{"radiance":36.78}},{"type":"Feature","geometry":{"type":"Polygon","coordinates":[[[24.614583,62.03125],[24.61875,62.03125],[24.61875,62.035417],[24.614583,62.035417],[24.614583,62.03125]]]},"properties":{"radiance":47.27}},{"type":"Feature","geometry":{"type":"Polygon","coordinates":[[[24.61875,62.03125],[24.622917,62.03125],[24.622917,62.035417],[24.61875,62.035417],[24.61875,62.03125]]]},"properties":{"radiance":18.88}},{"type":"Feature","geometry":{"type":"Polygon","coordinates":[[[24.622917,62.03125],[24.627083,62.03125],[24.627083,62.035417],[24.622917,62.035417],[24.622917,62.03125]]]},"properties":{"radiance":26.08}},{"type":"Feature","geometry":{"type":"Polygon","coordinates":[[[24.627083,62.03125],[24.63125,62.03125],[24.63125,62.035417],[24.627083,62.035417],[24.627083,62.03125]]]},"properties":{"radiance":18.64}},{"type":"Feature","geometry":{"type":"Polygon","coordinates":[[[24.63125,62.03125],[24.635417,62.03125],[24.635417,62.035417],[24.63125,62.035417],[24.63125,62.03125]]]},"properties":{"radiance":7.42}},{"type":"Feature","geometry":{"type":"Polygon","coordinates":[[[24.639583,62.03125],[24.64375,62.03125],[24.64375,62.035417],[24.639583,62.035417],[24.639583,62.03125]]]},"properties":{"radiance":5.23}},{"type":"Feature","geometry":{"type":"Polygon","coordinates":[[[24.64375,62.03125],[24.647917,62.03125],[24.647917,62.035417],[24.64375,62.035417],[24.64375,62.03125]]]},"properties":{"radiance":5.62}},{"type":"Feature","geometry":{"type":"Polygon","coordinates":[[[24.50625,62.027083],[24.510417,62.027083],[24.510417,62.03125],[24.50625,62.03125],[24.50625,62.027083]]]},"properties":{"radiance":6.07}},{"type":"Feature","geometry":{"type":"Polygon","coordinates":[[[24.560417,62.027083],[24.564583,62.027083],[24.564583,62.03125],[24.560417,62.03125],[24.560417,62.027083]]]},"properties":{"radiance":6.29}},{"type":"Feature","geometry":{"type":"Polygon","coordinates":[[[24.564583,62.027083],[24.56875,62.027083],[24.56875,62.03125],[24.564583,62.03125],[24.564583,62.027083]]]},"properties":{"radiance":10.42}},{"type":"Feature","geometry":{"type":"Polygon","coordinates":[[[24.56875,62.027083],[24.572917,62.027083],[24.572917,62.03125],[24.56875,62.03125],[24.56875,62.027083]]]},"properties":{"radiance":19.72}},{"type":"Feature","geometry":{"type":"Polygon","coordinates":[[[24.572917,62.027083],[24.577083,62.027083],[24.577083,62.03125],[24.572917,62.03125],[24.572917,62.027083]]]},"properties":{"radiance":7.51}},{"type":"Feature","geometry":{"type":"Polygon","coordinates":[[[24.577083,62.027083],[24.58125,62.027083],[24.58125,62.03125],[24.577083,62.03125],[24.577083,62.027083]]]},"properties":{"radiance":8.81}},{"type":"Feature","geometry":{"type":"Polygon","coordinates":[[[24.585417,62.027083],[24.589583,62.027083],[24.589583,62.03125],[24.585417,62.03125],[24.585417,62.027083]]]},"properties":{"radiance":6.64}},{"type":"Feature","geometry":{"type":"Polygon","coordinates":[[[24.589583,62.027083],[24.59375,62.027083],[24.59375,62.03125],[24.589583,62.03125],[24.589583,62.027083]]]},"properties":{"radiance":5.93}},{"type":"Feature","geometry":{"type":"Polygon","coordinates":[[[24.59375,62.027083],[24.597917,62.027083],[24.597917,62.03125],[24.59375,62.03125],[24.59375,62.027083]]]},"properties":{"radiance":5.42}},{"type":"Feature","geometry":{"type":"Polygon","coordinates":[[[24.597917,62.027083],[24.602083,62.027083],[24.602083,62.03125],[24.597917,62.03125],[24.597917,62.027083]]]},"properties":{"radiance":6.11}},{"type":"Feature","geometry":{"type":"Polygon","coordinates":[[[24.602083,62.027083],[24.60625,62.027083],[24.60625,62.03125],[24.602083,62.03125],[24.602083,62.027083]]]},"properties":{"radiance":7.31}},{"type":"Feature","geometry":{"type":"Polygon","coordinates":[[[24.60625,62.027083],[24.610417,62.027083],[24.610417,62.03125],[24.60625,62.03125],[24.60625,62.027083]]]},"properties":{"radiance":6.81}},{"type":"Feature","geometry":{"type":"Polygon","coordinates":[[[24.610417,62.027083],[24.614583,62.027083],[24.614583,62.03125],[24.610417,62.03125],[24.610417,62.027083]]]},"properties":{"radiance":39.78}},{"type":"Feature","geometry":{"type":"Polygon","coordinates":[[[24.614583,62.027083],[24.61875,62.027083],[24.61875,62.03125],[24.614583,62.03125],[24.614583,62.027083]]]},"properties":{"radiance":47.61}},{"type":"Feature","geometry":{"type":"Polygon","coordinates":[[[24.61875,62.027083],[24.622917,62.027083],[24.622917,62.03125],[24.61875,62.03125],[24.61875,62.027083]]]},"properties":{"radiance":79.33}},{"type":"Feature","geometry":{"type":"Polygon","coordinates":[[[24.622917,62.027083],[24.627083,62.027083],[24.627083,62.03125],[24.622917,62.03125],[24.622917,62.027083]]]},"properties":{"radiance":72.08}},{"type":"Feature","geometry":{"type":"Polygon","coordinates":[[[24.627083,62.027083],[24.63125,62.027083],[24.63125,62.03125],[24.627083,62.03125],[24.627083,62.027083]]]},"properties":{"radiance":69.21}},{"type":"Feature","geometry":{"type":"Polygon","coordinates":[[[24.63125,62.027083],[24.635417,62.027083],[24.635417,62.03125],[24.63125,62.03125],[24.63125,62.027083]]]},"properties":{"radiance":36.35}},{"type":"Feature","geometry":{"type":"Polygon","coordinates":[[[24.635417,62.027083],[24.639583,62.027083],[24.639583,62.03125],[24.635417,62.03125],[24.635417,62.027083]]]},"properties":{"radiance":32.8}},{"type":"Feature","geometry":{"type":"Polygon","coordinates":[[[24.639583,62.027083],[24.64375,62.027083],[24.64375,62.03125],[24.639583,62.03125],[24.639583,62.027083]]]},"properties":{"radiance":29.45}},{"type":"Feature","geometry":{"type":"Polygon","coordinates":[[[24.64375,62.027083],[24.647917,62.027083],[24.647917,62.03125],[24.64375,62.03125],[24.64375,62.027083]]]},"properties":{"radiance":10.39}},{"type":"Feature","geometry":{"type":"Polygon","coordinates":[[[24.647917,62.027083],[24.652083,62.027083],[24.652083,62.03125],[24.647917,62.03125],[24.647917,62.027083]]]},"properties":{"radiance":9.38}},{"type":"Feature","geometry":{"type":"Polygon","coordinates":[[[24.652083,62.027083],[24.65625,62.027083],[24.65625,62.03125],[24.652083,62.03125],[24.652083,62.027083]]]},"properties":{"radiance":7.73}},{"type":"Feature","geometry":{"type":"Polygon","coordinates":[[[24.65625,62.027083],[24.660417,62.027083],[24.660417,62.03125],[24.65625,62.03125],[24.65625,62.027083]]]},"properties":{"radiance":6.61}},{"type":"Feature","geometry":{"type":"Polygon","coordinates":[[[24.50625,62.022917],[24.510417,62.022917],[24.510417,62.027083],[24.50625,62.027083],[24.50625,62.022917]]]},"properties":{"radiance":5.05}},{"type":"Feature","geometry":{"type":"Polygon","coordinates":[[[24.61875,62.022917],[24.622917,62.022917],[24.622917,62.027083],[24.61875,62.027083],[24.61875,62.022917]]]},"properties":{"radiance":7.26}},{"type":"Feature","geometry":{"type":"Polygon","coordinates":[[[24.622917,62.022917],[24.627083,62.022917],[24.627083,62.027083],[24.622917,62.027083],[24.622917,62.022917]]]},"properties":{"radiance":20.24}},{"type":"Feature","geometry":{"type":"Polygon","coordinates":[[[24.627083,62.022917],[24.63125,62.022917],[24.63125,62.027083],[24.627083,62.027083],[24.627083,62.022917]]]},"properties":{"radiance":20.5}},{"type":"Feature","geometry":{"type":"Polygon","coordinates":[[[24.63125,62.022917],[24.635417,62.022917],[24.635417,62.027083],[24.63125,62.027083],[24.63125,62.022917]]]},"properties":{"radiance":16.76}},{"type":"Feature","geometry":{"type":"Polygon","coordinates":[[[24.635417,62.022917],[24.639583,62.022917],[24.639583,62.027083],[24.635417,62.027083],[24.635417,62.022917]]]},"properties":{"radiance":17.7}},{"type":"Feature","geometry":{"type":"Polygon","coordinates":[[[24.639583,62.022917],[24.64375,62.022917],[24.64375,62.027083],[24.639583,62.027083],[24.639583,62.022917]]]},"properties":{"radiance":9.47}},{"type":"Feature","geometry":{"type":"Polygon","coordinates":[[[24.64375,62.022917],[24.647917,62.022917],[24.647917,62.027083],[24.64375,62.027083],[24.64375,62.022917]]]},"properties":{"radiance":21.36}},{"type":"Feature","geometry":{"type":"Polygon","coordinates":[[[24.647917,62.022917],[24.652083,62.022917],[24.652083,62.027083],[24.647917,62.027083],[24.647917,62.022917]]]},"properties":{"radiance":6.19}},{"type":"Feature","geometry":{"type":"Polygon","coordinates":[[[24.652083,62.022917],[24.65625,62.022917],[24.65625,62.027083],[24.652083,62.027083],[24.652083,62.022917]]]},"properties":{"radiance":6.68}},{"type":"Feature","geometry":{"type":"Polygon","coordinates":[[[24.65625,62.022917],[24.660417,62.022917],[24.660417,62.027083],[24.65625,62.027083],[24.65625,62.022917]]]},"properties":{"radiance":5.86}},{"type":"Feature","geometry":{"type":"Polygon","coordinates":[[[24.660417,62.022917],[24.664583,62.022917],[24.664583,62.027083],[24.660417,62.027083],[24.660417,62.022917]]]},"properties":{"radiance":5.27}},{"type":"Feature","geometry":{"type":"Polygon","coordinates":[[[24.68125,62.022917],[24.685417,62.022917],[24.685417,62.027083],[24.68125,62.027083],[24.68125,62.022917]]]},"properties":{"radiance":11.18}},{"type":"Feature","geometry":{"type":"Polygon","coordinates":[[[24.685417,62.022917],[24.689583,62.022917],[24.689583,62.027083],[24.685417,62.027083],[24.685417,62.022917]]]},"properties":{"radiance":6.68}},{"type":"Feature","geometry":{"type":"Polygon","coordinates":[[[24.68125,62.01875],[24.685417,62.01875],[24.685417,62.022917],[24.68125,62.022917],[24.68125,62.01875]]]},"properties":{"radiance":14.02}},{"type":"Feature","geometry":{"type":"Polygon","coordinates":[[[24.685417,62.01875],[24.689583,62.01875],[24.689583,62.022917],[24.685417,62.022917],[24.685417,62.01875]]]},"properties":{"radiance":19.71}},{"type":"Feature","geometry":{"type":"Polygon","coordinates":[[[24.689583,62.01875],[24.69375,62.01875],[24.69375,62.022917],[24.689583,62.022917],[24.689583,62.01875]]]},"properties":{"radiance":6.96}},{"type":"Feature","geometry":{"type":"Polygon","coordinates":[[[24.689583,62.014583],[24.69375,62.014583],[24.69375,62.01875],[24.689583,62.01875],[24.689583,62.014583]]]},"properties":{"radiance":7.37}},{"type":"Feature","geometry":{"type":"Polygon","coordinates":[[[24.547917,61.96875],[24.552083,61.96875],[24.552083,61.972917],[24.547917,61.972917],[24.547917,61.96875]]]},"properties":{"radiance":5.19}},{"type":"Feature","geometry":{"type":"Polygon","coordinates":[[[25.160417,61.927083],[25.164583,61.927083],[25.164583,61.93125],[25.160417,61.93125],[25.160417,61.927083]]]},"properties":{"radiance":5.01}},{"type":"Feature","geometry":{"type":"Polygon","coordinates":[[[25.172917,61.927083],[25.177083,61.927083],[25.177083,61.93125],[25.172917,61.93125],[25.172917,61.927083]]]},"properties":{"radiance":5.64}},{"type":"Feature","geometry":{"type":"Polygon","coordinates":[[[25.15625,61.922917],[25.160417,61.922917],[25.160417,61.927083],[25.15625,61.927083],[25.15625,61.922917]]]},"properties":{"radiance":36.77}},{"type":"Feature","geometry":{"type":"Polygon","coordinates":[[[25.160417,61.922917],[25.164583,61.922917],[25.164583,61.927083],[25.160417,61.927083],[25.160417,61.922917]]]},"properties":{"radiance":16.58}},{"type":"Feature","geometry":{"type":"Polygon","coordinates":[[[25.164583,61.922917],[25.16875,61.922917],[25.16875,61.927083],[25.164583,61.927083],[25.164583,61.922917]]]},"properties":{"radiance":17.55}},{"type":"Feature","geometry":{"type":"Polygon","coordinates":[[[25.16875,61.922917],[25.172917,61.922917],[25.172917,61.927083],[25.16875,61.927083],[25.16875,61.922917]]]},"properties":{"radiance":14.5}},{"type":"Feature","geometry":{"type":"Polygon","coordinates":[[[25.172917,61.922917],[25.177083,61.922917],[25.177083,61.927083],[25.172917,61.927083],[25.172917,61.922917]]]},"properties":{"radiance":10.28}},{"type":"Feature","geometry":{"type":"Polygon","coordinates":[[[25.18125,61.922917],[25.185417,61.922917],[25.185417,61.927083],[25.18125,61.927083],[25.18125,61.922917]]]},"properties":{"radiance":7.43}},{"type":"Feature","geometry":{"type":"Polygon","coordinates":[[[25.139583,61.91875],[25.14375,61.91875],[25.14375,61.922917],[25.139583,61.922917],[25.139583,61.91875]]]},"properties":{"radiance":5.15}},{"type":"Feature","geometry":{"type":"Polygon","coordinates":[[[25.14375,61.91875],[25.147917,61.91875],[25.147917,61.922917],[25.14375,61.922917],[25.14375,61.91875]]]},"properties":{"radiance":13.25}},{"type":"Feature","geometry":{"type":"Polygon","coordinates":[[[25.147917,61.91875],[25.152083,61.91875],[25.152083,61.922917],[25.147917,61.922917],[25.147917,61.91875]]]},"properties":{"radiance":8.66}},{"type":"Feature","geometry":{"type":"Polygon","coordinates":[[[25.152083,61.91875],[25.15625,61.91875],[25.15625,61.922917],[25.152083,61.922917],[25.152083,61.91875]]]},"properties":{"radiance":25.66}},{"type":"Feature","geometry":{"type":"Polygon","coordinates":[[[25.15625,61.91875],[25.160417,61.91875],[25.160417,61.922917],[25.15625,61.922917],[25.15625,61.91875]]]},"properties":{"radiance":41.49}},{"type":"Feature","geometry":{"type":"Polygon","coordinates":[[[25.160417,61.91875],[25.164583,61.91875],[25.164583,61.922917],[25.160417,61.922917],[25.160417,61.91875]]]},"properties":{"radiance":30.63}},{"type":"Feature","geometry":{"type":"Polygon","coordinates":[[[25.164583,61.91875],[25.16875,61.91875],[25.16875,61.922917],[25.164583,61.922917],[25.164583,61.91875]]]},"properties":{"radiance":59}},{"type":"Feature","geometry":{"type":"Polygon","coordinates":[[[25.16875,61.91875],[25.172917,61.91875],[25.172917,61.922917],[25.16875,61.922917],[25.16875,61.91875]]]},"properties":{"radiance":28.31}},{"type":"Feature","geometry":{"type":"Polygon","coordinates":[[[25.172917,61.91875],[25.177083,61.91875],[25.177083,61.922917],[25.172917,61.922917],[25.172917,61.91875]]]},"properties":{"radiance":8.85}},{"type":"Feature","geometry":{"type":"Polygon","coordinates":[[[25.177083,61.91875],[25.18125,61.91875],[25.18125,61.922917],[25.177083,61.922917],[25.177083,61.91875]]]},"properties":{"radiance":7.16}},{"type":"Feature","geometry":{"type":"Polygon","coordinates":[[[25.18125,61.91875],[25.185417,61.91875],[25.185417,61.922917],[25.18125,61.922917],[25.18125,61.91875]]]},"properties":{"radiance":8.36}},{"type":"Feature","geometry":{"type":"Polygon","coordinates":[[[25.147917,61.914583],[25.152083,61.914583],[25.152083,61.91875],[25.147917,61.91875],[25.147917,61.914583]]]},"properties":{"radiance":17.01}},{"type":"Feature","geometry":{"type":"Polygon","coordinates":[[[25.152083,61.914583],[25.15625,61.914583],[25.15625,61.91875],[25.152083,61.91875],[25.152083,61.914583]]]},"properties":{"radiance":38.73}},{"type":"Feature","geometry":{"type":"Polygon","coordinates":[[[25.15625,61.914583],[25.160417,61.914583],[25.160417,61.91875],[25.15625,61.91875],[25.15625,61.914583]]]},"properties":{"radiance":42.82}},{"type":"Feature","geometry":{"type":"Polygon","coordinates":[[[25.160417,61.914583],[25.164583,61.914583],[25.164583,61.91875],[25.160417,61.91875],[25.160417,61.914583]]]},"properties":{"radiance":100.43}},{"type":"Feature","geometry":{"type":"Polygon","coordinates":[[[25.164583,61.914583],[25.16875,61.914583],[25.16875,61.91875],[25.164583,61.91875],[25.164583,61.914583]]]},"properties":{"radiance":38.11}},{"type":"Feature","geometry":{"type":"Polygon","coordinates":[[[25.16875,61.914583],[25.172917,61.914583],[25.172917,61.91875],[25.16875,61.91875],[25.16875,61.914583]]]},"properties":{"radiance":7.35}},{"type":"Feature","geometry":{"type":"Polygon","coordinates":[[[25.172917,61.914583],[25.177083,61.914583],[25.177083,61.91875],[25.172917,61.91875],[25.172917,61.914583]]]},"properties":{"radiance":40.71}},{"type":"Feature","geometry":{"type":"Polygon","coordinates":[[[25.135417,61.910417],[25.139583,61.910417],[25.139583,61.914583],[25.135417,61.914583],[25.135417,61.910417]]]},"properties":{"radiance":5.94}},{"type":"Feature","geometry":{"type":"Polygon","coordinates":[[[25.147917,61.910417],[25.152083,61.910417],[25.152083,61.914583],[25.147917,61.914583],[25.147917,61.910417]]]},"properties":{"radiance":11.25}},{"type":"Feature","geometry":{"type":"Polygon","coordinates":[[[25.152083,61.910417],[25.15625,61.910417],[25.15625,61.914583],[25.152083,61.914583],[25.152083,61.910417]]]},"properties":{"radiance":43.17}},{"type":"Feature","geometry":{"type":"Polygon","coordinates":[[[25.15625,61.910417],[25.160417,61.910417],[25.160417,61.914583],[25.15625,61.914583],[25.15625,61.910417]]]},"properties":{"radiance":42.3}},{"type":"Feature","geometry":{"type":"Polygon","coordinates":[[[25.160417,61.910417],[25.164583,61.910417],[25.164583,61.914583],[25.160417,61.914583],[25.160417,61.910417]]]},"properties":{"radiance":35.69}},{"type":"Feature","geometry":{"type":"Polygon","coordinates":[[[25.164583,61.910417],[25.16875,61.910417],[25.16875,61.914583],[25.164583,61.914583],[25.164583,61.910417]]]},"properties":{"radiance":19.42}},{"type":"Feature","geometry":{"type":"Polygon","coordinates":[[[25.16875,61.910417],[25.172917,61.910417],[25.172917,61.914583],[25.16875,61.914583],[25.16875,61.910417]]]},"properties":{"radiance":8.2}},{"type":"Feature","geometry":{"type":"Polygon","coordinates":[[[25.172917,61.910417],[25.177083,61.910417],[25.177083,61.914583],[25.172917,61.914583],[25.172917,61.910417]]]},"properties":{"radiance":7.3}},{"type":"Feature","geometry":{"type":"Polygon","coordinates":[[[25.13125,61.90625],[25.135417,61.90625],[25.135417,61.910417],[25.13125,61.910417],[25.13125,61.90625]]]},"properties":{"radiance":6.26}},{"type":"Feature","geometry":{"type":"Polygon","coordinates":[[[25.135417,61.90625],[25.139583,61.90625],[25.139583,61.910417],[25.135417,61.910417],[25.135417,61.90625]]]},"properties":{"radiance":6.77}},{"type":"Feature","geometry":{"type":"Polygon","coordinates":[[[25.139583,61.90625],[25.14375,61.90625],[25.14375,61.910417],[25.139583,61.910417],[25.139583,61.90625]]]},"properties":{"radiance":7.48}},{"type":"Feature","geometry":{"type":"Polygon","coordinates":[[[25.14375,61.90625],[25.147917,61.90625],[25.147917,61.910417],[25.14375,61.910417],[25.14375,61.90625]]]},"properties":{"radiance":9.25}},{"type":"Feature","geometry":{"type":"Polygon","coordinates":[[[25.147917,61.90625],[25.152083,61.90625],[25.152083,61.910417],[25.147917,61.910417],[25.147917,61.90625]]]},"properties":{"radiance":12.98}},{"type":"Feature","geometry":{"type":"Polygon","coordinates":[[[25.152083,61.90625],[25.15625,61.90625],[25.15625,61.910417],[25.152083,61.910417],[25.152083,61.90625]]]},"properties":{"radiance":49.37}},{"type":"Feature","geometry":{"type":"Polygon","coordinates":[[[25.15625,61.90625],[25.160417,61.90625],[25.160417,61.910417],[25.15625,61.910417],[25.15625,61.90625]]]},"properties":{"radiance":22.94}},{"type":"Feature","geometry":{"type":"Polygon","coordinates":[[[25.160417,61.90625],[25.164583,61.90625],[25.164583,61.910417],[25.160417,61.910417],[25.160417,61.90625]]]},"properties":{"radiance":31.58}},{"type":"Feature","geometry":{"type":"Polygon","coordinates":[[[25.164583,61.90625],[25.16875,61.90625],[25.16875,61.910417],[25.164583,61.910417],[25.164583,61.90625]]]},"properties":{"radiance":24.41}},{"type":"Feature","geometry":{"type":"Polygon","coordinates":[[[25.16875,61.90625],[25.172917,61.90625],[25.172917,61.910417],[25.16875,61.910417],[25.16875,61.90625]]]},"properties":{"radiance":21.42}},{"type":"Feature","geometry":{"type":"Polygon","coordinates":[[[25.172917,61.90625],[25.177083,61.90625],[25.177083,61.910417],[25.172917,61.910417],[25.172917,61.90625]]]},"properties":{"radiance":9.62}},{"type":"Feature","geometry":{"type":"Polygon","coordinates":[[[25.13125,61.902083],[25.135417,61.902083],[25.135417,61.90625],[25.13125,61.90625],[25.13125,61.902083]]]},"properties":{"radiance":6.03}},{"type":"Feature","geometry":{"type":"Polygon","coordinates":[[[25.135417,61.902083],[25.139583,61.902083],[25.139583,61.90625],[25.135417,61.90625],[25.135417,61.902083]]]},"properties":{"radiance":6.05}},{"type":"Feature","geometry":{"type":"Polygon","coordinates":[[[25.139583,61.902083],[25.14375,61.902083],[25.14375,61.90625],[25.139583,61.90625],[25.139583,61.902083]]]},"properties":{"radiance":6.62}},{"type":"Feature","geometry":{"type":"Polygon","coordinates":[[[25.147917,61.902083],[25.152083,61.902083],[25.152083,61.90625],[25.147917,61.90625],[25.147917,61.902083]]]},"properties":{"radiance":5.06}},{"type":"Feature","geometry":{"type":"Polygon","coordinates":[[[25.152083,61.902083],[25.15625,61.902083],[25.15625,61.90625],[25.152083,61.90625],[25.152083,61.902083]]]},"properties":{"radiance":13.3}},{"type":"Feature","geometry":{"type":"Polygon","coordinates":[[[25.15625,61.902083],[25.160417,61.902083],[25.160417,61.90625],[25.15625,61.90625],[25.15625,61.902083]]]},"properties":{"radiance":13.16}},{"type":"Feature","geometry":{"type":"Polygon","coordinates":[[[25.160417,61.902083],[25.164583,61.902083],[25.164583,61.90625],[25.160417,61.90625],[25.160417,61.902083]]]},"properties":{"radiance":17.01}},{"type":"Feature","geometry":{"type":"Polygon","coordinates":[[[25.164583,61.902083],[25.16875,61.902083],[25.16875,61.90625],[25.164583,61.90625],[25.164583,61.902083]]]},"properties":{"radiance":15.7}},{"type":"Feature","geometry":{"type":"Polygon","coordinates":[[[25.16875,61.902083],[25.172917,61.902083],[25.172917,61.90625],[25.16875,61.90625],[25.16875,61.902083]]]},"properties":{"radiance":18.13}},{"type":"Feature","geometry":{"type":"Polygon","coordinates":[[[25.160417,61.897917],[25.164583,61.897917],[25.164583,61.902083],[25.160417,61.902083],[25.160417,61.897917]]]},"properties":{"radiance":5.67}},{"type":"Feature","geometry":{"type":"Polygon","coordinates":[[[25.164583,61.897917],[25.16875,61.897917],[25.16875,61.902083],[25.164583,61.902083],[25.164583,61.897917]]]},"properties":{"radiance":7.39}},{"type":"Feature","geometry":{"type":"Polygon","coordinates":[[[25.16875,61.897917],[25.172917,61.897917],[25.172917,61.902083],[25.16875,61.902083],[25.16875,61.897917]]]},"properties":{"radiance":5.35}},{"type":"Feature","geometry":{"type":"Polygon","coordinates":[[[25.172917,61.89375],[25.177083,61.89375],[25.177083,61.897917],[25.172917,61.897917],[25.172917,61.89375]]]},"properties":{"radiance":21.2}},{"type":"Feature","geometry":{"type":"Polygon","coordinates":[[[25.285417,61.889583],[25.289583,61.889583],[25.289583,61.89375],[25.285417,61.89375],[25.285417,61.889583]]]},"properties":{"radiance":5.26}},{"type":"Feature","geometry":{"type":"Polygon","coordinates":[[[25.272917,61.885417],[25.277083,61.885417],[25.277083,61.889583],[25.272917,61.889583],[25.272917,61.885417]]]},"properties":{"radiance":5.28}},{"type":"Feature","geometry":{"type":"Polygon","coordinates":[[[25.277083,61.885417],[25.28125,61.885417],[25.28125,61.889583],[25.277083,61.889583],[25.277083,61.885417]]]},"properties":{"radiance":7.92}},{"type":"Feature","geometry":{"type":"Polygon","coordinates":[[[25.28125,61.885417],[25.285417,61.885417],[25.285417,61.889583],[25.28125,61.889583],[25.28125,61.885417]]]},"properties":{"radiance":8.74}},{"type":"Feature","geometry":{"type":"Polygon","coordinates":[[[25.285417,61.885417],[25.289583,61.885417],[25.289583,61.889583],[25.285417,61.889583],[25.285417,61.885417]]]},"properties":{"radiance":9.29}},{"type":"Feature","geometry":{"type":"Polygon","coordinates":[[[25.289583,61.885417],[25.29375,61.885417],[25.29375,61.889583],[25.289583,61.889583],[25.289583,61.885417]]]},"properties":{"radiance":10.67}},{"type":"Feature","geometry":{"type":"Polygon","coordinates":[[[25.29375,61.885417],[25.297917,61.885417],[25.297917,61.889583],[25.29375,61.889583],[25.29375,61.885417]]]},"properties":{"radiance":5.25}},{"type":"Feature","geometry":{"type":"Polygon","coordinates":[[[25.18125,61.88125],[25.185417,61.88125],[25.185417,61.885417],[25.18125,61.885417],[25.18125,61.88125]]]},"properties":{"radiance":11.97}},{"type":"Feature","geometry":{"type":"Polygon","coordinates":[[[25.185417,61.88125],[25.189583,61.88125],[25.189583,61.885417],[25.185417,61.885417],[25.185417,61.88125]]]},"properties":{"radiance":13.4}},{"type":"Feature","geometry":{"type":"Polygon","coordinates":[[[25.189583,61.88125],[25.19375,61.88125],[25.19375,61.885417],[25.189583,61.885417],[25.189583,61.88125]]]},"properties":{"radiance":13.15}},{"type":"Feature","geometry":{"type":"Polygon","coordinates":[[[25.19375,61.88125],[25.197917,61.88125],[25.197917,61.885417],[25.19375,61.885417],[25.19375,61.88125]]]},"properties":{"radiance":14.8}},{"type":"Feature","geometry":{"type":"Polygon","coordinates":[[[25.26875,61.88125],[25.272917,61.88125],[25.272917,61.885417],[25.26875,61.885417],[25.26875,61.88125]]]},"properties":{"radiance":5.04}},{"type":"Feature","geometry":{"type":"Polygon","coordinates":[[[25.277083,61.88125],[25.28125,61.88125],[25.28125,61.885417],[25.277083,61.885417],[25.277083,61.88125]]]},"properties":{"radiance":55.94}},{"type":"Feature","geometry":{"type":"Polygon","coordinates":[[[25.28125,61.88125],[25.285417,61.88125],[25.285417,61.885417],[25.28125,61.885417],[25.28125,61.88125]]]},"properties":{"radiance":61.3}},{"type":"Feature","geometry":{"type":"Polygon","coordinates":[[[25.285417,61.88125],[25.289583,61.88125],[25.289583,61.885417],[25.285417,61.885417],[25.285417,61.88125]]]},"properties":{"radiance":69.13}},{"type":"Feature","geometry":{"type":"Polygon","coordinates":[[[25.289583,61.88125],[25.29375,61.88125],[25.29375,61.885417],[25.289583,61.885417],[25.289583,61.88125]]]},"properties":{"radiance":70.99}},{"type":"Feature","geometry":{"type":"Polygon","coordinates":[[[25.29375,61.88125],[25.297917,61.88125],[25.297917,61.885417],[25.29375,61.885417],[25.29375,61.88125]]]},"properties":{"radiance":51.06}},{"type":"Feature","geometry":{"type":"Polygon","coordinates":[[[25.297917,61.88125],[25.302083,61.88125],[25.302083,61.885417],[25.297917,61.885417],[25.297917,61.88125]]]},"properties":{"radiance":6.43}},{"type":"Feature","geometry":{"type":"Polygon","coordinates":[[[25.302083,61.88125],[25.30625,61.88125],[25.30625,61.885417],[25.302083,61.885417],[25.302083,61.88125]]]},"properties":{"radiance":6.04}},{"type":"Feature","geometry":{"type":"Polygon","coordinates":[[[25.172917,61.877083],[25.177083,61.877083],[25.177083,61.88125],[25.172917,61.88125],[25.172917,61.877083]]]},"properties":{"radiance":8.17}},{"type":"Feature","geometry":{"type":"Polygon","coordinates":[[[25.177083,61.877083],[25.18125,61.877083],[25.18125,61.88125],[25.177083,61.88125],[25.177083,61.877083]]]},"properties":{"radiance":5.75}},{"type":"Feature","geometry":{"type":"Polygon","coordinates":[[[25.18125,61.877083],[25.185417,61.877083],[25.185417,61.88125],[25.18125,61.88125],[25.18125,61.877083]]]},"properties":{"radiance":5.39}},{"type":"Feature","geometry":{"type":"Polygon","coordinates":[[[25.189583,61.877083],[25.19375,61.877083],[25.19375,61.88125],[25.189583,61.88125],[25.189583,61.877083]]]},"properties":{"radiance":24.75}},{"type":"Feature","geometry":{"type":"Polygon","coordinates":[[[25.19375,61.877083],[25.197917,61.877083],[25.197917,61.88125],[25.19375,61.88125],[25.19375,61.877083]]]},"properties":{"radiance":11.41}},{"type":"Feature","geometry":{"type":"Polygon","coordinates":[[[25.197917,61.877083],[25.202083,61.877083],[25.202083,61.88125],[25.197917,61.88125],[25.197917,61.877083]]]},"properties":{"radiance":10.28}},{"type":"Feature","geometry":{"type":"Polygon","coordinates":[[[25.202083,61.877083],[25.20625,61.877083],[25.20625,61.88125],[25.202083,61.88125],[25.202083,61.877083]]]},"properties":{"radiance":10.1}},{"type":"Feature","geometry":{"type":"Polygon","coordinates":[[[25.20625,61.877083],[25.210417,61.877083],[25.210417,61.88125],[25.20625,61.88125],[25.20625,61.877083]]]},"properties":{"radiance":12.88}},{"type":"Feature","geometry":{"type":"Polygon","coordinates":[[[25.277083,61.877083],[25.28125,61.877083],[25.28125,61.88125],[25.277083,61.88125],[25.277083,61.877083]]]},"properties":{"radiance":5.2}},{"type":"Feature","geometry":{"type":"Polygon","coordinates":[[[25.285417,61.877083],[25.289583,61.877083],[25.289583,61.88125],[25.285417,61.88125],[25.285417,61.877083]]]},"properties":{"radiance":39.53}},{"type":"Feature","geometry":{"type":"Polygon","coordinates":[[[25.289583,61.877083],[25.29375,61.877083],[25.29375,61.88125],[25.289583,61.88125],[25.289583,61.877083]]]},"properties":{"radiance":45.24}},{"type":"Feature","geometry":{"type":"Polygon","coordinates":[[[25.29375,61.877083],[25.297917,61.877083],[25.297917,61.88125],[25.29375,61.88125],[25.29375,61.877083]]]},"properties":{"radiance":75.34}},{"type":"Feature","geometry":{"type":"Polygon","coordinates":[[[25.297917,61.877083],[25.302083,61.877083],[25.302083,61.88125],[25.297917,61.88125],[25.297917,61.877083]]]},"properties":{"radiance":6.12}},{"type":"Feature","geometry":{"type":"Polygon","coordinates":[[[25.302083,61.877083],[25.30625,61.877083],[25.30625,61.88125],[25.302083,61.88125],[25.302083,61.877083]]]},"properties":{"radiance":5.4}},{"type":"Feature","geometry":{"type":"Polygon","coordinates":[[[25.30625,61.877083],[25.310417,61.877083],[25.310417,61.88125],[25.30625,61.88125],[25.30625,61.877083]]]},"properties":{"radiance":5.23}},{"type":"Feature","geometry":{"type":"Polygon","coordinates":[[[25.16875,61.872917],[25.172917,61.872917],[25.172917,61.877083],[25.16875,61.877083],[25.16875,61.872917]]]},"properties":{"radiance":6.52}},{"type":"Feature","geometry":{"type":"Polygon","coordinates":[[[25.172917,61.872917],[25.177083,61.872917],[25.177083,61.877083],[25.172917,61.877083],[25.172917,61.872917]]]},"properties":{"radiance":9.3}},{"type":"Feature","geometry":{"type":"Polygon","coordinates":[[[25.177083,61.872917],[25.18125,61.872917],[25.18125,61.877083],[25.177083,61.877083],[25.177083,61.872917]]]},"properties":{"radiance":27.3}},{"type":"Feature","geometry":{"type":"Polygon","coordinates":[[[25.18125,61.872917],[25.185417,61.872917],[25.185417,61.877083],[25.18125,61.877083],[25.18125,61.872917]]]},"properties":{"radiance":21.64}},{"type":"Feature","geometry":{"type":"Polygon","coordinates":[[[25.185417,61.872917],[25.189583,61.872917],[25.189583,61.877083],[25.185417,61.877083],[25.185417,61.872917]]]},"properties":{"radiance":34.39}},{"type":"Feature","geometry":{"type":"Polygon","coordinates":[[[25.189583,61.872917],[25.19375,61.872917],[25.19375,61.877083],[25.189583,61.877083],[25.189583,61.872917]]]},"properties":{"radiance":24.42}},{"type":"Feature","geometry":{"type":"Polygon","coordinates":[[[25.19375,61.872917],[25.197917,61.872917],[25.197917,61.877083],[25.19375,61.877083],[25.19375,61.872917]]]},"properties":{"radiance":5.18}},{"type":"Feature","geometry":{"type":"Polygon","coordinates":[[[25.210417,61.872917],[25.214583,61.872917],[25.214583,61.877083],[25.210417,61.877083],[25.210417,61.872917]]]},"properties":{"radiance":14.71}},{"type":"Feature","geometry":{"type":"Polygon","coordinates":[[[25.214583,61.872917],[25.21875,61.872917],[25.21875,61.877083],[25.214583,61.877083],[25.214583,61.872917]]]},"properties":{"radiance":14.54}},{"type":"Feature","geometry":{"type":"Polygon","coordinates":[[[25.21875,61.872917],[25.222917,61.872917],[25.222917,61.877083],[25.21875,61.877083],[25.21875,61.872917]]]},"properties":{"radiance":7.03}},{"type":"Feature","geometry":{"type":"Polygon","coordinates":[[[25.235417,61.872917],[25.239583,61.872917],[25.239583,61.877083],[25.235417,61.877083],[25.235417,61.872917]]]},"properties":{"radiance":5.09}},{"type":"Feature","geometry":{"type":"Polygon","coordinates":[[[25.164583,61.86875],[25.16875,61.86875],[25.16875,61.872917],[25.164583,61.872917],[25.164583,61.86875]]]},"properties":{"radiance":5.2}},{"type":"Feature","geometry":{"type":"Polygon","coordinates":[[[25.16875,61.86875],[25.172917,61.86875],[25.172917,61.872917],[25.16875,61.872917],[25.16875,61.86875]]]},"properties":{"radiance":10.86}},{"type":"Feature","geometry":{"type":"Polygon","coordinates":[[[25.172917,61.86875],[25.177083,61.86875],[25.177083,61.872917],[25.172917,61.872917],[25.172917,61.86875]]]},"properties":{"radiance":47.45}},{"type":"Feature","geometry":{"type":"Polygon","coordinates":[[[25.177083,61.86875],[25.18125,61.86875],[25.18125,61.872917],[25.177083,61.872917],[25.177083,61.86875]]]},"properties":{"radiance":42.1}},{"type":"Feature","geometry":{"type":"Polygon","coordinates":[[[25.18125,61.86875],[25.185417,61.86875],[25.185417,61.872917],[25.18125,61.872917],[25.18125,61.86875]]]},"properties":{"radiance":45.21}},{"type":"Feature","geometry":{"type":"Polygon","coordinates":[[[25.185417,61.86875],[25.189583,61.86875],[25.189583,61.872917],[25.185417,61.872917],[25.185417,61.86875]]]},"properties":{"radiance":78.48}},{"type":"Feature","geometry":{"type":"Polygon","coordinates":[[[25.189583,61.86875],[25.19375,61.86875],[25.19375,61.872917],[25.189583,61.872917],[25.189583,61.86875]]]},"properties":{"radiance":76.95}},{"type":"Feature","geometry":{"type":"Polygon","coordinates":[[[25.19375,61.86875],[25.197917,61.86875],[25.197917,61.872917],[25.19375,61.872917],[25.19375,61.86875]]]},"properties":{"radiance":69.72}},{"type":"Feature","geometry":{"type":"Polygon","coordinates":[[[25.197917,61.86875],[25.202083,61.86875],[25.202083,61.872917],[25.197917,61.872917],[25.197917,61.86875]]]},"properties":{"radiance":10.34}},{"type":"Feature","geometry":{"type":"Polygon","coordinates":[[[25.202083,61.86875],[25.20625,61.86875],[25.20625,61.872917],[25.202083,61.872917],[25.202083,61.86875]]]},"properties":{"radiance":37.48}},{"type":"Feature","geometry":{"type":"Polygon","coordinates":[[[25.20625,61.86875],[25.210417,61.86875],[25.210417,61.872917],[25.20625,61.872917],[25.20625,61.86875]]]},"properties":{"radiance":40.36}},{"type":"Feature","geometry":{"type":"Polygon","coordinates":[[[25.210417,61.86875],[25.214583,61.86875],[25.214583,61.872917],[25.210417,61.872917],[25.210417,61.86875]]]},"properties":{"radiance":33.21}},{"type":"Feature","geometry":{"type":"Polygon","coordinates":[[[25.21875,61.86875],[25.222917,61.86875],[25.222917,61.872917],[25.21875,61.872917],[25.21875,61.86875]]]},"properties":{"radiance":6.03}},{"type":"Feature","geometry":{"type":"Polygon","coordinates":[[[25.222917,61.86875],[25.227083,61.86875],[25.227083,61.872917],[25.222917,61.872917],[25.222917,61.86875]]]},"properties":{"radiance":5.84}},{"type":"Feature","geometry":{"type":"Polygon","coordinates":[[[24.79375,61.864583],[24.797917,61.864583],[24.797917,61.86875],[24.79375,61.86875],[24.79375,61.864583]]]},"properties":{"radiance":5.07}},{"type":"Feature","geometry":{"type":"Polygon","coordinates":[[[24.810417,61.864583],[24.814583,61.864583],[24.814583,61.86875],[24.810417,61.86875],[24.810417,61.864583]]]},"properties":{"radiance":8.25}},{"type":"Feature","geometry":{"type":"Polygon","coordinates":[[[25.164583,61.864583],[25.16875,61.864583],[25.16875,61.86875],[25.164583,61.86875],[25.164583,61.864583]]]},"properties":{"radiance":6.7}},{"type":"Feature","geometry":{"type":"Polygon","coordinates":[[[25.16875,61.864583],[25.172917,61.864583],[25.172917,61.86875],[25.16875,61.86875],[25.16875,61.864583]]]},"properties":{"radiance":68.19}},{"type":"Feature","geometry":{"type":"Polygon","coordinates":[[[25.172917,61.864583],[25.177083,61.864583],[25.177083,61.86875],[25.172917,61.86875],[25.172917,61.864583]]]},"properties":{"radiance":77.35}},{"type":"Feature","geometry":{"type":"Polygon","coordinates":[[[25.177083,61.864583],[25.18125,61.864583],[25.18125,61.86875],[25.177083,61.86875],[25.177083,61.864583]]]},"properties":{"radiance":79.48}},{"type":"Feature","geometry":{"type":"Polygon","coordinates":[[[25.18125,61.864583],[25.185417,61.864583],[25.185417,61.86875],[25.18125,61.86875],[25.18125,61.864583]]]},"properties":{"radiance":80.44}},{"type":"Feature","geometry":{"type":"Polygon","coordinates":[[[25.185417,61.864583],[25.189583,61.864583],[25.189583,61.86875],[25.185417,61.86875],[25.185417,61.864583]]]},"properties":{"radiance":88.29}},{"type":"Feature","geometry":{"type":"Polygon","coordinates":[[[25.189583,61.864583],[25.19375,61.864583],[25.19375,61.86875],[25.189583,61.86875],[25.189583,61.864583]]]},"properties":{"radiance":102.2}},{"type":"Feature","geometry":{"type":"Polygon","coordinates":[[[25.19375,61.864583],[25.197917,61.864583],[25.197917,61.86875],[25.19375,61.86875],[25.19375,61.864583]]]},"properties":{"radiance":86.42}},{"type":"Feature","geometry":{"type":"Polygon","coordinates":[[[25.197917,61.864583],[25.202083,61.864583],[25.202083,61.86875],[25.197917,61.86875],[25.197917,61.864583]]]},"properties":{"radiance":83.52}},{"type":"Feature","geometry":{"type":"Polygon","coordinates":[[[25.202083,61.864583],[25.20625,61.864583],[25.20625,61.86875],[25.202083,61.86875],[25.202083,61.864583]]]},"properties":{"radiance":50.29}},{"type":"Feature","geometry":{"type":"Polygon","coordinates":[[[25.20625,61.864583],[25.210417,61.864583],[25.210417,61.86875],[25.20625,61.86875],[25.20625,61.864583]]]},"properties":{"radiance":47.82}},{"type":"Feature","geometry":{"type":"Polygon","coordinates":[[[25.210417,61.864583],[25.214583,61.864583],[25.214583,61.86875],[25.210417,61.86875],[25.210417,61.864583]]]},"properties":{"radiance":46.85}},{"type":"Feature","geometry":{"type":"Polygon","coordinates":[[[25.214583,61.864583],[25.21875,61.864583],[25.21875,61.86875],[25.214583,61.86875],[25.214583,61.864583]]]},"properties":{"radiance":9.08}},{"type":"Feature","geometry":{"type":"Polygon","coordinates":[[[25.21875,61.864583],[25.222917,61.864583],[25.222917,61.86875],[25.21875,61.86875],[25.21875,61.864583]]]},"properties":{"radiance":15.24}},{"type":"Feature","geometry":{"type":"Polygon","coordinates":[[[25.222917,61.864583],[25.227083,61.864583],[25.227083,61.86875],[25.222917,61.86875],[25.222917,61.864583]]]},"properties":{"radiance":6.4}},{"type":"Feature","geometry":{"type":"Polygon","coordinates":[[[24.789583,61.860417],[24.79375,61.860417],[24.79375,61.864583],[24.789583,61.864583],[24.789583,61.860417]]]},"properties":{"radiance":5.36}},{"type":"Feature","geometry":{"type":"Polygon","coordinates":[[[24.797917,61.860417],[24.802083,61.860417],[24.802083,61.864583],[24.797917,61.864583],[24.797917,61.860417]]]},"properties":{"radiance":8.05}},{"type":"Feature","geometry":{"type":"Polygon","coordinates":[[[24.802083,61.860417],[24.80625,61.860417],[24.80625,61.864583],[24.802083,61.864583],[24.802083,61.860417]]]},"properties":{"radiance":38.32}},{"type":"Feature","geometry":{"type":"Polygon","coordinates":[[[24.80625,61.860417],[24.810417,61.860417],[24.810417,61.864583],[24.80625,61.864583],[24.80625,61.860417]]]},"properties":{"radiance":12.92}},{"type":"Feature","geometry":{"type":"Polygon","coordinates":[[[24.810417,61.860417],[24.814583,61.860417],[24.814583,61.864583],[24.810417,61.864583],[24.810417,61.860417]]]},"properties":{"radiance":11.9}},{"type":"Feature","geometry":{"type":"Polygon","coordinates":[[[24.814583,61.860417],[24.81875,61.860417],[24.81875,61.864583],[24.814583,61.864583],[24.814583,61.860417]]]},"properties":{"radiance":11}},{"type":"Feature","geometry":{"type":"Polygon","coordinates":[[[24.81875,61.860417],[24.822917,61.860417],[24.822917,61.864583],[24.81875,61.864583],[24.81875,61.860417]]]},"properties":{"radiance":10.61}},{"type":"Feature","geometry":{"type":"Polygon","coordinates":[[[25.160417,61.860417],[25.164583,61.860417],[25.164583,61.864583],[25.160417,61.864583],[25.160417,61.860417]]]},"properties":{"radiance":5.4}},{"type":"Feature","geometry":{"type":"Polygon","coordinates":[[[25.164583,61.860417],[25.16875,61.860417],[25.16875,61.864583],[25.164583,61.864583],[25.164583,61.860417]]]},"properties":{"radiance":15.7}},{"type":"Feature","geometry":{"type":"Polygon","coordinates":[[[25.16875,61.860417],[25.172917,61.860417],[25.172917,61.864583],[25.16875,61.864583],[25.16875,61.860417]]]},"properties":{"radiance":58.64}},{"type":"Feature","geometry":{"type":"Polygon","coordinates":[[[25.172917,61.860417],[25.177083,61.860417],[25.177083,61.864583],[25.172917,61.864583],[25.172917,61.860417]]]},"properties":{"radiance":66.12}},{"type":"Feature","geometry":{"type":"Polygon","coordinates":[[[25.177083,61.860417],[25.18125,61.860417],[25.18125,61.864583],[25.177083,61.864583],[25.177083,61.860417]]]},"properties":{"radiance":77.88}},{"type":"Feature","geometry":{"type":"Polygon","coordinates":[[[25.18125,61.860417],[25.185417,61.860417],[25.185417,61.864583],[25.18125,61.864583],[25.18125,61.860417]]]},"properties":{"radiance":32.41}},{"type":"Feature","geometry":{"type":"Polygon","coordinates":[[[25.185417,61.860417],[25.189583,61.860417],[25.189583,61.864583],[25.185417,61.864583],[25.185417,61.860417]]]},"properties":{"radiance":27.44}},{"type":"Feature","geometry":{"type":"Polygon","coordinates":[[[25.189583,61.860417],[25.19375,61.860417],[25.19375,61.864583],[25.189583,61.864583],[25.189583,61.860417]]]},"properties":{"radiance":40.61}},{"type":"Feature","geometry":{"type":"Polygon","coordinates":[[[25.19375,61.860417],[25.197917,61.860417],[25.197917,61.864583],[25.19375,61.864583],[25.19375,61.860417]]]},"properties":{"radiance":49.11}},{"type":"Feature","geometry":{"type":"Polygon","coordinates":[[[25.197917,61.860417],[25.202083,61.860417],[25.202083,61.864583],[25.197917,61.864583],[25.197917,61.860417]]]},"properties":{"radiance":20.54}},{"type":"Feature","geometry":{"type":"Polygon","coordinates":[[[25.202083,61.860417],[25.20625,61.860417],[25.20625,61.864583],[25.202083,61.864583],[25.202083,61.860417]]]},"properties":{"radiance":49.97}},{"type":"Feature","geometry":{"type":"Polygon","coordinates":[[[25.20625,61.860417],[25.210417,61.860417],[25.210417,61.864583],[25.20625,61.864583],[25.20625,61.860417]]]},"properties":{"radiance":16.05}},{"type":"Feature","geometry":{"type":"Polygon","coordinates":[[[25.210417,61.860417],[25.214583,61.860417],[25.214583,61.864583],[25.210417,61.864583],[25.210417,61.860417]]]},"properties":{"radiance":36.11}},{"type":"Feature","geometry":{"type":"Polygon","coordinates":[[[25.214583,61.860417],[25.21875,61.860417],[25.21875,61.864583],[25.214583,61.864583],[25.214583,61.860417]]]},"properties":{"radiance":26.83}},{"type":"Feature","geometry":{"type":"Polygon","coordinates":[[[25.21875,61.860417],[25.222917,61.860417],[25.222917,61.864583],[25.21875,61.864583],[25.21875,61.860417]]]},"properties":{"radiance":6.55}},{"type":"Feature","geometry":{"type":"Polygon","coordinates":[[[25.222917,61.860417],[25.227083,61.860417],[25.227083,61.864583],[25.222917,61.864583],[25.222917,61.860417]]]},"properties":{"radiance":6.15}},{"type":"Feature","geometry":{"type":"Polygon","coordinates":[[[24.80625,61.85625],[24.810417,61.85625],[24.810417,61.860417],[24.80625,61.860417],[24.80625,61.85625]]]},"properties":{"radiance":7.33}},{"type":"Feature","geometry":{"type":"Polygon","coordinates":[[[24.810417,61.85625],[24.814583,61.85625],[24.814583,61.860417],[24.810417,61.860417],[24.810417,61.85625]]]},"properties":{"radiance":6.75}},{"type":"Feature","geometry":{"type":"Polygon","coordinates":[[[24.814583,61.85625],[24.81875,61.85625],[24.81875,61.860417],[24.814583,61.860417],[24.814583,61.85625]]]},"properties":{"radiance":6.72}},{"type":"Feature","geometry":{"type":"Polygon","coordinates":[[[25.164583,61.85625],[25.16875,61.85625],[25.16875,61.860417],[25.164583,61.860417],[25.164583,61.85625]]]},"properties":{"radiance":11.29}},{"type":"Feature","geometry":{"type":"Polygon","coordinates":[[[25.16875,61.85625],[25.172917,61.85625],[25.172917,61.860417],[25.16875,61.860417],[25.16875,61.85625]]]},"properties":{"radiance":7.25}},{"type":"Feature","geometry":{"type":"Polygon","coordinates":[[[25.172917,61.85625],[25.177083,61.85625],[25.177083,61.860417],[25.172917,61.860417],[25.172917,61.85625]]]},"properties":{"radiance":7.38}},{"type":"Feature","geometry":{"type":"Polygon","coordinates":[[[25.177083,61.85625],[25.18125,61.85625],[25.18125,61.860417],[25.177083,61.860417],[25.177083,61.85625]]]},"properties":{"radiance":9.02}},{"type":"Feature","geometry":{"type":"Polygon","coordinates":[[[25.18125,61.85625],[25.185417,61.85625],[25.185417,61.860417],[25.18125,61.860417],[25.18125,61.85625]]]},"properties":{"radiance":11.97}},{"type":"Feature","geometry":{"type":"Polygon","coordinates":[[[25.185417,61.85625],[25.189583,61.85625],[25.189583,61.860417],[25.185417,61.860417],[25.185417,61.85625]]]},"properties":{"radiance":32.58}},{"type":"Feature","geometry":{"type":"Polygon","coordinates":[[[25.189583,61.85625],[25.19375,61.85625],[25.19375,61.860417],[25.189583,61.860417],[25.189583,61.85625]]]},"properties":{"radiance":31.24}},{"type":"Feature","geometry":{"type":"Polygon","coordinates":[[[25.19375,61.85625],[25.197917,61.85625],[25.197917,61.860417],[25.19375,61.860417],[25.19375,61.85625]]]},"properties":{"radiance":8.04}},{"type":"Feature","geometry":{"type":"Polygon","coordinates":[[[25.197917,61.85625],[25.202083,61.85625],[25.202083,61.860417],[25.197917,61.860417],[25.197917,61.85625]]]},"properties":{"radiance":10.38}},{"type":"Feature","geometry":{"type":"Polygon","coordinates":[[[25.202083,61.85625],[25.20625,61.85625],[25.20625,61.860417],[25.202083,61.860417],[25.202083,61.85625]]]},"properties":{"radiance":11}},{"type":"Feature","geometry":{"type":"Polygon","coordinates":[[[25.20625,61.85625],[25.210417,61.85625],[25.210417,61.860417],[25.20625,61.860417],[25.20625,61.85625]]]},"properties":{"radiance":5.01}},{"type":"Feature","geometry":{"type":"Polygon","coordinates":[[[25.214583,61.85625],[25.21875,61.85625],[25.21875,61.860417],[25.214583,61.860417],[25.214583,61.85625]]]},"properties":{"radiance":6.42}},{"type":"Feature","geometry":{"type":"Polygon","coordinates":[[[25.160417,61.852083],[25.164583,61.852083],[25.164583,61.85625],[25.160417,61.85625],[25.160417,61.852083]]]},"properties":{"radiance":6.39}},{"type":"Feature","geometry":{"type":"Polygon","coordinates":[[[25.164583,61.852083],[25.16875,61.852083],[25.16875,61.85625],[25.164583,61.85625],[25.164583,61.852083]]]},"properties":{"radiance":8.51}},{"type":"Feature","geometry":{"type":"Polygon","coordinates":[[[25.16875,61.852083],[25.172917,61.852083],[25.172917,61.85625],[25.16875,61.85625],[25.16875,61.852083]]]},"properties":{"radiance":9.67}},{"type":"Feature","geometry":{"type":"Polygon","coordinates":[[[25.172917,61.852083],[25.177083,61.852083],[25.177083,61.85625],[25.172917,61.85625],[25.172917,61.852083]]]},"properties":{"radiance":7.57}},{"type":"Feature","geometry":{"type":"Polygon","coordinates":[[[25.177083,61.852083],[25.18125,61.852083],[25.18125,61.85625],[25.177083,61.85625],[25.177083,61.852083]]]},"properties":{"radiance":6.36}},{"type":"Feature","geometry":{"type":"Polygon","coordinates":[[[25.18125,61.852083],[25.185417,61.852083],[25.185417,61.85625],[25.18125,61.85625],[25.18125,61.852083]]]},"properties":{"radiance":5.67}},{"type":"Feature","geometry":{"type":"Polygon","coordinates":[[[25.185417,61.852083],[25.189583,61.852083],[25.189583,61.85625],[25.185417,61.85625],[25.185417,61.852083]]]},"properties":{"radiance":5.79}},{"type":"Feature","geometry":{"type":"Polygon","coordinates":[[[25.19375,61.852083],[25.197917,61.852083],[25.197917,61.85625],[25.19375,61.85625],[25.19375,61.852083]]]},"properties":{"radiance":6.77}},{"type":"Feature","geometry":{"type":"Polygon","coordinates":[[[25.197917,61.852083],[25.202083,61.852083],[25.202083,61.85625],[25.197917,61.85625],[25.197917,61.852083]]]},"properties":{"radiance":5.8}},{"type":"Feature","geometry":{"type":"Polygon","coordinates":[[[25.202083,61.852083],[25.20625,61.852083],[25.20625,61.85625],[25.202083,61.85625],[25.202083,61.852083]]]},"properties":{"radiance":5.84}},{"type":"Feature","geometry":{"type":"Polygon","coordinates":[[[25.16875,61.847917],[25.172917,61.847917],[25.172917,61.852083],[25.16875,61.852083],[25.16875,61.847917]]]},"properties":{"radiance":5.57}},{"type":"Feature","geometry":{"type":"Polygon","coordinates":[[[25.227083,61.81875],[25.23125,61.81875],[25.23125,61.822917],[25.227083,61.822917],[25.227083,61.81875]]]},"properties":{"radiance":20.6}},{"type":"Feature","geometry":{"type":"Polygon","coordinates":[[[25.235417,61.814583],[25.239583,61.814583],[25.239583,61.81875],[25.235417,61.81875],[25.235417,61.814583]]]},"properties":{"radiance":31.14}},{"type":"Feature","geometry":{"type":"Polygon","coordinates":[[[25.23125,61.810417],[25.235417,61.810417],[25.235417,61.814583],[25.23125,61.814583],[25.23125,61.810417]]]},"properties":{"radiance":5.6}},{"type":"Feature","geometry":{"type":"Polygon","coordinates":[[[25.235417,61.810417],[25.239583,61.810417],[25.239583,61.814583],[25.235417,61.814583],[25.235417,61.810417]]]},"properties":{"radiance":6.22}},{"type":"Feature","geometry":{"type":"Polygon","coordinates":[[[25.239583,61.810417],[25.24375,61.810417],[25.24375,61.814583],[25.239583,61.814583],[25.239583,61.810417]]]},"properties":{"radiance":6.29}},{"type":"Feature","geometry":{"type":"Polygon","coordinates":[[[25.24375,61.810417],[25.247917,61.810417],[25.247917,61.814583],[25.24375,61.814583],[25.24375,61.810417]]]},"properties":{"radiance":5.12}},{"type":"Feature","geometry":{"type":"Polygon","coordinates":[[[24.914583,61.739583],[24.91875,61.739583],[24.91875,61.74375],[24.914583,61.74375],[24.914583,61.739583]]]},"properties":{"radiance":19.33}},{"type":"Feature","geometry":{"type":"Polygon","coordinates":[[[24.91875,61.739583],[24.922917,61.739583],[24.922917,61.74375],[24.91875,61.74375],[24.91875,61.739583]]]},"properties":{"radiance":41.86}},{"type":"Feature","geometry":{"type":"Polygon","coordinates":[[[24.922917,61.739583],[24.927083,61.739583],[24.927083,61.74375],[24.922917,61.74375],[24.922917,61.739583]]]},"properties":{"radiance":20.61}},{"type":"Feature","geometry":{"type":"Polygon","coordinates":[[[24.914583,61.735417],[24.91875,61.735417],[24.91875,61.739583],[24.914583,61.739583],[24.914583,61.735417]]]},"properties":{"radiance":28.56}},{"type":"Feature","geometry":{"type":"Polygon","coordinates":[[[24.91875,61.735417],[24.922917,61.735417],[24.922917,61.739583],[24.91875,61.739583],[24.91875,61.735417]]]},"properties":{"radiance":48.34}}]}