{"type":"FeatureCollection","features":[{"type":"Feature","geometry":{"type":"Polygon","coordinates":[[[23.439583,63.372917],[23.44375,63.372917],[23.44375,63.377083],[23.439583,63.377083],[23.439583,63.372917]]]},"properties":{"radiance":5.45}},{"type":"Feature","geometry":{"type":"Polygon","coordinates":[[[24.40625,63.214583],[24.410417,63.214583],[24.410417,63.21875],[24.40625,63.21875],[24.40625,63.214583]]]},"properties":{"radiance":6.65}},{"type":"Feature","geometry":{"type":"Polygon","coordinates":[[[24.410417,63.214583],[24.414583,63.214583],[24.414583,63.21875],[24.410417,63.21875],[24.410417,63.214583]]]},"properties":{"radiance":11.26}},{"type":"Feature","geometry":{"type":"Polygon","coordinates":[[[24.414583,63.214583],[24.41875,63.214583],[24.41875,63.21875],[24.414583,63.21875],[24.414583,63.214583]]]},"properties":{"radiance":10.45}},{"type":"Feature","geometry":{"type":"Polygon","coordinates":[[[24.41875,63.214583],[24.422917,63.214583],[24.422917,63.21875],[24.41875,63.21875],[24.41875,63.214583]]]},"properties":{"radiance":12.66}},{"type":"Feature","geometry":{"type":"Polygon","coordinates":[[[24.422917,63.214583],[24.427083,63.214583],[24.427083,63.21875],[24.422917,63.21875],[24.422917,63.214583]]]},"properties":{"radiance":5.44}},{"type":"Feature","geometry":{"type":"Polygon","coordinates":[[[24.427083,63.214583],[24.43125,63.214583],[24.43125,63.21875],[24.427083,63.21875],[24.427083,63.214583]]]},"properties":{"radiance":6.43}},{"type":"Feature","geometry":{"type":"Polygon","coordinates":[[[24.41875,63.210417],[24.422917,63.210417],[24.422917,63.214583],[24.41875,63.214583],[24.41875,63.210417]]]},"properties":{"radiance":5.39}},{"type":"Feature","geometry":{"type":"Polygon","coordinates":[[[24.422917,63.210417],[24.427083,63.210417],[24.427083,63.214583],[24.422917,63.214583],[24.422917,63.210417]]]},"properties":{"radiance":5.53}},{"type":"Feature","geometry":{"type":"Polygon","coordinates":[[[24.49375,63.177083],[24.497917,63.177083],[24.497917,63.18125],[24.49375,63.18125],[24.49375,63.177083]]]},"properties":{"radiance":5.08}},{"type":"Feature","geometry":{"type":"Polygon","coordinates":[[[24.497917,63.177083],[24.502083,63.177083],[24.502083,63.18125],[24.497917,63.18125],[24.497917,63.177083]]]},"properties":{"radiance":5.06}},{"type":"Feature","geometry":{"type":"Polygon","coordinates":[[[23.84375,63.089583],[23.847917,63.089583],[23.847917,63.09375],[23.84375,63.09375],[23.84375,63.089583]]]},"properties":{"radiance":10.05}},{"type":"Feature","geometry":{"type":"Polygon","coordinates":[[[23.839583,63.085417],[23.84375,63.085417],[23.84375,63.089583],[23.839583,63.089583],[23.839583,63.085417]]]},"properties":{"radiance":9.18}},{"type":"Feature","geometry":{"type":"Polygon","coordinates":[[[23.84375,63.085417],[23.847917,63.085417],[23.847917,63.089583],[23.84375,63.089583],[23.84375,63.085417]]]},"properties":{"radiance":11.12}},{"type":"Feature","geometry":{"type":"Polygon","coordinates":[[[23.847917,63.085417],[23.852083,63.085417],[23.852083,63.089583],[23.847917,63.089583],[23.847917,63.085417]]]},"properties":{"radiance":12.17}},{"type":"Feature","geometry":{"type":"Polygon","coordinates":[[[23.672917,63.03125],[23.677083,63.03125],[23.677083,63.035417],[23.672917,63.035417],[23.672917,63.03125]]]},"properties":{"radiance":11.99}},{"type":"Feature","geometry":{"type":"Polygon","coordinates":[[[23.677083,63.03125],[23.68125,63.03125],[23.68125,63.035417],[23.677083,63.035417],[23.677083,63.03125]]]},"properties":{"radiance":17.97}},{"type":"Feature","geometry":{"type":"Polygon","coordinates":[[[23.68125,63.03125],[23.685417,63.03125],[23.685417,63.035417],[23.68125,63.035417],[23.68125,63.03125]]]},"properties":{"radiance":57.18}},{"type":"Feature","geometry":{"type":"Polygon","coordinates":[[[23.685417,63.03125],[23.689583,63.03125],[23.689583,63.035417],[23.685417,63.035417],[23.685417,63.03125]]]},"properties":{"radiance":54.55}},{"type":"Feature","geometry":{"type":"Polygon","coordinates":[[[23.689583,63.03125],[23.69375,63.03125],[23.69375,63.035417],[23.689583,63.035417],[23.689583,63.03125]]]},"properties":{"radiance":17.42}},{"type":"Feature","geometry":{"type":"Polygon","coordinates":[[[23.864583,63.03125],[23.86875,63.03125],[23.86875,63.035417],[23.864583,63.035417],[23.864583,63.03125]]]},"properties":{"radiance":5.65}},{"type":"Feature","geometry":{"type":"Polygon","coordinates":[[[23.672917,63.027083],[23.677083,63.027083],[23.677083,63.03125],[23.672917,63.03125],[23.672917,63.027083]]]},"properties":{"radiance":9.27}},{"type":"Feature","geometry":{"type":"Polygon","coordinates":[[[23.677083,63.027083],[23.68125,63.027083],[23.68125,63.03125],[23.677083,63.03125],[23.677083,63.027083]]]},"properties":{"radiance":14.59}},{"type":"Feature","geometry":{"type":"Polygon","coordinates":[[[23.68125,63.027083],[23.685417,63.027083],[23.685417,63.03125],[23.68125,63.03125],[23.68125,63.027083]]]},"properties":{"radiance":13.82}},{"type":"Feature","geometry":{"type":"Polygon","coordinates":[[[23.685417,63.027083],[23.689583,63.027083],[23.689583,63.03125],[23.685417,63.03125],[23.685417,63.027083]]]},"properties":{"radiance":14.37}},{"type":"Feature","geometry":{"type":"Polygon","coordinates":[[[23.689583,63.027083],[23.69375,63.027083],[23.69375,63.03125],[23.689583,63.03125],[23.689583,63.027083]]]},"properties":{"radiance":12.01}},{"type":"Feature","geometry":{"type":"Polygon","coordinates":[[[23.69375,63.027083],[23.697917,63.027083],[23.697917,63.03125],[23.69375,63.03125],[23.69375,63.027083]]]},"properties":{"radiance":6.91}},{"type":"Feature","geometry":{"type":"Polygon","coordinates":[[[23.685417,63.022917],[23.689583,63.022917],[23.689583,63.027083],[23.685417,63.027083],[23.685417,63.022917]]]},"properties":{"radiance":5.15}},{"type":"Feature","geometry":{"type":"Polygon","coordinates":[[[23.79375,63.022917],[23.797917,63.022917],[23.797917,63.027083],[23.79375,63.027083],[23.79375,63.022917]]]},"properties":{"radiance":5.44}},{"type":"Feature","geometry":{"type":"Polygon","coordinates":[[[23.797917,63.022917],[23.802083,63.022917],[23.802083,63.027083],[23.797917,63.027083],[23.797917,63.022917]]]},"properties":{"radiance":5.98}},{"type":"Feature","geometry":{"type":"Polygon","coordinates":[[[23.802083,63.022917],[23.80625,63.022917],[23.80625,63.027083],[23.802083,63.027083],[23.802083,63.022917]]]},"properties":{"radiance":5.3}},{"type":"Feature","geometry":{"type":"Polygon","coordinates":[[[23.79375,63.01875],[23.797917,63.01875],[23.797917,63.022917],[23.79375,63.022917],[23.79375,63.01875]]]},"properties":{"radiance":6.27}},{"type":"Feature","geometry":{"type":"Polygon","coordinates":[[[23.797917,63.01875],[23.802083,63.01875],[23.802083,63.022917],[23.797917,63.022917],[23.797917,63.01875]]]},"properties":{"radiance":7.51}},{"type":"Feature","geometry":{"type":"Polygon","coordinates":[[[23.802083,63.01875],[23.80625,63.01875],[23.80625,63.022917],[23.802083,63.022917],[23.802083,63.01875]]]},"properties":{"radiance":7.78}},{"type":"Feature","geometry":{"type":"Polygon","coordinates":[[[23.777083,63.010417],[23.78125,63.010417],[23.78125,63.014583],[23.777083,63.014583],[23.777083,63.010417]]]},"properties":{"radiance":6.29}},{"type":"Feature","geometry":{"type":"Polygon","coordinates":[[[23.78125,63.010417],[23.785417,63.010417],[23.785417,63.014583],[23.78125,63.014583],[23.78125,63.010417]]]},"properties":{"radiance":38.49}},{"type":"Feature","geometry":{"type":"Polygon","coordinates":[[[23.785417,63.010417],[23.789583,63.010417],[23.789583,63.014583],[23.785417,63.014583],[23.785417,63.010417]]]},"properties":{"radiance":8.25}},{"type":"Feature","geometry":{"type":"Polygon","coordinates":[[[23.789583,63.010417],[23.79375,63.010417],[23.79375,63.014583],[23.789583,63.014583],[23.789583,63.010417]]]},"properties":{"radiance":8.04}},{"type":"Feature","geometry":{"type":"Polygon","coordinates":[[[23.79375,63.010417],[23.797917,63.010417],[23.797917,63.014583],[23.79375,63.014583],[23.79375,63.010417]]]},"properties":{"radiance":7.09}},{"type":"Feature","geometry":{"type":"Polygon","coordinates":[[[23.797917,63.010417],[23.802083,63.010417],[23.802083,63.014583],[23.797917,63.014583],[23.797917,63.010417]]]},"properties":{"radiance":6.64}},{"type":"Feature","geometry":{"type":"Polygon","coordinates":[[[23.802083,63.010417],[23.80625,63.010417],[23.80625,63.014583],[23.802083,63.014583],[23.802083,63.010417]]]},"properties":{"radiance":5.95}},{"type":"Feature","geometry":{"type":"Polygon","coordinates":[[[23.78125,63.00625],[23.785417,63.00625],[23.785417,63.010417],[23.78125,63.010417],[23.78125,63.00625]]]},"properties":{"radiance":8.65}},{"type":"Feature","geometry":{"type":"Polygon","coordinates":[[[23.785417,63.00625],[23.789583,63.00625],[23.789583,63.010417],[23.785417,63.010417],[23.785417,63.00625]]]},"properties":{"radiance":22.25}},{"type":"Feature","geometry":{"type":"Polygon","coordinates":[[[23.789583,63.00625],[23.79375,63.00625],[23.79375,63.010417],[23.789583,63.010417],[23.789583,63.00625]]]},"properties":{"radiance":12.09}},{"type":"Feature","geometry":{"type":"Polygon","coordinates":[[[23.79375,63.00625],[23.797917,63.00625],[23.797917,63.010417],[23.79375,63.010417],[23.79375,63.00625]]]},"properties":{"radiance":6.85}},{"type":"Feature","geometry":{"type":"Polygon","coordinates":[[[23.797917,63.00625],[23.802083,63.00625],[23.802083,63.010417],[23.797917,63.010417],[23.797917,63.00625]]]},"properties":{"radiance":6.73}},{"type":"Feature","geometry":{"type":"Polygon","coordinates":[[[23.802083,63.00625],[23.80625,63.00625],[23.80625,63.010417],[23.802083,63.010417],[23.802083,63.00625]]]},"properties":{"radiance":5.99}},{"type":"Feature","geometry":{"type":"Polygon","coordinates":[[[23.80625,63.00625],[23.810417,63.00625],[23.810417,63.010417],[23.80625,63.010417],[23.80625,63.00625]]]},"properties":{"radiance":5.46}},{"type":"Feature","geometry":{"type":"Polygon","coordinates":[[[23.810417,63.00625],[23.814583,63.00625],[23.814583,63.010417],[23.810417,63.010417],[23.810417,63.00625]]]},"properties":{"radiance":5.76}},{"type":"Feature","geometry":{"type":"Polygon","coordinates":[[[23.79375,63.002083],[23.797917,63.002083],[23.797917,63.00625],[23.79375,63.00625],[23.79375,63.002083]]]},"properties":{"radiance":5.43}},{"type":"Feature","geometry":{"type":"Polygon","coordinates":[[[23.797917,63.002083],[23.802083,63.002083],[23.802083,63.00625],[23.797917,63.00625],[23.797917,63.002083]]]},"properties":{"radiance":6.39}},{"type":"Feature","geometry":{"type":"Polygon","coordinates":[[[23.802083,63.002083],[23.80625,63.002083],[23.80625,63.00625],[23.802083,63.00625],[23.802083,63.002083]]]},"properties":{"radiance":6.74}},{"type":"Feature","geometry":{"type":"Polygon","coordinates":[[[23.80625,63.002083],[23.810417,63.002083],[23.810417,63.00625],[23.80625,63.00625],[23.80625,63.002083]]]},"properties":{"radiance":7.27}},{"type":"Feature","geometry":{"type":"Polygon","coordinates":[[[23.810417,63.002083],[23.814583,63.002083],[23.814583,63.00625],[23.810417,63.00625],[23.810417,63.002083]]]},"properties":{"radiance":7.46}},{"type":"Feature","geometry":{"type":"Polygon","coordinates":[[[23.814583,63.002083],[23.81875,63.002083],[23.81875,63.00625],[23.814583,63.00625],[23.814583,63.002083]]]},"properties":{"radiance":6.8}},{"type":"Feature","geometry":{"type":"Polygon","coordinates":[[[23.81875,63.002083],[23.822917,63.002083],[23.822917,63.00625],[23.81875,63.00625],[23.81875,63.002083]]]},"properties":{"radiance":11.09}},{"type":"Feature","geometry":{"type":"Polygon","coordinates":[[[23.80625,62.997917],[23.810417,62.997917],[23.810417,63.002083],[23.80625,63.002083],[23.80625,62.997917]]]},"properties":{"radiance":6.08}},{"type":"Feature","geometry":{"type":"Polygon","coordinates":[[[23.810417,62.997917],[23.814583,62.997917],[23.814583,63.002083],[23.810417,63.002083],[23.810417,62.997917]]]},"properties":{"radiance":6.18}},{"type":"Feature","geometry":{"type":"Polygon","coordinates":[[[23.814583,62.997917],[23.81875,62.997917],[23.81875,63.002083],[23.814583,63.002083],[23.814583,62.997917]]]},"properties":{"radiance":6.1}},{"type":"Feature","geometry":{"type":"Polygon","coordinates":[[[23.827083,62.997917],[23.83125,62.997917],[23.83125,63.002083],[23.827083,63.002083],[23.827083,62.997917]]]},"properties":{"radiance":8.63}}]}