{"type":"FeatureCollection","features":[{"type":"Feature","geometry":{"type":"Polygon","coordinates":[[[29.960417,62.43125],[29.964583,62.43125],[29.964583,62.435417],[29.960417,62.435417],[29.960417,62.43125]]]},"properties":{"radiance":5.42}},{"type":"Feature","geometry":{"type":"Polygon","coordinates":[[[29.964583,62.43125],[29.96875,62.43125],[29.96875,62.435417],[29.964583,62.435417],[29.964583,62.43125]]]},"properties":{"radiance":6.07}},{"type":"Feature","geometry":{"type":"Polygon","coordinates":[[[29.622917,62.314583],[29.627083,62.314583],[29.627083,62.31875],[29.622917,62.31875],[29.622917,62.314583]]]},"properties":{"radiance":6.09}},{"type":"Feature","geometry":{"type":"Polygon","coordinates":[[[29.627083,62.314583],[29.63125,62.314583],[29.63125,62.31875],[29.627083,62.31875],[29.627083,62.314583]]]},"properties":{"radiance":6.36}},{"type":"Feature","geometry":{"type":"Polygon","coordinates":[[[29.914583,62.110417],[29.91875,62.110417],[29.91875,62.114583],[29.914583,62.114583],[29.914583,62.110417]]]},"properties":{"radiance":7.02}},{"type":"Feature","geometry":{"type":"Polygon","coordinates":[[[29.910417,62.10625],[29.914583,62.10625],[29.914583,62.110417],[29.910417,62.110417],[29.910417,62.10625]]]},"properties":{"radiance":9.47}},{"type":"Feature","geometry":{"type":"Polygon","coordinates":[[[29.914583,62.10625],[29.91875,62.10625],[29.91875,62.110417],[29.914583,62.110417],[29.914583,62.10625]]]},"properties":{"radiance":10.67}},{"type":"Feature","geometry":{"type":"Polygon","coordinates":[[[29.91875,62.10625],[29.922917,62.10625],[29.922917,62.110417],[29.91875,62.110417],[29.91875,62.10625]]]},"properties":{"radiance":10.06}},{"type":"Feature","geometry":{"type":"Polygon","coordinates":[[[29.922917,62.10625],[29.927083,62.10625],[29.927083,62.110417],[29.922917,62.110417],[29.922917,62.10625]]]},"properties":{"radiance":6.54}},{"type":"Feature","geometry":{"type":"Polygon","coordinates":[[[29.90625,62.102083],[29.910417,62.102083],[29.910417,62.10625],[29.90625,62.10625],[29.90625,62.102083]]]},"properties":{"radiance":6.66}},{"type":"Feature","geometry":{"type":"Polygon","coordinates":[[[29.910417,62.102083],[29.914583,62.102083],[29.914583,62.10625],[29.910417,62.10625],[29.910417,62.102083]]]},"properties":{"radiance":10.42}},{"type":"Feature","geometry":{"type":"Polygon","coordinates":[[[29.914583,62.102083],[29.91875,62.102083],[29.91875,62.10625],[29.914583,62.10625],[29.914583,62.102083]]]},"properties":{"radiance":34.9}},{"type":"Feature","geometry":{"type":"Polygon","coordinates":[[[29.91875,62.102083],[29.922917,62.102083],[29.922917,62.10625],[29.91875,62.10625],[29.91875,62.102083]]]},"properties":{"radiance":39.99}},{"type":"Feature","geometry":{"type":"Polygon","coordinates":[[[29.910417,62.097917],[29.914583,62.097917],[29.914583,62.102083],[29.910417,62.102083],[29.910417,62.097917]]]},"properties":{"radiance":28.33}},{"type":"Feature","geometry":{"type":"Polygon","coordinates":[[[29.914583,62.097917],[29.91875,62.097917],[29.91875,62.102083],[29.914583,62.102083],[29.914583,62.097917]]]},"properties":{"radiance":12.6}},{"type":"Feature","geometry":{"type":"Polygon","coordinates":[[[29.91875,62.097917],[29.922917,62.097917],[29.922917,62.102083],[29.91875,62.102083],[29.91875,62.097917]]]},"properties":{"radiance":9.49}},{"type":"Feature","geometry":{"type":"Polygon","coordinates":[[[29.277083,61.910417],[29.28125,61.910417],[29.28125,61.914583],[29.277083,61.914583],[29.277083,61.910417]]]},"properties":{"radiance":5.62}},{"type":"Feature","geometry":{"type":"Polygon","coordinates":[[[29.36875,61.764583],[29.372917,61.764583],[29.372917,61.76875],[29.36875,61.76875],[29.36875,61.764583]]]},"properties":{"radiance":5.82}},{"type":"Feature","geometry":{"type":"Polygon","coordinates":[[[29.377083,61.764583],[29.38125,61.764583],[29.38125,61.76875],[29.377083,61.76875],[29.377083,61.764583]]]},"properties":{"radiance":7.7}},{"type":"Feature","geometry":{"type":"Polygon","coordinates":[[[29.36875,61.760417],[29.372917,61.760417],[29.372917,61.764583],[29.36875,61.764583],[29.36875,61.760417]]]},"properties":{"radiance":8.74}},{"type":"Feature","geometry":{"type":"Polygon","coordinates":[[[29.372917,61.760417],[29.377083,61.760417],[29.377083,61.764583],[29.372917,61.764583],[29.372917,61.760417]]]},"properties":{"radiance":6.31}},{"type":"Feature","geometry":{"type":"Polygon","coordinates":[[[29.377083,61.760417],[29.38125,61.760417],[29.38125,61.764583],[29.377083,61.764583],[29.377083,61.760417]]]},"properties":{"radiance":18.62}},{"type":"Feature","geometry":{"type":"Polygon","coordinates":[[[29.38125,61.760417],[29.385417,61.760417],[29.385417,61.764583],[29.38125,61.764583],[29.38125,61.760417]]]},"properties":{"radiance":19.55}},{"type":"Feature","geometry":{"type":"Polygon","coordinates":[[[29.385417,61.760417],[29.389583,61.760417],[29.389583,61.764583],[29.385417,61.764583],[29.385417,61.760417]]]},"properties":{"radiance":8.28}},{"type":"Feature","geometry":{"type":"Polygon","coordinates":[[[29.36875,61.75625],[29.372917,61.75625],[29.372917,61.760417],[29.36875,61.760417],[29.36875,61.75625]]]},"properties":{"radiance":12.12}},{"type":"Feature","geometry":{"type":"Polygon","coordinates":[[[29.372917,61.75625],[29.377083,61.75625],[29.377083,61.760417],[29.372917,61.760417],[29.372917,61.75625]]]},"properties":{"radiance":57.17}},{"type":"Feature","geometry":{"type":"Polygon","coordinates":[[[29.377083,61.75625],[29.38125,61.75625],[29.38125,61.760417],[29.377083,61.760417],[29.377083,61.75625]]]},"properties":{"radiance":27.99}},{"type":"Feature","geometry":{"type":"Polygon","coordinates":[[[29.38125,61.75625],[29.385417,61.75625],[29.385417,61.760417],[29.38125,61.760417],[29.38125,61.75625]]]},"properties":{"radiance":47.44}},{"type":"Feature","geometry":{"type":"Polygon","coordinates":[[[29.385417,61.75625],[29.389583,61.75625],[29.389583,61.760417],[29.385417,61.760417],[29.385417,61.75625]]]},"properties":{"radiance":10.7}},{"type":"Feature","geometry":{"type":"Polygon","coordinates":[[[29.389583,61.75625],[29.39375,61.75625],[29.39375,61.760417],[29.389583,61.760417],[29.389583,61.75625]]]},"properties":{"radiance":7.7}},{"type":"Feature","geometry":{"type":"Polygon","coordinates":[[[29.39375,61.75625],[29.397917,61.75625],[29.397917,61.760417],[29.39375,61.760417],[29.39375,61.75625]]]},"properties":{"radiance":6.58}},{"type":"Feature","geometry":{"type":"Polygon","coordinates":[[[29.372917,61.752083],[29.377083,61.752083],[29.377083,61.75625],[29.372917,61.75625],[29.372917,61.752083]]]},"properties":{"radiance":10.59}},{"type":"Feature","geometry":{"type":"Polygon","coordinates":[[[29.377083,61.752083],[29.38125,61.752083],[29.38125,61.75625],[29.377083,61.75625],[29.377083,61.752083]]]},"properties":{"radiance":19.98}},{"type":"Feature","geometry":{"type":"Polygon","coordinates":[[[29.38125,61.752083],[29.385417,61.752083],[29.385417,61.75625],[29.38125,61.75625],[29.38125,61.752083]]]},"properties":{"radiance":13.62}},{"type":"Feature","geometry":{"type":"Polygon","coordinates":[[[29.385417,61.752083],[29.389583,61.752083],[29.389583,61.75625],[29.385417,61.75625],[29.385417,61.752083]]]},"properties":{"radiance":9.46}},{"type":"Feature","geometry":{"type":"Polygon","coordinates":[[[29.389583,61.752083],[29.39375,61.752083],[29.39375,61.75625],[29.389583,61.75625],[29.389583,61.752083]]]},"properties":{"radiance":8.86}},{"type":"Feature","geometry":{"type":"Polygon","coordinates":[[[29.39375,61.752083],[29.397917,61.752083],[29.397917,61.75625],[29.39375,61.75625],[29.39375,61.752083]]]},"properties":{"radiance":5.32}},{"type":"Feature","geometry":{"type":"Polygon","coordinates":[[[29.389583,61.747917],[29.39375,61.747917],[29.39375,61.752083],[29.389583,61.752083],[29.389583,61.747917]]]},"properties":{"radiance":5.42}},{"type":"Feature","geometry":{"type":"Polygon","coordinates":[[[30.072917,62.41875],[30.077083,62.41875],[30.077083,62.422917],[30.072917,62.422917],[30.072917,62.41875]]]},"properties":{"radiance":5.61}},{"type":"Feature","geometry":{"type":"Polygon","coordinates":[[[30.089583,62.402083],[30.09375,62.402083],[30.09375,62.40625],[30.089583,62.40625],[30.089583,62.402083]]]},"properties":{"radiance":5.99}},{"type":"Feature","geometry":{"type":"Polygon","coordinates":[[[30.089583,62.389583],[30.09375,62.389583],[30.09375,62.39375],[30.089583,62.39375],[30.089583,62.389583]]]},"properties":{"radiance":5.44}},{"type":"Feature","geometry":{"type":"Polygon","coordinates":[[[30.585417,62.177083],[30.589583,62.177083],[30.589583,62.18125],[30.585417,62.18125],[30.585417,62.177083]]]},"properties":{"radiance":9.03}},{"type":"Feature","geometry":{"type":"Polygon","coordinates":[[[30.589583,62.177083],[30.59375,62.177083],[30.59375,62.18125],[30.589583,62.18125],[30.589583,62.177083]]]},"properties":{"radiance":10.51}},{"type":"Feature","geometry":{"type":"Polygon","coordinates":[[[30.59375,62.177083],[30.597917,62.177083],[30.597917,62.18125],[30.59375,62.18125],[30.59375,62.177083]]]},"properties":{"radiance":9.49}},{"type":"Feature","geometry":{"type":"Polygon","coordinates":[[[30.597917,62.177083],[30.602083,62.177083],[30.602083,62.18125],[30.597917,62.18125],[30.597917,62.177083]]]},"properties":{"radiance":9.31}},{"type":"Feature","geometry":{"type":"Polygon","coordinates":[[[30.602083,62.177083],[30.60625,62.177083],[30.60625,62.18125],[30.602083,62.18125],[30.602083,62.177083]]]},"properties":{"radiance":8.86}},{"type":"Feature","geometry":{"type":"Polygon","coordinates":[[[30.60625,62.177083],[30.610417,62.177083],[30.610417,62.18125],[30.60625,62.18125],[30.60625,62.177083]]]},"properties":{"radiance":9.76}},{"type":"Feature","geometry":{"type":"Polygon","coordinates":[[[30.610417,62.177083],[30.614583,62.177083],[30.614583,62.18125],[30.610417,62.18125],[30.610417,62.177083]]]},"properties":{"radiance":8.71}},{"type":"Feature","geometry":{"type":"Polygon","coordinates":[[[30.614583,62.177083],[30.61875,62.177083],[30.61875,62.18125],[30.614583,62.18125],[30.614583,62.177083]]]},"properties":{"radiance":10.06}},{"type":"Feature","geometry":{"type":"Polygon","coordinates":[[[30.585417,62.172917],[30.589583,62.172917],[30.589583,62.177083],[30.585417,62.177083],[30.585417,62.172917]]]},"properties":{"radiance":7.38}},{"type":"Feature","geometry":{"type":"Polygon","coordinates":[[[30.589583,62.172917],[30.59375,62.172917],[30.59375,62.177083],[30.589583,62.177083],[30.589583,62.172917]]]},"properties":{"radiance":8.97}},{"type":"Feature","geometry":{"type":"Polygon","coordinates":[[[30.59375,62.172917],[30.597917,62.172917],[30.597917,62.177083],[30.59375,62.177083],[30.59375,62.172917]]]},"properties":{"radiance":13.89}},{"type":"Feature","geometry":{"type":"Polygon","coordinates":[[[30.597917,62.172917],[30.602083,62.172917],[30.602083,62.177083],[30.597917,62.177083],[30.597917,62.172917]]]},"properties":{"radiance":15.25}},{"type":"Feature","geometry":{"type":"Polygon","coordinates":[[[30.602083,62.172917],[30.60625,62.172917],[30.60625,62.177083],[30.602083,62.177083],[30.602083,62.172917]]]},"properties":{"radiance":19.62}},{"type":"Feature","geometry":{"type":"Polygon","coordinates":[[[30.60625,62.172917],[30.610417,62.172917],[30.610417,62.177083],[30.60625,62.177083],[30.60625,62.172917]]]},"properties":{"radiance":21.1}},{"type":"Feature","geometry":{"type":"Polygon","coordinates":[[[30.610417,62.172917],[30.614583,62.172917],[30.614583,62.177083],[30.610417,62.177083],[30.610417,62.172917]]]},"properties":{"radiance":19.87}},{"type":"Feature","geometry":{"type":"Polygon","coordinates":[[[30.614583,62.172917],[30.61875,62.172917],[30.61875,62.177083],[30.614583,62.177083],[30.614583,62.172917]]]},"properties":{"radiance":17.19}},{"type":"Feature","geometry":{"type":"Polygon","coordinates":[[[30.61875,62.172917],[30.622917,62.172917],[30.622917,62.177083],[30.61875,62.177083],[30.61875,62.172917]]]},"properties":{"radiance":12.29}},{"type":"Feature","geometry":{"type":"Polygon","coordinates":[[[30.622917,62.172917],[30.627083,62.172917],[30.627083,62.177083],[30.622917,62.177083],[30.622917,62.172917]]]},"properties":{"radiance":8.87}},{"type":"Feature","geometry":{"type":"Polygon","coordinates":[[[30.627083,62.172917],[30.63125,62.172917],[30.63125,62.177083],[30.627083,62.177083],[30.627083,62.172917]]]},"properties":{"radiance":8.06}},{"type":"Feature","geometry":{"type":"Polygon","coordinates":[[[30.60625,62.16875],[30.610417,62.16875],[30.610417,62.172917],[30.60625,62.172917],[30.60625,62.16875]]]},"properties":{"radiance":14.1}},{"type":"Feature","geometry":{"type":"Polygon","coordinates":[[[30.610417,62.16875],[30.614583,62.16875],[30.614583,62.172917],[30.610417,62.172917],[30.610417,62.16875]]]},"properties":{"radiance":13.48}},{"type":"Feature","geometry":{"type":"Polygon","coordinates":[[[30.614583,62.16875],[30.61875,62.16875],[30.61875,62.172917],[30.614583,62.172917],[30.614583,62.16875]]]},"properties":{"radiance":12.08}},{"type":"Feature","geometry":{"type":"Polygon","coordinates":[[[30.61875,62.16875],[30.622917,62.16875],[30.622917,62.172917],[30.61875,62.172917],[30.61875,62.16875]]]},"properties":{"radiance":12.49}},{"type":"Feature","geometry":{"type":"Polygon","coordinates":[[[30.622917,62.16875],[30.627083,62.16875],[30.627083,62.172917],[30.622917,62.172917],[30.622917,62.16875]]]},"properties":{"radiance":13.82}},{"type":"Feature","geometry":{"type":"Polygon","coordinates":[[[30.627083,62.16875],[30.63125,62.16875],[30.63125,62.172917],[30.627083,62.172917],[30.627083,62.16875]]]},"properties":{"radiance":47.47}},{"type":"Feature","geometry":{"type":"Polygon","coordinates":[[[30.63125,62.16875],[30.635417,62.16875],[30.635417,62.172917],[30.63125,62.172917],[30.63125,62.16875]]]},"properties":{"radiance":65.74}},{"type":"Feature","geometry":{"type":"Polygon","coordinates":[[[30.627083,62.164583],[30.63125,62.164583],[30.63125,62.16875],[30.627083,62.16875],[30.627083,62.164583]]]},"properties":{"radiance":9.11}},{"type":"Feature","geometry":{"type":"Polygon","coordinates":[[[30.035417,62.14375],[30.039583,62.14375],[30.039583,62.147917],[30.035417,62.147917],[30.035417,62.14375]]]},"properties":{"radiance":10.94}},{"type":"Feature","geometry":{"type":"Polygon","coordinates":[[[30.039583,62.14375],[30.04375,62.14375],[30.04375,62.147917],[30.039583,62.147917],[30.039583,62.14375]]]},"properties":{"radiance":8.29}},{"type":"Feature","geometry":{"type":"Polygon","coordinates":[[[30.04375,62.14375],[30.047917,62.14375],[30.047917,62.147917],[30.04375,62.147917],[30.04375,62.14375]]]},"properties":{"radiance":8.7}},{"type":"Feature","geometry":{"type":"Polygon","coordinates":[[[30.047917,62.14375],[30.052083,62.14375],[30.052083,62.147917],[30.047917,62.147917],[30.047917,62.14375]]]},"properties":{"radiance":6.31}},{"type":"Feature","geometry":{"type":"Polygon","coordinates":[[[30.052083,62.14375],[30.05625,62.14375],[30.05625,62.147917],[30.052083,62.147917],[30.052083,62.14375]]]},"properties":{"radiance":5.54}},{"type":"Feature","geometry":{"type":"Polygon","coordinates":[[[30.039583,62.139583],[30.04375,62.139583],[30.04375,62.14375],[30.039583,62.14375],[30.039583,62.139583]]]},"properties":{"radiance":9.47}},{"type":"Feature","geometry":{"type":"Polygon","coordinates":[[[30.04375,62.139583],[30.047917,62.139583],[30.047917,62.14375],[30.04375,62.14375],[30.04375,62.139583]]]},"properties":{"radiance":8.61}},{"type":"Feature","geometry":{"type":"Polygon","coordinates":[[[30.047917,62.139583],[30.052083,62.139583],[30.052083,62.14375],[30.047917,62.14375],[30.047917,62.139583]]]},"properties":{"radiance":5.09}},{"type":"Feature","geometry":{"type":"Polygon","coordinates":[[[30.039583,62.135417],[30.04375,62.135417],[30.04375,62.139583],[30.039583,62.139583],[30.039583,62.135417]]]},"properties":{"radiance":5.08}},{"type":"Feature","geometry":{"type":"Polygon","coordinates":[[[30.152083,62.114583],[30.15625,62.114583],[30.15625,62.11875],[30.152083,62.11875],[30.152083,62.114583]]]},"properties":{"radiance":5.31}},{"type":"Feature","geometry":{"type":"Polygon","coordinates":[[[30.114583,62.10625],[30.11875,62.10625],[30.11875,62.110417],[30.114583,62.110417],[30.114583,62.10625]]]},"properties":{"radiance":5.28}},{"type":"Feature","geometry":{"type":"Polygon","coordinates":[[[30.11875,62.10625],[30.122917,62.10625],[30.122917,62.110417],[30.11875,62.110417],[30.11875,62.10625]]]},"properties":{"radiance":5.71}},{"type":"Feature","geometry":{"type":"Polygon","coordinates":[[[30.122917,62.10625],[30.127083,62.10625],[30.127083,62.110417],[30.122917,62.110417],[30.122917,62.10625]]]},"properties":{"radiance":6.03}},{"type":"Feature","geometry":{"type":"Polygon","coordinates":[[[30.13125,62.10625],[30.135417,62.10625],[30.135417,62.110417],[30.13125,62.110417],[30.13125,62.10625]]]},"properties":{"radiance":6.34}},{"type":"Feature","geometry":{"type":"Polygon","coordinates":[[[30.114583,62.102083],[30.11875,62.102083],[30.11875,62.10625],[30.114583,62.10625],[30.114583,62.102083]]]},"properties":{"radiance":5.94}},{"type":"Feature","geometry":{"type":"Polygon","coordinates":[[[30.11875,62.102083],[30.122917,62.102083],[30.122917,62.10625],[30.11875,62.10625],[30.11875,62.102083]]]},"properties":{"radiance":8.35}},{"type":"Feature","geometry":{"type":"Polygon","coordinates":[[[30.122917,62.102083],[30.127083,62.102083],[30.127083,62.10625],[30.122917,62.10625],[30.122917,62.102083]]]},"properties":{"radiance":11.18}},{"type":"Feature","geometry":{"type":"Polygon","coordinates":[[[30.127083,62.102083],[30.13125,62.102083],[30.13125,62.10625],[30.127083,62.10625],[30.127083,62.102083]]]},"properties":{"radiance":11.82}},{"type":"Feature","geometry":{"type":"Polygon","coordinates":[[[30.13125,62.102083],[30.135417,62.102083],[30.135417,62.10625],[30.13125,62.10625],[30.13125,62.102083]]]},"properties":{"radiance":11.21}},{"type":"Feature","geometry":{"type":"Polygon","coordinates":[[[30.135417,62.102083],[30.139583,62.102083],[30.139583,62.10625],[30.135417,62.10625],[30.135417,62.102083]]]},"properties":{"radiance":9.88}},{"type":"Feature","geometry":{"type":"Polygon","coordinates":[[[30.139583,62.102083],[30.14375,62.102083],[30.14375,62.10625],[30.139583,62.10625],[30.139583,62.102083]]]},"properties":{"radiance":8.25}},{"type":"Feature","geometry":{"type":"Polygon","coordinates":[[[30.114583,62.097917],[30.11875,62.097917],[30.11875,62.102083],[30.114583,62.102083],[30.114583,62.097917]]]},"properties":{"radiance":5.28}},{"type":"Feature","geometry":{"type":"Polygon","coordinates":[[[30.11875,62.097917],[30.122917,62.097917],[30.122917,62.102083],[30.11875,62.102083],[30.11875,62.097917]]]},"properties":{"radiance":6.85}},{"type":"Feature","geometry":{"type":"Polygon","coordinates":[[[30.122917,62.097917],[30.127083,62.097917],[30.127083,62.102083],[30.122917,62.102083],[30.122917,62.097917]]]},"properties":{"radiance":25.01}},{"type":"Feature","geometry":{"type":"Polygon","coordinates":[[[30.127083,62.097917],[30.13125,62.097917],[30.13125,62.102083],[30.127083,62.102083],[30.127083,62.097917]]]},"properties":{"radiance":11.63}},{"type":"Feature","geometry":{"type":"Polygon","coordinates":[[[30.13125,62.097917],[30.135417,62.097917],[30.135417,62.102083],[30.13125,62.102083],[30.13125,62.097917]]]},"properties":{"radiance":13.28}},{"type":"Feature","geometry":{"type":"Polygon","coordinates":[[[30.135417,62.097917],[30.139583,62.097917],[30.139583,62.102083],[30.135417,62.102083],[30.135417,62.097917]]]},"properties":{"radiance":14.23}},{"type":"Feature","geometry":{"type":"Polygon","coordinates":[[[30.139583,62.097917],[30.14375,62.097917],[30.14375,62.102083],[30.139583,62.102083],[30.139583,62.097917]]]},"properties":{"radiance":12.59}},{"type":"Feature","geometry":{"type":"Polygon","coordinates":[[[30.14375,62.097917],[30.147917,62.097917],[30.147917,62.102083],[30.14375,62.102083],[30.14375,62.097917]]]},"properties":{"radiance":7.12}},{"type":"Feature","geometry":{"type":"Polygon","coordinates":[[[30.147917,62.097917],[30.152083,62.097917],[30.152083,62.102083],[30.147917,62.102083],[30.147917,62.097917]]]},"properties":{"radiance":5.1}},{"type":"Feature","geometry":{"type":"Polygon","coordinates":[[[30.122917,62.09375],[30.127083,62.09375],[30.127083,62.097917],[30.122917,62.097917],[30.122917,62.09375]]]},"properties":{"radiance":8.34}},{"type":"Feature","geometry":{"type":"Polygon","coordinates":[[[30.127083,62.09375],[30.13125,62.09375],[30.13125,62.097917],[30.127083,62.097917],[30.127083,62.09375]]]},"properties":{"radiance":8.68}},{"type":"Feature","geometry":{"type":"Polygon","coordinates":[[[30.13125,62.09375],[30.135417,62.09375],[30.135417,62.097917],[30.13125,62.097917],[30.13125,62.09375]]]},"properties":{"radiance":10.34}},{"type":"Feature","geometry":{"type":"Polygon","coordinates":[[[30.135417,62.09375],[30.139583,62.09375],[30.139583,62.097917],[30.135417,62.097917],[30.135417,62.09375]]]},"properties":{"radiance":11.71}},{"type":"Feature","geometry":{"type":"Polygon","coordinates":[[[30.139583,62.09375],[30.14375,62.09375],[30.14375,62.097917],[30.139583,62.097917],[30.139583,62.09375]]]},"properties":{"radiance":9.42}},{"type":"Feature","geometry":{"type":"Polygon","coordinates":[[[30.14375,62.09375],[30.147917,62.09375],[30.147917,62.097917],[30.14375,62.097917],[30.14375,62.09375]]]},"properties":{"radiance":5.42}}]}