{"type":"FeatureCollection","features":[{"type":"Feature","geometry":{"type":"Polygon","coordinates":[[[29.19375,62.18125],[29.197917,62.18125],[29.197917,62.185417],[29.19375,62.185417],[29.19375,62.18125]]]},"properties":{"radiance":5.19}},{"type":"Feature","geometry":{"type":"Polygon","coordinates":[[[29.202083,62.172917],[29.20625,62.172917],[29.20625,62.177083],[29.202083,62.177083],[29.202083,62.172917]]]},"properties":{"radiance":5.01}},{"type":"Feature","geometry":{"type":"Polygon","coordinates":[[[29.197917,62.16875],[29.202083,62.16875],[29.202083,62.172917],[29.197917,62.172917],[29.197917,62.16875]]]},"properties":{"radiance":5.72}},{"type":"Feature","geometry":{"type":"Polygon","coordinates":[[[29.202083,62.16875],[29.20625,62.16875],[29.20625,62.172917],[29.202083,62.172917],[29.202083,62.16875]]]},"properties":{"radiance":7.62}},{"type":"Feature","geometry":{"type":"Polygon","coordinates":[[[29.20625,62.16875],[29.210417,62.16875],[29.210417,62.172917],[29.20625,62.172917],[29.20625,62.16875]]]},"properties":{"radiance":12.54}},{"type":"Feature","geometry":{"type":"Polygon","coordinates":[[[29.210417,62.16875],[29.214583,62.16875],[29.214583,62.172917],[29.210417,62.172917],[29.210417,62.16875]]]},"properties":{"radiance":6.36}},{"type":"Feature","geometry":{"type":"Polygon","coordinates":[[[29.202083,62.164583],[29.20625,62.164583],[29.20625,62.16875],[29.202083,62.16875],[29.202083,62.164583]]]},"properties":{"radiance":5.8}},{"type":"Feature","geometry":{"type":"Polygon","coordinates":[[[29.20625,62.164583],[29.210417,62.164583],[29.210417,62.16875],[29.20625,62.16875],[29.20625,62.164583]]]},"properties":{"radiance":5.69}},{"type":"Feature","geometry":{"type":"Polygon","coordinates":[[[29.272917,61.910417],[29.277083,61.910417],[29.277083,61.914583],[29.272917,61.914583],[29.272917,61.910417]]]},"properties":{"radiance":5.27}},{"type":"Feature","geometry":{"type":"Polygon","coordinates":[[[28.172917,61.522917],[28.177083,61.522917],[28.177083,61.527083],[28.172917,61.527083],[28.172917,61.522917]]]},"properties":{"radiance":5.57}},{"type":"Feature","geometry":{"type":"Polygon","coordinates":[[[28.177083,61.522917],[28.18125,61.522917],[28.18125,61.527083],[28.177083,61.527083],[28.177083,61.522917]]]},"properties":{"radiance":5.65}}]}