{"type":"FeatureCollection","features":[{"type":"Feature","geometry":{"type":"Polygon","coordinates":[[[22.964583,62.19375],[22.96875,62.19375],[22.96875,62.197917],[22.964583,62.197917],[22.964583,62.19375]]]},"properties":{"radiance":5.31}},{"type":"Feature","geometry":{"type":"Polygon","coordinates":[[[22.964583,62.189583],[22.96875,62.189583],[22.96875,62.19375],[22.964583,62.19375],[22.964583,62.189583]]]},"properties":{"radiance":5.54}},{"type":"Feature","geometry":{"type":"Polygon","coordinates":[[[22.96875,62.189583],[22.972917,62.189583],[22.972917,62.19375],[22.96875,62.19375],[22.96875,62.189583]]]},"properties":{"radiance":5.7}},{"type":"Feature","geometry":{"type":"Polygon","coordinates":[[[22.664583,62.185417],[22.66875,62.185417],[22.66875,62.189583],[22.664583,62.189583],[22.664583,62.185417]]]},"properties":{"radiance":48.53}},{"type":"Feature","geometry":{"type":"Polygon","coordinates":[[[22.66875,62.185417],[22.672917,62.185417],[22.672917,62.189583],[22.66875,62.189583],[22.66875,62.185417]]]},"properties":{"radiance":42.8}},{"type":"Feature","geometry":{"type":"Polygon","coordinates":[[[22.652083,62.18125],[22.65625,62.18125],[22.65625,62.185417],[22.652083,62.185417],[22.652083,62.18125]]]},"properties":{"radiance":75.13}},{"type":"Feature","geometry":{"type":"Polygon","coordinates":[[[22.65625,62.18125],[22.660417,62.18125],[22.660417,62.185417],[22.65625,62.185417],[22.65625,62.18125]]]},"properties":{"radiance":85.8}},{"type":"Feature","geometry":{"type":"Polygon","coordinates":[[[22.660417,62.18125],[22.664583,62.18125],[22.664583,62.185417],[22.660417,62.185417],[22.660417,62.18125]]]},"properties":{"radiance":131.38}},{"type":"Feature","geometry":{"type":"Polygon","coordinates":[[[22.664583,62.18125],[22.66875,62.18125],[22.66875,62.185417],[22.664583,62.185417],[22.664583,62.18125]]]},"properties":{"radiance":151}},{"type":"Feature","geometry":{"type":"Polygon","coordinates":[[[22.66875,62.18125],[22.672917,62.18125],[22.672917,62.185417],[22.66875,62.185417],[22.66875,62.18125]]]},"properties":{"radiance":129.86}},{"type":"Feature","geometry":{"type":"Polygon","coordinates":[[[22.672917,62.18125],[22.677083,62.18125],[22.677083,62.185417],[22.672917,62.185417],[22.672917,62.18125]]]},"properties":{"radiance":70.96}},{"type":"Feature","geometry":{"type":"Polygon","coordinates":[[[22.660417,62.177083],[22.664583,62.177083],[22.664583,62.18125],[22.660417,62.18125],[22.660417,62.177083]]]},"properties":{"radiance":24.34}},{"type":"Feature","geometry":{"type":"Polygon","coordinates":[[[22.664583,62.177083],[22.66875,62.177083],[22.66875,62.18125],[22.664583,62.18125],[22.664583,62.177083]]]},"properties":{"radiance":24.79}},{"type":"Feature","geometry":{"type":"Polygon","coordinates":[[[22.560417,62.14375],[22.564583,62.14375],[22.564583,62.147917],[22.560417,62.147917],[22.560417,62.14375]]]},"properties":{"radiance":5.29}},{"type":"Feature","geometry":{"type":"Polygon","coordinates":[[[22.55625,62.139583],[22.560417,62.139583],[22.560417,62.14375],[22.55625,62.14375],[22.55625,62.139583]]]},"properties":{"radiance":8.7}},{"type":"Feature","geometry":{"type":"Polygon","coordinates":[[[22.560417,62.139583],[22.564583,62.139583],[22.564583,62.14375],[22.560417,62.14375],[22.560417,62.139583]]]},"properties":{"radiance":8.39}},{"type":"Feature","geometry":{"type":"Polygon","coordinates":[[[22.564583,62.139583],[22.56875,62.139583],[22.56875,62.14375],[22.564583,62.14375],[22.564583,62.139583]]]},"properties":{"radiance":7.08}},{"type":"Feature","geometry":{"type":"Polygon","coordinates":[[[22.56875,62.139583],[22.572917,62.139583],[22.572917,62.14375],[22.56875,62.14375],[22.56875,62.139583]]]},"properties":{"radiance":5.14}},{"type":"Feature","geometry":{"type":"Polygon","coordinates":[[[22.55625,62.135417],[22.560417,62.135417],[22.560417,62.139583],[22.55625,62.139583],[22.55625,62.135417]]]},"properties":{"radiance":6.94}},{"type":"Feature","geometry":{"type":"Polygon","coordinates":[[[22.560417,62.135417],[22.564583,62.135417],[22.564583,62.139583],[22.560417,62.139583],[22.560417,62.135417]]]},"properties":{"radiance":6.63}},{"type":"Feature","geometry":{"type":"Polygon","coordinates":[[[22.552083,62.13125],[22.55625,62.13125],[22.55625,62.135417],[22.552083,62.135417],[22.552083,62.13125]]]},"properties":{"radiance":5.98}},{"type":"Feature","geometry":{"type":"Polygon","coordinates":[[[22.55625,62.13125],[22.560417,62.13125],[22.560417,62.135417],[22.55625,62.135417],[22.55625,62.13125]]]},"properties":{"radiance":6.11}},{"type":"Feature","geometry":{"type":"Polygon","coordinates":[[[22.560417,62.13125],[22.564583,62.13125],[22.564583,62.135417],[22.560417,62.135417],[22.560417,62.13125]]]},"properties":{"radiance":5.71}},{"type":"Feature","geometry":{"type":"Polygon","coordinates":[[[22.564583,62.13125],[22.56875,62.13125],[22.56875,62.135417],[22.564583,62.135417],[22.564583,62.13125]]]},"properties":{"radiance":5.13}},{"type":"Feature","geometry":{"type":"Polygon","coordinates":[[[23.06875,62.05625],[23.072917,62.05625],[23.072917,62.060417],[23.06875,62.060417],[23.06875,62.05625]]]},"properties":{"radiance":6.7}},{"type":"Feature","geometry":{"type":"Polygon","coordinates":[[[23.072917,62.05625],[23.077083,62.05625],[23.077083,62.060417],[23.072917,62.060417],[23.072917,62.05625]]]},"properties":{"radiance":5.57}},{"type":"Feature","geometry":{"type":"Polygon","coordinates":[[[23.06875,62.052083],[23.072917,62.052083],[23.072917,62.05625],[23.06875,62.05625],[23.06875,62.052083]]]},"properties":{"radiance":8.24}},{"type":"Feature","geometry":{"type":"Polygon","coordinates":[[[23.072917,62.052083],[23.077083,62.052083],[23.077083,62.05625],[23.072917,62.05625],[23.072917,62.052083]]]},"properties":{"radiance":8.09}},{"type":"Feature","geometry":{"type":"Polygon","coordinates":[[[23.077083,62.052083],[23.08125,62.052083],[23.08125,62.05625],[23.077083,62.05625],[23.077083,62.052083]]]},"properties":{"radiance":6.44}},{"type":"Feature","geometry":{"type":"Polygon","coordinates":[[[23.072917,62.047917],[23.077083,62.047917],[23.077083,62.052083],[23.072917,62.052083],[23.072917,62.047917]]]},"properties":{"radiance":5.03}},{"type":"Feature","geometry":{"type":"Polygon","coordinates":[[[22.997917,62.022917],[23.002083,62.022917],[23.002083,62.027083],[22.997917,62.027083],[22.997917,62.022917]]]},"properties":{"radiance":5.58}},{"type":"Feature","geometry":{"type":"Polygon","coordinates":[[[23.002083,62.022917],[23.00625,62.022917],[23.00625,62.027083],[23.002083,62.027083],[23.002083,62.022917]]]},"properties":{"radiance":6.33}},{"type":"Feature","geometry":{"type":"Polygon","coordinates":[[[23.00625,62.022917],[23.010417,62.022917],[23.010417,62.027083],[23.00625,62.027083],[23.00625,62.022917]]]},"properties":{"radiance":5.23}},{"type":"Feature","geometry":{"type":"Polygon","coordinates":[[[23.010417,62.022917],[23.014583,62.022917],[23.014583,62.027083],[23.010417,62.027083],[23.010417,62.022917]]]},"properties":{"radiance":5.37}},{"type":"Feature","geometry":{"type":"Polygon","coordinates":[[[22.997917,62.01875],[23.002083,62.01875],[23.002083,62.022917],[22.997917,62.022917],[22.997917,62.01875]]]},"properties":{"radiance":5.11}},{"type":"Feature","geometry":{"type":"Polygon","coordinates":[[[23.00625,62.01875],[23.010417,62.01875],[23.010417,62.022917],[23.00625,62.022917],[23.00625,62.01875]]]},"properties":{"radiance":5.58}},{"type":"Feature","geometry":{"type":"Polygon","coordinates":[[[23.010417,62.01875],[23.014583,62.01875],[23.014583,62.022917],[23.010417,62.022917],[23.010417,62.01875]]]},"properties":{"radiance":6.17}},{"type":"Feature","geometry":{"type":"Polygon","coordinates":[[[23.014583,62.01875],[23.01875,62.01875],[23.01875,62.022917],[23.014583,62.022917],[23.014583,62.01875]]]},"properties":{"radiance":10.74}},{"type":"Feature","geometry":{"type":"Polygon","coordinates":[[[23.01875,62.01875],[23.022917,62.01875],[23.022917,62.022917],[23.01875,62.022917],[23.01875,62.01875]]]},"properties":{"radiance":10.26}},{"type":"Feature","geometry":{"type":"Polygon","coordinates":[[[23.022917,62.01875],[23.027083,62.01875],[23.027083,62.022917],[23.022917,62.022917],[23.022917,62.01875]]]},"properties":{"radiance":7.1}},{"type":"Feature","geometry":{"type":"Polygon","coordinates":[[[23.010417,62.014583],[23.014583,62.014583],[23.014583,62.01875],[23.010417,62.01875],[23.010417,62.014583]]]},"properties":{"radiance":15.14}},{"type":"Feature","geometry":{"type":"Polygon","coordinates":[[[23.014583,62.014583],[23.01875,62.014583],[23.01875,62.01875],[23.014583,62.01875],[23.014583,62.014583]]]},"properties":{"radiance":15.27}},{"type":"Feature","geometry":{"type":"Polygon","coordinates":[[[23.01875,62.014583],[23.022917,62.014583],[23.022917,62.01875],[23.01875,62.01875],[23.01875,62.014583]]]},"properties":{"radiance":14.12}},{"type":"Feature","geometry":{"type":"Polygon","coordinates":[[[23.022917,62.014583],[23.027083,62.014583],[23.027083,62.01875],[23.022917,62.01875],[23.022917,62.014583]]]},"properties":{"radiance":8.67}},{"type":"Feature","geometry":{"type":"Polygon","coordinates":[[[23.010417,62.010417],[23.014583,62.010417],[23.014583,62.014583],[23.010417,62.014583],[23.010417,62.010417]]]},"properties":{"radiance":23.62}},{"type":"Feature","geometry":{"type":"Polygon","coordinates":[[[23.014583,62.010417],[23.01875,62.010417],[23.01875,62.014583],[23.014583,62.014583],[23.014583,62.010417]]]},"properties":{"radiance":19.41}},{"type":"Feature","geometry":{"type":"Polygon","coordinates":[[[23.01875,62.010417],[23.022917,62.010417],[23.022917,62.014583],[23.01875,62.014583],[23.01875,62.010417]]]},"properties":{"radiance":19.23}},{"type":"Feature","geometry":{"type":"Polygon","coordinates":[[[23.022917,62.010417],[23.027083,62.010417],[23.027083,62.014583],[23.022917,62.014583],[23.022917,62.010417]]]},"properties":{"radiance":12.55}},{"type":"Feature","geometry":{"type":"Polygon","coordinates":[[[23.027083,62.010417],[23.03125,62.010417],[23.03125,62.014583],[23.027083,62.014583],[23.027083,62.010417]]]},"properties":{"radiance":13.92}},{"type":"Feature","geometry":{"type":"Polygon","coordinates":[[[23.03125,62.010417],[23.035417,62.010417],[23.035417,62.014583],[23.03125,62.014583],[23.03125,62.010417]]]},"properties":{"radiance":5.52}},{"type":"Feature","geometry":{"type":"Polygon","coordinates":[[[23.002083,62.00625],[23.00625,62.00625],[23.00625,62.010417],[23.002083,62.010417],[23.002083,62.00625]]]},"properties":{"radiance":10.79}},{"type":"Feature","geometry":{"type":"Polygon","coordinates":[[[23.00625,62.00625],[23.010417,62.00625],[23.010417,62.010417],[23.00625,62.010417],[23.00625,62.00625]]]},"properties":{"radiance":14.52}},{"type":"Feature","geometry":{"type":"Polygon","coordinates":[[[23.010417,62.00625],[23.014583,62.00625],[23.014583,62.010417],[23.010417,62.010417],[23.010417,62.00625]]]},"properties":{"radiance":15.93}},{"type":"Feature","geometry":{"type":"Polygon","coordinates":[[[23.014583,62.00625],[23.01875,62.00625],[23.01875,62.010417],[23.014583,62.010417],[23.014583,62.00625]]]},"properties":{"radiance":17.38}},{"type":"Feature","geometry":{"type":"Polygon","coordinates":[[[23.01875,62.00625],[23.022917,62.00625],[23.022917,62.010417],[23.01875,62.010417],[23.01875,62.00625]]]},"properties":{"radiance":17.22}},{"type":"Feature","geometry":{"type":"Polygon","coordinates":[[[23.022917,62.00625],[23.027083,62.00625],[23.027083,62.010417],[23.022917,62.010417],[23.022917,62.00625]]]},"properties":{"radiance":13.38}},{"type":"Feature","geometry":{"type":"Polygon","coordinates":[[[23.027083,62.00625],[23.03125,62.00625],[23.03125,62.010417],[23.027083,62.010417],[23.027083,62.00625]]]},"properties":{"radiance":9.02}},{"type":"Feature","geometry":{"type":"Polygon","coordinates":[[[23.002083,62.002083],[23.00625,62.002083],[23.00625,62.00625],[23.002083,62.00625],[23.002083,62.002083]]]},"properties":{"radiance":10.47}},{"type":"Feature","geometry":{"type":"Polygon","coordinates":[[[23.00625,62.002083],[23.010417,62.002083],[23.010417,62.00625],[23.00625,62.00625],[23.00625,62.002083]]]},"properties":{"radiance":12.84}},{"type":"Feature","geometry":{"type":"Polygon","coordinates":[[[23.010417,62.002083],[23.014583,62.002083],[23.014583,62.00625],[23.010417,62.00625],[23.010417,62.002083]]]},"properties":{"radiance":11.94}},{"type":"Feature","geometry":{"type":"Polygon","coordinates":[[[23.014583,62.002083],[23.01875,62.002083],[23.01875,62.00625],[23.014583,62.00625],[23.014583,62.002083]]]},"properties":{"radiance":11.06}},{"type":"Feature","geometry":{"type":"Polygon","coordinates":[[[23.01875,62.002083],[23.022917,62.002083],[23.022917,62.00625],[23.01875,62.00625],[23.01875,62.002083]]]},"properties":{"radiance":39}},{"type":"Feature","geometry":{"type":"Polygon","coordinates":[[[23.022917,62.002083],[23.027083,62.002083],[23.027083,62.00625],[23.022917,62.00625],[23.022917,62.002083]]]},"properties":{"radiance":11.07}},{"type":"Feature","geometry":{"type":"Polygon","coordinates":[[[22.997917,61.997917],[23.002083,61.997917],[23.002083,62.002083],[22.997917,62.002083],[22.997917,61.997917]]]},"properties":{"radiance":16.07}},{"type":"Feature","geometry":{"type":"Polygon","coordinates":[[[23.002083,61.997917],[23.00625,61.997917],[23.00625,62.002083],[23.002083,62.002083],[23.002083,61.997917]]]},"properties":{"radiance":14.1}},{"type":"Feature","geometry":{"type":"Polygon","coordinates":[[[23.00625,61.997917],[23.010417,61.997917],[23.010417,62.002083],[23.00625,62.002083],[23.00625,61.997917]]]},"properties":{"radiance":15.3}},{"type":"Feature","geometry":{"type":"Polygon","coordinates":[[[23.010417,61.997917],[23.014583,61.997917],[23.014583,62.002083],[23.010417,62.002083],[23.010417,61.997917]]]},"properties":{"radiance":16.66}},{"type":"Feature","geometry":{"type":"Polygon","coordinates":[[[23.014583,61.997917],[23.01875,61.997917],[23.01875,62.002083],[23.014583,62.002083],[23.014583,61.997917]]]},"properties":{"radiance":10.46}},{"type":"Feature","geometry":{"type":"Polygon","coordinates":[[[23.01875,61.997917],[23.022917,61.997917],[23.022917,62.002083],[23.01875,62.002083],[23.01875,61.997917]]]},"properties":{"radiance":5}},{"type":"Feature","geometry":{"type":"Polygon","coordinates":[[[22.99375,61.99375],[22.997917,61.99375],[22.997917,61.997917],[22.99375,61.997917],[22.99375,61.99375]]]},"properties":{"radiance":12.53}},{"type":"Feature","geometry":{"type":"Polygon","coordinates":[[[22.997917,61.99375],[23.002083,61.99375],[23.002083,61.997917],[22.997917,61.997917],[22.997917,61.99375]]]},"properties":{"radiance":16.65}},{"type":"Feature","geometry":{"type":"Polygon","coordinates":[[[23.002083,61.99375],[23.00625,61.99375],[23.00625,61.997917],[23.002083,61.997917],[23.002083,61.99375]]]},"properties":{"radiance":18.28}},{"type":"Feature","geometry":{"type":"Polygon","coordinates":[[[23.00625,61.99375],[23.010417,61.99375],[23.010417,61.997917],[23.00625,61.997917],[23.00625,61.99375]]]},"properties":{"radiance":18.78}},{"type":"Feature","geometry":{"type":"Polygon","coordinates":[[[23.010417,61.99375],[23.014583,61.99375],[23.014583,61.997917],[23.010417,61.997917],[23.010417,61.99375]]]},"properties":{"radiance":15.74}},{"type":"Feature","geometry":{"type":"Polygon","coordinates":[[[23.014583,61.99375],[23.01875,61.99375],[23.01875,61.997917],[23.014583,61.997917],[23.014583,61.99375]]]},"properties":{"radiance":9.22}},{"type":"Feature","geometry":{"type":"Polygon","coordinates":[[[23.01875,61.99375],[23.022917,61.99375],[23.022917,61.997917],[23.01875,61.997917],[23.01875,61.99375]]]},"properties":{"radiance":7.72}},{"type":"Feature","geometry":{"type":"Polygon","coordinates":[[[22.677083,61.822917],[22.68125,61.822917],[22.68125,61.827083],[22.677083,61.827083],[22.677083,61.822917]]]},"properties":{"radiance":5.01}},{"type":"Feature","geometry":{"type":"Polygon","coordinates":[[[22.70625,61.81875],[22.710417,61.81875],[22.710417,61.822917],[22.70625,61.822917],[22.70625,61.81875]]]},"properties":{"radiance":5.43}},{"type":"Feature","geometry":{"type":"Polygon","coordinates":[[[22.98125,61.78125],[22.985417,61.78125],[22.985417,61.785417],[22.98125,61.785417],[22.98125,61.78125]]]},"properties":{"radiance":6.99}},{"type":"Feature","geometry":{"type":"Polygon","coordinates":[[[22.985417,61.78125],[22.989583,61.78125],[22.989583,61.785417],[22.985417,61.785417],[22.985417,61.78125]]]},"properties":{"radiance":7.68}},{"type":"Feature","geometry":{"type":"Polygon","coordinates":[[[22.98125,61.777083],[22.985417,61.777083],[22.985417,61.78125],[22.98125,61.78125],[22.98125,61.777083]]]},"properties":{"radiance":10.39}},{"type":"Feature","geometry":{"type":"Polygon","coordinates":[[[22.985417,61.777083],[22.989583,61.777083],[22.989583,61.78125],[22.985417,61.78125],[22.985417,61.777083]]]},"properties":{"radiance":9.04}},{"type":"Feature","geometry":{"type":"Polygon","coordinates":[[[23.002083,61.777083],[23.00625,61.777083],[23.00625,61.78125],[23.002083,61.78125],[23.002083,61.777083]]]},"properties":{"radiance":6.75}},{"type":"Feature","geometry":{"type":"Polygon","coordinates":[[[23.00625,61.777083],[23.010417,61.777083],[23.010417,61.78125],[23.00625,61.78125],[23.00625,61.777083]]]},"properties":{"radiance":7.85}},{"type":"Feature","geometry":{"type":"Polygon","coordinates":[[[23.010417,61.777083],[23.014583,61.777083],[23.014583,61.78125],[23.010417,61.78125],[23.010417,61.777083]]]},"properties":{"radiance":7.64}},{"type":"Feature","geometry":{"type":"Polygon","coordinates":[[[23.014583,61.777083],[23.01875,61.777083],[23.01875,61.78125],[23.014583,61.78125],[23.014583,61.777083]]]},"properties":{"radiance":11.41}},{"type":"Feature","geometry":{"type":"Polygon","coordinates":[[[23.01875,61.777083],[23.022917,61.777083],[23.022917,61.78125],[23.01875,61.78125],[23.01875,61.777083]]]},"properties":{"radiance":8.81}},{"type":"Feature","geometry":{"type":"Polygon","coordinates":[[[23.022917,61.777083],[23.027083,61.777083],[23.027083,61.78125],[23.022917,61.78125],[23.022917,61.777083]]]},"properties":{"radiance":6.88}},{"type":"Feature","geometry":{"type":"Polygon","coordinates":[[[23.00625,61.772917],[23.010417,61.772917],[23.010417,61.777083],[23.00625,61.777083],[23.00625,61.772917]]]},"properties":{"radiance":7.2}},{"type":"Feature","geometry":{"type":"Polygon","coordinates":[[[23.010417,61.772917],[23.014583,61.772917],[23.014583,61.777083],[23.010417,61.777083],[23.010417,61.772917]]]},"properties":{"radiance":8.78}},{"type":"Feature","geometry":{"type":"Polygon","coordinates":[[[23.01875,61.772917],[23.022917,61.772917],[23.022917,61.777083],[23.01875,61.777083],[23.01875,61.772917]]]},"properties":{"radiance":6.71}},{"type":"Feature","geometry":{"type":"Polygon","coordinates":[[[23.047917,61.772917],[23.052083,61.772917],[23.052083,61.777083],[23.047917,61.777083],[23.047917,61.772917]]]},"properties":{"radiance":5.25}},{"type":"Feature","geometry":{"type":"Polygon","coordinates":[[[23.052083,61.772917],[23.05625,61.772917],[23.05625,61.777083],[23.052083,61.777083],[23.052083,61.772917]]]},"properties":{"radiance":8.46}},{"type":"Feature","geometry":{"type":"Polygon","coordinates":[[[23.05625,61.772917],[23.060417,61.772917],[23.060417,61.777083],[23.05625,61.777083],[23.05625,61.772917]]]},"properties":{"radiance":8.73}},{"type":"Feature","geometry":{"type":"Polygon","coordinates":[[[23.060417,61.772917],[23.064583,61.772917],[23.064583,61.777083],[23.060417,61.777083],[23.060417,61.772917]]]},"properties":{"radiance":7.96}},{"type":"Feature","geometry":{"type":"Polygon","coordinates":[[[23.064583,61.772917],[23.06875,61.772917],[23.06875,61.777083],[23.064583,61.777083],[23.064583,61.772917]]]},"properties":{"radiance":11.29}},{"type":"Feature","geometry":{"type":"Polygon","coordinates":[[[23.06875,61.772917],[23.072917,61.772917],[23.072917,61.777083],[23.06875,61.777083],[23.06875,61.772917]]]},"properties":{"radiance":46.16}},{"type":"Feature","geometry":{"type":"Polygon","coordinates":[[[23.072917,61.772917],[23.077083,61.772917],[23.077083,61.777083],[23.072917,61.777083],[23.072917,61.772917]]]},"properties":{"radiance":8.57}},{"type":"Feature","geometry":{"type":"Polygon","coordinates":[[[23.077083,61.772917],[23.08125,61.772917],[23.08125,61.777083],[23.077083,61.777083],[23.077083,61.772917]]]},"properties":{"radiance":7.23}},{"type":"Feature","geometry":{"type":"Polygon","coordinates":[[[23.08125,61.772917],[23.085417,61.772917],[23.085417,61.777083],[23.08125,61.777083],[23.08125,61.772917]]]},"properties":{"radiance":39.05}},{"type":"Feature","geometry":{"type":"Polygon","coordinates":[[[23.047917,61.76875],[23.052083,61.76875],[23.052083,61.772917],[23.047917,61.772917],[23.047917,61.76875]]]},"properties":{"radiance":8.59}},{"type":"Feature","geometry":{"type":"Polygon","coordinates":[[[23.052083,61.76875],[23.05625,61.76875],[23.05625,61.772917],[23.052083,61.772917],[23.052083,61.76875]]]},"properties":{"radiance":7.97}},{"type":"Feature","geometry":{"type":"Polygon","coordinates":[[[23.05625,61.76875],[23.060417,61.76875],[23.060417,61.772917],[23.05625,61.772917],[23.05625,61.76875]]]},"properties":{"radiance":11.18}},{"type":"Feature","geometry":{"type":"Polygon","coordinates":[[[23.060417,61.76875],[23.064583,61.76875],[23.064583,61.772917],[23.060417,61.772917],[23.060417,61.76875]]]},"properties":{"radiance":13.92}},{"type":"Feature","geometry":{"type":"Polygon","coordinates":[[[23.064583,61.76875],[23.06875,61.76875],[23.06875,61.772917],[23.064583,61.772917],[23.064583,61.76875]]]},"properties":{"radiance":15.28}},{"type":"Feature","geometry":{"type":"Polygon","coordinates":[[[23.06875,61.76875],[23.072917,61.76875],[23.072917,61.772917],[23.06875,61.772917],[23.06875,61.76875]]]},"properties":{"radiance":51.21}},{"type":"Feature","geometry":{"type":"Polygon","coordinates":[[[23.072917,61.76875],[23.077083,61.76875],[23.077083,61.772917],[23.072917,61.772917],[23.072917,61.76875]]]},"properties":{"radiance":48.04}},{"type":"Feature","geometry":{"type":"Polygon","coordinates":[[[23.077083,61.76875],[23.08125,61.76875],[23.08125,61.772917],[23.077083,61.772917],[23.077083,61.76875]]]},"properties":{"radiance":39.62}},{"type":"Feature","geometry":{"type":"Polygon","coordinates":[[[23.08125,61.76875],[23.085417,61.76875],[23.085417,61.772917],[23.08125,61.772917],[23.08125,61.76875]]]},"properties":{"radiance":7.83}},{"type":"Feature","geometry":{"type":"Polygon","coordinates":[[[23.014583,61.764583],[23.01875,61.764583],[23.01875,61.76875],[23.014583,61.76875],[23.014583,61.764583]]]},"properties":{"radiance":5.41}},{"type":"Feature","geometry":{"type":"Polygon","coordinates":[[[23.052083,61.764583],[23.05625,61.764583],[23.05625,61.76875],[23.052083,61.76875],[23.052083,61.764583]]]},"properties":{"radiance":6.17}},{"type":"Feature","geometry":{"type":"Polygon","coordinates":[[[23.05625,61.764583],[23.060417,61.764583],[23.060417,61.76875],[23.05625,61.76875],[23.05625,61.764583]]]},"properties":{"radiance":10.72}},{"type":"Feature","geometry":{"type":"Polygon","coordinates":[[[23.060417,61.764583],[23.064583,61.764583],[23.064583,61.76875],[23.060417,61.76875],[23.060417,61.764583]]]},"properties":{"radiance":11.94}},{"type":"Feature","geometry":{"type":"Polygon","coordinates":[[[23.064583,61.764583],[23.06875,61.764583],[23.06875,61.76875],[23.064583,61.76875],[23.064583,61.764583]]]},"properties":{"radiance":12.43}},{"type":"Feature","geometry":{"type":"Polygon","coordinates":[[[23.06875,61.764583],[23.072917,61.764583],[23.072917,61.76875],[23.06875,61.76875],[23.06875,61.764583]]]},"properties":{"radiance":14.7}},{"type":"Feature","geometry":{"type":"Polygon","coordinates":[[[23.072917,61.764583],[23.077083,61.764583],[23.077083,61.76875],[23.072917,61.76875],[23.072917,61.764583]]]},"properties":{"radiance":26.96}},{"type":"Feature","geometry":{"type":"Polygon","coordinates":[[[23.077083,61.764583],[23.08125,61.764583],[23.08125,61.76875],[23.077083,61.76875],[23.077083,61.764583]]]},"properties":{"radiance":9.58}},{"type":"Feature","geometry":{"type":"Polygon","coordinates":[[[23.08125,61.764583],[23.085417,61.764583],[23.085417,61.76875],[23.08125,61.76875],[23.08125,61.764583]]]},"properties":{"radiance":7.47}},{"type":"Feature","geometry":{"type":"Polygon","coordinates":[[[23.01875,61.760417],[23.022917,61.760417],[23.022917,61.764583],[23.01875,61.764583],[23.01875,61.760417]]]},"properties":{"radiance":5.11}},{"type":"Feature","geometry":{"type":"Polygon","coordinates":[[[23.022917,61.760417],[23.027083,61.760417],[23.027083,61.764583],[23.022917,61.764583],[23.022917,61.760417]]]},"properties":{"radiance":6.59}},{"type":"Feature","geometry":{"type":"Polygon","coordinates":[[[23.027083,61.760417],[23.03125,61.760417],[23.03125,61.764583],[23.027083,61.764583],[23.027083,61.760417]]]},"properties":{"radiance":7.47}},{"type":"Feature","geometry":{"type":"Polygon","coordinates":[[[23.039583,61.760417],[23.04375,61.760417],[23.04375,61.764583],[23.039583,61.764583],[23.039583,61.760417]]]},"properties":{"radiance":5.95}},{"type":"Feature","geometry":{"type":"Polygon","coordinates":[[[23.047917,61.760417],[23.052083,61.760417],[23.052083,61.764583],[23.047917,61.764583],[23.047917,61.760417]]]},"properties":{"radiance":7.03}},{"type":"Feature","geometry":{"type":"Polygon","coordinates":[[[23.052083,61.760417],[23.05625,61.760417],[23.05625,61.764583],[23.052083,61.764583],[23.052083,61.760417]]]},"properties":{"radiance":7.35}},{"type":"Feature","geometry":{"type":"Polygon","coordinates":[[[23.05625,61.760417],[23.060417,61.760417],[23.060417,61.764583],[23.05625,61.764583],[23.05625,61.760417]]]},"properties":{"radiance":10.47}},{"type":"Feature","geometry":{"type":"Polygon","coordinates":[[[23.060417,61.760417],[23.064583,61.760417],[23.064583,61.764583],[23.060417,61.764583],[23.060417,61.760417]]]},"properties":{"radiance":40.15}},{"type":"Feature","geometry":{"type":"Polygon","coordinates":[[[23.064583,61.760417],[23.06875,61.760417],[23.06875,61.764583],[23.064583,61.764583],[23.064583,61.760417]]]},"properties":{"radiance":35.6}},{"type":"Feature","geometry":{"type":"Polygon","coordinates":[[[23.06875,61.760417],[23.072917,61.760417],[23.072917,61.764583],[23.06875,61.764583],[23.06875,61.760417]]]},"properties":{"radiance":30.46}},{"type":"Feature","geometry":{"type":"Polygon","coordinates":[[[23.072917,61.760417],[23.077083,61.760417],[23.077083,61.764583],[23.072917,61.764583],[23.072917,61.760417]]]},"properties":{"radiance":24.52}},{"type":"Feature","geometry":{"type":"Polygon","coordinates":[[[23.077083,61.760417],[23.08125,61.760417],[23.08125,61.764583],[23.077083,61.764583],[23.077083,61.760417]]]},"properties":{"radiance":13.9}},{"type":"Feature","geometry":{"type":"Polygon","coordinates":[[[23.08125,61.760417],[23.085417,61.760417],[23.085417,61.764583],[23.08125,61.764583],[23.08125,61.760417]]]},"properties":{"radiance":10.66}},{"type":"Feature","geometry":{"type":"Polygon","coordinates":[[[23.085417,61.760417],[23.089583,61.760417],[23.089583,61.764583],[23.085417,61.764583],[23.085417,61.760417]]]},"properties":{"radiance":5.97}},{"type":"Feature","geometry":{"type":"Polygon","coordinates":[[[23.089583,61.760417],[23.09375,61.760417],[23.09375,61.764583],[23.089583,61.764583],[23.089583,61.760417]]]},"properties":{"radiance":6.63}},{"type":"Feature","geometry":{"type":"Polygon","coordinates":[[[23.09375,61.760417],[23.097917,61.760417],[23.097917,61.764583],[23.09375,61.764583],[23.09375,61.760417]]]},"properties":{"radiance":5.16}},{"type":"Feature","geometry":{"type":"Polygon","coordinates":[[[23.022917,61.75625],[23.027083,61.75625],[23.027083,61.760417],[23.022917,61.760417],[23.022917,61.75625]]]},"properties":{"radiance":7.79}},{"type":"Feature","geometry":{"type":"Polygon","coordinates":[[[23.027083,61.75625],[23.03125,61.75625],[23.03125,61.760417],[23.027083,61.760417],[23.027083,61.75625]]]},"properties":{"radiance":8.98}},{"type":"Feature","geometry":{"type":"Polygon","coordinates":[[[23.03125,61.75625],[23.035417,61.75625],[23.035417,61.760417],[23.03125,61.760417],[23.03125,61.75625]]]},"properties":{"radiance":6.67}},{"type":"Feature","geometry":{"type":"Polygon","coordinates":[[[23.035417,61.75625],[23.039583,61.75625],[23.039583,61.760417],[23.035417,61.760417],[23.035417,61.75625]]]},"properties":{"radiance":6.74}},{"type":"Feature","geometry":{"type":"Polygon","coordinates":[[[23.039583,61.75625],[23.04375,61.75625],[23.04375,61.760417],[23.039583,61.760417],[23.039583,61.75625]]]},"properties":{"radiance":7.08}},{"type":"Feature","geometry":{"type":"Polygon","coordinates":[[[23.04375,61.75625],[23.047917,61.75625],[23.047917,61.760417],[23.04375,61.760417],[23.04375,61.75625]]]},"properties":{"radiance":8.71}},{"type":"Feature","geometry":{"type":"Polygon","coordinates":[[[23.047917,61.75625],[23.052083,61.75625],[23.052083,61.760417],[23.047917,61.760417],[23.047917,61.75625]]]},"properties":{"radiance":12.37}},{"type":"Feature","geometry":{"type":"Polygon","coordinates":[[[23.052083,61.75625],[23.05625,61.75625],[23.05625,61.760417],[23.052083,61.760417],[23.052083,61.75625]]]},"properties":{"radiance":26.75}},{"type":"Feature","geometry":{"type":"Polygon","coordinates":[[[23.05625,61.75625],[23.060417,61.75625],[23.060417,61.760417],[23.05625,61.760417],[23.05625,61.75625]]]},"properties":{"radiance":314.55}},{"type":"Feature","geometry":{"type":"Polygon","coordinates":[[[23.060417,61.75625],[23.064583,61.75625],[23.064583,61.760417],[23.060417,61.760417],[23.060417,61.75625]]]},"properties":{"radiance":52.1}},{"type":"Feature","geometry":{"type":"Polygon","coordinates":[[[23.064583,61.75625],[23.06875,61.75625],[23.06875,61.760417],[23.064583,61.760417],[23.064583,61.75625]]]},"properties":{"radiance":137.95}},{"type":"Feature","geometry":{"type":"Polygon","coordinates":[[[23.06875,61.75625],[23.072917,61.75625],[23.072917,61.760417],[23.06875,61.760417],[23.06875,61.75625]]]},"properties":{"radiance":172.95}},{"type":"Feature","geometry":{"type":"Polygon","coordinates":[[[23.072917,61.75625],[23.077083,61.75625],[23.077083,61.760417],[23.072917,61.760417],[23.072917,61.75625]]]},"properties":{"radiance":62.47}},{"type":"Feature","geometry":{"type":"Polygon","coordinates":[[[23.077083,61.75625],[23.08125,61.75625],[23.08125,61.760417],[23.077083,61.760417],[23.077083,61.75625]]]},"properties":{"radiance":55.33}},{"type":"Feature","geometry":{"type":"Polygon","coordinates":[[[23.08125,61.75625],[23.085417,61.75625],[23.085417,61.760417],[23.08125,61.760417],[23.08125,61.75625]]]},"properties":{"radiance":12.53}},{"type":"Feature","geometry":{"type":"Polygon","coordinates":[[[23.085417,61.75625],[23.089583,61.75625],[23.089583,61.760417],[23.085417,61.760417],[23.085417,61.75625]]]},"properties":{"radiance":11.03}},{"type":"Feature","geometry":{"type":"Polygon","coordinates":[[[23.089583,61.75625],[23.09375,61.75625],[23.09375,61.760417],[23.089583,61.760417],[23.089583,61.75625]]]},"properties":{"radiance":8.91}},{"type":"Feature","geometry":{"type":"Polygon","coordinates":[[[23.09375,61.75625],[23.097917,61.75625],[23.097917,61.760417],[23.09375,61.760417],[23.09375,61.75625]]]},"properties":{"radiance":5.15}},{"type":"Feature","geometry":{"type":"Polygon","coordinates":[[[23.039583,61.752083],[23.04375,61.752083],[23.04375,61.75625],[23.039583,61.75625],[23.039583,61.752083]]]},"properties":{"radiance":8.83}},{"type":"Feature","geometry":{"type":"Polygon","coordinates":[[[23.04375,61.752083],[23.047917,61.752083],[23.047917,61.75625],[23.04375,61.75625],[23.04375,61.752083]]]},"properties":{"radiance":7.08}},{"type":"Feature","geometry":{"type":"Polygon","coordinates":[[[23.047917,61.752083],[23.052083,61.752083],[23.052083,61.75625],[23.047917,61.75625],[23.047917,61.752083]]]},"properties":{"radiance":10.45}},{"type":"Feature","geometry":{"type":"Polygon","coordinates":[[[23.052083,61.752083],[23.05625,61.752083],[23.05625,61.75625],[23.052083,61.75625],[23.052083,61.752083]]]},"properties":{"radiance":40.78}},{"type":"Feature","geometry":{"type":"Polygon","coordinates":[[[23.05625,61.752083],[23.060417,61.752083],[23.060417,61.75625],[23.05625,61.75625],[23.05625,61.752083]]]},"properties":{"radiance":419.57}},{"type":"Feature","geometry":{"type":"Polygon","coordinates":[[[23.060417,61.752083],[23.064583,61.752083],[23.064583,61.75625],[23.060417,61.75625],[23.060417,61.752083]]]},"properties":{"radiance":1279.01}},{"type":"Feature","geometry":{"type":"Polygon","coordinates":[[[23.064583,61.752083],[23.06875,61.752083],[23.06875,61.75625],[23.064583,61.75625],[23.064583,61.752083]]]},"properties":{"radiance":1191.53}},{"type":"Feature","geometry":{"type":"Polygon","coordinates":[[[23.06875,61.752083],[23.072917,61.752083],[23.072917,61.75625],[23.06875,61.75625],[23.06875,61.752083]]]},"properties":{"radiance":1215.41}},{"type":"Feature","geometry":{"type":"Polygon","coordinates":[[[23.072917,61.752083],[23.077083,61.752083],[23.077083,61.75625],[23.072917,61.75625],[23.072917,61.752083]]]},"properties":{"radiance":788.6}},{"type":"Feature","geometry":{"type":"Polygon","coordinates":[[[23.077083,61.752083],[23.08125,61.752083],[23.08125,61.75625],[23.077083,61.75625],[23.077083,61.752083]]]},"properties":{"radiance":293.59}},{"type":"Feature","geometry":{"type":"Polygon","coordinates":[[[23.08125,61.752083],[23.085417,61.752083],[23.085417,61.75625],[23.08125,61.75625],[23.08125,61.752083]]]},"properties":{"radiance":14.95}},{"type":"Feature","geometry":{"type":"Polygon","coordinates":[[[23.085417,61.752083],[23.089583,61.752083],[23.089583,61.75625],[23.085417,61.75625],[23.085417,61.752083]]]},"properties":{"radiance":13.25}},{"type":"Feature","geometry":{"type":"Polygon","coordinates":[[[23.089583,61.752083],[23.09375,61.752083],[23.09375,61.75625],[23.089583,61.75625],[23.089583,61.752083]]]},"properties":{"radiance":7.05}},{"type":"Feature","geometry":{"type":"Polygon","coordinates":[[[23.09375,61.752083],[23.097917,61.752083],[23.097917,61.75625],[23.09375,61.75625],[23.09375,61.752083]]]},"properties":{"radiance":7.57}},{"type":"Feature","geometry":{"type":"Polygon","coordinates":[[[23.097917,61.752083],[23.102083,61.752083],[23.102083,61.75625],[23.097917,61.75625],[23.097917,61.752083]]]},"properties":{"radiance":5.61}},{"type":"Feature","geometry":{"type":"Polygon","coordinates":[[[23.102083,61.752083],[23.10625,61.752083],[23.10625,61.75625],[23.102083,61.75625],[23.102083,61.752083]]]},"properties":{"radiance":6.43}},{"type":"Feature","geometry":{"type":"Polygon","coordinates":[[[23.10625,61.752083],[23.110417,61.752083],[23.110417,61.75625],[23.10625,61.75625],[23.10625,61.752083]]]},"properties":{"radiance":5.04}},{"type":"Feature","geometry":{"type":"Polygon","coordinates":[[[23.04375,61.747917],[23.047917,61.747917],[23.047917,61.752083],[23.04375,61.752083],[23.04375,61.747917]]]},"properties":{"radiance":5.11}},{"type":"Feature","geometry":{"type":"Polygon","coordinates":[[[23.047917,61.747917],[23.052083,61.747917],[23.052083,61.752083],[23.047917,61.752083],[23.047917,61.747917]]]},"properties":{"radiance":17.18}},{"type":"Feature","geometry":{"type":"Polygon","coordinates":[[[23.052083,61.747917],[23.05625,61.747917],[23.05625,61.752083],[23.052083,61.752083],[23.052083,61.747917]]]},"properties":{"radiance":45.43}},{"type":"Feature","geometry":{"type":"Polygon","coordinates":[[[23.05625,61.747917],[23.060417,61.747917],[23.060417,61.752083],[23.05625,61.752083],[23.05625,61.747917]]]},"properties":{"radiance":772.63}},{"type":"Feature","geometry":{"type":"Polygon","coordinates":[[[23.060417,61.747917],[23.064583,61.747917],[23.064583,61.752083],[23.060417,61.752083],[23.060417,61.747917]]]},"properties":{"radiance":785.84}},{"type":"Feature","geometry":{"type":"Polygon","coordinates":[[[23.064583,61.747917],[23.06875,61.747917],[23.06875,61.752083],[23.064583,61.752083],[23.064583,61.747917]]]},"properties":{"radiance":903.86}},{"type":"Feature","geometry":{"type":"Polygon","coordinates":[[[23.06875,61.747917],[23.072917,61.747917],[23.072917,61.752083],[23.06875,61.752083],[23.06875,61.747917]]]},"properties":{"radiance":1103.31}},{"type":"Feature","geometry":{"type":"Polygon","coordinates":[[[23.072917,61.747917],[23.077083,61.747917],[23.077083,61.752083],[23.072917,61.752083],[23.072917,61.747917]]]},"properties":{"radiance":587.53}},{"type":"Feature","geometry":{"type":"Polygon","coordinates":[[[23.077083,61.747917],[23.08125,61.747917],[23.08125,61.752083],[23.077083,61.752083],[23.077083,61.747917]]]},"properties":{"radiance":701.6}},{"type":"Feature","geometry":{"type":"Polygon","coordinates":[[[23.08125,61.747917],[23.085417,61.747917],[23.085417,61.752083],[23.08125,61.752083],[23.08125,61.747917]]]},"properties":{"radiance":12.47}},{"type":"Feature","geometry":{"type":"Polygon","coordinates":[[[23.085417,61.747917],[23.089583,61.747917],[23.089583,61.752083],[23.085417,61.752083],[23.085417,61.747917]]]},"properties":{"radiance":13.16}},{"type":"Feature","geometry":{"type":"Polygon","coordinates":[[[23.089583,61.747917],[23.09375,61.747917],[23.09375,61.752083],[23.089583,61.752083],[23.089583,61.747917]]]},"properties":{"radiance":9.11}},{"type":"Feature","geometry":{"type":"Polygon","coordinates":[[[23.09375,61.747917],[23.097917,61.747917],[23.097917,61.752083],[23.09375,61.752083],[23.09375,61.747917]]]},"properties":{"radiance":7.79}},{"type":"Feature","geometry":{"type":"Polygon","coordinates":[[[23.097917,61.747917],[23.102083,61.747917],[23.102083,61.752083],[23.097917,61.752083],[23.097917,61.747917]]]},"properties":{"radiance":6.64}},{"type":"Feature","geometry":{"type":"Polygon","coordinates":[[[23.102083,61.747917],[23.10625,61.747917],[23.10625,61.752083],[23.102083,61.752083],[23.102083,61.747917]]]},"properties":{"radiance":5.5}},{"type":"Feature","geometry":{"type":"Polygon","coordinates":[[[23.10625,61.747917],[23.110417,61.747917],[23.110417,61.752083],[23.10625,61.752083],[23.10625,61.747917]]]},"properties":{"radiance":7.31}},{"type":"Feature","geometry":{"type":"Polygon","coordinates":[[[23.110417,61.747917],[23.114583,61.747917],[23.114583,61.752083],[23.110417,61.752083],[23.110417,61.747917]]]},"properties":{"radiance":7.04}},{"type":"Feature","geometry":{"type":"Polygon","coordinates":[[[23.052083,61.74375],[23.05625,61.74375],[23.05625,61.747917],[23.052083,61.747917],[23.052083,61.74375]]]},"properties":{"radiance":12.74}},{"type":"Feature","geometry":{"type":"Polygon","coordinates":[[[23.05625,61.74375],[23.060417,61.74375],[23.060417,61.747917],[23.05625,61.747917],[23.05625,61.74375]]]},"properties":{"radiance":20.97}},{"type":"Feature","geometry":{"type":"Polygon","coordinates":[[[23.060417,61.74375],[23.064583,61.74375],[23.064583,61.747917],[23.060417,61.747917],[23.060417,61.74375]]]},"properties":{"radiance":18.3}},{"type":"Feature","geometry":{"type":"Polygon","coordinates":[[[23.064583,61.74375],[23.06875,61.74375],[23.06875,61.747917],[23.064583,61.747917],[23.064583,61.74375]]]},"properties":{"radiance":23.64}},{"type":"Feature","geometry":{"type":"Polygon","coordinates":[[[23.06875,61.74375],[23.072917,61.74375],[23.072917,61.747917],[23.06875,61.747917],[23.06875,61.74375]]]},"properties":{"radiance":54.01}},{"type":"Feature","geometry":{"type":"Polygon","coordinates":[[[23.072917,61.74375],[23.077083,61.74375],[23.077083,61.747917],[23.072917,61.747917],[23.072917,61.74375]]]},"properties":{"radiance":366.97}},{"type":"Feature","geometry":{"type":"Polygon","coordinates":[[[23.077083,61.74375],[23.08125,61.74375],[23.08125,61.747917],[23.077083,61.747917],[23.077083,61.74375]]]},"properties":{"radiance":50.57}},{"type":"Feature","geometry":{"type":"Polygon","coordinates":[[[23.08125,61.74375],[23.085417,61.74375],[23.085417,61.747917],[23.08125,61.747917],[23.08125,61.74375]]]},"properties":{"radiance":6.35}},{"type":"Feature","geometry":{"type":"Polygon","coordinates":[[[23.085417,61.74375],[23.089583,61.74375],[23.089583,61.747917],[23.085417,61.747917],[23.085417,61.74375]]]},"properties":{"radiance":6.26}},{"type":"Feature","geometry":{"type":"Polygon","coordinates":[[[23.089583,61.74375],[23.09375,61.74375],[23.09375,61.747917],[23.089583,61.747917],[23.089583,61.74375]]]},"properties":{"radiance":6.45}},{"type":"Feature","geometry":{"type":"Polygon","coordinates":[[[23.09375,61.74375],[23.097917,61.74375],[23.097917,61.747917],[23.09375,61.747917],[23.09375,61.74375]]]},"properties":{"radiance":6.47}},{"type":"Feature","geometry":{"type":"Polygon","coordinates":[[[23.097917,61.74375],[23.102083,61.74375],[23.102083,61.747917],[23.097917,61.747917],[23.097917,61.74375]]]},"properties":{"radiance":5.85}},{"type":"Feature","geometry":{"type":"Polygon","coordinates":[[[23.102083,61.74375],[23.10625,61.74375],[23.10625,61.747917],[23.102083,61.747917],[23.102083,61.74375]]]},"properties":{"radiance":8.63}},{"type":"Feature","geometry":{"type":"Polygon","coordinates":[[[23.10625,61.74375],[23.110417,61.74375],[23.110417,61.747917],[23.10625,61.747917],[23.10625,61.74375]]]},"properties":{"radiance":6.39}},{"type":"Feature","geometry":{"type":"Polygon","coordinates":[[[23.110417,61.74375],[23.114583,61.74375],[23.114583,61.747917],[23.110417,61.747917],[23.110417,61.74375]]]},"properties":{"radiance":6.1}},{"type":"Feature","geometry":{"type":"Polygon","coordinates":[[[23.535417,61.677083],[23.539583,61.677083],[23.539583,61.68125],[23.535417,61.68125],[23.535417,61.677083]]]},"properties":{"radiance":5.44}}]}