{"type":"FeatureCollection","features":[{"type":"Feature","geometry":{"type":"Polygon","coordinates":[[[28.827083,61.88125],[28.83125,61.88125],[28.83125,61.885417],[28.827083,61.885417],[28.827083,61.88125]]]},"properties":{"radiance":5.78}},{"type":"Feature","geometry":{"type":"Polygon","coordinates":[[[28.83125,61.88125],[28.835417,61.88125],[28.835417,61.885417],[28.83125,61.885417],[28.83125,61.88125]]]},"properties":{"radiance":7.45}},{"type":"Feature","geometry":{"type":"Polygon","coordinates":[[[28.835417,61.88125],[28.839583,61.88125],[28.839583,61.885417],[28.835417,61.885417],[28.835417,61.88125]]]},"properties":{"radiance":8.72}},{"type":"Feature","geometry":{"type":"Polygon","coordinates":[[[28.839583,61.88125],[28.84375,61.88125],[28.84375,61.885417],[28.839583,61.885417],[28.839583,61.88125]]]},"properties":{"radiance":9.65}},{"type":"Feature","geometry":{"type":"Polygon","coordinates":[[[28.847917,61.88125],[28.852083,61.88125],[28.852083,61.885417],[28.847917,61.885417],[28.847917,61.88125]]]},"properties":{"radiance":5.55}},{"type":"Feature","geometry":{"type":"Polygon","coordinates":[[[28.852083,61.88125],[28.85625,61.88125],[28.85625,61.885417],[28.852083,61.885417],[28.852083,61.88125]]]},"properties":{"radiance":6.61}},{"type":"Feature","geometry":{"type":"Polygon","coordinates":[[[28.864583,61.88125],[28.86875,61.88125],[28.86875,61.885417],[28.864583,61.885417],[28.864583,61.88125]]]},"properties":{"radiance":6.21}},{"type":"Feature","geometry":{"type":"Polygon","coordinates":[[[28.86875,61.88125],[28.872917,61.88125],[28.872917,61.885417],[28.86875,61.885417],[28.86875,61.88125]]]},"properties":{"radiance":6.1}},{"type":"Feature","geometry":{"type":"Polygon","coordinates":[[[28.872917,61.88125],[28.877083,61.88125],[28.877083,61.885417],[28.872917,61.885417],[28.872917,61.88125]]]},"properties":{"radiance":6.87}},{"type":"Feature","geometry":{"type":"Polygon","coordinates":[[[28.935417,61.88125],[28.939583,61.88125],[28.939583,61.885417],[28.935417,61.885417],[28.935417,61.88125]]]},"properties":{"radiance":6.04}},{"type":"Feature","geometry":{"type":"Polygon","coordinates":[[[28.939583,61.88125],[28.94375,61.88125],[28.94375,61.885417],[28.939583,61.885417],[28.939583,61.88125]]]},"properties":{"radiance":5.94}},{"type":"Feature","geometry":{"type":"Polygon","coordinates":[[[28.94375,61.88125],[28.947917,61.88125],[28.947917,61.885417],[28.94375,61.885417],[28.94375,61.88125]]]},"properties":{"radiance":5.75}},{"type":"Feature","geometry":{"type":"Polygon","coordinates":[[[28.972917,61.88125],[28.977083,61.88125],[28.977083,61.885417],[28.972917,61.885417],[28.972917,61.88125]]]},"properties":{"radiance":5.82}},{"type":"Feature","geometry":{"type":"Polygon","coordinates":[[[28.814583,61.877083],[28.81875,61.877083],[28.81875,61.88125],[28.814583,61.88125],[28.814583,61.877083]]]},"properties":{"radiance":5.01}},{"type":"Feature","geometry":{"type":"Polygon","coordinates":[[[28.822917,61.877083],[28.827083,61.877083],[28.827083,61.88125],[28.822917,61.88125],[28.822917,61.877083]]]},"properties":{"radiance":5.66}},{"type":"Feature","geometry":{"type":"Polygon","coordinates":[[[28.827083,61.877083],[28.83125,61.877083],[28.83125,61.88125],[28.827083,61.88125],[28.827083,61.877083]]]},"properties":{"radiance":6.73}},{"type":"Feature","geometry":{"type":"Polygon","coordinates":[[[28.83125,61.877083],[28.835417,61.877083],[28.835417,61.88125],[28.83125,61.88125],[28.83125,61.877083]]]},"properties":{"radiance":11.2}},{"type":"Feature","geometry":{"type":"Polygon","coordinates":[[[28.835417,61.877083],[28.839583,61.877083],[28.839583,61.88125],[28.835417,61.88125],[28.835417,61.877083]]]},"properties":{"radiance":11.98}},{"type":"Feature","geometry":{"type":"Polygon","coordinates":[[[28.839583,61.877083],[28.84375,61.877083],[28.84375,61.88125],[28.839583,61.88125],[28.839583,61.877083]]]},"properties":{"radiance":45.85}},{"type":"Feature","geometry":{"type":"Polygon","coordinates":[[[28.84375,61.877083],[28.847917,61.877083],[28.847917,61.88125],[28.84375,61.88125],[28.84375,61.877083]]]},"properties":{"radiance":48.76}},{"type":"Feature","geometry":{"type":"Polygon","coordinates":[[[28.847917,61.877083],[28.852083,61.877083],[28.852083,61.88125],[28.847917,61.88125],[28.847917,61.877083]]]},"properties":{"radiance":16.07}},{"type":"Feature","geometry":{"type":"Polygon","coordinates":[[[28.852083,61.877083],[28.85625,61.877083],[28.85625,61.88125],[28.852083,61.88125],[28.852083,61.877083]]]},"properties":{"radiance":44.66}},{"type":"Feature","geometry":{"type":"Polygon","coordinates":[[[28.85625,61.877083],[28.860417,61.877083],[28.860417,61.88125],[28.85625,61.88125],[28.85625,61.877083]]]},"properties":{"radiance":14.1}},{"type":"Feature","geometry":{"type":"Polygon","coordinates":[[[28.860417,61.877083],[28.864583,61.877083],[28.864583,61.88125],[28.860417,61.88125],[28.860417,61.877083]]]},"properties":{"radiance":13.57}},{"type":"Feature","geometry":{"type":"Polygon","coordinates":[[[28.864583,61.877083],[28.86875,61.877083],[28.86875,61.88125],[28.864583,61.88125],[28.864583,61.877083]]]},"properties":{"radiance":14.51}},{"type":"Feature","geometry":{"type":"Polygon","coordinates":[[[28.86875,61.877083],[28.872917,61.877083],[28.872917,61.88125],[28.86875,61.88125],[28.86875,61.877083]]]},"properties":{"radiance":12.4}},{"type":"Feature","geometry":{"type":"Polygon","coordinates":[[[28.872917,61.877083],[28.877083,61.877083],[28.877083,61.88125],[28.872917,61.88125],[28.872917,61.877083]]]},"properties":{"radiance":10.91}},{"type":"Feature","geometry":{"type":"Polygon","coordinates":[[[28.877083,61.877083],[28.88125,61.877083],[28.88125,61.88125],[28.877083,61.88125],[28.877083,61.877083]]]},"properties":{"radiance":5.92}},{"type":"Feature","geometry":{"type":"Polygon","coordinates":[[[28.88125,61.877083],[28.885417,61.877083],[28.885417,61.88125],[28.88125,61.88125],[28.88125,61.877083]]]},"properties":{"radiance":5.11}},{"type":"Feature","geometry":{"type":"Polygon","coordinates":[[[28.935417,61.877083],[28.939583,61.877083],[28.939583,61.88125],[28.935417,61.88125],[28.935417,61.877083]]]},"properties":{"radiance":6.57}},{"type":"Feature","geometry":{"type":"Polygon","coordinates":[[[28.939583,61.877083],[28.94375,61.877083],[28.94375,61.88125],[28.939583,61.88125],[28.939583,61.877083]]]},"properties":{"radiance":8.5}},{"type":"Feature","geometry":{"type":"Polygon","coordinates":[[[28.94375,61.877083],[28.947917,61.877083],[28.947917,61.88125],[28.94375,61.88125],[28.94375,61.877083]]]},"properties":{"radiance":10.68}},{"type":"Feature","geometry":{"type":"Polygon","coordinates":[[[28.947917,61.877083],[28.952083,61.877083],[28.952083,61.88125],[28.947917,61.88125],[28.947917,61.877083]]]},"properties":{"radiance":11.17}},{"type":"Feature","geometry":{"type":"Polygon","coordinates":[[[28.952083,61.877083],[28.95625,61.877083],[28.95625,61.88125],[28.952083,61.88125],[28.952083,61.877083]]]},"properties":{"radiance":9.31}},{"type":"Feature","geometry":{"type":"Polygon","coordinates":[[[28.95625,61.877083],[28.960417,61.877083],[28.960417,61.88125],[28.95625,61.88125],[28.95625,61.877083]]]},"properties":{"radiance":9.78}},{"type":"Feature","geometry":{"type":"Polygon","coordinates":[[[28.960417,61.877083],[28.964583,61.877083],[28.964583,61.88125],[28.960417,61.88125],[28.960417,61.877083]]]},"properties":{"radiance":9.61}},{"type":"Feature","geometry":{"type":"Polygon","coordinates":[[[28.964583,61.877083],[28.96875,61.877083],[28.96875,61.88125],[28.964583,61.88125],[28.964583,61.877083]]]},"properties":{"radiance":9.26}},{"type":"Feature","geometry":{"type":"Polygon","coordinates":[[[28.96875,61.877083],[28.972917,61.877083],[28.972917,61.88125],[28.96875,61.88125],[28.96875,61.877083]]]},"properties":{"radiance":28.97}},{"type":"Feature","geometry":{"type":"Polygon","coordinates":[[[28.972917,61.877083],[28.977083,61.877083],[28.977083,61.88125],[28.972917,61.88125],[28.972917,61.877083]]]},"properties":{"radiance":30.46}},{"type":"Feature","geometry":{"type":"Polygon","coordinates":[[[28.977083,61.877083],[28.98125,61.877083],[28.98125,61.88125],[28.977083,61.88125],[28.977083,61.877083]]]},"properties":{"radiance":36.67}},{"type":"Feature","geometry":{"type":"Polygon","coordinates":[[[28.98125,61.877083],[28.985417,61.877083],[28.985417,61.88125],[28.98125,61.88125],[28.98125,61.877083]]]},"properties":{"radiance":5.99}},{"type":"Feature","geometry":{"type":"Polygon","coordinates":[[[28.839583,61.872917],[28.84375,61.872917],[28.84375,61.877083],[28.839583,61.877083],[28.839583,61.872917]]]},"properties":{"radiance":6.51}},{"type":"Feature","geometry":{"type":"Polygon","coordinates":[[[28.84375,61.872917],[28.847917,61.872917],[28.847917,61.877083],[28.84375,61.877083],[28.84375,61.872917]]]},"properties":{"radiance":12.79}},{"type":"Feature","geometry":{"type":"Polygon","coordinates":[[[28.847917,61.872917],[28.852083,61.872917],[28.852083,61.877083],[28.847917,61.877083],[28.847917,61.872917]]]},"properties":{"radiance":59.15}},{"type":"Feature","geometry":{"type":"Polygon","coordinates":[[[28.852083,61.872917],[28.85625,61.872917],[28.85625,61.877083],[28.852083,61.877083],[28.852083,61.872917]]]},"properties":{"radiance":39.46}},{"type":"Feature","geometry":{"type":"Polygon","coordinates":[[[28.85625,61.872917],[28.860417,61.872917],[28.860417,61.877083],[28.85625,61.877083],[28.85625,61.872917]]]},"properties":{"radiance":55.95}},{"type":"Feature","geometry":{"type":"Polygon","coordinates":[[[28.860417,61.872917],[28.864583,61.872917],[28.864583,61.877083],[28.860417,61.877083],[28.860417,61.872917]]]},"properties":{"radiance":83.36}},{"type":"Feature","geometry":{"type":"Polygon","coordinates":[[[28.864583,61.872917],[28.86875,61.872917],[28.86875,61.877083],[28.864583,61.877083],[28.864583,61.872917]]]},"properties":{"radiance":106.29}},{"type":"Feature","geometry":{"type":"Polygon","coordinates":[[[28.86875,61.872917],[28.872917,61.872917],[28.872917,61.877083],[28.86875,61.877083],[28.86875,61.872917]]]},"properties":{"radiance":93.98}},{"type":"Feature","geometry":{"type":"Polygon","coordinates":[[[28.872917,61.872917],[28.877083,61.872917],[28.877083,61.877083],[28.872917,61.877083],[28.872917,61.872917]]]},"properties":{"radiance":86.44}},{"type":"Feature","geometry":{"type":"Polygon","coordinates":[[[28.877083,61.872917],[28.88125,61.872917],[28.88125,61.877083],[28.877083,61.877083],[28.877083,61.872917]]]},"properties":{"radiance":86.98}},{"type":"Feature","geometry":{"type":"Polygon","coordinates":[[[28.88125,61.872917],[28.885417,61.872917],[28.885417,61.877083],[28.88125,61.877083],[28.88125,61.872917]]]},"properties":{"radiance":66.33}},{"type":"Feature","geometry":{"type":"Polygon","coordinates":[[[28.885417,61.872917],[28.889583,61.872917],[28.889583,61.877083],[28.885417,61.877083],[28.885417,61.872917]]]},"properties":{"radiance":25.13}},{"type":"Feature","geometry":{"type":"Polygon","coordinates":[[[28.889583,61.872917],[28.89375,61.872917],[28.89375,61.877083],[28.889583,61.877083],[28.889583,61.872917]]]},"properties":{"radiance":8}},{"type":"Feature","geometry":{"type":"Polygon","coordinates":[[[28.89375,61.872917],[28.897917,61.872917],[28.897917,61.877083],[28.89375,61.877083],[28.89375,61.872917]]]},"properties":{"radiance":9.27}},{"type":"Feature","geometry":{"type":"Polygon","coordinates":[[[28.897917,61.872917],[28.902083,61.872917],[28.902083,61.877083],[28.897917,61.877083],[28.897917,61.872917]]]},"properties":{"radiance":8.92}},{"type":"Feature","geometry":{"type":"Polygon","coordinates":[[[28.902083,61.872917],[28.90625,61.872917],[28.90625,61.877083],[28.902083,61.877083],[28.902083,61.872917]]]},"properties":{"radiance":13.69}},{"type":"Feature","geometry":{"type":"Polygon","coordinates":[[[28.90625,61.872917],[28.910417,61.872917],[28.910417,61.877083],[28.90625,61.877083],[28.90625,61.872917]]]},"properties":{"radiance":17.24}},{"type":"Feature","geometry":{"type":"Polygon","coordinates":[[[28.910417,61.872917],[28.914583,61.872917],[28.914583,61.877083],[28.910417,61.877083],[28.910417,61.872917]]]},"properties":{"radiance":48.18}},{"type":"Feature","geometry":{"type":"Polygon","coordinates":[[[28.914583,61.872917],[28.91875,61.872917],[28.91875,61.877083],[28.914583,61.877083],[28.914583,61.872917]]]},"properties":{"radiance":68.72}},{"type":"Feature","geometry":{"type":"Polygon","coordinates":[[[28.91875,61.872917],[28.922917,61.872917],[28.922917,61.877083],[28.91875,61.877083],[28.91875,61.872917]]]},"properties":{"radiance":31.99}},{"type":"Feature","geometry":{"type":"Polygon","coordinates":[[[28.922917,61.872917],[28.927083,61.872917],[28.927083,61.877083],[28.922917,61.877083],[28.922917,61.872917]]]},"properties":{"radiance":6.16}},{"type":"Feature","geometry":{"type":"Polygon","coordinates":[[[28.927083,61.872917],[28.93125,61.872917],[28.93125,61.877083],[28.927083,61.877083],[28.927083,61.872917]]]},"properties":{"radiance":6.64}},{"type":"Feature","geometry":{"type":"Polygon","coordinates":[[[28.93125,61.872917],[28.935417,61.872917],[28.935417,61.877083],[28.93125,61.877083],[28.93125,61.872917]]]},"properties":{"radiance":5.78}},{"type":"Feature","geometry":{"type":"Polygon","coordinates":[[[28.935417,61.872917],[28.939583,61.872917],[28.939583,61.877083],[28.935417,61.877083],[28.935417,61.872917]]]},"properties":{"radiance":8.14}},{"type":"Feature","geometry":{"type":"Polygon","coordinates":[[[28.939583,61.872917],[28.94375,61.872917],[28.94375,61.877083],[28.939583,61.877083],[28.939583,61.872917]]]},"properties":{"radiance":11.87}},{"type":"Feature","geometry":{"type":"Polygon","coordinates":[[[28.94375,61.872917],[28.947917,61.872917],[28.947917,61.877083],[28.94375,61.877083],[28.94375,61.872917]]]},"properties":{"radiance":52.23}},{"type":"Feature","geometry":{"type":"Polygon","coordinates":[[[28.947917,61.872917],[28.952083,61.872917],[28.952083,61.877083],[28.947917,61.877083],[28.947917,61.872917]]]},"properties":{"radiance":18.8}},{"type":"Feature","geometry":{"type":"Polygon","coordinates":[[[28.952083,61.872917],[28.95625,61.872917],[28.95625,61.877083],[28.952083,61.877083],[28.952083,61.872917]]]},"properties":{"radiance":14.89}},{"type":"Feature","geometry":{"type":"Polygon","coordinates":[[[28.95625,61.872917],[28.960417,61.872917],[28.960417,61.877083],[28.95625,61.877083],[28.95625,61.872917]]]},"properties":{"radiance":10.55}},{"type":"Feature","geometry":{"type":"Polygon","coordinates":[[[28.960417,61.872917],[28.964583,61.872917],[28.964583,61.877083],[28.960417,61.877083],[28.960417,61.872917]]]},"properties":{"radiance":6.84}},{"type":"Feature","geometry":{"type":"Polygon","coordinates":[[[28.96875,61.872917],[28.972917,61.872917],[28.972917,61.877083],[28.96875,61.877083],[28.96875,61.872917]]]},"properties":{"radiance":5.13}},{"type":"Feature","geometry":{"type":"Polygon","coordinates":[[[28.972917,61.872917],[28.977083,61.872917],[28.977083,61.877083],[28.972917,61.877083],[28.972917,61.872917]]]},"properties":{"radiance":27.94}},{"type":"Feature","geometry":{"type":"Polygon","coordinates":[[[28.84375,61.86875],[28.847917,61.86875],[28.847917,61.872917],[28.84375,61.872917],[28.84375,61.86875]]]},"properties":{"radiance":21.39}},{"type":"Feature","geometry":{"type":"Polygon","coordinates":[[[28.847917,61.86875],[28.852083,61.86875],[28.852083,61.872917],[28.847917,61.872917],[28.847917,61.86875]]]},"properties":{"radiance":15.73}},{"type":"Feature","geometry":{"type":"Polygon","coordinates":[[[28.852083,61.86875],[28.85625,61.86875],[28.85625,61.872917],[28.852083,61.872917],[28.852083,61.86875]]]},"properties":{"radiance":43.79}},{"type":"Feature","geometry":{"type":"Polygon","coordinates":[[[28.85625,61.86875],[28.860417,61.86875],[28.860417,61.872917],[28.85625,61.872917],[28.85625,61.86875]]]},"properties":{"radiance":52.52}},{"type":"Feature","geometry":{"type":"Polygon","coordinates":[[[28.860417,61.86875],[28.864583,61.86875],[28.864583,61.872917],[28.860417,61.872917],[28.860417,61.86875]]]},"properties":{"radiance":47.01}},{"type":"Feature","geometry":{"type":"Polygon","coordinates":[[[28.864583,61.86875],[28.86875,61.86875],[28.86875,61.872917],[28.864583,61.872917],[28.864583,61.86875]]]},"properties":{"radiance":76.12}},{"type":"Feature","geometry":{"type":"Polygon","coordinates":[[[28.86875,61.86875],[28.872917,61.86875],[28.872917,61.872917],[28.86875,61.872917],[28.86875,61.86875]]]},"properties":{"radiance":84.88}},{"type":"Feature","geometry":{"type":"Polygon","coordinates":[[[28.872917,61.86875],[28.877083,61.86875],[28.877083,61.872917],[28.872917,61.872917],[28.872917,61.86875]]]},"properties":{"radiance":63.04}},{"type":"Feature","geometry":{"type":"Polygon","coordinates":[[[28.877083,61.86875],[28.88125,61.86875],[28.88125,61.872917],[28.877083,61.872917],[28.877083,61.86875]]]},"properties":{"radiance":89.48}},{"type":"Feature","geometry":{"type":"Polygon","coordinates":[[[28.88125,61.86875],[28.885417,61.86875],[28.885417,61.872917],[28.88125,61.872917],[28.88125,61.86875]]]},"properties":{"radiance":91.4}},{"type":"Feature","geometry":{"type":"Polygon","coordinates":[[[28.885417,61.86875],[28.889583,61.86875],[28.889583,61.872917],[28.885417,61.872917],[28.885417,61.86875]]]},"properties":{"radiance":92.26}},{"type":"Feature","geometry":{"type":"Polygon","coordinates":[[[28.889583,61.86875],[28.89375,61.86875],[28.89375,61.872917],[28.889583,61.872917],[28.889583,61.86875]]]},"properties":{"radiance":68.54}},{"type":"Feature","geometry":{"type":"Polygon","coordinates":[[[28.89375,61.86875],[28.897917,61.86875],[28.897917,61.872917],[28.89375,61.872917],[28.89375,61.86875]]]},"properties":{"radiance":56.14}},{"type":"Feature","geometry":{"type":"Polygon","coordinates":[[[28.897917,61.86875],[28.902083,61.86875],[28.902083,61.872917],[28.897917,61.872917],[28.897917,61.86875]]]},"properties":{"radiance":48.37}},{"type":"Feature","geometry":{"type":"Polygon","coordinates":[[[28.902083,61.86875],[28.90625,61.86875],[28.90625,61.872917],[28.902083,61.872917],[28.902083,61.86875]]]},"properties":{"radiance":55.38}},{"type":"Feature","geometry":{"type":"Polygon","coordinates":[[[28.90625,61.86875],[28.910417,61.86875],[28.910417,61.872917],[28.90625,61.872917],[28.90625,61.86875]]]},"properties":{"radiance":82.64}},{"type":"Feature","geometry":{"type":"Polygon","coordinates":[[[28.910417,61.86875],[28.914583,61.86875],[28.914583,61.872917],[28.910417,61.872917],[28.910417,61.86875]]]},"properties":{"radiance":85.96}},{"type":"Feature","geometry":{"type":"Polygon","coordinates":[[[28.914583,61.86875],[28.91875,61.86875],[28.91875,61.872917],[28.914583,61.872917],[28.914583,61.86875]]]},"properties":{"radiance":71.94}},{"type":"Feature","geometry":{"type":"Polygon","coordinates":[[[28.91875,61.86875],[28.922917,61.86875],[28.922917,61.872917],[28.91875,61.872917],[28.91875,61.86875]]]},"properties":{"radiance":43.05}},{"type":"Feature","geometry":{"type":"Polygon","coordinates":[[[28.922917,61.86875],[28.927083,61.86875],[28.927083,61.872917],[28.922917,61.872917],[28.922917,61.86875]]]},"properties":{"radiance":19.23}},{"type":"Feature","geometry":{"type":"Polygon","coordinates":[[[28.927083,61.86875],[28.93125,61.86875],[28.93125,61.872917],[28.927083,61.872917],[28.927083,61.86875]]]},"properties":{"radiance":15.92}},{"type":"Feature","geometry":{"type":"Polygon","coordinates":[[[28.93125,61.86875],[28.935417,61.86875],[28.935417,61.872917],[28.93125,61.872917],[28.93125,61.86875]]]},"properties":{"radiance":10.92}},{"type":"Feature","geometry":{"type":"Polygon","coordinates":[[[28.935417,61.86875],[28.939583,61.86875],[28.939583,61.872917],[28.935417,61.872917],[28.935417,61.86875]]]},"properties":{"radiance":10.71}},{"type":"Feature","geometry":{"type":"Polygon","coordinates":[[[28.939583,61.86875],[28.94375,61.86875],[28.94375,61.872917],[28.939583,61.872917],[28.939583,61.86875]]]},"properties":{"radiance":11.48}},{"type":"Feature","geometry":{"type":"Polygon","coordinates":[[[28.94375,61.86875],[28.947917,61.86875],[28.947917,61.872917],[28.94375,61.872917],[28.94375,61.86875]]]},"properties":{"radiance":9.01}},{"type":"Feature","geometry":{"type":"Polygon","coordinates":[[[28.947917,61.86875],[28.952083,61.86875],[28.952083,61.872917],[28.947917,61.872917],[28.947917,61.86875]]]},"properties":{"radiance":10.1}},{"type":"Feature","geometry":{"type":"Polygon","coordinates":[[[28.952083,61.86875],[28.95625,61.86875],[28.95625,61.872917],[28.952083,61.872917],[28.952083,61.86875]]]},"properties":{"radiance":6.64}},{"type":"Feature","geometry":{"type":"Polygon","coordinates":[[[28.85625,61.864583],[28.860417,61.864583],[28.860417,61.86875],[28.85625,61.86875],[28.85625,61.864583]]]},"properties":{"radiance":16.68}},{"type":"Feature","geometry":{"type":"Polygon","coordinates":[[[28.860417,61.864583],[28.864583,61.864583],[28.864583,61.86875],[28.860417,61.86875],[28.860417,61.864583]]]},"properties":{"radiance":42.94}},{"type":"Feature","geometry":{"type":"Polygon","coordinates":[[[28.864583,61.864583],[28.86875,61.864583],[28.86875,61.86875],[28.864583,61.86875],[28.864583,61.864583]]]},"properties":{"radiance":38.95}},{"type":"Feature","geometry":{"type":"Polygon","coordinates":[[[28.86875,61.864583],[28.872917,61.864583],[28.872917,61.86875],[28.86875,61.86875],[28.86875,61.864583]]]},"properties":{"radiance":12.09}},{"type":"Feature","geometry":{"type":"Polygon","coordinates":[[[28.872917,61.864583],[28.877083,61.864583],[28.877083,61.86875],[28.872917,61.86875],[28.872917,61.864583]]]},"properties":{"radiance":27.08}},{"type":"Feature","geometry":{"type":"Polygon","coordinates":[[[28.877083,61.864583],[28.88125,61.864583],[28.88125,61.86875],[28.877083,61.86875],[28.877083,61.864583]]]},"properties":{"radiance":34.22}},{"type":"Feature","geometry":{"type":"Polygon","coordinates":[[[28.88125,61.864583],[28.885417,61.864583],[28.885417,61.86875],[28.88125,61.86875],[28.88125,61.864583]]]},"properties":{"radiance":37.63}},{"type":"Feature","geometry":{"type":"Polygon","coordinates":[[[28.885417,61.864583],[28.889583,61.864583],[28.889583,61.86875],[28.885417,61.86875],[28.885417,61.864583]]]},"properties":{"radiance":36.51}},{"type":"Feature","geometry":{"type":"Polygon","coordinates":[[[28.889583,61.864583],[28.89375,61.864583],[28.89375,61.86875],[28.889583,61.86875],[28.889583,61.864583]]]},"properties":{"radiance":35.71}},{"type":"Feature","geometry":{"type":"Polygon","coordinates":[[[28.89375,61.864583],[28.897917,61.864583],[28.897917,61.86875],[28.89375,61.86875],[28.89375,61.864583]]]},"properties":{"radiance":37.25}},{"type":"Feature","geometry":{"type":"Polygon","coordinates":[[[28.897917,61.864583],[28.902083,61.864583],[28.902083,61.86875],[28.897917,61.86875],[28.897917,61.864583]]]},"properties":{"radiance":47.47}},{"type":"Feature","geometry":{"type":"Polygon","coordinates":[[[28.902083,61.864583],[28.90625,61.864583],[28.90625,61.86875],[28.902083,61.86875],[28.902083,61.864583]]]},"properties":{"radiance":65.33}},{"type":"Feature","geometry":{"type":"Polygon","coordinates":[[[28.90625,61.864583],[28.910417,61.864583],[28.910417,61.86875],[28.90625,61.86875],[28.90625,61.864583]]]},"properties":{"radiance":72.01}},{"type":"Feature","geometry":{"type":"Polygon","coordinates":[[[28.910417,61.864583],[28.914583,61.864583],[28.914583,61.86875],[28.910417,61.86875],[28.910417,61.864583]]]},"properties":{"radiance":84.73}},{"type":"Feature","geometry":{"type":"Polygon","coordinates":[[[28.914583,61.864583],[28.91875,61.864583],[28.91875,61.86875],[28.914583,61.86875],[28.914583,61.864583]]]},"properties":{"radiance":114.72}},{"type":"Feature","geometry":{"type":"Polygon","coordinates":[[[28.91875,61.864583],[28.922917,61.864583],[28.922917,61.86875],[28.91875,61.86875],[28.91875,61.864583]]]},"properties":{"radiance":97.16}},{"type":"Feature","geometry":{"type":"Polygon","coordinates":[[[28.922917,61.864583],[28.927083,61.864583],[28.927083,61.86875],[28.922917,61.86875],[28.922917,61.864583]]]},"properties":{"radiance":97.72}},{"type":"Feature","geometry":{"type":"Polygon","coordinates":[[[28.927083,61.864583],[28.93125,61.864583],[28.93125,61.86875],[28.927083,61.86875],[28.927083,61.864583]]]},"properties":{"radiance":45.57}},{"type":"Feature","geometry":{"type":"Polygon","coordinates":[[[28.93125,61.864583],[28.935417,61.864583],[28.935417,61.86875],[28.93125,61.86875],[28.93125,61.864583]]]},"properties":{"radiance":14.97}},{"type":"Feature","geometry":{"type":"Polygon","coordinates":[[[28.935417,61.864583],[28.939583,61.864583],[28.939583,61.86875],[28.935417,61.86875],[28.935417,61.864583]]]},"properties":{"radiance":13.63}},{"type":"Feature","geometry":{"type":"Polygon","coordinates":[[[28.939583,61.864583],[28.94375,61.864583],[28.94375,61.86875],[28.939583,61.86875],[28.939583,61.864583]]]},"properties":{"radiance":11.19}},{"type":"Feature","geometry":{"type":"Polygon","coordinates":[[[28.94375,61.864583],[28.947917,61.864583],[28.947917,61.86875],[28.94375,61.86875],[28.94375,61.864583]]]},"properties":{"radiance":9.06}},{"type":"Feature","geometry":{"type":"Polygon","coordinates":[[[28.947917,61.864583],[28.952083,61.864583],[28.952083,61.86875],[28.947917,61.86875],[28.947917,61.864583]]]},"properties":{"radiance":6.89}},{"type":"Feature","geometry":{"type":"Polygon","coordinates":[[[28.952083,61.864583],[28.95625,61.864583],[28.95625,61.86875],[28.952083,61.86875],[28.952083,61.864583]]]},"properties":{"radiance":6.73}},{"type":"Feature","geometry":{"type":"Polygon","coordinates":[[[28.877083,61.860417],[28.88125,61.860417],[28.88125,61.864583],[28.877083,61.864583],[28.877083,61.860417]]]},"properties":{"radiance":6.22}},{"type":"Feature","geometry":{"type":"Polygon","coordinates":[[[28.88125,61.860417],[28.885417,61.860417],[28.885417,61.864583],[28.88125,61.864583],[28.88125,61.860417]]]},"properties":{"radiance":6.87}},{"type":"Feature","geometry":{"type":"Polygon","coordinates":[[[28.885417,61.860417],[28.889583,61.860417],[28.889583,61.864583],[28.885417,61.864583],[28.885417,61.860417]]]},"properties":{"radiance":9.87}},{"type":"Feature","geometry":{"type":"Polygon","coordinates":[[[28.889583,61.860417],[28.89375,61.860417],[28.89375,61.864583],[28.889583,61.864583],[28.889583,61.860417]]]},"properties":{"radiance":9.23}},{"type":"Feature","geometry":{"type":"Polygon","coordinates":[[[28.89375,61.860417],[28.897917,61.860417],[28.897917,61.864583],[28.89375,61.864583],[28.89375,61.860417]]]},"properties":{"radiance":9.37}},{"type":"Feature","geometry":{"type":"Polygon","coordinates":[[[28.897917,61.860417],[28.902083,61.860417],[28.902083,61.864583],[28.897917,61.864583],[28.897917,61.860417]]]},"properties":{"radiance":7.72}},{"type":"Feature","geometry":{"type":"Polygon","coordinates":[[[28.902083,61.860417],[28.90625,61.860417],[28.90625,61.864583],[28.902083,61.864583],[28.902083,61.860417]]]},"properties":{"radiance":7.96}},{"type":"Feature","geometry":{"type":"Polygon","coordinates":[[[28.90625,61.860417],[28.910417,61.860417],[28.910417,61.864583],[28.90625,61.864583],[28.90625,61.860417]]]},"properties":{"radiance":18.18}},{"type":"Feature","geometry":{"type":"Polygon","coordinates":[[[28.910417,61.860417],[28.914583,61.860417],[28.914583,61.864583],[28.910417,61.864583],[28.910417,61.860417]]]},"properties":{"radiance":63.79}},{"type":"Feature","geometry":{"type":"Polygon","coordinates":[[[28.914583,61.860417],[28.91875,61.860417],[28.91875,61.864583],[28.914583,61.864583],[28.914583,61.860417]]]},"properties":{"radiance":118.81}},{"type":"Feature","geometry":{"type":"Polygon","coordinates":[[[28.91875,61.860417],[28.922917,61.860417],[28.922917,61.864583],[28.91875,61.864583],[28.91875,61.860417]]]},"properties":{"radiance":83.23}},{"type":"Feature","geometry":{"type":"Polygon","coordinates":[[[28.922917,61.860417],[28.927083,61.860417],[28.927083,61.864583],[28.922917,61.864583],[28.922917,61.860417]]]},"properties":{"radiance":104.88}},{"type":"Feature","geometry":{"type":"Polygon","coordinates":[[[28.927083,61.860417],[28.93125,61.860417],[28.93125,61.864583],[28.927083,61.864583],[28.927083,61.860417]]]},"properties":{"radiance":46.38}},{"type":"Feature","geometry":{"type":"Polygon","coordinates":[[[28.93125,61.860417],[28.935417,61.860417],[28.935417,61.864583],[28.93125,61.864583],[28.93125,61.860417]]]},"properties":{"radiance":36.76}},{"type":"Feature","geometry":{"type":"Polygon","coordinates":[[[28.935417,61.860417],[28.939583,61.860417],[28.939583,61.864583],[28.935417,61.864583],[28.935417,61.860417]]]},"properties":{"radiance":35.52}},{"type":"Feature","geometry":{"type":"Polygon","coordinates":[[[28.939583,61.860417],[28.94375,61.860417],[28.94375,61.864583],[28.939583,61.864583],[28.939583,61.860417]]]},"properties":{"radiance":10.04}},{"type":"Feature","geometry":{"type":"Polygon","coordinates":[[[28.94375,61.860417],[28.947917,61.860417],[28.947917,61.864583],[28.94375,61.864583],[28.94375,61.860417]]]},"properties":{"radiance":9.14}},{"type":"Feature","geometry":{"type":"Polygon","coordinates":[[[28.947917,61.860417],[28.952083,61.860417],[28.952083,61.864583],[28.947917,61.864583],[28.947917,61.860417]]]},"properties":{"radiance":7.72}},{"type":"Feature","geometry":{"type":"Polygon","coordinates":[[[28.952083,61.860417],[28.95625,61.860417],[28.95625,61.864583],[28.952083,61.864583],[28.952083,61.860417]]]},"properties":{"radiance":5.25}},{"type":"Feature","geometry":{"type":"Polygon","coordinates":[[[28.95625,61.860417],[28.960417,61.860417],[28.960417,61.864583],[28.95625,61.864583],[28.95625,61.860417]]]},"properties":{"radiance":5.12}},{"type":"Feature","geometry":{"type":"Polygon","coordinates":[[[28.910417,61.85625],[28.914583,61.85625],[28.914583,61.860417],[28.910417,61.860417],[28.910417,61.85625]]]},"properties":{"radiance":7.37}},{"type":"Feature","geometry":{"type":"Polygon","coordinates":[[[28.914583,61.85625],[28.91875,61.85625],[28.91875,61.860417],[28.914583,61.860417],[28.914583,61.85625]]]},"properties":{"radiance":30.71}},{"type":"Feature","geometry":{"type":"Polygon","coordinates":[[[28.91875,61.85625],[28.922917,61.85625],[28.922917,61.860417],[28.91875,61.860417],[28.91875,61.85625]]]},"properties":{"radiance":49.52}},{"type":"Feature","geometry":{"type":"Polygon","coordinates":[[[28.922917,61.85625],[28.927083,61.85625],[28.927083,61.860417],[28.922917,61.860417],[28.922917,61.85625]]]},"properties":{"radiance":10.06}},{"type":"Feature","geometry":{"type":"Polygon","coordinates":[[[28.927083,61.85625],[28.93125,61.85625],[28.93125,61.860417],[28.927083,61.860417],[28.927083,61.85625]]]},"properties":{"radiance":7.71}},{"type":"Feature","geometry":{"type":"Polygon","coordinates":[[[28.93125,61.85625],[28.935417,61.85625],[28.935417,61.860417],[28.93125,61.860417],[28.93125,61.85625]]]},"properties":{"radiance":8.7}},{"type":"Feature","geometry":{"type":"Polygon","coordinates":[[[28.935417,61.85625],[28.939583,61.85625],[28.939583,61.860417],[28.935417,61.860417],[28.935417,61.85625]]]},"properties":{"radiance":9.15}},{"type":"Feature","geometry":{"type":"Polygon","coordinates":[[[28.939583,61.85625],[28.94375,61.85625],[28.94375,61.860417],[28.939583,61.860417],[28.939583,61.85625]]]},"properties":{"radiance":6.04}},{"type":"Feature","geometry":{"type":"Polygon","coordinates":[[[28.94375,61.85625],[28.947917,61.85625],[28.947917,61.860417],[28.94375,61.860417],[28.94375,61.85625]]]},"properties":{"radiance":6.3}},{"type":"Feature","geometry":{"type":"Polygon","coordinates":[[[28.947917,61.85625],[28.952083,61.85625],[28.952083,61.860417],[28.947917,61.860417],[28.947917,61.85625]]]},"properties":{"radiance":5.34}},{"type":"Feature","geometry":{"type":"Polygon","coordinates":[[[28.935417,61.852083],[28.939583,61.852083],[28.939583,61.85625],[28.935417,61.85625],[28.935417,61.852083]]]},"properties":{"radiance":5.05}},{"type":"Feature","geometry":{"type":"Polygon","coordinates":[[[28.939583,61.852083],[28.94375,61.852083],[28.94375,61.85625],[28.939583,61.85625],[28.939583,61.852083]]]},"properties":{"radiance":5.15}},{"type":"Feature","geometry":{"type":"Polygon","coordinates":[[[28.94375,61.852083],[28.947917,61.852083],[28.947917,61.85625],[28.94375,61.85625],[28.94375,61.852083]]]},"properties":{"radiance":5.27}},{"type":"Feature","geometry":{"type":"Polygon","coordinates":[[[28.964583,61.852083],[28.96875,61.852083],[28.96875,61.85625],[28.964583,61.85625],[28.964583,61.852083]]]},"properties":{"radiance":5.44}},{"type":"Feature","geometry":{"type":"Polygon","coordinates":[[[28.96875,61.852083],[28.972917,61.852083],[28.972917,61.85625],[28.96875,61.85625],[28.96875,61.852083]]]},"properties":{"radiance":5.93}},{"type":"Feature","geometry":{"type":"Polygon","coordinates":[[[28.972917,61.852083],[28.977083,61.852083],[28.977083,61.85625],[28.972917,61.85625],[28.972917,61.852083]]]},"properties":{"radiance":6.06}},{"type":"Feature","geometry":{"type":"Polygon","coordinates":[[[28.977083,61.852083],[28.98125,61.852083],[28.98125,61.85625],[28.977083,61.85625],[28.977083,61.852083]]]},"properties":{"radiance":5.01}},{"type":"Feature","geometry":{"type":"Polygon","coordinates":[[[29.49375,61.560417],[29.497917,61.560417],[29.497917,61.564583],[29.49375,61.564583],[29.49375,61.560417]]]},"properties":{"radiance":14.01}},{"type":"Feature","geometry":{"type":"Polygon","coordinates":[[[29.497917,61.560417],[29.502083,61.560417],[29.502083,61.564583],[29.497917,61.564583],[29.497917,61.560417]]]},"properties":{"radiance":12.7}},{"type":"Feature","geometry":{"type":"Polygon","coordinates":[[[29.502083,61.560417],[29.50625,61.560417],[29.50625,61.564583],[29.502083,61.564583],[29.502083,61.560417]]]},"properties":{"radiance":12.18}},{"type":"Feature","geometry":{"type":"Polygon","coordinates":[[[29.50625,61.560417],[29.510417,61.560417],[29.510417,61.564583],[29.50625,61.564583],[29.50625,61.560417]]]},"properties":{"radiance":5.15}},{"type":"Feature","geometry":{"type":"Polygon","coordinates":[[[29.489583,61.55625],[29.49375,61.55625],[29.49375,61.560417],[29.489583,61.560417],[29.489583,61.55625]]]},"properties":{"radiance":9.58}},{"type":"Feature","geometry":{"type":"Polygon","coordinates":[[[29.49375,61.55625],[29.497917,61.55625],[29.497917,61.560417],[29.49375,61.560417],[29.49375,61.55625]]]},"properties":{"radiance":15.56}},{"type":"Feature","geometry":{"type":"Polygon","coordinates":[[[29.497917,61.55625],[29.502083,61.55625],[29.502083,61.560417],[29.497917,61.560417],[29.497917,61.55625]]]},"properties":{"radiance":17.97}},{"type":"Feature","geometry":{"type":"Polygon","coordinates":[[[29.502083,61.55625],[29.50625,61.55625],[29.50625,61.560417],[29.502083,61.560417],[29.502083,61.55625]]]},"properties":{"radiance":11.99}},{"type":"Feature","geometry":{"type":"Polygon","coordinates":[[[29.33125,61.439583],[29.335417,61.439583],[29.335417,61.44375],[29.33125,61.44375],[29.33125,61.439583]]]},"properties":{"radiance":9.73}},{"type":"Feature","geometry":{"type":"Polygon","coordinates":[[[29.335417,61.439583],[29.339583,61.439583],[29.339583,61.44375],[29.335417,61.44375],[29.335417,61.439583]]]},"properties":{"radiance":11.87}},{"type":"Feature","geometry":{"type":"Polygon","coordinates":[[[29.339583,61.439583],[29.34375,61.439583],[29.34375,61.44375],[29.339583,61.44375],[29.339583,61.439583]]]},"properties":{"radiance":8.99}},{"type":"Feature","geometry":{"type":"Polygon","coordinates":[[[29.327083,61.435417],[29.33125,61.435417],[29.33125,61.439583],[29.327083,61.439583],[29.327083,61.435417]]]},"properties":{"radiance":11.18}},{"type":"Feature","geometry":{"type":"Polygon","coordinates":[[[29.33125,61.435417],[29.335417,61.435417],[29.335417,61.439583],[29.33125,61.439583],[29.33125,61.435417]]]},"properties":{"radiance":17.21}},{"type":"Feature","geometry":{"type":"Polygon","coordinates":[[[29.335417,61.435417],[29.339583,61.435417],[29.339583,61.439583],[29.335417,61.439583],[29.335417,61.435417]]]},"properties":{"radiance":22.25}},{"type":"Feature","geometry":{"type":"Polygon","coordinates":[[[29.339583,61.435417],[29.34375,61.435417],[29.34375,61.439583],[29.339583,61.439583],[29.339583,61.435417]]]},"properties":{"radiance":25.05}},{"type":"Feature","geometry":{"type":"Polygon","coordinates":[[[29.34375,61.435417],[29.347917,61.435417],[29.347917,61.439583],[29.34375,61.439583],[29.34375,61.435417]]]},"properties":{"radiance":13.36}},{"type":"Feature","geometry":{"type":"Polygon","coordinates":[[[29.347917,61.435417],[29.352083,61.435417],[29.352083,61.439583],[29.347917,61.439583],[29.347917,61.435417]]]},"properties":{"radiance":12.81}},{"type":"Feature","geometry":{"type":"Polygon","coordinates":[[[29.352083,61.435417],[29.35625,61.435417],[29.35625,61.439583],[29.352083,61.439583],[29.352083,61.435417]]]},"properties":{"radiance":6.35}},{"type":"Feature","geometry":{"type":"Polygon","coordinates":[[[29.33125,61.43125],[29.335417,61.43125],[29.335417,61.435417],[29.33125,61.435417],[29.33125,61.43125]]]},"properties":{"radiance":11.43}},{"type":"Feature","geometry":{"type":"Polygon","coordinates":[[[29.335417,61.43125],[29.339583,61.43125],[29.339583,61.435417],[29.335417,61.435417],[29.335417,61.43125]]]},"properties":{"radiance":12.68}},{"type":"Feature","geometry":{"type":"Polygon","coordinates":[[[29.36875,61.427083],[29.372917,61.427083],[29.372917,61.43125],[29.36875,61.43125],[29.36875,61.427083]]]},"properties":{"radiance":5.07}},{"type":"Feature","geometry":{"type":"Polygon","coordinates":[[[28.86875,61.260417],[28.872917,61.260417],[28.872917,61.264583],[28.86875,61.264583],[28.86875,61.260417]]]},"properties":{"radiance":6.68}},{"type":"Feature","geometry":{"type":"Polygon","coordinates":[[[28.872917,61.260417],[28.877083,61.260417],[28.877083,61.264583],[28.872917,61.264583],[28.872917,61.260417]]]},"properties":{"radiance":5.85}},{"type":"Feature","geometry":{"type":"Polygon","coordinates":[[[28.877083,61.260417],[28.88125,61.260417],[28.88125,61.264583],[28.877083,61.264583],[28.877083,61.260417]]]},"properties":{"radiance":6.22}},{"type":"Feature","geometry":{"type":"Polygon","coordinates":[[[28.88125,61.260417],[28.885417,61.260417],[28.885417,61.264583],[28.88125,61.264583],[28.88125,61.260417]]]},"properties":{"radiance":7.42}},{"type":"Feature","geometry":{"type":"Polygon","coordinates":[[[28.885417,61.260417],[28.889583,61.260417],[28.889583,61.264583],[28.885417,61.264583],[28.885417,61.260417]]]},"properties":{"radiance":7.89}},{"type":"Feature","geometry":{"type":"Polygon","coordinates":[[[28.889583,61.260417],[28.89375,61.260417],[28.89375,61.264583],[28.889583,61.264583],[28.889583,61.260417]]]},"properties":{"radiance":5.6}},{"type":"Feature","geometry":{"type":"Polygon","coordinates":[[[28.847917,61.25625],[28.852083,61.25625],[28.852083,61.260417],[28.847917,61.260417],[28.847917,61.25625]]]},"properties":{"radiance":9.8}},{"type":"Feature","geometry":{"type":"Polygon","coordinates":[[[28.852083,61.25625],[28.85625,61.25625],[28.85625,61.260417],[28.852083,61.260417],[28.852083,61.25625]]]},"properties":{"radiance":38.25}},{"type":"Feature","geometry":{"type":"Polygon","coordinates":[[[28.85625,61.25625],[28.860417,61.25625],[28.860417,61.260417],[28.85625,61.260417],[28.85625,61.25625]]]},"properties":{"radiance":134.01}},{"type":"Feature","geometry":{"type":"Polygon","coordinates":[[[28.860417,61.25625],[28.864583,61.25625],[28.864583,61.260417],[28.860417,61.260417],[28.860417,61.25625]]]},"properties":{"radiance":138.36}},{"type":"Feature","geometry":{"type":"Polygon","coordinates":[[[28.864583,61.25625],[28.86875,61.25625],[28.86875,61.260417],[28.864583,61.260417],[28.864583,61.25625]]]},"properties":{"radiance":60.04}},{"type":"Feature","geometry":{"type":"Polygon","coordinates":[[[28.86875,61.25625],[28.872917,61.25625],[28.872917,61.260417],[28.86875,61.260417],[28.86875,61.25625]]]},"properties":{"radiance":49.15}},{"type":"Feature","geometry":{"type":"Polygon","coordinates":[[[28.872917,61.25625],[28.877083,61.25625],[28.877083,61.260417],[28.872917,61.260417],[28.872917,61.25625]]]},"properties":{"radiance":10.26}},{"type":"Feature","geometry":{"type":"Polygon","coordinates":[[[28.877083,61.25625],[28.88125,61.25625],[28.88125,61.260417],[28.877083,61.260417],[28.877083,61.25625]]]},"properties":{"radiance":13.29}},{"type":"Feature","geometry":{"type":"Polygon","coordinates":[[[28.88125,61.25625],[28.885417,61.25625],[28.885417,61.260417],[28.88125,61.260417],[28.88125,61.25625]]]},"properties":{"radiance":13.12}},{"type":"Feature","geometry":{"type":"Polygon","coordinates":[[[28.885417,61.25625],[28.889583,61.25625],[28.889583,61.260417],[28.885417,61.260417],[28.885417,61.25625]]]},"properties":{"radiance":10.92}},{"type":"Feature","geometry":{"type":"Polygon","coordinates":[[[28.889583,61.25625],[28.89375,61.25625],[28.89375,61.260417],[28.889583,61.260417],[28.889583,61.25625]]]},"properties":{"radiance":9.77}},{"type":"Feature","geometry":{"type":"Polygon","coordinates":[[[28.89375,61.25625],[28.897917,61.25625],[28.897917,61.260417],[28.89375,61.260417],[28.89375,61.25625]]]},"properties":{"radiance":5.9}},{"type":"Feature","geometry":{"type":"Polygon","coordinates":[[[28.839583,61.252083],[28.84375,61.252083],[28.84375,61.25625],[28.839583,61.25625],[28.839583,61.252083]]]},"properties":{"radiance":22.22}},{"type":"Feature","geometry":{"type":"Polygon","coordinates":[[[28.84375,61.252083],[28.847917,61.252083],[28.847917,61.25625],[28.84375,61.25625],[28.84375,61.252083]]]},"properties":{"radiance":48.94}},{"type":"Feature","geometry":{"type":"Polygon","coordinates":[[[28.847917,61.252083],[28.852083,61.252083],[28.852083,61.25625],[28.847917,61.25625],[28.847917,61.252083]]]},"properties":{"radiance":51.02}},{"type":"Feature","geometry":{"type":"Polygon","coordinates":[[[28.852083,61.252083],[28.85625,61.252083],[28.85625,61.25625],[28.852083,61.25625],[28.852083,61.252083]]]},"properties":{"radiance":82.74}},{"type":"Feature","geometry":{"type":"Polygon","coordinates":[[[28.85625,61.252083],[28.860417,61.252083],[28.860417,61.25625],[28.85625,61.25625],[28.85625,61.252083]]]},"properties":{"radiance":99.31}},{"type":"Feature","geometry":{"type":"Polygon","coordinates":[[[28.860417,61.252083],[28.864583,61.252083],[28.864583,61.25625],[28.860417,61.25625],[28.860417,61.252083]]]},"properties":{"radiance":118.38}},{"type":"Feature","geometry":{"type":"Polygon","coordinates":[[[28.864583,61.252083],[28.86875,61.252083],[28.86875,61.25625],[28.864583,61.25625],[28.864583,61.252083]]]},"properties":{"radiance":110.31}},{"type":"Feature","geometry":{"type":"Polygon","coordinates":[[[28.86875,61.252083],[28.872917,61.252083],[28.872917,61.25625],[28.86875,61.25625],[28.86875,61.252083]]]},"properties":{"radiance":95.59}},{"type":"Feature","geometry":{"type":"Polygon","coordinates":[[[28.872917,61.252083],[28.877083,61.252083],[28.877083,61.25625],[28.872917,61.25625],[28.872917,61.252083]]]},"properties":{"radiance":29.29}},{"type":"Feature","geometry":{"type":"Polygon","coordinates":[[[28.877083,61.252083],[28.88125,61.252083],[28.88125,61.25625],[28.877083,61.25625],[28.877083,61.252083]]]},"properties":{"radiance":18.92}},{"type":"Feature","geometry":{"type":"Polygon","coordinates":[[[28.88125,61.252083],[28.885417,61.252083],[28.885417,61.25625],[28.88125,61.25625],[28.88125,61.252083]]]},"properties":{"radiance":11.21}},{"type":"Feature","geometry":{"type":"Polygon","coordinates":[[[28.885417,61.252083],[28.889583,61.252083],[28.889583,61.25625],[28.885417,61.25625],[28.885417,61.252083]]]},"properties":{"radiance":9.62}},{"type":"Feature","geometry":{"type":"Polygon","coordinates":[[[28.889583,61.252083],[28.89375,61.252083],[28.89375,61.25625],[28.889583,61.25625],[28.889583,61.252083]]]},"properties":{"radiance":6.56}},{"type":"Feature","geometry":{"type":"Polygon","coordinates":[[[28.822917,61.247917],[28.827083,61.247917],[28.827083,61.252083],[28.822917,61.252083],[28.822917,61.247917]]]},"properties":{"radiance":6.45}},{"type":"Feature","geometry":{"type":"Polygon","coordinates":[[[28.827083,61.247917],[28.83125,61.247917],[28.83125,61.252083],[28.827083,61.252083],[28.827083,61.247917]]]},"properties":{"radiance":6.29}},{"type":"Feature","geometry":{"type":"Polygon","coordinates":[[[28.83125,61.247917],[28.835417,61.247917],[28.835417,61.252083],[28.83125,61.252083],[28.83125,61.247917]]]},"properties":{"radiance":7.85}},{"type":"Feature","geometry":{"type":"Polygon","coordinates":[[[28.835417,61.247917],[28.839583,61.247917],[28.839583,61.252083],[28.835417,61.252083],[28.835417,61.247917]]]},"properties":{"radiance":21.67}},{"type":"Feature","geometry":{"type":"Polygon","coordinates":[[[28.839583,61.247917],[28.84375,61.247917],[28.84375,61.252083],[28.839583,61.252083],[28.839583,61.247917]]]},"properties":{"radiance":49.53}},{"type":"Feature","geometry":{"type":"Polygon","coordinates":[[[28.84375,61.247917],[28.847917,61.247917],[28.847917,61.252083],[28.84375,61.252083],[28.84375,61.247917]]]},"properties":{"radiance":74.53}},{"type":"Feature","geometry":{"type":"Polygon","coordinates":[[[28.847917,61.247917],[28.852083,61.247917],[28.852083,61.252083],[28.847917,61.252083],[28.847917,61.247917]]]},"properties":{"radiance":211.34}},{"type":"Feature","geometry":{"type":"Polygon","coordinates":[[[28.852083,61.247917],[28.85625,61.247917],[28.85625,61.252083],[28.852083,61.252083],[28.852083,61.247917]]]},"properties":{"radiance":112.3}},{"type":"Feature","geometry":{"type":"Polygon","coordinates":[[[28.85625,61.247917],[28.860417,61.247917],[28.860417,61.252083],[28.85625,61.252083],[28.85625,61.247917]]]},"properties":{"radiance":121.69}},{"type":"Feature","geometry":{"type":"Polygon","coordinates":[[[28.860417,61.247917],[28.864583,61.247917],[28.864583,61.252083],[28.860417,61.252083],[28.860417,61.247917]]]},"properties":{"radiance":120.87}},{"type":"Feature","geometry":{"type":"Polygon","coordinates":[[[28.864583,61.247917],[28.86875,61.247917],[28.86875,61.252083],[28.864583,61.252083],[28.864583,61.247917]]]},"properties":{"radiance":114.27}},{"type":"Feature","geometry":{"type":"Polygon","coordinates":[[[28.86875,61.247917],[28.872917,61.247917],[28.872917,61.252083],[28.86875,61.252083],[28.86875,61.247917]]]},"properties":{"radiance":69.3}},{"type":"Feature","geometry":{"type":"Polygon","coordinates":[[[28.872917,61.247917],[28.877083,61.247917],[28.877083,61.252083],[28.872917,61.252083],[28.872917,61.247917]]]},"properties":{"radiance":16.94}},{"type":"Feature","geometry":{"type":"Polygon","coordinates":[[[28.877083,61.247917],[28.88125,61.247917],[28.88125,61.252083],[28.877083,61.252083],[28.877083,61.247917]]]},"properties":{"radiance":11.89}},{"type":"Feature","geometry":{"type":"Polygon","coordinates":[[[28.88125,61.247917],[28.885417,61.247917],[28.885417,61.252083],[28.88125,61.252083],[28.88125,61.247917]]]},"properties":{"radiance":12.11}},{"type":"Feature","geometry":{"type":"Polygon","coordinates":[[[28.885417,61.247917],[28.889583,61.247917],[28.889583,61.252083],[28.885417,61.252083],[28.885417,61.247917]]]},"properties":{"radiance":8.94}},{"type":"Feature","geometry":{"type":"Polygon","coordinates":[[[28.889583,61.247917],[28.89375,61.247917],[28.89375,61.252083],[28.889583,61.252083],[28.889583,61.247917]]]},"properties":{"radiance":8.11}},{"type":"Feature","geometry":{"type":"Polygon","coordinates":[[[28.89375,61.247917],[28.897917,61.247917],[28.897917,61.252083],[28.89375,61.252083],[28.89375,61.247917]]]},"properties":{"radiance":7.09}},{"type":"Feature","geometry":{"type":"Polygon","coordinates":[[[28.897917,61.247917],[28.902083,61.247917],[28.902083,61.252083],[28.897917,61.252083],[28.897917,61.247917]]]},"properties":{"radiance":5.17}},{"type":"Feature","geometry":{"type":"Polygon","coordinates":[[[28.822917,61.24375],[28.827083,61.24375],[28.827083,61.247917],[28.822917,61.247917],[28.822917,61.24375]]]},"properties":{"radiance":5.42}},{"type":"Feature","geometry":{"type":"Polygon","coordinates":[[[28.827083,61.24375],[28.83125,61.24375],[28.83125,61.247917],[28.827083,61.247917],[28.827083,61.24375]]]},"properties":{"radiance":8.21}},{"type":"Feature","geometry":{"type":"Polygon","coordinates":[[[28.83125,61.24375],[28.835417,61.24375],[28.835417,61.247917],[28.83125,61.247917],[28.83125,61.24375]]]},"properties":{"radiance":10.23}},{"type":"Feature","geometry":{"type":"Polygon","coordinates":[[[28.835417,61.24375],[28.839583,61.24375],[28.839583,61.247917],[28.835417,61.247917],[28.835417,61.24375]]]},"properties":{"radiance":62.58}},{"type":"Feature","geometry":{"type":"Polygon","coordinates":[[[28.839583,61.24375],[28.84375,61.24375],[28.84375,61.247917],[28.839583,61.247917],[28.839583,61.24375]]]},"properties":{"radiance":86.16}},{"type":"Feature","geometry":{"type":"Polygon","coordinates":[[[28.84375,61.24375],[28.847917,61.24375],[28.847917,61.247917],[28.84375,61.247917],[28.84375,61.24375]]]},"properties":{"radiance":85.6}},{"type":"Feature","geometry":{"type":"Polygon","coordinates":[[[28.847917,61.24375],[28.852083,61.24375],[28.852083,61.247917],[28.847917,61.247917],[28.847917,61.24375]]]},"properties":{"radiance":72.63}},{"type":"Feature","geometry":{"type":"Polygon","coordinates":[[[28.852083,61.24375],[28.85625,61.24375],[28.85625,61.247917],[28.852083,61.247917],[28.852083,61.24375]]]},"properties":{"radiance":51.54}},{"type":"Feature","geometry":{"type":"Polygon","coordinates":[[[28.85625,61.24375],[28.860417,61.24375],[28.860417,61.247917],[28.85625,61.247917],[28.85625,61.24375]]]},"properties":{"radiance":87.03}},{"type":"Feature","geometry":{"type":"Polygon","coordinates":[[[28.860417,61.24375],[28.864583,61.24375],[28.864583,61.247917],[28.860417,61.247917],[28.860417,61.24375]]]},"properties":{"radiance":64.53}},{"type":"Feature","geometry":{"type":"Polygon","coordinates":[[[28.864583,61.24375],[28.86875,61.24375],[28.86875,61.247917],[28.864583,61.247917],[28.864583,61.24375]]]},"properties":{"radiance":37.36}},{"type":"Feature","geometry":{"type":"Polygon","coordinates":[[[28.86875,61.24375],[28.872917,61.24375],[28.872917,61.247917],[28.86875,61.247917],[28.86875,61.24375]]]},"properties":{"radiance":14.07}},{"type":"Feature","geometry":{"type":"Polygon","coordinates":[[[28.872917,61.24375],[28.877083,61.24375],[28.877083,61.247917],[28.872917,61.247917],[28.872917,61.24375]]]},"properties":{"radiance":15.6}},{"type":"Feature","geometry":{"type":"Polygon","coordinates":[[[28.877083,61.24375],[28.88125,61.24375],[28.88125,61.247917],[28.877083,61.247917],[28.877083,61.24375]]]},"properties":{"radiance":11.61}},{"type":"Feature","geometry":{"type":"Polygon","coordinates":[[[28.88125,61.24375],[28.885417,61.24375],[28.885417,61.247917],[28.88125,61.247917],[28.88125,61.24375]]]},"properties":{"radiance":10.33}},{"type":"Feature","geometry":{"type":"Polygon","coordinates":[[[28.885417,61.24375],[28.889583,61.24375],[28.889583,61.247917],[28.885417,61.247917],[28.885417,61.24375]]]},"properties":{"radiance":10.55}},{"type":"Feature","geometry":{"type":"Polygon","coordinates":[[[28.889583,61.24375],[28.89375,61.24375],[28.89375,61.247917],[28.889583,61.247917],[28.889583,61.24375]]]},"properties":{"radiance":9.74}},{"type":"Feature","geometry":{"type":"Polygon","coordinates":[[[28.89375,61.24375],[28.897917,61.24375],[28.897917,61.247917],[28.89375,61.247917],[28.89375,61.24375]]]},"properties":{"radiance":8.61}},{"type":"Feature","geometry":{"type":"Polygon","coordinates":[[[28.897917,61.24375],[28.902083,61.24375],[28.902083,61.247917],[28.897917,61.247917],[28.897917,61.24375]]]},"properties":{"radiance":7.14}},{"type":"Feature","geometry":{"type":"Polygon","coordinates":[[[28.902083,61.24375],[28.90625,61.24375],[28.90625,61.247917],[28.902083,61.247917],[28.902083,61.24375]]]},"properties":{"radiance":6.4}},{"type":"Feature","geometry":{"type":"Polygon","coordinates":[[[28.822917,61.239583],[28.827083,61.239583],[28.827083,61.24375],[28.822917,61.24375],[28.822917,61.239583]]]},"properties":{"radiance":7.25}},{"type":"Feature","geometry":{"type":"Polygon","coordinates":[[[28.827083,61.239583],[28.83125,61.239583],[28.83125,61.24375],[28.827083,61.24375],[28.827083,61.239583]]]},"properties":{"radiance":11.92}},{"type":"Feature","geometry":{"type":"Polygon","coordinates":[[[28.83125,61.239583],[28.835417,61.239583],[28.835417,61.24375],[28.83125,61.24375],[28.83125,61.239583]]]},"properties":{"radiance":23.41}},{"type":"Feature","geometry":{"type":"Polygon","coordinates":[[[28.835417,61.239583],[28.839583,61.239583],[28.839583,61.24375],[28.835417,61.24375],[28.835417,61.239583]]]},"properties":{"radiance":59.3}},{"type":"Feature","geometry":{"type":"Polygon","coordinates":[[[28.839583,61.239583],[28.84375,61.239583],[28.84375,61.24375],[28.839583,61.24375],[28.839583,61.239583]]]},"properties":{"radiance":73.16}},{"type":"Feature","geometry":{"type":"Polygon","coordinates":[[[28.84375,61.239583],[28.847917,61.239583],[28.847917,61.24375],[28.84375,61.24375],[28.84375,61.239583]]]},"properties":{"radiance":82.98}},{"type":"Feature","geometry":{"type":"Polygon","coordinates":[[[28.847917,61.239583],[28.852083,61.239583],[28.852083,61.24375],[28.847917,61.24375],[28.847917,61.239583]]]},"properties":{"radiance":41.23}},{"type":"Feature","geometry":{"type":"Polygon","coordinates":[[[28.852083,61.239583],[28.85625,61.239583],[28.85625,61.24375],[28.852083,61.24375],[28.852083,61.239583]]]},"properties":{"radiance":28.61}},{"type":"Feature","geometry":{"type":"Polygon","coordinates":[[[28.85625,61.239583],[28.860417,61.239583],[28.860417,61.24375],[28.85625,61.24375],[28.85625,61.239583]]]},"properties":{"radiance":29.32}},{"type":"Feature","geometry":{"type":"Polygon","coordinates":[[[28.860417,61.239583],[28.864583,61.239583],[28.864583,61.24375],[28.860417,61.24375],[28.860417,61.239583]]]},"properties":{"radiance":14.81}},{"type":"Feature","geometry":{"type":"Polygon","coordinates":[[[28.864583,61.239583],[28.86875,61.239583],[28.86875,61.24375],[28.864583,61.24375],[28.864583,61.239583]]]},"properties":{"radiance":15.17}},{"type":"Feature","geometry":{"type":"Polygon","coordinates":[[[28.86875,61.239583],[28.872917,61.239583],[28.872917,61.24375],[28.86875,61.24375],[28.86875,61.239583]]]},"properties":{"radiance":14.03}},{"type":"Feature","geometry":{"type":"Polygon","coordinates":[[[28.872917,61.239583],[28.877083,61.239583],[28.877083,61.24375],[28.872917,61.24375],[28.872917,61.239583]]]},"properties":{"radiance":11.94}},{"type":"Feature","geometry":{"type":"Polygon","coordinates":[[[28.877083,61.239583],[28.88125,61.239583],[28.88125,61.24375],[28.877083,61.24375],[28.877083,61.239583]]]},"properties":{"radiance":9.75}},{"type":"Feature","geometry":{"type":"Polygon","coordinates":[[[28.88125,61.239583],[28.885417,61.239583],[28.885417,61.24375],[28.88125,61.24375],[28.88125,61.239583]]]},"properties":{"radiance":8.71}},{"type":"Feature","geometry":{"type":"Polygon","coordinates":[[[28.885417,61.239583],[28.889583,61.239583],[28.889583,61.24375],[28.885417,61.24375],[28.885417,61.239583]]]},"properties":{"radiance":8.12}},{"type":"Feature","geometry":{"type":"Polygon","coordinates":[[[28.889583,61.239583],[28.89375,61.239583],[28.89375,61.24375],[28.889583,61.24375],[28.889583,61.239583]]]},"properties":{"radiance":8.27}},{"type":"Feature","geometry":{"type":"Polygon","coordinates":[[[28.89375,61.239583],[28.897917,61.239583],[28.897917,61.24375],[28.89375,61.24375],[28.89375,61.239583]]]},"properties":{"radiance":6.94}},{"type":"Feature","geometry":{"type":"Polygon","coordinates":[[[28.897917,61.239583],[28.902083,61.239583],[28.902083,61.24375],[28.897917,61.24375],[28.897917,61.239583]]]},"properties":{"radiance":6.07}},{"type":"Feature","geometry":{"type":"Polygon","coordinates":[[[28.902083,61.239583],[28.90625,61.239583],[28.90625,61.24375],[28.902083,61.24375],[28.902083,61.239583]]]},"properties":{"radiance":5.9}},{"type":"Feature","geometry":{"type":"Polygon","coordinates":[[[28.797917,61.235417],[28.802083,61.235417],[28.802083,61.239583],[28.797917,61.239583],[28.797917,61.235417]]]},"properties":{"radiance":6.69}},{"type":"Feature","geometry":{"type":"Polygon","coordinates":[[[28.80625,61.235417],[28.810417,61.235417],[28.810417,61.239583],[28.80625,61.239583],[28.80625,61.235417]]]},"properties":{"radiance":6.85}},{"type":"Feature","geometry":{"type":"Polygon","coordinates":[[[28.814583,61.235417],[28.81875,61.235417],[28.81875,61.239583],[28.814583,61.239583],[28.814583,61.235417]]]},"properties":{"radiance":20.33}},{"type":"Feature","geometry":{"type":"Polygon","coordinates":[[[28.81875,61.235417],[28.822917,61.235417],[28.822917,61.239583],[28.81875,61.239583],[28.81875,61.235417]]]},"properties":{"radiance":10.62}},{"type":"Feature","geometry":{"type":"Polygon","coordinates":[[[28.822917,61.235417],[28.827083,61.235417],[28.827083,61.239583],[28.822917,61.239583],[28.822917,61.235417]]]},"properties":{"radiance":8.65}},{"type":"Feature","geometry":{"type":"Polygon","coordinates":[[[28.827083,61.235417],[28.83125,61.235417],[28.83125,61.239583],[28.827083,61.239583],[28.827083,61.235417]]]},"properties":{"radiance":37.07}},{"type":"Feature","geometry":{"type":"Polygon","coordinates":[[[28.83125,61.235417],[28.835417,61.235417],[28.835417,61.239583],[28.83125,61.239583],[28.83125,61.235417]]]},"properties":{"radiance":39.15}},{"type":"Feature","geometry":{"type":"Polygon","coordinates":[[[28.835417,61.235417],[28.839583,61.235417],[28.839583,61.239583],[28.835417,61.239583],[28.835417,61.235417]]]},"properties":{"radiance":41.61}},{"type":"Feature","geometry":{"type":"Polygon","coordinates":[[[28.839583,61.235417],[28.84375,61.235417],[28.84375,61.239583],[28.839583,61.239583],[28.839583,61.235417]]]},"properties":{"radiance":25.8}},{"type":"Feature","geometry":{"type":"Polygon","coordinates":[[[28.84375,61.235417],[28.847917,61.235417],[28.847917,61.239583],[28.84375,61.239583],[28.84375,61.235417]]]},"properties":{"radiance":16.32}},{"type":"Feature","geometry":{"type":"Polygon","coordinates":[[[28.847917,61.235417],[28.852083,61.235417],[28.852083,61.239583],[28.847917,61.239583],[28.847917,61.235417]]]},"properties":{"radiance":15.62}},{"type":"Feature","geometry":{"type":"Polygon","coordinates":[[[28.852083,61.235417],[28.85625,61.235417],[28.85625,61.239583],[28.852083,61.239583],[28.852083,61.235417]]]},"properties":{"radiance":14.71}},{"type":"Feature","geometry":{"type":"Polygon","coordinates":[[[28.85625,61.235417],[28.860417,61.235417],[28.860417,61.239583],[28.85625,61.239583],[28.85625,61.235417]]]},"properties":{"radiance":12.32}},{"type":"Feature","geometry":{"type":"Polygon","coordinates":[[[28.860417,61.235417],[28.864583,61.235417],[28.864583,61.239583],[28.860417,61.239583],[28.860417,61.235417]]]},"properties":{"radiance":12.28}},{"type":"Feature","geometry":{"type":"Polygon","coordinates":[[[28.864583,61.235417],[28.86875,61.235417],[28.86875,61.239583],[28.864583,61.239583],[28.864583,61.235417]]]},"properties":{"radiance":12.81}},{"type":"Feature","geometry":{"type":"Polygon","coordinates":[[[28.86875,61.235417],[28.872917,61.235417],[28.872917,61.239583],[28.86875,61.239583],[28.86875,61.235417]]]},"properties":{"radiance":12.86}},{"type":"Feature","geometry":{"type":"Polygon","coordinates":[[[28.872917,61.235417],[28.877083,61.235417],[28.877083,61.239583],[28.872917,61.239583],[28.872917,61.235417]]]},"properties":{"radiance":10.01}},{"type":"Feature","geometry":{"type":"Polygon","coordinates":[[[28.877083,61.235417],[28.88125,61.235417],[28.88125,61.239583],[28.877083,61.239583],[28.877083,61.235417]]]},"properties":{"radiance":5.99}},{"type":"Feature","geometry":{"type":"Polygon","coordinates":[[[28.88125,61.235417],[28.885417,61.235417],[28.885417,61.239583],[28.88125,61.239583],[28.88125,61.235417]]]},"properties":{"radiance":7.03}},{"type":"Feature","geometry":{"type":"Polygon","coordinates":[[[28.885417,61.235417],[28.889583,61.235417],[28.889583,61.239583],[28.885417,61.239583],[28.885417,61.235417]]]},"properties":{"radiance":5.32}},{"type":"Feature","geometry":{"type":"Polygon","coordinates":[[[28.80625,61.23125],[28.810417,61.23125],[28.810417,61.235417],[28.80625,61.235417],[28.80625,61.23125]]]},"properties":{"radiance":10.19}},{"type":"Feature","geometry":{"type":"Polygon","coordinates":[[[28.810417,61.23125],[28.814583,61.23125],[28.814583,61.235417],[28.810417,61.235417],[28.810417,61.23125]]]},"properties":{"radiance":21.18}},{"type":"Feature","geometry":{"type":"Polygon","coordinates":[[[28.814583,61.23125],[28.81875,61.23125],[28.81875,61.235417],[28.814583,61.235417],[28.814583,61.23125]]]},"properties":{"radiance":33.09}},{"type":"Feature","geometry":{"type":"Polygon","coordinates":[[[28.81875,61.23125],[28.822917,61.23125],[28.822917,61.235417],[28.81875,61.235417],[28.81875,61.23125]]]},"properties":{"radiance":31.01}},{"type":"Feature","geometry":{"type":"Polygon","coordinates":[[[28.822917,61.23125],[28.827083,61.23125],[28.827083,61.235417],[28.822917,61.235417],[28.822917,61.23125]]]},"properties":{"radiance":31.87}},{"type":"Feature","geometry":{"type":"Polygon","coordinates":[[[28.827083,61.23125],[28.83125,61.23125],[28.83125,61.235417],[28.827083,61.235417],[28.827083,61.23125]]]},"properties":{"radiance":36.27}},{"type":"Feature","geometry":{"type":"Polygon","coordinates":[[[28.83125,61.23125],[28.835417,61.23125],[28.835417,61.235417],[28.83125,61.235417],[28.83125,61.23125]]]},"properties":{"radiance":34.06}},{"type":"Feature","geometry":{"type":"Polygon","coordinates":[[[28.835417,61.23125],[28.839583,61.23125],[28.839583,61.235417],[28.835417,61.235417],[28.835417,61.23125]]]},"properties":{"radiance":33.95}},{"type":"Feature","geometry":{"type":"Polygon","coordinates":[[[28.839583,61.23125],[28.84375,61.23125],[28.84375,61.235417],[28.839583,61.235417],[28.839583,61.23125]]]},"properties":{"radiance":23.05}},{"type":"Feature","geometry":{"type":"Polygon","coordinates":[[[28.84375,61.23125],[28.847917,61.23125],[28.847917,61.235417],[28.84375,61.235417],[28.84375,61.23125]]]},"properties":{"radiance":15.24}},{"type":"Feature","geometry":{"type":"Polygon","coordinates":[[[28.847917,61.23125],[28.852083,61.23125],[28.852083,61.235417],[28.847917,61.235417],[28.847917,61.23125]]]},"properties":{"radiance":15.57}},{"type":"Feature","geometry":{"type":"Polygon","coordinates":[[[28.852083,61.23125],[28.85625,61.23125],[28.85625,61.235417],[28.852083,61.235417],[28.852083,61.23125]]]},"properties":{"radiance":12.56}},{"type":"Feature","geometry":{"type":"Polygon","coordinates":[[[28.85625,61.23125],[28.860417,61.23125],[28.860417,61.235417],[28.85625,61.235417],[28.85625,61.23125]]]},"properties":{"radiance":7.98}},{"type":"Feature","geometry":{"type":"Polygon","coordinates":[[[28.860417,61.23125],[28.864583,61.23125],[28.864583,61.235417],[28.860417,61.235417],[28.860417,61.23125]]]},"properties":{"radiance":7.13}},{"type":"Feature","geometry":{"type":"Polygon","coordinates":[[[28.864583,61.23125],[28.86875,61.23125],[28.86875,61.235417],[28.864583,61.235417],[28.864583,61.23125]]]},"properties":{"radiance":8.19}},{"type":"Feature","geometry":{"type":"Polygon","coordinates":[[[28.797917,61.227083],[28.802083,61.227083],[28.802083,61.23125],[28.797917,61.23125],[28.797917,61.227083]]]},"properties":{"radiance":9.16}},{"type":"Feature","geometry":{"type":"Polygon","coordinates":[[[28.802083,61.227083],[28.80625,61.227083],[28.80625,61.23125],[28.802083,61.23125],[28.802083,61.227083]]]},"properties":{"radiance":18.11}},{"type":"Feature","geometry":{"type":"Polygon","coordinates":[[[28.80625,61.227083],[28.810417,61.227083],[28.810417,61.23125],[28.80625,61.23125],[28.80625,61.227083]]]},"properties":{"radiance":52.97}},{"type":"Feature","geometry":{"type":"Polygon","coordinates":[[[28.810417,61.227083],[28.814583,61.227083],[28.814583,61.23125],[28.810417,61.23125],[28.810417,61.227083]]]},"properties":{"radiance":27.66}},{"type":"Feature","geometry":{"type":"Polygon","coordinates":[[[28.814583,61.227083],[28.81875,61.227083],[28.81875,61.23125],[28.814583,61.23125],[28.814583,61.227083]]]},"properties":{"radiance":29.49}},{"type":"Feature","geometry":{"type":"Polygon","coordinates":[[[28.81875,61.227083],[28.822917,61.227083],[28.822917,61.23125],[28.81875,61.23125],[28.81875,61.227083]]]},"properties":{"radiance":27.89}},{"type":"Feature","geometry":{"type":"Polygon","coordinates":[[[28.822917,61.227083],[28.827083,61.227083],[28.827083,61.23125],[28.822917,61.23125],[28.822917,61.227083]]]},"properties":{"radiance":25.06}},{"type":"Feature","geometry":{"type":"Polygon","coordinates":[[[28.827083,61.227083],[28.83125,61.227083],[28.83125,61.23125],[28.827083,61.23125],[28.827083,61.227083]]]},"properties":{"radiance":34.71}},{"type":"Feature","geometry":{"type":"Polygon","coordinates":[[[28.83125,61.227083],[28.835417,61.227083],[28.835417,61.23125],[28.83125,61.23125],[28.83125,61.227083]]]},"properties":{"radiance":32.87}},{"type":"Feature","geometry":{"type":"Polygon","coordinates":[[[28.835417,61.227083],[28.839583,61.227083],[28.839583,61.23125],[28.835417,61.23125],[28.835417,61.227083]]]},"properties":{"radiance":31.97}},{"type":"Feature","geometry":{"type":"Polygon","coordinates":[[[28.839583,61.227083],[28.84375,61.227083],[28.84375,61.23125],[28.839583,61.23125],[28.839583,61.227083]]]},"properties":{"radiance":20.41}},{"type":"Feature","geometry":{"type":"Polygon","coordinates":[[[28.84375,61.227083],[28.847917,61.227083],[28.847917,61.23125],[28.84375,61.23125],[28.84375,61.227083]]]},"properties":{"radiance":13.75}},{"type":"Feature","geometry":{"type":"Polygon","coordinates":[[[28.847917,61.227083],[28.852083,61.227083],[28.852083,61.23125],[28.847917,61.23125],[28.847917,61.227083]]]},"properties":{"radiance":13.69}},{"type":"Feature","geometry":{"type":"Polygon","coordinates":[[[28.852083,61.227083],[28.85625,61.227083],[28.85625,61.23125],[28.852083,61.23125],[28.852083,61.227083]]]},"properties":{"radiance":5.5}},{"type":"Feature","geometry":{"type":"Polygon","coordinates":[[[28.797917,61.222917],[28.802083,61.222917],[28.802083,61.227083],[28.797917,61.227083],[28.797917,61.222917]]]},"properties":{"radiance":31.12}},{"type":"Feature","geometry":{"type":"Polygon","coordinates":[[[28.802083,61.222917],[28.80625,61.222917],[28.80625,61.227083],[28.802083,61.227083],[28.802083,61.222917]]]},"properties":{"radiance":38.72}},{"type":"Feature","geometry":{"type":"Polygon","coordinates":[[[28.80625,61.222917],[28.810417,61.222917],[28.810417,61.227083],[28.80625,61.227083],[28.80625,61.222917]]]},"properties":{"radiance":36.54}},{"type":"Feature","geometry":{"type":"Polygon","coordinates":[[[28.810417,61.222917],[28.814583,61.222917],[28.814583,61.227083],[28.810417,61.227083],[28.810417,61.222917]]]},"properties":{"radiance":30.84}},{"type":"Feature","geometry":{"type":"Polygon","coordinates":[[[28.814583,61.222917],[28.81875,61.222917],[28.81875,61.227083],[28.814583,61.227083],[28.814583,61.222917]]]},"properties":{"radiance":25}},{"type":"Feature","geometry":{"type":"Polygon","coordinates":[[[28.81875,61.222917],[28.822917,61.222917],[28.822917,61.227083],[28.81875,61.227083],[28.81875,61.222917]]]},"properties":{"radiance":21.23}},{"type":"Feature","geometry":{"type":"Polygon","coordinates":[[[28.822917,61.222917],[28.827083,61.222917],[28.827083,61.227083],[28.822917,61.227083],[28.822917,61.222917]]]},"properties":{"radiance":26.21}},{"type":"Feature","geometry":{"type":"Polygon","coordinates":[[[28.827083,61.222917],[28.83125,61.222917],[28.83125,61.227083],[28.827083,61.227083],[28.827083,61.222917]]]},"properties":{"radiance":26.7}},{"type":"Feature","geometry":{"type":"Polygon","coordinates":[[[28.83125,61.222917],[28.835417,61.222917],[28.835417,61.227083],[28.83125,61.227083],[28.83125,61.222917]]]},"properties":{"radiance":27.74}},{"type":"Feature","geometry":{"type":"Polygon","coordinates":[[[28.835417,61.222917],[28.839583,61.222917],[28.839583,61.227083],[28.835417,61.227083],[28.835417,61.222917]]]},"properties":{"radiance":25.18}},{"type":"Feature","geometry":{"type":"Polygon","coordinates":[[[28.839583,61.222917],[28.84375,61.222917],[28.84375,61.227083],[28.839583,61.227083],[28.839583,61.222917]]]},"properties":{"radiance":28.08}},{"type":"Feature","geometry":{"type":"Polygon","coordinates":[[[28.84375,61.222917],[28.847917,61.222917],[28.847917,61.227083],[28.84375,61.227083],[28.84375,61.222917]]]},"properties":{"radiance":18.45}},{"type":"Feature","geometry":{"type":"Polygon","coordinates":[[[28.847917,61.222917],[28.852083,61.222917],[28.852083,61.227083],[28.847917,61.227083],[28.847917,61.222917]]]},"properties":{"radiance":13.21}},{"type":"Feature","geometry":{"type":"Polygon","coordinates":[[[28.797917,61.21875],[28.802083,61.21875],[28.802083,61.222917],[28.797917,61.222917],[28.797917,61.21875]]]},"properties":{"radiance":23.92}},{"type":"Feature","geometry":{"type":"Polygon","coordinates":[[[28.802083,61.21875],[28.80625,61.21875],[28.80625,61.222917],[28.802083,61.222917],[28.802083,61.21875]]]},"properties":{"radiance":31.5}},{"type":"Feature","geometry":{"type":"Polygon","coordinates":[[[28.80625,61.21875],[28.810417,61.21875],[28.810417,61.222917],[28.80625,61.222917],[28.80625,61.21875]]]},"properties":{"radiance":82.96}},{"type":"Feature","geometry":{"type":"Polygon","coordinates":[[[28.810417,61.21875],[28.814583,61.21875],[28.814583,61.222917],[28.810417,61.222917],[28.810417,61.21875]]]},"properties":{"radiance":70.69}},{"type":"Feature","geometry":{"type":"Polygon","coordinates":[[[28.814583,61.21875],[28.81875,61.21875],[28.81875,61.222917],[28.814583,61.222917],[28.814583,61.21875]]]},"properties":{"radiance":59.96}},{"type":"Feature","geometry":{"type":"Polygon","coordinates":[[[28.81875,61.21875],[28.822917,61.21875],[28.822917,61.222917],[28.81875,61.222917],[28.81875,61.21875]]]},"properties":{"radiance":18.69}},{"type":"Feature","geometry":{"type":"Polygon","coordinates":[[[28.822917,61.21875],[28.827083,61.21875],[28.827083,61.222917],[28.822917,61.222917],[28.822917,61.21875]]]},"properties":{"radiance":16.42}},{"type":"Feature","geometry":{"type":"Polygon","coordinates":[[[28.827083,61.21875],[28.83125,61.21875],[28.83125,61.222917],[28.827083,61.222917],[28.827083,61.21875]]]},"properties":{"radiance":13.49}},{"type":"Feature","geometry":{"type":"Polygon","coordinates":[[[28.83125,61.21875],[28.835417,61.21875],[28.835417,61.222917],[28.83125,61.222917],[28.83125,61.21875]]]},"properties":{"radiance":16.91}},{"type":"Feature","geometry":{"type":"Polygon","coordinates":[[[28.835417,61.21875],[28.839583,61.21875],[28.839583,61.222917],[28.835417,61.222917],[28.835417,61.21875]]]},"properties":{"radiance":14.48}},{"type":"Feature","geometry":{"type":"Polygon","coordinates":[[[28.839583,61.21875],[28.84375,61.21875],[28.84375,61.222917],[28.839583,61.222917],[28.839583,61.21875]]]},"properties":{"radiance":16.04}},{"type":"Feature","geometry":{"type":"Polygon","coordinates":[[[28.84375,61.21875],[28.847917,61.21875],[28.847917,61.222917],[28.84375,61.222917],[28.84375,61.21875]]]},"properties":{"radiance":14.03}},{"type":"Feature","geometry":{"type":"Polygon","coordinates":[[[28.847917,61.21875],[28.852083,61.21875],[28.852083,61.222917],[28.847917,61.222917],[28.847917,61.21875]]]},"properties":{"radiance":13.01}},{"type":"Feature","geometry":{"type":"Polygon","coordinates":[[[28.852083,61.21875],[28.85625,61.21875],[28.85625,61.222917],[28.852083,61.222917],[28.852083,61.21875]]]},"properties":{"radiance":8.37}},{"type":"Feature","geometry":{"type":"Polygon","coordinates":[[[28.797917,61.214583],[28.802083,61.214583],[28.802083,61.21875],[28.797917,61.21875],[28.797917,61.214583]]]},"properties":{"radiance":16.25}},{"type":"Feature","geometry":{"type":"Polygon","coordinates":[[[28.802083,61.214583],[28.80625,61.214583],[28.80625,61.21875],[28.802083,61.21875],[28.802083,61.214583]]]},"properties":{"radiance":71.81}},{"type":"Feature","geometry":{"type":"Polygon","coordinates":[[[28.80625,61.214583],[28.810417,61.214583],[28.810417,61.21875],[28.80625,61.21875],[28.80625,61.214583]]]},"properties":{"radiance":63.16}},{"type":"Feature","geometry":{"type":"Polygon","coordinates":[[[28.810417,61.214583],[28.814583,61.214583],[28.814583,61.21875],[28.810417,61.21875],[28.810417,61.214583]]]},"properties":{"radiance":29.34}},{"type":"Feature","geometry":{"type":"Polygon","coordinates":[[[28.814583,61.214583],[28.81875,61.214583],[28.81875,61.21875],[28.814583,61.21875],[28.814583,61.214583]]]},"properties":{"radiance":21.92}},{"type":"Feature","geometry":{"type":"Polygon","coordinates":[[[28.81875,61.214583],[28.822917,61.214583],[28.822917,61.21875],[28.81875,61.21875],[28.81875,61.214583]]]},"properties":{"radiance":19.97}},{"type":"Feature","geometry":{"type":"Polygon","coordinates":[[[28.822917,61.214583],[28.827083,61.214583],[28.827083,61.21875],[28.822917,61.21875],[28.822917,61.214583]]]},"properties":{"radiance":32.47}},{"type":"Feature","geometry":{"type":"Polygon","coordinates":[[[28.827083,61.214583],[28.83125,61.214583],[28.83125,61.21875],[28.827083,61.21875],[28.827083,61.214583]]]},"properties":{"radiance":11.3}},{"type":"Feature","geometry":{"type":"Polygon","coordinates":[[[28.83125,61.214583],[28.835417,61.214583],[28.835417,61.21875],[28.83125,61.21875],[28.83125,61.214583]]]},"properties":{"radiance":9.59}},{"type":"Feature","geometry":{"type":"Polygon","coordinates":[[[28.835417,61.214583],[28.839583,61.214583],[28.839583,61.21875],[28.835417,61.21875],[28.835417,61.214583]]]},"properties":{"radiance":9.51}},{"type":"Feature","geometry":{"type":"Polygon","coordinates":[[[28.839583,61.214583],[28.84375,61.214583],[28.84375,61.21875],[28.839583,61.21875],[28.839583,61.214583]]]},"properties":{"radiance":10.77}},{"type":"Feature","geometry":{"type":"Polygon","coordinates":[[[28.84375,61.214583],[28.847917,61.214583],[28.847917,61.21875],[28.84375,61.21875],[28.84375,61.214583]]]},"properties":{"radiance":10.53}},{"type":"Feature","geometry":{"type":"Polygon","coordinates":[[[28.847917,61.214583],[28.852083,61.214583],[28.852083,61.21875],[28.847917,61.21875],[28.847917,61.214583]]]},"properties":{"radiance":11.02}},{"type":"Feature","geometry":{"type":"Polygon","coordinates":[[[28.852083,61.214583],[28.85625,61.214583],[28.85625,61.21875],[28.852083,61.21875],[28.852083,61.214583]]]},"properties":{"radiance":9.4}},{"type":"Feature","geometry":{"type":"Polygon","coordinates":[[[28.85625,61.214583],[28.860417,61.214583],[28.860417,61.21875],[28.85625,61.21875],[28.85625,61.214583]]]},"properties":{"radiance":5.5}},{"type":"Feature","geometry":{"type":"Polygon","coordinates":[[[28.797917,61.210417],[28.802083,61.210417],[28.802083,61.214583],[28.797917,61.214583],[28.797917,61.210417]]]},"properties":{"radiance":20.15}},{"type":"Feature","geometry":{"type":"Polygon","coordinates":[[[28.802083,61.210417],[28.80625,61.210417],[28.80625,61.214583],[28.802083,61.214583],[28.802083,61.210417]]]},"properties":{"radiance":60.08}},{"type":"Feature","geometry":{"type":"Polygon","coordinates":[[[28.80625,61.210417],[28.810417,61.210417],[28.810417,61.214583],[28.80625,61.214583],[28.80625,61.210417]]]},"properties":{"radiance":70.35}},{"type":"Feature","geometry":{"type":"Polygon","coordinates":[[[28.810417,61.210417],[28.814583,61.210417],[28.814583,61.214583],[28.810417,61.214583],[28.810417,61.210417]]]},"properties":{"radiance":32.55}},{"type":"Feature","geometry":{"type":"Polygon","coordinates":[[[28.814583,61.210417],[28.81875,61.210417],[28.81875,61.214583],[28.814583,61.214583],[28.814583,61.210417]]]},"properties":{"radiance":25.65}},{"type":"Feature","geometry":{"type":"Polygon","coordinates":[[[28.81875,61.210417],[28.822917,61.210417],[28.822917,61.214583],[28.81875,61.214583],[28.81875,61.210417]]]},"properties":{"radiance":20.92}},{"type":"Feature","geometry":{"type":"Polygon","coordinates":[[[28.822917,61.210417],[28.827083,61.210417],[28.827083,61.214583],[28.822917,61.214583],[28.822917,61.210417]]]},"properties":{"radiance":10}},{"type":"Feature","geometry":{"type":"Polygon","coordinates":[[[28.827083,61.210417],[28.83125,61.210417],[28.83125,61.214583],[28.827083,61.214583],[28.827083,61.210417]]]},"properties":{"radiance":8.76}},{"type":"Feature","geometry":{"type":"Polygon","coordinates":[[[28.83125,61.210417],[28.835417,61.210417],[28.835417,61.214583],[28.83125,61.214583],[28.83125,61.210417]]]},"properties":{"radiance":7.63}},{"type":"Feature","geometry":{"type":"Polygon","coordinates":[[[28.835417,61.210417],[28.839583,61.210417],[28.839583,61.214583],[28.835417,61.214583],[28.835417,61.210417]]]},"properties":{"radiance":5.72}},{"type":"Feature","geometry":{"type":"Polygon","coordinates":[[[28.839583,61.210417],[28.84375,61.210417],[28.84375,61.214583],[28.839583,61.214583],[28.839583,61.210417]]]},"properties":{"radiance":6.47}},{"type":"Feature","geometry":{"type":"Polygon","coordinates":[[[28.84375,61.210417],[28.847917,61.210417],[28.847917,61.214583],[28.84375,61.214583],[28.84375,61.210417]]]},"properties":{"radiance":5.72}},{"type":"Feature","geometry":{"type":"Polygon","coordinates":[[[28.847917,61.210417],[28.852083,61.210417],[28.852083,61.214583],[28.847917,61.214583],[28.847917,61.210417]]]},"properties":{"radiance":5.86}},{"type":"Feature","geometry":{"type":"Polygon","coordinates":[[[28.852083,61.210417],[28.85625,61.210417],[28.85625,61.214583],[28.852083,61.214583],[28.852083,61.210417]]]},"properties":{"radiance":6.15}},{"type":"Feature","geometry":{"type":"Polygon","coordinates":[[[28.85625,61.210417],[28.860417,61.210417],[28.860417,61.214583],[28.85625,61.214583],[28.85625,61.210417]]]},"properties":{"radiance":5.86}},{"type":"Feature","geometry":{"type":"Polygon","coordinates":[[[28.797917,61.20625],[28.802083,61.20625],[28.802083,61.210417],[28.797917,61.210417],[28.797917,61.20625]]]},"properties":{"radiance":11.56}},{"type":"Feature","geometry":{"type":"Polygon","coordinates":[[[28.802083,61.20625],[28.80625,61.20625],[28.80625,61.210417],[28.802083,61.210417],[28.802083,61.20625]]]},"properties":{"radiance":24.86}},{"type":"Feature","geometry":{"type":"Polygon","coordinates":[[[28.80625,61.20625],[28.810417,61.20625],[28.810417,61.210417],[28.80625,61.210417],[28.80625,61.20625]]]},"properties":{"radiance":61.76}},{"type":"Feature","geometry":{"type":"Polygon","coordinates":[[[28.810417,61.20625],[28.814583,61.20625],[28.814583,61.210417],[28.810417,61.210417],[28.810417,61.20625]]]},"properties":{"radiance":27.32}},{"type":"Feature","geometry":{"type":"Polygon","coordinates":[[[28.814583,61.20625],[28.81875,61.20625],[28.81875,61.210417],[28.814583,61.210417],[28.814583,61.20625]]]},"properties":{"radiance":25.66}},{"type":"Feature","geometry":{"type":"Polygon","coordinates":[[[28.81875,61.20625],[28.822917,61.20625],[28.822917,61.210417],[28.81875,61.210417],[28.81875,61.20625]]]},"properties":{"radiance":12.67}},{"type":"Feature","geometry":{"type":"Polygon","coordinates":[[[28.822917,61.20625],[28.827083,61.20625],[28.827083,61.210417],[28.822917,61.210417],[28.822917,61.20625]]]},"properties":{"radiance":7.68}},{"type":"Feature","geometry":{"type":"Polygon","coordinates":[[[28.827083,61.20625],[28.83125,61.20625],[28.83125,61.210417],[28.827083,61.210417],[28.827083,61.20625]]]},"properties":{"radiance":6.01}},{"type":"Feature","geometry":{"type":"Polygon","coordinates":[[[28.797917,61.202083],[28.802083,61.202083],[28.802083,61.20625],[28.797917,61.20625],[28.797917,61.202083]]]},"properties":{"radiance":12.99}},{"type":"Feature","geometry":{"type":"Polygon","coordinates":[[[28.802083,61.202083],[28.80625,61.202083],[28.80625,61.20625],[28.802083,61.20625],[28.802083,61.202083]]]},"properties":{"radiance":18.69}},{"type":"Feature","geometry":{"type":"Polygon","coordinates":[[[28.80625,61.202083],[28.810417,61.202083],[28.810417,61.20625],[28.80625,61.20625],[28.80625,61.202083]]]},"properties":{"radiance":21.08}},{"type":"Feature","geometry":{"type":"Polygon","coordinates":[[[28.810417,61.202083],[28.814583,61.202083],[28.814583,61.20625],[28.810417,61.20625],[28.810417,61.202083]]]},"properties":{"radiance":21.27}},{"type":"Feature","geometry":{"type":"Polygon","coordinates":[[[28.814583,61.202083],[28.81875,61.202083],[28.81875,61.20625],[28.814583,61.20625],[28.814583,61.202083]]]},"properties":{"radiance":15.74}},{"type":"Feature","geometry":{"type":"Polygon","coordinates":[[[28.81875,61.202083],[28.822917,61.202083],[28.822917,61.20625],[28.81875,61.20625],[28.81875,61.202083]]]},"properties":{"radiance":10.4}},{"type":"Feature","geometry":{"type":"Polygon","coordinates":[[[28.822917,61.202083],[28.827083,61.202083],[28.827083,61.20625],[28.822917,61.20625],[28.822917,61.202083]]]},"properties":{"radiance":7.11}},{"type":"Feature","geometry":{"type":"Polygon","coordinates":[[[28.797917,61.197917],[28.802083,61.197917],[28.802083,61.202083],[28.797917,61.202083],[28.797917,61.197917]]]},"properties":{"radiance":12.22}},{"type":"Feature","geometry":{"type":"Polygon","coordinates":[[[28.802083,61.197917],[28.80625,61.197917],[28.80625,61.202083],[28.802083,61.202083],[28.802083,61.197917]]]},"properties":{"radiance":12.46}},{"type":"Feature","geometry":{"type":"Polygon","coordinates":[[[28.80625,61.197917],[28.810417,61.197917],[28.810417,61.202083],[28.80625,61.202083],[28.80625,61.197917]]]},"properties":{"radiance":16.96}},{"type":"Feature","geometry":{"type":"Polygon","coordinates":[[[28.810417,61.197917],[28.814583,61.197917],[28.814583,61.202083],[28.810417,61.202083],[28.810417,61.197917]]]},"properties":{"radiance":17.34}},{"type":"Feature","geometry":{"type":"Polygon","coordinates":[[[28.814583,61.197917],[28.81875,61.197917],[28.81875,61.202083],[28.814583,61.202083],[28.814583,61.197917]]]},"properties":{"radiance":14.15}},{"type":"Feature","geometry":{"type":"Polygon","coordinates":[[[28.81875,61.197917],[28.822917,61.197917],[28.822917,61.202083],[28.81875,61.202083],[28.81875,61.197917]]]},"properties":{"radiance":8.45}},{"type":"Feature","geometry":{"type":"Polygon","coordinates":[[[28.797917,61.19375],[28.802083,61.19375],[28.802083,61.197917],[28.797917,61.197917],[28.797917,61.19375]]]},"properties":{"radiance":6.83}},{"type":"Feature","geometry":{"type":"Polygon","coordinates":[[[28.802083,61.19375],[28.80625,61.19375],[28.80625,61.197917],[28.802083,61.197917],[28.802083,61.19375]]]},"properties":{"radiance":8.37}},{"type":"Feature","geometry":{"type":"Polygon","coordinates":[[[28.80625,61.19375],[28.810417,61.19375],[28.810417,61.197917],[28.80625,61.197917],[28.80625,61.19375]]]},"properties":{"radiance":8.97}},{"type":"Feature","geometry":{"type":"Polygon","coordinates":[[[28.810417,61.19375],[28.814583,61.19375],[28.814583,61.197917],[28.810417,61.197917],[28.810417,61.19375]]]},"properties":{"radiance":8.43}},{"type":"Feature","geometry":{"type":"Polygon","coordinates":[[[28.814583,61.19375],[28.81875,61.19375],[28.81875,61.197917],[28.814583,61.197917],[28.814583,61.19375]]]},"properties":{"radiance":10.39}},{"type":"Feature","geometry":{"type":"Polygon","coordinates":[[[28.81875,61.19375],[28.822917,61.19375],[28.822917,61.197917],[28.81875,61.197917],[28.81875,61.19375]]]},"properties":{"radiance":8.03}},{"type":"Feature","geometry":{"type":"Polygon","coordinates":[[[28.797917,61.189583],[28.802083,61.189583],[28.802083,61.19375],[28.797917,61.19375],[28.797917,61.189583]]]},"properties":{"radiance":6.83}},{"type":"Feature","geometry":{"type":"Polygon","coordinates":[[[28.802083,61.189583],[28.80625,61.189583],[28.80625,61.19375],[28.802083,61.19375],[28.802083,61.189583]]]},"properties":{"radiance":7.66}},{"type":"Feature","geometry":{"type":"Polygon","coordinates":[[[28.80625,61.189583],[28.810417,61.189583],[28.810417,61.19375],[28.80625,61.19375],[28.80625,61.189583]]]},"properties":{"radiance":8.45}},{"type":"Feature","geometry":{"type":"Polygon","coordinates":[[[28.810417,61.189583],[28.814583,61.189583],[28.814583,61.19375],[28.810417,61.19375],[28.810417,61.189583]]]},"properties":{"radiance":8.08}},{"type":"Feature","geometry":{"type":"Polygon","coordinates":[[[28.814583,61.189583],[28.81875,61.189583],[28.81875,61.19375],[28.814583,61.19375],[28.814583,61.189583]]]},"properties":{"radiance":6.08}},{"type":"Feature","geometry":{"type":"Polygon","coordinates":[[[28.797917,61.185417],[28.802083,61.185417],[28.802083,61.189583],[28.797917,61.189583],[28.797917,61.185417]]]},"properties":{"radiance":7.88}},{"type":"Feature","geometry":{"type":"Polygon","coordinates":[[[28.802083,61.185417],[28.80625,61.185417],[28.80625,61.189583],[28.802083,61.189583],[28.802083,61.185417]]]},"properties":{"radiance":8.27}},{"type":"Feature","geometry":{"type":"Polygon","coordinates":[[[28.80625,61.185417],[28.810417,61.185417],[28.810417,61.189583],[28.80625,61.189583],[28.80625,61.185417]]]},"properties":{"radiance":7.94}},{"type":"Feature","geometry":{"type":"Polygon","coordinates":[[[28.810417,61.185417],[28.814583,61.185417],[28.814583,61.189583],[28.810417,61.189583],[28.810417,61.185417]]]},"properties":{"radiance":6.83}},{"type":"Feature","geometry":{"type":"Polygon","coordinates":[[[28.797917,61.18125],[28.802083,61.18125],[28.802083,61.185417],[28.797917,61.185417],[28.797917,61.18125]]]},"properties":{"radiance":8.72}},{"type":"Feature","geometry":{"type":"Polygon","coordinates":[[[28.802083,61.18125],[28.80625,61.18125],[28.80625,61.185417],[28.802083,61.185417],[28.802083,61.18125]]]},"properties":{"radiance":9.26}},{"type":"Feature","geometry":{"type":"Polygon","coordinates":[[[28.80625,61.18125],[28.810417,61.18125],[28.810417,61.185417],[28.80625,61.185417],[28.80625,61.18125]]]},"properties":{"radiance":8.03}},{"type":"Feature","geometry":{"type":"Polygon","coordinates":[[[28.810417,61.18125],[28.814583,61.18125],[28.814583,61.185417],[28.810417,61.185417],[28.810417,61.18125]]]},"properties":{"radiance":5.81}},{"type":"Feature","geometry":{"type":"Polygon","coordinates":[[[28.797917,61.177083],[28.802083,61.177083],[28.802083,61.18125],[28.797917,61.18125],[28.797917,61.177083]]]},"properties":{"radiance":8.71}},{"type":"Feature","geometry":{"type":"Polygon","coordinates":[[[28.802083,61.177083],[28.80625,61.177083],[28.80625,61.18125],[28.802083,61.18125],[28.802083,61.177083]]]},"properties":{"radiance":8.51}},{"type":"Feature","geometry":{"type":"Polygon","coordinates":[[[28.80625,61.177083],[28.810417,61.177083],[28.810417,61.18125],[28.80625,61.18125],[28.80625,61.177083]]]},"properties":{"radiance":6.88}},{"type":"Feature","geometry":{"type":"Polygon","coordinates":[[[28.797917,61.172917],[28.802083,61.172917],[28.802083,61.177083],[28.797917,61.177083],[28.797917,61.172917]]]},"properties":{"radiance":10.95}},{"type":"Feature","geometry":{"type":"Polygon","coordinates":[[[28.802083,61.172917],[28.80625,61.172917],[28.80625,61.177083],[28.802083,61.177083],[28.802083,61.172917]]]},"properties":{"radiance":6.37}},{"type":"Feature","geometry":{"type":"Polygon","coordinates":[[[28.797917,61.16875],[28.802083,61.16875],[28.802083,61.172917],[28.797917,61.172917],[28.797917,61.16875]]]},"properties":{"radiance":13.95}},{"type":"Feature","geometry":{"type":"Polygon","coordinates":[[[28.802083,61.16875],[28.80625,61.16875],[28.80625,61.172917],[28.802083,61.172917],[28.802083,61.16875]]]},"properties":{"radiance":8.15}},{"type":"Feature","geometry":{"type":"Polygon","coordinates":[[[28.797917,61.164583],[28.802083,61.164583],[28.802083,61.16875],[28.797917,61.16875],[28.797917,61.164583]]]},"properties":{"radiance":13.8}},{"type":"Feature","geometry":{"type":"Polygon","coordinates":[[[28.802083,61.164583],[28.80625,61.164583],[28.80625,61.16875],[28.802083,61.16875],[28.802083,61.164583]]]},"properties":{"radiance":14.79}},{"type":"Feature","geometry":{"type":"Polygon","coordinates":[[[28.80625,61.164583],[28.810417,61.164583],[28.810417,61.16875],[28.80625,61.16875],[28.80625,61.164583]]]},"properties":{"radiance":14.64}},{"type":"Feature","geometry":{"type":"Polygon","coordinates":[[[28.797917,61.160417],[28.802083,61.160417],[28.802083,61.164583],[28.797917,61.164583],[28.797917,61.160417]]]},"properties":{"radiance":15.73}},{"type":"Feature","geometry":{"type":"Polygon","coordinates":[[[28.802083,61.160417],[28.80625,61.160417],[28.80625,61.164583],[28.802083,61.164583],[28.802083,61.160417]]]},"properties":{"radiance":15.42}},{"type":"Feature","geometry":{"type":"Polygon","coordinates":[[[28.80625,61.160417],[28.810417,61.160417],[28.810417,61.164583],[28.80625,61.164583],[28.80625,61.160417]]]},"properties":{"radiance":14.78}},{"type":"Feature","geometry":{"type":"Polygon","coordinates":[[[28.797917,61.15625],[28.802083,61.15625],[28.802083,61.160417],[28.797917,61.160417],[28.797917,61.15625]]]},"properties":{"radiance":14.88}},{"type":"Feature","geometry":{"type":"Polygon","coordinates":[[[28.802083,61.15625],[28.80625,61.15625],[28.80625,61.160417],[28.802083,61.160417],[28.802083,61.15625]]]},"properties":{"radiance":14.81}},{"type":"Feature","geometry":{"type":"Polygon","coordinates":[[[28.80625,61.15625],[28.810417,61.15625],[28.810417,61.160417],[28.80625,61.160417],[28.80625,61.15625]]]},"properties":{"radiance":6.6}},{"type":"Feature","geometry":{"type":"Polygon","coordinates":[[[28.810417,61.15625],[28.814583,61.15625],[28.814583,61.160417],[28.810417,61.160417],[28.810417,61.15625]]]},"properties":{"radiance":5.5}},{"type":"Feature","geometry":{"type":"Polygon","coordinates":[[[28.797917,61.152083],[28.802083,61.152083],[28.802083,61.15625],[28.797917,61.15625],[28.797917,61.152083]]]},"properties":{"radiance":51.9}},{"type":"Feature","geometry":{"type":"Polygon","coordinates":[[[28.802083,61.152083],[28.80625,61.152083],[28.80625,61.15625],[28.802083,61.15625],[28.802083,61.152083]]]},"properties":{"radiance":16.47}},{"type":"Feature","geometry":{"type":"Polygon","coordinates":[[[28.80625,61.152083],[28.810417,61.152083],[28.810417,61.15625],[28.80625,61.15625],[28.80625,61.152083]]]},"properties":{"radiance":13.53}},{"type":"Feature","geometry":{"type":"Polygon","coordinates":[[[28.810417,61.152083],[28.814583,61.152083],[28.814583,61.15625],[28.810417,61.15625],[28.810417,61.152083]]]},"properties":{"radiance":12.1}},{"type":"Feature","geometry":{"type":"Polygon","coordinates":[[[28.814583,61.152083],[28.81875,61.152083],[28.81875,61.15625],[28.814583,61.15625],[28.814583,61.152083]]]},"properties":{"radiance":7.71}},{"type":"Feature","geometry":{"type":"Polygon","coordinates":[[[28.797917,61.147917],[28.802083,61.147917],[28.802083,61.152083],[28.797917,61.152083],[28.797917,61.147917]]]},"properties":{"radiance":46.78}},{"type":"Feature","geometry":{"type":"Polygon","coordinates":[[[28.802083,61.147917],[28.80625,61.147917],[28.80625,61.152083],[28.802083,61.152083],[28.802083,61.147917]]]},"properties":{"radiance":46.49}},{"type":"Feature","geometry":{"type":"Polygon","coordinates":[[[28.80625,61.147917],[28.810417,61.147917],[28.810417,61.152083],[28.80625,61.152083],[28.80625,61.147917]]]},"properties":{"radiance":18.83}},{"type":"Feature","geometry":{"type":"Polygon","coordinates":[[[28.810417,61.147917],[28.814583,61.147917],[28.814583,61.152083],[28.810417,61.152083],[28.810417,61.147917]]]},"properties":{"radiance":15.33}},{"type":"Feature","geometry":{"type":"Polygon","coordinates":[[[28.797917,61.14375],[28.802083,61.14375],[28.802083,61.147917],[28.797917,61.147917],[28.797917,61.14375]]]},"properties":{"radiance":18.09}},{"type":"Feature","geometry":{"type":"Polygon","coordinates":[[[28.802083,61.14375],[28.80625,61.14375],[28.80625,61.147917],[28.802083,61.147917],[28.802083,61.14375]]]},"properties":{"radiance":30.21}},{"type":"Feature","geometry":{"type":"Polygon","coordinates":[[[28.80625,61.14375],[28.810417,61.14375],[28.810417,61.147917],[28.80625,61.147917],[28.80625,61.14375]]]},"properties":{"radiance":15.49}},{"type":"Feature","geometry":{"type":"Polygon","coordinates":[[[28.810417,61.14375],[28.814583,61.14375],[28.814583,61.147917],[28.810417,61.147917],[28.810417,61.14375]]]},"properties":{"radiance":7.96}},{"type":"Feature","geometry":{"type":"Polygon","coordinates":[[[28.814583,61.14375],[28.81875,61.14375],[28.81875,61.147917],[28.814583,61.147917],[28.814583,61.14375]]]},"properties":{"radiance":7.64}},{"type":"Feature","geometry":{"type":"Polygon","coordinates":[[[28.802083,61.139583],[28.80625,61.139583],[28.80625,61.14375],[28.802083,61.14375],[28.802083,61.139583]]]},"properties":{"radiance":5.49}},{"type":"Feature","geometry":{"type":"Polygon","coordinates":[[[28.80625,61.139583],[28.810417,61.139583],[28.810417,61.14375],[28.80625,61.14375],[28.80625,61.139583]]]},"properties":{"radiance":10.26}},{"type":"Feature","geometry":{"type":"Polygon","coordinates":[[[28.810417,61.139583],[28.814583,61.139583],[28.814583,61.14375],[28.810417,61.14375],[28.810417,61.139583]]]},"properties":{"radiance":9.66}},{"type":"Feature","geometry":{"type":"Polygon","coordinates":[[[28.814583,61.139583],[28.81875,61.139583],[28.81875,61.14375],[28.814583,61.14375],[28.814583,61.139583]]]},"properties":{"radiance":9.13}},{"type":"Feature","geometry":{"type":"Polygon","coordinates":[[[28.80625,61.135417],[28.810417,61.135417],[28.810417,61.139583],[28.80625,61.139583],[28.80625,61.135417]]]},"properties":{"radiance":11.89}},{"type":"Feature","geometry":{"type":"Polygon","coordinates":[[[28.810417,61.135417],[28.814583,61.135417],[28.814583,61.139583],[28.810417,61.139583],[28.810417,61.135417]]]},"properties":{"radiance":13.54}},{"type":"Feature","geometry":{"type":"Polygon","coordinates":[[[28.814583,61.135417],[28.81875,61.135417],[28.81875,61.139583],[28.814583,61.139583],[28.814583,61.135417]]]},"properties":{"radiance":15.73}},{"type":"Feature","geometry":{"type":"Polygon","coordinates":[[[28.81875,61.135417],[28.822917,61.135417],[28.822917,61.139583],[28.81875,61.139583],[28.81875,61.135417]]]},"properties":{"radiance":32.65}},{"type":"Feature","geometry":{"type":"Polygon","coordinates":[[[28.822917,61.135417],[28.827083,61.135417],[28.827083,61.139583],[28.822917,61.139583],[28.822917,61.135417]]]},"properties":{"radiance":19.66}},{"type":"Feature","geometry":{"type":"Polygon","coordinates":[[[28.827083,61.135417],[28.83125,61.135417],[28.83125,61.139583],[28.827083,61.139583],[28.827083,61.135417]]]},"properties":{"radiance":13.96}},{"type":"Feature","geometry":{"type":"Polygon","coordinates":[[[28.80625,61.13125],[28.810417,61.13125],[28.810417,61.135417],[28.80625,61.135417],[28.80625,61.13125]]]},"properties":{"radiance":6.63}},{"type":"Feature","geometry":{"type":"Polygon","coordinates":[[[28.810417,61.13125],[28.814583,61.13125],[28.814583,61.135417],[28.810417,61.135417],[28.810417,61.13125]]]},"properties":{"radiance":48.71}},{"type":"Feature","geometry":{"type":"Polygon","coordinates":[[[28.814583,61.13125],[28.81875,61.13125],[28.81875,61.135417],[28.814583,61.135417],[28.814583,61.13125]]]},"properties":{"radiance":42.84}},{"type":"Feature","geometry":{"type":"Polygon","coordinates":[[[28.81875,61.13125],[28.822917,61.13125],[28.822917,61.135417],[28.81875,61.135417],[28.81875,61.13125]]]},"properties":{"radiance":73.36}},{"type":"Feature","geometry":{"type":"Polygon","coordinates":[[[28.822917,61.13125],[28.827083,61.13125],[28.827083,61.135417],[28.822917,61.135417],[28.822917,61.13125]]]},"properties":{"radiance":57.64}},{"type":"Feature","geometry":{"type":"Polygon","coordinates":[[[28.827083,61.13125],[28.83125,61.13125],[28.83125,61.135417],[28.827083,61.135417],[28.827083,61.13125]]]},"properties":{"radiance":53.36}},{"type":"Feature","geometry":{"type":"Polygon","coordinates":[[[28.83125,61.13125],[28.835417,61.13125],[28.835417,61.135417],[28.83125,61.135417],[28.83125,61.13125]]]},"properties":{"radiance":47.93}},{"type":"Feature","geometry":{"type":"Polygon","coordinates":[[[28.835417,61.13125],[28.839583,61.13125],[28.839583,61.135417],[28.835417,61.135417],[28.835417,61.13125]]]},"properties":{"radiance":9.35}},{"type":"Feature","geometry":{"type":"Polygon","coordinates":[[[28.814583,61.127083],[28.81875,61.127083],[28.81875,61.13125],[28.814583,61.13125],[28.814583,61.127083]]]},"properties":{"radiance":36.71}},{"type":"Feature","geometry":{"type":"Polygon","coordinates":[[[28.81875,61.127083],[28.822917,61.127083],[28.822917,61.13125],[28.81875,61.13125],[28.81875,61.127083]]]},"properties":{"radiance":39.44}},{"type":"Feature","geometry":{"type":"Polygon","coordinates":[[[28.822917,61.127083],[28.827083,61.127083],[28.827083,61.13125],[28.822917,61.13125],[28.822917,61.127083]]]},"properties":{"radiance":40.53}},{"type":"Feature","geometry":{"type":"Polygon","coordinates":[[[28.827083,61.127083],[28.83125,61.127083],[28.83125,61.13125],[28.827083,61.13125],[28.827083,61.127083]]]},"properties":{"radiance":58.69}},{"type":"Feature","geometry":{"type":"Polygon","coordinates":[[[28.83125,61.127083],[28.835417,61.127083],[28.835417,61.13125],[28.83125,61.13125],[28.83125,61.127083]]]},"properties":{"radiance":27.52}},{"type":"Feature","geometry":{"type":"Polygon","coordinates":[[[28.835417,61.127083],[28.839583,61.127083],[28.839583,61.13125],[28.835417,61.13125],[28.835417,61.127083]]]},"properties":{"radiance":16.04}},{"type":"Feature","geometry":{"type":"Polygon","coordinates":[[[28.839583,61.127083],[28.84375,61.127083],[28.84375,61.13125],[28.839583,61.13125],[28.839583,61.127083]]]},"properties":{"radiance":12.33}},{"type":"Feature","geometry":{"type":"Polygon","coordinates":[[[28.84375,61.127083],[28.847917,61.127083],[28.847917,61.13125],[28.84375,61.13125],[28.84375,61.127083]]]},"properties":{"radiance":10.38}},{"type":"Feature","geometry":{"type":"Polygon","coordinates":[[[28.847917,61.127083],[28.852083,61.127083],[28.852083,61.13125],[28.847917,61.13125],[28.847917,61.127083]]]},"properties":{"radiance":7.86}},{"type":"Feature","geometry":{"type":"Polygon","coordinates":[[[28.822917,61.122917],[28.827083,61.122917],[28.827083,61.127083],[28.822917,61.127083],[28.822917,61.122917]]]},"properties":{"radiance":15.03}},{"type":"Feature","geometry":{"type":"Polygon","coordinates":[[[28.827083,61.122917],[28.83125,61.122917],[28.83125,61.127083],[28.827083,61.127083],[28.827083,61.122917]]]},"properties":{"radiance":19.61}},{"type":"Feature","geometry":{"type":"Polygon","coordinates":[[[28.83125,61.122917],[28.835417,61.122917],[28.835417,61.127083],[28.83125,61.127083],[28.83125,61.122917]]]},"properties":{"radiance":29.84}},{"type":"Feature","geometry":{"type":"Polygon","coordinates":[[[28.835417,61.122917],[28.839583,61.122917],[28.839583,61.127083],[28.835417,61.127083],[28.835417,61.122917]]]},"properties":{"radiance":15.31}},{"type":"Feature","geometry":{"type":"Polygon","coordinates":[[[28.839583,61.122917],[28.84375,61.122917],[28.84375,61.127083],[28.839583,61.127083],[28.839583,61.122917]]]},"properties":{"radiance":19.86}}]}