{"type":"FeatureCollection","features":[{"type":"Feature","geometry":{"type":"Polygon","coordinates":[[[27.114583,68.110417],[27.11875,68.110417],[27.11875,68.114583],[27.114583,68.114583],[27.114583,68.110417]]]},"properties":{"radiance":6.05}},{"type":"Feature","geometry":{"type":"Polygon","coordinates":[[[27.11875,68.110417],[27.122917,68.110417],[27.122917,68.114583],[27.11875,68.114583],[27.11875,68.110417]]]},"properties":{"radiance":12.93}},{"type":"Feature","geometry":{"type":"Polygon","coordinates":[[[27.122917,68.110417],[27.127083,68.110417],[27.127083,68.114583],[27.122917,68.114583],[27.122917,68.110417]]]},"properties":{"radiance":5.57}},{"type":"Feature","geometry":{"type":"Polygon","coordinates":[[[27.127083,68.110417],[27.13125,68.110417],[27.13125,68.114583],[27.127083,68.114583],[27.127083,68.110417]]]},"properties":{"radiance":8.58}},{"type":"Feature","geometry":{"type":"Polygon","coordinates":[[[27.13125,68.110417],[27.135417,68.110417],[27.135417,68.114583],[27.13125,68.114583],[27.13125,68.110417]]]},"properties":{"radiance":5.69}},{"type":"Feature","geometry":{"type":"Polygon","coordinates":[[[27.114583,68.10625],[27.11875,68.10625],[27.11875,68.110417],[27.114583,68.110417],[27.114583,68.10625]]]},"properties":{"radiance":7.52}},{"type":"Feature","geometry":{"type":"Polygon","coordinates":[[[27.11875,68.10625],[27.122917,68.10625],[27.122917,68.110417],[27.11875,68.110417],[27.11875,68.10625]]]},"properties":{"radiance":9.17}},{"type":"Feature","geometry":{"type":"Polygon","coordinates":[[[27.122917,68.10625],[27.127083,68.10625],[27.127083,68.110417],[27.122917,68.110417],[27.122917,68.10625]]]},"properties":{"radiance":7.61}},{"type":"Feature","geometry":{"type":"Polygon","coordinates":[[[27.127083,68.10625],[27.13125,68.10625],[27.13125,68.110417],[27.127083,68.110417],[27.127083,68.10625]]]},"properties":{"radiance":7.06}},{"type":"Feature","geometry":{"type":"Polygon","coordinates":[[[27.13125,68.10625],[27.135417,68.10625],[27.135417,68.110417],[27.13125,68.110417],[27.13125,68.10625]]]},"properties":{"radiance":5.66}},{"type":"Feature","geometry":{"type":"Polygon","coordinates":[[[27.110417,68.102083],[27.114583,68.102083],[27.114583,68.10625],[27.110417,68.10625],[27.110417,68.102083]]]},"properties":{"radiance":5.25}},{"type":"Feature","geometry":{"type":"Polygon","coordinates":[[[27.114583,68.102083],[27.11875,68.102083],[27.11875,68.10625],[27.114583,68.10625],[27.114583,68.102083]]]},"properties":{"radiance":11.18}},{"type":"Feature","geometry":{"type":"Polygon","coordinates":[[[27.11875,68.102083],[27.122917,68.102083],[27.122917,68.10625],[27.11875,68.10625],[27.11875,68.102083]]]},"properties":{"radiance":6.46}},{"type":"Feature","geometry":{"type":"Polygon","coordinates":[[[27.122917,68.102083],[27.127083,68.102083],[27.127083,68.10625],[27.122917,68.10625],[27.122917,68.102083]]]},"properties":{"radiance":6.25}},{"type":"Feature","geometry":{"type":"Polygon","coordinates":[[[27.127083,68.102083],[27.13125,68.102083],[27.13125,68.10625],[27.127083,68.10625],[27.127083,68.102083]]]},"properties":{"radiance":11.83}},{"type":"Feature","geometry":{"type":"Polygon","coordinates":[[[26.947917,67.70625],[26.952083,67.70625],[26.952083,67.710417],[26.947917,67.710417],[26.947917,67.70625]]]},"properties":{"radiance":6.62}},{"type":"Feature","geometry":{"type":"Polygon","coordinates":[[[26.952083,67.70625],[26.95625,67.70625],[26.95625,67.710417],[26.952083,67.710417],[26.952083,67.70625]]]},"properties":{"radiance":8.98}},{"type":"Feature","geometry":{"type":"Polygon","coordinates":[[[26.960417,67.70625],[26.964583,67.70625],[26.964583,67.710417],[26.960417,67.710417],[26.960417,67.70625]]]},"properties":{"radiance":8.55}},{"type":"Feature","geometry":{"type":"Polygon","coordinates":[[[26.96875,67.70625],[26.972917,67.70625],[26.972917,67.710417],[26.96875,67.710417],[26.96875,67.70625]]]},"properties":{"radiance":9.38}},{"type":"Feature","geometry":{"type":"Polygon","coordinates":[[[26.972917,67.70625],[26.977083,67.70625],[26.977083,67.710417],[26.972917,67.710417],[26.972917,67.70625]]]},"properties":{"radiance":7}},{"type":"Feature","geometry":{"type":"Polygon","coordinates":[[[26.922917,67.702083],[26.927083,67.702083],[26.927083,67.70625],[26.922917,67.70625],[26.922917,67.702083]]]},"properties":{"radiance":10.42}},{"type":"Feature","geometry":{"type":"Polygon","coordinates":[[[26.952083,67.702083],[26.95625,67.702083],[26.95625,67.70625],[26.952083,67.70625],[26.952083,67.702083]]]},"properties":{"radiance":5.81}},{"type":"Feature","geometry":{"type":"Polygon","coordinates":[[[26.95625,67.702083],[26.960417,67.702083],[26.960417,67.70625],[26.95625,67.70625],[26.95625,67.702083]]]},"properties":{"radiance":6.11}},{"type":"Feature","geometry":{"type":"Polygon","coordinates":[[[26.960417,67.702083],[26.964583,67.702083],[26.964583,67.70625],[26.960417,67.70625],[26.960417,67.702083]]]},"properties":{"radiance":7.49}},{"type":"Feature","geometry":{"type":"Polygon","coordinates":[[[26.964583,67.702083],[26.96875,67.702083],[26.96875,67.70625],[26.964583,67.70625],[26.964583,67.702083]]]},"properties":{"radiance":10.8}},{"type":"Feature","geometry":{"type":"Polygon","coordinates":[[[26.96875,67.702083],[26.972917,67.702083],[26.972917,67.70625],[26.96875,67.70625],[26.96875,67.702083]]]},"properties":{"radiance":11.07}},{"type":"Feature","geometry":{"type":"Polygon","coordinates":[[[26.972917,67.702083],[26.977083,67.702083],[26.977083,67.70625],[26.972917,67.70625],[26.972917,67.702083]]]},"properties":{"radiance":6.19}},{"type":"Feature","geometry":{"type":"Polygon","coordinates":[[[26.914583,67.697917],[26.91875,67.697917],[26.91875,67.702083],[26.914583,67.702083],[26.914583,67.697917]]]},"properties":{"radiance":13.28}},{"type":"Feature","geometry":{"type":"Polygon","coordinates":[[[26.91875,67.697917],[26.922917,67.697917],[26.922917,67.702083],[26.91875,67.702083],[26.91875,67.697917]]]},"properties":{"radiance":5.89}},{"type":"Feature","geometry":{"type":"Polygon","coordinates":[[[26.922917,67.697917],[26.927083,67.697917],[26.927083,67.702083],[26.922917,67.702083],[26.922917,67.697917]]]},"properties":{"radiance":15.36}},{"type":"Feature","geometry":{"type":"Polygon","coordinates":[[[26.927083,67.697917],[26.93125,67.697917],[26.93125,67.702083],[26.927083,67.702083],[26.927083,67.697917]]]},"properties":{"radiance":67.21}},{"type":"Feature","geometry":{"type":"Polygon","coordinates":[[[26.93125,67.697917],[26.935417,67.697917],[26.935417,67.702083],[26.93125,67.702083],[26.93125,67.697917]]]},"properties":{"radiance":67.19}},{"type":"Feature","geometry":{"type":"Polygon","coordinates":[[[26.935417,67.697917],[26.939583,67.697917],[26.939583,67.702083],[26.935417,67.702083],[26.935417,67.697917]]]},"properties":{"radiance":46.82}},{"type":"Feature","geometry":{"type":"Polygon","coordinates":[[[26.939583,67.697917],[26.94375,67.697917],[26.94375,67.702083],[26.939583,67.702083],[26.939583,67.697917]]]},"properties":{"radiance":28.42}},{"type":"Feature","geometry":{"type":"Polygon","coordinates":[[[26.94375,67.697917],[26.947917,67.697917],[26.947917,67.702083],[26.94375,67.702083],[26.94375,67.697917]]]},"properties":{"radiance":8.69}},{"type":"Feature","geometry":{"type":"Polygon","coordinates":[[[26.947917,67.697917],[26.952083,67.697917],[26.952083,67.702083],[26.947917,67.702083],[26.947917,67.697917]]]},"properties":{"radiance":30.86}},{"type":"Feature","geometry":{"type":"Polygon","coordinates":[[[26.952083,67.697917],[26.95625,67.697917],[26.95625,67.702083],[26.952083,67.702083],[26.952083,67.697917]]]},"properties":{"radiance":14.7}},{"type":"Feature","geometry":{"type":"Polygon","coordinates":[[[26.95625,67.697917],[26.960417,67.697917],[26.960417,67.702083],[26.95625,67.702083],[26.95625,67.697917]]]},"properties":{"radiance":14.89}},{"type":"Feature","geometry":{"type":"Polygon","coordinates":[[[26.960417,67.697917],[26.964583,67.697917],[26.964583,67.702083],[26.960417,67.702083],[26.960417,67.697917]]]},"properties":{"radiance":25.4}},{"type":"Feature","geometry":{"type":"Polygon","coordinates":[[[26.964583,67.697917],[26.96875,67.697917],[26.96875,67.702083],[26.964583,67.702083],[26.964583,67.697917]]]},"properties":{"radiance":21.28}},{"type":"Feature","geometry":{"type":"Polygon","coordinates":[[[26.96875,67.697917],[26.972917,67.697917],[26.972917,67.702083],[26.96875,67.702083],[26.96875,67.697917]]]},"properties":{"radiance":23.19}},{"type":"Feature","geometry":{"type":"Polygon","coordinates":[[[26.972917,67.697917],[26.977083,67.697917],[26.977083,67.702083],[26.972917,67.702083],[26.972917,67.697917]]]},"properties":{"radiance":7.58}},{"type":"Feature","geometry":{"type":"Polygon","coordinates":[[[26.977083,67.697917],[26.98125,67.697917],[26.98125,67.702083],[26.977083,67.702083],[26.977083,67.697917]]]},"properties":{"radiance":13.44}},{"type":"Feature","geometry":{"type":"Polygon","coordinates":[[[26.910417,67.69375],[26.914583,67.69375],[26.914583,67.697917],[26.910417,67.697917],[26.910417,67.69375]]]},"properties":{"radiance":9.6}},{"type":"Feature","geometry":{"type":"Polygon","coordinates":[[[26.914583,67.69375],[26.91875,67.69375],[26.91875,67.697917],[26.914583,67.697917],[26.914583,67.69375]]]},"properties":{"radiance":11.31}},{"type":"Feature","geometry":{"type":"Polygon","coordinates":[[[26.91875,67.69375],[26.922917,67.69375],[26.922917,67.697917],[26.91875,67.697917],[26.91875,67.69375]]]},"properties":{"radiance":28.22}},{"type":"Feature","geometry":{"type":"Polygon","coordinates":[[[26.922917,67.69375],[26.927083,67.69375],[26.927083,67.697917],[26.922917,67.697917],[26.922917,67.69375]]]},"properties":{"radiance":68.74}},{"type":"Feature","geometry":{"type":"Polygon","coordinates":[[[26.927083,67.69375],[26.93125,67.69375],[26.93125,67.697917],[26.927083,67.697917],[26.927083,67.69375]]]},"properties":{"radiance":74.42}},{"type":"Feature","geometry":{"type":"Polygon","coordinates":[[[26.93125,67.69375],[26.935417,67.69375],[26.935417,67.697917],[26.93125,67.697917],[26.93125,67.69375]]]},"properties":{"radiance":71.74}},{"type":"Feature","geometry":{"type":"Polygon","coordinates":[[[26.935417,67.69375],[26.939583,67.69375],[26.939583,67.697917],[26.935417,67.697917],[26.935417,67.69375]]]},"properties":{"radiance":69.87}},{"type":"Feature","geometry":{"type":"Polygon","coordinates":[[[26.939583,67.69375],[26.94375,67.69375],[26.94375,67.697917],[26.939583,67.697917],[26.939583,67.69375]]]},"properties":{"radiance":58.72}},{"type":"Feature","geometry":{"type":"Polygon","coordinates":[[[26.94375,67.69375],[26.947917,67.69375],[26.947917,67.697917],[26.94375,67.697917],[26.94375,67.69375]]]},"properties":{"radiance":39.4}},{"type":"Feature","geometry":{"type":"Polygon","coordinates":[[[26.947917,67.69375],[26.952083,67.69375],[26.952083,67.697917],[26.947917,67.697917],[26.947917,67.69375]]]},"properties":{"radiance":39.8}},{"type":"Feature","geometry":{"type":"Polygon","coordinates":[[[26.952083,67.69375],[26.95625,67.69375],[26.95625,67.697917],[26.952083,67.697917],[26.952083,67.69375]]]},"properties":{"radiance":43.95}},{"type":"Feature","geometry":{"type":"Polygon","coordinates":[[[26.95625,67.69375],[26.960417,67.69375],[26.960417,67.697917],[26.95625,67.697917],[26.95625,67.69375]]]},"properties":{"radiance":44.33}},{"type":"Feature","geometry":{"type":"Polygon","coordinates":[[[26.960417,67.69375],[26.964583,67.69375],[26.964583,67.697917],[26.960417,67.697917],[26.960417,67.69375]]]},"properties":{"radiance":16.12}},{"type":"Feature","geometry":{"type":"Polygon","coordinates":[[[26.964583,67.69375],[26.96875,67.69375],[26.96875,67.697917],[26.964583,67.697917],[26.964583,67.69375]]]},"properties":{"radiance":14.97}},{"type":"Feature","geometry":{"type":"Polygon","coordinates":[[[26.96875,67.69375],[26.972917,67.69375],[26.972917,67.697917],[26.96875,67.697917],[26.96875,67.69375]]]},"properties":{"radiance":10.3}},{"type":"Feature","geometry":{"type":"Polygon","coordinates":[[[26.972917,67.69375],[26.977083,67.69375],[26.977083,67.697917],[26.972917,67.697917],[26.972917,67.69375]]]},"properties":{"radiance":8.26}},{"type":"Feature","geometry":{"type":"Polygon","coordinates":[[[26.977083,67.69375],[26.98125,67.69375],[26.98125,67.697917],[26.977083,67.697917],[26.977083,67.69375]]]},"properties":{"radiance":7.21}},{"type":"Feature","geometry":{"type":"Polygon","coordinates":[[[26.91875,67.689583],[26.922917,67.689583],[26.922917,67.69375],[26.91875,67.69375],[26.91875,67.689583]]]},"properties":{"radiance":45.23}},{"type":"Feature","geometry":{"type":"Polygon","coordinates":[[[26.922917,67.689583],[26.927083,67.689583],[26.927083,67.69375],[26.922917,67.69375],[26.922917,67.689583]]]},"properties":{"radiance":54.01}},{"type":"Feature","geometry":{"type":"Polygon","coordinates":[[[26.927083,67.689583],[26.93125,67.689583],[26.93125,67.69375],[26.927083,67.69375],[26.927083,67.689583]]]},"properties":{"radiance":59.59}},{"type":"Feature","geometry":{"type":"Polygon","coordinates":[[[26.93125,67.689583],[26.935417,67.689583],[26.935417,67.69375],[26.93125,67.69375],[26.93125,67.689583]]]},"properties":{"radiance":70.08}},{"type":"Feature","geometry":{"type":"Polygon","coordinates":[[[26.935417,67.689583],[26.939583,67.689583],[26.939583,67.69375],[26.935417,67.69375],[26.935417,67.689583]]]},"properties":{"radiance":42.89}},{"type":"Feature","geometry":{"type":"Polygon","coordinates":[[[26.939583,67.689583],[26.94375,67.689583],[26.94375,67.69375],[26.939583,67.69375],[26.939583,67.689583]]]},"properties":{"radiance":52.68}},{"type":"Feature","geometry":{"type":"Polygon","coordinates":[[[26.94375,67.689583],[26.947917,67.689583],[26.947917,67.69375],[26.94375,67.69375],[26.94375,67.689583]]]},"properties":{"radiance":38.83}},{"type":"Feature","geometry":{"type":"Polygon","coordinates":[[[26.947917,67.689583],[26.952083,67.689583],[26.952083,67.69375],[26.947917,67.69375],[26.947917,67.689583]]]},"properties":{"radiance":28.27}},{"type":"Feature","geometry":{"type":"Polygon","coordinates":[[[26.952083,67.689583],[26.95625,67.689583],[26.95625,67.69375],[26.952083,67.69375],[26.952083,67.689583]]]},"properties":{"radiance":31.89}},{"type":"Feature","geometry":{"type":"Polygon","coordinates":[[[26.95625,67.689583],[26.960417,67.689583],[26.960417,67.69375],[26.95625,67.69375],[26.95625,67.689583]]]},"properties":{"radiance":16.19}},{"type":"Feature","geometry":{"type":"Polygon","coordinates":[[[26.960417,67.689583],[26.964583,67.689583],[26.964583,67.69375],[26.960417,67.69375],[26.960417,67.689583]]]},"properties":{"radiance":10.32}},{"type":"Feature","geometry":{"type":"Polygon","coordinates":[[[26.964583,67.689583],[26.96875,67.689583],[26.96875,67.69375],[26.964583,67.69375],[26.964583,67.689583]]]},"properties":{"radiance":6.13}},{"type":"Feature","geometry":{"type":"Polygon","coordinates":[[[26.96875,67.689583],[26.972917,67.689583],[26.972917,67.69375],[26.96875,67.69375],[26.96875,67.689583]]]},"properties":{"radiance":7.51}},{"type":"Feature","geometry":{"type":"Polygon","coordinates":[[[26.972917,67.689583],[26.977083,67.689583],[26.977083,67.69375],[26.972917,67.69375],[26.972917,67.689583]]]},"properties":{"radiance":7.36}},{"type":"Feature","geometry":{"type":"Polygon","coordinates":[[[26.977083,67.689583],[26.98125,67.689583],[26.98125,67.69375],[26.977083,67.69375],[26.977083,67.689583]]]},"properties":{"radiance":5.33}},{"type":"Feature","geometry":{"type":"Polygon","coordinates":[[[26.98125,67.689583],[26.985417,67.689583],[26.985417,67.69375],[26.98125,67.69375],[26.98125,67.689583]]]},"properties":{"radiance":5.49}},{"type":"Feature","geometry":{"type":"Polygon","coordinates":[[[26.910417,67.685417],[26.914583,67.685417],[26.914583,67.689583],[26.910417,67.689583],[26.910417,67.685417]]]},"properties":{"radiance":5.93}},{"type":"Feature","geometry":{"type":"Polygon","coordinates":[[[26.922917,67.685417],[26.927083,67.685417],[26.927083,67.689583],[26.922917,67.689583],[26.922917,67.685417]]]},"properties":{"radiance":6.09}},{"type":"Feature","geometry":{"type":"Polygon","coordinates":[[[26.947917,67.685417],[26.952083,67.685417],[26.952083,67.689583],[26.947917,67.689583],[26.947917,67.685417]]]},"properties":{"radiance":24.5}},{"type":"Feature","geometry":{"type":"Polygon","coordinates":[[[26.610417,67.510417],[26.614583,67.510417],[26.614583,67.514583],[26.610417,67.514583],[26.610417,67.510417]]]},"properties":{"radiance":5.83}},{"type":"Feature","geometry":{"type":"Polygon","coordinates":[[[26.602083,67.50625],[26.60625,67.50625],[26.60625,67.510417],[26.602083,67.510417],[26.602083,67.50625]]]},"properties":{"radiance":6.17}},{"type":"Feature","geometry":{"type":"Polygon","coordinates":[[[26.60625,67.50625],[26.610417,67.50625],[26.610417,67.510417],[26.60625,67.510417],[26.60625,67.50625]]]},"properties":{"radiance":7.46}},{"type":"Feature","geometry":{"type":"Polygon","coordinates":[[[26.610417,67.50625],[26.614583,67.50625],[26.614583,67.510417],[26.610417,67.510417],[26.610417,67.50625]]]},"properties":{"radiance":8.16}},{"type":"Feature","geometry":{"type":"Polygon","coordinates":[[[26.614583,67.50625],[26.61875,67.50625],[26.61875,67.510417],[26.614583,67.510417],[26.614583,67.50625]]]},"properties":{"radiance":6.53}},{"type":"Feature","geometry":{"type":"Polygon","coordinates":[[[26.61875,67.50625],[26.622917,67.50625],[26.622917,67.510417],[26.61875,67.510417],[26.61875,67.50625]]]},"properties":{"radiance":6.63}},{"type":"Feature","geometry":{"type":"Polygon","coordinates":[[[26.614583,67.502083],[26.61875,67.502083],[26.61875,67.50625],[26.614583,67.50625],[26.614583,67.502083]]]},"properties":{"radiance":7.34}},{"type":"Feature","geometry":{"type":"Polygon","coordinates":[[[26.61875,67.502083],[26.622917,67.502083],[26.622917,67.50625],[26.61875,67.50625],[26.61875,67.502083]]]},"properties":{"radiance":7.13}},{"type":"Feature","geometry":{"type":"Polygon","coordinates":[[[26.622917,67.502083],[26.627083,67.502083],[26.627083,67.50625],[26.622917,67.50625],[26.622917,67.502083]]]},"properties":{"radiance":6.44}},{"type":"Feature","geometry":{"type":"Polygon","coordinates":[[[26.614583,67.497917],[26.61875,67.497917],[26.61875,67.502083],[26.614583,67.502083],[26.614583,67.497917]]]},"properties":{"radiance":6.29}},{"type":"Feature","geometry":{"type":"Polygon","coordinates":[[[26.61875,67.497917],[26.622917,67.497917],[26.622917,67.502083],[26.61875,67.502083],[26.61875,67.497917]]]},"properties":{"radiance":7.52}},{"type":"Feature","geometry":{"type":"Polygon","coordinates":[[[26.622917,67.497917],[26.627083,67.497917],[26.627083,67.502083],[26.622917,67.502083],[26.622917,67.497917]]]},"properties":{"radiance":6.86}},{"type":"Feature","geometry":{"type":"Polygon","coordinates":[[[26.627083,67.497917],[26.63125,67.497917],[26.63125,67.502083],[26.627083,67.502083],[26.627083,67.497917]]]},"properties":{"radiance":5.43}},{"type":"Feature","geometry":{"type":"Polygon","coordinates":[[[26.622917,67.49375],[26.627083,67.49375],[26.627083,67.497917],[26.622917,67.497917],[26.622917,67.49375]]]},"properties":{"radiance":6.02}},{"type":"Feature","geometry":{"type":"Polygon","coordinates":[[[26.61875,67.489583],[26.622917,67.489583],[26.622917,67.49375],[26.61875,67.49375],[26.61875,67.489583]]]},"properties":{"radiance":5.95}},{"type":"Feature","geometry":{"type":"Polygon","coordinates":[[[26.622917,67.489583],[26.627083,67.489583],[26.627083,67.49375],[26.622917,67.49375],[26.622917,67.489583]]]},"properties":{"radiance":5.46}},{"type":"Feature","geometry":{"type":"Polygon","coordinates":[[[26.602083,67.48125],[26.60625,67.48125],[26.60625,67.485417],[26.602083,67.485417],[26.602083,67.48125]]]},"properties":{"radiance":5.62}},{"type":"Feature","geometry":{"type":"Polygon","coordinates":[[[26.60625,67.48125],[26.610417,67.48125],[26.610417,67.485417],[26.60625,67.485417],[26.60625,67.48125]]]},"properties":{"radiance":5.39}},{"type":"Feature","geometry":{"type":"Polygon","coordinates":[[[26.535417,67.44375],[26.539583,67.44375],[26.539583,67.447917],[26.535417,67.447917],[26.535417,67.44375]]]},"properties":{"radiance":12}},{"type":"Feature","geometry":{"type":"Polygon","coordinates":[[[26.539583,67.44375],[26.54375,67.44375],[26.54375,67.447917],[26.539583,67.447917],[26.539583,67.44375]]]},"properties":{"radiance":5.81}},{"type":"Feature","geometry":{"type":"Polygon","coordinates":[[[26.54375,67.44375],[26.547917,67.44375],[26.547917,67.447917],[26.54375,67.447917],[26.54375,67.44375]]]},"properties":{"radiance":9.24}},{"type":"Feature","geometry":{"type":"Polygon","coordinates":[[[26.560417,67.44375],[26.564583,67.44375],[26.564583,67.447917],[26.560417,67.447917],[26.560417,67.44375]]]},"properties":{"radiance":11.89}},{"type":"Feature","geometry":{"type":"Polygon","coordinates":[[[26.53125,67.439583],[26.535417,67.439583],[26.535417,67.44375],[26.53125,67.44375],[26.53125,67.439583]]]},"properties":{"radiance":13.25}},{"type":"Feature","geometry":{"type":"Polygon","coordinates":[[[26.535417,67.439583],[26.539583,67.439583],[26.539583,67.44375],[26.535417,67.44375],[26.535417,67.439583]]]},"properties":{"radiance":7.12}},{"type":"Feature","geometry":{"type":"Polygon","coordinates":[[[26.539583,67.439583],[26.54375,67.439583],[26.54375,67.44375],[26.539583,67.44375],[26.539583,67.439583]]]},"properties":{"radiance":15.36}},{"type":"Feature","geometry":{"type":"Polygon","coordinates":[[[26.54375,67.439583],[26.547917,67.439583],[26.547917,67.44375],[26.54375,67.44375],[26.54375,67.439583]]]},"properties":{"radiance":18.46}},{"type":"Feature","geometry":{"type":"Polygon","coordinates":[[[26.547917,67.439583],[26.552083,67.439583],[26.552083,67.44375],[26.547917,67.44375],[26.547917,67.439583]]]},"properties":{"radiance":14.92}},{"type":"Feature","geometry":{"type":"Polygon","coordinates":[[[26.552083,67.439583],[26.55625,67.439583],[26.55625,67.44375],[26.552083,67.44375],[26.552083,67.439583]]]},"properties":{"radiance":16.29}},{"type":"Feature","geometry":{"type":"Polygon","coordinates":[[[26.55625,67.439583],[26.560417,67.439583],[26.560417,67.44375],[26.55625,67.44375],[26.55625,67.439583]]]},"properties":{"radiance":15.93}},{"type":"Feature","geometry":{"type":"Polygon","coordinates":[[[26.560417,67.439583],[26.564583,67.439583],[26.564583,67.44375],[26.560417,67.44375],[26.560417,67.439583]]]},"properties":{"radiance":16.54}},{"type":"Feature","geometry":{"type":"Polygon","coordinates":[[[26.564583,67.439583],[26.56875,67.439583],[26.56875,67.44375],[26.564583,67.44375],[26.564583,67.439583]]]},"properties":{"radiance":17.43}},{"type":"Feature","geometry":{"type":"Polygon","coordinates":[[[26.56875,67.439583],[26.572917,67.439583],[26.572917,67.44375],[26.56875,67.44375],[26.56875,67.439583]]]},"properties":{"radiance":13.09}},{"type":"Feature","geometry":{"type":"Polygon","coordinates":[[[26.572917,67.439583],[26.577083,67.439583],[26.577083,67.44375],[26.572917,67.44375],[26.572917,67.439583]]]},"properties":{"radiance":5.52}},{"type":"Feature","geometry":{"type":"Polygon","coordinates":[[[26.577083,67.439583],[26.58125,67.439583],[26.58125,67.44375],[26.577083,67.44375],[26.577083,67.439583]]]},"properties":{"radiance":8.64}},{"type":"Feature","geometry":{"type":"Polygon","coordinates":[[[26.535417,67.435417],[26.539583,67.435417],[26.539583,67.439583],[26.535417,67.439583],[26.535417,67.435417]]]},"properties":{"radiance":11.29}},{"type":"Feature","geometry":{"type":"Polygon","coordinates":[[[26.539583,67.435417],[26.54375,67.435417],[26.54375,67.439583],[26.539583,67.439583],[26.539583,67.435417]]]},"properties":{"radiance":13.42}},{"type":"Feature","geometry":{"type":"Polygon","coordinates":[[[26.54375,67.435417],[26.547917,67.435417],[26.547917,67.439583],[26.54375,67.439583],[26.54375,67.435417]]]},"properties":{"radiance":44.08}},{"type":"Feature","geometry":{"type":"Polygon","coordinates":[[[26.547917,67.435417],[26.552083,67.435417],[26.552083,67.439583],[26.547917,67.439583],[26.547917,67.435417]]]},"properties":{"radiance":45.02}},{"type":"Feature","geometry":{"type":"Polygon","coordinates":[[[26.552083,67.435417],[26.55625,67.435417],[26.55625,67.439583],[26.552083,67.439583],[26.552083,67.435417]]]},"properties":{"radiance":41.09}},{"type":"Feature","geometry":{"type":"Polygon","coordinates":[[[26.55625,67.435417],[26.560417,67.435417],[26.560417,67.439583],[26.55625,67.439583],[26.55625,67.435417]]]},"properties":{"radiance":40.83}},{"type":"Feature","geometry":{"type":"Polygon","coordinates":[[[26.560417,67.435417],[26.564583,67.435417],[26.564583,67.439583],[26.560417,67.439583],[26.560417,67.435417]]]},"properties":{"radiance":32.63}},{"type":"Feature","geometry":{"type":"Polygon","coordinates":[[[26.564583,67.435417],[26.56875,67.435417],[26.56875,67.439583],[26.564583,67.439583],[26.564583,67.435417]]]},"properties":{"radiance":16.08}},{"type":"Feature","geometry":{"type":"Polygon","coordinates":[[[26.56875,67.435417],[26.572917,67.435417],[26.572917,67.439583],[26.56875,67.439583],[26.56875,67.435417]]]},"properties":{"radiance":16.31}},{"type":"Feature","geometry":{"type":"Polygon","coordinates":[[[26.572917,67.435417],[26.577083,67.435417],[26.577083,67.439583],[26.572917,67.439583],[26.572917,67.435417]]]},"properties":{"radiance":16.4}},{"type":"Feature","geometry":{"type":"Polygon","coordinates":[[[26.577083,67.435417],[26.58125,67.435417],[26.58125,67.439583],[26.577083,67.439583],[26.577083,67.435417]]]},"properties":{"radiance":11.58}},{"type":"Feature","geometry":{"type":"Polygon","coordinates":[[[26.58125,67.435417],[26.585417,67.435417],[26.585417,67.439583],[26.58125,67.439583],[26.58125,67.435417]]]},"properties":{"radiance":9.48}},{"type":"Feature","geometry":{"type":"Polygon","coordinates":[[[26.53125,67.43125],[26.535417,67.43125],[26.535417,67.435417],[26.53125,67.435417],[26.53125,67.43125]]]},"properties":{"radiance":6.17}},{"type":"Feature","geometry":{"type":"Polygon","coordinates":[[[26.535417,67.43125],[26.539583,67.43125],[26.539583,67.435417],[26.535417,67.435417],[26.535417,67.43125]]]},"properties":{"radiance":6.99}},{"type":"Feature","geometry":{"type":"Polygon","coordinates":[[[26.539583,67.43125],[26.54375,67.43125],[26.54375,67.435417],[26.539583,67.435417],[26.539583,67.43125]]]},"properties":{"radiance":12.97}},{"type":"Feature","geometry":{"type":"Polygon","coordinates":[[[26.54375,67.43125],[26.547917,67.43125],[26.547917,67.435417],[26.54375,67.435417],[26.54375,67.43125]]]},"properties":{"radiance":14.33}},{"type":"Feature","geometry":{"type":"Polygon","coordinates":[[[26.547917,67.43125],[26.552083,67.43125],[26.552083,67.435417],[26.547917,67.435417],[26.547917,67.43125]]]},"properties":{"radiance":17.85}},{"type":"Feature","geometry":{"type":"Polygon","coordinates":[[[26.552083,67.43125],[26.55625,67.43125],[26.55625,67.435417],[26.552083,67.435417],[26.552083,67.43125]]]},"properties":{"radiance":27.71}},{"type":"Feature","geometry":{"type":"Polygon","coordinates":[[[26.55625,67.43125],[26.560417,67.43125],[26.560417,67.435417],[26.55625,67.435417],[26.55625,67.43125]]]},"properties":{"radiance":27.72}},{"type":"Feature","geometry":{"type":"Polygon","coordinates":[[[26.560417,67.43125],[26.564583,67.43125],[26.564583,67.435417],[26.560417,67.435417],[26.560417,67.43125]]]},"properties":{"radiance":16.88}},{"type":"Feature","geometry":{"type":"Polygon","coordinates":[[[26.564583,67.43125],[26.56875,67.43125],[26.56875,67.435417],[26.564583,67.435417],[26.564583,67.43125]]]},"properties":{"radiance":17.3}},{"type":"Feature","geometry":{"type":"Polygon","coordinates":[[[26.56875,67.43125],[26.572917,67.43125],[26.572917,67.435417],[26.56875,67.435417],[26.56875,67.43125]]]},"properties":{"radiance":17.81}},{"type":"Feature","geometry":{"type":"Polygon","coordinates":[[[26.572917,67.43125],[26.577083,67.43125],[26.577083,67.435417],[26.572917,67.435417],[26.572917,67.43125]]]},"properties":{"radiance":15.4}},{"type":"Feature","geometry":{"type":"Polygon","coordinates":[[[26.577083,67.43125],[26.58125,67.43125],[26.58125,67.435417],[26.577083,67.435417],[26.577083,67.43125]]]},"properties":{"radiance":13.33}},{"type":"Feature","geometry":{"type":"Polygon","coordinates":[[[26.58125,67.43125],[26.585417,67.43125],[26.585417,67.435417],[26.58125,67.435417],[26.58125,67.43125]]]},"properties":{"radiance":5.34}},{"type":"Feature","geometry":{"type":"Polygon","coordinates":[[[26.547917,67.427083],[26.552083,67.427083],[26.552083,67.43125],[26.547917,67.43125],[26.547917,67.427083]]]},"properties":{"radiance":14.35}},{"type":"Feature","geometry":{"type":"Polygon","coordinates":[[[26.552083,67.427083],[26.55625,67.427083],[26.55625,67.43125],[26.552083,67.43125],[26.552083,67.427083]]]},"properties":{"radiance":6.46}},{"type":"Feature","geometry":{"type":"Polygon","coordinates":[[[26.55625,67.427083],[26.560417,67.427083],[26.560417,67.43125],[26.55625,67.43125],[26.55625,67.427083]]]},"properties":{"radiance":15.14}},{"type":"Feature","geometry":{"type":"Polygon","coordinates":[[[26.560417,67.427083],[26.564583,67.427083],[26.564583,67.43125],[26.560417,67.43125],[26.560417,67.427083]]]},"properties":{"radiance":16.01}},{"type":"Feature","geometry":{"type":"Polygon","coordinates":[[[26.564583,67.427083],[26.56875,67.427083],[26.56875,67.43125],[26.564583,67.43125],[26.564583,67.427083]]]},"properties":{"radiance":17.49}},{"type":"Feature","geometry":{"type":"Polygon","coordinates":[[[26.56875,67.427083],[26.572917,67.427083],[26.572917,67.43125],[26.56875,67.43125],[26.56875,67.427083]]]},"properties":{"radiance":16.8}},{"type":"Feature","geometry":{"type":"Polygon","coordinates":[[[26.572917,67.427083],[26.577083,67.427083],[26.577083,67.43125],[26.572917,67.43125],[26.572917,67.427083]]]},"properties":{"radiance":14.09}},{"type":"Feature","geometry":{"type":"Polygon","coordinates":[[[26.577083,67.427083],[26.58125,67.427083],[26.58125,67.43125],[26.577083,67.43125],[26.577083,67.427083]]]},"properties":{"radiance":12.22}},{"type":"Feature","geometry":{"type":"Polygon","coordinates":[[[26.58125,67.427083],[26.585417,67.427083],[26.585417,67.43125],[26.58125,67.43125],[26.58125,67.427083]]]},"properties":{"radiance":11.31}},{"type":"Feature","geometry":{"type":"Polygon","coordinates":[[[26.585417,67.427083],[26.589583,67.427083],[26.589583,67.43125],[26.585417,67.43125],[26.585417,67.427083]]]},"properties":{"radiance":8.29}},{"type":"Feature","geometry":{"type":"Polygon","coordinates":[[[26.589583,67.427083],[26.59375,67.427083],[26.59375,67.43125],[26.589583,67.43125],[26.589583,67.427083]]]},"properties":{"radiance":7.3}},{"type":"Feature","geometry":{"type":"Polygon","coordinates":[[[26.547917,67.422917],[26.552083,67.422917],[26.552083,67.427083],[26.547917,67.427083],[26.547917,67.422917]]]},"properties":{"radiance":5.76}},{"type":"Feature","geometry":{"type":"Polygon","coordinates":[[[26.552083,67.422917],[26.55625,67.422917],[26.55625,67.427083],[26.552083,67.427083],[26.552083,67.422917]]]},"properties":{"radiance":6.96}},{"type":"Feature","geometry":{"type":"Polygon","coordinates":[[[26.55625,67.422917],[26.560417,67.422917],[26.560417,67.427083],[26.55625,67.427083],[26.55625,67.422917]]]},"properties":{"radiance":8.13}},{"type":"Feature","geometry":{"type":"Polygon","coordinates":[[[26.560417,67.422917],[26.564583,67.422917],[26.564583,67.427083],[26.560417,67.427083],[26.560417,67.422917]]]},"properties":{"radiance":13.21}},{"type":"Feature","geometry":{"type":"Polygon","coordinates":[[[26.564583,67.422917],[26.56875,67.422917],[26.56875,67.427083],[26.564583,67.427083],[26.564583,67.422917]]]},"properties":{"radiance":13.23}},{"type":"Feature","geometry":{"type":"Polygon","coordinates":[[[26.56875,67.422917],[26.572917,67.422917],[26.572917,67.427083],[26.56875,67.427083],[26.56875,67.422917]]]},"properties":{"radiance":19.24}},{"type":"Feature","geometry":{"type":"Polygon","coordinates":[[[26.572917,67.422917],[26.577083,67.422917],[26.577083,67.427083],[26.572917,67.427083],[26.572917,67.422917]]]},"properties":{"radiance":20.14}},{"type":"Feature","geometry":{"type":"Polygon","coordinates":[[[26.577083,67.422917],[26.58125,67.422917],[26.58125,67.427083],[26.577083,67.427083],[26.577083,67.422917]]]},"properties":{"radiance":16.77}},{"type":"Feature","geometry":{"type":"Polygon","coordinates":[[[26.58125,67.422917],[26.585417,67.422917],[26.585417,67.427083],[26.58125,67.427083],[26.58125,67.422917]]]},"properties":{"radiance":20.01}},{"type":"Feature","geometry":{"type":"Polygon","coordinates":[[[26.585417,67.422917],[26.589583,67.422917],[26.589583,67.427083],[26.585417,67.427083],[26.585417,67.422917]]]},"properties":{"radiance":17.5}},{"type":"Feature","geometry":{"type":"Polygon","coordinates":[[[26.59375,67.422917],[26.597917,67.422917],[26.597917,67.427083],[26.59375,67.427083],[26.59375,67.422917]]]},"properties":{"radiance":6.06}},{"type":"Feature","geometry":{"type":"Polygon","coordinates":[[[26.597917,67.422917],[26.602083,67.422917],[26.602083,67.427083],[26.597917,67.427083],[26.597917,67.422917]]]},"properties":{"radiance":7.25}},{"type":"Feature","geometry":{"type":"Polygon","coordinates":[[[26.602083,67.422917],[26.60625,67.422917],[26.60625,67.427083],[26.602083,67.427083],[26.602083,67.422917]]]},"properties":{"radiance":8.1}},{"type":"Feature","geometry":{"type":"Polygon","coordinates":[[[26.60625,67.422917],[26.610417,67.422917],[26.610417,67.427083],[26.60625,67.427083],[26.60625,67.422917]]]},"properties":{"radiance":10.3}},{"type":"Feature","geometry":{"type":"Polygon","coordinates":[[[26.610417,67.422917],[26.614583,67.422917],[26.614583,67.427083],[26.610417,67.427083],[26.610417,67.422917]]]},"properties":{"radiance":10.41}},{"type":"Feature","geometry":{"type":"Polygon","coordinates":[[[26.614583,67.422917],[26.61875,67.422917],[26.61875,67.427083],[26.614583,67.427083],[26.614583,67.422917]]]},"properties":{"radiance":7.16}},{"type":"Feature","geometry":{"type":"Polygon","coordinates":[[[26.622917,67.422917],[26.627083,67.422917],[26.627083,67.427083],[26.622917,67.427083],[26.622917,67.422917]]]},"properties":{"radiance":7.83}},{"type":"Feature","geometry":{"type":"Polygon","coordinates":[[[26.639583,67.422917],[26.64375,67.422917],[26.64375,67.427083],[26.639583,67.427083],[26.639583,67.422917]]]},"properties":{"radiance":5.72}},{"type":"Feature","geometry":{"type":"Polygon","coordinates":[[[26.560417,67.41875],[26.564583,67.41875],[26.564583,67.422917],[26.560417,67.422917],[26.560417,67.41875]]]},"properties":{"radiance":8.41}},{"type":"Feature","geometry":{"type":"Polygon","coordinates":[[[26.564583,67.41875],[26.56875,67.41875],[26.56875,67.422917],[26.564583,67.422917],[26.564583,67.41875]]]},"properties":{"radiance":14.98}},{"type":"Feature","geometry":{"type":"Polygon","coordinates":[[[26.56875,67.41875],[26.572917,67.41875],[26.572917,67.422917],[26.56875,67.422917],[26.56875,67.41875]]]},"properties":{"radiance":20.46}},{"type":"Feature","geometry":{"type":"Polygon","coordinates":[[[26.572917,67.41875],[26.577083,67.41875],[26.577083,67.422917],[26.572917,67.422917],[26.572917,67.41875]]]},"properties":{"radiance":22.02}},{"type":"Feature","geometry":{"type":"Polygon","coordinates":[[[26.577083,67.41875],[26.58125,67.41875],[26.58125,67.422917],[26.577083,67.422917],[26.577083,67.41875]]]},"properties":{"radiance":48.64}},{"type":"Feature","geometry":{"type":"Polygon","coordinates":[[[26.58125,67.41875],[26.585417,67.41875],[26.585417,67.422917],[26.58125,67.422917],[26.58125,67.41875]]]},"properties":{"radiance":51.97}},{"type":"Feature","geometry":{"type":"Polygon","coordinates":[[[26.585417,67.41875],[26.589583,67.41875],[26.589583,67.422917],[26.585417,67.422917],[26.585417,67.41875]]]},"properties":{"radiance":28.86}},{"type":"Feature","geometry":{"type":"Polygon","coordinates":[[[26.589583,67.41875],[26.59375,67.41875],[26.59375,67.422917],[26.589583,67.422917],[26.589583,67.41875]]]},"properties":{"radiance":28.42}},{"type":"Feature","geometry":{"type":"Polygon","coordinates":[[[26.59375,67.41875],[26.597917,67.41875],[26.597917,67.422917],[26.59375,67.422917],[26.59375,67.41875]]]},"properties":{"radiance":28.15}},{"type":"Feature","geometry":{"type":"Polygon","coordinates":[[[26.597917,67.41875],[26.602083,67.41875],[26.602083,67.422917],[26.597917,67.422917],[26.597917,67.41875]]]},"properties":{"radiance":7.66}},{"type":"Feature","geometry":{"type":"Polygon","coordinates":[[[26.602083,67.41875],[26.60625,67.41875],[26.60625,67.422917],[26.602083,67.422917],[26.602083,67.41875]]]},"properties":{"radiance":17.47}},{"type":"Feature","geometry":{"type":"Polygon","coordinates":[[[26.60625,67.41875],[26.610417,67.41875],[26.610417,67.422917],[26.60625,67.422917],[26.60625,67.41875]]]},"properties":{"radiance":14.33}},{"type":"Feature","geometry":{"type":"Polygon","coordinates":[[[26.610417,67.41875],[26.614583,67.41875],[26.614583,67.422917],[26.610417,67.422917],[26.610417,67.41875]]]},"properties":{"radiance":10.99}},{"type":"Feature","geometry":{"type":"Polygon","coordinates":[[[26.614583,67.41875],[26.61875,67.41875],[26.61875,67.422917],[26.614583,67.422917],[26.614583,67.41875]]]},"properties":{"radiance":8.41}},{"type":"Feature","geometry":{"type":"Polygon","coordinates":[[[26.61875,67.41875],[26.622917,67.41875],[26.622917,67.422917],[26.61875,67.422917],[26.61875,67.41875]]]},"properties":{"radiance":7.62}},{"type":"Feature","geometry":{"type":"Polygon","coordinates":[[[26.55625,67.414583],[26.560417,67.414583],[26.560417,67.41875],[26.55625,67.41875],[26.55625,67.414583]]]},"properties":{"radiance":6.82}},{"type":"Feature","geometry":{"type":"Polygon","coordinates":[[[26.560417,67.414583],[26.564583,67.414583],[26.564583,67.41875],[26.560417,67.41875],[26.560417,67.414583]]]},"properties":{"radiance":7.26}},{"type":"Feature","geometry":{"type":"Polygon","coordinates":[[[26.564583,67.414583],[26.56875,67.414583],[26.56875,67.41875],[26.564583,67.41875],[26.564583,67.414583]]]},"properties":{"radiance":15.36}},{"type":"Feature","geometry":{"type":"Polygon","coordinates":[[[26.56875,67.414583],[26.572917,67.414583],[26.572917,67.41875],[26.56875,67.41875],[26.56875,67.414583]]]},"properties":{"radiance":13.36}},{"type":"Feature","geometry":{"type":"Polygon","coordinates":[[[26.572917,67.414583],[26.577083,67.414583],[26.577083,67.41875],[26.572917,67.41875],[26.572917,67.414583]]]},"properties":{"radiance":46.06}},{"type":"Feature","geometry":{"type":"Polygon","coordinates":[[[26.577083,67.414583],[26.58125,67.414583],[26.58125,67.41875],[26.577083,67.41875],[26.577083,67.414583]]]},"properties":{"radiance":20.29}},{"type":"Feature","geometry":{"type":"Polygon","coordinates":[[[26.58125,67.414583],[26.585417,67.414583],[26.585417,67.41875],[26.58125,67.41875],[26.58125,67.414583]]]},"properties":{"radiance":26.13}},{"type":"Feature","geometry":{"type":"Polygon","coordinates":[[[26.585417,67.414583],[26.589583,67.414583],[26.589583,67.41875],[26.585417,67.41875],[26.585417,67.414583]]]},"properties":{"radiance":50.67}},{"type":"Feature","geometry":{"type":"Polygon","coordinates":[[[26.589583,67.414583],[26.59375,67.414583],[26.59375,67.41875],[26.589583,67.41875],[26.589583,67.414583]]]},"properties":{"radiance":36.33}},{"type":"Feature","geometry":{"type":"Polygon","coordinates":[[[26.59375,67.414583],[26.597917,67.414583],[26.597917,67.41875],[26.59375,67.41875],[26.59375,67.414583]]]},"properties":{"radiance":24.04}},{"type":"Feature","geometry":{"type":"Polygon","coordinates":[[[26.597917,67.414583],[26.602083,67.414583],[26.602083,67.41875],[26.597917,67.41875],[26.597917,67.414583]]]},"properties":{"radiance":17.99}},{"type":"Feature","geometry":{"type":"Polygon","coordinates":[[[26.602083,67.414583],[26.60625,67.414583],[26.60625,67.41875],[26.602083,67.41875],[26.602083,67.414583]]]},"properties":{"radiance":17.94}},{"type":"Feature","geometry":{"type":"Polygon","coordinates":[[[26.60625,67.414583],[26.610417,67.414583],[26.610417,67.41875],[26.60625,67.41875],[26.60625,67.414583]]]},"properties":{"radiance":14.66}},{"type":"Feature","geometry":{"type":"Polygon","coordinates":[[[26.610417,67.414583],[26.614583,67.414583],[26.614583,67.41875],[26.610417,67.41875],[26.610417,67.414583]]]},"properties":{"radiance":14.48}},{"type":"Feature","geometry":{"type":"Polygon","coordinates":[[[26.614583,67.414583],[26.61875,67.414583],[26.61875,67.41875],[26.614583,67.41875],[26.614583,67.414583]]]},"properties":{"radiance":10.14}},{"type":"Feature","geometry":{"type":"Polygon","coordinates":[[[26.61875,67.414583],[26.622917,67.414583],[26.622917,67.41875],[26.61875,67.41875],[26.61875,67.414583]]]},"properties":{"radiance":7.93}},{"type":"Feature","geometry":{"type":"Polygon","coordinates":[[[26.54375,67.410417],[26.547917,67.410417],[26.547917,67.414583],[26.54375,67.414583],[26.54375,67.410417]]]},"properties":{"radiance":6.32}},{"type":"Feature","geometry":{"type":"Polygon","coordinates":[[[26.547917,67.410417],[26.552083,67.410417],[26.552083,67.414583],[26.547917,67.414583],[26.547917,67.410417]]]},"properties":{"radiance":7.68}},{"type":"Feature","geometry":{"type":"Polygon","coordinates":[[[26.552083,67.410417],[26.55625,67.410417],[26.55625,67.414583],[26.552083,67.414583],[26.552083,67.410417]]]},"properties":{"radiance":10.21}},{"type":"Feature","geometry":{"type":"Polygon","coordinates":[[[26.55625,67.410417],[26.560417,67.410417],[26.560417,67.414583],[26.55625,67.414583],[26.55625,67.410417]]]},"properties":{"radiance":9.13}},{"type":"Feature","geometry":{"type":"Polygon","coordinates":[[[26.560417,67.410417],[26.564583,67.410417],[26.564583,67.414583],[26.560417,67.414583],[26.560417,67.410417]]]},"properties":{"radiance":9.63}},{"type":"Feature","geometry":{"type":"Polygon","coordinates":[[[26.564583,67.410417],[26.56875,67.410417],[26.56875,67.414583],[26.564583,67.414583],[26.564583,67.410417]]]},"properties":{"radiance":20.98}},{"type":"Feature","geometry":{"type":"Polygon","coordinates":[[[26.56875,67.410417],[26.572917,67.410417],[26.572917,67.414583],[26.56875,67.414583],[26.56875,67.410417]]]},"properties":{"radiance":18.72}},{"type":"Feature","geometry":{"type":"Polygon","coordinates":[[[26.572917,67.410417],[26.577083,67.410417],[26.577083,67.414583],[26.572917,67.414583],[26.572917,67.410417]]]},"properties":{"radiance":19.41}},{"type":"Feature","geometry":{"type":"Polygon","coordinates":[[[26.577083,67.410417],[26.58125,67.410417],[26.58125,67.414583],[26.577083,67.414583],[26.577083,67.410417]]]},"properties":{"radiance":22.63}},{"type":"Feature","geometry":{"type":"Polygon","coordinates":[[[26.58125,67.410417],[26.585417,67.410417],[26.585417,67.414583],[26.58125,67.414583],[26.58125,67.410417]]]},"properties":{"radiance":24.38}},{"type":"Feature","geometry":{"type":"Polygon","coordinates":[[[26.585417,67.410417],[26.589583,67.410417],[26.589583,67.414583],[26.585417,67.414583],[26.585417,67.410417]]]},"properties":{"radiance":13.09}},{"type":"Feature","geometry":{"type":"Polygon","coordinates":[[[26.589583,67.410417],[26.59375,67.410417],[26.59375,67.414583],[26.589583,67.414583],[26.589583,67.410417]]]},"properties":{"radiance":17.78}},{"type":"Feature","geometry":{"type":"Polygon","coordinates":[[[26.59375,67.410417],[26.597917,67.410417],[26.597917,67.414583],[26.59375,67.414583],[26.59375,67.410417]]]},"properties":{"radiance":13.6}},{"type":"Feature","geometry":{"type":"Polygon","coordinates":[[[26.597917,67.410417],[26.602083,67.410417],[26.602083,67.414583],[26.597917,67.414583],[26.597917,67.410417]]]},"properties":{"radiance":10.31}},{"type":"Feature","geometry":{"type":"Polygon","coordinates":[[[26.602083,67.410417],[26.60625,67.410417],[26.60625,67.414583],[26.602083,67.414583],[26.602083,67.410417]]]},"properties":{"radiance":12.36}},{"type":"Feature","geometry":{"type":"Polygon","coordinates":[[[26.60625,67.410417],[26.610417,67.410417],[26.610417,67.414583],[26.60625,67.414583],[26.60625,67.410417]]]},"properties":{"radiance":9.96}},{"type":"Feature","geometry":{"type":"Polygon","coordinates":[[[26.610417,67.410417],[26.614583,67.410417],[26.614583,67.414583],[26.610417,67.414583],[26.610417,67.410417]]]},"properties":{"radiance":15.41}},{"type":"Feature","geometry":{"type":"Polygon","coordinates":[[[26.614583,67.410417],[26.61875,67.410417],[26.61875,67.414583],[26.614583,67.414583],[26.614583,67.410417]]]},"properties":{"radiance":14.93}},{"type":"Feature","geometry":{"type":"Polygon","coordinates":[[[26.61875,67.410417],[26.622917,67.410417],[26.622917,67.414583],[26.61875,67.414583],[26.61875,67.410417]]]},"properties":{"radiance":8.16}},{"type":"Feature","geometry":{"type":"Polygon","coordinates":[[[26.622917,67.410417],[26.627083,67.410417],[26.627083,67.414583],[26.622917,67.414583],[26.622917,67.410417]]]},"properties":{"radiance":9.06}},{"type":"Feature","geometry":{"type":"Polygon","coordinates":[[[26.627083,67.410417],[26.63125,67.410417],[26.63125,67.414583],[26.627083,67.414583],[26.627083,67.410417]]]},"properties":{"radiance":8.19}},{"type":"Feature","geometry":{"type":"Polygon","coordinates":[[[26.63125,67.410417],[26.635417,67.410417],[26.635417,67.414583],[26.63125,67.414583],[26.63125,67.410417]]]},"properties":{"radiance":10.01}},{"type":"Feature","geometry":{"type":"Polygon","coordinates":[[[26.635417,67.410417],[26.639583,67.410417],[26.639583,67.414583],[26.635417,67.414583],[26.635417,67.410417]]]},"properties":{"radiance":8.48}},{"type":"Feature","geometry":{"type":"Polygon","coordinates":[[[26.639583,67.410417],[26.64375,67.410417],[26.64375,67.414583],[26.639583,67.414583],[26.639583,67.410417]]]},"properties":{"radiance":5.34}},{"type":"Feature","geometry":{"type":"Polygon","coordinates":[[[26.560417,67.40625],[26.564583,67.40625],[26.564583,67.410417],[26.560417,67.410417],[26.560417,67.40625]]]},"properties":{"radiance":9.95}},{"type":"Feature","geometry":{"type":"Polygon","coordinates":[[[26.564583,67.40625],[26.56875,67.40625],[26.56875,67.410417],[26.564583,67.410417],[26.564583,67.40625]]]},"properties":{"radiance":12.83}},{"type":"Feature","geometry":{"type":"Polygon","coordinates":[[[26.56875,67.40625],[26.572917,67.40625],[26.572917,67.410417],[26.56875,67.410417],[26.56875,67.40625]]]},"properties":{"radiance":13.29}},{"type":"Feature","geometry":{"type":"Polygon","coordinates":[[[26.572917,67.40625],[26.577083,67.40625],[26.577083,67.410417],[26.572917,67.410417],[26.572917,67.40625]]]},"properties":{"radiance":15.12}},{"type":"Feature","geometry":{"type":"Polygon","coordinates":[[[26.577083,67.40625],[26.58125,67.40625],[26.58125,67.410417],[26.577083,67.410417],[26.577083,67.40625]]]},"properties":{"radiance":15.65}},{"type":"Feature","geometry":{"type":"Polygon","coordinates":[[[26.58125,67.40625],[26.585417,67.40625],[26.585417,67.410417],[26.58125,67.410417],[26.58125,67.40625]]]},"properties":{"radiance":13.68}},{"type":"Feature","geometry":{"type":"Polygon","coordinates":[[[26.585417,67.40625],[26.589583,67.40625],[26.589583,67.410417],[26.585417,67.410417],[26.585417,67.40625]]]},"properties":{"radiance":6}},{"type":"Feature","geometry":{"type":"Polygon","coordinates":[[[26.589583,67.40625],[26.59375,67.40625],[26.59375,67.410417],[26.589583,67.410417],[26.589583,67.40625]]]},"properties":{"radiance":5.39}},{"type":"Feature","geometry":{"type":"Polygon","coordinates":[[[26.59375,67.40625],[26.597917,67.40625],[26.597917,67.410417],[26.59375,67.410417],[26.59375,67.40625]]]},"properties":{"radiance":8.58}},{"type":"Feature","geometry":{"type":"Polygon","coordinates":[[[26.597917,67.40625],[26.602083,67.40625],[26.602083,67.410417],[26.597917,67.410417],[26.597917,67.40625]]]},"properties":{"radiance":6.83}},{"type":"Feature","geometry":{"type":"Polygon","coordinates":[[[26.602083,67.40625],[26.60625,67.40625],[26.60625,67.410417],[26.602083,67.410417],[26.602083,67.40625]]]},"properties":{"radiance":5.32}},{"type":"Feature","geometry":{"type":"Polygon","coordinates":[[[26.610417,67.40625],[26.614583,67.40625],[26.614583,67.410417],[26.610417,67.410417],[26.610417,67.40625]]]},"properties":{"radiance":7.31}},{"type":"Feature","geometry":{"type":"Polygon","coordinates":[[[26.614583,67.40625],[26.61875,67.40625],[26.61875,67.410417],[26.614583,67.410417],[26.614583,67.40625]]]},"properties":{"radiance":7.52}},{"type":"Feature","geometry":{"type":"Polygon","coordinates":[[[26.61875,67.40625],[26.622917,67.40625],[26.622917,67.410417],[26.61875,67.410417],[26.61875,67.40625]]]},"properties":{"radiance":5.69}},{"type":"Feature","geometry":{"type":"Polygon","coordinates":[[[26.622917,67.40625],[26.627083,67.40625],[26.627083,67.410417],[26.622917,67.410417],[26.622917,67.40625]]]},"properties":{"radiance":8.14}},{"type":"Feature","geometry":{"type":"Polygon","coordinates":[[[26.627083,67.40625],[26.63125,67.40625],[26.63125,67.410417],[26.627083,67.410417],[26.627083,67.40625]]]},"properties":{"radiance":8.96}},{"type":"Feature","geometry":{"type":"Polygon","coordinates":[[[26.63125,67.40625],[26.635417,67.40625],[26.635417,67.410417],[26.63125,67.410417],[26.63125,67.40625]]]},"properties":{"radiance":11.08}},{"type":"Feature","geometry":{"type":"Polygon","coordinates":[[[26.635417,67.40625],[26.639583,67.40625],[26.639583,67.410417],[26.635417,67.410417],[26.635417,67.40625]]]},"properties":{"radiance":11.11}},{"type":"Feature","geometry":{"type":"Polygon","coordinates":[[[26.639583,67.40625],[26.64375,67.40625],[26.64375,67.410417],[26.639583,67.410417],[26.639583,67.40625]]]},"properties":{"radiance":9.22}},{"type":"Feature","geometry":{"type":"Polygon","coordinates":[[[26.55625,67.402083],[26.560417,67.402083],[26.560417,67.40625],[26.55625,67.40625],[26.55625,67.402083]]]},"properties":{"radiance":6.34}},{"type":"Feature","geometry":{"type":"Polygon","coordinates":[[[26.564583,67.402083],[26.56875,67.402083],[26.56875,67.40625],[26.564583,67.40625],[26.564583,67.402083]]]},"properties":{"radiance":6.73}},{"type":"Feature","geometry":{"type":"Polygon","coordinates":[[[26.56875,67.402083],[26.572917,67.402083],[26.572917,67.40625],[26.56875,67.40625],[26.56875,67.402083]]]},"properties":{"radiance":9.49}},{"type":"Feature","geometry":{"type":"Polygon","coordinates":[[[26.572917,67.402083],[26.577083,67.402083],[26.577083,67.40625],[26.572917,67.40625],[26.572917,67.402083]]]},"properties":{"radiance":6.82}},{"type":"Feature","geometry":{"type":"Polygon","coordinates":[[[26.577083,67.402083],[26.58125,67.402083],[26.58125,67.40625],[26.577083,67.40625],[26.577083,67.402083]]]},"properties":{"radiance":6.96}},{"type":"Feature","geometry":{"type":"Polygon","coordinates":[[[26.58125,67.402083],[26.585417,67.402083],[26.585417,67.40625],[26.58125,67.40625],[26.58125,67.402083]]]},"properties":{"radiance":5.59}},{"type":"Feature","geometry":{"type":"Polygon","coordinates":[[[26.602083,67.402083],[26.60625,67.402083],[26.60625,67.40625],[26.602083,67.40625],[26.602083,67.402083]]]},"properties":{"radiance":5.22}},{"type":"Feature","geometry":{"type":"Polygon","coordinates":[[[26.58125,67.397917],[26.585417,67.397917],[26.585417,67.402083],[26.58125,67.402083],[26.58125,67.397917]]]},"properties":{"radiance":7.92}},{"type":"Feature","geometry":{"type":"Polygon","coordinates":[[[26.60625,67.397917],[26.610417,67.397917],[26.610417,67.402083],[26.60625,67.402083],[26.60625,67.397917]]]},"properties":{"radiance":5.73}},{"type":"Feature","geometry":{"type":"Polygon","coordinates":[[[26.61875,67.397917],[26.622917,67.397917],[26.622917,67.402083],[26.61875,67.402083],[26.61875,67.397917]]]},"properties":{"radiance":5.82}},{"type":"Feature","geometry":{"type":"Polygon","coordinates":[[[26.560417,67.39375],[26.564583,67.39375],[26.564583,67.397917],[26.560417,67.397917],[26.560417,67.39375]]]},"properties":{"radiance":5.93}},{"type":"Feature","geometry":{"type":"Polygon","coordinates":[[[26.56875,67.39375],[26.572917,67.39375],[26.572917,67.397917],[26.56875,67.397917],[26.56875,67.39375]]]},"properties":{"radiance":5.27}},{"type":"Feature","geometry":{"type":"Polygon","coordinates":[[[26.589583,67.385417],[26.59375,67.385417],[26.59375,67.389583],[26.589583,67.389583],[26.589583,67.385417]]]},"properties":{"radiance":5.86}},{"type":"Feature","geometry":{"type":"Polygon","coordinates":[[[26.59375,67.385417],[26.597917,67.385417],[26.597917,67.389583],[26.59375,67.389583],[26.59375,67.385417]]]},"properties":{"radiance":5.75}},{"type":"Feature","geometry":{"type":"Polygon","coordinates":[[[26.59375,67.38125],[26.597917,67.38125],[26.597917,67.385417],[26.59375,67.385417],[26.59375,67.38125]]]},"properties":{"radiance":6.7}},{"type":"Feature","geometry":{"type":"Polygon","coordinates":[[[26.597917,67.38125],[26.602083,67.38125],[26.602083,67.385417],[26.597917,67.385417],[26.597917,67.38125]]]},"properties":{"radiance":5.37}},{"type":"Feature","geometry":{"type":"Polygon","coordinates":[[[26.877083,67.372917],[26.88125,67.372917],[26.88125,67.377083],[26.877083,67.377083],[26.877083,67.372917]]]},"properties":{"radiance":5.03}},{"type":"Feature","geometry":{"type":"Polygon","coordinates":[[[26.88125,67.372917],[26.885417,67.372917],[26.885417,67.377083],[26.88125,67.377083],[26.88125,67.372917]]]},"properties":{"radiance":5.13}},{"type":"Feature","geometry":{"type":"Polygon","coordinates":[[[26.885417,67.372917],[26.889583,67.372917],[26.889583,67.377083],[26.885417,67.377083],[26.885417,67.372917]]]},"properties":{"radiance":5.25}},{"type":"Feature","geometry":{"type":"Polygon","coordinates":[[[26.63125,67.352083],[26.635417,67.352083],[26.635417,67.35625],[26.63125,67.35625],[26.63125,67.352083]]]},"properties":{"radiance":6.04}},{"type":"Feature","geometry":{"type":"Polygon","coordinates":[[[26.635417,67.352083],[26.639583,67.352083],[26.639583,67.35625],[26.635417,67.35625],[26.635417,67.352083]]]},"properties":{"radiance":6.2}},{"type":"Feature","geometry":{"type":"Polygon","coordinates":[[[26.63125,67.347917],[26.635417,67.347917],[26.635417,67.352083],[26.63125,67.352083],[26.63125,67.347917]]]},"properties":{"radiance":5.3}},{"type":"Feature","geometry":{"type":"Polygon","coordinates":[[[26.689583,67.29375],[26.69375,67.29375],[26.69375,67.297917],[26.689583,67.297917],[26.689583,67.29375]]]},"properties":{"radiance":5.1}},{"type":"Feature","geometry":{"type":"Polygon","coordinates":[[[26.685417,67.289583],[26.689583,67.289583],[26.689583,67.29375],[26.685417,67.29375],[26.685417,67.289583]]]},"properties":{"radiance":5.24}},{"type":"Feature","geometry":{"type":"Polygon","coordinates":[[[26.69375,67.289583],[26.697917,67.289583],[26.697917,67.29375],[26.69375,67.29375],[26.69375,67.289583]]]},"properties":{"radiance":5.35}},{"type":"Feature","geometry":{"type":"Polygon","coordinates":[[[26.63125,67.197917],[26.635417,67.197917],[26.635417,67.202083],[26.63125,67.202083],[26.63125,67.197917]]]},"properties":{"radiance":8.1}},{"type":"Feature","geometry":{"type":"Polygon","coordinates":[[[26.635417,67.197917],[26.639583,67.197917],[26.639583,67.202083],[26.635417,67.202083],[26.635417,67.197917]]]},"properties":{"radiance":7.75}},{"type":"Feature","geometry":{"type":"Polygon","coordinates":[[[27.435417,67.197917],[27.439583,67.197917],[27.439583,67.202083],[27.435417,67.202083],[27.435417,67.197917]]]},"properties":{"radiance":5.26}},{"type":"Feature","geometry":{"type":"Polygon","coordinates":[[[27.439583,67.197917],[27.44375,67.197917],[27.44375,67.202083],[27.439583,67.202083],[27.439583,67.197917]]]},"properties":{"radiance":5.48}},{"type":"Feature","geometry":{"type":"Polygon","coordinates":[[[27.49375,67.114583],[27.497917,67.114583],[27.497917,67.11875],[27.49375,67.11875],[27.49375,67.114583]]]},"properties":{"radiance":10.72}},{"type":"Feature","geometry":{"type":"Polygon","coordinates":[[[27.502083,67.114583],[27.50625,67.114583],[27.50625,67.11875],[27.502083,67.11875],[27.502083,67.114583]]]},"properties":{"radiance":10.17}},{"type":"Feature","geometry":{"type":"Polygon","coordinates":[[[27.50625,67.114583],[27.510417,67.114583],[27.510417,67.11875],[27.50625,67.11875],[27.50625,67.114583]]]},"properties":{"radiance":11.13}},{"type":"Feature","geometry":{"type":"Polygon","coordinates":[[[27.49375,67.110417],[27.497917,67.110417],[27.497917,67.114583],[27.49375,67.114583],[27.49375,67.110417]]]},"properties":{"radiance":14.71}},{"type":"Feature","geometry":{"type":"Polygon","coordinates":[[[27.497917,67.110417],[27.502083,67.110417],[27.502083,67.114583],[27.497917,67.114583],[27.497917,67.110417]]]},"properties":{"radiance":5.54}},{"type":"Feature","geometry":{"type":"Polygon","coordinates":[[[27.502083,67.110417],[27.50625,67.110417],[27.50625,67.114583],[27.502083,67.114583],[27.502083,67.110417]]]},"properties":{"radiance":5.53}},{"type":"Feature","geometry":{"type":"Polygon","coordinates":[[[27.50625,67.110417],[27.510417,67.110417],[27.510417,67.114583],[27.50625,67.114583],[27.50625,67.110417]]]},"properties":{"radiance":10.4}},{"type":"Feature","geometry":{"type":"Polygon","coordinates":[[[27.510417,67.110417],[27.514583,67.110417],[27.514583,67.114583],[27.510417,67.114583],[27.510417,67.110417]]]},"properties":{"radiance":9.16}},{"type":"Feature","geometry":{"type":"Polygon","coordinates":[[[27.514583,67.110417],[27.51875,67.110417],[27.51875,67.114583],[27.514583,67.114583],[27.514583,67.110417]]]},"properties":{"radiance":7.72}},{"type":"Feature","geometry":{"type":"Polygon","coordinates":[[[27.51875,67.110417],[27.522917,67.110417],[27.522917,67.114583],[27.51875,67.114583],[27.51875,67.110417]]]},"properties":{"radiance":6.75}},{"type":"Feature","geometry":{"type":"Polygon","coordinates":[[[27.50625,67.10625],[27.510417,67.10625],[27.510417,67.110417],[27.50625,67.110417],[27.50625,67.10625]]]},"properties":{"radiance":6.51}},{"type":"Feature","geometry":{"type":"Polygon","coordinates":[[[27.51875,66.977083],[27.522917,66.977083],[27.522917,66.98125],[27.51875,66.98125],[27.51875,66.977083]]]},"properties":{"radiance":5.41}},{"type":"Feature","geometry":{"type":"Polygon","coordinates":[[[29.022917,66.947917],[29.027083,66.947917],[29.027083,66.952083],[29.022917,66.952083],[29.022917,66.947917]]]},"properties":{"radiance":11.82}},{"type":"Feature","geometry":{"type":"Polygon","coordinates":[[[29.010417,66.94375],[29.014583,66.94375],[29.014583,66.947917],[29.010417,66.947917],[29.010417,66.94375]]]},"properties":{"radiance":54}},{"type":"Feature","geometry":{"type":"Polygon","coordinates":[[[29.014583,66.94375],[29.01875,66.94375],[29.01875,66.947917],[29.014583,66.947917],[29.014583,66.94375]]]},"properties":{"radiance":64.62}},{"type":"Feature","geometry":{"type":"Polygon","coordinates":[[[29.01875,66.94375],[29.022917,66.94375],[29.022917,66.947917],[29.01875,66.947917],[29.01875,66.94375]]]},"properties":{"radiance":59.87}},{"type":"Feature","geometry":{"type":"Polygon","coordinates":[[[29.022917,66.94375],[29.027083,66.94375],[29.027083,66.947917],[29.022917,66.947917],[29.022917,66.94375]]]},"properties":{"radiance":41.8}},{"type":"Feature","geometry":{"type":"Polygon","coordinates":[[[29.027083,66.94375],[29.03125,66.94375],[29.03125,66.947917],[29.027083,66.947917],[29.027083,66.94375]]]},"properties":{"radiance":24.58}},{"type":"Feature","geometry":{"type":"Polygon","coordinates":[[[29.03125,66.94375],[29.035417,66.94375],[29.035417,66.947917],[29.03125,66.947917],[29.03125,66.94375]]]},"properties":{"radiance":25.82}},{"type":"Feature","geometry":{"type":"Polygon","coordinates":[[[29.035417,66.94375],[29.039583,66.94375],[29.039583,66.947917],[29.035417,66.947917],[29.035417,66.94375]]]},"properties":{"radiance":6.34}},{"type":"Feature","geometry":{"type":"Polygon","coordinates":[[[29.002083,66.939583],[29.00625,66.939583],[29.00625,66.94375],[29.002083,66.94375],[29.002083,66.939583]]]},"properties":{"radiance":5.52}},{"type":"Feature","geometry":{"type":"Polygon","coordinates":[[[29.00625,66.939583],[29.010417,66.939583],[29.010417,66.94375],[29.00625,66.94375],[29.00625,66.939583]]]},"properties":{"radiance":11.71}},{"type":"Feature","geometry":{"type":"Polygon","coordinates":[[[29.010417,66.939583],[29.014583,66.939583],[29.014583,66.94375],[29.010417,66.94375],[29.010417,66.939583]]]},"properties":{"radiance":23.5}},{"type":"Feature","geometry":{"type":"Polygon","coordinates":[[[29.014583,66.939583],[29.01875,66.939583],[29.01875,66.94375],[29.014583,66.94375],[29.014583,66.939583]]]},"properties":{"radiance":82.91}},{"type":"Feature","geometry":{"type":"Polygon","coordinates":[[[29.01875,66.939583],[29.022917,66.939583],[29.022917,66.94375],[29.01875,66.94375],[29.01875,66.939583]]]},"properties":{"radiance":76.13}},{"type":"Feature","geometry":{"type":"Polygon","coordinates":[[[29.022917,66.939583],[29.027083,66.939583],[29.027083,66.94375],[29.022917,66.94375],[29.022917,66.939583]]]},"properties":{"radiance":17.74}},{"type":"Feature","geometry":{"type":"Polygon","coordinates":[[[28.664583,66.835417],[28.66875,66.835417],[28.66875,66.839583],[28.664583,66.839583],[28.664583,66.835417]]]},"properties":{"radiance":21.35}},{"type":"Feature","geometry":{"type":"Polygon","coordinates":[[[28.66875,66.835417],[28.672917,66.835417],[28.672917,66.839583],[28.66875,66.839583],[28.66875,66.835417]]]},"properties":{"radiance":9}},{"type":"Feature","geometry":{"type":"Polygon","coordinates":[[[28.672917,66.835417],[28.677083,66.835417],[28.677083,66.839583],[28.672917,66.839583],[28.672917,66.835417]]]},"properties":{"radiance":7.93}},{"type":"Feature","geometry":{"type":"Polygon","coordinates":[[[28.677083,66.835417],[28.68125,66.835417],[28.68125,66.839583],[28.677083,66.839583],[28.677083,66.835417]]]},"properties":{"radiance":10.03}},{"type":"Feature","geometry":{"type":"Polygon","coordinates":[[[28.639583,66.83125],[28.64375,66.83125],[28.64375,66.835417],[28.639583,66.835417],[28.639583,66.83125]]]},"properties":{"radiance":5.91}},{"type":"Feature","geometry":{"type":"Polygon","coordinates":[[[28.64375,66.83125],[28.647917,66.83125],[28.647917,66.835417],[28.64375,66.835417],[28.64375,66.83125]]]},"properties":{"radiance":5.97}},{"type":"Feature","geometry":{"type":"Polygon","coordinates":[[[28.647917,66.83125],[28.652083,66.83125],[28.652083,66.835417],[28.647917,66.835417],[28.647917,66.83125]]]},"properties":{"radiance":5.57}},{"type":"Feature","geometry":{"type":"Polygon","coordinates":[[[28.65625,66.83125],[28.660417,66.83125],[28.660417,66.835417],[28.65625,66.835417],[28.65625,66.83125]]]},"properties":{"radiance":5.38}},{"type":"Feature","geometry":{"type":"Polygon","coordinates":[[[28.660417,66.83125],[28.664583,66.83125],[28.664583,66.835417],[28.660417,66.835417],[28.660417,66.83125]]]},"properties":{"radiance":7.53}},{"type":"Feature","geometry":{"type":"Polygon","coordinates":[[[28.664583,66.83125],[28.66875,66.83125],[28.66875,66.835417],[28.664583,66.835417],[28.664583,66.83125]]]},"properties":{"radiance":11.45}},{"type":"Feature","geometry":{"type":"Polygon","coordinates":[[[28.66875,66.83125],[28.672917,66.83125],[28.672917,66.835417],[28.66875,66.835417],[28.66875,66.83125]]]},"properties":{"radiance":10.36}},{"type":"Feature","geometry":{"type":"Polygon","coordinates":[[[28.672917,66.83125],[28.677083,66.83125],[28.677083,66.835417],[28.672917,66.835417],[28.672917,66.83125]]]},"properties":{"radiance":8.76}},{"type":"Feature","geometry":{"type":"Polygon","coordinates":[[[28.677083,66.83125],[28.68125,66.83125],[28.68125,66.835417],[28.677083,66.835417],[28.677083,66.83125]]]},"properties":{"radiance":7.15}},{"type":"Feature","geometry":{"type":"Polygon","coordinates":[[[28.64375,66.827083],[28.647917,66.827083],[28.647917,66.83125],[28.64375,66.83125],[28.64375,66.827083]]]},"properties":{"radiance":6.27}},{"type":"Feature","geometry":{"type":"Polygon","coordinates":[[[28.647917,66.827083],[28.652083,66.827083],[28.652083,66.83125],[28.647917,66.83125],[28.647917,66.827083]]]},"properties":{"radiance":5.95}},{"type":"Feature","geometry":{"type":"Polygon","coordinates":[[[28.652083,66.827083],[28.65625,66.827083],[28.65625,66.83125],[28.652083,66.83125],[28.652083,66.827083]]]},"properties":{"radiance":6}},{"type":"Feature","geometry":{"type":"Polygon","coordinates":[[[28.65625,66.827083],[28.660417,66.827083],[28.660417,66.83125],[28.65625,66.83125],[28.65625,66.827083]]]},"properties":{"radiance":5.77}},{"type":"Feature","geometry":{"type":"Polygon","coordinates":[[[28.660417,66.827083],[28.664583,66.827083],[28.664583,66.83125],[28.660417,66.83125],[28.660417,66.827083]]]},"properties":{"radiance":11.97}},{"type":"Feature","geometry":{"type":"Polygon","coordinates":[[[28.664583,66.827083],[28.66875,66.827083],[28.66875,66.83125],[28.664583,66.83125],[28.664583,66.827083]]]},"properties":{"radiance":15.14}},{"type":"Feature","geometry":{"type":"Polygon","coordinates":[[[28.66875,66.827083],[28.672917,66.827083],[28.672917,66.83125],[28.66875,66.83125],[28.66875,66.827083]]]},"properties":{"radiance":8.85}},{"type":"Feature","geometry":{"type":"Polygon","coordinates":[[[28.672917,66.827083],[28.677083,66.827083],[28.677083,66.83125],[28.672917,66.83125],[28.672917,66.827083]]]},"properties":{"radiance":8.23}},{"type":"Feature","geometry":{"type":"Polygon","coordinates":[[[28.677083,66.827083],[28.68125,66.827083],[28.68125,66.83125],[28.677083,66.83125],[28.677083,66.827083]]]},"properties":{"radiance":7.31}},{"type":"Feature","geometry":{"type":"Polygon","coordinates":[[[28.664583,66.822917],[28.66875,66.822917],[28.66875,66.827083],[28.664583,66.827083],[28.664583,66.822917]]]},"properties":{"radiance":5.99}},{"type":"Feature","geometry":{"type":"Polygon","coordinates":[[[28.66875,66.822917],[28.672917,66.822917],[28.672917,66.827083],[28.66875,66.827083],[28.66875,66.822917]]]},"properties":{"radiance":7.77}},{"type":"Feature","geometry":{"type":"Polygon","coordinates":[[[28.672917,66.822917],[28.677083,66.822917],[28.677083,66.827083],[28.672917,66.827083],[28.672917,66.822917]]]},"properties":{"radiance":6.82}},{"type":"Feature","geometry":{"type":"Polygon","coordinates":[[[28.677083,66.822917],[28.68125,66.822917],[28.68125,66.827083],[28.677083,66.827083],[28.677083,66.822917]]]},"properties":{"radiance":5.99}},{"type":"Feature","geometry":{"type":"Polygon","coordinates":[[[28.68125,66.822917],[28.685417,66.822917],[28.685417,66.827083],[28.68125,66.827083],[28.68125,66.822917]]]},"properties":{"radiance":5.36}},{"type":"Feature","geometry":{"type":"Polygon","coordinates":[[[28.66875,66.81875],[28.672917,66.81875],[28.672917,66.822917],[28.66875,66.822917],[28.66875,66.81875]]]},"properties":{"radiance":5.6}},{"type":"Feature","geometry":{"type":"Polygon","coordinates":[[[28.672917,66.81875],[28.677083,66.81875],[28.677083,66.822917],[28.672917,66.822917],[28.672917,66.81875]]]},"properties":{"radiance":7.03}},{"type":"Feature","geometry":{"type":"Polygon","coordinates":[[[28.677083,66.81875],[28.68125,66.81875],[28.68125,66.822917],[28.677083,66.822917],[28.677083,66.81875]]]},"properties":{"radiance":6.58}},{"type":"Feature","geometry":{"type":"Polygon","coordinates":[[[28.752083,66.764583],[28.75625,66.764583],[28.75625,66.76875],[28.752083,66.76875],[28.752083,66.764583]]]},"properties":{"radiance":8.57}},{"type":"Feature","geometry":{"type":"Polygon","coordinates":[[[28.752083,66.760417],[28.75625,66.760417],[28.75625,66.764583],[28.752083,66.764583],[28.752083,66.760417]]]},"properties":{"radiance":10.17}},{"type":"Feature","geometry":{"type":"Polygon","coordinates":[[[28.75625,66.760417],[28.760417,66.760417],[28.760417,66.764583],[28.75625,66.764583],[28.75625,66.760417]]]},"properties":{"radiance":12.51}},{"type":"Feature","geometry":{"type":"Polygon","coordinates":[[[28.760417,66.760417],[28.764583,66.760417],[28.764583,66.764583],[28.760417,66.764583],[28.760417,66.760417]]]},"properties":{"radiance":12.95}},{"type":"Feature","geometry":{"type":"Polygon","coordinates":[[[28.764583,66.760417],[28.76875,66.760417],[28.76875,66.764583],[28.764583,66.764583],[28.764583,66.760417]]]},"properties":{"radiance":11.15}},{"type":"Feature","geometry":{"type":"Polygon","coordinates":[[[28.76875,66.760417],[28.772917,66.760417],[28.772917,66.764583],[28.76875,66.764583],[28.76875,66.760417]]]},"properties":{"radiance":11.48}},{"type":"Feature","geometry":{"type":"Polygon","coordinates":[[[28.75625,66.75625],[28.760417,66.75625],[28.760417,66.760417],[28.75625,66.760417],[28.75625,66.75625]]]},"properties":{"radiance":5.54}},{"type":"Feature","geometry":{"type":"Polygon","coordinates":[[[28.760417,66.75625],[28.764583,66.75625],[28.764583,66.760417],[28.760417,66.760417],[28.760417,66.75625]]]},"properties":{"radiance":8.4}},{"type":"Feature","geometry":{"type":"Polygon","coordinates":[[[28.764583,66.75625],[28.76875,66.75625],[28.76875,66.760417],[28.764583,66.760417],[28.764583,66.75625]]]},"properties":{"radiance":12.25}},{"type":"Feature","geometry":{"type":"Polygon","coordinates":[[[28.76875,66.75625],[28.772917,66.75625],[28.772917,66.760417],[28.76875,66.760417],[28.76875,66.75625]]]},"properties":{"radiance":11.71}},{"type":"Feature","geometry":{"type":"Polygon","coordinates":[[[28.772917,66.75625],[28.777083,66.75625],[28.777083,66.760417],[28.772917,66.760417],[28.772917,66.75625]]]},"properties":{"radiance":13.86}},{"type":"Feature","geometry":{"type":"Polygon","coordinates":[[[28.777083,66.75625],[28.78125,66.75625],[28.78125,66.760417],[28.777083,66.760417],[28.777083,66.75625]]]},"properties":{"radiance":10.31}},{"type":"Feature","geometry":{"type":"Polygon","coordinates":[[[28.760417,66.752083],[28.764583,66.752083],[28.764583,66.75625],[28.760417,66.75625],[28.760417,66.752083]]]},"properties":{"radiance":5.86}},{"type":"Feature","geometry":{"type":"Polygon","coordinates":[[[28.764583,66.752083],[28.76875,66.752083],[28.76875,66.75625],[28.764583,66.75625],[28.764583,66.752083]]]},"properties":{"radiance":6.15}},{"type":"Feature","geometry":{"type":"Polygon","coordinates":[[[28.76875,66.752083],[28.772917,66.752083],[28.772917,66.75625],[28.76875,66.75625],[28.76875,66.752083]]]},"properties":{"radiance":10.08}},{"type":"Feature","geometry":{"type":"Polygon","coordinates":[[[28.772917,66.752083],[28.777083,66.752083],[28.777083,66.75625],[28.772917,66.75625],[28.772917,66.752083]]]},"properties":{"radiance":5.88}},{"type":"Feature","geometry":{"type":"Polygon","coordinates":[[[28.78125,66.747917],[28.785417,66.747917],[28.785417,66.752083],[28.78125,66.752083],[28.78125,66.747917]]]},"properties":{"radiance":6.16}},{"type":"Feature","geometry":{"type":"Polygon","coordinates":[[[28.785417,66.747917],[28.789583,66.747917],[28.789583,66.752083],[28.785417,66.752083],[28.785417,66.747917]]]},"properties":{"radiance":6.42}},{"type":"Feature","geometry":{"type":"Polygon","coordinates":[[[28.789583,66.747917],[28.79375,66.747917],[28.79375,66.752083],[28.789583,66.752083],[28.789583,66.747917]]]},"properties":{"radiance":7.16}},{"type":"Feature","geometry":{"type":"Polygon","coordinates":[[[28.797917,66.74375],[28.802083,66.74375],[28.802083,66.747917],[28.797917,66.747917],[28.797917,66.74375]]]},"properties":{"radiance":7.91}},{"type":"Feature","geometry":{"type":"Polygon","coordinates":[[[28.802083,66.74375],[28.80625,66.74375],[28.80625,66.747917],[28.802083,66.747917],[28.802083,66.74375]]]},"properties":{"radiance":8.89}},{"type":"Feature","geometry":{"type":"Polygon","coordinates":[[[28.80625,66.74375],[28.810417,66.74375],[28.810417,66.747917],[28.80625,66.747917],[28.80625,66.74375]]]},"properties":{"radiance":7.96}},{"type":"Feature","geometry":{"type":"Polygon","coordinates":[[[28.810417,66.74375],[28.814583,66.74375],[28.814583,66.747917],[28.810417,66.747917],[28.810417,66.74375]]]},"properties":{"radiance":7.02}},{"type":"Feature","geometry":{"type":"Polygon","coordinates":[[[28.81875,66.74375],[28.822917,66.74375],[28.822917,66.747917],[28.81875,66.747917],[28.81875,66.74375]]]},"properties":{"radiance":7.25}},{"type":"Feature","geometry":{"type":"Polygon","coordinates":[[[27.49375,66.735417],[27.497917,66.735417],[27.497917,66.739583],[27.49375,66.739583],[27.49375,66.735417]]]},"properties":{"radiance":11.45}},{"type":"Feature","geometry":{"type":"Polygon","coordinates":[[[27.497917,66.735417],[27.502083,66.735417],[27.502083,66.739583],[27.497917,66.739583],[27.497917,66.735417]]]},"properties":{"radiance":11.51}},{"type":"Feature","geometry":{"type":"Polygon","coordinates":[[[27.502083,66.735417],[27.50625,66.735417],[27.50625,66.739583],[27.502083,66.739583],[27.502083,66.735417]]]},"properties":{"radiance":8.98}},{"type":"Feature","geometry":{"type":"Polygon","coordinates":[[[27.50625,66.735417],[27.510417,66.735417],[27.510417,66.739583],[27.50625,66.739583],[27.50625,66.735417]]]},"properties":{"radiance":12.58}},{"type":"Feature","geometry":{"type":"Polygon","coordinates":[[[27.497917,66.73125],[27.502083,66.73125],[27.502083,66.735417],[27.497917,66.735417],[27.497917,66.73125]]]},"properties":{"radiance":10.57}},{"type":"Feature","geometry":{"type":"Polygon","coordinates":[[[27.502083,66.73125],[27.50625,66.73125],[27.50625,66.735417],[27.502083,66.735417],[27.502083,66.73125]]]},"properties":{"radiance":7.46}},{"type":"Feature","geometry":{"type":"Polygon","coordinates":[[[27.50625,66.73125],[27.510417,66.73125],[27.510417,66.735417],[27.50625,66.735417],[27.50625,66.73125]]]},"properties":{"radiance":19.41}},{"type":"Feature","geometry":{"type":"Polygon","coordinates":[[[27.510417,66.73125],[27.514583,66.73125],[27.514583,66.735417],[27.510417,66.735417],[27.510417,66.73125]]]},"properties":{"radiance":22.77}},{"type":"Feature","geometry":{"type":"Polygon","coordinates":[[[27.514583,66.73125],[27.51875,66.73125],[27.51875,66.735417],[27.514583,66.735417],[27.514583,66.73125]]]},"properties":{"radiance":11.53}},{"type":"Feature","geometry":{"type":"Polygon","coordinates":[[[27.51875,66.73125],[27.522917,66.73125],[27.522917,66.735417],[27.51875,66.735417],[27.51875,66.73125]]]},"properties":{"radiance":17.47}},{"type":"Feature","geometry":{"type":"Polygon","coordinates":[[[27.522917,66.73125],[27.527083,66.73125],[27.527083,66.735417],[27.522917,66.735417],[27.522917,66.73125]]]},"properties":{"radiance":16.03}},{"type":"Feature","geometry":{"type":"Polygon","coordinates":[[[27.527083,66.73125],[27.53125,66.73125],[27.53125,66.735417],[27.527083,66.735417],[27.527083,66.73125]]]},"properties":{"radiance":6.03}},{"type":"Feature","geometry":{"type":"Polygon","coordinates":[[[27.50625,66.727083],[27.510417,66.727083],[27.510417,66.73125],[27.50625,66.73125],[27.50625,66.727083]]]},"properties":{"radiance":5.56}},{"type":"Feature","geometry":{"type":"Polygon","coordinates":[[[27.510417,66.727083],[27.514583,66.727083],[27.514583,66.73125],[27.510417,66.73125],[27.510417,66.727083]]]},"properties":{"radiance":14.22}},{"type":"Feature","geometry":{"type":"Polygon","coordinates":[[[27.514583,66.727083],[27.51875,66.727083],[27.51875,66.73125],[27.514583,66.73125],[27.514583,66.727083]]]},"properties":{"radiance":28.77}},{"type":"Feature","geometry":{"type":"Polygon","coordinates":[[[27.51875,66.727083],[27.522917,66.727083],[27.522917,66.73125],[27.51875,66.73125],[27.51875,66.727083]]]},"properties":{"radiance":11.5}},{"type":"Feature","geometry":{"type":"Polygon","coordinates":[[[27.522917,66.727083],[27.527083,66.727083],[27.527083,66.73125],[27.522917,66.73125],[27.522917,66.727083]]]},"properties":{"radiance":9.41}},{"type":"Feature","geometry":{"type":"Polygon","coordinates":[[[27.527083,66.727083],[27.53125,66.727083],[27.53125,66.73125],[27.527083,66.73125],[27.527083,66.727083]]]},"properties":{"radiance":8.99}},{"type":"Feature","geometry":{"type":"Polygon","coordinates":[[[27.53125,66.727083],[27.535417,66.727083],[27.535417,66.73125],[27.53125,66.73125],[27.53125,66.727083]]]},"properties":{"radiance":5.01}},{"type":"Feature","geometry":{"type":"Polygon","coordinates":[[[27.510417,66.722917],[27.514583,66.722917],[27.514583,66.727083],[27.510417,66.727083],[27.510417,66.722917]]]},"properties":{"radiance":5.83}},{"type":"Feature","geometry":{"type":"Polygon","coordinates":[[[27.514583,66.722917],[27.51875,66.722917],[27.51875,66.727083],[27.514583,66.727083],[27.514583,66.722917]]]},"properties":{"radiance":8.68}},{"type":"Feature","geometry":{"type":"Polygon","coordinates":[[[27.51875,66.722917],[27.522917,66.722917],[27.522917,66.727083],[27.51875,66.727083],[27.51875,66.722917]]]},"properties":{"radiance":9.89}},{"type":"Feature","geometry":{"type":"Polygon","coordinates":[[[27.522917,66.722917],[27.527083,66.722917],[27.527083,66.727083],[27.522917,66.727083],[27.522917,66.722917]]]},"properties":{"radiance":7.82}},{"type":"Feature","geometry":{"type":"Polygon","coordinates":[[[27.527083,66.722917],[27.53125,66.722917],[27.53125,66.727083],[27.527083,66.727083],[27.527083,66.722917]]]},"properties":{"radiance":8.27}},{"type":"Feature","geometry":{"type":"Polygon","coordinates":[[[27.53125,66.722917],[27.535417,66.722917],[27.535417,66.727083],[27.53125,66.727083],[27.53125,66.722917]]]},"properties":{"radiance":6.04}},{"type":"Feature","geometry":{"type":"Polygon","coordinates":[[[27.514583,66.71875],[27.51875,66.71875],[27.51875,66.722917],[27.514583,66.722917],[27.514583,66.71875]]]},"properties":{"radiance":6.26}},{"type":"Feature","geometry":{"type":"Polygon","coordinates":[[[27.51875,66.71875],[27.522917,66.71875],[27.522917,66.722917],[27.51875,66.722917],[27.51875,66.71875]]]},"properties":{"radiance":8.49}},{"type":"Feature","geometry":{"type":"Polygon","coordinates":[[[27.522917,66.71875],[27.527083,66.71875],[27.527083,66.722917],[27.522917,66.722917],[27.522917,66.71875]]]},"properties":{"radiance":8.44}},{"type":"Feature","geometry":{"type":"Polygon","coordinates":[[[27.527083,66.71875],[27.53125,66.71875],[27.53125,66.722917],[27.527083,66.722917],[27.527083,66.71875]]]},"properties":{"radiance":6.67}},{"type":"Feature","geometry":{"type":"Polygon","coordinates":[[[27.489583,66.714583],[27.49375,66.714583],[27.49375,66.71875],[27.489583,66.71875],[27.489583,66.714583]]]},"properties":{"radiance":10.56}},{"type":"Feature","geometry":{"type":"Polygon","coordinates":[[[27.49375,66.714583],[27.497917,66.714583],[27.497917,66.71875],[27.49375,66.71875],[27.49375,66.714583]]]},"properties":{"radiance":7.7}},{"type":"Feature","geometry":{"type":"Polygon","coordinates":[[[27.497917,66.714583],[27.502083,66.714583],[27.502083,66.71875],[27.497917,66.71875],[27.497917,66.714583]]]},"properties":{"radiance":5.26}},{"type":"Feature","geometry":{"type":"Polygon","coordinates":[[[27.510417,66.714583],[27.514583,66.714583],[27.514583,66.71875],[27.510417,66.71875],[27.510417,66.714583]]]},"properties":{"radiance":5.89}},{"type":"Feature","geometry":{"type":"Polygon","coordinates":[[[27.514583,66.714583],[27.51875,66.714583],[27.51875,66.71875],[27.514583,66.71875],[27.514583,66.714583]]]},"properties":{"radiance":7.88}},{"type":"Feature","geometry":{"type":"Polygon","coordinates":[[[27.51875,66.714583],[27.522917,66.714583],[27.522917,66.71875],[27.51875,66.71875],[27.51875,66.714583]]]},"properties":{"radiance":9.45}},{"type":"Feature","geometry":{"type":"Polygon","coordinates":[[[27.522917,66.714583],[27.527083,66.714583],[27.527083,66.71875],[27.522917,66.71875],[27.522917,66.714583]]]},"properties":{"radiance":6.04}},{"type":"Feature","geometry":{"type":"Polygon","coordinates":[[[27.527083,66.714583],[27.53125,66.714583],[27.53125,66.71875],[27.527083,66.71875],[27.527083,66.714583]]]},"properties":{"radiance":10.06}},{"type":"Feature","geometry":{"type":"Polygon","coordinates":[[[27.53125,66.714583],[27.535417,66.714583],[27.535417,66.71875],[27.53125,66.71875],[27.53125,66.714583]]]},"properties":{"radiance":8.54}},{"type":"Feature","geometry":{"type":"Polygon","coordinates":[[[27.497917,66.710417],[27.502083,66.710417],[27.502083,66.714583],[27.497917,66.714583],[27.497917,66.710417]]]},"properties":{"radiance":5.14}},{"type":"Feature","geometry":{"type":"Polygon","coordinates":[[[27.50625,66.710417],[27.510417,66.710417],[27.510417,66.714583],[27.50625,66.714583],[27.50625,66.710417]]]},"properties":{"radiance":5.1}},{"type":"Feature","geometry":{"type":"Polygon","coordinates":[[[27.510417,66.710417],[27.514583,66.710417],[27.514583,66.714583],[27.510417,66.714583],[27.510417,66.710417]]]},"properties":{"radiance":8.33}},{"type":"Feature","geometry":{"type":"Polygon","coordinates":[[[27.514583,66.710417],[27.51875,66.710417],[27.51875,66.714583],[27.514583,66.714583],[27.514583,66.710417]]]},"properties":{"radiance":6.86}},{"type":"Feature","geometry":{"type":"Polygon","coordinates":[[[27.51875,66.710417],[27.522917,66.710417],[27.522917,66.714583],[27.51875,66.714583],[27.51875,66.710417]]]},"properties":{"radiance":6.4}},{"type":"Feature","geometry":{"type":"Polygon","coordinates":[[[27.522917,66.710417],[27.527083,66.710417],[27.527083,66.714583],[27.522917,66.714583],[27.522917,66.710417]]]},"properties":{"radiance":10.25}},{"type":"Feature","geometry":{"type":"Polygon","coordinates":[[[27.527083,66.710417],[27.53125,66.710417],[27.53125,66.714583],[27.527083,66.714583],[27.527083,66.710417]]]},"properties":{"radiance":11.74}},{"type":"Feature","geometry":{"type":"Polygon","coordinates":[[[27.53125,66.710417],[27.535417,66.710417],[27.535417,66.714583],[27.53125,66.714583],[27.53125,66.710417]]]},"properties":{"radiance":9.28}},{"type":"Feature","geometry":{"type":"Polygon","coordinates":[[[27.547917,66.710417],[27.552083,66.710417],[27.552083,66.714583],[27.547917,66.714583],[27.547917,66.710417]]]},"properties":{"radiance":5.13}},{"type":"Feature","geometry":{"type":"Polygon","coordinates":[[[27.54375,66.70625],[27.547917,66.70625],[27.547917,66.710417],[27.54375,66.710417],[27.54375,66.70625]]]},"properties":{"radiance":5.67}},{"type":"Feature","geometry":{"type":"Polygon","coordinates":[[[27.547917,66.70625],[27.552083,66.70625],[27.552083,66.710417],[27.547917,66.710417],[27.547917,66.70625]]]},"properties":{"radiance":5.66}},{"type":"Feature","geometry":{"type":"Polygon","coordinates":[[[27.552083,66.702083],[27.55625,66.702083],[27.55625,66.70625],[27.552083,66.70625],[27.552083,66.702083]]]},"properties":{"radiance":5.26}},{"type":"Feature","geometry":{"type":"Polygon","coordinates":[[[27.547917,66.697917],[27.552083,66.697917],[27.552083,66.702083],[27.547917,66.702083],[27.547917,66.697917]]]},"properties":{"radiance":6.25}},{"type":"Feature","geometry":{"type":"Polygon","coordinates":[[[27.552083,66.697917],[27.55625,66.697917],[27.55625,66.702083],[27.552083,66.702083],[27.552083,66.697917]]]},"properties":{"radiance":6.79}},{"type":"Feature","geometry":{"type":"Polygon","coordinates":[[[27.560417,66.697917],[27.564583,66.697917],[27.564583,66.702083],[27.560417,66.702083],[27.560417,66.697917]]]},"properties":{"radiance":5.02}},{"type":"Feature","geometry":{"type":"Polygon","coordinates":[[[27.54375,66.69375],[27.547917,66.69375],[27.547917,66.697917],[27.54375,66.697917],[27.54375,66.69375]]]},"properties":{"radiance":5.93}},{"type":"Feature","geometry":{"type":"Polygon","coordinates":[[[27.547917,66.69375],[27.552083,66.69375],[27.552083,66.697917],[27.547917,66.697917],[27.547917,66.69375]]]},"properties":{"radiance":6.54}},{"type":"Feature","geometry":{"type":"Polygon","coordinates":[[[27.552083,66.69375],[27.55625,66.69375],[27.55625,66.697917],[27.552083,66.697917],[27.552083,66.69375]]]},"properties":{"radiance":6.91}},{"type":"Feature","geometry":{"type":"Polygon","coordinates":[[[27.55625,66.69375],[27.560417,66.69375],[27.560417,66.697917],[27.55625,66.697917],[27.55625,66.69375]]]},"properties":{"radiance":6.24}},{"type":"Feature","geometry":{"type":"Polygon","coordinates":[[[27.560417,66.69375],[27.564583,66.69375],[27.564583,66.697917],[27.560417,66.697917],[27.560417,66.69375]]]},"properties":{"radiance":5.81}},{"type":"Feature","geometry":{"type":"Polygon","coordinates":[[[27.564583,66.69375],[27.56875,66.69375],[27.56875,66.697917],[27.564583,66.697917],[27.564583,66.69375]]]},"properties":{"radiance":5.42}},{"type":"Feature","geometry":{"type":"Polygon","coordinates":[[[27.56875,66.69375],[27.572917,66.69375],[27.572917,66.697917],[27.56875,66.697917],[27.56875,66.69375]]]},"properties":{"radiance":7.22}},{"type":"Feature","geometry":{"type":"Polygon","coordinates":[[[27.572917,66.69375],[27.577083,66.69375],[27.577083,66.697917],[27.572917,66.697917],[27.572917,66.69375]]]},"properties":{"radiance":6.51}},{"type":"Feature","geometry":{"type":"Polygon","coordinates":[[[27.577083,66.69375],[27.58125,66.69375],[27.58125,66.697917],[27.577083,66.697917],[27.577083,66.69375]]]},"properties":{"radiance":6.23}},{"type":"Feature","geometry":{"type":"Polygon","coordinates":[[[27.55625,66.689583],[27.560417,66.689583],[27.560417,66.69375],[27.55625,66.69375],[27.55625,66.689583]]]},"properties":{"radiance":5.09}},{"type":"Feature","geometry":{"type":"Polygon","coordinates":[[[27.560417,66.689583],[27.564583,66.689583],[27.564583,66.69375],[27.560417,66.69375],[27.560417,66.689583]]]},"properties":{"radiance":6.4}},{"type":"Feature","geometry":{"type":"Polygon","coordinates":[[[27.952083,66.689583],[27.95625,66.689583],[27.95625,66.69375],[27.952083,66.69375],[27.952083,66.689583]]]},"properties":{"radiance":5.92}},{"type":"Feature","geometry":{"type":"Polygon","coordinates":[[[27.960417,66.689583],[27.964583,66.689583],[27.964583,66.69375],[27.960417,66.69375],[27.960417,66.689583]]]},"properties":{"radiance":5.88}},{"type":"Feature","geometry":{"type":"Polygon","coordinates":[[[27.964583,66.685417],[27.96875,66.685417],[27.96875,66.689583],[27.964583,66.689583],[27.964583,66.685417]]]},"properties":{"radiance":7.36}},{"type":"Feature","geometry":{"type":"Polygon","coordinates":[[[27.96875,66.685417],[27.972917,66.685417],[27.972917,66.689583],[27.96875,66.689583],[27.96875,66.685417]]]},"properties":{"radiance":6.74}},{"type":"Feature","geometry":{"type":"Polygon","coordinates":[[[27.972917,66.685417],[27.977083,66.685417],[27.977083,66.689583],[27.972917,66.689583],[27.972917,66.685417]]]},"properties":{"radiance":6.15}},{"type":"Feature","geometry":{"type":"Polygon","coordinates":[[[27.977083,66.685417],[27.98125,66.685417],[27.98125,66.689583],[27.977083,66.689583],[27.977083,66.685417]]]},"properties":{"radiance":5.33}},{"type":"Feature","geometry":{"type":"Polygon","coordinates":[[[27.985417,66.685417],[27.989583,66.685417],[27.989583,66.689583],[27.985417,66.689583],[27.985417,66.685417]]]},"properties":{"radiance":5.48}},{"type":"Feature","geometry":{"type":"Polygon","coordinates":[[[27.977083,66.68125],[27.98125,66.68125],[27.98125,66.685417],[27.977083,66.685417],[27.977083,66.68125]]]},"properties":{"radiance":6.47}},{"type":"Feature","geometry":{"type":"Polygon","coordinates":[[[27.98125,66.68125],[27.985417,66.68125],[27.985417,66.685417],[27.98125,66.685417],[27.98125,66.68125]]]},"properties":{"radiance":8.12}},{"type":"Feature","geometry":{"type":"Polygon","coordinates":[[[27.985417,66.68125],[27.989583,66.68125],[27.989583,66.685417],[27.985417,66.685417],[27.985417,66.68125]]]},"properties":{"radiance":7.75}},{"type":"Feature","geometry":{"type":"Polygon","coordinates":[[[28.002083,66.672917],[28.00625,66.672917],[28.00625,66.677083],[28.002083,66.677083],[28.002083,66.672917]]]},"properties":{"radiance":5.77}},{"type":"Feature","geometry":{"type":"Polygon","coordinates":[[[28.00625,66.672917],[28.010417,66.672917],[28.010417,66.677083],[28.00625,66.677083],[28.00625,66.672917]]]},"properties":{"radiance":5.33}},{"type":"Feature","geometry":{"type":"Polygon","coordinates":[[[28.002083,66.66875],[28.00625,66.66875],[28.00625,66.672917],[28.002083,66.672917],[28.002083,66.66875]]]},"properties":{"radiance":5.93}},{"type":"Feature","geometry":{"type":"Polygon","coordinates":[[[28.00625,66.66875],[28.010417,66.66875],[28.010417,66.672917],[28.00625,66.672917],[28.00625,66.66875]]]},"properties":{"radiance":5.01}},{"type":"Feature","geometry":{"type":"Polygon","coordinates":[[[28.00625,66.664583],[28.010417,66.664583],[28.010417,66.66875],[28.00625,66.66875],[28.00625,66.664583]]]},"properties":{"radiance":6.81}},{"type":"Feature","geometry":{"type":"Polygon","coordinates":[[[28.00625,66.560417],[28.010417,66.560417],[28.010417,66.564583],[28.00625,66.564583],[28.00625,66.560417]]]},"properties":{"radiance":5.31}},{"type":"Feature","geometry":{"type":"Polygon","coordinates":[[[28.014583,66.560417],[28.01875,66.560417],[28.01875,66.564583],[28.014583,66.564583],[28.014583,66.560417]]]},"properties":{"radiance":8.9}},{"type":"Feature","geometry":{"type":"Polygon","coordinates":[[[28.01875,66.560417],[28.022917,66.560417],[28.022917,66.564583],[28.01875,66.564583],[28.01875,66.560417]]]},"properties":{"radiance":10.16}},{"type":"Feature","geometry":{"type":"Polygon","coordinates":[[[28.022917,66.560417],[28.027083,66.560417],[28.027083,66.564583],[28.022917,66.564583],[28.022917,66.560417]]]},"properties":{"radiance":6.66}},{"type":"Feature","geometry":{"type":"Polygon","coordinates":[[[28.03125,66.560417],[28.035417,66.560417],[28.035417,66.564583],[28.03125,66.564583],[28.03125,66.560417]]]},"properties":{"radiance":5.04}},{"type":"Feature","geometry":{"type":"Polygon","coordinates":[[[28.014583,66.55625],[28.01875,66.55625],[28.01875,66.560417],[28.014583,66.560417],[28.014583,66.55625]]]},"properties":{"radiance":7.6}},{"type":"Feature","geometry":{"type":"Polygon","coordinates":[[[28.01875,66.55625],[28.022917,66.55625],[28.022917,66.560417],[28.01875,66.560417],[28.01875,66.55625]]]},"properties":{"radiance":9.55}},{"type":"Feature","geometry":{"type":"Polygon","coordinates":[[[28.022917,66.55625],[28.027083,66.55625],[28.027083,66.560417],[28.022917,66.560417],[28.022917,66.55625]]]},"properties":{"radiance":10.63}},{"type":"Feature","geometry":{"type":"Polygon","coordinates":[[[28.027083,66.55625],[28.03125,66.55625],[28.03125,66.560417],[28.027083,66.560417],[28.027083,66.55625]]]},"properties":{"radiance":10.69}},{"type":"Feature","geometry":{"type":"Polygon","coordinates":[[[28.03125,66.55625],[28.035417,66.55625],[28.035417,66.560417],[28.03125,66.560417],[28.03125,66.55625]]]},"properties":{"radiance":5.16}}]}