{"type":"FeatureCollection","features":[{"type":"Feature","geometry":{"type":"LineString","coordinates":[[24.53021,65.79856],[24.59079,65.8722],[24.61997,65.89948],[24.64501,65.90333],[24.69028,65.94121],[24.721,66.02472],[24.76637,66.06518],[24.81981,66.11266],[24.99833,66.14881],[25.09821,66.15613],[25.22739,66.17323],[25.33176,66.24444],[25.32049,66.28497],[25.34374,66.32327],[25.33331,66.35084],[25.38352,66.37385],[25.36715,66.39357],[25.42285,66.43393],[25.46146,66.43864],[25.46883,66.45947],[25.58808,66.49259],[25.74801,66.49914],[25.80507,66.52898],[26.03366,66.50635],[26.21503,66.52638],[26.26707,66.52664],[26.46951,66.59143],[26.69742,66.62057],[26.92369,66.64851],[27.09151,66.65888],[27.18324,66.68387],[27.2445,66.69935],[27.43695,66.71709],[27.46358,66.71534]]},"properties":{"name":"POKA VT17.2 Laurila-Patokangas","kind":"project","ptype":"rail","subtype":"Ratahanke","status":"kaynnissa","date":"2022–2025","url":"https://vayla.fi/hankkeet","source":"Väylävirasto"}},{"type":"Feature","geometry":{"type":"Polygon","coordinates":[[[25.78556,66.51551],[25.78565,66.51526],[25.78759,66.51536],[25.78741,66.51522],[25.7879,66.51514],[25.78832,66.51545],[25.78948,66.5156],[25.78939,66.51579],[25.78865,66.51567],[25.78878,66.51578],[25.78824,66.51586],[25.78784,66.51558],[25.78556,66.51551]]]},"properties":{"name":"Siltateeman rakennuttamispalvelu P-S 2025-2027, OA5","kind":"project","ptype":"rail","subtype":"Ratahanke","status":"kaynnissa","date":"2025–2028","url":"https://vayla.fi/hankkeet","source":"Väylävirasto"}},{"type":"Feature","geometry":{"type":"LineString","coordinates":[[25.7857,66.5154],[25.78808,66.51551],[25.78942,66.51566]]},"properties":{"name":"RO2204 Suutarinkorvan aks uusiminen 2027","kind":"project","ptype":"rail","subtype":"Ratahanke","status":"kaynnissa","date":"2027–2027","url":"https://vayla.fi/hankkeet","source":"Väylävirasto"}},{"type":"Feature","geometry":{"type":"Polygon","coordinates":[[[25.78827,66.5158],[25.78856,66.51573],[25.78784,66.51521],[25.78753,66.51526],[25.78827,66.5158]]]},"properties":{"name":"RO2204 Suutarinkorvan aks uusiminen 2027","kind":"project","ptype":"rail","subtype":"Ratahanke","status":"kaynnissa","date":"2027–2027","url":"https://vayla.fi/hankkeet","source":"Väylävirasto"}},{"type":"Feature","geometry":{"type":"LineString","coordinates":[[25.70986,66.4976],[25.71097,66.49751]]},"properties":{"name":"Rovaniemen vaihteenvaihto 2026","kind":"project","ptype":"rail","subtype":"Ratahanke","status":"kaynnissa","date":"2027–2027","url":"https://vayla.fi/hankkeet","source":"Väylävirasto"}},{"type":"Feature","geometry":{"type":"LineString","coordinates":[[25.71113,66.49749],[25.7101,66.49754]]},"properties":{"name":"Rovaniemen vaihteenvaihto 2026","kind":"project","ptype":"rail","subtype":"Ratahanke","status":"kaynnissa","date":"2027–2027","url":"https://vayla.fi/hankkeet","source":"Väylävirasto"}}]}