{"type":"FeatureCollection","features":[{"type":"Feature","geometry":{"type":"LineString","coordinates":[[27.22661,61.67987],[27.22663,61.67988]]},"properties":{"name":"Siltaurakka POS ELY 2025, Karikon ylikulkusilta","kind":"project","ptype":"road","subtype":"Tiehanke","status":"kaynnissa","date":"2025–2025","url":"https://vayla.fi/hankkeet","source":"Väylävirasto"}},{"type":"Feature","geometry":{"type":"MultiLineString","coordinates":[[[27.00286,61.5789],[27.00358,61.57951],[27.00382,61.57972],[27.00423,61.58006],[27.00448,61.58028],[27.00484,61.58058]],[[27.00484,61.58058],[27.00538,61.58105]],[[27.00538,61.58105],[27.00588,61.58148],[27.00605,61.58162]],[[27.00605,61.58162],[27.00633,61.58185],[27.00663,61.58209],[27.0068,61.58222],[27.00706,61.58242],[27.0075,61.58272],[27.00808,61.58307],[27.0082,61.58313],[27.00847,61.58328]],[[27.00847,61.58328],[27.00912,61.58364],[27.00954,61.58385],[27.00998,61.58405],[27.01035,61.58421]],[[27.01035,61.58421],[27.01065,61.58435],[27.01093,61.58445]],[[27.01093,61.58445],[27.01121,61.58456],[27.01178,61.58478],[27.01226,61.58496],[27.01274,61.58514],[27.01309,61.58527]],[[27.01309,61.58527],[27.0138,61.58552],[27.01474,61.58585],[27.01568,61.5862],[27.01661,61.58655],[27.01711,61.58675]]]},"properties":{"name":"Vt 5 Hurus—Hietanen -tieosuuden kehittäminen","kind":"project","ptype":"road","subtype":"Tiehanke","status":"kaynnissa","date":"2022–2025","url":"https://vayla.fi/vt-5-hurus-hietanen","source":"Väylävirasto"}},{"type":"Feature","geometry":{"type":"LineString","coordinates":[[27.26102,63.59514],[26.2622,62.91241],[26.56523,61.47161],[28.12668,61.86545],[28.71633,62.42373],[28.06256,63.39683],[27.2702,63.57624]]},"properties":{"name":"POSELY586/2025 Valaisinvaihdot 2025, Itä-Suomi","kind":"project","ptype":"road","subtype":"Tiehanke","status":"kaynnissa","date":"2024–2025","url":"https://vayla.fi/hankkeet","source":"Väylävirasto"}}]}