{"type":"FeatureCollection","features":[{"type":"Feature","geometry":{"type":"Polygon","coordinates":[[[24.84044,60.64884],[24.84094,60.64886],[24.83711,60.6761],[24.8357,60.67951],[24.83441,60.6817],[24.83198,60.68456],[24.81782,60.69829],[24.81727,60.69818],[24.83143,60.68437],[24.83387,60.68161],[24.83517,60.67965],[24.83666,60.67607],[24.84044,60.64884]]]},"properties":{"name":"HERI2 Muu aluerajaus, rakentaminen","kind":"project","ptype":"rail","subtype":"Ratahanke","status":"kaynnissa","date":"2022–2030","url":"https://vayla.fi/hankkeet","source":"Väylävirasto"}},{"type":"Feature","geometry":{"type":"Polygon","coordinates":[[[24.84047,60.64887],[24.84087,60.64888],[24.83697,60.67598],[24.83655,60.67747],[24.83562,60.67953],[24.83464,60.68114],[24.83332,60.6829],[24.81777,60.69827],[24.81734,60.69818],[24.82154,60.69423],[24.83037,60.6857],[24.83315,60.6828],[24.83444,60.68111],[24.83633,60.67745],[24.83701,60.67491],[24.84047,60.64887]]]},"properties":{"name":"HERI2 Hyvinkää-Arolampi, rakentaminen","kind":"project","ptype":"rail","subtype":"Ratahanke","status":"kaynnissa","date":"2021–2030","url":"https://vayla.fi/hankkeet","source":"Väylävirasto"}}]}