{"type":"FeatureCollection","features":[{"type":"Feature","geometry":{"type":"MultiLineString","coordinates":[[[29.7618,61.82903],[29.76181,61.82902]],[[29.76181,61.82902],[29.76182,61.82902],[29.76266,61.82871],[29.76267,61.8287],[29.76287,61.82862],[29.76371,61.82826],[29.76372,61.82825],[29.76474,61.82776],[29.76475,61.82776],[29.76514,61.82756],[29.7658,61.82724]],[[29.7658,61.82724],[29.76581,61.82723],[29.76583,61.82722],[29.76588,61.8272],[29.76614,61.82708],[29.76619,61.82706],[29.7662,61.82706],[29.76631,61.82701],[29.76642,61.82696]],[[29.76642,61.82696],[29.76659,61.82689],[29.7666,61.82688],[29.76687,61.82675],[29.76689,61.82674],[29.76708,61.82666]],[[29.76708,61.82666],[29.7671,61.82665],[29.76734,61.82654],[29.76736,61.82653],[29.76761,61.82642],[29.76841,61.82612]],[[29.76841,61.82612],[29.76854,61.82607],[29.76855,61.82606],[29.76958,61.82569],[29.76961,61.82568],[29.77083,61.82529],[29.77084,61.82529]],[[29.77084,61.82529],[29.77143,61.82509],[29.77178,61.82496]]]},"properties":{"name":"Marjoniemen ylikulkusilta","kind":"project","ptype":"road","subtype":"Tiehanke","status":"kaynnissa","date":"2025–2025","url":"https://vayla.fi/hankkeet","source":"Väylävirasto"}},{"type":"Feature","geometry":{"type":"LineString","coordinates":[[29.89817,62.01219],[29.89908,62.01201],[29.89953,62.01183],[29.89961,62.01166]]},"properties":{"name":"Siikalahden ylikulkusilta","kind":"project","ptype":"road","subtype":"Tiehanke","status":"kaynnissa","date":"2025–2025","url":"https://vayla.fi/hankkeet","source":"Väylävirasto"}},{"type":"Feature","geometry":{"type":"MultiLineString","coordinates":[[[29.7618,61.82903],[29.76181,61.82902]],[[29.76181,61.82902],[29.76182,61.82902],[29.76266,61.82871],[29.76267,61.8287],[29.76287,61.82862],[29.76371,61.82826],[29.76372,61.82825],[29.76474,61.82776],[29.76475,61.82776],[29.76514,61.82756],[29.7658,61.82724]],[[29.7658,61.82724],[29.76581,61.82723],[29.76583,61.82722],[29.76588,61.8272],[29.76614,61.82708],[29.76619,61.82706],[29.7662,61.82706],[29.76631,61.82701],[29.76642,61.82696]],[[29.76642,61.82696],[29.76659,61.82689],[29.7666,61.82688],[29.76687,61.82675],[29.76689,61.82674],[29.76708,61.82666]],[[29.76708,61.82666],[29.7671,61.82665],[29.76734,61.82654],[29.76736,61.82653],[29.76761,61.82642],[29.76841,61.82612]],[[29.76841,61.82612],[29.76854,61.82607],[29.76855,61.82606],[29.76958,61.82569],[29.76961,61.82568],[29.77083,61.82529],[29.77084,61.82529]],[[29.77084,61.82529],[29.77143,61.82509],[29.77178,61.82496]]]},"properties":{"name":"Marjoniemen ylikulkusilta","kind":"project","ptype":"rail","subtype":"Ratahanke","status":"kaynnissa","date":"2025–2025","url":"https://vayla.fi/hankkeet","source":"Väylävirasto"}},{"type":"Feature","geometry":{"type":"LineString","coordinates":[[29.90539,62.04499],[29.89939,62.03583],[29.8987,62.03019],[29.89765,62.02481],[29.8974,62.02065]]},"properties":{"name":"Syrjäsalmen ratasillan ja alikulkusillan ja ratalinjan rakentaminen 45m","kind":"project","ptype":"rail","subtype":"Ratahanke","status":"kaynnissa","date":"2025–2028","url":"https://vayla.fi/hankkeet","source":"Väylävirasto"}},{"type":"Feature","geometry":{"type":"LineString","coordinates":[[29.89817,62.01219],[29.89908,62.01201],[29.89953,62.01183],[29.89961,62.01166]]},"properties":{"name":"Siikalahden ylikulkusilta","kind":"project","ptype":"rail","subtype":"Ratahanke","status":"kaynnissa","date":"2025–2025","url":"https://vayla.fi/hankkeet","source":"Väylävirasto"}},{"type":"Feature","geometry":{"type":"Polygon","coordinates":[[[29.964,62.08184],[29.96471,62.08157],[29.97789,62.08914],[29.97605,62.08958],[29.964,62.08184]]]},"properties":{"name":"Kiteen päällysrakennurakka pru 2025","kind":"project","ptype":"rail","subtype":"Ratahanke","status":"kaynnissa","date":"2025–2026","url":"https://vayla.fi/hankkeet","source":"Väylävirasto"}},{"type":"Feature","geometry":{"type":"LineString","coordinates":[[29.90653,62.04625],[29.89892,62.03606],[29.89874,62.03019],[29.89737,62.02051]]},"properties":{"name":"Syrjäsalmen ratasilta 45, toteutusvaihe","kind":"project","ptype":"rail","subtype":"Ratahanke","status":"kaynnissa","date":"2025–2028","url":"https://vayla.fi/hankkeet","source":"Väylävirasto"}}]}