{"type":"FeatureCollection","features":[{"type":"Feature","geometry":{"type":"MultiLineString","coordinates":[[[21.85489,60.64914],[21.85474,60.64917]],[[21.85474,60.64917],[21.85415,60.64929],[21.8535,60.64943],[21.85235,60.64966],[21.85163,60.64979],[21.85079,60.64992]],[[21.85079,60.64992],[21.84979,60.65005],[21.84872,60.65016],[21.84797,60.65021],[21.84718,60.65026],[21.84641,60.65029]],[[21.84641,60.65029],[21.84561,60.65032],[21.84482,60.65035],[21.84409,60.65038],[21.84324,60.65041],[21.84231,60.65045],[21.84156,60.65048]],[[21.84156,60.65048],[21.8402,60.65053],[21.83939,60.65056],[21.83831,60.6506]],[[21.83831,60.6506],[21.83777,60.65061],[21.83706,60.65061],[21.83624,60.65061],[21.83572,60.65059],[21.83568,60.65058]],[[21.83568,60.65058],[21.8351,60.65056],[21.83443,60.65051],[21.83362,60.65045],[21.83294,60.6504],[21.8321,60.65034],[21.83105,60.65026],[21.83034,60.65021]],[[21.83034,60.65021],[21.82923,60.65013],[21.82725,60.64998]],[[21.82725,60.64998],[21.82637,60.64991],[21.82524,60.64983],[21.82462,60.64978],[21.82395,60.64972]],[[21.82395,60.64972],[21.82322,60.64968],[21.82234,60.64961],[21.82153,60.64955],[21.82078,60.64949],[21.82009,60.64944],[21.81956,60.6494]],[[21.81956,60.6494],[21.81924,60.64937]],[[21.81924,60.64937],[21.81867,60.64933],[21.81781,60.64927]],[[21.81781,60.64927],[21.81763,60.64926]],[[21.81763,60.64926],[21.8174,60.64924],[21.81611,60.64913],[21.81609,60.64913]],[[21.81609,60.64913],[21.81606,60.64913],[21.816,60.64913],[21.81588,60.64912],[21.81572,60.64911],[21.8156,60.6491],[21.81556,60.6491],[21.81551,60.64909],[21.81545,60.64909],[21.8153,60.64907],[21.81517,60.64906],[21.81508,60.64905],[21.81494,60.64904],[21.81476,60.64903],[21.81468,60.64902],[21.81458,60.64901],[21.8145,60.649],[21.81441,60.64899],[21.81432,60.64899],[21.81421,60.64898],[21.81401,60.64897],[21.81393,60.64896],[21.81382,60.64895]],[[21.81382,60.64895],[21.81333,60.64891],[21.8131,60.64889],[21.81265,60.64885],[21.81191,60.64877]],[[21.81191,60.64877],[21.81106,60.64868],[21.80995,60.64855],[21.80894,60.64844]],[[21.80894,60.64844],[21.80775,60.6483],[21.80565,60.64806],[21.80361,60.64783],[21.80247,60.6477]],[[21.80247,60.6477],[21.80236,60.64769],[21.80219,60.64767],[21.80211,60.64766],[21.80203,60.64765],[21.80195,60.64764],[21.80186,60.64763],[21.80173,60.64761],[21.8016,60.6476],[21.80144,60.64758],[21.80132,60.64757],[21.80116,60.64755],[21.80101,60.64753],[21.80085,60.64752],[21.80067,60.6475],[21.80048,60.64747],[21.80024,60.64745],[21.80002,60.64742],[21.79977,60.6474],[21.79962,60.64738],[21.79962,60.64738],[21.7995,60.64737],[21.7993,60.64734],[21.79916,60.64732],[21.79903,60.6473],[21.7989,60.64729],[21.79879,60.64728],[21.79873,60.64727],[21.79863,60.64726]],[[21.79863,60.64726],[21.79721,60.6471],[21.79672,60.64704]]]},"properties":{"name":"Mt 192 Kustavintien tievalaistuksen rakentaminen välille  Mietoinen Y-tie, ST2025","kind":"project","ptype":"road","subtype":"Tiehanke","status":"kaynnissa","date":"2025–2025","url":"https://vayla.fi/hankkeet","source":"Väylävirasto"}},{"type":"Feature","geometry":{"type":"MultiLineString","coordinates":[[[21.83748,60.79153],[21.83779,60.79161]],[[21.83779,60.79161],[21.83868,60.79177],[21.83965,60.79195],[21.84043,60.7921],[21.8414,60.79228],[21.84155,60.79231],[21.84182,60.79236]],[[21.84182,60.79236],[21.84182,60.79236],[21.84189,60.79237],[21.84249,60.79248],[21.84401,60.79277],[21.84506,60.79297],[21.84565,60.79308],[21.84595,60.79314],[21.8464,60.79327],[21.84682,60.79341],[21.84718,60.79356],[21.84726,60.7936],[21.84727,60.7936],[21.84762,60.79376],[21.84799,60.79399],[21.84828,60.79419],[21.84853,60.79439],[21.84865,60.79452],[21.84897,60.79482],[21.84923,60.79506],[21.84955,60.79538],[21.85005,60.79586],[21.85042,60.79622],[21.85091,60.79669]],[[21.85091,60.79669],[21.85103,60.7968],[21.85128,60.79707],[21.85163,60.79734],[21.85196,60.7976],[21.85238,60.7979],[21.85275,60.79816],[21.85286,60.79824],[21.8533,60.79853],[21.85353,60.79868],[21.85371,60.79881],[21.85393,60.799],[21.85404,60.79911],[21.85417,60.79924]],[[21.85417,60.79924],[21.85417,60.79924],[21.8543,60.79937],[21.85445,60.79948],[21.85458,60.79956],[21.85473,60.79964],[21.85494,60.79975],[21.85495,60.79975]],[[21.85495,60.79975],[21.85523,60.79984],[21.85539,60.79992],[21.8556,60.80008],[21.85579,60.80024],[21.85588,60.80039],[21.85598,60.80056],[21.8561,60.80071],[21.85626,60.8009],[21.85651,60.80116],[21.8568,60.80142]],[[21.8568,60.80142],[21.85798,60.80263],[21.85824,60.8029],[21.85851,60.80319],[21.85886,60.80355],[21.85909,60.8038],[21.85929,60.80403],[21.85952,60.80431],[21.8597,60.8046],[21.8599,60.80493],[21.86007,60.80522],[21.8603,60.80555],[21.86054,60.80582]],[[21.86054,60.80582],[21.86062,60.80591],[21.86091,60.80617],[21.8612,60.80638],[21.86157,60.80658],[21.86202,60.80676],[21.86306,60.80715],[21.86424,60.80761],[21.86528,60.80801],[21.86591,60.80825],[21.86636,60.80843],[21.86688,60.80867],[21.8675,60.80897],[21.86774,60.80909],[21.86789,60.80918],[21.86792,60.8092]],[[21.86792,60.8092],[21.86823,60.8094],[21.86853,60.80965],[21.86881,60.80991],[21.86929,60.81035],[21.86964,60.81067],[21.86989,60.81084],[21.87006,60.81097],[21.87007,60.81097]],[[21.87007,60.81097],[21.87043,60.81118],[21.8707,60.81131],[21.87117,60.8115],[21.87144,60.8116],[21.87175,60.81169],[21.87204,60.81178],[21.87235,60.81186],[21.87261,60.81192],[21.87288,60.81198],[21.87317,60.81201],[21.87347,60.81206],[21.87398,60.81211],[21.87458,60.81214],[21.87496,60.81217],[21.87537,60.81221],[21.87566,60.81225],[21.87595,60.81231],[21.87622,60.81237],[21.87656,60.81247],[21.87691,60.81257],[21.87717,60.81266],[21.87765,60.81284],[21.87808,60.813],[21.87869,60.81325],[21.87924,60.81346],[21.87977,60.81366],[21.88018,60.81382],[21.88187,60.81447],[21.88364,60.81516],[21.8851,60.81571],[21.88732,60.81663],[21.88894,60.81726],[21.88947,60.81747],[21.89,60.81768],[21.89062,60.81793],[21.89115,60.81813],[21.89142,60.81824],[21.8922,60.81855],[21.89259,60.81871],[21.89296,60.81888]],[[21.89296,60.81888],[21.89355,60.81916],[21.89375,60.81928]],[[21.89375,60.81928],[21.89392,60.81939],[21.89425,60.81963],[21.89453,60.8199],[21.89474,60.82011],[21.89518,60.82061],[21.89559,60.82108],[21.89571,60.82124]],[[21.89571,60.82124],[21.89615,60.82191],[21.89641,60.82233]],[[21.89641,60.82233],[21.89646,60.8224]],[[21.89646,60.8224],[21.89717,60.82356],[21.89773,60.82453],[21.89791,60.82491],[21.89792,60.82493]],[[21.89792,60.82493],[21.89795,60.82503]],[[21.89795,60.82503],[21.89801,60.8252],[21.89805,60.82534]],[[21.89805,60.82534],[21.89813,60.8256],[21.89834,60.82666]],[[21.89834,60.82666],[21.89882,60.8292],[21.89891,60.82954],[21.89905,60.82993],[21.89917,60.83017],[21.89943,60.83053],[21.89981,60.83097],[21.90013,60.83138],[21.90029,60.83156],[21.90065,60.83197],[21.9009,60.83226],[21.90117,60.83254],[21.90131,60.83267]],[[21.90131,60.83267],[21.90145,60.83286],[21.90167,60.8331],[21.90175,60.83319]],[[21.90175,60.83319],[21.90194,60.8334],[21.90214,60.83362],[21.90242,60.83393],[21.90262,60.83415],[21.9029,60.83444],[21.90312,60.8347],[21.90334,60.83494],[21.90348,60.83507]],[[21.90348,60.83507],[21.90479,60.83655],[21.90503,60.83682],[21.90527,60.83707],[21.9055,60.8373],[21.90567,60.83746],[21.90583,60.83761],[21.90598,60.83773],[21.90612,60.83784],[21.90631,60.83799],[21.90665,60.83824],[21.9071,60.83855],[21.90803,60.83911],[21.90945,60.83988],[21.91033,60.84036],[21.91379,60.84224],[21.91503,60.84292],[21.91537,60.84312],[21.91568,60.8433]],[[21.91568,60.8433],[21.91573,60.84332],[21.91605,60.84355],[21.91616,60.84365],[21.91631,60.84377],[21.91645,60.84392],[21.91659,60.84407],[21.91673,60.84425],[21.91679,60.84435],[21.91688,60.84446],[21.91693,60.84456],[21.91704,60.84475],[21.91715,60.84492],[21.91728,60.84512],[21.91742,60.84534],[21.91759,60.84557],[21.91805,60.84615]],[[21.91805,60.84615],[21.91847,60.84656],[21.91895,60.8469],[21.9196,60.84728],[21.92118,60.84814]],[[21.92118,60.84814],[21.92288,60.84906],[21.92435,60.84986],[21.92638,60.85094]]]},"properties":{"name":"VAR ELY Sorateiksi parantaminen 2025","kind":"project","ptype":"road","subtype":"Tiehanke","status":"kaynnissa","date":"2025–2025","url":"https://vayla.fi/hankkeet","source":"Väylävirasto"}},{"type":"Feature","geometry":{"type":"MultiLineString","coordinates":[[[21.57964,60.823],[21.57996,60.82309]],[[21.57996,60.82309],[21.58012,60.82314],[21.58027,60.82319],[21.58039,60.82322]],[[21.58039,60.82322],[21.58081,60.82334],[21.58164,60.82358],[21.58241,60.82379],[21.58307,60.82398],[21.58371,60.82416],[21.58454,60.8244],[21.58535,60.82462],[21.5861,60.82484]],[[21.5861,60.82484],[21.58623,60.82487],[21.58652,60.82496],[21.58667,60.825]],[[21.58667,60.825],[21.58707,60.82512],[21.58767,60.82528],[21.58846,60.82552],[21.58932,60.82577],[21.59429,60.82717],[21.59548,60.8275],[21.59627,60.8277],[21.59692,60.82785]],[[21.59692,60.82785],[21.59698,60.82786],[21.59813,60.82808],[21.59946,60.82828],[21.60035,60.82839],[21.60066,60.82843]],[[21.60066,60.82843],[21.60136,60.8285],[21.60273,60.82865],[21.60402,60.82879],[21.6041,60.8288]],[[21.6041,60.8288],[21.60505,60.8289],[21.6057,60.82898]],[[21.6057,60.82898],[21.60623,60.82904],[21.60679,60.82912]],[[21.60679,60.82912],[21.60707,60.82916],[21.60812,60.82933],[21.60833,60.82937]],[[21.60833,60.82937],[21.60865,60.82943],[21.60964,60.82965],[21.6105,60.82986],[21.61149,60.83014],[21.61245,60.83046],[21.61268,60.83054]],[[21.61268,60.83054],[21.61323,60.83075],[21.6137,60.83095],[21.61403,60.83108],[21.61462,60.83136],[21.61575,60.83191],[21.61632,60.83219]],[[21.61632,60.83219],[21.61633,60.8322],[21.61707,60.83258],[21.61747,60.83278],[21.61795,60.83303],[21.61835,60.83325],[21.61837,60.83326]],[[21.61837,60.83326],[21.61872,60.83347],[21.61948,60.83393],[21.61979,60.83412],[21.62008,60.83432],[21.62027,60.83445]],[[21.62027,60.83445],[21.62036,60.83451],[21.62062,60.8347],[21.62083,60.83485],[21.6211,60.83506],[21.62141,60.8353],[21.62183,60.83565],[21.62193,60.83574],[21.62222,60.83599],[21.62256,60.8363],[21.62282,60.83655]],[[21.62282,60.83655],[21.62306,60.83679],[21.62347,60.83724],[21.62382,60.83765],[21.62416,60.83804],[21.62429,60.8382]],[[21.62429,60.8382],[21.6243,60.83822],[21.62462,60.83858],[21.62488,60.83889],[21.62488,60.8389]],[[21.62488,60.8389],[21.62516,60.83924],[21.62535,60.83944]],[[21.62535,60.83944],[21.62541,60.83952],[21.62594,60.84011],[21.62621,60.8404],[21.62648,60.84066],[21.62679,60.84097]],[[21.62679,60.84097],[21.62683,60.84101],[21.62686,60.84103]],[[21.62686,60.84103],[21.62724,60.84136],[21.62784,60.84187],[21.62826,60.84219],[21.62862,60.84246]],[[21.62862,60.84246],[21.62914,60.84284],[21.62935,60.84298],[21.62941,60.84303],[21.62956,60.84313],[21.63046,60.8437],[21.63058,60.84378],[21.63094,60.84399],[21.6312,60.84414]],[[21.6312,60.84414],[21.63181,60.84448],[21.63246,60.84483],[21.63318,60.84518],[21.63373,60.84544],[21.6344,60.84574],[21.6349,60.84596],[21.63572,60.8463],[21.63643,60.84658],[21.63731,60.8469],[21.63814,60.84719],[21.63907,60.84748],[21.64006,60.8478],[21.64007,60.8478]],[[21.64007,60.8478],[21.64034,60.84789],[21.64037,60.8479],[21.64059,60.84797],[21.64142,60.84823],[21.64299,60.84872],[21.64363,60.84892]],[[21.64363,60.84892],[21.6437,60.84894],[21.64452,60.8492],[21.64683,60.84993],[21.64754,60.85015]],[[21.64754,60.85015],[21.64769,60.8502],[21.64828,60.85039],[21.649,60.85061],[21.65187,60.85152],[21.65238,60.85167]],[[21.65238,60.85167],[21.65259,60.85174]],[[21.65259,60.85174],[21.65388,60.85215],[21.65447,60.85235],[21.65492,60.85251],[21.65506,60.85256],[21.65538,60.85268]],[[21.65538,60.85268],[21.65564,60.85278],[21.6557,60.8528]],[[21.6557,60.8528],[21.65614,60.85301],[21.65687,60.85335],[21.65751,60.85366]],[[21.65751,60.85366],[21.65751,60.85367],[21.65817,60.85399],[21.6593,60.85457]],[[21.6593,60.85457],[21.65982,60.85483],[21.66034,60.85509]],[[21.66034,60.85509],[21.66036,60.8551],[21.66099,60.85542],[21.66142,60.85564],[21.66281,60.85634],[21.66343,60.85665],[21.66376,60.85681]],[[21.66376,60.85681],[21.66384,60.85685],[21.66394,60.85691]],[[21.66394,60.85691],[21.66449,60.85717],[21.66502,60.85744],[21.66571,60.8578],[21.66604,60.85796],[21.6665,60.85819],[21.66714,60.85851],[21.6678,60.85885],[21.66848,60.85919]],[[21.66848,60.85919],[21.66969,60.8598],[21.6708,60.86037],[21.68046,60.86517]],[[21.68046,60.86517],[21.68132,60.86561],[21.68201,60.86595],[21.6822,60.86605]]]},"properties":{"name":"Kt 43 tievalaistuksen rakentaminen Laitila - Kalanti, ST2025","kind":"project","ptype":"road","subtype":"Tiehanke","status":"kaynnissa","date":"2025–2026","url":"https://vayla.fi/hankkeet","source":"Väylävirasto"}},{"type":"Feature","geometry":{"type":"LineString","coordinates":[[21.54471,60.91411],[21.54482,60.91414],[21.54521,60.91423],[21.54583,60.91439],[21.54634,60.91451]]},"properties":{"name":"T-5264 Hiekan silta","kind":"project","ptype":"road","subtype":"Tiehanke","status":"kaynnissa","date":"2024–2025","url":"https://vayla.fi/hankkeet","source":"Väylävirasto"}},{"type":"Feature","geometry":{"type":"MultiPoint","coordinates":[[22.51395,60.90026],[21.66237,60.60157],[21.95352,60.64496],[22.05711,60.60116]]},"properties":{"name":"LOU Siltaurakka 1/2026","kind":"project","ptype":"road","subtype":"Tiehanke","status":"kaynnissa","date":"2026–2026","url":"https://vayla.fi/hankkeet","source":"Väylävirasto"}}]}