{"type":"FeatureCollection","features":[{"type":"Feature","geometry":{"type":"LineString","coordinates":[[24.16795,65.85316],[24.16831,65.87145],[24.14811,65.90817],[24.14039,65.92036],[24.13217,65.92994],[24.1098,65.93796],[24.09824,65.94651],[24.08407,65.95219],[24.06394,65.97279],[24.06763,65.97762],[24.07542,65.99302],[24.07781,66.00226],[24.04495,66.04058],[24.01965,66.05437],[24.00288,66.05664],[23.95292,66.11138],[23.95064,66.11923],[23.94936,66.14322],[23.93053,66.16189],[23.89883,66.17402],[23.88086,66.17658],[23.86056,66.18061],[23.84938,66.18438],[23.82491,66.18745],[23.80622,66.19984],[23.80433,66.21473],[23.79587,66.22018],[23.76202,66.23332],[23.6856,66.29446],[23.6707,66.30756],[23.68695,66.33117],[23.69517,66.34444],[23.72083,66.36035],[23.72057,66.36651],[23.71004,66.37483],[23.71294,66.38355],[23.70366,66.39666],[23.70713,66.40312],[23.68466,66.42396],[23.68282,66.45616],[23.68803,66.45974],[23.70974,66.46539],[23.72037,66.47102],[23.73381,66.48829],[23.75774,66.5022],[23.76572,66.50962],[23.79315,66.51559],[23.80363,66.52057],[23.80886,66.52846],[23.8415,66.54276],[23.86397,66.54754],[23.87406,66.55369],[23.87937,66.56764],[23.895,66.58396],[23.91236,66.6411],[23.94153,66.65865],[23.9426,66.67142],[23.96738,66.70749],[23.96191,66.75113],[24.00017,66.79664],[23.99848,66.81046],[24.00567,66.82119],[24.00371,66.83057],[23.9984,66.8335],[23.98824,66.84023],[23.86868,66.95658],[23.84993,66.99061],[23.87393,67.07059],[23.87882,67.13819],[23.82301,67.25155],[23.8329,67.32282],[23.83323,67.32877]]},"properties":{"name":"POKA VT17.2 Laurila-Patokangas","kind":"project","ptype":"rail","subtype":"Ratahanke","status":"kaynnissa","date":"2022–2025","url":"https://vayla.fi/hankkeet","source":"Väylävirasto"}},{"type":"Feature","geometry":{"type":"LineString","coordinates":[[24.16795,65.85316],[24.16831,65.87145],[24.14811,65.90817],[24.14039,65.92036],[24.13217,65.92994],[24.1098,65.93796],[24.09824,65.94651],[24.08407,65.95219],[24.06394,65.97279],[24.06763,65.97762],[24.07542,65.99302],[24.07781,66.00226],[24.04495,66.04058],[24.01965,66.05437],[24.00288,66.05664],[23.95292,66.11138],[23.95064,66.11923],[23.94936,66.14322],[23.93053,66.16189],[23.89883,66.17402],[23.88086,66.17658],[23.86056,66.18061],[23.84938,66.18438],[23.82491,66.18745],[23.80622,66.19984],[23.80433,66.21473],[23.79587,66.22018],[23.76202,66.23332],[23.6856,66.29446],[23.6707,66.30756],[23.68695,66.33117],[23.69517,66.34444],[23.72083,66.36035],[23.72057,66.36651],[23.71004,66.37483],[23.71294,66.38355],[23.70366,66.39666],[23.70713,66.40312],[23.68466,66.42396],[23.68282,66.45616],[23.68803,66.45974],[23.70974,66.46539],[23.72037,66.47102],[23.73381,66.48829],[23.75774,66.5022],[23.76572,66.50962],[23.79315,66.51559],[23.80363,66.52057],[23.80886,66.52846],[23.8415,66.54276],[23.86397,66.54754],[23.87406,66.55369],[23.87937,66.56764],[23.895,66.58396],[23.91236,66.6411],[23.94153,66.65865],[23.9426,66.67142],[23.96738,66.70749],[23.96191,66.75113],[24.00017,66.79664],[23.99848,66.81046],[24.00567,66.82119],[24.00371,66.83057],[23.9984,66.8335],[23.98824,66.84023],[23.86868,66.95658],[23.84993,66.99061],[23.87393,67.07059],[23.87882,67.13819],[23.82301,67.25155],[23.8329,67.32282],[23.83323,67.32877]]},"properties":{"name":"POKA VT17.1 Tornio-Kolari","kind":"project","ptype":"rail","subtype":"Ratahanke","status":"kaynnissa","date":"2022–2025","url":"https://vayla.fi/hankkeet","source":"Väylävirasto"}}]}