{"type":"FeatureCollection","features":[{"type":"Feature","geometry":{"type":"LineString","coordinates":[[27.26102,63.59514],[26.2622,62.91241],[26.56523,61.47161],[28.12668,61.86545],[28.71633,62.42373],[28.06256,63.39683],[27.2702,63.57624]]},"properties":{"name":"POSELY586/2025 Valaisinvaihdot 2025, Itä-Suomi","kind":"project","ptype":"road","subtype":"Tiehanke","status":"kaynnissa","date":"2024–2025","url":"https://vayla.fi/hankkeet","source":"Väylävirasto"}},{"type":"Feature","geometry":{"type":"LineString","coordinates":[[25.72831,62.60143],[25.72896,62.60146],[25.7306,62.6015],[25.73133,62.6015],[25.73173,62.60152],[25.73455,62.6017],[25.73631,62.60187],[25.73649,62.60189],[25.73723,62.60195],[25.73839,62.602],[25.73946,62.60197],[25.73948,62.60197],[25.73948,62.60197],[25.74153,62.60155],[25.74189,62.60143],[25.74223,62.60132],[25.74255,62.60122],[25.74294,62.60109],[25.74315,62.60102],[25.74316,62.60102]]},"properties":{"name":"Mt 642 Äänekosken silta, STk -rakentaminen","kind":"project","ptype":"road","subtype":"Tiehanke","status":"kaynnissa","date":"2026–2033","url":"https://vayla.fi/mt-642-aanekosken-sillan-uusiminen","source":"Väylävirasto"}},{"type":"Feature","geometry":{"type":"LineString","coordinates":[[25.83213,62.53817],[25.83215,62.53818]]},"properties":{"name":"Siltaurakka KES ELY 2025-26, Ison pörrin silta","kind":"project","ptype":"road","subtype":"Tiehanke","status":"kaynnissa","date":"2025–2025","url":"https://vayla.fi/hankkeet","source":"Väylävirasto"}},{"type":"Feature","geometry":{"type":"MultiLineString","coordinates":[[[25.77855,62.76393],[25.77861,62.76414],[25.77873,62.76457],[25.77883,62.76494],[25.77895,62.76538],[25.77903,62.76576],[25.77915,62.76619],[25.77927,62.76664],[25.77936,62.76693],[25.77961,62.76773],[25.77983,62.76844]],[[25.77983,62.76844],[25.77992,62.76882],[25.78004,62.7693],[25.78028,62.77006],[25.78053,62.77106],[25.78075,62.77183],[25.7809,62.77235]],[[25.7809,62.77235],[25.78103,62.77278],[25.78107,62.77293],[25.78115,62.7732]],[[25.78115,62.7732],[25.78126,62.77357],[25.78142,62.77419],[25.78159,62.77481],[25.78164,62.77498],[25.78166,62.77508],[25.78177,62.77546],[25.78197,62.77618],[25.78197,62.77619]],[[25.78197,62.77619],[25.78198,62.77622],[25.78212,62.77675]],[[25.78212,62.77675],[25.78247,62.77793],[25.78263,62.77851],[25.78286,62.77927],[25.78307,62.7801],[25.78327,62.78069],[25.78346,62.78114],[25.78363,62.78146],[25.78382,62.78173],[25.78408,62.78212],[25.78428,62.78237],[25.78451,62.78267],[25.78481,62.78298],[25.78511,62.7833],[25.78542,62.78357],[25.78571,62.78382],[25.78609,62.78409],[25.78644,62.78433],[25.78709,62.78475],[25.78784,62.78524],[25.78884,62.78587],[25.78932,62.78618],[25.78934,62.7862]],[[25.78934,62.7862],[25.78974,62.78648]],[[25.78974,62.78648],[25.79042,62.78692],[25.79093,62.78723],[25.79156,62.7876],[25.79183,62.78776],[25.79189,62.78779]],[[25.79189,62.78779],[25.79234,62.78808],[25.79302,62.78853],[25.79324,62.78867],[25.79372,62.78897],[25.79434,62.78939],[25.79502,62.78982],[25.79566,62.79023],[25.79643,62.79073],[25.7969,62.79101],[25.79743,62.79136],[25.79809,62.79177],[25.79887,62.79228],[25.79959,62.79275],[25.80036,62.79326],[25.80092,62.79362],[25.8016,62.79405],[25.80227,62.79446]],[[25.80227,62.79446],[25.80281,62.79481],[25.8034,62.7952],[25.80392,62.79555],[25.80442,62.79591],[25.80472,62.79615],[25.80494,62.79635],[25.80529,62.79669],[25.80552,62.79693],[25.80576,62.7972],[25.80588,62.79737],[25.80598,62.7975],[25.80622,62.79782],[25.8064,62.79813],[25.80655,62.7984],[25.80668,62.79868],[25.80683,62.79905],[25.80694,62.79941],[25.80701,62.79974],[25.80706,62.8001],[25.80709,62.80042],[25.80713,62.80069],[25.8072,62.80122],[25.80725,62.80151],[25.8073,62.80204],[25.80731,62.80218],[25.80735,62.80253],[25.8074,62.80293],[25.80743,62.80334]],[[25.80743,62.80334],[25.80744,62.80343]],[[25.80744,62.80343],[25.80748,62.80375],[25.80751,62.80405],[25.80754,62.80423],[25.80759,62.80447],[25.80762,62.80471],[25.80765,62.80492],[25.80769,62.80526],[25.80769,62.80554],[25.8077,62.80579],[25.8077,62.806],[25.80768,62.80622],[25.80765,62.80644],[25.80761,62.80663],[25.80757,62.80684],[25.80752,62.80707],[25.80747,62.80727],[25.8074,62.80751],[25.80733,62.80776],[25.80724,62.80802],[25.80715,62.80823],[25.80708,62.80839],[25.80701,62.80858],[25.80691,62.80881],[25.80685,62.80896]]]},"properties":{"name":"Vt 4 Konginkangas-Kalaniemi, ST","kind":"project","ptype":"road","subtype":"Tiehanke","status":"kaynnissa","date":"2024–2030","url":"https://vayla.fi/vt-4-aanekoski-viitasaari-ohituskaistat-hanke/vt-4-konginkangas-kalaniemi","source":"Väylävirasto"}},{"type":"Feature","geometry":{"type":"MultiLineString","coordinates":[[[25.80789,62.82401],[25.80792,62.82403],[25.80794,62.82404],[25.80844,62.82432],[25.80846,62.82433]],[[25.80846,62.82433],[25.80884,62.82454],[25.80885,62.82455],[25.80922,62.82478],[25.80923,62.82479],[25.80958,62.825],[25.80959,62.82501],[25.80988,62.82518],[25.80989,62.82518],[25.81018,62.82537]],[[25.81018,62.82537],[25.81025,62.82542],[25.81026,62.82542],[25.81063,62.82568],[25.81064,62.82568],[25.81083,62.82582]]]},"properties":{"name":"Vt 4 Konginkangas-Kalaniemi, ST","kind":"project","ptype":"road","subtype":"Tiehanke","status":"kaynnissa","date":"2024–2030","url":"https://vayla.fi/vt-4-aanekoski-viitasaari-ohituskaistat-hanke/vt-4-konginkangas-kalaniemi","source":"Väylävirasto"}},{"type":"Feature","geometry":{"type":"MultiLineString","coordinates":[[[25.81083,62.86635],[25.81082,62.86637]],[[25.81082,62.86637],[25.81081,62.86649],[25.81081,62.8665],[25.81079,62.86668],[25.81078,62.86682],[25.81078,62.86683],[25.81073,62.86717],[25.81073,62.86718],[25.81071,62.86734],[25.81071,62.86735],[25.81069,62.86753],[25.81069,62.86754],[25.81066,62.8677],[25.81066,62.86772],[25.81066,62.86773]],[[25.81066,62.86773],[25.81063,62.86791]],[[25.81063,62.86791],[25.81062,62.86799],[25.81062,62.868]],[[25.81062,62.868],[25.81061,62.8681],[25.8106,62.86811],[25.81059,62.86827],[25.81059,62.86828],[25.81056,62.86844],[25.81056,62.86845],[25.81053,62.86861],[25.81053,62.86863],[25.8105,62.86879],[25.8105,62.8688],[25.81049,62.86889]]]},"properties":{"name":"Vt 4 Konginkangas-Kalaniemi, ST","kind":"project","ptype":"road","subtype":"Tiehanke","status":"kaynnissa","date":"2024–2030","url":"https://vayla.fi/vt-4-aanekoski-viitasaari-ohituskaistat-hanke/vt-4-konginkangas-kalaniemi","source":"Väylävirasto"}},{"type":"Feature","geometry":{"type":"MultiLineString","coordinates":[[[25.70349,62.64321],[25.70355,62.64323]],[[25.70355,62.64323],[25.70379,62.64333],[25.7046,62.64367]],[[25.7046,62.64367],[25.70535,62.64399],[25.706,62.64427],[25.70602,62.64428]],[[25.70602,62.64428],[25.70655,62.64453]]]},"properties":{"name":"Vt 4 Kevätlahti-Petomäki, ST","kind":"project","ptype":"road","subtype":"Tiehanke","status":"kaynnissa","date":"2023–2029","url":"https://vayla.fi/vt-4-aanekoski-viitasaari-ohituskaistat-hanke/vt-4-kevatlahti-petomaki","source":"Väylävirasto"}},{"type":"Feature","geometry":{"type":"MultiLineString","coordinates":[[[25.74676,62.66872],[25.74716,62.66895],[25.74743,62.66911]],[[25.74743,62.66911],[25.74805,62.66947]],[[25.74805,62.66947],[25.74836,62.66965]]]},"properties":{"name":"Vt 4 Kevätlahti-Petomäki, ST","kind":"project","ptype":"road","subtype":"Tiehanke","status":"kaynnissa","date":"2023–2029","url":"https://vayla.fi/vt-4-aanekoski-viitasaari-ohituskaistat-hanke/vt-4-kevatlahti-petomaki","source":"Väylävirasto"}},{"type":"Feature","geometry":{"type":"Polygon","coordinates":[[[25.86309,62.54734],[25.86374,62.54733],[25.86383,62.54707],[25.86318,62.54708],[25.86309,62.54734]]]},"properties":{"name":"TRL Elinkaariuusinnat 3-2023","kind":"project","ptype":"rail","subtype":"Ratahanke","status":"kaynnissa","date":"2023–2024","url":"https://vayla.fi/hankkeet","source":"Väylävirasto"}},{"type":"Feature","geometry":{"type":"Polygon","coordinates":[[[25.62982,62.62653],[25.63099,62.62648],[25.63073,62.62606],[25.62972,62.62614],[25.62982,62.62653]]]},"properties":{"name":"TRL Elinkaariuusinnat 3-2023","kind":"project","ptype":"rail","subtype":"Ratahanke","status":"kaynnissa","date":"2023–2024","url":"https://vayla.fi/hankkeet","source":"Väylävirasto"}}]}