{"type":"FeatureCollection","features":[{"type":"Feature","geometry":{"type":"LineString","coordinates":[[30.01402,63.56307],[30.01401,63.56308]]},"properties":{"name":"Sillankorjausurakka POS ELY 2025-26","kind":"project","ptype":"road","subtype":"Tiehanke","status":"kaynnissa","date":"2025–2026","url":"https://vayla.fi/hankkeet","source":"Väylävirasto"}},{"type":"Feature","geometry":{"type":"LineString","coordinates":[[29.77805,62.6004],[29.77822,62.60057],[29.77847,62.60081],[29.77872,62.60105],[29.77885,62.60117],[29.77889,62.60123],[29.77898,62.60133],[29.77908,62.60144],[29.77923,62.60161],[29.7793,62.60171],[29.7793,62.60171],[29.77936,62.60179],[29.77937,62.60181],[29.77945,62.60191],[29.77946,62.60194],[29.77958,62.60209],[29.7796,62.60212],[29.77972,62.60228],[29.77985,62.60246],[29.77995,62.6026],[29.78003,62.60275],[29.78012,62.60296],[29.78013,62.60297],[29.78027,62.60326],[29.78031,62.60334],[29.78042,62.60355],[29.78049,62.60376],[29.78053,62.60396],[29.78055,62.60415],[29.78058,62.60436],[29.78057,62.60457],[29.78053,62.60475],[29.78047,62.60496],[29.78036,62.60517],[29.78028,62.6053],[29.78019,62.6054],[29.78016,62.60544],[29.78005,62.60561],[29.77999,62.60576],[29.77994,62.60585],[29.77962,62.60657],[29.77948,62.60689],[29.77913,62.60766],[29.7791,62.60774],[29.77902,62.60792],[29.77895,62.6081],[29.77889,62.6083],[29.7788,62.60872],[29.77876,62.60905],[29.77876,62.60923],[29.77875,62.60924],[29.77878,62.60947],[29.77878,62.60951],[29.77879,62.60958],[29.7788,62.60967],[29.77881,62.60974],[29.77881,62.60986],[29.77881,62.60997],[29.7788,62.61021],[29.7788,62.61048],[29.7788,62.6107],[29.77882,62.61097],[29.77889,62.61148],[29.77899,62.61189],[29.77915,62.61236],[29.77941,62.61294],[29.77969,62.61344],[29.77998,62.61387],[29.78009,62.61403],[29.78016,62.61411],[29.78025,62.61423],[29.78027,62.61426],[29.78041,62.61443],[29.78051,62.61454],[29.78054,62.61458],[29.78071,62.61477],[29.78091,62.61497],[29.78116,62.6152],[29.78143,62.61548],[29.78175,62.6158],[29.78213,62.61617],[29.78271,62.61674],[29.78359,62.6176],[29.78372,62.61773],[29.78462,62.61862],[29.78496,62.61895],[29.78515,62.61915],[29.78529,62.61928],[29.78533,62.61932],[29.78547,62.61947],[29.78583,62.61981],[29.78616,62.62013],[29.78659,62.62056],[29.78688,62.62085],[29.78701,62.62098],[29.78814,62.6221],[29.78849,62.62244],[29.78851,62.62246],[29.78879,62.62273],[29.79004,62.62397],[29.79098,62.6249],[29.79406,62.62793],[29.79533,62.62919],[29.79666,62.6305],[29.79723,62.63107],[29.79824,62.63205],[29.79862,62.63243],[29.79924,62.63304],[29.80093,62.6347],[29.80193,62.63569],[29.80204,62.63581],[29.80242,62.63617],[29.80248,62.63621],[29.80274,62.63648],[29.80307,62.6368],[29.80351,62.63722],[29.80378,62.63751],[29.80407,62.63779],[29.80445,62.63815],[29.80481,62.63851],[29.80486,62.63856],[29.80516,62.63889],[29.80561,62.63931],[29.80591,62.6396],[29.80619,62.63986],[29.80644,62.64015],[29.80687,62.64056],[29.80708,62.64077],[29.80734,62.64102],[29.80782,62.6415],[29.8083,62.64196],[29.80835,62.64201],[29.80869,62.64238],[29.80896,62.6427],[29.80929,62.64302],[29.8097,62.64354],[29.81006,62.64395],[29.8101,62.64399],[29.81045,62.64445],[29.81073,62.64483],[29.81087,62.64503],[29.81099,62.6452],[29.81115,62.64544],[29.81145,62.64588],[29.81172,62.6463],[29.81198,62.64674],[29.81202,62.64682],[29.8122,62.64715],[29.81236,62.64744],[29.81249,62.6477],[29.81263,62.64797],[29.81278,62.6483],[29.813,62.64874],[29.81309,62.64897],[29.81322,62.64922],[29.81332,62.64945],[29.81381,62.65043],[29.81403,62.65089],[29.81444,62.65179],[29.81495,62.65284],[29.81552,62.65405],[29.81568,62.65438],[29.81584,62.65472],[29.81622,62.65551],[29.81623,62.65554],[29.81698,62.65712],[29.81779,62.65874],[29.81871,62.66065],[29.81951,62.66239],[29.81969,62.66297],[29.81988,62.66371],[29.81989,62.66441],[29.81991,62.66622],[29.81972,62.66762],[29.81949,62.66839],[29.81879,62.67],[29.81792,62.67183],[29.81724,62.67336],[29.81715,62.67356],[29.81676,62.67471],[29.81642,62.67555],[29.8163,62.67613],[29.81638,62.67699],[29.8164,62.67707],[29.81678,62.67816],[29.81792,62.67968],[29.8203,62.68187],[29.82081,62.68234],[29.82213,62.68352],[29.82578,62.68669],[29.82802,62.68857],[29.82946,62.68996],[29.82991,62.6904],[29.83045,62.69113],[29.83087,62.69164],[29.83124,62.69219],[29.83147,62.69272],[29.83165,62.69323],[29.83183,62.69395],[29.83196,62.69454],[29.83201,62.6952],[29.83209,62.69647],[29.83212,62.69766],[29.83218,62.69855],[29.83222,62.6988],[29.8323,62.69927],[29.83231,62.69934],[29.83253,62.70404],[29.83257,62.70479],[29.83271,62.70774],[29.83303,62.71447],[29.83308,62.71556],[29.83308,62.71558],[29.83317,62.71596],[29.83339,62.71668],[29.83341,62.71676],[29.83356,62.71716],[29.83589,62.72341],[29.83603,62.72372],[29.83622,62.72405],[29.83644,62.72441],[29.83654,62.72458],[29.83667,62.72476],[29.83683,62.72494],[29.83714,62.72533],[29.83716,62.72535],[29.83726,62.72545],[29.83749,62.7256],[29.83767,62.72575],[29.83783,62.72588],[29.83806,62.72603],[29.8384,62.72629],[29.83892,62.72656],[29.83931,62.72677],[29.83974,62.72696],[29.84001,62.72709],[29.84018,62.72717],[29.84035,62.72723],[29.84064,62.72734],[29.84088,62.72742],[29.84113,62.7275],[29.84145,62.7276],[29.84176,62.7277],[29.84506,62.72869],[29.84582,62.72894],[29.84833,62.7297],[29.84886,62.72986],[29.84905,62.72991],[29.85067,62.73039],[29.85199,62.73077],[29.85218,62.73083],[29.85748,62.73237],[29.86097,62.73339],[29.86129,62.73353],[29.86155,62.73367],[29.86168,62.73371],[29.86306,62.73409],[29.86362,62.73425],[29.86525,62.73464],[29.86661,62.73492],[29.86815,62.73522],[29.86905,62.73535],[29.87021,62.73553],[29.87169,62.73569],[29.87252,62.73578],[29.87382,62.73589],[29.87527,62.73596],[29.87669,62.73603],[29.87824,62.73605],[29.87934,62.73605],[29.88061,62.73601],[29.88189,62.73595],[29.88335,62.73586],[29.88488,62.73572],[29.88803,62.73543],[29.88838,62.73539],[29.89073,62.73511],[29.89169,62.73501],[29.89238,62.73492],[29.89349,62.73481],[29.89472,62.73467],[29.8961,62.73451],[29.89726,62.7344],[29.89816,62.73428],[29.89906,62.73414],[29.89929,62.73409],[29.90007,62.73394],[29.90086,62.73379],[29.90212,62.73353],[29.90352,62.73319],[29.90503,62.73281],[29.90682,62.73233],[29.90685,62.73232],[29.91221,62.73073],[29.91722,62.72926],[29.92318,62.72748],[29.92858,62.72586],[29.93729,62.72329],[29.93817,62.72303],[29.93919,62.72275],[29.93956,62.72264],[29.94002,62.72251],[29.94068,62.72236],[29.94146,62.72222],[29.94255,62.72209],[29.94358,62.72198],[29.94453,62.7219],[29.9455,62.72188],[29.94655,62.72189],[29.94729,62.72194],[29.94824,62.722],[29.9489,62.72204],[29.94982,62.72214],[29.95083,62.7223],[29.95152,62.72241],[29.95221,62.72254],[29.95319,62.72278],[29.9537,62.72291],[29.95425,62.72311],[29.95482,62.72333],[29.95534,62.72353],[29.956,62.72378],[29.95664,62.72401],[29.95792,62.72452],[29.97219,62.73021],[29.98319,62.73459],[29.9832,62.73459],[29.98323,62.7346],[29.98355,62.73472],[29.98379,62.73481],[29.98404,62.73493],[29.98434,62.73506],[29.98458,62.73517],[29.98484,62.73528],[29.98513,62.7354],[29.98531,62.73548],[29.98546,62.73554],[29.98564,62.73561],[29.98583,62.73569],[29.98605,62.73579],[29.9865,62.736],[29.98687,62.73617],[29.98694,62.7362],[29.98702,62.73624],[29.9872,62.73631],[29.98739,62.7364],[29.98786,62.73662],[29.98814,62.73678],[29.9882,62.73681],[29.98843,62.73697],[29.98871,62.73716],[29.98893,62.73733],[29.98903,62.73741],[29.98924,62.73757],[29.98931,62.73762],[29.9894,62.73768],[29.9894,62.73768],[29.98991,62.73805],[29.99032,62.7384],[29.99058,62.73866],[29.99091,62.73892],[29.99143,62.73929],[29.99145,62.73931],[29.99153,62.73937],[29.99158,62.73941],[29.99167,62.73948],[29.99226,62.73988],[29.99361,62.74064],[29.99444,62.74101],[29.99486,62.74118],[29.99562,62.74146],[29.99605,62.74159],[29.99684,62.74182],[29.99699,62.74186],[29.99714,62.7419],[30.00014,62.74266],[30.00067,62.74279],[30.00679,62.74423],[30.00685,62.74424],[30.00745,62.74438],[30.00964,62.74492],[30.01227,62.74556],[30.01471,62.74614],[30.01728,62.74677],[30.01742,62.7468],[30.02208,62.74794],[30.02747,62.74924],[30.03448,62.75095],[30.03459,62.75097],[30.03718,62.7516],[30.04001,62.75228],[30.04229,62.75284],[30.04514,62.75352],[30.04696,62.75395],[30.04878,62.7544],[30.05067,62.75485],[30.05197,62.75517],[30.05309,62.75544],[30.05565,62.75605],[30.0579,62.75661],[30.0599,62.75709],[30.06199,62.75759],[30.06386,62.75806],[30.06665,62.75872],[30.0686,62.75921],[30.06929,62.75937],[30.07053,62.75966],[30.07235,62.7601],[30.0743,62.76059],[30.07681,62.76119],[30.07907,62.76173],[30.08071,62.76214],[30.08255,62.76258],[30.08403,62.76294],[30.08503,62.7632],[30.08658,62.76355],[30.08668,62.76357],[30.08829,62.76396],[30.09021,62.76445],[30.09123,62.76474],[30.09242,62.76511],[30.09352,62.76559],[30.09429,62.76595],[30.09473,62.76619],[30.09522,62.7665],[30.0966,62.76744],[30.09782,62.76838],[30.09967,62.76992],[30.0997,62.76994],[30.10076,62.77094],[30.10137,62.77164],[30.10191,62.77249],[30.10227,62.77331],[30.10241,62.77412],[30.10232,62.77507],[30.10161,62.7766],[30.10066,62.77856],[30.10058,62.7787],[30.09942,62.78105],[30.09849,62.78345],[30.09865,62.78487],[30.09889,62.7855],[30.09934,62.78635],[30.1001,62.78723],[30.10048,62.78766],[30.10122,62.78831],[30.10228,62.78905],[30.10273,62.78932],[30.10406,62.79002],[30.10539,62.79063],[30.10644,62.79108],[30.10761,62.79166],[30.10882,62.79239],[30.10935,62.7928],[30.10955,62.793],[30.11014,62.79352],[30.111,62.79426],[30.11132,62.79454],[30.11194,62.79508],[30.11295,62.79595],[30.11426,62.7971],[30.11492,62.79765],[30.11571,62.79834],[30.11716,62.79959],[30.11789,62.80022],[30.11838,62.80063],[30.11878,62.80096],[30.11913,62.80122],[30.11958,62.80154],[30.1201,62.80187],[30.12046,62.80208],[30.12064,62.80218],[30.12093,62.80233],[30.12146,62.80261],[30.12231,62.80299],[30.12312,62.8033],[30.12374,62.8035],[30.12472,62.80377],[30.12586,62.80407],[30.12691,62.8043],[30.12782,62.80448],[30.12875,62.80464],[30.12971,62.80479],[30.13077,62.80493],[30.13195,62.80508],[30.13327,62.80525],[30.1342,62.80536],[30.13425,62.80536],[30.13432,62.80537],[30.1355,62.80553],[30.13554,62.80553],[30.13682,62.8057],[30.13817,62.80589],[30.13852,62.80594],[30.13939,62.80607],[30.14055,62.80622],[30.1418,62.80639],[30.14282,62.80652],[30.14403,62.80669],[30.14533,62.80687],[30.14655,62.80703],[30.14759,62.80718],[30.14866,62.80734],[30.14872,62.80734],[30.14997,62.8075],[30.15096,62.80762],[30.15106,62.80763],[30.15168,62.80772],[30.15209,62.80777],[30.15322,62.80792],[30.15462,62.8081],[30.15596,62.80828],[30.15733,62.80845],[30.15824,62.80857],[30.15913,62.80869],[30.1601,62.80883],[30.16116,62.809],[30.16246,62.80923],[30.16366,62.80944],[30.16484,62.80968],[30.16603,62.80992],[30.16703,62.81011],[30.16802,62.81029],[30.16916,62.81052],[30.17058,62.81079],[30.17184,62.81104],[30.17297,62.81127],[30.17424,62.81152],[30.17505,62.81167],[30.17549,62.81179],[30.1755,62.81179],[30.17621,62.81198],[30.17698,62.81221],[30.17773,62.81246],[30.1785,62.81275],[30.17924,62.81307],[30.17978,62.81334],[30.18048,62.81377],[30.18117,62.81421],[30.18196,62.81471],[30.18278,62.81522],[30.1836,62.81575],[30.18437,62.81623],[30.18502,62.81666],[30.18601,62.81726],[30.18661,62.81767],[30.18737,62.81818],[30.18776,62.81844],[30.18778,62.81845],[30.18849,62.81896],[30.18912,62.81946],[30.18956,62.81984],[30.19019,62.8204],[30.19078,62.82099],[30.19136,62.82153],[30.19194,62.82211],[30.19239,62.82254],[30.19272,62.82288],[30.19296,62.82313],[30.19299,62.82316],[30.19325,62.82341],[30.19378,62.824],[30.19577,62.82592],[30.19644,62.82656],[30.19739,62.82748],[30.19895,62.82952],[30.19971,62.83142],[30.19972,62.83146],[30.20004,62.83353],[30.20008,62.8338],[30.2001,62.83405],[30.20022,62.83535],[30.20111,62.84431],[30.20111,62.84431],[30.2013,62.84509],[30.20183,62.8461],[30.20251,62.84683],[30.20302,62.84736],[30.20324,62.84757],[30.2041,62.8485],[30.20567,62.85015],[30.20688,62.85137],[30.2078,62.8524],[30.2081,62.85291],[30.2081,62.85291],[30.20835,62.85393],[30.20828,62.85492],[30.2082,62.85558],[30.20781,62.8566],[30.20721,62.85797],[30.20674,62.85913],[30.20621,62.86042],[30.20572,62.86155],[30.20572,62.86155],[30.20391,62.86603],[30.20327,62.8676],[30.20304,62.86837],[30.20301,62.86882],[30.2031,62.8691],[30.20353,62.87044],[30.20614,62.87865],[30.20632,62.87919],[30.20926,62.88818],[30.21046,62.89185],[30.21214,62.89701],[30.21338,62.90079],[30.21362,62.90154],[30.21377,62.90201],[30.21395,62.9023],[30.21434,62.90281],[30.21473,62.90316],[30.21521,62.90353],[30.21585,62.90386],[30.21676,62.9043],[30.21773,62.90466],[30.2185,62.90497],[30.21888,62.90513],[30.21906,62.9052],[30.22003,62.9056],[30.22128,62.9061],[30.22266,62.90665],[30.22355,62.90696],[30.22388,62.90706],[30.22481,62.90729],[30.22562,62.90747],[30.22645,62.90762],[30.22713,62.90777],[30.22758,62.90785],[30.22928,62.90814],[30.23122,62.9085],[30.23278,62.9088],[30.23432,62.90912],[30.23585,62.90943],[30.23597,62.90945],[30.23668,62.90958],[30.23718,62.9097],[30.23774,62.90989],[30.23831,62.91012],[30.23872,62.91034],[30.23884,62.91041],[30.23921,62.91067],[30.24,62.91123],[30.2409,62.91199],[30.24158,62.91253],[30.24185,62.91275],[30.24203,62.91288],[30.24304,62.91369],[30.2441,62.91454],[30.24515,62.91544],[30.24549,62.91582],[30.2456,62.91597],[30.24573,62.91619],[30.2458,62.91631],[30.24601,62.91676],[30.24603,62.91693],[30.24604,62.91719],[30.24607,62.91754],[30.24606,62.91815],[30.24594,62.91883],[30.2457,62.91941],[30.24494,62.92011],[30.24426,62.92063],[30.24307,62.92144],[30.24176,62.92233],[30.24057,62.92314],[30.24011,62.92346],[30.23822,62.9248],[30.23441,62.9275],[30.23129,62.92962],[30.2276,62.93222],[30.22598,62.93337],[30.22319,62.93531],[30.2199,62.93747],[30.21885,62.9381],[30.21845,62.93837],[30.21784,62.93872],[30.21731,62.93904],[30.21639,62.93963],[30.21587,62.93997],[30.21494,62.94058],[30.21462,62.94089],[30.21439,62.94114],[30.21423,62.94134],[30.21403,62.9416],[30.21374,62.94201],[30.21343,62.94243],[30.21333,62.94257],[30.21302,62.94305],[30.21282,62.9434],[30.21257,62.94374],[30.21233,62.94404],[30.21204,62.94436],[30.21179,62.94468],[30.2114,62.94502],[30.21114,62.94527],[30.21083,62.94554],[30.21076,62.94559],[30.21042,62.94581],[30.20987,62.94617],[30.20942,62.94643],[30.20726,62.94765],[30.20711,62.94773],[30.20475,62.94902],[30.20354,62.9497],[30.2011,62.95108],[30.19769,62.95295],[30.19498,62.9545],[30.19477,62.95462],[30.19386,62.95513],[30.19104,62.95663],[30.19054,62.95691],[30.18381,62.96072],[30.18378,62.96073],[30.18251,62.96145],[30.18173,62.96189],[30.17711,62.96449],[30.17553,62.96539],[30.17529,62.96548],[30.17507,62.96564],[30.17486,62.96574],[30.17467,62.96588],[30.17456,62.96596],[30.17438,62.96603],[30.17415,62.96621],[30.17392,62.96634],[30.17375,62.96643],[30.17355,62.96658],[30.17337,62.96671],[30.17315,62.96685],[30.1729,62.96703],[30.17278,62.96715],[30.17258,62.96731],[30.1721,62.96769],[30.17181,62.96792],[30.17164,62.96813],[30.17127,62.96842],[30.17106,62.96861],[30.16953,62.96995],[30.16617,62.97299],[30.1621,62.97669],[30.16136,62.97736],[30.15963,62.97895],[30.15692,62.98135],[30.15507,62.98306],[30.1534,62.98458],[30.15319,62.98477],[30.15201,62.98584],[30.14867,62.98879],[30.14441,62.99272],[30.14392,62.99317],[30.14028,62.9964],[30.13691,62.99956],[30.13653,62.99988],[30.13566,63.00071],[30.13551,63.00086],[30.1352,63.00113],[30.13499,63.00136],[30.13478,63.00161],[30.13454,63.00184],[30.13431,63.00211],[30.13419,63.00231],[30.13394,63.00266],[30.13374,63.00303],[30.13267,63.00468],[30.13062,63.00768],[30.12959,63.00923],[30.12959,63.00923],[30.12697,63.01303],[30.12689,63.01317],[30.1268,63.01332],[30.12675,63.0134],[30.12658,63.01369],[30.12649,63.01388],[30.12647,63.01392],[30.12637,63.0141],[30.12625,63.01431],[30.12614,63.01453],[30.12594,63.01484],[30.12564,63.01527],[30.12522,63.01586],[30.12494,63.01629],[30.12465,63.0168],[30.12429,63.01735],[30.12391,63.01792],[30.12387,63.01798],[30.12341,63.01865],[30.12321,63.01892],[30.12282,63.01947],[30.12254,63.0199],[30.12215,63.02041],[30.12187,63.02081],[30.12168,63.02115],[30.12153,63.02141],[30.1214,63.02166],[30.12124,63.02208],[30.12114,63.02243],[30.12093,63.02307],[30.12071,63.02375],[30.12042,63.02458],[30.12014,63.02543],[30.11984,63.02628],[30.1197,63.02668],[30.11959,63.027],[30.11928,63.0278],[30.11902,63.02858],[30.11873,63.0294],[30.11842,63.03028],[30.11815,63.03102],[30.11792,63.03175],[30.11764,63.03263],[30.11741,63.03334],[30.11715,63.03412],[30.11686,63.03489],[30.11668,63.03549],[30.11668,63.03549],[30.1164,63.03623],[30.11616,63.037],[30.1159,63.03774],[30.11566,63.0383],[30.11543,63.03893],[30.11521,63.03964],[30.11511,63.03998],[30.11508,63.04023],[30.11505,63.04053],[30.11509,63.04079],[30.11513,63.04097],[30.11527,63.04124],[30.11541,63.04153],[30.11557,63.04182],[30.11575,63.04208],[30.1158,63.04216],[30.11597,63.04236],[30.11606,63.04249],[30.11625,63.04276],[30.11707,63.04386],[30.11835,63.04559],[30.11853,63.04586],[30.11869,63.04606],[30.1188,63.04626],[30.11894,63.04653],[30.11907,63.04682],[30.11913,63.04708],[30.11921,63.04732],[30.11923,63.04766],[30.11921,63.04814],[30.11919,63.04838],[30.11915,63.04853],[30.11904,63.04879],[30.1188,63.04927],[30.11871,63.04948],[30.11867,63.04958],[30.11711,63.05296],[30.11706,63.05308],[30.11697,63.05325],[30.11635,63.05445],[30.11626,63.05462],[30.11625,63.05464],[30.11615,63.05489],[30.11609,63.05516],[30.11608,63.05542],[30.11606,63.05575],[30.11608,63.05607],[30.1161,63.0564],[30.11609,63.05679],[30.11606,63.05711],[30.116,63.05734],[30.11589,63.05757],[30.11581,63.05781],[30.11577,63.05791],[30.11562,63.05819],[30.11547,63.05843],[30.11526,63.0587],[30.11497,63.05903],[30.11477,63.05928],[30.11457,63.05947],[30.11436,63.05966],[30.11231,63.06151],[30.108,63.06541],[30.10746,63.06586],[30.10675,63.06642],[30.10644,63.06665],[30.10594,63.06696],[30.10526,63.06733],[30.10469,63.06759],[30.10187,63.06893],[30.09588,63.07177],[30.09572,63.07184],[30.08785,63.07553],[30.08778,63.07557],[30.08768,63.07561],[30.08756,63.07567],[30.08742,63.07573],[30.08742,63.07573],[30.08709,63.07589],[30.08251,63.07804],[30.08083,63.07882],[30.08077,63.07885],[30.08074,63.07886],[30.08073,63.07887],[30.08067,63.07889],[30.08059,63.07893],[30.07999,63.07924],[30.07946,63.07949],[30.07889,63.07974],[30.07831,63.08002],[30.07782,63.08026],[30.07742,63.08048],[30.07682,63.08079],[30.07633,63.08108],[30.07598,63.08129],[30.07525,63.08175],[30.07457,63.08219],[30.07456,63.08219],[30.07405,63.08252],[30.07359,63.08282],[30.07344,63.08291],[30.073,63.0832],[30.07202,63.08382],[30.07118,63.08432],[30.07044,63.0848],[30.06981,63.08519],[30.06915,63.08561],[30.06834,63.08614],[30.06821,63.08623],[30.06795,63.0864],[30.06739,63.08677],[30.06684,63.08713],[30.06657,63.08731],[30.06619,63.08757],[30.06586,63.0878],[30.06533,63.08821],[30.06487,63.08859],[30.06435,63.08907],[30.06393,63.08955],[30.06384,63.08965],[30.06333,63.09021],[30.06291,63.09073],[30.06238,63.09133],[30.06194,63.09187],[30.06145,63.09247],[30.06101,63.09304],[30.06034,63.09382],[30.05986,63.09442],[30.05936,63.09507],[30.059,63.09555],[30.05852,63.09617],[30.05794,63.09699],[30.05769,63.09736],[30.05764,63.09743],[30.05752,63.09764],[30.05738,63.09795],[30.05732,63.09809],[30.05722,63.09834],[30.05706,63.09877],[30.05687,63.09921],[30.05672,63.09963],[30.05647,63.10029],[30.0562,63.10105],[30.05589,63.10182],[30.05554,63.10293],[30.05548,63.10309],[30.05544,63.10319],[30.05526,63.10371],[30.05507,63.1041],[30.05486,63.10452],[30.05467,63.10484],[30.05449,63.10517],[30.05423,63.10553],[30.05397,63.10593],[30.05366,63.10642],[30.05336,63.10686],[30.05315,63.1072],[30.05309,63.1073],[30.05276,63.10766],[30.05254,63.10792],[30.05227,63.10823],[30.05191,63.10854],[30.05162,63.10876],[30.05152,63.10882],[30.05112,63.10908],[30.05065,63.10934],[30.05048,63.10942],[30.05006,63.10959],[30.04995,63.10963],[30.04905,63.1099],[30.04839,63.1101],[30.04751,63.11037],[30.04728,63.11045],[30.04674,63.11063],[30.04664,63.11066],[30.04623,63.1108],[30.0458,63.11098],[30.04527,63.1112],[30.04467,63.11153],[30.04421,63.11184],[30.04371,63.11233],[30.04362,63.11242],[30.04334,63.11275],[30.043,63.11316],[30.04258,63.11362],[30.04253,63.11367],[30.04234,63.11386],[30.04211,63.11409],[30.04151,63.11456],[30.04092,63.11496],[30.04041,63.11534],[30.03957,63.11586],[30.03855,63.11657],[30.03764,63.11715],[30.03736,63.11733],[30.03678,63.11771],[30.0359,63.11833],[30.03517,63.1188],[30.03503,63.11889],[30.03463,63.11914],[30.03407,63.11944],[30.03361,63.11967],[30.03303,63.11996],[30.03295,63.11999],[30.03214,63.12033],[30.0313,63.1207],[30.03056,63.12102],[30.03013,63.12115],[30.03005,63.12117],[30.02753,63.12207],[30.02582,63.12268],[30.02428,63.1232],[30.02333,63.12357],[30.02203,63.124],[30.02105,63.12436],[30.02008,63.1247],[30.01915,63.12507],[30.01805,63.12544],[30.01704,63.12582],[30.016,63.1262],[30.01518,63.12651],[30.01464,63.12675],[30.01462,63.12676],[30.0141,63.12698],[30.01352,63.12732],[30.0129,63.12768],[30.01229,63.12804],[30.0117,63.12851],[30.01078,63.12935],[30.01031,63.12985],[30.00974,63.13048],[30.00923,63.1311],[30.00866,63.13171],[30.00823,63.13226],[30.00767,63.13292],[30.00712,63.13356],[30.00699,63.1337],[30.00659,63.13415],[30.00604,63.13479],[30.00601,63.13483],[30.00506,63.13596],[30.00418,63.13693],[30.00344,63.13782],[30.0028,63.13856],[30.00212,63.13935],[30.00164,63.1399],[30.00153,63.14003],[30.00143,63.14017],[30.00129,63.14038],[30.00115,63.14063],[30.00109,63.14094],[30.00106,63.14114],[30.00104,63.14125],[30.00095,63.14168],[30.00087,63.14211],[30.00082,63.14274],[30.00067,63.14323],[30.00067,63.14324],[30.0004,63.1437],[29.99993,63.14419],[29.99944,63.14456],[29.9987,63.14491],[29.99766,63.14536],[29.99679,63.14566],[29.99667,63.14569],[29.99655,63.14572],[29.99653,63.14572],[29.99621,63.14585],[29.99582,63.14601],[29.99536,63.14621],[29.99484,63.14646],[29.99426,63.14675],[29.99389,63.14698],[29.99351,63.14722],[29.99314,63.14746],[29.99283,63.14774],[29.99262,63.14795],[29.99247,63.14809],[29.99225,63.14833],[29.9921,63.1486],[29.99196,63.14885],[29.99186,63.14912],[29.99177,63.14941],[29.99176,63.14981],[29.99179,63.15014],[29.99186,63.15047],[29.9919,63.1506],[29.99195,63.15073],[29.99202,63.15099],[29.9921,63.1512],[29.99223,63.15147],[29.99229,63.15154],[29.99253,63.15181],[29.99278,63.15206],[29.99304,63.15236],[29.99304,63.15236],[29.99307,63.15238],[29.99341,63.15269],[29.99368,63.15299],[29.99398,63.15334],[29.99429,63.15371],[29.99453,63.15402],[29.99485,63.15445],[29.99507,63.15483],[29.99524,63.15511],[29.99538,63.1554],[29.99569,63.15601],[29.99583,63.15631],[29.99597,63.15661],[29.99614,63.15705],[29.99629,63.15745],[29.99643,63.1578],[29.99657,63.15811],[29.99669,63.15842],[29.99677,63.1586],[29.99678,63.15866],[29.99676,63.15874],[29.99675,63.15881],[29.99679,63.1589],[29.99681,63.15893],[29.99685,63.15904],[29.997,63.15938],[29.99718,63.15987],[29.99734,63.16032],[29.99749,63.16068],[29.99765,63.16118],[29.99768,63.16129],[29.99785,63.1618],[29.99825,63.16283],[29.99843,63.16318],[29.99853,63.16334],[29.999,63.16392],[29.9998,63.1647],[30.00154,63.16617],[30.00213,63.16665],[30.00289,63.16729],[30.00489,63.16899],[30.00565,63.16967],[30.00596,63.16994],[30.00708,63.17091],[30.00772,63.17143],[30.00829,63.17193],[30.00876,63.17249],[30.00909,63.17297],[30.0092,63.1734],[30.00932,63.17384],[30.00946,63.17511],[30.00955,63.17577],[30.00973,63.17713],[30.00989,63.17902],[30.00995,63.18031],[30.01017,63.18089],[30.01024,63.18105],[30.01042,63.18134],[30.01064,63.18163],[30.01088,63.18192],[30.01114,63.18217],[30.01149,63.18254],[30.01181,63.1829],[30.01249,63.18367],[30.01258,63.18378],[30.01313,63.1844],[30.0132,63.18448],[30.01337,63.18466],[30.01363,63.185],[30.01386,63.18525],[30.01406,63.18551],[30.0142,63.18572],[30.01437,63.18591],[30.01459,63.18621],[30.01475,63.18653],[30.01489,63.18687],[30.015,63.18719],[30.01508,63.18766],[30.01514,63.18808],[30.01517,63.18851],[30.0152,63.18899],[30.01519,63.18905],[30.0152,63.1891],[30.01523,63.18952],[30.01524,63.19001],[30.01529,63.19039],[30.01528,63.1907],[30.01533,63.19114],[30.01536,63.19156],[30.01538,63.19197],[30.01539,63.19237],[30.01538,63.19267],[30.01542,63.19281],[30.01545,63.19298],[30.01545,63.19308],[30.01545,63.19317],[30.01546,63.19341],[30.01544,63.19361],[30.01546,63.19432],[30.01555,63.19546],[30.01548,63.19599],[30.01546,63.19646],[30.01549,63.19684],[30.01564,63.19719],[30.01579,63.19752],[30.01601,63.19791],[30.01628,63.19833],[30.01662,63.19872],[30.01719,63.19913],[30.01776,63.19951],[30.01842,63.19993],[30.01921,63.20046],[30.02076,63.20153],[30.02078,63.20155],[30.02305,63.20303],[30.02613,63.20503],[30.02798,63.20624],[30.028,63.20626],[30.02813,63.20634],[30.02835,63.20649],[30.0302,63.20767],[30.03131,63.20843],[30.03201,63.20888],[30.03201,63.20889],[30.03347,63.20982],[30.03486,63.21069],[30.03675,63.21194],[30.0392,63.21357],[30.04145,63.21503],[30.04334,63.2163],[30.04334,63.2163],[30.04484,63.21729],[30.04686,63.21864],[30.04821,63.21952],[30.05017,63.22081],[30.05153,63.2217],[30.05298,63.22266],[30.05453,63.22368],[30.05465,63.22375],[30.05596,63.22461],[30.05712,63.22537],[30.05785,63.22583],[30.05891,63.22654],[30.05979,63.22712],[30.06094,63.22788],[30.06175,63.22843],[30.06277,63.22909],[30.06404,63.2298],[30.06475,63.23013],[30.06542,63.23048],[30.0663,63.23086],[30.06659,63.23098],[30.06732,63.23129],[30.06824,63.23164],[30.06906,63.23194],[30.07024,63.23233],[30.07138,63.23265],[30.07201,63.23282],[30.07276,63.23299],[30.07352,63.23316],[30.07425,63.23332],[30.07498,63.23346],[30.07571,63.23361],[30.07615,63.23371],[30.07647,63.23376],[30.07744,63.23393],[30.07824,63.23406],[30.07956,63.23422],[30.0807,63.23435],[30.08165,63.23444],[30.08288,63.23452],[30.08415,63.23457],[30.0842,63.23457],[30.08577,63.23461],[30.08751,63.23463],[30.08896,63.23462],[30.09009,63.23459],[30.09144,63.23453],[30.09262,63.23448],[30.09369,63.23446],[30.09461,63.23448],[30.09542,63.23454],[30.09593,63.23458],[30.09626,63.23462],[30.09658,63.23465],[30.09703,63.2347],[30.09757,63.23478],[30.09815,63.23488],[30.0986,63.23496],[30.09914,63.23508],[30.0996,63.23519],[30.09998,63.23529],[30.10048,63.23545],[30.10084,63.23557],[30.10134,63.23577],[30.10177,63.23596],[30.10218,63.23616],[30.10253,63.23637],[30.10275,63.23649],[30.10276,63.2365],[30.1031,63.2367],[30.10351,63.23696],[30.10401,63.23732],[30.10443,63.23763],[30.10444,63.23763],[30.10475,63.23793],[30.10478,63.23797],[30.10546,63.23869],[30.10718,63.24008],[30.10861,63.24106],[30.10981,63.24183],[30.11098,63.24256],[30.11212,63.24334],[30.11291,63.24391],[30.113,63.24397],[30.11355,63.24439],[30.11401,63.24479],[30.11456,63.24549],[30.11482,63.246],[30.11489,63.24659],[30.11481,63.24721],[30.11459,63.24796],[30.11431,63.24881],[30.11414,63.24966],[30.11413,63.25004],[30.11418,63.25053],[30.1143,63.25107],[30.11445,63.2515],[30.11489,63.2523],[30.11517,63.25286],[30.11524,63.253],[30.1156,63.25391],[30.1158,63.25445],[30.11583,63.25476],[30.11584,63.25516],[30.1158,63.25567],[30.11562,63.25629],[30.11547,63.25672],[30.11506,63.25733],[30.1143,63.25815],[30.1138,63.2586],[30.11368,63.2587],[30.11279,63.25936],[30.11032,63.26115],[30.10769,63.26305],[30.1076,63.26311],[30.10704,63.26352],[30.10225,63.26701],[30.10101,63.26794],[30.10021,63.26863],[30.10013,63.2687],[30.09904,63.2697],[30.09797,63.27071],[30.09734,63.27128],[30.09638,63.27196],[30.0962,63.27207],[30.09587,63.27228],[30.09552,63.27253],[30.09432,63.27335],[30.09376,63.27373],[30.09284,63.27436],[30.09218,63.27483],[30.0915,63.2753],[30.09093,63.27568],[30.09032,63.2761],[30.08988,63.27641],[30.08912,63.27693],[30.08834,63.27747],[30.08758,63.27797],[30.08693,63.27841],[30.08636,63.27881],[30.08572,63.27924],[30.08501,63.27973],[30.08433,63.2802],[30.08259,63.2814],[30.08201,63.28179],[30.08151,63.28213],[30.08104,63.28248],[30.08101,63.2825],[30.08082,63.28266],[30.08045,63.28291],[30.07997,63.28323],[30.07931,63.28368],[30.07868,63.28411],[30.07867,63.28411],[30.07807,63.28453],[30.07756,63.28489],[30.07696,63.2853],[30.07635,63.28569],[30.07564,63.28618],[30.07499,63.28662],[30.07441,63.28702],[30.07383,63.28741],[30.07325,63.2878],[30.07269,63.28819],[30.07215,63.28855],[30.07165,63.28888],[30.07118,63.28917],[30.07063,63.28947],[30.07013,63.28971],[30.06944,63.29],[30.06878,63.29028],[30.06806,63.29055],[30.06723,63.29087],[30.06661,63.2911],[30.06649,63.29115],[30.06572,63.29145],[30.06484,63.29178],[30.06407,63.29208],[30.06246,63.29271],[30.06161,63.29304],[30.06089,63.29333],[30.06014,63.29361],[30.05931,63.29393],[30.05857,63.29421],[30.05771,63.29455],[30.05693,63.29484],[30.05607,63.29517],[30.05532,63.29544],[30.05451,63.29577],[30.05393,63.29604],[30.0533,63.29633],[30.05284,63.29661],[30.0525,63.29689],[30.0522,63.29714],[30.05216,63.29717],[30.05174,63.29753],[30.05141,63.29782],[30.05095,63.29812],[30.05039,63.29843],[30.04976,63.29874],[30.04919,63.29899],[30.04863,63.29922],[30.0481,63.29943],[30.04759,63.29965],[30.04709,63.29985],[30.04666,63.30003],[30.04603,63.30027],[30.04532,63.30057],[30.04528,63.30058],[30.04504,63.30067],[30.04491,63.30072],[30.04472,63.30081],[30.04422,63.301],[30.04374,63.3012],[30.04349,63.30131],[30.0426,63.30167],[30.04164,63.30204],[30.04071,63.3024],[30.03971,63.3028],[30.03908,63.30307],[30.03827,63.30339],[30.03826,63.30339],[30.0374,63.30373],[30.03646,63.30412],[30.03562,63.30445],[30.03483,63.30477],[30.03402,63.3051],[30.03329,63.30539],[30.03276,63.30562],[30.03203,63.30591],[30.03121,63.30623],[30.03068,63.30648],[30.03004,63.30677],[30.02993,63.30683],[30.02966,63.30697],[30.02923,63.3072],[30.02877,63.30746],[30.0283,63.30772],[30.02774,63.30804],[30.02712,63.30839],[30.02672,63.30863],[30.02626,63.30888],[30.02583,63.30913],[30.02541,63.30936],[30.02525,63.30947],[30.02492,63.30965],[30.02462,63.30986],[30.02459,63.30988],[30.02446,63.31],[30.02426,63.31021],[30.02408,63.31048],[30.02399,63.31074],[30.02395,63.31095],[30.02399,63.31119],[30.02403,63.31147],[30.02414,63.31184],[30.02421,63.31225],[30.0243,63.3126],[30.02439,63.313],[30.02446,63.31336],[30.02454,63.31372],[30.02458,63.31397],[30.02458,63.31406],[30.02455,63.31424],[30.02449,63.31453],[30.02437,63.31478],[30.02419,63.31505],[30.02393,63.31531],[30.02361,63.31557],[30.0231,63.31587],[30.02276,63.31605],[30.02226,63.31625],[30.02165,63.31646],[30.02103,63.31668],[30.0203,63.31693],[30.01948,63.31721],[30.0184,63.31758],[30.01798,63.31772],[30.01456,63.31877],[30.01363,63.31908],[30.01308,63.31927],[30.01254,63.31945],[30.01251,63.31946],[30.01218,63.31958],[30.01187,63.31968],[30.0113,63.31987],[30.0108,63.32003],[30.01034,63.32019],[30.00974,63.32039],[30.00933,63.3205],[30.00889,63.32063],[30.00839,63.32075],[30.00788,63.32085],[30.00743,63.32093],[30.00695,63.32099],[30.00664,63.32103],[30.00617,63.32107],[30.00556,63.32112],[30.00491,63.32117],[30.00451,63.32122],[30.00354,63.32135],[30.00236,63.32152],[30.00109,63.3217],[30.00105,63.3217],[29.99911,63.32197],[29.99787,63.32215],[29.99677,63.32232],[29.99602,63.32242],[29.99527,63.32253],[29.99455,63.32267],[29.99372,63.32277],[29.99302,63.32287],[29.99214,63.32297],[29.99125,63.3231],[29.99048,63.3232],[29.98957,63.32333],[29.98842,63.32349],[29.98757,63.32362],[29.98672,63.32374],[29.98586,63.32386],[29.98517,63.32397],[29.98417,63.32408],[29.98331,63.3242],[29.98256,63.32434],[29.98192,63.32442],[29.98152,63.32447],[29.98036,63.32462],[29.97966,63.3247],[29.97879,63.32484],[29.97805,63.32498],[29.97737,63.32511],[29.97673,63.32521],[29.9761,63.32534],[29.97554,63.32551],[29.97476,63.32572],[29.97397,63.32594],[29.97307,63.32614],[29.97229,63.32633],[29.97133,63.32661],[29.97019,63.32691],[29.96923,63.32717],[29.9692,63.32718],[29.96871,63.32731],[29.96836,63.32738],[29.96794,63.32747],[29.96726,63.32762],[29.96644,63.32781],[29.96554,63.32802],[29.96439,63.32828],[29.96395,63.32838],[29.96339,63.32851],[29.96259,63.3287],[29.9617,63.32889],[29.96094,63.32905],[29.96008,63.32925],[29.95936,63.3294],[29.95847,63.3296],[29.95765,63.3298],[29.95707,63.32993],[29.95647,63.3301],[29.95593,63.33029],[29.95536,63.33048],[29.95437,63.33084],[29.95359,63.33114],[29.95259,63.33153],[29.95157,63.33194],[29.95067,63.33229],[29.94906,63.33293],[29.94828,63.33324],[29.94757,63.3335],[29.94756,63.3335],[29.94666,63.33382],[29.94593,63.33412],[29.9451,63.33444],[29.9444,63.33469],[29.94392,63.33484],[29.94355,63.33498],[29.94305,63.33512],[29.94229,63.33534],[29.94177,63.3355],[29.94075,63.33577],[29.93991,63.33601],[29.9391,63.33625],[29.93818,63.33649],[29.93741,63.33672],[29.93629,63.33703],[29.9353,63.33731],[29.93437,63.33758],[29.93351,63.33783],[29.93245,63.33812],[29.93149,63.3384],[29.9311,63.33851],[29.9306,63.33865],[29.92979,63.33889],[29.92906,63.33911],[29.92852,63.33926],[29.92767,63.33949],[29.92667,63.33978],[29.92556,63.3401],[29.92475,63.34032],[29.92392,63.34056],[29.92293,63.34084],[29.92207,63.34109],[29.92136,63.3413],[29.92058,63.34152],[29.91977,63.34174],[29.91897,63.34198],[29.91825,63.34219],[29.91679,63.3426],[29.91608,63.3428],[29.91531,63.34302],[29.91455,63.34324],[29.91396,63.34341],[29.91376,63.34347],[29.91301,63.34368],[29.91221,63.3439],[29.9113,63.34416],[29.91043,63.34442],[29.90961,63.34464],[29.90888,63.34485],[29.90813,63.34507],[29.90738,63.34527],[29.90577,63.34573],[29.90498,63.34595],[29.90422,63.34617],[29.90353,63.34637],[29.90286,63.34657],[29.90208,63.34679],[29.90144,63.34697],[29.90065,63.34719],[29.89973,63.34745],[29.89816,63.34789],[29.89739,63.34811],[29.89724,63.34816],[29.89691,63.34826],[29.89634,63.34842],[29.8958,63.34858],[29.89475,63.34888],[29.89381,63.34914],[29.89267,63.34948],[29.89118,63.34988],[29.88997,63.35023],[29.88874,63.35056],[29.88748,63.35092],[29.88605,63.35132],[29.88481,63.35166],[29.88336,63.35207],[29.88225,63.35237],[29.88119,63.35269],[29.88035,63.35292],[29.87992,63.35303],[29.87763,63.35368],[29.87546,63.35429],[29.87362,63.35481],[29.87204,63.35526],[29.87037,63.35572],[29.86819,63.35633],[29.86647,63.35682],[29.86521,63.35719],[29.86406,63.35752],[29.86294,63.35782],[29.86285,63.35784],[29.86181,63.35814],[29.86091,63.35841],[29.85976,63.35872],[29.8589,63.35897],[29.85786,63.35927],[29.85687,63.35955],[29.85599,63.35981],[29.85523,63.36002],[29.85453,63.36022],[29.85361,63.36047],[29.85264,63.36075],[29.85187,63.36099],[29.85075,63.36129],[29.84994,63.3615],[29.84952,63.36162],[29.84912,63.36174],[29.84865,63.36185],[29.84821,63.36198],[29.84771,63.3621],[29.84716,63.36222],[29.84669,63.36235],[29.84636,63.36243],[29.84622,63.36246],[29.84584,63.36255],[29.84535,63.36262],[29.84491,63.3627],[29.8446,63.36276],[29.8441,63.36287],[29.84357,63.36294],[29.84316,63.36299],[29.84265,63.36308],[29.84196,63.36318],[29.84133,63.36329],[29.84071,63.36337],[29.83953,63.36356],[29.83916,63.36362],[29.8387,63.36369],[29.83825,63.36378],[29.83779,63.36383],[29.8374,63.36391],[29.83706,63.36395],[29.83665,63.36402],[29.83622,63.36408],[29.83552,63.3642],[29.83477,63.3643],[29.83403,63.36444],[29.83319,63.36456],[29.83218,63.36473],[29.83153,63.36481],[29.83099,63.36489],[29.83047,63.36497],[29.82987,63.36504],[29.82939,63.36506],[29.82905,63.3651],[29.82779,63.36516],[29.82767,63.36515],[29.82741,63.36514],[29.82695,63.36513],[29.82643,63.36508],[29.82568,63.36503],[29.82503,63.36497],[29.8244,63.36491],[29.8238,63.36479],[29.82311,63.36464],[29.82239,63.36451],[29.82175,63.36438],[29.82123,63.36424],[29.82082,63.36411],[29.82028,63.36394],[29.81985,63.36378],[29.81942,63.36359],[29.81895,63.36338],[29.81856,63.36322],[29.81815,63.36306],[29.8176,63.36284],[29.81717,63.36268],[29.81674,63.36253],[29.81633,63.36238],[29.8159,63.36224],[29.81536,63.36206],[29.81489,63.36191],[29.81447,63.36179],[29.81387,63.36164],[29.81333,63.36151],[29.81295,63.3614],[29.81245,63.36128],[29.81199,63.36117],[29.81146,63.36107],[29.81091,63.36094],[29.81062,63.36089],[29.8104,63.36085],[29.80981,63.36073],[29.80927,63.36063],[29.80864,63.36054],[29.80813,63.36045],[29.80773,63.36039],[29.80732,63.36031],[29.80686,63.36025],[29.80626,63.36017],[29.8059,63.36013],[29.80556,63.36007],[29.80515,63.36003],[29.80475,63.35999],[29.80426,63.35995],[29.80386,63.35992],[29.8035,63.3599],[29.80313,63.35987],[29.80285,63.35986],[29.80242,63.35982],[29.8019,63.35979],[29.80155,63.35977],[29.80069,63.35972],[29.80032,63.3597],[29.79983,63.3597],[29.79925,63.35969],[29.79869,63.35968],[29.79809,63.35969],[29.79733,63.35967],[29.79696,63.35966],[29.7966,63.35965],[29.7958,63.35967],[29.79483,63.35972],[29.79392,63.35977],[29.79315,63.35983],[29.79243,63.35988],[29.79139,63.35998],[29.79078,63.36004],[29.7905,63.36007],[29.78981,63.36014],[29.78906,63.36025],[29.78821,63.36039],[29.78622,63.36071],[29.78542,63.36083],[29.78445,63.36099],[29.78345,63.36114],[29.78267,63.36126],[29.78197,63.36136],[29.78106,63.36147],[29.78014,63.36158],[29.77918,63.36167],[29.77826,63.36174],[29.77733,63.36181],[29.77664,63.36186],[29.7757,63.36191],[29.77469,63.36196],[29.77379,63.36199],[29.77286,63.362],[29.77204,63.36201],[29.77199,63.36201],[29.7715,63.36201],[29.77098,63.36202],[29.77074,63.36202],[29.77055,63.36203],[29.76981,63.36202],[29.76895,63.36201],[29.76795,63.36197],[29.76713,63.36195],[29.76629,63.36193],[29.76525,63.36189],[29.76425,63.36185],[29.76325,63.36182],[29.76235,63.36177],[29.76139,63.36175],[29.76043,63.36171],[29.75935,63.36168],[29.75926,63.36168],[29.75859,63.36164],[29.75784,63.36163],[29.75689,63.36159],[29.75606,63.36156],[29.75511,63.36154],[29.75423,63.36149],[29.75353,63.36147],[29.7534,63.36147],[29.75257,63.36143],[29.75184,63.3614],[29.75151,63.36139],[29.75099,63.36137],[29.7501,63.36134],[29.74929,63.36132],[29.74768,63.36126],[29.74707,63.36124],[29.74631,63.36121],[29.74559,63.36117],[29.74478,63.36113],[29.74333,63.36108],[29.74258,63.36105],[29.7419,63.361],[29.74117,63.36095],[29.74057,63.36088],[29.73997,63.36081],[29.73935,63.36073],[29.73871,63.36062],[29.73753,63.36043],[29.73692,63.36032],[29.73625,63.36021],[29.73557,63.36011],[29.73475,63.36003],[29.73398,63.35998],[29.73324,63.35995],[29.73266,63.35997],[29.73205,63.35999],[29.73192,63.35999],[29.73131,63.36002],[29.7307,63.36008],[29.72999,63.36015],[29.72929,63.36026],[29.72864,63.36039],[29.72772,63.36057],[29.72673,63.36076],[29.72579,63.36094],[29.725,63.36109],[29.72437,63.36121],[29.7238,63.36132],[29.72304,63.36148],[29.72214,63.36163],[29.72146,63.36176],[29.72073,63.36192],[29.71997,63.36206],[29.71929,63.36219],[29.71853,63.36233],[29.71779,63.36247],[29.71683,63.36264],[29.71606,63.36276],[29.71544,63.36289],[29.71491,63.36301],[29.71449,63.36311],[29.71401,63.36324],[29.71355,63.36338],[29.71353,63.36339],[29.71309,63.36353],[29.71252,63.36374],[29.712,63.36395],[29.7114,63.36422],[29.71086,63.36446],[29.71034,63.36471],[29.70978,63.36496],[29.70929,63.36523],[29.70893,63.36544],[29.70853,63.36568],[29.70813,63.36595],[29.70749,63.36637],[29.70701,63.36676],[29.70676,63.36695],[29.70648,63.36717],[29.70621,63.36739],[29.70595,63.36764],[29.70572,63.3679],[29.70549,63.36817],[29.70525,63.36844],[29.70494,63.36882],[29.70456,63.36927],[29.70412,63.36977],[29.70389,63.37005],[29.70357,63.3704],[29.70329,63.37072],[29.70305,63.37101],[29.70305,63.37102],[29.70254,63.37165],[29.70231,63.37193],[29.7012,63.3733],[29.69943,63.37547],[29.69772,63.37752],[29.69686,63.37864],[29.69663,63.37896],[29.69632,63.37927],[29.69608,63.37954],[29.6957,63.37997],[29.69494,63.38081],[29.69403,63.38181],[29.69341,63.38252],[29.69271,63.3834],[29.69227,63.38409],[29.69193,63.38474],[29.69157,63.38568],[29.69127,63.38643],[29.69106,63.38699],[29.69089,63.38731],[29.69071,63.3876],[29.69047,63.388],[29.69047,63.388],[29.68987,63.38888],[29.6891,63.39005],[29.68869,63.39069],[29.68811,63.39155],[29.68737,63.39263],[29.68678,63.39354],[29.68611,63.39455],[29.68537,63.39561],[29.68495,63.39629],[29.68473,63.3966],[29.68447,63.39697],[29.68406,63.3976],[29.68367,63.39819],[29.68333,63.3987],[29.6829,63.39918],[29.68247,63.39958],[29.68202,63.39995],[29.68156,63.40028],[29.68091,63.40066],[29.67849,63.40199],[29.67633,63.40314],[29.67509,63.40382],[29.67461,63.40407],[29.67412,63.40433],[29.67295,63.40496],[29.67176,63.4056],[29.67098,63.40601],[29.67048,63.40622],[29.66951,63.40657],[29.66846,63.40691],[29.66744,63.40722],[29.66647,63.40749],[29.66546,63.40775],[29.66445,63.40797],[29.66309,63.4082],[29.66157,63.40839],[29.66062,63.40847],[29.6598,63.40855],[29.6591,63.40858],[29.65804,63.4086],[29.65804,63.4086],[29.65607,63.40862],[29.65156,63.40868],[29.64825,63.40874],[29.64451,63.40879],[29.6425,63.40881],[29.64024,63.40885],[29.63902,63.40887],[29.63809,63.40891],[29.63802,63.40891],[29.63697,63.409],[29.63597,63.40912],[29.6351,63.40925],[29.63416,63.40942],[29.63329,63.40962],[29.63235,63.40989],[29.63199,63.41001],[29.63151,63.41019],[29.63095,63.41044],[29.63048,63.41065],[29.63008,63.41088],[29.62951,63.41125],[29.62893,63.41163],[29.62815,63.41213],[29.62732,63.4127],[29.62475,63.41438],[29.62415,63.41478],[29.62381,63.415],[29.62256,63.41583],[29.62179,63.41634],[29.62139,63.41659],[29.621,63.41686],[29.62055,63.41716],[29.62012,63.41744],[29.61999,63.41752],[29.6193,63.41794],[29.61854,63.41835],[29.61781,63.41871],[29.61648,63.41934],[29.61618,63.41947],[29.61514,63.41995],[29.61356,63.4207],[29.61218,63.42135],[29.61182,63.42152],[29.61146,63.42169],[29.61096,63.42192],[29.60973,63.4225],[29.60783,63.42338],[29.60729,63.42363],[29.60597,63.42424],[29.60471,63.42485],[29.60339,63.42546],[29.60233,63.42596],[29.60149,63.42636],[29.6005,63.42683],[29.59982,63.42721],[29.59928,63.42759],[29.59892,63.42793],[29.59857,63.42846],[29.59857,63.42846],[29.59844,63.42875],[29.59824,63.42928],[29.59815,63.42988],[29.59808,63.43057],[29.59788,63.43149],[29.59768,63.43219],[29.59743,63.43287],[29.59713,63.43357],[29.59675,63.43413],[29.59653,63.43441],[29.5961,63.4349],[29.59596,63.43508],[29.59569,63.43542],[29.59531,63.43585],[29.59508,63.4361],[29.59469,63.4365],[29.59418,63.43696],[29.59399,63.43716],[29.59368,63.43749],[29.59326,63.43793],[29.59278,63.43838],[29.5927,63.43846],[29.5921,63.43903],[29.59177,63.43935],[29.59143,63.4397],[29.59113,63.44],[29.5908,63.44023],[29.59049,63.44046],[29.59025,63.44061],[29.59003,63.44075],[29.58974,63.44093],[29.58939,63.44113],[29.58898,63.44135],[29.5885,63.44159],[29.58803,63.44181],[29.58753,63.44203],[29.5871,63.44222],[29.58647,63.44247],[29.58609,63.44262],[29.5855,63.44284],[29.58491,63.44306],[29.58454,63.44319],[29.58399,63.44336],[29.58353,63.44349],[29.58317,63.44357],[29.58304,63.4436],[29.58272,63.44368],[29.58255,63.44372],[29.58214,63.44381],[29.58173,63.44389],[29.58167,63.4439],[29.58133,63.44397],[29.58097,63.44402],[29.58063,63.44407],[29.58045,63.44409],[29.57971,63.44419],[29.57861,63.44431],[29.57777,63.4444],[29.57711,63.44446],[29.57624,63.44457],[29.57544,63.44466],[29.57433,63.44481],[29.57316,63.44494],[29.5722,63.44505],[29.5712,63.44517],[29.5703,63.44527],[29.56872,63.44545],[29.56776,63.44557],[29.56655,63.4457],[29.56607,63.44577],[29.56553,63.44583],[29.5646,63.44592],[29.56363,63.44604],[29.56304,63.44612],[29.56233,63.4462],[29.56231,63.4462],[29.56168,63.44628],[29.56114,63.44635],[29.56055,63.44643],[29.56023,63.44647],[29.55958,63.44658],[29.55905,63.44665],[29.55841,63.44675],[29.55783,63.44686],[29.55729,63.44697],[29.55677,63.44706],[29.55641,63.44712],[29.55629,63.44714],[29.55558,63.44724],[29.55496,63.44737],[29.55422,63.44752],[29.55361,63.44763],[29.55285,63.44776],[29.55228,63.44788],[29.55183,63.44796],[29.55143,63.44805],[29.55093,63.44813],[29.55048,63.44819],[29.55001,63.44827],[29.54959,63.44834],[29.54875,63.44844],[29.54808,63.44849],[29.54736,63.44853],[29.54639,63.44852],[29.54572,63.44849],[29.54514,63.44848],[29.54429,63.44843],[29.54349,63.44835],[29.54334,63.44834],[29.54284,63.4483],[29.54218,63.44822],[29.54092,63.44803],[29.54001,63.44785],[29.53926,63.44765],[29.53862,63.44744],[29.53812,63.44726],[29.5376,63.44707],[29.53738,63.44698],[29.53714,63.44687],[29.53701,63.44682],[29.53657,63.44661],[29.53616,63.4464],[29.53567,63.44616],[29.53526,63.44593],[29.53495,63.44576],[29.53458,63.44552],[29.53421,63.44525],[29.53392,63.44502],[29.53338,63.44454],[29.53296,63.44412],[29.53265,63.44384],[29.53235,63.4435],[29.53205,63.44321],[29.53191,63.44308],[29.5315,63.44265],[29.53127,63.4424],[29.53067,63.44173],[29.53047,63.4415],[29.53009,63.44118],[29.52962,63.44078],[29.52909,63.44037],[29.52849,63.44002],[29.52789,63.43975],[29.52741,63.43955],[29.52731,63.43952],[29.52668,63.43931],[29.52606,63.43913],[29.52555,63.439],[29.52496,63.43888],[29.52428,63.43876],[29.52368,63.43866],[29.52304,63.43858],[29.52233,63.43851],[29.52171,63.43846],[29.52088,63.4384],[29.51995,63.43836],[29.51859,63.43831],[29.51742,63.43825],[29.51595,63.43818],[29.51523,63.43814],[29.51331,63.43805],[29.51074,63.43794],[29.50895,63.43784],[29.50705,63.43776],[29.50563,63.43768],[29.50368,63.43759],[29.50216,63.43753],[29.50103,63.43748],[29.50001,63.43743],[29.49877,63.43737],[29.49778,63.43733],[29.49746,63.43732],[29.49727,63.43732],[29.49698,63.43732],[29.49666,63.43733],[29.49637,63.43735],[29.49632,63.43735],[29.49614,63.43737],[29.49589,63.43739],[29.49565,63.4374],[29.4952,63.43746],[29.49473,63.43752],[29.49424,63.43761],[29.49387,63.43767],[29.49351,63.43774],[29.49322,63.43781],[29.49296,63.43787],[29.49273,63.43792],[29.49252,63.43799],[29.49223,63.43805],[29.49195,63.43813],[29.49178,63.43819],[29.4915,63.43828],[29.49125,63.43836],[29.49101,63.43844],[29.49058,63.43857],[29.49019,63.43869],[29.48974,63.43884],[29.48934,63.43898],[29.48871,63.43921],[29.48824,63.43935],[29.4874,63.43965],[29.48662,63.4399],[29.48573,63.44023],[29.48555,63.44029],[29.4852,63.4404],[29.48431,63.44072],[29.48329,63.44106],[29.48247,63.44135],[29.48166,63.44163],[29.48087,63.44189],[29.47987,63.44224],[29.47985,63.44225],[29.47874,63.44262],[29.47768,63.44301],[29.47657,63.44341],[29.47556,63.44372],[29.47442,63.44412],[29.47362,63.4444],[29.47288,63.44464],[29.47153,63.44511],[29.47054,63.44546],[29.46939,63.44585],[29.46772,63.44643],[29.46661,63.44682],[29.4654,63.44723],[29.46436,63.44759],[29.46383,63.44777],[29.46365,63.44783],[29.46289,63.44811],[29.46192,63.44844],[29.46083,63.44881],[29.45938,63.4493],[29.45807,63.44976],[29.45692,63.45015],[29.45582,63.45054],[29.45476,63.4509],[29.45402,63.45115],[29.45287,63.45156],[29.45179,63.45194],[29.45069,63.45231],[29.4499,63.45258],[29.44945,63.45274],[29.44884,63.45296],[29.44809,63.45326],[29.44804,63.45328],[29.44801,63.4533],[29.44755,63.4535],[29.44416,63.45487],[29.444,63.45493],[29.44159,63.45588],[29.44047,63.45634],[29.43975,63.45663],[29.43888,63.45696],[29.43824,63.45732],[29.43739,63.45774],[29.43581,63.45855],[29.4348,63.45908],[29.43382,63.45957],[29.43377,63.45959],[29.43346,63.45975],[29.43229,63.46036],[29.43143,63.46082],[29.43138,63.46084],[29.43023,63.46144],[29.4282,63.46249],[29.426,63.46362],[29.42503,63.46411],[29.42355,63.4649],[29.42249,63.46552],[29.42166,63.46606],[29.4209,63.46661],[29.42075,63.46672],[29.41991,63.46733],[29.41899,63.46796],[29.41774,63.46871],[29.41622,63.4695],[29.41423,63.47052],[29.41254,63.47137],[29.41145,63.47193],[29.41042,63.47241],[29.40941,63.47284],[29.4083,63.47326],[29.40782,63.47342],[29.40708,63.47368],[29.40558,63.47418],[29.40419,63.47464],[29.40272,63.47512],[29.40154,63.47553],[29.40065,63.47582],[29.39962,63.47616],[29.3988,63.47643],[29.39819,63.47664],[29.39748,63.47691],[29.39661,63.47729],[29.39601,63.47756],[29.39486,63.47803],[29.39485,63.47803],[29.39387,63.47839],[29.39252,63.47886],[29.39252,63.47886],[29.39105,63.4793],[29.38989,63.47961],[29.38903,63.47983],[29.38793,63.48007],[29.38537,63.48057],[29.38361,63.48092],[29.38252,63.48116],[29.38117,63.4815],[29.37813,63.48228],[29.37597,63.48284],[29.37456,63.4832],[29.37413,63.48331],[29.37399,63.48334],[29.37135,63.48403],[29.36854,63.48475],[29.36529,63.48558],[29.3629,63.4862],[29.36165,63.48652],[29.36058,63.48679],[29.35944,63.48706],[29.3582,63.48731],[29.35715,63.48751],[29.35678,63.48758],[29.35546,63.48783],[29.35441,63.48805],[29.35358,63.48823],[29.35285,63.4884],[29.35228,63.48855],[29.35175,63.48869],[29.35103,63.48889],[29.35045,63.48906],[29.34766,63.48989],[29.34689,63.49013],[29.34537,63.4906],[29.34425,63.49093],[29.34277,63.49138],[29.34119,63.49186],[29.33999,63.49222],[29.33974,63.49229],[29.33795,63.49283],[29.33673,63.4932],[29.33526,63.49365],[29.33493,63.49375],[29.33453,63.49387],[29.33361,63.49415],[29.3327,63.49442],[29.33124,63.49487],[29.33064,63.49506],[29.32999,63.49528],[29.32976,63.49537],[29.32877,63.49578],[29.32729,63.49646],[29.32565,63.49723],[29.3247,63.49767],[29.32411,63.49795],[29.32285,63.49855],[29.32134,63.49925],[29.3199,63.49992],[29.31824,63.5007],[29.31697,63.5013],[29.31556,63.50195],[29.31364,63.50286],[29.31217,63.50354],[29.31169,63.5038],[29.31126,63.50408],[29.31101,63.50428],[29.3107,63.50452],[29.30996,63.50514],[29.30943,63.5056],[29.30885,63.50608],[29.30789,63.50686],[29.30722,63.50743],[29.30644,63.50808],[29.30562,63.50876],[29.30498,63.50933],[29.30438,63.50992],[29.30374,63.51052],[29.30312,63.51111],[29.30264,63.51153],[29.30241,63.51171],[29.30204,63.51195],[29.30163,63.51217],[29.30153,63.51222],[29.30105,63.51245],[29.30032,63.51273],[29.29953,63.51296],[29.29855,63.51318],[29.29753,63.51334],[29.29698,63.51341],[29.29564,63.51359],[29.29365,63.51386],[29.2934,63.51389],[29.29065,63.51426],[29.28831,63.51458],[29.28611,63.51489],[29.28367,63.51521],[29.28281,63.51533],[29.2799,63.51571],[29.27978,63.51573],[29.27638,63.5162],[29.27626,63.51622],[29.27299,63.51666],[29.27238,63.51674],[29.27045,63.517],[29.26749,63.5174],[29.26466,63.51777],[29.26373,63.5179],[29.26229,63.51811],[29.26216,63.51813],[29.25955,63.51847],[29.25708,63.51881],[29.25469,63.51913],[29.25313,63.5194],[29.25169,63.51971],[29.25073,63.51995],[29.2497,63.52026],[29.24879,63.52057],[29.24791,63.52092],[29.24704,63.5213],[29.24645,63.52161],[29.24582,63.52194],[29.24566,63.52202],[29.24454,63.52258],[29.24345,63.52314],[29.24236,63.52369],[29.24125,63.52426],[29.24014,63.52484],[29.23908,63.52537],[29.23792,63.52597],[29.2371,63.52646],[29.23677,63.52673],[29.23643,63.52705],[29.23592,63.52762],[29.23515,63.52846],[29.23453,63.52917],[29.23433,63.52939],[29.23349,63.53032],[29.23296,63.5309],[29.23228,63.53167],[29.23172,63.53231],[29.23142,63.53262],[29.23106,63.53294],[29.23047,63.53334],[29.22974,63.5337],[29.22907,63.53396],[29.22842,63.53417],[29.22758,63.53437],[29.22745,63.53438],[29.22652,63.53455],[29.22529,63.53467],[29.22442,63.53471],[29.22414,63.53471],[29.22378,63.53471],[29.2231,63.53468],[29.22164,63.53455],[29.22144,63.53452],[29.22061,63.53442],[29.21983,63.53434],[29.2191,63.5343],[29.21788,63.53428],[29.21663,63.53432],[29.21519,63.53447],[29.2141,63.53464],[29.21297,63.53489],[29.21115,63.53535],[29.20944,63.53579],[29.20774,63.53622],[29.20669,63.53648],[29.2061,63.53658],[29.20465,63.53677],[29.20368,63.53682],[29.20314,63.53682],[29.20244,63.53681],[29.20059,63.53677],[29.19869,63.53671],[29.19441,63.53659],[29.19256,63.53654],[29.19194,63.53652],[29.1901,63.53647],[29.18861,63.53643],[29.18717,63.53639],[29.18584,63.53636],[29.18475,63.53639],[29.18396,63.53646],[29.18303,63.53659],[29.1829,63.53661],[29.18235,63.53671],[29.18174,63.53686],[29.18174,63.53686],[29.18106,63.53706],[29.18049,63.53726],[29.17994,63.53746],[29.17944,63.53764],[29.1789,63.53783],[29.17834,63.53802],[29.17763,63.53824],[29.17702,63.53842],[29.17632,63.5386],[29.17553,63.53878],[29.17479,63.53892],[29.17402,63.53906],[29.17366,63.53913],[29.17305,63.53922],[29.17181,63.53936],[29.17064,63.53949],[29.16973,63.53958],[29.16866,63.53969],[29.16801,63.53976],[29.16747,63.53982],[29.16733,63.53983],[29.16648,63.53992],[29.16551,63.54002],[29.1645,63.54012],[29.16449,63.54013],[29.1632,63.54026],[29.16215,63.54037],[29.16131,63.54043],[29.16055,63.54045],[29.15953,63.54043],[29.15862,63.54037],[29.15774,63.54027],[29.15681,63.54013],[29.15607,63.54002],[29.15536,63.53991],[29.15459,63.53979],[29.15376,63.53966],[29.15287,63.53953],[29.15284,63.53953],[29.15183,63.53938],[29.15056,63.53925],[29.14956,63.5392],[29.1482,63.53922],[29.14715,63.53928],[29.1461,63.53941],[29.14501,63.53959],[29.14472,63.53964],[29.14314,63.53995],[29.14161,63.54025],[29.14056,63.54045],[29.14046,63.54047],[29.13942,63.54067],[29.1382,63.5409],[29.13676,63.54117],[29.13579,63.54138],[29.13515,63.54155],[29.13445,63.54177],[29.13396,63.54198],[29.13372,63.54206],[29.13344,63.54218],[29.13308,63.54233],[29.13304,63.54235],[29.13284,63.54247],[29.13247,63.54269],[29.13198,63.54299],[29.13155,63.54326],[29.13111,63.54353],[29.13072,63.54379],[29.1302,63.5441],[29.13013,63.54415],[29.12986,63.54431],[29.12965,63.54445],[29.12853,63.54516],[29.12785,63.54558],[29.12682,63.54622],[29.12608,63.54669],[29.12518,63.54726]]},"properties":{"name":"POKA VT16 Joensuu-Nurmes","kind":"project","ptype":"rail","subtype":"Ratahanke","status":"kaynnissa","date":"2022–2025","url":"https://vayla.fi/hankkeet","source":"Väylävirasto"}},{"type":"Feature","geometry":{"type":"Point","coordinates":[29.647,63.40991]},"properties":{"name":"POKA VT16 Joensuu-Nurmes","kind":"project","ptype":"rail","subtype":"Ratahanke","status":"kaynnissa","date":"2022–2025","url":"https://vayla.fi/hankkeet","source":"Väylävirasto"}},{"type":"Feature","geometry":{"type":"LineString","coordinates":[[29.11417,63.55507],[29.10836,63.55516]]},"properties":{"name":"POKA VT16 Joensuu-Nurmes","kind":"project","ptype":"rail","subtype":"Ratahanke","status":"kaynnissa","date":"2022–2025","url":"https://vayla.fi/hankkeet","source":"Väylävirasto"}},{"type":"Feature","geometry":{"type":"Point","coordinates":[29.647,63.40991]},"properties":{"name":"POKA VT17.2 Laurila-Patokangas","kind":"project","ptype":"rail","subtype":"Ratahanke","status":"kaynnissa","date":"2022–2025","url":"https://vayla.fi/hankkeet","source":"Väylävirasto"}},{"type":"Feature","geometry":{"type":"LineString","coordinates":[[29.11417,63.55507],[29.10836,63.55516]]},"properties":{"name":"POKA VT17.2 Laurila-Patokangas","kind":"project","ptype":"rail","subtype":"Ratahanke","status":"kaynnissa","date":"2022–2025","url":"https://vayla.fi/hankkeet","source":"Väylävirasto"}},{"type":"Feature","geometry":{"type":"LineString","coordinates":[[29.77224,62.58943],[29.77437,62.59718],[29.78131,62.60613],[29.77943,62.61612],[29.81241,62.64685],[29.82127,62.66095],[29.82108,62.68368],[29.83193,62.69363],[29.83576,62.72385],[29.85295,62.73086],[29.87085,62.73547],[29.89396,62.73543],[29.90316,62.73308],[29.94492,62.72139],[29.95254,62.72209],[29.98844,62.7367],[29.99798,62.74234],[30.09235,62.76475],[30.10239,62.77492],[30.09978,62.78601],[30.12136,62.80242],[30.13308,62.80584],[30.17779,62.81263],[30.20048,62.82986],[30.20076,62.84544],[30.20976,62.85411],[30.20441,62.87025],[30.21327,62.89927],[30.21914,62.9052],[30.23962,62.91014],[30.24626,62.91864],[30.23182,62.9298],[30.21301,62.94451],[30.17309,62.96641],[30.13129,63.00241],[30.11442,63.04066],[30.12004,63.04854],[30.1141,63.05993],[30.1077,63.067],[30.06601,63.08803],[30.0529,63.10866],[30.03729,63.11938],[30.01284,63.12791],[29.99875,63.14423],[29.99258,63.14934],[30.00845,63.17324],[30.01155,63.18464],[30.01562,63.18694],[30.01581,63.19797],[30.06794,63.233],[30.09884,63.23471],[30.11448,63.24627],[30.11571,63.25772],[30.07297,63.28938],[30.03344,63.30668],[30.00641,63.31969],[29.83193,63.36611],[29.80247,63.36064],[29.73491,63.35978],[29.7075,63.3655],[29.68077,63.39933],[29.66997,63.40775],[29.64214,63.40957]]},"properties":{"name":"POKA VT17.2 Laurila-Patokangas","kind":"project","ptype":"rail","subtype":"Ratahanke","status":"kaynnissa","date":"2022–2025","url":"https://vayla.fi/hankkeet","source":"Väylävirasto"}},{"type":"Feature","geometry":{"type":"LineString","coordinates":[[29.64587,63.4082],[29.62205,63.41167],[29.59193,63.44165],[29.57101,63.44548],[29.53526,63.44569],[29.52304,63.43855],[29.49679,63.43685],[29.37976,63.48211],[29.33518,63.49323],[29.29903,63.51329],[29.22323,63.53525],[29.17698,63.53899],[29.1382,63.53914],[29.11705,63.5546]]},"properties":{"name":"POKA VT17.2 Laurila-Patokangas","kind":"project","ptype":"rail","subtype":"Ratahanke","status":"kaynnissa","date":"2022–2025","url":"https://vayla.fi/hankkeet","source":"Väylävirasto"}},{"type":"Feature","geometry":{"type":"Point","coordinates":[29.647,63.40991]},"properties":{"name":"POKA VT17.1 Tornio-Kolari","kind":"project","ptype":"rail","subtype":"Ratahanke","status":"kaynnissa","date":"2022–2025","url":"https://vayla.fi/hankkeet","source":"Väylävirasto"}},{"type":"Feature","geometry":{"type":"LineString","coordinates":[[29.77224,62.58943],[29.77437,62.59718],[29.78131,62.60613],[29.77943,62.61612],[29.81241,62.64685],[29.82127,62.66095],[29.82108,62.68368],[29.83193,62.69363],[29.83576,62.72385],[29.85295,62.73086],[29.87085,62.73547],[29.89396,62.73543],[29.90316,62.73308],[29.94492,62.72139],[29.95254,62.72209],[29.98844,62.7367],[29.99798,62.74234],[30.09235,62.76475],[30.10239,62.77492],[30.09978,62.78601],[30.12136,62.80242],[30.13308,62.80584],[30.17779,62.81263],[30.20048,62.82986],[30.20076,62.84544],[30.20976,62.85411],[30.20441,62.87025],[30.21327,62.89927],[30.21914,62.9052],[30.23962,62.91014],[30.24626,62.91864],[30.23182,62.9298],[30.21301,62.94451],[30.17309,62.96641],[30.13129,63.00241],[30.11442,63.04066],[30.12004,63.04854],[30.1141,63.05993],[30.1077,63.067],[30.06601,63.08803],[30.0529,63.10866],[30.03729,63.11938],[30.01284,63.12791],[29.99875,63.14423],[29.99258,63.14934],[30.00845,63.17324],[30.01155,63.18464],[30.01562,63.18694],[30.01581,63.19797],[30.06794,63.233],[30.09884,63.23471],[30.11448,63.24627],[30.11571,63.25772],[30.07297,63.28938],[30.03344,63.30668],[30.00641,63.31969],[29.83193,63.36611],[29.80247,63.36064],[29.73491,63.35978],[29.7075,63.3655],[29.68077,63.39933],[29.66997,63.40775],[29.64214,63.40957]]},"properties":{"name":"POKA VT17.1 Tornio-Kolari","kind":"project","ptype":"rail","subtype":"Ratahanke","status":"kaynnissa","date":"2022–2025","url":"https://vayla.fi/hankkeet","source":"Väylävirasto"}},{"type":"Feature","geometry":{"type":"LineString","coordinates":[[29.11417,63.55507],[29.10836,63.55516]]},"properties":{"name":"POKA VT17.1 Tornio-Kolari","kind":"project","ptype":"rail","subtype":"Ratahanke","status":"kaynnissa","date":"2022–2025","url":"https://vayla.fi/hankkeet","source":"Väylävirasto"}},{"type":"Feature","geometry":{"type":"LineString","coordinates":[[29.64587,63.4082],[29.62205,63.41167],[29.59193,63.44165],[29.57101,63.44548],[29.53526,63.44569],[29.52304,63.43855],[29.49679,63.43685],[29.37976,63.48211],[29.33518,63.49323],[29.29903,63.51329],[29.22323,63.53525],[29.17698,63.53899],[29.1382,63.53914],[29.11705,63.5546]]},"properties":{"name":"POKA VT17.1 Tornio-Kolari","kind":"project","ptype":"rail","subtype":"Ratahanke","status":"kaynnissa","date":"2022–2025","url":"https://vayla.fi/hankkeet","source":"Väylävirasto"}}]}