{"type":"FeatureCollection","features":[{"type":"Feature","geometry":{"type":"MultiLineString","coordinates":[[[22.37422,61.91661],[22.37422,61.91661],[22.37454,61.91683],[22.37474,61.91703]],[[22.37474,61.91703],[22.37485,61.91714],[22.37496,61.91728]],[[22.37496,61.91728],[22.37504,61.91741]]]},"properties":{"name":"T-5236 Karjusilta","kind":"project","ptype":"road","subtype":"Tiehanke","status":"kaynnissa","date":"2024–2025","url":"https://vayla.fi/hankkeet","source":"Väylävirasto"}},{"type":"Feature","geometry":{"type":"MultiPoint","coordinates":[[22.05929,60.91799],[22.72802,62.19008],[22.2972,61.24737],[22.66932,60.27337],[22.67046,60.37224],[22.00161,60.59607],[22.46806,60.6736],[22.23702,60.66349],[21.96454,60.67899],[22.01953,60.82716],[21.60558,61.12697],[23.01632,60.9951],[22.03123,61.02229],[21.67434,61.15463],[21.55099,61.13324]]},"properties":{"name":"LOU Putkisiltaurakka 2026-2027, KU","kind":"project","ptype":"road","subtype":"Tiehanke","status":"kaynnissa","date":"2025–2027","url":"https://vayla.fi/hankkeet","source":"Väylävirasto"}}]}