{"type":"FeatureCollection","features":[{"type":"Feature","geometry":{"type":"Point","coordinates":[24.50778,62.02106]},"properties":{"name":"Suomelan tasoristeyksen poisto","kind":"project","ptype":"road","subtype":"Tiehanke","status":"kaynnissa","date":"2026–2026","url":"https://vayla.fi/hankkeet","source":"Väylävirasto"}},{"type":"Feature","geometry":{"type":"Point","coordinates":[24.4814,61.97727]},"properties":{"name":"Suomelan tasoristeyksen poisto","kind":"project","ptype":"road","subtype":"Tiehanke","status":"kaynnissa","date":"2026–2026","url":"https://vayla.fi/hankkeet","source":"Väylävirasto"}},{"type":"Feature","geometry":{"type":"LineString","coordinates":[[24.4808,62.10926],[24.48079,62.10924]]},"properties":{"name":"Mt 14353 putkisillat, Mänttä-Vilppula, KU","kind":"project","ptype":"road","subtype":"Tiehanke","status":"kaynnissa","date":"2026–2026","url":"https://vayla.fi/hankkeet","source":"Väylävirasto"}},{"type":"Feature","geometry":{"type":"LineString","coordinates":[[24.45799,62.1086],[24.45797,62.1086]]},"properties":{"name":"Mt 14353 putkisillat, Mänttä-Vilppula, KU","kind":"project","ptype":"road","subtype":"Tiehanke","status":"kaynnissa","date":"2026–2026","url":"https://vayla.fi/hankkeet","source":"Väylävirasto"}},{"type":"Feature","geometry":{"type":"LineString","coordinates":[[24.43191,61.79481],[24.43194,61.79482]]},"properties":{"name":"Putkisiltakohteet, PIR ELY Putkisilta- ja rumpu-urakka 2025, ST","kind":"project","ptype":"road","subtype":"Tiehanke","status":"kaynnissa","date":"2025–2025","url":"https://vayla.fi/hankkeet","source":"Väylävirasto"}},{"type":"Feature","geometry":{"type":"LineString","coordinates":[[23.68476,62.39272],[23.68478,62.39273]]},"properties":{"name":"Putkisiltakohteet, PIR ELY Putkisilta- ja rumpu-urakka 2025, ST","kind":"project","ptype":"road","subtype":"Tiehanke","status":"kaynnissa","date":"2025–2025","url":"https://vayla.fi/hankkeet","source":"Väylävirasto"}},{"type":"Feature","geometry":{"type":"Point","coordinates":[24.50778,62.02106]},"properties":{"name":"Suomelan tasoristeyksen poisto","kind":"project","ptype":"rail","subtype":"Ratahanke","status":"kaynnissa","date":"2026–2026","url":"https://vayla.fi/hankkeet","source":"Väylävirasto"}},{"type":"Feature","geometry":{"type":"Point","coordinates":[24.4814,61.97727]},"properties":{"name":"Suomelan tasoristeyksen poisto","kind":"project","ptype":"rail","subtype":"Ratahanke","status":"kaynnissa","date":"2026–2026","url":"https://vayla.fi/hankkeet","source":"Väylävirasto"}}]}