{"type":"FeatureCollection","features":[{"type":"Feature","geometry":{"type":"LineString","coordinates":[[22.44417,63.39792],[22.44417,63.39793]]},"properties":{"name":"EPO teiden korjausurakka 2026, KU","kind":"project","ptype":"road","subtype":"Tiehanke","status":"kaynnissa","date":"2026–2026","url":"https://vayla.fi/hankkeet","source":"Väylävirasto"}},{"type":"Feature","geometry":{"type":"MultiLineString","coordinates":[[[22.95072,63.63175],[22.95071,63.63174],[22.95053,63.63158],[22.95051,63.63157],[22.9505,63.63155],[22.95021,63.63128],[22.9502,63.63127],[22.94998,63.63104],[22.94983,63.63091],[22.94982,63.6309],[22.94969,63.6308],[22.94942,63.63063],[22.94941,63.63062],[22.9493,63.63055],[22.949,63.63038],[22.94898,63.63037],[22.94895,63.63035],[22.94879,63.63027],[22.94864,63.63021],[22.94849,63.63015],[22.94848,63.63015],[22.94839,63.63011],[22.94822,63.63006],[22.94801,63.63001],[22.94799,63.63],[22.94731,63.62983],[22.9473,63.62983],[22.94726,63.62982],[22.9471,63.62977],[22.94671,63.62964]],[[22.94671,63.62964],[22.94665,63.62962],[22.94662,63.62961],[22.94616,63.62946]],[[22.94616,63.62946],[22.94584,63.62935],[22.94582,63.62934],[22.94509,63.62909],[22.94508,63.62909],[22.94455,63.6289]],[[22.94455,63.6289],[22.94454,63.62889],[22.94434,63.62883],[22.944,63.62873],[22.94398,63.62873],[22.94378,63.62867],[22.94368,63.62864],[22.94366,63.62863],[22.9436,63.62861],[22.94319,63.62843],[22.94317,63.62843],[22.94311,63.6284],[22.94301,63.62837],[22.94272,63.62829]],[[22.94272,63.62829],[22.94271,63.62828],[22.94269,63.62828],[22.94222,63.62814],[22.94221,63.62813],[22.94159,63.62793],[22.94158,63.62793],[22.94073,63.62762],[22.94009,63.62741],[22.94008,63.6274]],[[22.94008,63.6274],[22.93989,63.62733]],[[22.93989,63.62733],[22.93987,63.62732],[22.93959,63.62722],[22.93958,63.62721],[22.93914,63.62706],[22.93911,63.62705],[22.93889,63.62697],[22.93863,63.62689],[22.93862,63.62689],[22.93859,63.62688],[22.93842,63.62683],[22.93827,63.62679],[22.93813,63.62676],[22.93811,63.62676],[22.938,63.62674],[22.93781,63.62671],[22.93754,63.62668],[22.93753,63.62667],[22.93729,63.62665],[22.93705,63.62663],[22.93685,63.62662],[22.93682,63.62662]],[[22.93682,63.62662],[22.93679,63.62662],[22.93643,63.62662],[22.93627,63.62663],[22.93626,63.62663],[22.93578,63.62665],[22.93574,63.62665],[22.93566,63.62665],[22.93546,63.62665],[22.93543,63.62665],[22.93507,63.62663],[22.93506,63.62663],[22.93486,63.62662]],[[22.93486,63.62662],[22.93482,63.62662],[22.9347,63.62661],[22.93463,63.6266],[22.93459,63.62659],[22.93444,63.62657]],[[22.93444,63.62657],[22.93441,63.62656],[22.93418,63.62653],[22.93416,63.62652],[22.93382,63.62646],[22.9336,63.62643],[22.93357,63.62643],[22.93338,63.6264],[22.93306,63.62638],[22.93304,63.62638],[22.93268,63.62635]],[[22.93268,63.62635],[22.93244,63.62634],[22.93243,63.62634],[22.93194,63.62632],[22.93174,63.62631]],[[22.93174,63.62631],[22.93173,63.62631],[22.93145,63.6263],[22.93142,63.6263],[22.93102,63.62628],[22.931,63.62628],[22.93076,63.62626],[22.9306,63.62625],[22.93048,63.62625],[22.93045,63.62625],[22.93041,63.62625],[22.93029,63.62625],[22.93017,63.62626],[22.93014,63.62626],[22.92991,63.62628],[22.92962,63.6263]],[[22.92962,63.6263],[22.92961,63.6263],[22.92941,63.62631],[22.92938,63.62631],[22.92914,63.62631],[22.92893,63.62631]],[[22.92893,63.62631],[22.92892,63.62631],[22.92855,63.62632],[22.92854,63.62632],[22.92818,63.62633]],[[22.92818,63.62633],[22.92817,63.62633],[22.92793,63.62633],[22.92788,63.62633],[22.92768,63.62634],[22.92767,63.62635],[22.92736,63.62637],[22.92732,63.62637],[22.92697,63.6264]],[[22.92697,63.6264],[22.92639,63.62645],[22.92636,63.62645],[22.92581,63.6265],[22.92579,63.62651],[22.92559,63.62653],[22.92535,63.62655],[22.92533,63.62655],[22.92501,63.62657],[22.92498,63.62657],[22.92478,63.62658]],[[22.92478,63.62658],[22.92475,63.62658],[22.92467,63.62658],[22.92463,63.62658],[22.92451,63.62659],[22.92439,63.6266],[22.92424,63.62661],[22.92393,63.62665],[22.92391,63.62665],[22.92383,63.62666],[22.92382,63.62667],[22.92321,63.62675],[22.92317,63.62675],[22.92309,63.62676],[22.9227,63.6268]],[[22.9227,63.6268],[22.92266,63.6268],[22.92234,63.62683],[22.92232,63.62683],[22.92212,63.62685],[22.92176,63.62687],[22.92174,63.62687],[22.92154,63.62688],[22.92122,63.62688],[22.92119,63.62688],[22.92103,63.62688],[22.92079,63.62687],[22.92063,63.62686],[22.92047,63.62685],[22.92044,63.62684],[22.92036,63.62683],[22.92005,63.62679]],[[22.92005,63.62679],[22.92002,63.62679],[22.91972,63.62673],[22.91969,63.62673],[22.91965,63.62672],[22.9194,63.62666],[22.91936,63.62665],[22.91933,63.62664],[22.91902,63.62656]],[[22.91902,63.62656],[22.91882,63.62651]],[[22.91882,63.62651],[22.9188,63.6265],[22.91863,63.62646],[22.91862,63.62646],[22.91799,63.6263],[22.91797,63.62629],[22.91776,63.62624],[22.91744,63.62616],[22.9174,63.62616],[22.91707,63.62609]],[[22.91707,63.62609],[22.91665,63.62602]],[[22.91665,63.62602],[22.91651,63.626],[22.91648,63.626],[22.91645,63.62599],[22.9159,63.62593],[22.91587,63.62592],[22.9154,63.62587],[22.91509,63.62583]],[[22.91509,63.62583],[22.91471,63.62578]],[[22.91471,63.62578],[22.91467,63.62577],[22.91417,63.6257],[22.91414,63.62569],[22.91369,63.62562]],[[22.91369,63.62562],[22.91368,63.62562],[22.91333,63.62557],[22.91331,63.62556],[22.91304,63.62553],[22.91302,63.62553],[22.91275,63.6255]],[[22.91275,63.6255],[22.91274,63.6255],[22.91234,63.62548],[22.9123,63.62548],[22.9121,63.62548],[22.91166,63.62549]],[[22.91166,63.62549],[22.91154,63.62549],[22.9115,63.62549],[22.91086,63.62552],[22.91041,63.62554]],[[22.91041,63.62554],[22.91038,63.62554],[22.91022,63.62555],[22.91019,63.62555]],[[22.91019,63.62555],[22.91015,63.62555],[22.90959,63.62557],[22.90957,63.62557],[22.90929,63.62558]],[[22.90929,63.62558],[22.90894,63.62558]],[[22.90894,63.62558],[22.90881,63.62558],[22.9088,63.62558],[22.90836,63.62558]],[[22.90836,63.62558],[22.90811,63.62558],[22.90808,63.62558],[22.90788,63.62559]],[[22.90788,63.62559],[22.90787,63.62559],[22.90747,63.62558],[22.90735,63.62558],[22.90734,63.62558]],[[22.90734,63.62558],[22.90732,63.62558],[22.90721,63.62557],[22.90697,63.62554],[22.90695,63.62554],[22.90691,63.62554],[22.90653,63.62549],[22.90651,63.62548],[22.90602,63.6254],[22.90599,63.6254],[22.90538,63.62531]],[[22.90538,63.62531],[22.90537,63.6253],[22.90506,63.62526],[22.90503,63.62525],[22.9042,63.62512],[22.90418,63.62511],[22.9037,63.62503]],[[22.9037,63.62503],[22.90369,63.62503],[22.90343,63.62498],[22.90335,63.62496],[22.90289,63.62486]],[[22.90289,63.62486],[22.90287,63.62485],[22.90263,63.62478],[22.90263,63.62478],[22.90231,63.6247],[22.90211,63.62464]],[[22.90211,63.62464],[22.9021,63.62464],[22.9018,63.62459],[22.90179,63.62458],[22.90168,63.62457],[22.90145,63.62453],[22.90143,63.62453],[22.90073,63.62444],[22.9007,63.62444],[22.90009,63.62434],[22.90006,63.62434],[22.89987,63.62431]],[[22.89987,63.62431],[22.89986,63.62431],[22.89959,63.62427],[22.89958,63.62427],[22.89939,63.62424]],[[22.89939,63.62424],[22.89938,63.62424],[22.89914,63.62422],[22.89906,63.62422],[22.89903,63.62422],[22.89895,63.62421],[22.89887,63.62422],[22.89871,63.62422],[22.89869,63.62422],[22.89861,63.62423],[22.89841,63.62424],[22.89829,63.62425],[22.89817,63.62426],[22.89814,63.62427],[22.89803,63.62429],[22.89781,63.62433]],[[22.89781,63.62433],[22.89779,63.62433],[22.89753,63.62438],[22.8975,63.62439],[22.89713,63.62445],[22.8969,63.62449],[22.8964,63.62461],[22.89639,63.62461]],[[22.89639,63.62461],[22.89636,63.62462],[22.89629,63.62463],[22.89602,63.62468],[22.896,63.62468],[22.89596,63.62469],[22.89594,63.62469],[22.89587,63.62471],[22.89583,63.62471],[22.89554,63.62477],[22.89551,63.62478],[22.8951,63.62485],[22.89509,63.62486],[22.89498,63.62488],[22.89462,63.62496],[22.89461,63.62497],[22.89446,63.62501]],[[22.89446,63.62501],[22.89437,63.62503],[22.89435,63.62503],[22.89431,63.62504]],[[22.89431,63.62504],[22.89428,63.62505],[22.89379,63.62517],[22.89376,63.62517],[22.89311,63.62535],[22.89305,63.62537],[22.89302,63.62538],[22.89227,63.62559],[22.89193,63.62567]],[[22.89193,63.62567],[22.89177,63.62571]],[[22.89177,63.62571],[22.89175,63.62572],[22.89158,63.62576],[22.89155,63.62577],[22.89085,63.62594],[22.89083,63.62594],[22.89062,63.62599],[22.89028,63.62606],[22.89027,63.62606],[22.89012,63.62608],[22.88977,63.62613],[22.88942,63.62617],[22.88939,63.62618],[22.88891,63.62622]],[[22.88891,63.62622],[22.88889,63.62622],[22.88881,63.62622],[22.88878,63.62622],[22.88854,63.62624],[22.8881,63.62625],[22.88765,63.62625],[22.88763,63.62625],[22.88711,63.62624],[22.88702,63.62624]],[[22.88702,63.62624],[22.88699,63.62624],[22.88691,63.62623],[22.8869,63.62623],[22.8867,63.62622],[22.88667,63.62621],[22.88659,63.62621],[22.88646,63.62619]],[[22.88646,63.62619],[22.88636,63.62618],[22.88633,63.62618],[22.88614,63.62615],[22.88599,63.62613],[22.88588,63.62611],[22.88577,63.62608],[22.88566,63.62605]],[[22.88566,63.62605],[22.88565,63.62605],[22.88524,63.62591],[22.88522,63.6259],[22.88504,63.62583],[22.8847,63.62567],[22.88467,63.62566],[22.88446,63.62555],[22.8843,63.62547],[22.88429,63.62547],[22.88426,63.62545]],[[22.88426,63.62545],[22.88425,63.62544],[22.88413,63.62536],[22.88407,63.62532],[22.88407,63.62531],[22.88401,63.62527],[22.88396,63.62522],[22.88383,63.62507],[22.88382,63.62506],[22.88381,63.62505],[22.88369,63.62493],[22.88363,63.62488],[22.88357,63.62484],[22.88355,63.62482],[22.88351,63.62479],[22.88344,63.62475],[22.88334,63.6247],[22.88332,63.62469],[22.88324,63.62465]],[[22.88324,63.62465],[22.88322,63.62464],[22.88289,63.62448],[22.88288,63.62448],[22.8824,63.62426],[22.88238,63.62426],[22.88208,63.62412],[22.88205,63.6241],[22.8818,63.62399],[22.88178,63.62398],[22.88172,63.62395]],[[22.88172,63.62395],[22.88151,63.62386],[22.88132,63.62376],[22.88131,63.62376],[22.88127,63.62374]],[[22.88127,63.62374],[22.88116,63.62369]],[[22.88116,63.62369],[22.88114,63.62368],[22.88101,63.62364]],[[22.88101,63.62364],[22.88099,63.62363],[22.88092,63.62361],[22.8809,63.6236],[22.88083,63.62358],[22.88076,63.62357],[22.88069,63.62355],[22.88065,63.62355],[22.88061,63.62354],[22.88057,63.62354],[22.88055,63.62353]],[[22.88055,63.62353],[22.88053,63.62353],[22.88049,63.62353],[22.88047,63.62353],[22.88043,63.62352],[22.88035,63.62352],[22.88019,63.62351],[22.88002,63.62351],[22.87986,63.6235],[22.87985,63.6235],[22.87973,63.62351]],[[22.87973,63.62351],[22.8797,63.62351],[22.87946,63.6235],[22.87944,63.6235],[22.8792,63.62349]],[[22.8792,63.62349],[22.87919,63.62349],[22.87875,63.62351],[22.87872,63.62351],[22.87844,63.62352],[22.87836,63.62353],[22.87833,63.62353],[22.87829,63.62353],[22.87813,63.62355]],[[22.87813,63.62355],[22.8781,63.62356],[22.87795,63.62358],[22.87784,63.6236],[22.87783,63.6236],[22.87775,63.62362],[22.87747,63.62368],[22.87744,63.62369],[22.8774,63.62369],[22.87685,63.6238],[22.87684,63.62381],[22.87629,63.62391],[22.87627,63.62391],[22.87574,63.624],[22.87571,63.624],[22.87503,63.62411],[22.87442,63.62421],[22.87417,63.62426],[22.87406,63.62429],[22.87389,63.62433],[22.87375,63.62437],[22.87362,63.62442],[22.87359,63.62443],[22.8735,63.62446],[22.87341,63.6245],[22.87336,63.62452],[22.87335,63.62453],[22.8733,63.62455],[22.87317,63.62462]],[[22.87317,63.62462],[22.87316,63.62464],[22.87307,63.62472],[22.87304,63.62475],[22.87301,63.62479],[22.87299,63.62482],[22.87297,63.62486],[22.87296,63.62489],[22.87292,63.62504],[22.87292,63.62504],[22.87285,63.62532],[22.87285,63.62533],[22.87281,63.62556],[22.87277,63.62576],[22.87272,63.62602]],[[22.87272,63.62602],[22.87272,63.62605],[22.87272,63.62605],[22.87273,63.62616],[22.87276,63.6263],[22.87277,63.6263],[22.8728,63.62641]],[[22.8728,63.62641],[22.87288,63.62666],[22.87288,63.62668],[22.87299,63.62703],[22.87299,63.62705],[22.87303,63.62726],[22.87307,63.62749],[22.87312,63.62783],[22.87313,63.62785],[22.87318,63.62808],[22.87318,63.62812],[22.87318,63.62826]],[[22.87318,63.62826],[22.87318,63.62827],[22.87311,63.62843],[22.87308,63.62848],[22.87307,63.6285],[22.87301,63.62857],[22.87277,63.62884],[22.87277,63.62884],[22.87273,63.62889],[22.87259,63.6291],[22.87255,63.62915]],[[22.87255,63.62915],[22.87253,63.62922],[22.87251,63.62927]]]},"properties":{"name":"Mt 17937 parantaminen Kolpin keskustan kohdalla, Ku","kind":"project","ptype":"road","subtype":"Tiehanke","status":"kaynnissa","date":"2026–2026","url":"https://vayla.fi/hankkeet","source":"Väylävirasto"}},{"type":"Feature","geometry":{"type":"MultiPoint","coordinates":[[22.83889,63.62598]]},"properties":{"name":"EPOELY Joksholman silta V-1140, KU","kind":"project","ptype":"road","subtype":"Tiehanke","status":"kaynnissa","date":"2025–2026","url":"https://vayla.fi/hankkeet","source":"Väylävirasto"}},{"type":"Feature","geometry":{"type":"LineString","coordinates":[[22.81409,63.29638],[22.81139,63.31492],[22.64335,63.41948],[22.68539,63.5191],[22.77692,63.58897],[22.82577,63.6073],[22.88429,63.61982],[23.02415,63.71255],[23.04697,63.73093],[23.10496,63.82779],[23.14039,63.83393]]},"properties":{"name":"POKA VT14 Lapua -Kokkola","kind":"project","ptype":"rail","subtype":"Ratahanke","status":"kaynnissa","date":"2022–2024","url":"https://vayla.fi/hankkeet","source":"Väylävirasto"}}]}