{"type":"FeatureCollection","features":[{"type":"Feature","geometry":{"type":"MultiLineString","coordinates":[[[24.00919,60.05707],[24.00914,60.05706],[24.00913,60.05705],[24.00819,60.05679],[24.00792,60.05671],[24.0079,60.0567]],[[24.0079,60.0567],[24.00762,60.05662],[24.0076,60.05662],[24.00703,60.05646],[24.00648,60.05629],[24.00647,60.05629],[24.00582,60.0561],[24.00579,60.05609],[24.00504,60.05588],[24.00501,60.05588],[24.0047,60.05579],[24.00467,60.05578],[24.00394,60.05559],[24.00393,60.05559],[24.0031,60.05538],[24.00308,60.05538]],[[24.00308,60.05538],[24.00286,60.05532],[24.00269,60.05527]],[[24.00269,60.05527],[24.00223,60.05516],[24.00223,60.05516],[24.00139,60.05496],[24.00136,60.05496],[24.00054,60.05477],[24.00052,60.05476],[23.99973,60.05459],[23.99971,60.05458],[23.99911,60.05446],[23.99909,60.05445],[23.99831,60.0543],[23.99793,60.05423]]]},"properties":{"name":"Kt 51 Bollstantien liittymän parantaminen Inkoo, KU","kind":"project","ptype":"road","subtype":"Tiehanke","status":"kaynnissa","date":"2025–2026","url":"https://vayla.fi/hankkeet","source":"Väylävirasto"}},{"type":"Feature","geometry":{"type":"MultiLineString","coordinates":[[[23.76536,60.09706],[23.76549,60.09712],[23.76551,60.09713],[23.76614,60.09743],[23.76617,60.09744],[23.76687,60.09777],[23.76688,60.09778],[23.76749,60.09809],[23.76799,60.09834],[23.768,60.09835],[23.76851,60.09863],[23.76852,60.09863],[23.76896,60.09887],[23.76954,60.09919],[23.76955,60.0992],[23.77025,60.09961],[23.77027,60.09962],[23.77081,60.09995],[23.77082,60.09996],[23.77146,60.10035],[23.77147,60.10035],[23.77197,60.10068],[23.77199,60.10069],[23.77229,60.1009],[23.7723,60.10091],[23.77264,60.10114],[23.77266,60.10115],[23.77307,60.10143],[23.77309,60.10144],[23.77345,60.10168],[23.77372,60.10186]],[[23.77372,60.10186],[23.77427,60.10219],[23.77428,60.1022],[23.77494,60.10258],[23.77496,60.10259],[23.77566,60.10295],[23.77568,60.10296],[23.77655,60.10336],[23.77657,60.10337],[23.77701,60.10356],[23.77703,60.10357]],[[23.77703,60.10357],[23.77735,60.10369],[23.77772,60.10383],[23.77773,60.10383],[23.77819,60.10401],[23.77821,60.10401],[23.77882,60.10423],[23.77882,60.10424],[23.77942,60.10446],[23.77944,60.10447],[23.77975,60.10459],[23.77978,60.1046],[23.78002,60.10471],[23.78003,60.10471]],[[23.78003,60.10471],[23.78013,60.10475],[23.78015,60.10477],[23.7806,60.10497],[23.78062,60.10499],[23.78118,60.10524],[23.78119,60.10524],[23.7812,60.10525],[23.78154,60.1054],[23.78155,60.10541],[23.782,60.10562],[23.782,60.10562],[23.78345,60.10629],[23.78346,60.1063],[23.78396,60.10653],[23.78398,60.10654],[23.78464,60.10684],[23.78465,60.10685],[23.7851,60.10706],[23.78566,60.10731],[23.78568,60.10732],[23.78628,60.10761],[23.7863,60.10762],[23.78692,60.10789],[23.78693,60.1079]],[[23.78693,60.1079],[23.78745,60.10815],[23.78746,60.10815],[23.78815,60.10847],[23.78817,60.10848],[23.78841,60.10859],[23.78842,60.10859],[23.78862,60.1087],[23.78864,60.1087],[23.78877,60.10877],[23.7888,60.10878]],[[23.7888,60.10878],[23.78885,60.1088],[23.78887,60.10881],[23.78908,60.10891],[23.78909,60.10891],[23.78953,60.10912],[23.78954,60.10913]],[[23.78954,60.10913],[23.78976,60.10922],[23.78977,60.10923],[23.79004,60.10935],[23.79005,60.10935],[23.79063,60.10962],[23.79065,60.10963],[23.79117,60.10987],[23.7912,60.10988],[23.79167,60.1101],[23.79168,60.11011],[23.79219,60.11034],[23.79221,60.11035],[23.79283,60.11064],[23.79323,60.11082],[23.79324,60.11083]],[[23.79324,60.11083],[23.7933,60.11085],[23.79336,60.11088],[23.794,60.11117],[23.79401,60.11117],[23.79458,60.11145],[23.79459,60.11145],[23.79515,60.1117],[23.79518,60.11171],[23.79567,60.11192],[23.79567,60.11192],[23.79615,60.11212]],[[23.79615,60.11212],[23.79651,60.11227],[23.79654,60.11228],[23.79685,60.1124],[23.79722,60.11255],[23.79723,60.11255],[23.7978,60.11277],[23.79782,60.11278],[23.7984,60.11302],[23.79842,60.11302],[23.7989,60.11324],[23.79891,60.11324],[23.79912,60.11334],[23.79915,60.11336],[23.7993,60.11344],[23.79931,60.11344]],[[23.79931,60.11344],[23.79946,60.11354],[23.79948,60.11355],[23.79963,60.11365],[23.79969,60.1137],[23.7997,60.1137],[23.79988,60.11385],[23.79989,60.11386],[23.80012,60.11406],[23.80013,60.11408],[23.80037,60.11432],[23.80037,60.11432],[23.80054,60.11448],[23.80055,60.11448],[23.80069,60.11461],[23.8007,60.11462]],[[23.8007,60.11462],[23.80096,60.11488]],[[23.80096,60.11488],[23.80098,60.1149],[23.8013,60.1152],[23.8013,60.1152],[23.80159,60.11547],[23.80159,60.11548],[23.80197,60.11585],[23.80198,60.11585],[23.80237,60.11621],[23.80255,60.11637],[23.80257,60.11638],[23.80259,60.1164],[23.80271,60.11649],[23.80272,60.11649],[23.80296,60.11665],[23.80318,60.11679],[23.80319,60.1168],[23.80352,60.11699],[23.80352,60.11699],[23.80381,60.11715],[23.80383,60.11716],[23.8041,60.11733],[23.80411,60.11734],[23.8043,60.11747],[23.80431,60.11748],[23.80453,60.11764],[23.80454,60.11765],[23.80464,60.11773],[23.80465,60.11774]],[[23.80465,60.11774],[23.80488,60.11792],[23.80507,60.11808],[23.80507,60.11808],[23.80524,60.11822],[23.80525,60.11823],[23.8054,60.11833],[23.80553,60.11841],[23.80554,60.11842],[23.80584,60.1186],[23.80585,60.11861],[23.80612,60.11875],[23.80638,60.1189],[23.80639,60.1189],[23.80659,60.11901],[23.80659,60.11901],[23.80677,60.1191],[23.8068,60.11911]],[[23.8068,60.11911],[23.80723,60.11932],[23.80772,60.11957],[23.80815,60.11981],[23.80819,60.11984],[23.80821,60.11985],[23.8086,60.1201],[23.80861,60.12011],[23.80894,60.12034],[23.80896,60.12036],[23.80923,60.12057],[23.80956,60.12085],[23.80956,60.12085],[23.8099,60.12115],[23.80992,60.12116],[23.81032,60.1215],[23.81033,60.12151],[23.81075,60.12185],[23.81114,60.12213],[23.81115,60.12214],[23.81155,60.12241],[23.81156,60.12242],[23.81177,60.12256],[23.81178,60.12257],[23.81198,60.1227],[23.81199,60.1227]],[[23.81199,60.1227],[23.8124,60.12299],[23.81292,60.12333],[23.81294,60.12334],[23.81321,60.12351],[23.81323,60.12352],[23.81357,60.12373],[23.81358,60.12374],[23.81391,60.12393],[23.81391,60.12393]],[[23.81391,60.12393],[23.81412,60.12406],[23.81414,60.12407],[23.81445,60.12424],[23.81446,60.12425],[23.81473,60.12441],[23.81474,60.12442],[23.8149,60.12451],[23.81492,60.12452]],[[23.81492,60.12452],[23.81521,60.12468],[23.81522,60.12469],[23.81566,60.1249],[23.81566,60.12491],[23.81587,60.12501],[23.81589,60.12501],[23.81628,60.1252],[23.8163,60.12521],[23.81688,60.12548],[23.8169,60.12549],[23.81705,60.12556]],[[23.81705,60.12556],[23.81749,60.12576],[23.8175,60.12577],[23.81801,60.126],[23.81802,60.126],[23.81856,60.12624],[23.81857,60.12625],[23.81906,60.12646],[23.81908,60.12647],[23.81955,60.12666],[23.81956,60.12666],[23.82008,60.12686],[23.82014,60.12688],[23.82015,60.12689],[23.82073,60.12707],[23.82074,60.12708],[23.82136,60.12726],[23.82138,60.12727],[23.82202,60.12743],[23.82205,60.12744],[23.8226,60.12757],[23.82263,60.12758],[23.82323,60.1277],[23.82394,60.12783],[23.82397,60.12783],[23.82466,60.12793],[23.82468,60.12794],[23.82538,60.12802],[23.82541,60.12802],[23.82615,60.12809],[23.82617,60.12809],[23.82699,60.12816],[23.82702,60.12816],[23.82783,60.12822],[23.82785,60.12822],[23.82873,60.12829],[23.82874,60.12829],[23.82959,60.12837],[23.82962,60.12837],[23.83068,60.12848],[23.83149,60.12858],[23.83151,60.12858],[23.83169,60.1286],[23.83169,60.1286],[23.83249,60.12871],[23.83252,60.12871],[23.83335,60.12882],[23.83336,60.12882],[23.83371,60.12888],[23.83373,60.12888],[23.83414,60.12895],[23.83416,60.12895]],[[23.83416,60.12895],[23.83417,60.12895],[23.83427,60.12897],[23.83429,60.12897],[23.83439,60.12899]],[[23.83439,60.12899],[23.8349,60.12908],[23.83547,60.12919],[23.8355,60.1292],[23.83614,60.12932],[23.83615,60.12932],[23.83709,60.12951],[23.83711,60.12951],[23.83829,60.12978],[23.83832,60.12978],[23.83949,60.13007],[23.84049,60.1303],[23.8405,60.13031],[23.84144,60.13053],[23.84146,60.13053],[23.84242,60.13077],[23.84243,60.13078],[23.84324,60.13097],[23.84325,60.13097],[23.84397,60.13114],[23.84398,60.13115],[23.84474,60.13131],[23.84534,60.13144],[23.84536,60.13144],[23.84596,60.13157],[23.84597,60.13157],[23.84661,60.1317],[23.84663,60.1317],[23.84727,60.13182],[23.84729,60.13182],[23.848,60.13195],[23.84801,60.13195],[23.84871,60.13205],[23.84937,60.13214],[23.8494,60.13214],[23.85016,60.13224],[23.85017,60.13224],[23.85094,60.13234],[23.85096,60.13234],[23.85159,60.13241],[23.8516,60.13241]],[[23.8516,60.13241],[23.85167,60.13242]],[[23.85167,60.13242],[23.85211,60.13247],[23.85266,60.13253]],[[23.85266,60.13253],[23.85319,60.13259],[23.85326,60.1326],[23.85375,60.13266],[23.85378,60.13266],[23.85434,60.13273],[23.85435,60.13273],[23.85494,60.1328],[23.85495,60.1328],[23.85562,60.13288],[23.85563,60.13288],[23.85601,60.13292],[23.85602,60.13292]],[[23.85602,60.13292],[23.85666,60.13299],[23.85668,60.13299],[23.85714,60.13304],[23.85715,60.13304],[23.85778,60.13311],[23.85816,60.13316],[23.85817,60.13316],[23.85866,60.13323],[23.85869,60.13323],[23.859,60.13327],[23.85901,60.13327]],[[23.85901,60.13327],[23.85936,60.13331],[23.85937,60.13331],[23.85979,60.13336],[23.85981,60.13336],[23.86027,60.13341],[23.86029,60.13341],[23.8612,60.13351],[23.86121,60.13351],[23.86177,60.13357],[23.86179,60.13357],[23.86235,60.13363],[23.86237,60.13364],[23.86293,60.1337],[23.86346,60.13376],[23.86347,60.13376],[23.86424,60.13385],[23.86426,60.13385],[23.86503,60.13394],[23.86505,60.13394],[23.866,60.13405],[23.86602,60.13405],[23.86687,60.13414],[23.86689,60.13415],[23.86759,60.13424],[23.86761,60.13424],[23.8683,60.13434],[23.86833,60.13434],[23.86899,60.13443],[23.86899,60.13444],[23.86937,60.13449],[23.8694,60.1345]],[[23.8694,60.1345],[23.86983,60.13457],[23.87044,60.13468],[23.87048,60.13468],[23.87102,60.13477],[23.87103,60.13477],[23.87157,60.13488],[23.87158,60.13488],[23.87224,60.13502],[23.87225,60.13502],[23.87295,60.13517],[23.87357,60.13531],[23.87358,60.13531],[23.87417,60.13544],[23.87419,60.13544],[23.87438,60.13549]]]},"properties":{"name":"Vt 25 Meltola—Mustio","kind":"project","ptype":"road","subtype":"Tiehanke","status":"kaynnissa","date":"2026–2029","url":"https://vayla.fi/hankkeet","source":"Väylävirasto"}},{"type":"Feature","geometry":{"type":"LineString","coordinates":[[23.8955,60.06506],[23.8813,60.06731],[23.87261,60.06774],[23.85073,60.06788]]},"properties":{"name":"Inkoo-Karjaa stabiliteetin parantaminen, rakentaminen","kind":"project","ptype":"rail","subtype":"Ratahanke","status":"kaynnissa","date":"2025–2028","url":"https://vayla.fi/hankkeet","source":"Väylävirasto"}},{"type":"Feature","geometry":{"type":"LineString","coordinates":[[24.82588,60.21877],[24.81345,60.21953],[24.79581,60.2193],[24.78173,60.21772],[24.77145,60.21717],[24.75896,60.21708],[24.75019,60.2152],[24.74336,60.21329],[24.72889,60.21189],[24.72086,60.21053],[24.71343,60.20803],[24.70902,60.20667],[24.70605,60.20662],[24.69521,60.2074],[24.68909,60.20646],[24.68448,60.20606],[24.68074,60.206],[24.67341,60.2076],[24.67146,60.20782],[24.65254,60.20447],[24.63007,60.20055],[24.61929,60.19653],[24.59025,60.1859],[24.58018,60.18495],[24.57043,60.1837],[24.55411,60.1759],[24.54343,60.16668],[24.53666,60.15461],[24.51892,60.14142],[24.51065,60.13713],[24.50349,60.1344],[24.49395,60.1307],[24.48593,60.1232],[24.47643,60.11919],[24.46254,60.11632],[24.45482,60.11694],[24.43774,60.11967],[24.41533,60.11985],[24.39496,60.11761],[24.37108,60.10933],[24.36049,60.10759],[24.34978,60.10722],[24.34121,60.10705],[24.32992,60.11019],[24.31759,60.11851],[24.30865,60.12277],[24.27506,60.13571],[24.26163,60.13849],[24.23097,60.14168],[24.20327,60.13896],[24.16686,60.13405],[24.12351,60.12087],[24.11459,60.11409],[24.07329,60.10246],[24.06111,60.10158],[24.03928,60.0988],[24.03061,60.09631],[24.00688,60.08077],[23.97605,60.0695],[23.96167,60.06596],[23.94767,60.06165],[23.94193,60.06076],[23.93079,60.06203],[23.92424,60.06326],[23.91021,60.06262],[23.88133,60.06684],[23.8604,60.06788],[23.82908,60.06866],[23.80103,60.07044],[23.78446,60.07386],[23.76448,60.08072],[23.75678,60.08115],[23.74913,60.08096],[23.72944,60.07864],[23.70593,60.07775],[23.7,60.07576],[23.69019,60.0697],[23.68411,60.06924],[23.66921,60.07116],[23.64765,60.06326],[23.63362,60.0626],[23.61927,60.06514],[23.58786,60.07858],[23.54227,60.10419],[23.49969,60.11226],[23.4874,60.1153],[23.4656,60.11549],[23.41661,60.12581],[23.39055,60.1395],[23.31616,60.15383],[23.27023,60.1769],[23.2592,60.18731],[23.20346,60.21191],[23.19069,60.21583],[23.18662,60.21909],[23.18356,60.2216],[23.18295,60.22679],[23.15897,60.25015],[23.12175,60.27817],[23.11591,60.28581],[23.11403,60.29387],[23.10718,60.3073],[23.10595,60.31508],[23.09652,60.32675],[23.09688,60.33151],[23.1047,60.33848],[23.11555,60.34599],[23.1203,60.37355],[23.12455,60.37949],[23.12522,60.38166],[23.12172,60.38508],[23.11125,60.38983],[23.09626,60.39352],[23.07931,60.39547],[23.05978,60.3957],[23.04488,60.39862],[23.03718,60.40084],[23.02735,60.4027],[23.0218,60.40253],[23.01193,60.40223],[22.92033,60.41661],[22.88571,60.41356],[22.87724,60.41437],[22.80274,60.42521],[22.78894,60.42646],[22.77435,60.42906],[22.76621,60.43202],[22.76007,60.43397],[22.7315,60.43673],[22.72663,60.43841],[22.71217,60.44929],[22.69714,60.45738],[22.69196,60.45905],[22.68543,60.45915],[22.67299,60.45936],[22.63846,60.46237],[22.63321,60.46219],[22.62866,60.46143]]},"properties":{"name":"Helsinki-Turku, peruskorjaus","kind":"project","ptype":"rail","subtype":"Ratahanke","status":"kaynnissa","date":"2019–2024","url":"https://vayla.fi/hankkeet","source":"Väylävirasto"}},{"type":"Feature","geometry":{"type":"LineString","coordinates":[[23.71574,60.07833],[23.73223,60.08393],[23.74428,60.08875],[23.75137,60.09518],[23.7578,60.10026],[23.7723,60.10461],[23.79091,60.11065],[23.80341,60.11921],[23.81079,60.12564],[23.82066,60.12841],[23.83673,60.13052],[23.84621,60.13181],[23.85855,60.13663],[23.88955,60.14748],[23.89781,60.15047],[23.90916,60.15752],[23.91837,60.15893],[23.92783,60.16061],[23.94244,60.16428],[23.957,60.1714]]},"properties":{"name":"Hyvinkää-Hanko sähköistys ja tasoristeyksien turvallisuuden parantaminen","kind":"project","ptype":"rail","subtype":"Ratahanke","status":"kaynnissa","date":"2020–2024","url":"https://vayla.fi/hyvinkaa-hanko","source":"Väylävirasto"}},{"type":"Feature","geometry":{"type":"LineString","coordinates":[[23.65065,60.06449],[23.6212,60.04777],[23.59021,60.03859],[23.58488,60.03353],[23.56891,60.0234],[23.52841,60.00889],[23.51252,60.00581],[23.50694,60.00327],[23.49728,59.99409],[23.48375,59.98881],[23.47293,59.98812],[23.46427,59.98469],[23.44915,59.9795],[23.43878,59.97962],[23.42625,59.98247],[23.41861,59.98439],[23.41151,59.98367],[23.40452,59.98201],[23.39746,59.9761],[23.39348,59.9712],[23.39073,59.96473]]},"properties":{"name":"Hyvinkää-Hanko sähköistys ja tasoristeyksien turvallisuuden parantaminen","kind":"project","ptype":"rail","subtype":"Ratahanke","status":"kaynnissa","date":"2020–2024","url":"https://vayla.fi/hyvinkaa-hanko","source":"Väylävirasto"}},{"type":"Feature","geometry":{"type":"LineString","coordinates":[[23.39071,59.96486],[23.38886,59.96242],[23.38107,59.95834],[23.3733,59.95414],[23.3662,59.95114],[23.35007,59.94577],[23.34021,59.94137],[23.33067,59.93405],[23.32412,59.93094],[23.31541,59.92817],[23.29658,59.92098],[23.27829,59.91381],[23.25856,59.90779],[23.23465,59.90352],[23.21206,59.89941],[23.19724,59.89459],[23.16779,59.88575],[23.07623,59.86467],[23.05503,59.85818],[23.03599,59.85135],[23.00805,59.83932],[22.99526,59.83347],[22.98492,59.82929],[22.97138,59.82755]]},"properties":{"name":"Hyvinkää-Hanko sähköistys ja tasoristeyksien turvallisuuden parantaminen","kind":"project","ptype":"rail","subtype":"Ratahanke","status":"kaynnissa","date":"2020–2024","url":"https://vayla.fi/hyvinkaa-hanko","source":"Väylävirasto"}},{"type":"Feature","geometry":{"type":"Point","coordinates":[23.76879,60.07936]},"properties":{"name":"RO1201 U-3897 Pitkäjoen ratasilta, peruskorjaus","kind":"project","ptype":"rail","subtype":"Ratahanke","status":"kaynnissa","date":"2025–2025","url":"https://vayla.fi/hankkeet","source":"Väylävirasto"}},{"type":"Feature","geometry":{"type":"Polygon","coordinates":[[[23.54436,60.01504],[23.54379,60.01557],[23.54284,60.01529],[23.54335,60.01481],[23.54436,60.01504]]]},"properties":{"name":"TRL Elinkaariuusinnat 3-2023","kind":"project","ptype":"rail","subtype":"Ratahanke","status":"kaynnissa","date":"2023–2024","url":"https://vayla.fi/hankkeet","source":"Väylävirasto"}},{"type":"Feature","geometry":{"type":"LineString","coordinates":[[23.69875,60.06875],[23.74701,60.07982],[23.80203,60.07253],[23.84494,60.06246],[23.88678,60.06345],[23.9434,60.06477],[24.00182,60.07351],[24.04707,60.09179],[24.09954,60.11268],[24.20113,60.1383]]},"properties":{"name":"Karjaa-Kauklahti merkkisiivous","kind":"project","ptype":"rail","subtype":"Ratahanke","status":"kaynnissa","date":"2024–2025","url":"https://vayla.fi/hankkeet","source":"Väylävirasto"}},{"type":"Feature","geometry":{"type":"Point","coordinates":[23.23995,59.87816]},"properties":{"name":"Koverharin meriväylän syventäminen","kind":"project","ptype":"waterway","subtype":"Vesiväylähanke","status":"kaynnissa","date":"2024–2028","url":"https://vayla.fi/koverharin-merivaylan-syventaminen","source":"Väylävirasto"}},{"type":"Feature","geometry":{"type":"LineString","coordinates":[[23.91548,60.0137],[23.97406,60.00637]]},"properties":{"name":"Inkoon meriväylän parantaminen","kind":"project","ptype":"waterway","subtype":"Vesiväylähanke","status":"kaynnissa","date":"2025–2027","url":"https://vayla.fi/hankkeet","source":"Väylävirasto"}}]}