{"type":"FeatureCollection","features":[{"type":"Feature","geometry":{"type":"LineString","coordinates":[[29.09671,61.31333],[29.09673,61.31333]]},"properties":{"name":"KASELY Putkisiltaurakka 1/2024","kind":"project","ptype":"road","subtype":"Tiehanke","status":"kaynnissa","date":"2024–2024","url":"https://vayla.fi/hankkeet","source":"Väylävirasto"}},{"type":"Feature","geometry":{"type":"LineString","coordinates":[[29.78167,61.66198],[29.78169,61.66198]]},"properties":{"name":"KASELY Putkisiltaurakka 1/2025, KU","kind":"project","ptype":"road","subtype":"Tiehanke","status":"kaynnissa","date":"2025–2025","url":"https://vayla.fi/hankkeet","source":"Väylävirasto"}},{"type":"Feature","geometry":{"type":"LineString","coordinates":[[28.78378,61.19832],[28.78378,61.19832],[28.7838,61.19833],[28.78382,61.19833],[28.78384,61.19833],[28.78386,61.19833],[28.78387,61.19834],[28.78389,61.19834],[28.78391,61.19834],[28.78393,61.19834],[28.78395,61.19835],[28.78396,61.19835],[28.78398,61.19835],[28.784,61.19835],[28.78402,61.19836],[28.78403,61.19836],[28.78405,61.19836],[28.78407,61.19836],[28.78409,61.19837],[28.78411,61.19837],[28.78412,61.19837],[28.78414,61.19837],[28.78416,61.19838],[28.78418,61.19838],[28.78419,61.19838],[28.78421,61.19838],[28.78423,61.19839],[28.78425,61.19839],[28.78427,61.19839],[28.78428,61.19839],[28.7843,61.1984],[28.78432,61.1984],[28.78434,61.1984],[28.78436,61.1984],[28.78437,61.19841],[28.78439,61.19841],[28.78441,61.19841],[28.78443,61.19841],[28.78444,61.19842],[28.78446,61.19842],[28.78448,61.19842],[28.7845,61.19843],[28.78452,61.19843],[28.78453,61.19843],[28.78455,61.19843],[28.78457,61.19844],[28.78458,61.19844],[28.78459,61.19844],[28.78461,61.19844],[28.78462,61.19844],[28.78464,61.19845],[28.78466,61.19845],[28.78468,61.19845],[28.78469,61.19845],[28.78471,61.19846],[28.78473,61.19846],[28.78475,61.19846],[28.78477,61.19846],[28.78478,61.19847],[28.7848,61.19847],[28.78482,61.19847],[28.78484,61.19847],[28.78485,61.19848],[28.78487,61.19848],[28.78489,61.19848],[28.78491,61.19848],[28.78493,61.19849],[28.78494,61.19849],[28.78496,61.19849],[28.78498,61.19849],[28.785,61.1985],[28.78502,61.1985],[28.78503,61.1985],[28.78505,61.1985],[28.78507,61.19851],[28.78509,61.19851],[28.7851,61.19851],[28.78512,61.19851],[28.78514,61.19852],[28.78516,61.19852],[28.78518,61.19852],[28.78519,61.19852],[28.78521,61.19853],[28.78523,61.19853],[28.78525,61.19853],[28.78527,61.19853],[28.78528,61.19854],[28.7853,61.19854],[28.78532,61.19854],[28.78534,61.19854],[28.78535,61.19855],[28.78537,61.19855],[28.78539,61.19855],[28.78541,61.19855],[28.78543,61.19856],[28.78544,61.19856],[28.78546,61.19856],[28.78548,61.19856],[28.7855,61.19857],[28.78551,61.19857],[28.78553,61.19857],[28.78555,61.19858],[28.78557,61.19858],[28.78559,61.19858],[28.7856,61.19858],[28.78562,61.19859],[28.78564,61.19859],[28.78566,61.19859],[28.78568,61.19859],[28.78569,61.1986],[28.78571,61.1986],[28.78573,61.1986],[28.78575,61.1986],[28.78576,61.19861],[28.78578,61.19861],[28.7858,61.19861],[28.78582,61.19861],[28.78584,61.19862],[28.78585,61.19862],[28.78587,61.19862],[28.78589,61.19862],[28.78591,61.19863],[28.78592,61.19863],[28.78594,61.19863],[28.78596,61.19863],[28.78598,61.19864],[28.786,61.19864],[28.78601,61.19864],[28.78603,61.19864],[28.78605,61.19865],[28.78607,61.19865],[28.78609,61.19865],[28.7861,61.19865],[28.78612,61.19866],[28.78614,61.19866],[28.78616,61.19866],[28.78617,61.19866],[28.78619,61.19867],[28.78621,61.19867],[28.78623,61.19867],[28.78625,61.19867],[28.78626,61.19868],[28.78628,61.19868],[28.7863,61.19868],[28.78632,61.19868],[28.78634,61.19869],[28.78635,61.19869],[28.78637,61.19869],[28.78639,61.19869],[28.78641,61.1987],[28.78642,61.1987],[28.78644,61.1987],[28.78646,61.1987],[28.78648,61.19871],[28.7865,61.19871],[28.78651,61.19871],[28.78653,61.19872],[28.78655,61.19872],[28.78657,61.19872],[28.78658,61.19872],[28.7866,61.19873],[28.78662,61.19873],[28.78664,61.19873],[28.78666,61.19873],[28.78667,61.19874],[28.78669,61.19874],[28.78671,61.19874],[28.78673,61.19874],[28.78675,61.19875],[28.78676,61.19875],[28.78678,61.19875],[28.7868,61.19875],[28.78682,61.19876],[28.78683,61.19876],[28.78685,61.19876],[28.78687,61.19876],[28.78689,61.19877],[28.78691,61.19877],[28.78692,61.19877],[28.78694,61.19877],[28.78696,61.19878],[28.78698,61.19878],[28.787,61.19878],[28.78701,61.19878],[28.78703,61.19879],[28.78705,61.19879],[28.78707,61.19879],[28.78708,61.19879],[28.7871,61.1988],[28.78712,61.1988],[28.78714,61.1988],[28.78716,61.1988],[28.78717,61.19881],[28.78719,61.19881],[28.78721,61.19881],[28.78723,61.19881],[28.78724,61.19882],[28.78726,61.19882],[28.78728,61.19882],[28.7873,61.19882],[28.78732,61.19883],[28.78733,61.19883],[28.78735,61.19883],[28.78737,61.19883],[28.78739,61.19884],[28.78741,61.19884],[28.78742,61.19884],[28.78744,61.19884],[28.78746,61.19885],[28.78748,61.19885],[28.78749,61.19885],[28.78751,61.19885],[28.78753,61.19886],[28.78755,61.19886],[28.78757,61.19886],[28.78758,61.19887],[28.7876,61.19887],[28.78762,61.19887],[28.78764,61.19887],[28.78765,61.19888],[28.78767,61.19888],[28.78769,61.19888],[28.78771,61.19888],[28.78773,61.19889],[28.78774,61.19889],[28.78776,61.19889],[28.78778,61.19889],[28.7878,61.1989],[28.78782,61.1989],[28.78783,61.1989],[28.78785,61.1989],[28.78787,61.19891],[28.78789,61.19891],[28.7879,61.19891],[28.78792,61.19891],[28.78794,61.19892],[28.78796,61.19892],[28.78797,61.19892],[28.78798,61.19892],[28.78799,61.19892],[28.78801,61.19893],[28.78803,61.19893],[28.78805,61.19893],[28.78807,61.19893],[28.78808,61.19894],[28.7881,61.19894],[28.78812,61.19894],[28.78814,61.19894],[28.78815,61.19895],[28.78817,61.19895],[28.78819,61.19895],[28.78821,61.19895],[28.78823,61.19896],[28.78824,61.19896],[28.78826,61.19896],[28.78828,61.19896],[28.7883,61.19897],[28.78831,61.19897],[28.78833,61.19897],[28.78835,61.19897],[28.78837,61.19898],[28.78839,61.19898],[28.7884,61.19898],[28.78842,61.19898],[28.78844,61.19899],[28.78846,61.19899],[28.78846,61.19899],[28.78848,61.19899],[28.78849,61.19899],[28.78851,61.199],[28.78853,61.199],[28.78855,61.199],[28.78856,61.19901],[28.78858,61.19901],[28.7886,61.19901],[28.78862,61.19901],[28.78864,61.19902],[28.78865,61.19902],[28.78867,61.19902],[28.78869,61.19902],[28.78871,61.19903],[28.78873,61.19903],[28.78874,61.19903],[28.78876,61.19903],[28.78877,61.19903],[28.78878,61.19904],[28.7888,61.19904],[28.78881,61.19904],[28.78883,61.19904],[28.78885,61.19905],[28.78887,61.19905],[28.78889,61.19905],[28.7889,61.19905],[28.78892,61.19906],[28.78894,61.19906],[28.78896,61.19906],[28.78897,61.19906],[28.78899,61.19907],[28.78901,61.19907],[28.78903,61.19907],[28.78905,61.19907],[28.78906,61.19908],[28.78908,61.19908],[28.7891,61.19908],[28.78912,61.19908],[28.78914,61.19909],[28.78915,61.19909],[28.78917,61.19909],[28.78919,61.19909],[28.78921,61.1991],[28.78922,61.1991],[28.78924,61.1991],[28.78926,61.1991],[28.78928,61.19911],[28.7893,61.19911],[28.78931,61.19911],[28.78933,61.19911],[28.78935,61.19912],[28.78937,61.19912],[28.78939,61.19912],[28.7894,61.19912],[28.78942,61.19913],[28.78944,61.19913],[28.78946,61.19913],[28.78947,61.19913],[28.78949,61.19914],[28.78951,61.19914],[28.78953,61.19914],[28.78955,61.19914],[28.78956,61.19915],[28.78958,61.19915],[28.7896,61.19915],[28.78962,61.19916],[28.78963,61.19916],[28.78965,61.19916],[28.78967,61.19916],[28.78969,61.19917],[28.78971,61.19917],[28.78972,61.19917],[28.78974,61.19917],[28.78976,61.19918],[28.78978,61.19918],[28.7898,61.19918],[28.78981,61.19918],[28.78983,61.19919],[28.78985,61.19919],[28.78987,61.19919],[28.78988,61.19919],[28.7899,61.1992],[28.78992,61.1992],[28.78994,61.1992],[28.78996,61.1992],[28.78997,61.19921],[28.78999,61.19921],[28.79001,61.19921],[28.79003,61.19921],[28.79004,61.19922],[28.79006,61.19922],[28.79008,61.19922],[28.7901,61.19922],[28.79012,61.19923],[28.79013,61.19923],[28.79015,61.19923],[28.79017,61.19923],[28.79019,61.19924],[28.79021,61.19924],[28.79022,61.19924],[28.79024,61.19924],[28.79026,61.19925],[28.79028,61.19925],[28.79029,61.19925],[28.79031,61.19925],[28.79033,61.19926],[28.79035,61.19926],[28.79037,61.19926],[28.79038,61.19926],[28.7904,61.19927],[28.79042,61.19927],[28.79044,61.19927],[28.79046,61.19927],[28.79047,61.19928],[28.79049,61.19928],[28.79051,61.19928],[28.79053,61.19928],[28.79054,61.19929],[28.79056,61.19929],[28.79058,61.19929],[28.7906,61.19929],[28.79062,61.1993],[28.79063,61.1993],[28.79065,61.1993],[28.79067,61.19931],[28.79069,61.19931],[28.7907,61.19931],[28.79072,61.19931],[28.79074,61.19932],[28.79076,61.19932],[28.79078,61.19932],[28.79079,61.19932],[28.79081,61.19933],[28.79083,61.19933],[28.79085,61.19933],[28.79087,61.19933],[28.79088,61.19934],[28.7909,61.19934],[28.79092,61.19934],[28.79094,61.19934],[28.79095,61.19935],[28.79097,61.19935],[28.79099,61.19935],[28.79101,61.19935],[28.79103,61.19936],[28.79104,61.19936],[28.79106,61.19936],[28.79108,61.19936],[28.7911,61.19937],[28.79112,61.19937],[28.79113,61.19937],[28.79115,61.19937],[28.79117,61.19938],[28.79119,61.19938],[28.7912,61.19938],[28.79122,61.19938],[28.79124,61.19939],[28.79126,61.19939],[28.79128,61.19939],[28.79129,61.19939],[28.79131,61.1994],[28.79133,61.1994],[28.79135,61.1994],[28.79136,61.1994],[28.79138,61.19941],[28.7914,61.19941],[28.79142,61.19941],[28.79144,61.19941],[28.79145,61.19942],[28.79147,61.19942],[28.79149,61.19942],[28.79151,61.19942],[28.79153,61.19943],[28.79154,61.19943],[28.79156,61.19943],[28.79158,61.19943],[28.7916,61.19944],[28.79161,61.19944],[28.79163,61.19944],[28.79165,61.19944],[28.79167,61.19945],[28.79169,61.19945],[28.7917,61.19945],[28.79172,61.19946],[28.79174,61.19946],[28.79176,61.19946],[28.79178,61.19946],[28.79179,61.19947],[28.79181,61.19947],[28.79183,61.19947],[28.79185,61.19947],[28.79186,61.19948],[28.79188,61.19948],[28.7919,61.19948],[28.79192,61.19948],[28.79194,61.19949],[28.79195,61.19949],[28.79197,61.19949],[28.79199,61.19949],[28.79201,61.1995],[28.79202,61.1995],[28.79204,61.1995],[28.79206,61.1995],[28.79208,61.19951],[28.7921,61.19951],[28.79211,61.19951],[28.79213,61.19951],[28.79215,61.19952],[28.79217,61.19952],[28.79219,61.19952],[28.7922,61.19952],[28.79222,61.19953],[28.79224,61.19953],[28.79226,61.19953],[28.79227,61.19953],[28.79229,61.19954],[28.79231,61.19954],[28.79233,61.19954],[28.79235,61.19954],[28.79236,61.19955],[28.79238,61.19955],[28.7924,61.19955],[28.79242,61.19955],[28.79244,61.19956],[28.79245,61.19956],[28.79247,61.19956],[28.79249,61.19956],[28.79251,61.19957],[28.79252,61.19957],[28.79254,61.19957],[28.79256,61.19957],[28.79258,61.19958],[28.7926,61.19958],[28.79261,61.19958],[28.79263,61.19958],[28.79265,61.19959],[28.79267,61.19959],[28.79268,61.19959],[28.7927,61.19959],[28.79272,61.1996],[28.79274,61.1996],[28.79276,61.1996],[28.79277,61.19961],[28.79279,61.19961],[28.79281,61.19961],[28.79283,61.19961],[28.79285,61.19962],[28.79286,61.19962],[28.79288,61.19962],[28.7929,61.19962],[28.79292,61.19963],[28.79293,61.19963],[28.79295,61.19963],[28.79297,61.19963],[28.79299,61.19964],[28.79301,61.19964],[28.79302,61.19964],[28.79304,61.19964],[28.79306,61.19965],[28.79308,61.19965],[28.79309,61.19965],[28.79311,61.19965],[28.79313,61.19966],[28.79315,61.19966],[28.79317,61.19966],[28.79318,61.19966],[28.7932,61.19967],[28.79322,61.19967],[28.79324,61.19967],[28.79326,61.19967],[28.79327,61.19968],[28.79329,61.19968],[28.79331,61.19968],[28.79333,61.19968],[28.79334,61.19969],[28.79336,61.19969],[28.79338,61.19969],[28.7934,61.19969],[28.79342,61.1997],[28.79343,61.1997],[28.79345,61.1997],[28.79347,61.1997],[28.79349,61.19971],[28.79351,61.19971],[28.79352,61.19971],[28.79354,61.19971],[28.79356,61.19972],[28.79358,61.19972],[28.79359,61.19972],[28.79361,61.19972],[28.79363,61.19973],[28.79365,61.19973],[28.79367,61.19973],[28.79368,61.19973],[28.7937,61.19974],[28.79371,61.19974],[28.79373,61.19974],[28.79375,61.19974],[28.79377,61.19975],[28.79378,61.19975],[28.7938,61.19975],[28.79382,61.19975],[28.79384,61.19976],[28.79385,61.19976],[28.79387,61.19976],[28.79389,61.19976],[28.79391,61.19977],[28.79393,61.19977],[28.79394,61.19977],[28.79396,61.19977],[28.79398,61.19978],[28.794,61.19978],[28.79401,61.19978],[28.79403,61.19978],[28.79405,61.19979],[28.79407,61.19979],[28.79409,61.19979],[28.7941,61.19979],[28.79412,61.1998],[28.79414,61.1998],[28.79416,61.1998],[28.79418,61.1998],[28.79419,61.19981],[28.79421,61.19981],[28.79423,61.19981],[28.79425,61.19982],[28.79426,61.19982],[28.79428,61.19982],[28.7943,61.19982],[28.79432,61.19983],[28.79434,61.19983],[28.79435,61.19983],[28.79437,61.19983],[28.79439,61.19984],[28.79441,61.19984],[28.79443,61.19984],[28.79444,61.19984],[28.79446,61.19985],[28.79448,61.19985],[28.7945,61.19985],[28.79451,61.19985],[28.79453,61.19986],[28.79455,61.19986],[28.79457,61.19986],[28.79459,61.19986],[28.7946,61.19987],[28.79462,61.19987],[28.79464,61.19987],[28.79466,61.19987],[28.79467,61.19988],[28.79469,61.19988],[28.79471,61.19988],[28.79473,61.19988],[28.79475,61.19989],[28.79476,61.19989],[28.79478,61.19989],[28.7948,61.19989],[28.79482,61.1999],[28.79484,61.1999],[28.79485,61.1999],[28.79487,61.1999],[28.79489,61.19991],[28.79491,61.19991],[28.79492,61.19991],[28.79494,61.19991],[28.79496,61.19992],[28.79498,61.19992],[28.795,61.19992],[28.79501,61.19992],[28.79503,61.19993],[28.79505,61.19993],[28.79507,61.19993],[28.79508,61.19993],[28.7951,61.19994],[28.79512,61.19994],[28.79514,61.19994],[28.79516,61.19994],[28.79517,61.19995],[28.79519,61.19995],[28.79521,61.19995],[28.79523,61.19995],[28.79525,61.19996],[28.79526,61.19996],[28.79528,61.19996],[28.7953,61.19997],[28.79532,61.19997],[28.79533,61.19997],[28.79535,61.19997],[28.79537,61.19998],[28.79539,61.19998],[28.79541,61.19998],[28.79542,61.19998],[28.79544,61.19999],[28.79546,61.19999],[28.79548,61.19999],[28.7955,61.19999],[28.79551,61.2],[28.79553,61.2],[28.79555,61.2],[28.79557,61.2],[28.79558,61.20001],[28.7956,61.20001],[28.79562,61.20001],[28.79564,61.20001],[28.79566,61.20002],[28.79567,61.20002],[28.79569,61.20002],[28.79571,61.20002],[28.79573,61.20003],[28.79574,61.20003],[28.79576,61.20003],[28.79578,61.20003],[28.7958,61.20004],[28.79582,61.20004],[28.79583,61.20004],[28.79585,61.20004],[28.79587,61.20005],[28.79589,61.20005],[28.79591,61.20005],[28.79592,61.20005],[28.79594,61.20006],[28.79596,61.20006],[28.79598,61.20006],[28.79599,61.20006],[28.79601,61.20007],[28.79603,61.20007],[28.79605,61.20007],[28.79607,61.20007],[28.79608,61.20008],[28.7961,61.20008],[28.79612,61.20008],[28.79614,61.20008],[28.79616,61.20009],[28.79617,61.20009],[28.79619,61.20009],[28.79621,61.20009],[28.79623,61.2001],[28.79625,61.2001],[28.79626,61.2001],[28.79628,61.20011],[28.7963,61.20011],[28.79632,61.20011],[28.79634,61.20011],[28.79635,61.20012],[28.79637,61.20012],[28.79639,61.20012],[28.79641,61.20012],[28.79643,61.20013],[28.79644,61.20013],[28.79646,61.20013],[28.79648,61.20013],[28.7965,61.20014],[28.79652,61.20014],[28.79653,61.20014],[28.79655,61.20014],[28.79657,61.20015],[28.79659,61.20015],[28.79661,61.20015],[28.79662,61.20015],[28.79664,61.20016],[28.79666,61.20016],[28.79668,61.20016],[28.7967,61.20016],[28.79671,61.20017],[28.79673,61.20017],[28.79675,61.20017],[28.79677,61.20017],[28.79679,61.20018],[28.7968,61.20018],[28.79682,61.20018],[28.79684,61.20018],[28.79686,61.20019],[28.79688,61.20019],[28.79689,61.20019],[28.79691,61.20019],[28.79693,61.2002],[28.79695,61.2002],[28.79697,61.2002],[28.79698,61.20021],[28.797,61.20021],[28.79702,61.20021],[28.79704,61.20021],[28.79706,61.20022],[28.79707,61.20022],[28.79709,61.20022],[28.79711,61.20022],[28.79713,61.20023],[28.79715,61.20023],[28.79717,61.20023],[28.79718,61.20023],[28.7972,61.20024],[28.79722,61.20024],[28.79724,61.20024],[28.79726,61.20024],[28.79727,61.20025],[28.79729,61.20025],[28.79731,61.20025],[28.79733,61.20025],[28.79735,61.20025],[28.79737,61.20026],[28.79738,61.20026],[28.7974,61.20026],[28.79742,61.20026],[28.79744,61.20027],[28.79746,61.20027],[28.79747,61.20027],[28.79749,61.20027],[28.79751,61.20028],[28.79753,61.20028],[28.79755,61.20028],[28.79757,61.20028],[28.79758,61.20028],[28.7976,61.20029],[28.79762,61.20029],[28.79764,61.20029],[28.79766,61.20029],[28.79768,61.2003],[28.79769,61.2003],[28.79771,61.2003],[28.79773,61.2003],[28.79775,61.2003],[28.79777,61.20031],[28.79779,61.20031],[28.7978,61.20031],[28.79782,61.20031],[28.79784,61.20032],[28.79786,61.20032],[28.79788,61.20032],[28.7979,61.20032],[28.79791,61.20032],[28.79793,61.20033],[28.79795,61.20033],[28.79797,61.20033],[28.79799,61.20033],[28.79801,61.20033],[28.79803,61.20034],[28.79804,61.20034],[28.79806,61.20034],[28.79808,61.20034],[28.7981,61.20034],[28.79812,61.20035],[28.79814,61.20035],[28.79815,61.20035],[28.79817,61.20035],[28.79819,61.20035],[28.79821,61.20036],[28.79823,61.20036],[28.79825,61.20036],[28.79827,61.20036],[28.79828,61.20036],[28.7983,61.20036],[28.79832,61.20037],[28.79834,61.20037],[28.79836,61.20037],[28.79838,61.20037],[28.7984,61.20037],[28.79841,61.20038],[28.79843,61.20038],[28.79845,61.20038],[28.79847,61.20038],[28.79849,61.20038],[28.79851,61.20039],[28.79853,61.20039],[28.79854,61.20039],[28.79856,61.20039],[28.79858,61.20039],[28.7986,61.2004],[28.79862,61.2004],[28.79864,61.2004],[28.79866,61.2004],[28.79867,61.2004],[28.79869,61.20041],[28.79871,61.20041],[28.79873,61.20041],[28.79875,61.20041],[28.79877,61.20041],[28.79879,61.20042],[28.7988,61.20042],[28.79882,61.20042],[28.79884,61.20042],[28.79886,61.20042],[28.79888,61.20043],[28.7989,61.20043],[28.79892,61.20043],[28.79893,61.20043],[28.79895,61.20043],[28.79897,61.20044],[28.79899,61.20044],[28.79901,61.20044],[28.79903,61.20044],[28.79905,61.20044],[28.79907,61.20045],[28.79908,61.20045],[28.7991,61.20045],[28.79912,61.20045],[28.79914,61.20046],[28.79916,61.20046],[28.79918,61.20046],[28.7992,61.20046],[28.79922,61.20046],[28.79923,61.20047],[28.79925,61.20047],[28.79927,61.20047],[28.79929,61.20047],[28.79931,61.20048],[28.79933,61.20048],[28.79935,61.20048],[28.79937,61.20048],[28.79938,61.20049],[28.7994,61.20049],[28.79942,61.20049],[28.79944,61.20049],[28.79946,61.20049],[28.79948,61.2005],[28.7995,61.2005],[28.79952,61.2005],[28.79953,61.2005],[28.79955,61.20051],[28.79957,61.20051],[28.79959,61.20051],[28.79961,61.20051],[28.79963,61.20052],[28.79965,61.20052],[28.79967,61.20052],[28.79969,61.20053],[28.7997,61.20053],[28.79972,61.20053],[28.79974,61.20053],[28.79976,61.20054],[28.79978,61.20054],[28.7998,61.20054],[28.79982,61.20054],[28.79984,61.20055],[28.79986,61.20055],[28.79988,61.20055],[28.79989,61.20055],[28.79991,61.20056],[28.79993,61.20056],[28.79995,61.20056],[28.79997,61.20057],[28.79999,61.20057],[28.80001,61.20057],[28.80003,61.20057],[28.80005,61.20058],[28.80007,61.20058],[28.80009,61.20058],[28.80011,61.20058],[28.80012,61.20059],[28.80014,61.20059],[28.80016,61.20059],[28.80018,61.2006],[28.8002,61.2006],[28.80022,61.2006],[28.80024,61.2006],[28.80026,61.20061],[28.80028,61.20061],[28.8003,61.20061],[28.80032,61.20061],[28.80033,61.20062],[28.80035,61.20062],[28.80037,61.20062],[28.80039,61.20062],[28.80041,61.20063],[28.80043,61.20063],[28.80045,61.20063],[28.80047,61.20064],[28.80049,61.20064],[28.8005,61.20064],[28.80052,61.20064],[28.80054,61.20065],[28.80056,61.20065],[28.80058,61.20065],[28.8006,61.20065],[28.80062,61.20066],[28.80063,61.20066],[28.80065,61.20066],[28.80067,61.20067],[28.80069,61.20067],[28.80071,61.20067],[28.80073,61.20067],[28.80075,61.20068],[28.80077,61.20068],[28.80078,61.20068],[28.8008,61.20068],[28.80082,61.20069],[28.80084,61.20069],[28.80086,61.20069],[28.80088,61.20069],[28.8009,61.2007],[28.80091,61.2007],[28.80093,61.2007],[28.80095,61.2007],[28.80097,61.20071],[28.80099,61.20071],[28.80101,61.20071],[28.80103,61.20072],[28.80104,61.20072],[28.80106,61.20072],[28.80108,61.20072],[28.8011,61.20073],[28.80112,61.20073],[28.80114,61.20073],[28.80116,61.20073],[28.80117,61.20074],[28.80119,61.20074],[28.80121,61.20074],[28.80123,61.20074],[28.80125,61.20075],[28.80127,61.20075],[28.80129,61.20075],[28.8013,61.20076],[28.80132,61.20076],[28.80134,61.20076],[28.80136,61.20076],[28.80138,61.20077],[28.8014,61.20077],[28.80142,61.20077],[28.80143,61.20077],[28.80145,61.20078],[28.80147,61.20078],[28.80149,61.20078],[28.80151,61.20078],[28.80153,61.20079],[28.80155,61.20079],[28.80156,61.20079],[28.80158,61.20079],[28.8016,61.2008],[28.80162,61.2008],[28.80164,61.2008],[28.80166,61.20081],[28.80168,61.20081],[28.80169,61.20081],[28.80171,61.20081],[28.80173,61.20082],[28.80175,61.20082],[28.80177,61.20082],[28.80179,61.20082],[28.80181,61.20083],[28.80182,61.20083],[28.80184,61.20083],[28.80186,61.20083],[28.80188,61.20084],[28.8019,61.20084],[28.80192,61.20084],[28.80194,61.20085],[28.80196,61.20085],[28.80197,61.20085],[28.80199,61.20085],[28.80201,61.20086],[28.80203,61.20086],[28.80205,61.20086],[28.80207,61.20086],[28.80209,61.20087],[28.8021,61.20087],[28.80212,61.20087],[28.80214,61.20087],[28.80216,61.20088],[28.80218,61.20088],[28.8022,61.20088],[28.80221,61.20088],[28.80223,61.20089],[28.80225,61.20089],[28.80227,61.20089],[28.80229,61.2009],[28.8023,61.2009],[28.80232,61.2009],[28.80234,61.2009],[28.80236,61.20091],[28.80237,61.20091],[28.80239,61.20091],[28.80241,61.20091],[28.80243,61.20092],[28.80244,61.20092],[28.80246,61.20092],[28.80248,61.20092],[28.8025,61.20093],[28.80251,61.20093],[28.80253,61.20093],[28.80255,61.20093],[28.80257,61.20093],[28.80258,61.20094],[28.8026,61.20094],[28.80262,61.20094],[28.80263,61.20094],[28.80265,61.20095],[28.80267,61.20095],[28.80268,61.20095],[28.8027,61.20095],[28.80272,61.20096],[28.80273,61.20096],[28.80275,61.20096],[28.80277,61.20096],[28.80278,61.20097],[28.8028,61.20097],[28.80281,61.20097],[28.80283,61.20097],[28.80285,61.20098],[28.80286,61.20098],[28.80288,61.20098],[28.80289,61.20098],[28.80291,61.20098],[28.80293,61.20099],[28.80294,61.20099],[28.80296,61.20099],[28.80297,61.20099],[28.80299,61.201],[28.803,61.201],[28.80302,61.201],[28.80303,61.201],[28.80305,61.201],[28.80306,61.20101],[28.80308,61.20101],[28.80309,61.20101],[28.80311,61.20101],[28.80312,61.20101],[28.80314,61.20102],[28.80315,61.20102],[28.80317,61.20102],[28.80318,61.20102],[28.8032,61.20102],[28.80321,61.20103],[28.80323,61.20103],[28.80324,61.20103],[28.80326,61.20103],[28.80327,61.20104],[28.80328,61.20104],[28.8033,61.20104],[28.80331,61.20104],[28.80333,61.20104],[28.80334,61.20105],[28.80336,61.20105],[28.80337,61.20105],[28.80339,61.20105],[28.8034,61.20105],[28.80342,61.20106],[28.80343,61.20106],[28.80344,61.20106],[28.80346,61.20106],[28.80347,61.20106],[28.80349,61.20107],[28.8035,61.20107],[28.80352,61.20107],[28.80353,61.20107],[28.80355,61.20107],[28.80356,61.20108],[28.80357,61.20108],[28.80359,61.20108],[28.8036,61.20108],[28.80362,61.20108],[28.80363,61.20109],[28.80365,61.20109],[28.80366,61.20109],[28.80367,61.20109],[28.80369,61.2011],[28.8037,61.2011],[28.80372,61.2011],[28.80373,61.2011],[28.80375,61.2011],[28.80376,61.20111],[28.80377,61.20111],[28.80379,61.20111],[28.8038,61.20111],[28.80382,61.20111],[28.80383,61.20112],[28.80385,61.20112],[28.80386,61.20112],[28.80387,61.20112],[28.80389,61.20112],[28.8039,61.20113],[28.80392,61.20113],[28.80393,61.20113],[28.80395,61.20113],[28.80396,61.20113],[28.80397,61.20114],[28.80399,61.20114],[28.804,61.20114],[28.80402,61.20114],[28.80403,61.20114],[28.80404,61.20115],[28.80406,61.20115],[28.80407,61.20115],[28.80409,61.20115],[28.8041,61.20115],[28.80412,61.20116],[28.80413,61.20116],[28.80414,61.20116],[28.80416,61.20116],[28.80417,61.20116],[28.80419,61.20117],[28.8042,61.20117],[28.80421,61.20117],[28.80423,61.20117],[28.80424,61.20117],[28.80426,61.20118],[28.80427,61.20118],[28.80429,61.20118],[28.8043,61.20118],[28.80431,61.20118],[28.80433,61.20119],[28.80434,61.20119],[28.80436,61.20119],[28.80437,61.20119],[28.80438,61.20119],[28.8044,61.2012],[28.80441,61.2012],[28.80443,61.2012],[28.80444,61.2012],[28.80446,61.2012],[28.80447,61.20121],[28.80448,61.20121],[28.8045,61.20121],[28.80451,61.20121],[28.80453,61.20121],[28.80454,61.20122],[28.80455,61.20122],[28.80457,61.20122],[28.80458,61.20122],[28.8046,61.20122],[28.80461,61.20123],[28.80463,61.20123],[28.80464,61.20123],[28.80465,61.20123],[28.80467,61.20123],[28.80468,61.20124],[28.8047,61.20124],[28.80471,61.20124],[28.80472,61.20124],[28.80474,61.20124],[28.80475,61.20125],[28.80477,61.20125],[28.80478,61.20125],[28.8048,61.20125],[28.80481,61.20126],[28.80482,61.20126],[28.80484,61.20126],[28.80485,61.20126],[28.80487,61.20126],[28.80488,61.20127],[28.80489,61.20127],[28.80491,61.20127],[28.80492,61.20127],[28.80494,61.20127],[28.80495,61.20128],[28.80497,61.20128],[28.80498,61.20128],[28.80499,61.20128],[28.80501,61.20128],[28.80502,61.20129],[28.80504,61.20129],[28.80505,61.20129],[28.80507,61.20129],[28.80508,61.2013],[28.80509,61.2013],[28.80511,61.2013],[28.80512,61.2013],[28.80514,61.2013],[28.80515,61.20131],[28.80517,61.20131],[28.80518,61.20131],[28.80519,61.20131],[28.80521,61.20131],[28.80522,61.20132],[28.80524,61.20132],[28.80525,61.20132],[28.80527,61.20132],[28.80528,61.20133],[28.8053,61.20133],[28.80531,61.20133],[28.80532,61.20133],[28.80534,61.20134],[28.80535,61.20134],[28.80537,61.20134],[28.80538,61.20134],[28.8054,61.20134],[28.80541,61.20135],[28.80543,61.20135],[28.80544,61.20135],[28.80545,61.20135],[28.80547,61.20136],[28.80548,61.20136],[28.8055,61.20136],[28.80551,61.20136],[28.80553,61.20137],[28.80554,61.20137],[28.80556,61.20137],[28.80557,61.20137],[28.80558,61.20137],[28.8056,61.20138],[28.80561,61.20138],[28.80563,61.20138],[28.80564,61.20138],[28.80566,61.20139],[28.80567,61.20139],[28.80569,61.20139],[28.8057,61.20139],[28.80571,61.2014],[28.80573,61.2014],[28.80574,61.2014],[28.80576,61.2014],[28.80577,61.20141],[28.80579,61.20141],[28.8058,61.20141],[28.80582,61.20141],[28.80583,61.20142],[28.80585,61.20142],[28.80586,61.20142],[28.80588,61.20142],[28.80589,61.20143],[28.8059,61.20143],[28.80592,61.20143],[28.80593,61.20143],[28.80595,61.20144],[28.80596,61.20144],[28.80598,61.20144],[28.80599,61.20145],[28.80601,61.20145],[28.80602,61.20145],[28.80604,61.20145],[28.80605,61.20146],[28.80607,61.20146],[28.80608,61.20146],[28.80609,61.20146],[28.80611,61.20147],[28.80612,61.20147],[28.80614,61.20147],[28.80615,61.20148],[28.80617,61.20148],[28.80618,61.20148],[28.8062,61.20148],[28.80621,61.20149],[28.80623,61.20149],[28.80624,61.20149],[28.80626,61.2015],[28.80627,61.2015],[28.80629,61.2015],[28.8063,61.2015],[28.80631,61.20151],[28.80633,61.20151],[28.80634,61.20151],[28.80636,61.20152],[28.80637,61.20152],[28.80639,61.20152],[28.8064,61.20153],[28.80642,61.20153],[28.80643,61.20153],[28.80645,61.20154],[28.80646,61.20154],[28.80648,61.20154],[28.80649,61.20154],[28.80651,61.20155],[28.80652,61.20155],[28.80654,61.20155],[28.80655,61.20156],[28.80656,61.20156],[28.80658,61.20156],[28.80659,61.20157],[28.80661,61.20157],[28.80662,61.20157],[28.80664,61.20158],[28.80665,61.20158],[28.80667,61.20158],[28.80668,61.20159],[28.8067,61.20159],[28.80671,61.20159],[28.80673,61.2016],[28.80674,61.2016],[28.80676,61.2016],[28.80677,61.20161],[28.80679,61.20161],[28.8068,61.20161],[28.80681,61.20162],[28.80683,61.20162],[28.80684,61.20162],[28.80686,61.20163],[28.80687,61.20163],[28.80689,61.20164],[28.8069,61.20164],[28.80692,61.20164],[28.80693,61.20165],[28.80695,61.20165],[28.80696,61.20165],[28.80698,61.20166],[28.80699,61.20166],[28.807,61.20166],[28.80702,61.20167],[28.80703,61.20167],[28.80705,61.20168],[28.80706,61.20168],[28.80708,61.20168],[28.80709,61.20169],[28.80711,61.20169],[28.80712,61.2017],[28.80714,61.2017],[28.80715,61.2017],[28.80716,61.20171],[28.80718,61.20171],[28.80719,61.20172],[28.80721,61.20172],[28.80722,61.20172],[28.80724,61.20173],[28.80725,61.20173],[28.80727,61.20174],[28.80728,61.20174],[28.80729,61.20174],[28.80731,61.20175],[28.80732,61.20175],[28.80734,61.20176],[28.80735,61.20176],[28.80737,61.20176],[28.80738,61.20177],[28.8074,61.20177],[28.80741,61.20178],[28.80742,61.20178],[28.80744,61.20179],[28.80745,61.20179],[28.80747,61.20179],[28.80748,61.2018],[28.8075,61.2018],[28.80751,61.20181],[28.80752,61.20181],[28.80754,61.20182],[28.80755,61.20182],[28.80757,61.20183],[28.80758,61.20183],[28.8076,61.20183],[28.80761,61.20184],[28.80762,61.20184],[28.80764,61.20185],[28.80765,61.20185],[28.80767,61.20186],[28.80768,61.20186],[28.80769,61.20187],[28.80771,61.20187],[28.80772,61.20188],[28.80774,61.20188],[28.80775,61.20189],[28.80776,61.20189],[28.80778,61.2019],[28.80779,61.2019],[28.80781,61.20191],[28.80782,61.20191],[28.80783,61.20191],[28.80785,61.20192],[28.80786,61.20192],[28.80788,61.20193],[28.80789,61.20193],[28.8079,61.20194],[28.80792,61.20194],[28.80793,61.20195],[28.80795,61.20195],[28.80796,61.20196],[28.80797,61.20196],[28.80799,61.20197],[28.808,61.20197],[28.80802,61.20198],[28.80803,61.20199],[28.80804,61.20199],[28.80806,61.202],[28.80807,61.202],[28.80808,61.20201],[28.8081,61.20201],[28.80811,61.20202],[28.80813,61.20202],[28.80814,61.20203],[28.80815,61.20203],[28.80817,61.20204],[28.80818,61.20204],[28.80819,61.20205],[28.80821,61.20205],[28.80822,61.20206],[28.80823,61.20206],[28.80825,61.20207],[28.80826,61.20208],[28.80827,61.20208],[28.80829,61.20209],[28.8083,61.20209],[28.80832,61.2021],[28.80833,61.2021],[28.80834,61.20211],[28.80836,61.20211],[28.80837,61.20212],[28.80838,61.20213],[28.8084,61.20213],[28.80841,61.20214],[28.80842,61.20214],[28.80844,61.20215],[28.80845,61.20215],[28.80846,61.20216],[28.80848,61.20217],[28.80849,61.20217],[28.8085,61.20218],[28.80852,61.20218],[28.80853,61.20219],[28.80854,61.2022],[28.80856,61.2022],[28.80857,61.20221],[28.80858,61.20221],[28.8086,61.20222],[28.80861,61.20223],[28.80862,61.20223],[28.80864,61.20224],[28.80865,61.20225],[28.80866,61.20225],[28.80868,61.20226],[28.80869,61.20226],[28.8087,61.20227],[28.80872,61.20228],[28.80873,61.20228],[28.80874,61.20229],[28.80875,61.2023],[28.80877,61.2023],[28.80878,61.20231],[28.80879,61.20231],[28.80881,61.20232],[28.80882,61.20233],[28.80883,61.20233],[28.80885,61.20234],[28.80886,61.20235],[28.80887,61.20235],[28.80888,61.20236],[28.8089,61.20237],[28.80891,61.20237],[28.80892,61.20238],[28.80894,61.20239],[28.80895,61.20239],[28.80896,61.2024],[28.80897,61.20241],[28.80899,61.20241],[28.809,61.20242],[28.80901,61.20243],[28.80902,61.20243],[28.80904,61.20244],[28.80905,61.20245],[28.80906,61.20246],[28.80907,61.20246],[28.80909,61.20247],[28.8091,61.20248],[28.80911,61.20248],[28.80912,61.20249],[28.80914,61.2025],[28.80915,61.2025],[28.80916,61.20251],[28.80917,61.20252],[28.80918,61.20253],[28.8092,61.20253],[28.80921,61.20254],[28.80922,61.20255],[28.80923,61.20255],[28.80924,61.20256],[28.80926,61.20257],[28.80927,61.20257],[28.80928,61.20258],[28.80929,61.20259],[28.80931,61.2026],[28.80932,61.2026],[28.80933,61.20261],[28.80934,61.20262],[28.80935,61.20262],[28.80937,61.20263],[28.80938,61.20264],[28.80939,61.20264],[28.8094,61.20265],[28.80941,61.20266],[28.80943,61.20267],[28.80944,61.20267],[28.80945,61.20268],[28.80946,61.20269],[28.80947,61.20269],[28.80949,61.2027],[28.8095,61.20271],[28.80951,61.20271],[28.80952,61.20272],[28.80953,61.20273],[28.80955,61.20274],[28.80956,61.20274],[28.80957,61.20275],[28.80958,61.20276],[28.80959,61.20276],[28.8096,61.20277],[28.80962,61.20278],[28.80963,61.20279],[28.80964,61.20279],[28.80965,61.2028],[28.80966,61.20281],[28.80967,61.20282],[28.80968,61.20282],[28.80969,61.20283],[28.8097,61.20284],[28.80971,61.20285],[28.80972,61.20285],[28.80973,61.20286],[28.80974,61.20287],[28.80975,61.20288],[28.80976,61.20288],[28.80977,61.20289],[28.80978,61.2029],[28.80979,61.20291],[28.8098,61.20291],[28.80981,61.20292],[28.80982,61.20293],[28.80983,61.20294],[28.80984,61.20294],[28.80985,61.20295],[28.80986,61.20296],[28.80987,61.20297],[28.80988,61.20298],[28.80989,61.20298],[28.8099,61.20299],[28.80991,61.203],[28.80991,61.20301],[28.80992,61.20301],[28.80993,61.20302],[28.80994,61.20303],[28.80995,61.20304],[28.80996,61.20305],[28.80997,61.20305],[28.80997,61.20306],[28.80998,61.20307],[28.80999,61.20308],[28.81,61.20309],[28.81001,61.2031],[28.81001,61.2031],[28.81002,61.20311],[28.81003,61.20312],[28.81004,61.20313],[28.81004,61.20314],[28.81005,61.20314],[28.81006,61.20315],[28.81007,61.20316],[28.81007,61.20317],[28.81008,61.20317],[28.81008,61.20318],[28.81009,61.20319],[28.8101,61.20319],[28.8101,61.2032],[28.81011,61.20321],[28.81012,61.20322],[28.81013,61.20323],[28.81013,61.20324],[28.81014,61.20324],[28.81015,61.20325],[28.81016,61.20326],[28.81016,61.20327],[28.81016,61.20327],[28.81017,61.20328],[28.81018,61.20328],[28.81018,61.20329],[28.81019,61.2033],[28.8102,61.20331],[28.8102,61.20332],[28.81021,61.20332],[28.81022,61.20333],[28.81023,61.20334],[28.81023,61.20335],[28.81024,61.20336],[28.81025,61.20337],[28.81026,61.20337],[28.81026,61.20338],[28.81027,61.20339],[28.81028,61.2034],[28.81028,61.20341],[28.81029,61.20341],[28.81029,61.20341],[28.8103,61.20342],[28.81031,61.20343],[28.81031,61.20344],[28.81032,61.20345],[28.81033,61.20346],[28.81034,61.20346],[28.81034,61.20347],[28.81035,61.20348],[28.81036,61.20349],[28.81036,61.2035],[28.81037,61.2035],[28.81038,61.20351],[28.81038,61.20352],[28.81039,61.20353],[28.8104,61.20354],[28.8104,61.20355],[28.81041,61.20355],[28.81042,61.20356],[28.81042,61.20357],[28.81043,61.20358],[28.81043,61.20359],[28.81044,61.2036],[28.81045,61.2036],[28.81045,61.20361],[28.81046,61.20362],[28.81046,61.20363],[28.81047,61.20364],[28.81048,61.20365],[28.81048,61.20365],[28.81049,61.20366],[28.81049,61.20367],[28.8105,61.20368],[28.8105,61.20369],[28.81051,61.2037],[28.81051,61.2037],[28.81052,61.20371],[28.81052,61.20372],[28.81053,61.20373],[28.81053,61.20374],[28.81054,61.20375],[28.81054,61.20375],[28.81055,61.20376],[28.81055,61.20377],[28.81056,61.20378],[28.81056,61.20379],[28.81057,61.2038],[28.81057,61.2038],[28.81057,61.20381],[28.81058,61.20381],[28.81058,61.20382],[28.81059,61.20383],[28.81059,61.20384],[28.8106,61.20385],[28.8106,61.20385],[28.8106,61.20386],[28.81061,61.20387],[28.81061,61.20388],[28.81062,61.20389],[28.81062,61.2039],[28.81063,61.2039],[28.81063,61.20391],[28.81064,61.20392],[28.81064,61.20393],[28.81065,61.20394],[28.81065,61.20394],[28.81066,61.20395],[28.81066,61.20396]]},"properties":{"name":"Itä-Suomen vaihdeteema, päällysrakenneurakka Kouvola ja Imatra","kind":"project","ptype":"rail","subtype":"Ratahanke","status":"kaynnissa","date":"2025–2025","url":"https://vayla.fi/hankkeet","source":"Väylävirasto"}},{"type":"Feature","geometry":{"type":"LineString","coordinates":[[27.55923,60.91313],[27.58875,60.90983],[27.60388,60.91076],[27.61155,60.91128],[27.65265,60.92669],[27.66939,60.93116],[27.69462,60.93483],[27.77729,60.94678],[27.81125,60.95165],[27.82048,60.95294],[27.83695,60.95925],[27.8928,60.97628],[27.92136,60.98512],[27.94226,60.99257],[27.96022,61.00063],[27.98719,61.00718],[28.00313,61.01103],[28.03241,61.01317],[28.08904,61.01695],[28.13518,61.02016],[28.16101,61.02422],[28.16354,61.02513],[28.17201,61.0303],[28.17815,61.04114],[28.20868,61.05332],[28.2249,61.05546],[28.23435,61.05968],[28.25184,61.06265],[28.26883,61.07345],[28.30951,61.07992],[28.32326,61.08017],[28.35569,61.0918],[28.37938,61.09723],[28.45645,61.11213],[28.48842,61.1206],[28.50656,61.12555],[28.53229,61.13032],[28.57527,61.142],[28.59518,61.14806],[28.61354,61.15013],[28.62854,61.15567],[28.64687,61.16027],[28.67909,61.17418],[28.701,61.18385],[28.71834,61.18695],[28.73425,61.19274],[28.7648,61.19107],[28.77302,61.19426],[28.77865,61.19715],[28.78434,61.19838],[28.79756,61.20049],[28.80585,61.2015],[28.80944,61.20289]]},"properties":{"name":"Luumäki-Imatra ratahanke rakentaminen","kind":"project","ptype":"rail","subtype":"Ratahanke","status":"kaynnissa","date":"2018–2026","url":"https://vayla.fi/hankkeet","source":"Väylävirasto"}}]}