{"type":"FeatureCollection","features":[{"type":"Feature","geometry":{"type":"MultiLineString","coordinates":[[[25.60945,61.16144],[25.60954,61.1614]],[[25.60954,61.1614],[25.60988,61.16124],[25.60991,61.16122],[25.60993,61.16122],[25.61049,61.16099],[25.6105,61.16098],[25.6109,61.16082],[25.61099,61.16078],[25.611,61.16078],[25.61118,61.16072],[25.61147,61.16063],[25.61159,61.1606],[25.6116,61.1606],[25.6121,61.16048],[25.61213,61.16047],[25.61273,61.16033],[25.61276,61.16033]],[[25.61276,61.16033],[25.61334,61.16021],[25.61344,61.16019],[25.61348,61.16018],[25.61397,61.1601],[25.614,61.1601]],[[25.614,61.1601],[25.61536,61.15986],[25.61537,61.15986],[25.61611,61.15973],[25.61625,61.15971],[25.61626,61.15971],[25.61672,61.15964],[25.61674,61.15964],[25.61716,61.15958],[25.61718,61.15958]],[[25.61718,61.15958],[25.61724,61.15957],[25.61778,61.15951],[25.6178,61.1595]],[[25.6178,61.1595],[25.61805,61.15947],[25.61865,61.15938],[25.61867,61.15938],[25.61888,61.15934],[25.61891,61.15934],[25.61916,61.15929],[25.61919,61.15929],[25.61921,61.15928],[25.61938,61.15925],[25.61964,61.15918],[25.61971,61.15916],[25.61974,61.15915],[25.62067,61.15886],[25.6207,61.15885],[25.62114,61.15872],[25.6213,61.15867],[25.6217,61.15857],[25.6218,61.15855],[25.62182,61.15855],[25.62233,61.15844],[25.62271,61.15836],[25.62274,61.15836],[25.62319,61.15827],[25.62321,61.15827]],[[25.62321,61.15827],[25.62383,61.15815],[25.62386,61.15815],[25.6242,61.15808]],[[25.6242,61.15808],[25.62488,61.15794],[25.62489,61.15794],[25.62538,61.15785],[25.62579,61.15777],[25.6258,61.15776],[25.62612,61.15771],[25.62629,61.15769],[25.62632,61.15768],[25.62669,61.15764],[25.62683,61.15763],[25.62684,61.15763],[25.62732,61.1576],[25.62733,61.1576],[25.62785,61.15757],[25.62787,61.15757],[25.62841,61.15755],[25.62923,61.15752],[25.62924,61.15752]],[[25.62924,61.15752],[25.62984,61.1575],[25.63062,61.15748],[25.63064,61.15748],[25.63135,61.15746],[25.63136,61.15746],[25.63207,61.15745],[25.63267,61.15746],[25.6333,61.15748],[25.63333,61.15748],[25.63396,61.1575],[25.63398,61.1575],[25.63457,61.15754],[25.63459,61.15754],[25.63504,61.15755],[25.63515,61.15756],[25.63517,61.15756],[25.63546,61.15756],[25.63569,61.15755],[25.63573,61.15755],[25.63591,61.15754],[25.63606,61.15752],[25.63613,61.15752],[25.63617,61.15751],[25.63631,61.15749],[25.63648,61.15746],[25.63655,61.15745],[25.63658,61.15745],[25.63709,61.15733],[25.6371,61.15733],[25.63769,61.15722],[25.6381,61.15714],[25.63813,61.15714],[25.63872,61.15703],[25.63875,61.15702],[25.63928,61.15693],[25.63973,61.15684],[25.63976,61.15684],[25.6402,61.15676],[25.64058,61.15668],[25.64065,61.15667],[25.64067,61.15666],[25.64087,61.15661],[25.64103,61.15657],[25.64113,61.15654],[25.64114,61.15654],[25.6413,61.15648],[25.6415,61.15641],[25.64156,61.15638],[25.64156,61.15638],[25.64197,61.15619],[25.64199,61.15618],[25.64255,61.15592],[25.64257,61.15591],[25.64258,61.1559],[25.64293,61.15571],[25.64294,61.1557],[25.64327,61.15551]],[[25.64327,61.15551],[25.64382,61.15515]],[[25.64382,61.15515],[25.6441,61.15496],[25.6441,61.15495],[25.64459,61.15463],[25.64459,61.15463],[25.64501,61.15436],[25.64502,61.15435],[25.64559,61.15402],[25.64561,61.15401],[25.64614,61.15371],[25.64615,61.1537],[25.64665,61.15344],[25.64667,61.15343],[25.6471,61.15318],[25.64712,61.15317],[25.64746,61.15298],[25.64747,61.15297],[25.6477,61.15283],[25.64779,61.15277],[25.64779,61.15277],[25.64796,61.15265],[25.64805,61.15257],[25.64806,61.15257],[25.64819,61.15244],[25.64827,61.15236],[25.64828,61.15235],[25.64847,61.15211],[25.6485,61.15207],[25.64853,61.15203],[25.64854,61.15202],[25.64859,61.15196],[25.64859,61.15194]],[[25.64859,61.15194],[25.64869,61.15181],[25.64881,61.15164],[25.64882,61.15163]],[[25.64882,61.15163],[25.64884,61.15161],[25.64901,61.15133],[25.64902,61.15131],[25.64916,61.15107],[25.64916,61.15107],[25.64932,61.15075],[25.64932,61.15074],[25.64948,61.15047],[25.64954,61.15038],[25.64976,61.15009],[25.64979,61.15006],[25.6498,61.15005],[25.6502,61.14962],[25.6502,61.14962],[25.65048,61.14933],[25.6505,61.14931],[25.65079,61.14904],[25.65087,61.14898],[25.65089,61.14897],[25.65133,61.14864],[25.65135,61.14863],[25.65158,61.14846],[25.65159,61.14846],[25.65175,61.14836],[25.65176,61.14835]],[[25.65176,61.14835],[25.65177,61.14835],[25.65178,61.14834],[25.65216,61.14812],[25.65218,61.14811],[25.65256,61.14789],[25.65288,61.14771],[25.65293,61.14769],[25.65294,61.14768],[25.65309,61.14758],[25.65329,61.14743],[25.6533,61.14742],[25.65334,61.14739]],[[25.65334,61.14739],[25.65364,61.14716],[25.65366,61.14715],[25.65367,61.14714],[25.65385,61.14698],[25.65398,61.14685],[25.65398,61.14684],[25.65424,61.14654],[25.65424,61.14654],[25.65447,61.14623],[25.65466,61.14596],[25.65467,61.14595],[25.6549,61.14566],[25.6549,61.14566],[25.65515,61.14539],[25.65516,61.14538],[25.65543,61.14513],[25.65544,61.14512],[25.65569,61.14492],[25.6557,61.14491],[25.65599,61.1447],[25.656,61.14469]],[[25.656,61.14469],[25.65631,61.14451],[25.6567,61.14429],[25.65672,61.14429],[25.6572,61.14404],[25.65722,61.14404],[25.65758,61.14386],[25.65759,61.14385],[25.65793,61.14366]],[[25.65793,61.14366],[25.6583,61.14341],[25.65831,61.14341],[25.65865,61.14317],[25.65866,61.14317],[25.65901,61.14294],[25.65914,61.14285],[25.65919,61.14282],[25.65934,61.14274],[25.65934,61.14274]],[[25.65934,61.14274],[25.65949,61.14266],[25.65951,61.14265],[25.65967,61.14257]],[[25.65967,61.14257],[25.66008,61.14241]],[[25.66008,61.14241],[25.66034,61.14231],[25.66036,61.1423],[25.66069,61.14218],[25.66072,61.14217],[25.66106,61.14206],[25.66107,61.14206]],[[25.66107,61.14206],[25.66172,61.14185],[25.66173,61.14185],[25.66197,61.14177],[25.66199,61.14176]],[[25.66199,61.14176],[25.66223,61.14168],[25.66224,61.14168],[25.66263,61.14153],[25.66265,61.14153],[25.66273,61.1415],[25.66302,61.14139],[25.66304,61.14139],[25.66334,61.14128],[25.66335,61.14128]],[[25.66335,61.14128],[25.66354,61.14122],[25.66354,61.14121],[25.66398,61.14108],[25.66404,61.14106],[25.66407,61.14105],[25.66442,61.14095],[25.66445,61.14095],[25.66474,61.14087],[25.66475,61.14086]],[[25.66475,61.14086],[25.66479,61.14085],[25.66525,61.14074],[25.66532,61.14072],[25.66532,61.14072],[25.66583,61.14061],[25.66585,61.14061],[25.66683,61.1404],[25.66685,61.1404],[25.66706,61.14036],[25.66708,61.14036],[25.66794,61.14019],[25.66797,61.14019]],[[25.66797,61.14019],[25.66798,61.14018],[25.66825,61.14013],[25.66828,61.14013],[25.66869,61.14004],[25.66871,61.14004],[25.66927,61.13994],[25.66929,61.13993]],[[25.66929,61.13993],[25.67023,61.13975],[25.67026,61.13975],[25.67109,61.1396],[25.6711,61.13959],[25.67163,61.13951],[25.67166,61.1395],[25.67169,61.1395],[25.67194,61.13947],[25.67205,61.13946],[25.67208,61.13945],[25.67226,61.13944],[25.67245,61.13943],[25.67248,61.13943],[25.67249,61.13943],[25.67271,61.13942],[25.67272,61.13942],[25.67317,61.13942],[25.67318,61.13942],[25.67362,61.13943],[25.67364,61.13943],[25.67434,61.13946],[25.67438,61.13946],[25.67467,61.13947],[25.67469,61.13947],[25.67488,61.13947],[25.67491,61.13947]],[[25.67491,61.13947],[25.67495,61.13947],[25.67496,61.13947],[25.67507,61.13948],[25.67522,61.13948],[25.67524,61.13949],[25.6755,61.1395],[25.67553,61.1395],[25.67584,61.13953]],[[25.67584,61.13953],[25.67591,61.13954],[25.67594,61.13954],[25.67623,61.13957],[25.67637,61.13959],[25.67639,61.1396],[25.67671,61.13965],[25.67685,61.13968],[25.67687,61.13968],[25.67724,61.13976],[25.67725,61.13976],[25.67763,61.13984],[25.678,61.13993],[25.67803,61.13993],[25.67833,61.14001],[25.67835,61.14001]],[[25.67835,61.14001],[25.6786,61.14007]],[[25.6786,61.14007],[25.67861,61.14007],[25.67865,61.14008]]]},"properties":{"name":"Maantie 313, jalankulku- ja pyöräilyväylän rakentaminen välille Loukkuharju - Vesivehmaa, Asikkala","kind":"project","ptype":"road","subtype":"Tiehanke","status":"kaynnissa","date":"2022–2024","url":"https://vayla.fi/hankkeet","source":"Väylävirasto"}},{"type":"Feature","geometry":{"type":"MultiLineString","coordinates":[[[25.6842,61.50428],[25.68414,61.50425],[25.68391,61.50411],[25.68389,61.5041],[25.68373,61.504],[25.68366,61.50396]],[[25.68366,61.50396],[25.68349,61.50389]],[[25.68349,61.50389],[25.68344,61.50387],[25.68338,61.50385],[25.68336,61.50384],[25.68326,61.50382]]]},"properties":{"name":"Maantie 410 Sysmäntie ja maantie 413 Valittulantie valokuituverkon rakentaminen, Sysmä","kind":"project","ptype":"road","subtype":"Tiehanke","status":"kaynnissa","date":"2025–2026","url":"https://vayla.fi/hankkeet","source":"Väylävirasto"}},{"type":"Feature","geometry":{"type":"MultiLineString","coordinates":[[[25.69573,61.49846],[25.69572,61.49847],[25.6957,61.49848],[25.69531,61.49874],[25.6953,61.49875],[25.69483,61.49907],[25.69482,61.49908],[25.6948,61.49909]],[[25.6948,61.49909],[25.69446,61.49932],[25.69445,61.49933],[25.6942,61.49951],[25.69418,61.49952],[25.69371,61.49984],[25.69369,61.49985],[25.69337,61.50007],[25.69335,61.50008],[25.69334,61.50009]],[[25.69334,61.50009],[25.6931,61.50024]],[[25.6931,61.50024],[25.69292,61.50034],[25.69291,61.50035],[25.69248,61.50059],[25.69246,61.50061]],[[25.69246,61.50061],[25.69244,61.50061],[25.69215,61.50078],[25.69214,61.50079],[25.69209,61.50082],[25.69185,61.50093],[25.69183,61.50094],[25.69145,61.50111],[25.69144,61.50111]],[[25.69144,61.50111],[25.691,61.50128],[25.69099,61.50129],[25.69081,61.50135],[25.69074,61.50137],[25.69055,61.50143],[25.69054,61.50143]],[[25.69054,61.50143],[25.69051,61.50144],[25.69006,61.50157],[25.69003,61.50158],[25.6899,61.50161],[25.68956,61.50168],[25.68954,61.50168]],[[25.68954,61.50168],[25.68916,61.50176],[25.68914,61.50176],[25.68876,61.50183],[25.68874,61.50183],[25.68842,61.50188],[25.6884,61.50188]],[[25.6884,61.50188],[25.68814,61.50191],[25.68811,61.50191],[25.68767,61.50196],[25.68766,61.50197]],[[25.68766,61.50197],[25.68765,61.50197],[25.6875,61.50198],[25.6872,61.50201],[25.68717,61.50201],[25.68661,61.50206],[25.68609,61.5021],[25.68605,61.5021],[25.68604,61.5021],[25.68602,61.5021]],[[25.68602,61.5021],[25.68599,61.50211],[25.6857,61.50215],[25.68569,61.50215],[25.68559,61.50217],[25.68548,61.50219],[25.68542,61.5022],[25.68535,61.50222],[25.68532,61.50223],[25.6853,61.50224],[25.68524,61.50226],[25.68518,61.50228],[25.68502,61.50235]],[[25.68502,61.50235],[25.68453,61.50256]],[[25.68453,61.50256],[25.68451,61.50256],[25.68435,61.50264],[25.68407,61.50278],[25.68388,61.50289],[25.68379,61.50295],[25.68373,61.503],[25.68371,61.50301],[25.68369,61.50303],[25.68364,61.50307],[25.68358,61.50314],[25.68349,61.50324],[25.68349,61.50325],[25.68325,61.50359],[25.68324,61.50359]],[[25.68324,61.50359],[25.68316,61.5037]]]},"properties":{"name":"Maantie 410 Sysmäntie ja maantie 413 Valittulantie valokuituverkon rakentaminen, Sysmä","kind":"project","ptype":"road","subtype":"Tiehanke","status":"kaynnissa","date":"2025–2026","url":"https://vayla.fi/hankkeet","source":"Väylävirasto"}},{"type":"Feature","geometry":{"type":"MultiLineString","coordinates":[[[25.4907,60.98613],[25.49089,60.98609]],[[25.49089,60.98609],[25.49122,60.98603],[25.49128,60.98602]],[[25.49128,60.98602],[25.4918,60.98592]],[[25.4918,60.98592],[25.49184,60.98591],[25.49262,60.98576],[25.49265,60.98575]],[[25.49265,60.98575],[25.49272,60.98574]]]},"properties":{"name":"Maantien 2955 (Soramäentie) kiertoliittymän rakentaminen Tiilikankaantien liittymän kohdalla, Hollola","kind":"project","ptype":"road","subtype":"Tiehanke","status":"kaynnissa","date":"2025–2025","url":"https://vayla.fi/hankkeet","source":"Väylävirasto"}},{"type":"Feature","geometry":{"type":"MultiLineString","coordinates":[[[25.48842,60.98654],[25.48912,60.98641]],[[25.48912,60.98641],[25.48997,60.98626]],[[25.48997,60.98626],[25.49,60.98625],[25.49002,60.98625]],[[25.49002,60.98625],[25.49015,60.98623]]]},"properties":{"name":"Maantien 2955 (Soramäentie) kiertoliittymän rakentaminen Tiilikankaantien liittymän kohdalla, Hollola","kind":"project","ptype":"road","subtype":"Tiehanke","status":"kaynnissa","date":"2025–2025","url":"https://vayla.fi/hankkeet","source":"Väylävirasto"}},{"type":"Feature","geometry":{"type":"MultiLineString","coordinates":[[[25.58044,60.95269],[25.5806,60.95267],[25.58097,60.95266],[25.58134,60.95265],[25.58171,60.95265],[25.58208,60.95264],[25.58245,60.95264],[25.58282,60.95264],[25.58319,60.95265],[25.58356,60.95265],[25.58392,60.95266],[25.58415,60.95267],[25.58438,60.95267]],[[25.58438,60.95267],[25.58448,60.95268],[25.58466,60.95268],[25.58503,60.9527],[25.58539,60.95272],[25.58576,60.95274],[25.58613,60.95276],[25.58649,60.95279],[25.58686,60.95282],[25.58722,60.95286],[25.58758,60.95289],[25.58794,60.95293],[25.5883,60.95297],[25.58866,60.95302],[25.58901,60.95307],[25.58936,60.95312],[25.58972,60.95317],[25.59007,60.95323],[25.59042,60.95329],[25.59076,60.95335],[25.59111,60.95341],[25.59145,60.95348],[25.59178,60.95355],[25.59211,60.95363],[25.59245,60.95371],[25.59278,60.95379],[25.59311,60.95387],[25.59343,60.95396],[25.59376,60.95404],[25.59408,60.95413],[25.5944,60.95422],[25.59467,60.9543]],[[25.59467,60.9543],[25.59485,60.95435],[25.59504,60.9544],[25.59535,60.95449],[25.59549,60.95453]],[[25.59549,60.95453],[25.59574,60.9546]],[[25.59574,60.9546],[25.59591,60.95464],[25.59608,60.95469]],[[25.59608,60.95469],[25.59632,60.95475],[25.59665,60.95483],[25.59687,60.95489]],[[25.59687,60.95489],[25.59698,60.95491],[25.59732,60.95499],[25.59766,60.95506],[25.598,60.95513],[25.59834,60.9552],[25.59868,60.95526],[25.59903,60.95532],[25.59938,60.95538],[25.59973,60.95544],[25.60008,60.95549],[25.60044,60.95554],[25.6008,60.95558],[25.60116,60.95562],[25.60152,60.95566],[25.60188,60.9557],[25.60224,60.95573],[25.60261,60.95576],[25.60297,60.95578],[25.60334,60.95581],[25.6037,60.95583],[25.60407,60.95584],[25.60444,60.95586],[25.60481,60.95587],[25.60518,60.95588],[25.60554,60.95589],[25.60591,60.9559],[25.60628,60.9559],[25.60665,60.95591],[25.60702,60.95591],[25.60739,60.95591],[25.60776,60.9559],[25.6078,60.9559],[25.60824,60.95589],[25.60886,60.95587],[25.60947,60.95585],[25.61009,60.95582],[25.6107,60.95578]],[[25.6107,60.95578],[25.61133,60.95574],[25.61195,60.95569],[25.61257,60.95563]],[[25.61257,60.95563],[25.61295,60.9556],[25.61332,60.95556]],[[25.61332,60.95556],[25.61335,60.95555],[25.61338,60.95555],[25.61341,60.95555],[25.61343,60.95554],[25.61346,60.95554],[25.61349,60.95554],[25.61352,60.95553],[25.61354,60.95553],[25.61356,60.95553],[25.61359,60.95553],[25.61362,60.95552],[25.61365,60.95552],[25.61367,60.95552],[25.6137,60.95551],[25.61373,60.95551],[25.61376,60.95551],[25.61379,60.9555],[25.61381,60.9555],[25.61384,60.9555],[25.61387,60.95549],[25.6139,60.95549],[25.61392,60.95549],[25.61395,60.95548],[25.61398,60.95548],[25.61401,60.95548],[25.61403,60.95547],[25.61406,60.95547],[25.61409,60.95547],[25.61412,60.95546],[25.61415,60.95546],[25.61417,60.95546],[25.6142,60.95545],[25.61423,60.95545],[25.61426,60.95545],[25.61428,60.95544],[25.61431,60.95544],[25.61434,60.95544],[25.61437,60.95543],[25.61439,60.95543],[25.61442,60.95543],[25.61445,60.95542],[25.61448,60.95542],[25.61451,60.95542],[25.61453,60.95541],[25.61456,60.95541],[25.61459,60.95541],[25.61462,60.9554],[25.61464,60.9554],[25.61467,60.9554],[25.6147,60.95539],[25.61473,60.95539],[25.61475,60.95539],[25.61478,60.95538],[25.61481,60.95538],[25.61484,60.95538],[25.61485,60.95537],[25.61489,60.95537],[25.61494,60.95536],[25.61498,60.95536],[25.61502,60.95535],[25.61506,60.95535],[25.6151,60.95534],[25.61515,60.95534],[25.61519,60.95533],[25.61523,60.95533],[25.61527,60.95532],[25.61531,60.95532],[25.61536,60.95531],[25.6154,60.95531],[25.61544,60.9553],[25.61548,60.9553],[25.61552,60.95529],[25.61557,60.95529],[25.61561,60.95528],[25.61565,60.95528],[25.61569,60.95527],[25.61573,60.95527],[25.61577,60.95526],[25.61582,60.95526],[25.61586,60.95525],[25.6159,60.95525],[25.61594,60.95524],[25.61598,60.95524],[25.61603,60.95523],[25.61607,60.95522],[25.61611,60.95522],[25.61615,60.95521],[25.61619,60.95521],[25.61624,60.9552],[25.61628,60.9552],[25.61632,60.95519],[25.61636,60.95519],[25.6164,60.95518],[25.61645,60.95518],[25.61649,60.95517],[25.61653,60.95517],[25.61657,60.95516],[25.61661,60.95516],[25.61666,60.95515],[25.6167,60.95515],[25.61674,60.95514],[25.61678,60.95514],[25.61682,60.95513],[25.61687,60.95513],[25.61691,60.95512],[25.61695,60.95512],[25.61699,60.95512],[25.61703,60.95511],[25.61708,60.95511],[25.61712,60.9551],[25.61716,60.9551],[25.6172,60.95509],[25.61724,60.95509],[25.61728,60.95508]],[[25.61728,60.95508],[25.61732,60.95508],[25.61736,60.95507],[25.6174,60.95507],[25.61744,60.95506],[25.61749,60.95506],[25.61753,60.95505],[25.61757,60.95505],[25.61761,60.95504],[25.61766,60.95504],[25.61767,60.95504]],[[25.61767,60.95504],[25.61771,60.95503],[25.61775,60.95503],[25.61779,60.95503],[25.61783,60.95502],[25.61788,60.95502],[25.61792,60.95501],[25.61796,60.95501],[25.61874,60.95493],[25.61952,60.95485],[25.6203,60.95478],[25.62108,60.95472],[25.62187,60.95466],[25.62266,60.95461],[25.62345,60.95457],[25.62424,60.95453]],[[25.62424,60.95453],[25.6247,60.95451],[25.62517,60.95449]],[[25.62517,60.95449],[25.62594,60.95447],[25.62671,60.95445],[25.62748,60.95443]],[[25.62748,60.95443],[25.62815,60.95443],[25.62881,60.95442]],[[25.62881,60.95442],[25.6293,60.95442],[25.63001,60.95443],[25.63073,60.95444],[25.63159,60.95446],[25.63245,60.95449],[25.63269,60.9545]],[[25.63269,60.9545],[25.63352,60.95453],[25.63435,60.95457],[25.63518,60.95462],[25.636,60.95467],[25.63683,60.95473],[25.63765,60.9548],[25.63847,60.95487],[25.63929,60.95495],[25.64011,60.95503]],[[25.64011,60.95503],[25.64039,60.95507],[25.64123,60.95516],[25.64207,60.95526],[25.64256,60.95533],[25.64305,60.95539],[25.64316,60.95541]],[[25.64316,60.95541],[25.64344,60.95545],[25.64414,60.95555],[25.64483,60.95566],[25.64551,60.95577],[25.6462,60.95589],[25.64624,60.95589],[25.64628,60.9559],[25.64632,60.95591],[25.64636,60.95592],[25.6464,60.95592],[25.64644,60.95593],[25.64648,60.95594],[25.6465,60.95594],[25.64652,60.95594],[25.64656,60.95595],[25.6466,60.95596],[25.64664,60.95597],[25.64668,60.95597],[25.64672,60.95598],[25.64676,60.95599],[25.6468,60.95599],[25.64684,60.956],[25.64688,60.95601],[25.64692,60.95602],[25.64696,60.95602],[25.647,60.95603],[25.64704,60.95604],[25.64708,60.95605],[25.64712,60.95605],[25.64716,60.95606],[25.64719,60.95607],[25.64723,60.95607],[25.64727,60.95608],[25.64731,60.95609],[25.64735,60.9561],[25.64739,60.9561],[25.64743,60.95611],[25.64747,60.95612],[25.64751,60.95613],[25.64755,60.95613],[25.64759,60.95614],[25.64763,60.95615],[25.64767,60.95616],[25.64771,60.95616],[25.64775,60.95617],[25.64779,60.95618],[25.64783,60.95619],[25.64787,60.95619],[25.64791,60.9562],[25.64795,60.95621],[25.64799,60.95622],[25.64803,60.95622],[25.64807,60.95623],[25.64811,60.95624],[25.64815,60.95625],[25.64819,60.95625],[25.64823,60.95626],[25.64827,60.95627],[25.64831,60.95628],[25.64835,60.95628],[25.64839,60.95629],[25.64843,60.9563],[25.64847,60.95631],[25.64851,60.95631],[25.64855,60.95632],[25.64859,60.95633],[25.64862,60.95634],[25.64866,60.95634],[25.6487,60.95635],[25.64874,60.95636],[25.64878,60.95637],[25.64882,60.95638],[25.64886,60.95638],[25.6489,60.95639],[25.64894,60.9564],[25.64898,60.95641],[25.64902,60.95641],[25.64906,60.95642],[25.64908,60.95642],[25.64911,60.95643],[25.64913,60.95643],[25.64916,60.95644],[25.64918,60.95644],[25.64921,60.95645],[25.64923,60.95645],[25.64926,60.95646],[25.64928,60.95646],[25.64931,60.95647],[25.64933,60.95647],[25.64936,60.95648],[25.64938,60.95648],[25.64941,60.95649],[25.64943,60.95649],[25.64946,60.9565],[25.64948,60.9565],[25.64951,60.95651],[25.64953,60.95651],[25.64956,60.95652],[25.64958,60.95652],[25.64961,60.95653],[25.64963,60.95653],[25.64966,60.95653],[25.64968,60.95654],[25.64971,60.95654],[25.64973,60.95655],[25.64976,60.95655],[25.64978,60.95656],[25.64981,60.95656],[25.64983,60.95657],[25.64986,60.95657],[25.64988,60.95658],[25.64991,60.95658],[25.64993,60.95659],[25.64996,60.95659],[25.64998,60.9566],[25.65001,60.9566],[25.65004,60.95661],[25.65006,60.95661],[25.65009,60.95661],[25.65011,60.95662],[25.65014,60.95662],[25.65016,60.95663],[25.65019,60.95663],[25.65021,60.95664],[25.65024,60.95664],[25.65026,60.95665],[25.65029,60.95665],[25.65031,60.95666],[25.65034,60.95666],[25.65036,60.95666],[25.65039,60.95667],[25.65041,60.95667],[25.65044,60.95668],[25.65047,60.95668],[25.65047,60.95668],[25.6505,60.95669],[25.65052,60.95669],[25.65055,60.9567],[25.65058,60.9567],[25.6506,60.95671],[25.65063,60.95671],[25.65065,60.95671],[25.65068,60.95672],[25.6507,60.95672],[25.65073,60.95673],[25.65075,60.95673],[25.65078,60.95674],[25.6508,60.95674],[25.65083,60.95674],[25.65085,60.95675],[25.65088,60.95675],[25.6509,60.95676],[25.65093,60.95676],[25.65095,60.95677],[25.65098,60.95677],[25.65101,60.95677],[25.65103,60.95678],[25.65106,60.95678],[25.65108,60.95679],[25.65111,60.95679],[25.65113,60.95679],[25.65116,60.9568],[25.65118,60.9568],[25.65121,60.95681],[25.65123,60.95681],[25.65126,60.95681],[25.65129,60.95682],[25.65131,60.95682],[25.65134,60.95683],[25.65136,60.95683],[25.65139,60.95683],[25.65141,60.95684],[25.65144,60.95684],[25.65147,60.95684],[25.65149,60.95685],[25.65152,60.95685],[25.65154,60.95686],[25.65157,60.95686],[25.65159,60.95686],[25.65162,60.95687],[25.65165,60.95687],[25.65167,60.95687],[25.6517,60.95688],[25.65172,60.95688],[25.65175,60.95688],[25.65177,60.95689],[25.6518,60.95689],[25.65183,60.95689],[25.65185,60.9569],[25.65188,60.9569],[25.6519,60.9569],[25.65192,60.95691]],[[25.65192,60.95691],[25.65217,60.95694]],[[25.65217,60.95694],[25.65247,60.95697],[25.65278,60.957]],[[25.65278,60.957],[25.65315,60.95703],[25.65352,60.95706],[25.6539,60.95708],[25.65428,60.9571]],[[25.65428,60.9571],[25.65468,60.95711],[25.65508,60.95711],[25.65548,60.95711],[25.65587,60.9571],[25.65627,60.95709],[25.65667,60.95707],[25.65707,60.95704],[25.65746,60.95701],[25.65785,60.95697]],[[25.65785,60.95697],[25.65788,60.95697],[25.6579,60.95697],[25.65793,60.95697],[25.65796,60.95696],[25.65798,60.95696],[25.65801,60.95696],[25.65804,60.95695],[25.65806,60.95695],[25.65809,60.95695],[25.65811,60.95695],[25.65813,60.95694],[25.65816,60.95694],[25.65819,60.95694],[25.65821,60.95693],[25.65824,60.95693],[25.65827,60.95693],[25.65829,60.95692],[25.65832,60.95692],[25.65835,60.95692],[25.65837,60.95691],[25.6584,60.95691]],[[25.6584,60.95691],[25.65843,60.95691],[25.65845,60.9569],[25.65848,60.9569],[25.65851,60.9569],[25.65853,60.95689],[25.65856,60.95689],[25.65858,60.95689],[25.65861,60.95688],[25.65864,60.95688],[25.65866,60.95688],[25.65869,60.95687],[25.65872,60.95687],[25.65874,60.95687],[25.65877,60.95686],[25.6588,60.95686],[25.65882,60.95686],[25.65885,60.95685],[25.65887,60.95685],[25.6589,60.95685],[25.65893,60.95684],[25.65895,60.95684],[25.65898,60.95683],[25.65901,60.95683],[25.65903,60.95683],[25.65906,60.95682],[25.65908,60.95682],[25.65911,60.95682],[25.65914,60.95681],[25.65916,60.95681],[25.65919,60.9568],[25.65922,60.9568],[25.65924,60.9568],[25.65927,60.95679],[25.65929,60.95679],[25.65932,60.95678],[25.65935,60.95678],[25.65937,60.95678],[25.6594,60.95677],[25.65943,60.95677],[25.65945,60.95676],[25.65948,60.95676],[25.6595,60.95676],[25.65953,60.95675],[25.65956,60.95675],[25.65958,60.95674],[25.65961,60.95674],[25.65964,60.95674],[25.65966,60.95673],[25.65969,60.95673],[25.65971,60.95672],[25.65974,60.95672],[25.65977,60.95671],[25.65979,60.95671],[25.65982,60.95671],[25.65984,60.9567],[25.65987,60.9567],[25.6599,60.95669],[25.65992,60.95669],[25.65995,60.95669],[25.65997,60.95668],[25.66,60.95668],[25.66003,60.95667],[25.66005,60.95667],[25.66008,60.95666],[25.6601,60.95666],[25.66013,60.95666],[25.66016,60.95665],[25.66018,60.95665],[25.66021,60.95664],[25.66023,60.95664],[25.66026,60.95663],[25.66029,60.95663],[25.66031,60.95663],[25.66034,60.95662],[25.66036,60.95662],[25.66039,60.95661],[25.66042,60.95661],[25.66044,60.9566],[25.66047,60.9566],[25.66049,60.95659],[25.66052,60.95659],[25.66055,60.95659],[25.66057,60.95658],[25.6606,60.95658],[25.66062,60.95657],[25.66065,60.95657],[25.66068,60.95656],[25.6607,60.95656],[25.66073,60.95656],[25.66075,60.95655],[25.66078,60.95655],[25.66081,60.95654],[25.66083,60.95654],[25.66086,60.95653],[25.66088,60.95653],[25.66091,60.95652],[25.66092,60.95652],[25.66304,60.95616],[25.66347,60.95609],[25.6639,60.95603]],[[25.6639,60.95603],[25.66429,60.95598],[25.66469,60.95593],[25.66508,60.95589],[25.66548,60.95586],[25.66588,60.95583]],[[25.66588,60.95583],[25.66639,60.9558],[25.66691,60.95577],[25.66742,60.95576],[25.66794,60.95575],[25.66845,60.95574],[25.66897,60.95575],[25.66948,60.95576],[25.67,60.95577],[25.67051,60.9558],[25.67102,60.95583],[25.67153,60.95587],[25.67203,60.95591],[25.67206,60.95592],[25.67208,60.95592],[25.67211,60.95592],[25.67213,60.95592],[25.67216,60.95593],[25.67218,60.95593],[25.67221,60.95593],[25.67223,60.95593],[25.67225,60.95594],[25.67228,60.95594],[25.6723,60.95594],[25.67233,60.95594],[25.67235,60.95595],[25.67238,60.95595],[25.6724,60.95595],[25.67242,60.95595],[25.67245,60.95596],[25.67247,60.95596],[25.6725,60.95596],[25.67252,60.95596],[25.67255,60.95597],[25.67257,60.95597],[25.67259,60.95597],[25.67262,60.95597],[25.67264,60.95598],[25.67267,60.95598],[25.67269,60.95598],[25.67272,60.95599],[25.67274,60.95599],[25.67276,60.95599],[25.67279,60.95599],[25.67281,60.956],[25.67284,60.956],[25.67286,60.956],[25.67288,60.956],[25.67291,60.95601],[25.67293,60.95601],[25.67296,60.95601],[25.67298,60.95602],[25.67301,60.95602],[25.67303,60.95602],[25.67305,60.95602],[25.67308,60.95603],[25.6731,60.95603],[25.67313,60.95603],[25.67315,60.95604],[25.67318,60.95604],[25.6732,60.95604],[25.67322,60.95604],[25.67325,60.95605],[25.67327,60.95605],[25.6733,60.95605],[25.67332,60.95606],[25.67334,60.95606],[25.67337,60.95606],[25.67339,60.95606],[25.67342,60.95607],[25.67344,60.95607],[25.67346,60.95607],[25.67349,60.95608],[25.67351,60.95608],[25.67354,60.95608],[25.67356,60.95608],[25.67359,60.95609],[25.67361,60.95609],[25.67363,60.95609],[25.67366,60.9561],[25.67368,60.9561],[25.67371,60.9561],[25.67374,60.95611],[25.67377,60.95611],[25.67381,60.95611],[25.67384,60.95612],[25.67387,60.95612],[25.6739,60.95613],[25.67393,60.95613],[25.67396,60.95613],[25.67399,60.95614],[25.67403,60.95614],[25.67406,60.95614],[25.67409,60.95615],[25.67412,60.95615],[25.67415,60.95616],[25.67418,60.95616],[25.67422,60.95616],[25.67425,60.95617],[25.67428,60.95617],[25.67431,60.95617],[25.67434,60.95618],[25.67437,60.95618],[25.67441,60.95619],[25.67444,60.95619],[25.67447,60.95619],[25.6745,60.9562],[25.67453,60.9562],[25.67456,60.9562],[25.67459,60.95621],[25.67463,60.95621],[25.67466,60.95621],[25.67469,60.95622],[25.67472,60.95622],[25.67475,60.95623],[25.67478,60.95623],[25.67482,60.95623],[25.67485,60.95624],[25.67488,60.95624],[25.67491,60.95624],[25.67494,60.95625],[25.67497,60.95625],[25.67501,60.95625],[25.67504,60.95626],[25.67507,60.95626],[25.6751,60.95627],[25.67513,60.95627],[25.67516,60.95627],[25.6752,60.95628],[25.67523,60.95628],[25.67526,60.95628],[25.67529,60.95629],[25.67532,60.95629],[25.67535,60.95629],[25.67539,60.9563],[25.67542,60.9563],[25.67545,60.9563],[25.67548,60.95631],[25.67551,60.95631],[25.67554,60.95631],[25.67558,60.95632],[25.67561,60.95632],[25.67564,60.95632],[25.67567,60.95633],[25.67569,60.95633],[25.67635,60.95639],[25.67702,60.95645],[25.67769,60.95651],[25.67835,60.95655],[25.67902,60.95659],[25.6797,60.95662],[25.68037,60.95665],[25.68104,60.95667],[25.68172,60.95668],[25.68239,60.95668],[25.68307,60.95668],[25.68374,60.95667]],[[25.68374,60.95667],[25.68384,60.95667],[25.68453,60.95666],[25.68522,60.95664]],[[25.68522,60.95664],[25.68566,60.95662],[25.68615,60.9566],[25.68664,60.95658],[25.68714,60.95655],[25.68772,60.95651],[25.6883,60.95646],[25.68838,60.95645]],[[25.68838,60.95645],[25.68888,60.95641],[25.68945,60.95635],[25.69003,60.95629],[25.69005,60.95629],[25.69008,60.95628],[25.6901,60.95628],[25.69013,60.95628],[25.69015,60.95627],[25.69018,60.95627],[25.6902,60.95627],[25.69023,60.95626],[25.69025,60.95626],[25.69028,60.95626],[25.6903,60.95626]],[[25.6903,60.95626],[25.69032,60.95625],[25.69035,60.95625],[25.69037,60.95625],[25.6904,60.95625],[25.69042,60.95624],[25.69045,60.95624],[25.69048,60.95624],[25.6905,60.95623],[25.69053,60.95623],[25.69055,60.95623],[25.69056,60.95623]],[[25.69056,60.95623],[25.69058,60.95622],[25.69061,60.95622],[25.69063,60.95622],[25.69066,60.95621],[25.69068,60.95621],[25.69071,60.95621],[25.69074,60.95621],[25.69076,60.9562],[25.69079,60.9562],[25.69081,60.9562],[25.69084,60.95619],[25.69086,60.95619],[25.69089,60.95619],[25.69091,60.95618],[25.69094,60.95618],[25.69096,60.95618],[25.69099,60.95617],[25.69101,60.95617],[25.69104,60.95617],[25.69107,60.95617],[25.69109,60.95616],[25.6911,60.95616],[25.69112,60.95616],[25.69113,60.95616],[25.69115,60.95616],[25.69116,60.95615],[25.69118,60.95615],[25.69119,60.95615],[25.69121,60.95615],[25.69123,60.95615],[25.69124,60.95614],[25.69126,60.95614],[25.69127,60.95614],[25.69129,60.95614],[25.6913,60.95614],[25.69132,60.95613],[25.69133,60.95613],[25.69135,60.95613],[25.69136,60.95613],[25.69138,60.95613],[25.6914,60.95613],[25.69141,60.95612],[25.69143,60.95612],[25.69144,60.95612],[25.69146,60.95612],[25.69147,60.95612],[25.69149,60.95611],[25.6915,60.95611],[25.69152,60.95611],[25.69154,60.95611],[25.69155,60.95611],[25.69157,60.95611],[25.69158,60.9561],[25.6916,60.9561],[25.69161,60.9561],[25.69163,60.9561],[25.69164,60.9561],[25.69166,60.9561],[25.69168,60.95609],[25.69169,60.95609],[25.69171,60.95609],[25.69172,60.95609],[25.69174,60.95609],[25.69175,60.95609],[25.69177,60.95608],[25.69178,60.95608],[25.6918,60.95608],[25.69182,60.95608],[25.69183,60.95608],[25.69185,60.95608],[25.69186,60.95607],[25.69188,60.95607],[25.69189,60.95607],[25.69191,60.95607],[25.69192,60.95607],[25.69194,60.95607],[25.69196,60.95606],[25.69197,60.95606],[25.69199,60.95606],[25.692,60.95606],[25.69202,60.95606],[25.69203,60.95606],[25.69205,60.95606],[25.69207,60.95605],[25.69208,60.95605],[25.6921,60.95605],[25.69211,60.95605],[25.69213,60.95605],[25.69214,60.95605],[25.69216,60.95605],[25.69218,60.95605],[25.69219,60.95604],[25.69221,60.95604],[25.69222,60.95604],[25.69224,60.95604],[25.69225,60.95604],[25.69254,60.95602],[25.69283,60.95601],[25.69312,60.956],[25.69341,60.956],[25.6937,60.956],[25.69399,60.95602],[25.69428,60.95603],[25.69456,60.95606],[25.69485,60.95609],[25.69513,60.95612],[25.69541,60.95616],[25.69568,60.95621]],[[25.69568,60.95621],[25.69595,60.95626],[25.69622,60.95632],[25.69648,60.95638],[25.69674,60.95645],[25.69699,60.95653],[25.69723,60.95661],[25.69746,60.95669],[25.69769,60.95678],[25.69791,60.95688],[25.69812,60.95698],[25.69832,60.95708],[25.69851,60.95719]],[[25.69851,60.95719],[25.69859,60.95724],[25.69874,60.95732],[25.69882,60.95737],[25.69896,60.95746],[25.69909,60.95757],[25.69922,60.95767],[25.69963,60.95807]]]},"properties":{"name":"Vt 12 Lahden eteläinen kehätie -hankekokonaisuus","kind":"project","ptype":"road","subtype":"Tiehanke","status":"kaynnissa","date":"2017–2026","url":"https://vayla.fi/vt12letke","source":"Väylävirasto"}},{"type":"Feature","geometry":{"type":"MultiLineString","coordinates":[[[25.46564,60.98178],[25.46653,60.9817],[25.46742,60.98162],[25.46827,60.98156],[25.46915,60.98149],[25.46999,60.98144],[25.47067,60.9814],[25.47155,60.98136],[25.47247,60.98132]],[[25.47247,60.98132],[25.47267,60.98131]],[[25.47267,60.98131],[25.47307,60.9813],[25.4734,60.98129]],[[25.4734,60.98129],[25.47353,60.98129]],[[25.47353,60.98129],[25.47377,60.98128],[25.47414,60.98127],[25.47451,60.98125],[25.47488,60.98124],[25.47524,60.98123],[25.47561,60.98121],[25.47598,60.98119],[25.47635,60.98117],[25.47671,60.98115],[25.47708,60.98113],[25.47745,60.9811],[25.47781,60.98108],[25.47818,60.98105],[25.47854,60.98102],[25.4789,60.98099],[25.47927,60.98095],[25.47945,60.98093]],[[25.47945,60.98093],[25.47963,60.98092],[25.47999,60.98088],[25.48035,60.98084],[25.48071,60.9808],[25.48107,60.98076],[25.48125,60.98073]],[[25.48125,60.98073],[25.48129,60.98073],[25.48137,60.98072]],[[25.48137,60.98072],[25.4816,60.98069],[25.48196,60.98064],[25.48232,60.9806],[25.48267,60.98055],[25.48303,60.9805],[25.48339,60.98045],[25.48374,60.9804],[25.48409,60.98035],[25.48445,60.9803],[25.4848,60.98025],[25.48502,60.98021],[25.4852,60.98019]],[[25.4852,60.98019],[25.48551,60.98014],[25.4857,60.98011]],[[25.4857,60.98011],[25.48586,60.98008],[25.48621,60.98003],[25.48656,60.97997],[25.48691,60.97991],[25.48726,60.97985],[25.4876,60.97979],[25.48795,60.97973],[25.4883,60.97967],[25.48864,60.9796],[25.48899,60.97954],[25.48933,60.97947],[25.48967,60.9794],[25.49001,60.97933],[25.49035,60.97926],[25.49069,60.97919],[25.49103,60.97912],[25.49136,60.97904],[25.4917,60.97897],[25.49203,60.97889],[25.49236,60.97881],[25.49269,60.97873],[25.49302,60.97865],[25.49335,60.97857],[25.49368,60.97849],[25.494,60.9784],[25.49433,60.97832],[25.49465,60.97823],[25.49497,60.97814],[25.49529,60.97805],[25.49561,60.97796],[25.49593,60.97787],[25.49625,60.97778],[25.49656,60.97768],[25.49687,60.97759],[25.49719,60.97749],[25.4975,60.97739],[25.49767,60.97734]],[[25.49767,60.97734],[25.4978,60.97729],[25.49811,60.97719],[25.49842,60.97709],[25.49872,60.97699],[25.49902,60.97689],[25.49911,60.97686]],[[25.49911,60.97686],[25.49932,60.97678],[25.49949,60.97672],[25.49966,60.97666]],[[25.49966,60.97666],[25.49977,60.97662],[25.49992,60.97657],[25.50002,60.97653]],[[25.50002,60.97653],[25.50021,60.97646],[25.50051,60.97635],[25.5008,60.97624],[25.50109,60.97613],[25.50138,60.97602],[25.50166,60.97591],[25.50195,60.97579],[25.50223,60.97568],[25.50251,60.97556],[25.50279,60.97544],[25.50307,60.97532],[25.50334,60.9752],[25.50361,60.97508],[25.50389,60.97496],[25.50416,60.97484],[25.50442,60.97472],[25.50469,60.97459],[25.50495,60.97447],[25.50521,60.97434],[25.50547,60.97421],[25.50573,60.97408],[25.50599,60.97395],[25.50624,60.97382],[25.50649,60.97369],[25.50674,60.97356],[25.50699,60.97342],[25.50723,60.97329],[25.50747,60.97315],[25.50763,60.97307]],[[25.50763,60.97307],[25.50775,60.973],[25.50787,60.97293],[25.50799,60.97286],[25.50811,60.97279]],[[25.50811,60.97279],[25.50819,60.97274],[25.50842,60.9726],[25.50866,60.97247],[25.50889,60.97232],[25.50911,60.97218],[25.50934,60.97204],[25.50956,60.9719],[25.50978,60.97175],[25.51,60.97161],[25.51022,60.97146],[25.51043,60.97132],[25.51064,60.97117],[25.51085,60.97102],[25.51106,60.97087],[25.51126,60.97072],[25.51146,60.97057],[25.51166,60.97042],[25.51186,60.97027],[25.51199,60.97017],[25.51206,60.97012],[25.51225,60.96997],[25.51244,60.96981],[25.51263,60.96966],[25.51283,60.96951],[25.51302,60.96935],[25.51321,60.9692],[25.5134,60.96905],[25.51359,60.96889],[25.51378,60.96874],[25.51398,60.96859],[25.51417,60.96843],[25.51437,60.96828],[25.51457,60.96813],[25.51477,60.96798],[25.51498,60.96783],[25.51519,60.96768],[25.5154,60.96754],[25.51561,60.96739],[25.51583,60.96725],[25.51605,60.9671],[25.51627,60.96696],[25.5165,60.96682],[25.51673,60.96668],[25.51696,60.96654],[25.5172,60.9664],[25.51743,60.96626],[25.51767,60.96613],[25.51792,60.96599],[25.51816,60.96586],[25.51841,60.96572],[25.51875,60.96555]],[[25.51875,60.96555],[25.51883,60.96551]],[[25.51883,60.96551],[25.51892,60.96546],[25.51918,60.96533],[25.51944,60.96521],[25.51965,60.9651]],[[25.51965,60.9651],[25.5197,60.96508],[25.51996,60.96495],[25.52023,60.96483],[25.5205,60.96471],[25.52077,60.96459],[25.52105,60.96447],[25.52132,60.96435],[25.5216,60.96423],[25.52189,60.96412],[25.52193,60.9641],[25.52198,60.96408],[25.52217,60.964],[25.52246,60.96389],[25.52275,60.96378],[25.52304,60.96367],[25.52333,60.96356],[25.52363,60.96345],[25.52392,60.96334],[25.52422,60.96324],[25.52453,60.96314],[25.52483,60.96303],[25.52514,60.96293],[25.52544,60.96284],[25.52575,60.96274],[25.52607,60.96264],[25.52638,60.96255],[25.5267,60.96246],[25.52702,60.96236],[25.52734,60.96227],[25.52766,60.96219],[25.52798,60.9621],[25.52831,60.96202],[25.52863,60.96193],[25.52896,60.96185],[25.52929,60.96177],[25.52941,60.96174]],[[25.52941,60.96174],[25.52964,60.96169]],[[25.52964,60.96169],[25.52996,60.96161],[25.53029,60.96154],[25.53063,60.96147],[25.53097,60.96139],[25.53131,60.96132],[25.53165,60.96125],[25.53199,60.96119],[25.53233,60.96112],[25.53268,60.96106],[25.53302,60.961],[25.53337,60.96094],[25.53372,60.96088],[25.53407,60.96082],[25.53442,60.96076],[25.53477,60.96071],[25.53513,60.96066],[25.53548,60.96061],[25.53584,60.96056],[25.53619,60.96051],[25.53655,60.96047],[25.53691,60.96042],[25.53727,60.96038],[25.53763,60.96034],[25.53799,60.9603],[25.53835,60.96026],[25.53871,60.96022],[25.53906,60.96018],[25.53941,60.96014]],[[25.53941,60.96014],[25.5417,60.95989]],[[25.5417,60.95989],[25.54311,60.95973]],[[25.54311,60.95973],[25.5433,60.95971]],[[25.5433,60.95971],[25.54375,60.95966],[25.54411,60.95962],[25.54447,60.95958],[25.54483,60.95954],[25.54519,60.9595],[25.54555,60.95946],[25.54591,60.95942],[25.54626,60.95938],[25.54662,60.95934],[25.54698,60.9593],[25.54734,60.95925],[25.5477,60.95921],[25.54805,60.95916],[25.54841,60.95911],[25.54877,60.95907],[25.54912,60.95902],[25.54947,60.95896],[25.54982,60.95891],[25.54983,60.95891],[25.55018,60.95886],[25.55053,60.9588],[25.55088,60.95875],[25.55123,60.95869],[25.55137,60.95867]],[[25.55137,60.95867],[25.55158,60.95863],[25.55193,60.95857],[25.55227,60.95851],[25.55262,60.95845],[25.55296,60.95838],[25.55331,60.95832],[25.55365,60.95825],[25.55399,60.95818],[25.55433,60.95811],[25.55467,60.95804],[25.55501,60.95797],[25.55514,60.95794]],[[25.55514,60.95794],[25.55535,60.9579],[25.55568,60.95782],[25.55602,60.95775],[25.55635,60.95767],[25.55652,60.95763],[25.5566,60.95761],[25.55664,60.9576],[25.55667,60.9576]],[[25.55667,60.9576],[25.5568,60.95756]],[[25.5568,60.95756],[25.55702,60.95751],[25.55734,60.95743],[25.55767,60.95735],[25.558,60.95727],[25.55833,60.95718],[25.55865,60.9571],[25.55897,60.95701],[25.5593,60.95692],[25.55962,60.95684],[25.55994,60.95675],[25.56026,60.95666],[25.56058,60.95657],[25.5609,60.95648],[25.56122,60.95639],[25.56222,60.95611]],[[25.56222,60.95611],[25.56522,60.95526],[25.56651,60.9549],[25.56669,60.95485]],[[25.56669,60.95485],[25.56697,60.95477],[25.56729,60.95468],[25.56761,60.95459],[25.56793,60.9545],[25.56793,60.9545],[25.56825,60.95442],[25.56858,60.95433],[25.56891,60.95425],[25.56923,60.95417],[25.56957,60.95409],[25.5699,60.95401],[25.57024,60.95394],[25.57057,60.95386],[25.57091,60.95379],[25.57125,60.95373],[25.5716,60.95366],[25.57194,60.95359],[25.57229,60.95353],[25.57263,60.95347],[25.57298,60.95341],[25.57333,60.95336],[25.57369,60.9533],[25.57404,60.95325],[25.57439,60.9532],[25.57475,60.95315],[25.57511,60.95311],[25.57546,60.95306],[25.57582,60.95302],[25.57618,60.95298],[25.57654,60.95295],[25.57661,60.95294]],[[25.57661,60.95294],[25.57683,60.95292]],[[25.57683,60.95292],[25.57691,60.95291],[25.57727,60.95288],[25.57763,60.95285],[25.578,60.95282],[25.57836,60.9528],[25.57873,60.95277],[25.5791,60.95275],[25.57946,60.95273],[25.57983,60.95272],[25.5802,60.9527],[25.58042,60.9527]]]},"properties":{"name":"Vt 12 Lahden eteläinen kehätie -hankekokonaisuus","kind":"project","ptype":"road","subtype":"Tiehanke","status":"kaynnissa","date":"2017–2026","url":"https://vayla.fi/vt12letke","source":"Väylävirasto"}},{"type":"Feature","geometry":{"type":"MultiLineString","coordinates":[[[25.67862,61.14007],[25.67895,61.14015],[25.67896,61.14015],[25.67932,61.14024],[25.67935,61.14024],[25.68015,61.14043],[25.68017,61.14043],[25.68055,61.14052],[25.68061,61.14054],[25.68063,61.14054],[25.68101,61.14062],[25.68102,61.14062],[25.68142,61.14072],[25.68143,61.14072],[25.68146,61.14073],[25.68147,61.14073],[25.68185,61.14082],[25.68188,61.14082],[25.68234,61.14094],[25.68237,61.14094],[25.68281,61.14104],[25.68283,61.14104],[25.6832,61.14113],[25.68321,61.14113],[25.68361,61.14123],[25.68364,61.14123],[25.68403,61.14133],[25.68406,61.14134],[25.68408,61.14134],[25.68446,61.14142],[25.68448,61.14143],[25.68448,61.14143],[25.68452,61.14144],[25.68539,61.14165],[25.68541,61.14165],[25.68628,61.14185],[25.68631,61.14186],[25.68688,61.14199],[25.68691,61.142],[25.68748,61.14212],[25.68749,61.14212],[25.6879,61.14221],[25.68791,61.14221],[25.68836,61.1423],[25.68839,61.14231],[25.68842,61.14231],[25.6887,61.14236],[25.68871,61.14236]],[[25.68871,61.14236],[25.68909,61.14242],[25.6892,61.14244],[25.68921,61.14244],[25.6896,61.1425],[25.68961,61.1425],[25.69011,61.14257],[25.69054,61.14263],[25.69055,61.14263],[25.69112,61.1427],[25.69116,61.1427],[25.69159,61.14276],[25.6916,61.14276],[25.69193,61.14279],[25.69196,61.1428],[25.69239,61.14285],[25.6924,61.14286],[25.69275,61.1429],[25.69276,61.1429],[25.69312,61.14295],[25.69315,61.14295],[25.69362,61.14301],[25.69363,61.14301],[25.69409,61.14306],[25.69502,61.14318],[25.69503,61.14318]],[[25.69503,61.14318],[25.69504,61.14318],[25.69554,61.14324],[25.69558,61.14325],[25.69605,61.1433],[25.69605,61.1433],[25.69644,61.14336],[25.69647,61.14336],[25.69686,61.14343],[25.697,61.14345],[25.69701,61.14346],[25.69718,61.14349],[25.6972,61.1435],[25.69734,61.14353],[25.69736,61.14354],[25.69778,61.14362],[25.69781,61.14363],[25.69805,61.14368],[25.69805,61.14368],[25.69829,61.14373],[25.6985,61.14377],[25.69853,61.14377],[25.69905,61.14387],[25.69907,61.14387],[25.69956,61.14396],[25.69957,61.14396],[25.69977,61.14401],[25.6998,61.14401],[25.70022,61.14408],[25.70026,61.14408],[25.7004,61.1441],[25.70047,61.14411],[25.7005,61.14412],[25.70076,61.14414],[25.70077,61.14414],[25.70103,61.14417],[25.70103,61.14417],[25.7011,61.14417],[25.70129,61.14418],[25.70152,61.14419],[25.70152,61.14419],[25.70171,61.1442],[25.70179,61.1442],[25.70201,61.1442],[25.70204,61.1442],[25.70223,61.1442],[25.70225,61.1442],[25.70243,61.14419],[25.70265,61.14417],[25.70273,61.14417],[25.70298,61.14414],[25.70331,61.1441],[25.70331,61.14409],[25.70381,61.14402],[25.70384,61.14402],[25.7043,61.14395],[25.70431,61.14395],[25.70462,61.1439],[25.70463,61.1439],[25.70485,61.14386],[25.70486,61.14386]],[[25.70486,61.14386],[25.70518,61.14381],[25.70522,61.14381],[25.70571,61.14374],[25.70573,61.14373],[25.70619,61.14367],[25.7062,61.14367],[25.7067,61.14359],[25.7067,61.14359],[25.70734,61.14348],[25.70736,61.14348]],[[25.70736,61.14348],[25.70755,61.14345]],[[25.70755,61.14345],[25.70807,61.14337],[25.70809,61.14337],[25.70851,61.1433],[25.70854,61.1433],[25.70903,61.14322],[25.70905,61.14321],[25.70991,61.14309],[25.70992,61.14309],[25.71027,61.14304],[25.71027,61.14304],[25.71053,61.143]],[[25.71053,61.143],[25.71067,61.14298],[25.71068,61.14298],[25.71128,61.14288],[25.71131,61.14288],[25.71228,61.14275],[25.71228,61.14275],[25.71328,61.14261],[25.71392,61.14251],[25.71395,61.1425]],[[25.71395,61.1425],[25.71409,61.14248],[25.71464,61.14237],[25.71466,61.14237],[25.71514,61.14227],[25.71521,61.14226],[25.71524,61.14225],[25.7154,61.14221],[25.71542,61.14221],[25.71551,61.14219]],[[25.71551,61.14219],[25.7158,61.14211],[25.71581,61.14211],[25.71629,61.14197],[25.71631,61.14196],[25.71683,61.14182],[25.71685,61.14182],[25.71704,61.14176],[25.71753,61.1416],[25.71754,61.1416],[25.71823,61.14135],[25.71824,61.14135],[25.71922,61.14102],[25.71924,61.14102],[25.72006,61.14077],[25.7206,61.14061],[25.72063,61.14061],[25.72079,61.14056],[25.72126,61.14046],[25.72128,61.14045],[25.72176,61.14035]],[[25.72176,61.14035],[25.72183,61.14034],[25.72187,61.14033],[25.72208,61.1403],[25.72247,61.14024]],[[25.72247,61.14024],[25.72251,61.14023],[25.72261,61.14022],[25.72262,61.14022],[25.72331,61.14013],[25.72334,61.14013],[25.72406,61.14005],[25.72409,61.14005],[25.72477,61.13997],[25.7248,61.13997],[25.72544,61.13988],[25.72547,61.13988],[25.72611,61.13978],[25.72612,61.13978],[25.72633,61.13974],[25.72676,61.13968],[25.72679,61.13967],[25.72738,61.13957],[25.72745,61.13956],[25.72807,61.13943],[25.7281,61.13942],[25.72884,61.13926],[25.72885,61.13925],[25.72958,61.13908],[25.7296,61.13908],[25.73045,61.1389],[25.73047,61.13889],[25.73054,61.13888],[25.73056,61.13887],[25.73115,61.13876],[25.73118,61.13875],[25.73177,61.13865],[25.7318,61.13864],[25.73278,61.13848],[25.73279,61.13848],[25.73354,61.13838],[25.73355,61.13838],[25.7342,61.1383],[25.73421,61.1383],[25.73465,61.13825]],[[25.73465,61.13825],[25.7347,61.13825],[25.73496,61.13823],[25.73529,61.1382],[25.73531,61.13819],[25.73532,61.13819],[25.7358,61.13815],[25.73581,61.13815],[25.73581,61.13815]],[[25.73581,61.13815],[25.73625,61.13812],[25.73626,61.13812],[25.73696,61.13807],[25.73697,61.13806],[25.73755,61.13801],[25.73758,61.13801],[25.73827,61.13792],[25.73829,61.13792],[25.73872,61.13786],[25.73882,61.13784],[25.73886,61.13784],[25.73931,61.13775],[25.73933,61.13775],[25.7397,61.13767],[25.73972,61.13767],[25.74005,61.13759],[25.74008,61.13758]],[[25.74008,61.13758],[25.74011,61.13757],[25.7402,61.13755],[25.74033,61.13751],[25.74033,61.1375],[25.74057,61.13742],[25.74058,61.13742],[25.74076,61.13735],[25.74079,61.13735],[25.741,61.13728],[25.74143,61.13713],[25.7416,61.13706],[25.74161,61.13706],[25.74244,61.13672],[25.74245,61.13671],[25.7431,61.13644],[25.74311,61.13644],[25.74329,61.13636]],[[25.74329,61.13636],[25.74381,61.13616],[25.74383,61.13615],[25.74418,61.13602],[25.74421,61.13601],[25.74422,61.136],[25.74462,61.13587],[25.74465,61.13586],[25.74493,61.13578],[25.74499,61.13576],[25.74502,61.13575],[25.74506,61.13574],[25.74508,61.13574]],[[25.74508,61.13574],[25.74547,61.13564],[25.74548,61.13563],[25.74575,61.13557],[25.74576,61.13557],[25.74592,61.13553],[25.74593,61.13553],[25.74594,61.13552],[25.74621,61.13547],[25.74625,61.13546],[25.74627,61.13545],[25.74631,61.13545],[25.74633,61.13544]],[[25.74633,61.13544],[25.74698,61.13534],[25.747,61.13533],[25.74742,61.13527],[25.74753,61.13526],[25.74815,61.13519],[25.74818,61.13519],[25.74843,61.13515],[25.74885,61.13509],[25.74887,61.13508],[25.7495,61.13497],[25.74953,61.13496],[25.74955,61.13496],[25.75002,61.13485],[25.75012,61.13483],[25.75014,61.13482],[25.75063,61.13469],[25.75064,61.13469],[25.75123,61.13454],[25.75179,61.1344],[25.7518,61.1344],[25.75203,61.13434],[25.75206,61.13433],[25.75207,61.13433],[25.75221,61.1343],[25.75242,61.13426],[25.75245,61.13425]],[[25.75245,61.13425],[25.75259,61.13422],[25.7526,61.13422],[25.75301,61.13413],[25.75304,61.13413],[25.75329,61.13408],[25.7533,61.13408],[25.75332,61.13408],[25.75395,61.13397],[25.75397,61.13397],[25.75401,61.13397],[25.75445,61.13388],[25.75466,61.13383],[25.75491,61.13377],[25.75515,61.13371],[25.75594,61.13349],[25.75599,61.13348],[25.75602,61.13347],[25.75641,61.13337]],[[25.75641,61.13337],[25.7565,61.13334],[25.75689,61.13324],[25.7569,61.13323],[25.75727,61.13315],[25.75737,61.13313],[25.75738,61.13312],[25.7578,61.13304],[25.7578,61.13304],[25.75826,61.13296],[25.75827,61.13296],[25.75873,61.13289],[25.75884,61.13288],[25.75887,61.13287],[25.75927,61.13283],[25.75974,61.13279],[25.75976,61.13279]],[[25.75976,61.13279],[25.76,61.13277]]]},"properties":{"name":"Maantien 313 Urajärventie parantaminen rakentamalla jalankulku- ja pyöräilyväylä välille Lentotie-Urajärvi, Asikkala","kind":"project","ptype":"road","subtype":"Tiehanke","status":"kaynnissa","date":"2025–2026","url":"https://vayla.fi/hankkeet","source":"Väylävirasto"}},{"type":"Feature","geometry":{"type":"MultiLineString","coordinates":[[[25.1569,61.02215],[25.1569,61.02215],[25.15691,61.02215]],[[25.15691,61.02215],[25.15694,61.02217],[25.15719,61.0223],[25.1572,61.0223],[25.1574,61.0224],[25.15741,61.02241]],[[25.15741,61.02241],[25.15742,61.02241],[25.1578,61.02264],[25.15789,61.02269],[25.15791,61.02271],[25.15814,61.02287],[25.15824,61.02294],[25.15831,61.02301],[25.15833,61.02302],[25.15837,61.02307],[25.15842,61.02312],[25.15844,61.02315],[25.15846,61.02318],[25.15847,61.0232],[25.15849,61.02323],[25.1585,61.02327],[25.15851,61.0233],[25.15852,61.02334],[25.15852,61.02337],[25.15851,61.02353],[25.15849,61.02368],[25.15849,61.02369],[25.15849,61.02373],[25.15844,61.024],[25.15844,61.02401],[25.1584,61.02422],[25.1584,61.02423],[25.15839,61.02425],[25.15831,61.02464],[25.15831,61.02465],[25.1583,61.02472],[25.1583,61.02473]],[[25.1583,61.02473],[25.15828,61.02484]],[[25.15828,61.02484],[25.15825,61.02513],[25.15823,61.02527],[25.15822,61.02542]],[[25.15822,61.02542],[25.15819,61.02569],[25.15819,61.0257],[25.15808,61.02608],[25.15807,61.02609],[25.15804,61.02618],[25.15804,61.02619],[25.15795,61.02639],[25.1576,61.02697],[25.15759,61.02698],[25.15734,61.02737]],[[25.15734,61.02737],[25.1572,61.0276],[25.15704,61.02785],[25.15703,61.02787],[25.15696,61.02799],[25.15696,61.02799]],[[25.15696,61.02799],[25.15685,61.02824],[25.15685,61.02825],[25.15675,61.02851],[25.15671,61.02867],[25.1567,61.02871],[25.1567,61.02872],[25.15669,61.02894],[25.15669,61.02894]],[[25.15669,61.02894],[25.15668,61.02895],[25.15666,61.02937],[25.15666,61.02937],[25.15664,61.02955],[25.15664,61.02956],[25.15664,61.02981],[25.15666,61.02999],[25.15666,61.03001],[25.15667,61.03002],[25.15667,61.03006]]]},"properties":{"name":"Maantien 3171 (Asikkalantie) ja maantien 3172 (Keskustie) tievalaistuksen saneeraus, Hollola","kind":"project","ptype":"road","subtype":"Tiehanke","status":"kaynnissa","date":"2024–2025","url":"https://vayla.fi/hankkeet","source":"Väylävirasto"}},{"type":"Feature","geometry":{"type":"LineString","coordinates":[[25.15691,61.02215],[25.15702,61.02211],[25.15703,61.0221],[25.15712,61.02207],[25.15724,61.02202],[25.15726,61.02202],[25.15738,61.02198],[25.15748,61.02195],[25.15751,61.02195],[25.15767,61.02191]]},"properties":{"name":"Maantien 3171 (Asikkalantie) ja maantien 3172 (Keskustie) tievalaistuksen saneeraus, Hollola","kind":"project","ptype":"road","subtype":"Tiehanke","status":"kaynnissa","date":"2024–2025","url":"https://vayla.fi/hankkeet","source":"Väylävirasto"}},{"type":"Feature","geometry":{"type":"MultiLineString","coordinates":[[[25.14826,61.0237],[25.14828,61.0237]],[[25.14828,61.0237],[25.14835,61.02367]],[[25.14835,61.02367],[25.14838,61.02366],[25.14882,61.0235],[25.14883,61.02349],[25.14947,61.02328],[25.1505,61.02296],[25.15051,61.02295],[25.15177,61.02254],[25.15179,61.02254],[25.15288,61.0222],[25.15302,61.02215]],[[25.15302,61.02215],[25.15305,61.02214],[25.15352,61.022],[25.15354,61.02199],[25.15405,61.02185],[25.15407,61.02184],[25.15409,61.02183],[25.15476,61.02164]],[[25.15476,61.02164],[25.15479,61.02163],[25.15492,61.0216],[25.15494,61.02159],[25.15522,61.02151],[25.15523,61.0215]]]},"properties":{"name":"Maantien 3171 (Asikkalantie) ja maantien 3172 (Keskustie) tievalaistuksen saneeraus, Hollola","kind":"project","ptype":"road","subtype":"Tiehanke","status":"kaynnissa","date":"2024–2025","url":"https://vayla.fi/hankkeet","source":"Väylävirasto"}},{"type":"Feature","geometry":{"type":"LineString","coordinates":[[25.54296,60.99421],[25.54297,60.99422]]},"properties":{"name":"Maantie 14070 Messiläntie, Messilän ylikulkukäytävän (U-7504) rakentaminen, Hollola","kind":"project","ptype":"road","subtype":"Tiehanke","status":"kaynnissa","date":"2024–2024","url":"https://vayla.fi/hankkeet","source":"Väylävirasto"}},{"type":"Feature","geometry":{"type":"MultiLineString","coordinates":[[[26.3498,60.89848],[26.3502,60.89858],[26.3503,60.8986]],[[26.3503,60.8986],[26.35066,60.89868],[26.35104,60.89876],[26.35131,60.89885],[26.35154,60.89893],[26.35178,60.89905],[26.35193,60.89916],[26.35205,60.89923],[26.35232,60.89943],[26.35271,60.89972],[26.35284,60.89982]],[[26.35284,60.89982],[26.35291,60.89988],[26.35309,60.90003],[26.35324,60.90017],[26.35336,60.90032],[26.35346,60.90045],[26.35357,60.90062],[26.35364,60.90075]],[[26.35364,60.90075],[26.35374,60.90093],[26.35385,60.9011],[26.35396,60.90128],[26.35407,60.90144],[26.35424,60.90171],[26.35437,60.90192],[26.35447,60.90214]],[[26.35447,60.90214],[26.35449,60.90223],[26.35449,60.90236],[26.35449,60.90248],[26.35447,60.90257],[26.35444,60.90266],[26.3544,60.90277],[26.35434,60.90292]],[[26.35434,60.90292],[26.3543,60.90301],[26.35424,60.90315],[26.3542,60.90325],[26.35416,60.90339],[26.35412,60.90354],[26.3541,60.90368]],[[26.3541,60.90368],[26.35413,60.90404],[26.35419,60.90431]],[[26.35419,60.90431],[26.3542,60.90436],[26.35432,60.90468],[26.35445,60.905]],[[26.35445,60.905],[26.35469,60.90545],[26.35491,60.90587],[26.3551,60.90627],[26.35518,60.90657],[26.35518,60.90685],[26.35512,60.90707],[26.35502,60.90727],[26.35487,60.90748],[26.35473,60.90767],[26.35458,60.90786]],[[26.35458,60.90786],[26.35442,60.90813],[26.35426,60.90855],[26.35419,60.90894],[26.35417,60.90932],[26.35429,60.90966],[26.35451,60.90997],[26.35485,60.91033],[26.35506,60.91055]],[[26.35506,60.91055],[26.35528,60.91077],[26.3557,60.91122],[26.35604,60.91168],[26.35627,60.91216],[26.35663,60.91293],[26.35676,60.91321]],[[26.35676,60.91321],[26.35677,60.91324],[26.35709,60.91389],[26.35738,60.91435],[26.35774,60.91488],[26.3578,60.91498],[26.35799,60.91534],[26.35809,60.91558],[26.3581,60.91561],[26.35819,60.91588],[26.3582,60.91591],[26.35829,60.91616],[26.35837,60.9164],[26.35844,60.91665],[26.35849,60.91688],[26.35857,60.91712],[26.35865,60.91732],[26.35874,60.9175],[26.35885,60.91769],[26.35895,60.91786],[26.35908,60.918],[26.35928,60.91817]],[[26.35928,60.91817],[26.35963,60.91835],[26.36005,60.91851],[26.36031,60.91862],[26.36038,60.91866]],[[26.36038,60.91866],[26.36057,60.91877],[26.36077,60.91891],[26.36095,60.91911],[26.36106,60.91928],[26.36117,60.91948],[26.36128,60.91969],[26.3614,60.91987],[26.36157,60.92007],[26.3618,60.92023]],[[26.3618,60.92023],[26.36202,60.92035],[26.3623,60.92046],[26.36262,60.92056],[26.36303,60.92067],[26.36344,60.92075],[26.36395,60.92084],[26.3643,60.92089]],[[26.3643,60.92089],[26.36431,60.92089],[26.36455,60.92094],[26.36487,60.921],[26.36517,60.92108],[26.36543,60.92117],[26.36568,60.92126]],[[26.36568,60.92126],[26.36602,60.9214],[26.36643,60.92158],[26.36676,60.92171],[26.36725,60.9219],[26.3676,60.92203],[26.36808,60.92219],[26.36859,60.92235],[26.36911,60.9225],[26.36941,60.92257],[26.36973,60.92263],[26.37015,60.92267]],[[26.37015,60.92267],[26.37035,60.92269],[26.37069,60.9227],[26.37075,60.9227],[26.37127,60.92271],[26.3718,60.92271],[26.37221,60.9227]],[[26.37221,60.9227],[26.37252,60.92271],[26.37289,60.92271]],[[26.37289,60.92271],[26.37347,60.9227]],[[26.37347,60.9227],[26.37375,60.9227],[26.37405,60.92269],[26.37434,60.92267],[26.37467,60.92264],[26.375,60.92259]],[[26.375,60.92259],[26.3752,60.92257],[26.37547,60.92254],[26.37578,60.92252],[26.37583,60.92252]],[[26.37583,60.92252],[26.37622,60.9225],[26.37686,60.9225],[26.3774,60.92249]],[[26.3774,60.92249],[26.37791,60.92248],[26.37854,60.92246],[26.37899,60.92244]],[[26.37899,60.92244],[26.37947,60.92242],[26.37954,60.92241],[26.38009,60.92238],[26.38058,60.92235],[26.381,60.92232],[26.38103,60.92232]],[[26.38103,60.92232],[26.3814,60.92229],[26.38182,60.92223],[26.3823,60.92217],[26.38273,60.92212],[26.38318,60.92209],[26.38363,60.92207],[26.38369,60.92207],[26.3842,60.92205],[26.38462,60.92205],[26.38494,60.92208],[26.38517,60.92213]],[[26.38517,60.92213],[26.38538,60.92222],[26.38557,60.92235],[26.38569,60.92244]]]},"properties":{"name":"Vt 12 Mankala-Tillola, Iitti","kind":"project","ptype":"road","subtype":"Tiehanke","status":"kaynnissa","date":"2025–2034","url":"https://vayla.fi/vt-12-mankala-tillola","source":"Väylävirasto"}},{"type":"Feature","geometry":{"type":"MultiLineString","coordinates":[[[26.34952,60.89035],[26.35002,60.89017],[26.35004,60.89016],[26.35065,60.88993],[26.35068,60.88992],[26.35099,60.88979],[26.35102,60.88978],[26.35103,60.88978],[26.35122,60.88972],[26.35147,60.88964],[26.35148,60.88964]],[[26.35148,60.88964],[26.35196,60.88951],[26.35197,60.88951],[26.35211,60.88947]],[[26.35211,60.88947],[26.35223,60.88944],[26.35225,60.88943],[26.35236,60.88941],[26.35245,60.88938],[26.35304,60.88924],[26.35306,60.88923],[26.35338,60.88915],[26.35361,60.88909],[26.35364,60.88909],[26.35404,60.88899],[26.35405,60.88899],[26.35446,60.8889],[26.35464,60.88887],[26.35466,60.88887],[26.35504,60.88881],[26.35508,60.8888],[26.3551,60.8888],[26.35564,60.88874],[26.3564,60.88867],[26.35643,60.88866],[26.35744,60.88858],[26.35747,60.88858],[26.35841,60.8885],[26.35843,60.8885],[26.35933,60.88843],[26.35934,60.88843],[26.36021,60.88836],[26.36024,60.88835],[26.36096,60.88829],[26.36098,60.88829],[26.36152,60.88824],[26.36154,60.88824],[26.36194,60.8882],[26.36201,60.88819],[26.36204,60.88819],[26.36253,60.88811],[26.36254,60.88811],[26.36282,60.88807],[26.36285,60.88807],[26.36316,60.88801],[26.36317,60.88801],[26.36347,60.88795],[26.3638,60.88787],[26.36383,60.88786]],[[26.36383,60.88786],[26.36414,60.88776],[26.36417,60.88775],[26.36451,60.88764],[26.36451,60.88764],[26.36481,60.88754],[26.36518,60.88739],[26.3652,60.88738],[26.36615,60.88696],[26.36616,60.88695],[26.36664,60.88673],[26.36678,60.88667],[26.3668,60.88666]],[[26.3668,60.88666],[26.36704,60.88655],[26.36706,60.88654],[26.36745,60.88638],[26.36747,60.88638],[26.3677,60.88629],[26.36779,60.88626],[26.3678,60.88626],[26.36802,60.88619],[26.36815,60.88615],[26.36816,60.88615],[26.36855,60.88605],[26.36857,60.88604]],[[26.36857,60.88604],[26.36865,60.886],[26.36868,60.88599],[26.36871,60.88598],[26.36874,60.88597],[26.36875,60.88597],[26.36878,60.88596],[26.36895,60.88593],[26.36898,60.88592],[26.36912,60.88589],[26.36913,60.88589],[26.3692,60.88587],[26.36931,60.88585],[26.36948,60.88583],[26.36952,60.88582],[26.36977,60.88579],[26.36978,60.88578],[26.37017,60.88574],[26.37021,60.88573],[26.37022,60.88573],[26.37069,60.88569],[26.37073,60.88569],[26.37117,60.88566],[26.37118,60.88566]],[[26.37118,60.88566],[26.37169,60.88562],[26.37171,60.88562],[26.37219,60.88558],[26.37241,60.88557],[26.37244,60.88557],[26.37288,60.88555],[26.3729,60.88554],[26.37316,60.88553],[26.37319,60.88553],[26.37334,60.88552],[26.37337,60.88552],[26.37341,60.88552],[26.37342,60.88552],[26.37346,60.88552],[26.3735,60.88552],[26.37364,60.88553],[26.37366,60.88553]],[[26.37366,60.88553],[26.37423,60.88549],[26.37424,60.88549],[26.37555,60.8854],[26.37556,60.8854],[26.37611,60.88536],[26.37613,60.88536],[26.37689,60.8853],[26.37744,60.88526],[26.37745,60.88526],[26.37785,60.88521],[26.37795,60.88519],[26.37796,60.88519],[26.37838,60.88513],[26.37845,60.88512],[26.37847,60.88511],[26.37894,60.88502],[26.37896,60.88502],[26.37933,60.88493],[26.37952,60.88488],[26.37978,60.88481],[26.38017,60.88468],[26.3802,60.88467],[26.38074,60.88448],[26.38135,60.88428],[26.38136,60.88427],[26.38147,60.88424]],[[26.38147,60.88424],[26.38183,60.88411],[26.38212,60.88402],[26.38213,60.88401],[26.38223,60.88398]],[[26.38223,60.88398],[26.38247,60.88387],[26.38256,60.88383],[26.38267,60.88379],[26.38279,60.88375],[26.38292,60.88371],[26.38308,60.88367],[26.38332,60.88361],[26.38359,60.88356],[26.38361,60.88356],[26.38431,60.88344],[26.38433,60.88344]],[[26.38433,60.88344],[26.38477,60.8834],[26.38478,60.8834],[26.38511,60.88337]],[[26.38511,60.88337],[26.38536,60.88334]],[[26.38536,60.88334],[26.38619,60.88326],[26.38621,60.88326],[26.3866,60.88322],[26.38675,60.88321],[26.38697,60.8832],[26.38752,60.88319],[26.38756,60.88319]],[[26.38756,60.88319],[26.38822,60.88312],[26.38847,60.8831],[26.38849,60.8831],[26.38925,60.88302],[26.38927,60.88301],[26.38959,60.88298],[26.38961,60.88298],[26.39017,60.88292],[26.39061,60.88287],[26.39065,60.88287],[26.39075,60.88286]],[[26.39075,60.88286],[26.39105,60.88279],[26.39115,60.88277],[26.39125,60.88276],[26.39128,60.88275],[26.39138,60.88274],[26.39149,60.88273],[26.39178,60.88271],[26.3918,60.88271],[26.39239,60.88268],[26.39258,60.88268],[26.39317,60.88267],[26.39318,60.88267]],[[26.39318,60.88267],[26.39392,60.88268],[26.39392,60.88268],[26.39433,60.88269],[26.39462,60.88271],[26.39464,60.88271],[26.395,60.88275],[26.3955,60.88281]],[[26.3955,60.88281],[26.3962,60.88283],[26.39714,60.88286],[26.39715,60.88286],[26.39869,60.88291],[26.39872,60.88291],[26.3999,60.88296],[26.39992,60.88296],[26.40076,60.88301],[26.40077,60.88301],[26.40186,60.88309],[26.40187,60.88309],[26.40277,60.88317],[26.40279,60.88318],[26.40366,60.88325],[26.40369,60.88325],[26.40427,60.88332],[26.4043,60.88332],[26.40491,60.88338],[26.40495,60.88338],[26.4056,60.88345],[26.40626,60.8835],[26.40685,60.88354],[26.40688,60.88354],[26.40773,60.88356],[26.40774,60.88356],[26.40844,60.88357],[26.40862,60.88357],[26.40865,60.88357],[26.40873,60.88357],[26.40939,60.88356],[26.40973,60.88354]],[[26.40973,60.88354],[26.41031,60.88351],[26.41034,60.88351],[26.41081,60.88348],[26.41082,60.88348]],[[26.41082,60.88348],[26.41123,60.88345],[26.41124,60.88345],[26.41148,60.88343]],[[26.41148,60.88343],[26.41156,60.88342]],[[26.41156,60.88342],[26.41202,60.88339]],[[26.41202,60.88339],[26.41223,60.88337],[26.41226,60.88337],[26.41266,60.88333],[26.41267,60.88333],[26.41325,60.88328],[26.41327,60.88328],[26.41384,60.88322],[26.41388,60.88321],[26.4146,60.88314],[26.41461,60.88314],[26.4154,60.88305],[26.41543,60.88305],[26.41612,60.88297],[26.41615,60.88297],[26.41689,60.88287],[26.41692,60.88287],[26.41759,60.88278],[26.41763,60.88277],[26.41862,60.88264],[26.41863,60.88263],[26.41951,60.88251],[26.42056,60.88234],[26.42058,60.88233],[26.42156,60.88217],[26.42158,60.88217],[26.42258,60.88198],[26.42259,60.88198],[26.42354,60.88179],[26.42357,60.88179],[26.4245,60.88161],[26.42451,60.88161],[26.42566,60.88137],[26.42569,60.88136],[26.42627,60.88125],[26.42627,60.88124],[26.42702,60.88109],[26.42706,60.88109],[26.42773,60.88095],[26.42776,60.88094],[26.42834,60.88082],[26.42835,60.88082],[26.42903,60.88068],[26.42905,60.88067],[26.42977,60.88053],[26.43058,60.88036],[26.43062,60.88036],[26.43133,60.88022],[26.43147,60.88019],[26.43182,60.88013],[26.43185,60.88013],[26.43227,60.88006],[26.43229,60.88006],[26.43271,60.88],[26.43274,60.88],[26.43317,60.87994],[26.43318,60.87993],[26.43368,60.87987],[26.43369,60.87987],[26.43423,60.87982],[26.43424,60.87981],[26.43479,60.87977],[26.43482,60.87977],[26.43537,60.87973],[26.43538,60.87973],[26.43618,60.87968],[26.43621,60.87968],[26.43623,60.87968],[26.43644,60.87967]],[[26.43644,60.87967],[26.43686,60.87966],[26.43689,60.87965],[26.43766,60.87963],[26.4377,60.87963],[26.43818,60.87963],[26.43821,60.87963],[26.43854,60.87964],[26.43855,60.87964],[26.43922,60.87966],[26.43962,60.87968],[26.43964,60.87968]],[[26.43964,60.87968],[26.44011,60.87971],[26.44013,60.87971],[26.44057,60.87974],[26.44064,60.87974],[26.44067,60.87975],[26.44125,60.87982],[26.44126,60.87982],[26.44191,60.87989],[26.44195,60.87989],[26.44196,60.8799],[26.44256,60.87999],[26.44258,60.87999],[26.44308,60.88007],[26.44336,60.88011],[26.44338,60.88012],[26.44397,60.88022],[26.444,60.88022],[26.44438,60.88029],[26.44439,60.88029],[26.44495,60.88039],[26.4454,60.88046],[26.44542,60.88046],[26.44601,60.88056],[26.44605,60.88056],[26.44608,60.88057],[26.44659,60.88062],[26.44661,60.88063],[26.44719,60.88069],[26.44722,60.88069],[26.44725,60.8807],[26.4479,60.88074],[26.44792,60.88074],[26.44858,60.88079],[26.4486,60.88079],[26.44923,60.88081],[26.44926,60.88082],[26.45007,60.88085],[26.45009,60.88085],[26.45123,60.88088],[26.45126,60.88088],[26.45151,60.88088],[26.45152,60.88088],[26.45186,60.88088],[26.45187,60.88088],[26.45276,60.88088],[26.45277,60.88088],[26.45373,60.88086],[26.45376,60.88086],[26.45505,60.8808],[26.45507,60.8808],[26.45573,60.88077],[26.45574,60.88077],[26.45683,60.88069],[26.45684,60.88069],[26.45781,60.8806],[26.45784,60.8806],[26.45903,60.88047],[26.45904,60.88047]],[[26.45904,60.88047],[26.45936,60.88043],[26.45939,60.88043],[26.45975,60.88038],[26.46007,60.88034],[26.4601,60.88033],[26.46042,60.88029],[26.46046,60.88028],[26.46081,60.88023]],[[26.46081,60.88023],[26.46116,60.88018],[26.46141,60.88014],[26.46142,60.88014]],[[26.46142,60.88014],[26.46184,60.88007],[26.46186,60.88007],[26.46221,60.88001],[26.46256,60.87995],[26.46285,60.87989]]]},"properties":{"name":"Vt 12 Mankala-Tillola, Iitti","kind":"project","ptype":"road","subtype":"Tiehanke","status":"kaynnissa","date":"2025–2034","url":"https://vayla.fi/vt-12-mankala-tillola","source":"Väylävirasto"}},{"type":"Feature","geometry":{"type":"MultiLineString","coordinates":[[[26.18436,60.91326],[26.1859,60.91325],[26.18593,60.91325],[26.18737,60.91324]],[[26.18737,60.91324],[26.18738,60.91324],[26.18856,60.91324],[26.18857,60.91324],[26.18964,60.91323],[26.18966,60.91323],[26.19062,60.91322],[26.19063,60.91322],[26.19184,60.91321],[26.19287,60.91319],[26.19289,60.91319],[26.19418,60.91317],[26.19511,60.91315],[26.19512,60.91315],[26.19596,60.91314],[26.19599,60.91314],[26.19677,60.91312]],[[26.19677,60.91312],[26.19751,60.9131],[26.19862,60.91307],[26.19862,60.91307],[26.20006,60.91303],[26.20009,60.91303],[26.20127,60.91299],[26.2013,60.91299],[26.20237,60.91296],[26.20321,60.91293],[26.20413,60.91291],[26.20494,60.91289],[26.20498,60.91289],[26.2059,60.91287],[26.20592,60.91287],[26.20699,60.91286],[26.20809,60.91286],[26.20812,60.91286],[26.2083,60.91286],[26.20922,60.91287],[26.20926,60.91287],[26.20985,60.91287],[26.21044,60.91288],[26.21044,60.91288],[26.21114,60.91289]],[[26.21114,60.91289],[26.21116,60.91289],[26.21149,60.91291],[26.21151,60.91291],[26.21228,60.91294],[26.2123,60.91294],[26.21296,60.91296],[26.21297,60.91296],[26.21338,60.91299],[26.21339,60.91299],[26.21368,60.91301],[26.21389,60.91303],[26.21391,60.91303],[26.21412,60.91306],[26.21447,60.91312],[26.21448,60.91312],[26.21496,60.91322],[26.21497,60.91322],[26.21518,60.91326]],[[26.21518,60.91326],[26.21564,60.91337]],[[26.21564,60.91337],[26.21612,60.91349]],[[26.21612,60.91349],[26.21612,60.91349],[26.21648,60.91359],[26.21651,60.91359],[26.21682,60.91369],[26.21682,60.91369],[26.21723,60.91382],[26.21725,60.91383],[26.21768,60.91397],[26.21769,60.91398],[26.21812,60.91412],[26.21815,60.91412],[26.21842,60.91421]],[[26.21842,60.91421],[26.21843,60.91421],[26.21865,60.91428],[26.21871,60.9143],[26.21901,60.91437],[26.21945,60.91447],[26.21946,60.91447],[26.21994,60.91457],[26.22036,60.91464],[26.22075,60.9147],[26.22078,60.91471],[26.22081,60.91472],[26.22135,60.91479],[26.22138,60.91479],[26.22193,60.91485],[26.22195,60.91485],[26.22198,60.91485],[26.22279,60.91491],[26.2228,60.91491],[26.2235,60.91494],[26.22353,60.91494],[26.22412,60.91495]],[[26.22412,60.91495],[26.22413,60.91495],[26.22501,60.91489],[26.22501,60.91489],[26.22582,60.91485],[26.22585,60.91485],[26.22658,60.9148],[26.22734,60.91474],[26.22735,60.91474],[26.22833,60.91466],[26.22834,60.91466],[26.22968,60.91455],[26.2297,60.91454],[26.23101,60.91445],[26.23102,60.91445],[26.23226,60.91437],[26.23318,60.91431],[26.23397,60.91426]],[[26.23397,60.91426],[26.23398,60.91425],[26.23416,60.91424],[26.23424,60.91424]],[[26.23424,60.91424],[26.23472,60.91422],[26.23474,60.91422],[26.23552,60.91419],[26.23553,60.91419],[26.23575,60.91418],[26.23598,60.91418],[26.23616,60.91418]],[[26.23616,60.91418],[26.23619,60.91418],[26.23733,60.91417],[26.23859,60.91416],[26.23896,60.91417],[26.24074,60.91422],[26.24271,60.91429],[26.24272,60.91429],[26.2461,60.91442],[26.24613,60.91442],[26.2491,60.91454],[26.24913,60.91455],[26.25181,60.91464],[26.25182,60.91464],[26.25259,60.91465],[26.25281,60.91465],[26.25283,60.91465],[26.2529,60.91465],[26.25367,60.91463],[26.2537,60.91463],[26.25396,60.91462],[26.25469,60.91458],[26.25472,60.91458],[26.25505,60.91455],[26.25576,60.91447],[26.25579,60.91447],[26.25619,60.91442],[26.25692,60.9143],[26.25694,60.9143],[26.25721,60.91425],[26.25796,60.9141],[26.25799,60.91409],[26.25849,60.91398],[26.25914,60.91381],[26.25917,60.9138],[26.25939,60.91374],[26.2601,60.91351],[26.26012,60.9135],[26.26057,60.91335],[26.26098,60.91319],[26.26101,60.91318],[26.26144,60.91298],[26.26146,60.91297],[26.26184,60.9128],[26.26195,60.91276],[26.26207,60.91272],[26.2621,60.91271],[26.26219,60.91268],[26.26245,60.91261]],[[26.26245,60.91261],[26.26246,60.9126],[26.26274,60.91246],[26.26275,60.91245],[26.26293,60.91236],[26.26333,60.91218]],[[26.26333,60.91218],[26.26341,60.91215]],[[26.26341,60.91215],[26.26369,60.91202]],[[26.26369,60.91202],[26.2637,60.91202],[26.26406,60.91186],[26.26407,60.91186],[26.26446,60.9117],[26.26448,60.91169],[26.26476,60.91157],[26.26511,60.91144]],[[26.26511,60.91144],[26.26519,60.91141],[26.26521,60.9114],[26.26571,60.91122],[26.26573,60.91122],[26.26576,60.91121],[26.26628,60.91104],[26.26629,60.91104],[26.26648,60.91098],[26.26697,60.91086],[26.26698,60.91086],[26.26715,60.91082],[26.26779,60.91069],[26.2678,60.91069],[26.26804,60.91064],[26.26853,60.91057],[26.26856,60.91056],[26.26906,60.9105]],[[26.26906,60.9105],[26.26907,60.9105],[26.26927,60.91048],[26.26985,60.91042],[26.26996,60.91041],[26.26998,60.9104],[26.27045,60.91037],[26.27047,60.91037],[26.27098,60.91035],[26.27101,60.91035],[26.27208,60.91032],[26.27211,60.91032],[26.27274,60.91031],[26.27295,60.91031]],[[26.27295,60.91031],[26.27318,60.9103],[26.27323,60.9103],[26.27326,60.9103],[26.2747,60.91027],[26.27566,60.91026]],[[26.27566,60.91026],[26.27567,60.91026],[26.27607,60.91024],[26.27608,60.91024],[26.27864,60.91018]],[[26.27864,60.91018],[26.27866,60.91018],[26.2787,60.91018],[26.27932,60.91017],[26.28007,60.91016],[26.28009,60.91015],[26.28135,60.91013]],[[26.28135,60.91013],[26.28149,60.91013],[26.28193,60.91012]],[[26.28193,60.91012],[26.28303,60.91009],[26.28305,60.91009],[26.28434,60.91005],[26.28435,60.91005],[26.28527,60.91003],[26.28586,60.91001],[26.28588,60.91]],[[26.28588,60.91],[26.28591,60.91],[26.28594,60.91],[26.28601,60.91],[26.28602,60.91]],[[26.28602,60.91],[26.28604,60.90999],[26.28658,60.90995],[26.28731,60.90988],[26.28733,60.90987],[26.28751,60.90985],[26.28803,60.90976],[26.28806,60.90976],[26.28871,60.90964],[26.28872,60.90964],[26.28916,60.90954],[26.28952,60.90945],[26.28955,60.90944],[26.28968,60.90941],[26.29021,60.90925],[26.29024,60.90924],[26.29039,60.9092],[26.29096,60.909],[26.29098,60.90899],[26.29112,60.90893],[26.29172,60.90869],[26.29173,60.90868],[26.29243,60.90836],[26.29244,60.90836],[26.29298,60.90808],[26.29299,60.90808],[26.2932,60.90795],[26.29336,60.90786],[26.29355,60.90772]],[[26.29355,60.90772],[26.29369,60.90761],[26.29409,60.90729],[26.29411,60.90728],[26.29459,60.90686],[26.2946,60.90685],[26.29518,60.90633],[26.2952,60.90632],[26.29555,60.90602],[26.2959,60.90575]],[[26.2959,60.90575],[26.2959,60.90574],[26.29606,60.90562],[26.29607,60.90561],[26.29609,60.9056],[26.29627,60.90546],[26.29629,60.90546],[26.29647,60.90534]],[[26.29647,60.90534],[26.29649,60.90533],[26.29666,60.90521],[26.29685,60.9051],[26.29686,60.90509],[26.29715,60.90493],[26.29716,60.90492],[26.29741,60.90479],[26.29743,60.90478],[26.29746,60.90477],[26.2977,60.90466],[26.29772,60.90465],[26.29797,60.90454],[26.29806,60.90451],[26.29829,60.90442],[26.2983,60.90442],[26.29855,60.90434],[26.29856,60.90433],[26.29874,60.90428]],[[26.29874,60.90428],[26.29876,60.90427],[26.29901,60.90419],[26.2992,60.90413],[26.29923,60.90413],[26.29943,60.90408],[26.29982,60.90398],[26.29985,60.90397],[26.30035,60.90385],[26.30037,60.90385],[26.30158,60.90358],[26.30159,60.90358],[26.30277,60.90331],[26.30278,60.90331],[26.30456,60.90292],[26.30487,60.90285],[26.30518,60.90278]],[[26.30518,60.90278],[26.30634,60.90252],[26.30634,60.90252],[26.30879,60.90198],[26.31231,60.90119],[26.3125,60.90115],[26.31312,60.90101],[26.31357,60.90091],[26.31409,60.9008],[26.31511,60.90057],[26.31512,60.90057],[26.31766,60.9],[26.31827,60.89986]],[[26.31827,60.89986],[26.31829,60.89986],[26.31943,60.8996],[26.32045,60.89937],[26.3212,60.8992],[26.32124,60.8992],[26.32324,60.89874],[26.32324,60.89874],[26.32424,60.89851],[26.32425,60.8985],[26.32479,60.89838],[26.32481,60.89837],[26.32529,60.89824],[26.32599,60.89804],[26.32653,60.89788]],[[26.32653,60.89788],[26.32771,60.89751],[26.32774,60.8975],[26.32979,60.89687],[26.32982,60.89686],[26.33052,60.89664]],[[26.33052,60.89664],[26.33057,60.89663]],[[26.33057,60.89663],[26.33155,60.89632],[26.33156,60.89632],[26.33395,60.89557],[26.33398,60.89557],[26.33616,60.8949]],[[26.33616,60.8949],[26.33698,60.89464]],[[26.33747,60.89449],[26.3377,60.8944]],[[26.3377,60.8944],[26.33943,60.89389],[26.33944,60.89389],[26.33975,60.89379],[26.34065,60.89351],[26.34066,60.89351],[26.34109,60.89337]],[[26.34109,60.89337],[26.34172,60.89318],[26.34175,60.89317],[26.34278,60.89285],[26.34279,60.89285],[26.34335,60.89268],[26.34337,60.89267],[26.34387,60.89251],[26.34424,60.89239],[26.34426,60.89238],[26.34444,60.89232],[26.34451,60.89229]]]},"properties":{"name":"Vt 12 Mankala-Tillola, Iitti","kind":"project","ptype":"road","subtype":"Tiehanke","status":"kaynnissa","date":"2025–2034","url":"https://vayla.fi/vt-12-mankala-tillola","source":"Väylävirasto"}},{"type":"Feature","geometry":{"type":"Polygon","coordinates":[[[26.04008,61.20019],[26.04056,61.19987],[26.04206,61.20003],[26.04058,61.2004],[26.04008,61.20019]]]},"properties":{"name":"RO1604 Tommolankadun ylikulkusilta","kind":"project","ptype":"rail","subtype":"Ratahanke","status":"kaynnissa","date":"2027–2027","url":"https://vayla.fi/hankkeet","source":"Väylävirasto"}},{"type":"Feature","geometry":{"type":"Polygon","coordinates":[[[25.65845,60.97607],[25.65903,60.97601],[25.65917,60.97664],[25.65853,60.97668],[25.65845,60.97607]]]},"properties":{"name":"RO1112 Launeenkadun alikulkusilta","kind":"project","ptype":"rail","subtype":"Ratahanke","status":"kaynnissa","date":"2024–2027","url":"https://vayla.fi/hankkeet","source":"Väylävirasto"}},{"type":"Feature","geometry":{"type":"Polygon","coordinates":[[[25.70488,60.9722],[25.70491,60.97188],[25.7061,60.9719],[25.70583,60.97226],[25.70488,60.9722]]]},"properties":{"name":"RO1112 Pekanmäen alikäytävä","kind":"project","ptype":"rail","subtype":"Ratahanke","status":"kaynnissa","date":"2027–2027","url":"https://vayla.fi/hankkeet","source":"Väylävirasto"}},{"type":"Feature","geometry":{"type":"Point","coordinates":[25.6588,60.97644]},"properties":{"name":"Launeenkadun aks peruskorjaus","kind":"project","ptype":"rail","subtype":"Ratahanke","status":"kaynnissa","date":"2024–2024","url":"https://vayla.fi/hankkeet","source":"Väylävirasto"}},{"type":"Feature","geometry":{"type":"LineString","coordinates":[[25.31939,60.87751],[25.31944,60.87736]]},"properties":{"name":"RO1103 Äväntjoen ratasilta","kind":"project","ptype":"rail","subtype":"Ratahanke","status":"kaynnissa","date":"2024–2025","url":"https://vayla.fi/hankkeet","source":"Väylävirasto"}},{"type":"Feature","geometry":{"type":"Point","coordinates":[25.74769,60.95835]},"properties":{"name":"Kolava, Nappa ja Korvenlaita syöttöasemien saneeraus ST","kind":"project","ptype":"rail","subtype":"Ratahanke","status":"kaynnissa","date":"2024–2025","url":"https://vayla.fi/hankkeet","source":"Väylävirasto"}}]}