{"type":"FeatureCollection","features":[{"type":"Feature","geometry":{"type":"MultiLineString","coordinates":[[[21.89154,61.45686],[21.89065,61.45683],[21.8891,61.45678],[21.88904,61.45677]],[[21.88904,61.45677],[21.88808,61.45674]],[[21.88808,61.45674],[21.88783,61.45673],[21.88744,61.45672]],[[21.88744,61.45672],[21.88427,61.45663],[21.8762,61.45635],[21.87387,61.45628]],[[21.87387,61.45628],[21.87273,61.45624],[21.87242,61.45623],[21.8721,61.45622],[21.87189,61.4562]],[[21.87189,61.4562],[21.87099,61.45618]],[[21.87099,61.45618],[21.87072,61.45617],[21.86968,61.45614]],[[21.86968,61.45614],[21.86952,61.45613],[21.86931,61.45612]],[[21.86931,61.45612],[21.86757,61.45607]]]},"properties":{"name":"Vt 11 Koiviston ja Pikkuhaaran siltaurakka, KU","kind":"project","ptype":"road","subtype":"Tiehanke","status":"kaynnissa","date":"2024–2026","url":"https://vayla.fi/hankkeet","source":"Väylävirasto"}},{"type":"Feature","geometry":{"type":"MultiLineString","coordinates":[[[21.47464,61.6431],[21.47465,61.64326],[21.4746,61.64347],[21.47452,61.64365],[21.47444,61.64378]],[[21.47444,61.64378],[21.47442,61.64381]],[[21.47442,61.64381],[21.47441,61.64382],[21.47426,61.64405],[21.47422,61.64412]]]},"properties":{"name":"T-5371 Onnenmaan silta","kind":"project","ptype":"road","subtype":"Tiehanke","status":"kaynnissa","date":"2024–2025","url":"https://vayla.fi/hankkeet","source":"Väylävirasto"}},{"type":"Feature","geometry":{"type":"MultiLineString","coordinates":[[[21.99906,61.35919],[21.99899,61.35923]],[[21.99899,61.35923],[21.99882,61.35933]],[[21.99882,61.35933],[21.99877,61.35936]]]},"properties":{"name":"Vt 2 Nakkilan eritasoliittymä, Tattaranjoen sillan rakentaminen","kind":"project","ptype":"road","subtype":"Tiehanke","status":"kaynnissa","date":"2025–2026","url":"https://vayla.fi/hankkeet","source":"Väylävirasto"}},{"type":"Feature","geometry":{"type":"MultiLineString","coordinates":[[[21.78023,61.51495],[21.78035,61.51498],[21.78123,61.51524]],[[21.78123,61.51524],[21.78129,61.51526]],[[21.78129,61.51526],[21.78182,61.51543],[21.78219,61.51557]],[[21.78219,61.51557],[21.783,61.51587],[21.78316,61.51593]]]},"properties":{"name":"T-5372 Vallinin silta","kind":"project","ptype":"road","subtype":"Tiehanke","status":"kaynnissa","date":"2024–2025","url":"https://vayla.fi/hankkeet","source":"Väylävirasto"}},{"type":"Feature","geometry":{"type":"MultiLineString","coordinates":[[[22.00026,61.35847],[21.99937,61.359],[21.99899,61.35923]],[[21.99899,61.35923],[21.99882,61.35933]],[[21.99882,61.35933],[21.9984,61.35958]],[[21.9984,61.35958],[21.9983,61.35964],[21.99758,61.36007],[21.99756,61.36009],[21.99704,61.36039],[21.99703,61.3604]],[[21.99703,61.3604],[21.99701,61.36041],[21.9968,61.36053],[21.99622,61.36088],[21.9962,61.36089],[21.99557,61.36127]],[[21.99557,61.36127],[21.9955,61.36131],[21.99549,61.36132],[21.99546,61.36134]]]},"properties":{"name":"Vt 2 Nakkilan eritasoliittymän Helsingin suunnan rampin parantaminen","kind":"project","ptype":"road","subtype":"Tiehanke","status":"kaynnissa","date":"2025–2026","url":"https://vayla.fi/hankkeet","source":"Väylävirasto"}},{"type":"Feature","geometry":{"type":"MultiLineString","coordinates":[[[21.99589,61.36035],[21.99619,61.36038]],[[21.99619,61.36038],[21.99652,61.36042],[21.99655,61.36042],[21.99666,61.36043],[21.99669,61.36043],[21.99673,61.36043],[21.99677,61.36043],[21.99678,61.36043],[21.99681,61.36043],[21.99685,61.36043],[21.99687,61.36042],[21.99691,61.36042],[21.99701,61.3604],[21.99703,61.3604]]]},"properties":{"name":"Vt 2 Nakkilan eritasoliittymän Helsingin suunnan rampin parantaminen","kind":"project","ptype":"road","subtype":"Tiehanke","status":"kaynnissa","date":"2025–2026","url":"https://vayla.fi/hankkeet","source":"Väylävirasto"}},{"type":"Feature","geometry":{"type":"MultiLineString","coordinates":[[[22.60439,61.66869],[22.60441,61.66869],[22.60484,61.66867],[22.60524,61.66866],[22.60559,61.66868],[22.60567,61.66869]],[[22.60567,61.66869],[22.60573,61.6687]],[[22.60573,61.6687],[22.60579,61.66871],[22.60586,61.66873]],[[22.60586,61.66873],[22.60611,61.66878],[22.60651,61.66891],[22.60683,61.669]]]},"properties":{"name":"T-5341 Susilahden silta","kind":"project","ptype":"road","subtype":"Tiehanke","status":"kaynnissa","date":"2024–2025","url":"https://vayla.fi/hankkeet","source":"Väylävirasto"}},{"type":"Feature","geometry":{"type":"MultiLineString","coordinates":[[[21.89154,61.45686],[21.89065,61.45683],[21.8891,61.45678],[21.88904,61.45677]],[[21.88904,61.45677],[21.88808,61.45674]],[[21.88808,61.45674],[21.88783,61.45673],[21.88744,61.45672]],[[21.88744,61.45672],[21.88427,61.45663],[21.8762,61.45635],[21.87387,61.45628]],[[21.87387,61.45628],[21.87273,61.45624],[21.87242,61.45623],[21.8721,61.45622],[21.87189,61.4562]],[[21.87189,61.4562],[21.87099,61.45618]],[[21.87099,61.45618],[21.87072,61.45617],[21.86968,61.45614]],[[21.86968,61.45614],[21.86952,61.45613],[21.86931,61.45612]],[[21.86931,61.45612],[21.86757,61.45607]]]},"properties":{"name":"Vt 11 Koiviston ja Pikkuhaaran siltojen rakentaminen","kind":"project","ptype":"road","subtype":"Tiehanke","status":"kaynnissa","date":"2024–2026","url":"https://vayla.fi/hankkeet","source":"Väylävirasto"}},{"type":"Feature","geometry":{"type":"MultiPoint","coordinates":[[21.62335,61.66787],[21.90444,61.49507],[22.68387,61.18258]]},"properties":{"name":"LOU Siltaurakka 3/2026","kind":"project","ptype":"road","subtype":"Tiehanke","status":"kaynnissa","date":"2026–2026","url":"https://vayla.fi/hankkeet","source":"Väylävirasto"}},{"type":"Feature","geometry":{"type":"MultiPoint","coordinates":[[22.05929,60.91799],[22.72802,62.19008],[22.2972,61.24737],[22.66932,60.27337],[22.67046,60.37224],[22.00161,60.59607],[22.46806,60.6736],[22.23702,60.66349],[21.96454,60.67899],[22.01953,60.82716],[21.60558,61.12697],[23.01632,60.9951],[22.03123,61.02229],[21.67434,61.15463],[21.55099,61.13324]]},"properties":{"name":"LOU Putkisiltaurakka 2026-2027, KU","kind":"project","ptype":"road","subtype":"Tiehanke","status":"kaynnissa","date":"2025–2027","url":"https://vayla.fi/hankkeet","source":"Väylävirasto"}},{"type":"Feature","geometry":{"type":"LineString","coordinates":[[21.78116,61.48114],[21.78172,61.48704],[21.7657,61.48859],[21.75034,61.49119],[21.72502,61.50391],[21.6971,61.51635],[21.66462,61.53015],[21.61694,61.55002],[21.58794,61.56262],[21.57314,61.5658],[21.55053,61.5746],[21.54226,61.57804],[21.52277,61.58534],[21.50748,61.592],[21.54063,61.5786],[21.52204,61.60309],[21.50694,61.62092],[21.47178,61.62378],[21.45085,61.62412],[21.43373,61.63125],[21.40752,61.63554]]},"properties":{"name":"Pori-Mäntyluoto-Tahkoluoto perusparannus","kind":"project","ptype":"rail","subtype":"Ratahanke","status":"kaynnissa","date":"2019–2024","url":"https://vayla.fi/hankkeet","source":"Väylävirasto"}}]}