{"type":"FeatureCollection","features":[{"type":"Feature","geometry":{"type":"MultiLineString","coordinates":[[[23.07907,68.28933],[23.07905,68.28936],[23.079,68.28944]],[[23.079,68.28944],[23.0788,68.28975],[23.07848,68.29019],[23.07819,68.29059],[23.07793,68.29094],[23.07768,68.29131]],[[23.07768,68.29131],[23.07763,68.29139],[23.07757,68.29148]],[[23.07757,68.29148],[23.07738,68.29174],[23.07726,68.29191],[23.07715,68.29207],[23.07704,68.29223],[23.07693,68.2924]],[[23.07693,68.2924],[23.07689,68.29247],[23.07686,68.29255],[23.07682,68.29263]],[[23.07682,68.29263],[23.07677,68.29274],[23.07665,68.29303],[23.07648,68.29377],[23.07648,68.29379]],[[23.07648,68.29379],[23.07642,68.294],[23.07638,68.2942]],[[23.07638,68.2942],[23.07631,68.29441],[23.07627,68.29468]],[[23.07627,68.29468],[23.07627,68.29469],[23.07623,68.29478],[23.0762,68.29491],[23.07617,68.29504],[23.07614,68.2952]],[[23.07614,68.2952],[23.07608,68.29543],[23.07599,68.29576]],[[23.07599,68.29576],[23.07596,68.29586],[23.07589,68.29617]],[[23.07589,68.29617],[23.07574,68.29685],[23.07567,68.29715],[23.0756,68.29746]],[[23.0756,68.29746],[23.07548,68.2979],[23.07546,68.29797]],[[23.07546,68.29797],[23.07535,68.29854],[23.0752,68.29918]],[[23.0752,68.29918],[23.07514,68.29941],[23.07513,68.29965],[23.07513,68.29967]],[[23.07513,68.29967],[23.07509,68.29988],[23.07518,68.30018],[23.07539,68.30053],[23.07556,68.30075],[23.07576,68.30095]],[[23.07576,68.30095],[23.07586,68.30105],[23.07611,68.30124],[23.07645,68.30146],[23.077,68.30177],[23.07766,68.3021],[23.07798,68.30227],[23.07818,68.30239],[23.07836,68.30249],[23.07855,68.3026],[23.07871,68.30271],[23.07882,68.30279],[23.07894,68.30289],[23.07913,68.30304],[23.07931,68.30319],[23.07945,68.30332],[23.0796,68.30349],[23.07974,68.30368],[23.07981,68.30384],[23.07986,68.30401],[23.0799,68.30418],[23.07992,68.30436],[23.07992,68.30437]],[[23.07992,68.30437],[23.07991,68.30451],[23.0799,68.3047]],[[23.0799,68.3047],[23.07984,68.30497],[23.07978,68.30527],[23.07973,68.30558],[23.0797,68.30578],[23.07967,68.30592]],[[23.07967,68.30592],[23.0796,68.30625],[23.07955,68.30654],[23.07946,68.3069],[23.0794,68.30737],[23.07938,68.30749],[23.07937,68.30755]],[[23.07937,68.30755],[23.07936,68.30757]],[[23.07936,68.30757],[23.07933,68.30769],[23.07926,68.30791],[23.0792,68.30812]],[[23.0792,68.30812],[23.07914,68.30823],[23.0791,68.30833],[23.079,68.30851],[23.07887,68.30868],[23.07885,68.30871],[23.07872,68.30885],[23.07867,68.30892]],[[23.07867,68.30892],[23.07861,68.30899],[23.07845,68.30913],[23.07835,68.30921],[23.07814,68.30938],[23.07797,68.3095]],[[23.07797,68.3095],[23.07736,68.30992],[23.07696,68.31018],[23.07651,68.31048]],[[23.07651,68.31048],[23.0764,68.31054],[23.07632,68.3106]],[[23.07632,68.3106],[23.07602,68.31077],[23.07556,68.31107],[23.07484,68.31152],[23.07431,68.31186],[23.07373,68.31222],[23.07306,68.31264],[23.07252,68.31298],[23.07199,68.31333],[23.07146,68.31367],[23.07112,68.31389],[23.07083,68.31405],[23.07046,68.31427],[23.07022,68.31441],[23.06983,68.3146],[23.06945,68.31477],[23.06917,68.31489],[23.06881,68.31501],[23.06829,68.31519],[23.06796,68.3153],[23.06744,68.31544],[23.06703,68.31557]],[[23.06703,68.31557],[23.06638,68.31576],[23.06561,68.316],[23.06482,68.31624],[23.06425,68.31641],[23.06335,68.31669],[23.06249,68.31694],[23.06168,68.31719],[23.06087,68.31743],[23.06008,68.31767],[23.05937,68.31789],[23.05844,68.31816],[23.05768,68.31838],[23.05703,68.31857],[23.05593,68.31878],[23.05462,68.31904],[23.05383,68.31919],[23.05291,68.31934],[23.05173,68.31957],[23.0513,68.31966],[23.05075,68.31976],[23.0498,68.31994],[23.04886,68.32011],[23.04824,68.32024],[23.04746,68.32039],[23.04664,68.32054],[23.04578,68.3207],[23.04499,68.32085],[23.04429,68.32097],[23.04372,68.32104],[23.04316,68.32111],[23.04265,68.32117],[23.04242,68.32119],[23.0422,68.32121],[23.04201,68.32123],[23.04093,68.32133],[23.03975,68.32143],[23.03887,68.32151],[23.03752,68.32162],[23.03611,68.32174],[23.03479,68.32184],[23.03319,68.32198],[23.0324,68.32205],[23.03132,68.32215],[23.03074,68.3222],[23.03009,68.32226],[23.02901,68.32235],[23.02838,68.32241],[23.02795,68.32245],[23.02701,68.32253],[23.02629,68.32259],[23.02576,68.32264],[23.02552,68.32266]],[[23.02552,68.32266],[23.02285,68.32288],[23.02029,68.32309]],[[23.02029,68.32309],[23.01735,68.32333],[23.01393,68.32363]],[[23.01393,68.32363],[23.01069,68.32391],[23.0095,68.32402],[23.00856,68.3241]],[[23.00856,68.3241],[23.00784,68.32416],[23.00651,68.32426],[23.00571,68.32433]],[[23.00571,68.32433],[23.00305,68.32455],[23.00093,68.32472],[22.99912,68.32487],[22.99756,68.325],[22.99675,68.32506],[22.99607,68.32512],[22.99546,68.32516],[22.99482,68.32524],[22.99427,68.3253]],[[22.99427,68.3253],[22.99316,68.3255],[22.99247,68.32562],[22.99172,68.32579],[22.99141,68.32588]],[[22.99141,68.32588],[22.99101,68.32596],[22.99089,68.32599],[22.99057,68.32609],[22.99011,68.32625],[22.98963,68.32642],[22.98906,68.32662],[22.98859,68.3268],[22.98811,68.32697],[22.98776,68.32714],[22.98737,68.32736],[22.98697,68.3276],[22.98658,68.32787],[22.98619,68.32814],[22.98569,68.32848],[22.98525,68.32877],[22.98473,68.32912],[22.98426,68.32943],[22.98413,68.32951]],[[22.98413,68.32951],[22.98396,68.32962]],[[22.98396,68.32962],[22.9834,68.33002],[22.98296,68.33036],[22.98243,68.33067],[22.98198,68.33092],[22.98153,68.33113],[22.98096,68.33135],[22.98084,68.33139],[22.97942,68.33189],[22.9776,68.33252]],[[22.9776,68.33252],[22.977,68.33275],[22.97629,68.333],[22.97549,68.33328],[22.97471,68.33352],[22.9742,68.33365],[22.97382,68.33374],[22.97315,68.33388],[22.97266,68.33398],[22.97186,68.33413]],[[22.97186,68.33413],[22.97107,68.33426],[22.97025,68.33441],[22.96831,68.33475],[22.96702,68.33497],[22.96608,68.33512],[22.96507,68.33524]],[[22.96507,68.33524],[22.96156,68.3356],[22.96064,68.33569]],[[22.96064,68.33569],[22.96027,68.33572],[22.95986,68.33575],[22.95942,68.33578],[22.95888,68.3358],[22.95812,68.33582],[22.95632,68.33582]],[[22.95632,68.33582],[22.95511,68.33582],[22.9542,68.33582],[22.95306,68.33582],[22.95154,68.33581],[22.95016,68.33582]],[[22.95016,68.33582],[22.94937,68.33582],[22.94691,68.3358],[22.94427,68.33582],[22.94349,68.33579],[22.94279,68.33575],[22.94143,68.33562],[22.93977,68.33547],[22.93777,68.3353],[22.93661,68.33525],[22.93533,68.33525],[22.93375,68.33531]],[[22.93375,68.33531],[22.93205,68.33544],[22.93106,68.3355],[22.92997,68.33557],[22.92888,68.33567],[22.92749,68.33578],[22.92502,68.33596],[22.92388,68.33605]],[[22.92388,68.33605],[22.92305,68.33615],[22.92175,68.33634],[22.92057,68.33657],[22.91928,68.33686],[22.91849,68.33706],[22.91777,68.33725],[22.91712,68.33746],[22.9167,68.33762],[22.91635,68.33775],[22.91597,68.33793],[22.91561,68.3381],[22.9151,68.33836],[22.91458,68.33862]],[[22.91458,68.33862],[22.91431,68.33876],[22.91377,68.33902],[22.91342,68.3392],[22.91311,68.33936]],[[22.91311,68.33936],[22.91256,68.33966],[22.91223,68.33987],[22.91152,68.34042]],[[22.91152,68.34042],[22.91127,68.34066],[22.91073,68.34147],[22.91036,68.34195]],[[22.91036,68.34195],[22.91024,68.34212],[22.91013,68.34227]],[[22.91013,68.34227],[22.90989,68.34261],[22.90955,68.34311],[22.90925,68.34349],[22.90901,68.3438],[22.90883,68.34405],[22.90854,68.34446],[22.90833,68.34475],[22.90818,68.34495],[22.90808,68.34507],[22.90799,68.34516],[22.90791,68.34526],[22.90781,68.34535],[22.90768,68.34546],[22.90747,68.3456],[22.9073,68.3457],[22.90705,68.34584],[22.90676,68.34599],[22.9064,68.34617],[22.906,68.34636],[22.90572,68.34649],[22.9053,68.34669],[22.90498,68.34685],[22.90462,68.34706],[22.90422,68.34733],[22.90395,68.3475],[22.90367,68.34768],[22.90336,68.34787],[22.90313,68.34799],[22.90262,68.34824],[22.90187,68.3486],[22.90126,68.34887],[22.90029,68.34933],[22.89959,68.34965],[22.89894,68.34996],[22.89856,68.35014]],[[22.89856,68.35014],[22.89841,68.35021],[22.89793,68.35045],[22.8976,68.35065]],[[22.8976,68.35065],[22.89739,68.35076],[22.89713,68.35094],[22.89696,68.35107],[22.89684,68.35118],[22.89653,68.35146],[22.89626,68.35172],[22.89607,68.35193]],[[22.89607,68.35193],[22.89598,68.35202],[22.89587,68.35213],[22.89571,68.35228]],[[22.89571,68.35228],[22.89547,68.35251],[22.89517,68.35279],[22.89489,68.35306],[22.89458,68.35336],[22.89437,68.35357]],[[22.89437,68.35357],[22.89428,68.35368],[22.89341,68.35451],[22.89324,68.35466],[22.8931,68.3548],[22.89303,68.35487],[22.89288,68.355],[22.89268,68.35513],[22.89248,68.35525],[22.89227,68.35535],[22.89199,68.35548],[22.89159,68.35563],[22.89122,68.35575],[22.89062,68.35594],[22.89006,68.3561],[22.8896,68.35622]],[[22.8896,68.35622],[22.88811,68.35664],[22.88478,68.35755],[22.87955,68.359],[22.87915,68.35912],[22.87747,68.35959],[22.87617,68.35996],[22.87496,68.36029],[22.87406,68.36053],[22.87361,68.36066],[22.87312,68.36078],[22.87274,68.36087],[22.87237,68.36094],[22.87201,68.36101],[22.87178,68.36105],[22.87118,68.36113],[22.87055,68.3612],[22.87,68.36125],[22.86951,68.36129],[22.86876,68.36134],[22.8681,68.36138],[22.86766,68.3614],[22.86721,68.36142],[22.86661,68.36145],[22.8654,68.36153],[22.8642,68.3616],[22.86322,68.36165]],[[22.86322,68.36165],[22.86278,68.36167],[22.86225,68.3617],[22.86163,68.36174],[22.86114,68.36176],[22.86066,68.36179],[22.86028,68.36182],[22.8599,68.36185],[22.85944,68.36189],[22.8591,68.36193],[22.85868,68.36199],[22.85826,68.36205],[22.85785,68.36214],[22.85743,68.36222],[22.85702,68.36232],[22.85656,68.36246],[22.85609,68.36262],[22.85538,68.36289],[22.85486,68.3631],[22.85432,68.36331],[22.85361,68.3636],[22.85282,68.36392],[22.85213,68.36419]],[[22.85213,68.36419],[22.85081,68.36474],[22.84998,68.36513],[22.84943,68.36548],[22.84902,68.36582],[22.84874,68.36609]],[[22.84874,68.36609],[22.84844,68.36646],[22.84817,68.36684],[22.84802,68.36708],[22.8478,68.36738],[22.84765,68.36757],[22.8474,68.36795],[22.84725,68.36812],[22.8471,68.3683],[22.84696,68.36843],[22.84682,68.36857],[22.84666,68.36868],[22.84654,68.36878],[22.84627,68.36894],[22.84603,68.36907],[22.84576,68.36922],[22.84552,68.36938],[22.84534,68.3695],[22.84507,68.36968],[22.84503,68.36971],[22.84477,68.36998],[22.84458,68.37024],[22.8445,68.37041],[22.84445,68.37059],[22.84446,68.37073],[22.84446,68.3709],[22.84453,68.37105],[22.84467,68.37129],[22.84517,68.37172],[22.84626,68.3722],[22.84741,68.37255],[22.84829,68.3729],[22.84926,68.37348],[22.84972,68.37401],[22.84998,68.37468],[22.85002,68.37483]],[[22.85002,68.37483],[22.85021,68.37554],[22.8507,68.37702],[22.8509,68.37769],[22.85114,68.37845]],[[22.85114,68.37845],[22.8512,68.37865],[22.85122,68.37877],[22.85126,68.37905],[22.85127,68.37919],[22.85126,68.37941],[22.85125,68.37971],[22.85122,68.37986],[22.85119,68.38004],[22.85117,68.38019],[22.85113,68.38035],[22.85104,68.38059],[22.85091,68.38086],[22.85081,68.38108],[22.85067,68.38133],[22.85051,68.38157],[22.85041,68.3817],[22.85026,68.38189],[22.85012,68.38208],[22.84992,68.3823],[22.84973,68.38249]],[[22.84973,68.38249],[22.84969,68.38252],[22.84942,68.38277],[22.84913,68.383],[22.8489,68.38319],[22.84862,68.38342],[22.84829,68.38365],[22.84792,68.38391]],[[22.84792,68.38391],[22.84715,68.38446],[22.84638,68.38499],[22.84562,68.38553],[22.84519,68.38582]],[[22.84519,68.38582],[22.84472,68.38615],[22.8443,68.38645]],[[22.8443,68.38645],[22.84416,68.38656],[22.844,68.38668],[22.84389,68.38678],[22.84378,68.38688]],[[22.84378,68.38688],[22.84333,68.38733],[22.84324,68.38741]],[[22.84324,68.38741],[22.8431,68.38753],[22.84295,68.38767]],[[22.84295,68.38767],[22.84292,68.3877]],[[22.84292,68.3877],[22.84275,68.38788],[22.84256,68.38806],[22.84234,68.3884]],[[22.84234,68.3884],[22.84225,68.38854],[22.8422,68.38862]],[[22.8422,68.38862],[22.84213,68.38882],[22.84208,68.38902],[22.84202,68.38926],[22.84201,68.38943],[22.84201,68.38956],[22.84203,68.38971],[22.84207,68.38987],[22.84212,68.39],[22.84218,68.39014],[22.84226,68.39029],[22.84235,68.39041]],[[22.84235,68.39041],[22.84255,68.39073],[22.84268,68.39095],[22.84279,68.39115],[22.84287,68.39131],[22.84296,68.39149],[22.84303,68.39165],[22.84309,68.39182],[22.84312,68.39195],[22.84313,68.39209],[22.84312,68.39221],[22.84311,68.39233],[22.84308,68.39249],[22.84302,68.39262]],[[22.84302,68.39262],[22.84291,68.39287],[22.84275,68.3933]],[[22.84275,68.3933],[22.84262,68.39371]],[[22.84262,68.39371],[22.84256,68.39387],[22.84241,68.39418],[22.84214,68.39476],[22.84195,68.39523],[22.84172,68.39561],[22.84143,68.39596],[22.84128,68.39611],[22.84108,68.39625],[22.84086,68.39638],[22.84061,68.39653]],[[22.84061,68.39653],[22.8403,68.39669],[22.83975,68.39694],[22.83912,68.39723],[22.83836,68.39759],[22.8376,68.39794],[22.83688,68.39828],[22.83618,68.39861],[22.83546,68.39895],[22.83483,68.39923],[22.83443,68.3994]],[[22.83443,68.3994],[22.83368,68.39975],[22.83261,68.40023],[22.83185,68.40056],[22.83109,68.40088],[22.8304,68.40118],[22.82964,68.4015],[22.82892,68.4018],[22.82839,68.40203]],[[22.82839,68.40203],[22.82813,68.40214],[22.82784,68.40227]],[[22.82784,68.40227],[22.82724,68.4025],[22.82652,68.40281],[22.82574,68.40314],[22.8248,68.40354],[22.8241,68.40382],[22.82361,68.40403],[22.82287,68.40432],[22.82209,68.40464],[22.82156,68.40489],[22.82112,68.40509],[22.82068,68.40532],[22.81988,68.40574],[22.81922,68.4061],[22.81855,68.40645],[22.81795,68.40676],[22.81742,68.40703],[22.81658,68.40748],[22.81572,68.40794],[22.81496,68.40833],[22.81428,68.4087],[22.81391,68.40894],[22.81361,68.40921],[22.81352,68.40939],[22.81345,68.40957],[22.81342,68.4098],[22.81346,68.41011],[22.81357,68.41034],[22.81371,68.41056],[22.81394,68.41082],[22.8143,68.41107],[22.81478,68.41135],[22.81525,68.41161],[22.81596,68.41199],[22.81668,68.41239],[22.81759,68.4129],[22.81827,68.4133],[22.81857,68.41349],[22.81882,68.41367],[22.81903,68.41383],[22.81921,68.414],[22.81935,68.41419],[22.81951,68.41442],[22.81968,68.41462],[22.81988,68.41489],[22.82011,68.41524],[22.82028,68.41554],[22.82035,68.41579],[22.82042,68.41611]],[[22.82042,68.41611],[22.82023,68.41654],[22.81964,68.41741],[22.81923,68.41792],[22.81859,68.41881],[22.81798,68.41954],[22.81767,68.41995],[22.81748,68.42019],[22.81729,68.4204],[22.81704,68.42065],[22.81657,68.42095],[22.81607,68.4212]],[[22.81607,68.4212],[22.81598,68.42125],[22.81543,68.42152],[22.81382,68.42221],[22.81229,68.42289],[22.81126,68.42334],[22.81092,68.42347]],[[22.81092,68.42347],[22.81035,68.42367],[22.80915,68.424],[22.80811,68.42423],[22.8072,68.42437],[22.80645,68.42448],[22.80593,68.42454],[22.80433,68.42469],[22.80369,68.42473],[22.80263,68.42479],[22.80101,68.42494],[22.79945,68.42516],[22.798,68.42545],[22.79695,68.42571],[22.79637,68.4259],[22.79431,68.42661]],[[22.79431,68.42661],[22.79294,68.42707],[22.7914,68.4276],[22.78974,68.42818]],[[22.78974,68.42818],[22.78791,68.42879],[22.78569,68.42956]],[[22.78569,68.42956],[22.7843,68.43005],[22.78321,68.43042],[22.78192,68.43086],[22.78062,68.4313],[22.77918,68.43179],[22.77856,68.43203],[22.77809,68.43222],[22.77754,68.43253],[22.77721,68.4327],[22.77684,68.43293],[22.7764,68.4332],[22.77537,68.43381],[22.7744,68.43429],[22.77401,68.43445]],[[22.77401,68.43445],[22.77355,68.43461],[22.77328,68.4347]],[[22.77328,68.4347],[22.77263,68.43491],[22.77138,68.43529],[22.77108,68.43538],[22.76997,68.43571],[22.76887,68.43605],[22.7677,68.43642],[22.76704,68.43662],[22.76643,68.4368],[22.76506,68.43724],[22.76402,68.43755],[22.76327,68.43777],[22.76196,68.43818],[22.7608,68.43853],[22.75968,68.43888],[22.75822,68.43931],[22.7575,68.43954],[22.75625,68.43992],[22.755,68.44031],[22.75422,68.44053],[22.75337,68.4408],[22.75209,68.44119],[22.751,68.44153],[22.75019,68.44177],[22.74888,68.44215],[22.74816,68.44232],[22.74753,68.44247],[22.74675,68.44264],[22.74621,68.44273],[22.74533,68.44284],[22.74482,68.44291],[22.7442,68.44298],[22.74347,68.44305],[22.74265,68.4431],[22.74179,68.44315],[22.74106,68.44319],[22.7401,68.44324],[22.73944,68.44328],[22.73897,68.4433],[22.73827,68.44332],[22.7378,68.44335],[22.73678,68.44342],[22.73583,68.44347],[22.7354,68.4435],[22.73498,68.44352],[22.73388,68.44357],[22.7332,68.4436]],[[22.7332,68.4436],[22.73234,68.44364]],[[22.73234,68.44364],[22.73114,68.4437],[22.73,68.44376],[22.72851,68.44383],[22.72718,68.44395],[22.72574,68.44415],[22.72492,68.44429],[22.72413,68.44443],[22.72323,68.44459],[22.7225,68.44473],[22.72138,68.44495],[22.72021,68.44516],[22.71905,68.44534],[22.71771,68.44547],[22.71634,68.44556],[22.71498,68.44562],[22.71361,68.44569],[22.71266,68.44572],[22.71148,68.44578],[22.71023,68.44583],[22.70895,68.44589]],[[22.70895,68.44589],[22.70759,68.44595],[22.70609,68.44602],[22.70491,68.44607],[22.70383,68.44611]],[[22.70383,68.44611],[22.70171,68.44619],[22.69965,68.44629],[22.69771,68.44637],[22.69577,68.44646],[22.69341,68.44656],[22.69183,68.44659],[22.69029,68.44656],[22.68888,68.44643],[22.68775,68.44628],[22.68632,68.44602],[22.68523,68.44577],[22.68428,68.44549],[22.68399,68.44538],[22.68325,68.44512],[22.68256,68.44478],[22.68198,68.4445],[22.68104,68.44403],[22.68028,68.44363],[22.67937,68.44319],[22.67847,68.44272],[22.67783,68.44238],[22.67716,68.44207],[22.67658,68.44175],[22.6754,68.44115],[22.67451,68.44069],[22.67364,68.4403],[22.67271,68.43996],[22.67216,68.43979],[22.67151,68.43962],[22.67073,68.43943],[22.67021,68.43932],[22.6695,68.43921],[22.66791,68.43898],[22.66647,68.4388],[22.66511,68.43864],[22.66388,68.43848],[22.66273,68.43834],[22.66132,68.43817],[22.65993,68.43802],[22.6587,68.43785],[22.65741,68.43769],[22.65591,68.43751],[22.65437,68.43732],[22.65258,68.43712],[22.65227,68.43708]]]},"properties":{"name":"Vt 21 parantaminen välillä Palojoensuu – Jatuni ST, Enontekiö","kind":"project","ptype":"road","subtype":"Tiehanke","status":"kaynnissa","date":"2022–2028","url":"https://vayla.fi/hankkeet","source":"Väylävirasto"}},{"type":"Feature","geometry":{"type":"MultiLineString","coordinates":[[[20.93232,68.97623],[20.93195,68.97633],[20.93191,68.97634],[20.93129,68.97652],[20.93128,68.97652],[20.93053,68.97673],[20.93051,68.97674],[20.9297,68.97698],[20.92968,68.97699],[20.92883,68.97724],[20.92806,68.97747],[20.92804,68.97748],[20.92744,68.97767],[20.92723,68.97774],[20.9272,68.97775],[20.9265,68.97803],[20.92647,68.97804],[20.92593,68.97825],[20.92592,68.97826],[20.92504,68.9786],[20.92501,68.97861],[20.92373,68.97911],[20.9237,68.97912],[20.92255,68.97957],[20.92193,68.97983],[20.92171,68.97993],[20.92168,68.97994],[20.92131,68.98013],[20.92113,68.98024],[20.9211,68.98025],[20.92039,68.98071],[20.92037,68.98072],[20.91962,68.98123],[20.91961,68.98123],[20.91873,68.98182],[20.91812,68.98227],[20.9181,68.98229],[20.91734,68.98277],[20.91734,68.98278],[20.91689,68.98305],[20.91681,68.9831],[20.91679,68.98311],[20.91639,68.98331],[20.91603,68.98349],[20.91602,68.98349],[20.91541,68.9838],[20.9153,68.98385],[20.91529,68.98386],[20.91485,68.98412],[20.91476,68.98418],[20.91475,68.98419],[20.91441,68.98443],[20.9143,68.98451],[20.9139,68.98486],[20.91351,68.98521],[20.9135,68.98521],[20.91311,68.98558],[20.9131,68.98559],[20.91269,68.98601],[20.91268,68.98603],[20.91224,68.98658],[20.91223,68.98659],[20.91182,68.98717],[20.91152,68.98755],[20.91125,68.98793],[20.91125,68.98794],[20.91099,68.98826],[20.91098,68.98827],[20.91069,68.98865],[20.91068,68.98866],[20.91048,68.98891],[20.91047,68.98892],[20.91027,68.98922],[20.91002,68.98955],[20.91001,68.98956],[20.90979,68.98983],[20.90978,68.98984],[20.90955,68.99017],[20.90954,68.99019],[20.90923,68.99062],[20.90923,68.99062],[20.90904,68.9909],[20.90903,68.99091],[20.90884,68.9912],[20.90883,68.99121],[20.90863,68.99149],[20.90862,68.9915],[20.90845,68.99174],[20.90845,68.99175],[20.90825,68.99199],[20.90824,68.99199],[20.90805,68.99227],[20.90804,68.99228],[20.90779,68.99257],[20.90778,68.99259],[20.90762,68.99283],[20.90762,68.99284],[20.90737,68.99317],[20.90736,68.99318],[20.9071,68.99352],[20.90709,68.99354],[20.90685,68.99385],[20.90684,68.99386],[20.90656,68.99423],[20.90655,68.99424],[20.90626,68.99464],[20.90597,68.99504],[20.90596,68.99505],[20.90569,68.99543],[20.90568,68.99543],[20.90542,68.9958],[20.90519,68.99611],[20.90518,68.99612],[20.90494,68.99643],[20.90493,68.99644],[20.90471,68.99674],[20.9047,68.99675],[20.90444,68.99712],[20.90442,68.99713],[20.90413,68.9975],[20.90412,68.99751],[20.90396,68.99774],[20.90383,68.9979],[20.90382,68.99791]],[[20.90382,68.99791],[20.90363,68.99817],[20.90362,68.99818],[20.90331,68.99854],[20.9033,68.99856]],[[20.9033,68.99856],[20.90319,68.99868],[20.90295,68.99893],[20.90293,68.99895],[20.90272,68.99917],[20.90248,68.9994],[20.90247,68.99941],[20.90225,68.99963],[20.90224,68.99964],[20.90202,68.99986]],[[20.90202,68.99986],[20.90171,69.00014],[20.9017,69.00015],[20.90135,69.00049],[20.90134,69.0005],[20.90101,69.0008],[20.90074,69.00105],[20.90073,69.00106]],[[20.90073,69.00106],[20.90044,69.00137],[20.90015,69.00163],[20.90014,69.00164],[20.8998,69.00192],[20.89979,69.00193],[20.89945,69.00219],[20.89944,69.00219],[20.89895,69.00253],[20.89887,69.00257],[20.89886,69.00258],[20.89877,69.00263]]]},"properties":{"name":"Vt 21 parantaminen välillä Ailakkalahti-Kilpisjärvi KU","kind":"project","ptype":"road","subtype":"Tiehanke","status":"kaynnissa","date":"2025–2025","url":"https://vayla.fi/vt-21-ailakkalahti-kilpisjarvi-enontekio","source":"Väylävirasto"}},{"type":"Feature","geometry":{"type":"MultiLineString","coordinates":[[[20.8967,69.00466],[20.89661,69.00494],[20.89648,69.00531],[20.89648,69.00532],[20.89629,69.0058],[20.89629,69.0058]],[[20.89629,69.0058],[20.89617,69.00605],[20.89617,69.00605],[20.89608,69.00625],[20.89604,69.00632],[20.89604,69.00632],[20.89598,69.00641],[20.89586,69.00655],[20.89585,69.00655],[20.89561,69.00682],[20.8956,69.00684],[20.89549,69.007]],[[20.89549,69.007],[20.89542,69.00711],[20.89523,69.00735],[20.89523,69.00735],[20.89504,69.00757],[20.89502,69.00759],[20.8949,69.00775],[20.89488,69.00776]],[[20.89488,69.00776],[20.89459,69.00812],[20.89442,69.00833],[20.89442,69.00834],[20.89424,69.00856],[20.89423,69.00858],[20.89406,69.00879],[20.89405,69.0088],[20.89389,69.00901],[20.89388,69.00901],[20.8937,69.00921],[20.8937,69.00922],[20.89352,69.00945],[20.89351,69.00946],[20.89334,69.00964],[20.89333,69.00965],[20.8931,69.00987],[20.89309,69.00988],[20.89295,69.01001],[20.89293,69.01003],[20.89292,69.01004],[20.89274,69.01016],[20.89272,69.01018],[20.89254,69.0103],[20.89253,69.01031],[20.89234,69.01044],[20.89232,69.01045],[20.89224,69.0105]]]},"properties":{"name":"Vt 21 parantaminen välillä Ailakkalahti-Kilpisjärvi KU","kind":"project","ptype":"road","subtype":"Tiehanke","status":"kaynnissa","date":"2025–2025","url":"https://vayla.fi/vt-21-ailakkalahti-kilpisjarvi-enontekio","source":"Väylävirasto"}},{"type":"Feature","geometry":{"type":"LineString","coordinates":[[23.82204,68.4084],[23.82097,68.40847],[23.81992,68.40854],[23.81965,68.40856]]},"properties":{"name":"Kunnossapitojakso, E18 Koskenkylä-Kotka","kind":"project","ptype":"road","subtype":"Tiehanke","status":"kaynnissa","date":"2014–2026","url":"https://vayla.fi/hankkeet","source":"Väylävirasto"}},{"type":"Feature","geometry":{"type":"LineString","coordinates":[[24.16795,65.85316],[24.16831,65.87145],[24.14811,65.90817],[24.14039,65.92036],[24.13217,65.92994],[24.1098,65.93796],[24.09824,65.94651],[24.08407,65.95219],[24.06394,65.97279],[24.06763,65.97762],[24.07542,65.99302],[24.07781,66.00226],[24.04495,66.04058],[24.01965,66.05437],[24.00288,66.05664],[23.95292,66.11138],[23.95064,66.11923],[23.94936,66.14322],[23.93053,66.16189],[23.89883,66.17402],[23.88086,66.17658],[23.86056,66.18061],[23.84938,66.18438],[23.82491,66.18745],[23.80622,66.19984],[23.80433,66.21473],[23.79587,66.22018],[23.76202,66.23332],[23.6856,66.29446],[23.6707,66.30756],[23.68695,66.33117],[23.69517,66.34444],[23.72083,66.36035],[23.72057,66.36651],[23.71004,66.37483],[23.71294,66.38355],[23.70366,66.39666],[23.70713,66.40312],[23.68466,66.42396],[23.68282,66.45616],[23.68803,66.45974],[23.70974,66.46539],[23.72037,66.47102],[23.73381,66.48829],[23.75774,66.5022],[23.76572,66.50962],[23.79315,66.51559],[23.80363,66.52057],[23.80886,66.52846],[23.8415,66.54276],[23.86397,66.54754],[23.87406,66.55369],[23.87937,66.56764],[23.895,66.58396],[23.91236,66.6411],[23.94153,66.65865],[23.9426,66.67142],[23.96738,66.70749],[23.96191,66.75113],[24.00017,66.79664],[23.99848,66.81046],[24.00567,66.82119],[24.00371,66.83057],[23.9984,66.8335],[23.98824,66.84023],[23.86868,66.95658],[23.84993,66.99061],[23.87393,67.07059],[23.87882,67.13819],[23.82301,67.25155],[23.8329,67.32282],[23.83323,67.32877]]},"properties":{"name":"POKA VT17.2 Laurila-Patokangas","kind":"project","ptype":"rail","subtype":"Ratahanke","status":"kaynnissa","date":"2022–2025","url":"https://vayla.fi/hankkeet","source":"Väylävirasto"}},{"type":"Feature","geometry":{"type":"LineString","coordinates":[[24.16795,65.85316],[24.16831,65.87145],[24.14811,65.90817],[24.14039,65.92036],[24.13217,65.92994],[24.1098,65.93796],[24.09824,65.94651],[24.08407,65.95219],[24.06394,65.97279],[24.06763,65.97762],[24.07542,65.99302],[24.07781,66.00226],[24.04495,66.04058],[24.01965,66.05437],[24.00288,66.05664],[23.95292,66.11138],[23.95064,66.11923],[23.94936,66.14322],[23.93053,66.16189],[23.89883,66.17402],[23.88086,66.17658],[23.86056,66.18061],[23.84938,66.18438],[23.82491,66.18745],[23.80622,66.19984],[23.80433,66.21473],[23.79587,66.22018],[23.76202,66.23332],[23.6856,66.29446],[23.6707,66.30756],[23.68695,66.33117],[23.69517,66.34444],[23.72083,66.36035],[23.72057,66.36651],[23.71004,66.37483],[23.71294,66.38355],[23.70366,66.39666],[23.70713,66.40312],[23.68466,66.42396],[23.68282,66.45616],[23.68803,66.45974],[23.70974,66.46539],[23.72037,66.47102],[23.73381,66.48829],[23.75774,66.5022],[23.76572,66.50962],[23.79315,66.51559],[23.80363,66.52057],[23.80886,66.52846],[23.8415,66.54276],[23.86397,66.54754],[23.87406,66.55369],[23.87937,66.56764],[23.895,66.58396],[23.91236,66.6411],[23.94153,66.65865],[23.9426,66.67142],[23.96738,66.70749],[23.96191,66.75113],[24.00017,66.79664],[23.99848,66.81046],[24.00567,66.82119],[24.00371,66.83057],[23.9984,66.8335],[23.98824,66.84023],[23.86868,66.95658],[23.84993,66.99061],[23.87393,67.07059],[23.87882,67.13819],[23.82301,67.25155],[23.8329,67.32282],[23.83323,67.32877]]},"properties":{"name":"POKA VT17.1 Tornio-Kolari","kind":"project","ptype":"rail","subtype":"Ratahanke","status":"kaynnissa","date":"2022–2025","url":"https://vayla.fi/hankkeet","source":"Väylävirasto"}}]}