{"type":"FeatureCollection","features":[{"type":"Feature","geometry":{"type":"MultiPoint","coordinates":[[28.31538,64.14417]]},"properties":{"name":"Kt 76 Lahtikadun liittymän liikennejärjestelyt","kind":"project","ptype":"road","subtype":"Tiehanke","status":"kaynnissa","date":"2026–2027","url":"https://vayla.fi/hankkeet","source":"Väylävirasto"}},{"type":"Feature","geometry":{"type":"LineString","coordinates":[[27.77127,64.22456],[27.77312,64.225]]},"properties":{"name":"RO2101 Petäisenkosken rs uusiminen 2027","kind":"project","ptype":"rail","subtype":"Ratahanke","status":"kaynnissa","date":"2027–2027","url":"https://vayla.fi/hankkeet","source":"Väylävirasto"}}]}