{"type":"FeatureCollection","features":[{"type":"Feature","geometry":{"type":"MultiLineString","coordinates":[[[25.63539,60.41441],[25.63531,60.41441],[25.6352,60.41441],[25.63509,60.41441],[25.63506,60.41441],[25.63495,60.41442],[25.63463,60.41445],[25.63462,60.41446]],[[25.63462,60.41446],[25.63457,60.41446],[25.63444,60.41449],[25.6343,60.41451],[25.63417,60.41454],[25.63404,60.41458],[25.63395,60.4146],[25.63393,60.41461]],[[25.63393,60.41461],[25.63389,60.41462],[25.63374,60.41467],[25.63368,60.41469],[25.63366,60.4147],[25.63363,60.41471],[25.63358,60.41474],[25.6334,60.41483],[25.63318,60.41494],[25.63317,60.41495],[25.63292,60.41508],[25.63291,60.41509],[25.63265,60.41521],[25.63264,60.41521],[25.63262,60.41523],[25.63237,60.41534],[25.63215,60.41543],[25.63209,60.41545],[25.63208,60.41545],[25.63179,60.41556],[25.63177,60.41557],[25.63151,60.41567],[25.63148,60.41568],[25.63131,60.41575],[25.6313,60.41575]],[[25.6313,60.41575],[25.63125,60.41577],[25.63114,60.41581],[25.63101,60.41588],[25.631,60.41588],[25.63083,60.41597],[25.63076,60.41601],[25.63075,60.41602],[25.63053,60.41616],[25.63051,60.41617],[25.63027,60.41632],[25.63026,60.41633],[25.63005,60.41647],[25.63003,60.41648],[25.62999,60.41651],[25.62997,60.41652],[25.62985,60.41659],[25.62959,60.41674],[25.62954,60.41677],[25.62953,60.41677],[25.62905,60.41702],[25.62904,60.41702],[25.62869,60.4172],[25.62867,60.41721],[25.62865,60.41722],[25.62849,60.41732],[25.6284,60.41738],[25.62838,60.41739],[25.62838,60.41739]]]},"properties":{"name":"Valtatie 7 (Suomenkyläntie) vesihuollon rakentaminen, Porvoo","kind":"project","ptype":"road","subtype":"Tiehanke","status":"kaynnissa","date":"2022–2024","url":"https://vayla.fi/hankkeet","source":"Väylävirasto"}},{"type":"Feature","geometry":{"type":"MultiLineString","coordinates":[[[25.64394,60.41193],[25.64396,60.41194]],[[25.64424,60.41174],[25.64425,60.41175]]]},"properties":{"name":"Valtatie 7 (Suomenkyläntie) vesihuollon rakentaminen, Porvoo","kind":"project","ptype":"road","subtype":"Tiehanke","status":"kaynnissa","date":"2022–2024","url":"https://vayla.fi/hankkeet","source":"Väylävirasto"}},{"type":"Feature","geometry":{"type":"MultiLineString","coordinates":[[[25.63544,60.41436],[25.63539,60.41436],[25.63514,60.41437],[25.63512,60.41437],[25.63483,60.41438],[25.63472,60.41439],[25.63468,60.41439],[25.63468,60.41439],[25.63461,60.4144],[25.6345,60.41441],[25.6344,60.41443],[25.6343,60.41444],[25.63427,60.41445],[25.63413,60.41448],[25.63391,60.41454],[25.63389,60.41454]],[[25.63389,60.41454],[25.63386,60.41455],[25.6338,60.41457],[25.63379,60.41457],[25.63376,60.41458],[25.63373,60.41459],[25.6337,60.4146],[25.63367,60.41462],[25.63354,60.41468],[25.63351,60.41469],[25.63324,60.41484],[25.63322,60.41485],[25.63294,60.41499],[25.63294,60.41499],[25.63264,60.41515],[25.63262,60.41516],[25.63236,60.41528],[25.63225,60.41533],[25.63224,60.41533],[25.6319,60.41547],[25.63189,60.41547],[25.63151,60.41561],[25.63151,60.41561],[25.63126,60.41569],[25.63125,60.4157]],[[25.63125,60.4157],[25.63116,60.41573],[25.63115,60.41574],[25.63103,60.41578],[25.63082,60.41588],[25.6308,60.41589],[25.63054,60.41602],[25.6304,60.4161],[25.63038,60.41611],[25.63014,60.41627],[25.63008,60.41632],[25.62994,60.41642],[25.62992,60.41643],[25.6298,60.41652],[25.62977,60.41654],[25.62968,60.41659],[25.62956,60.41666],[25.62935,60.41676],[25.62902,60.41692],[25.62865,60.4171],[25.62845,60.41721],[25.62832,60.41729],[25.62829,60.41731],[25.62829,60.41731],[25.62824,60.41734]]]},"properties":{"name":"Valtatie 7 (Suomenkyläntie) vesihuollon rakentaminen, Porvoo","kind":"project","ptype":"road","subtype":"Tiehanke","status":"kaynnissa","date":"2022–2024","url":"https://vayla.fi/hankkeet","source":"Väylävirasto"}},{"type":"Feature","geometry":{"type":"MultiLineString","coordinates":[[[25.49646,60.31701],[25.49662,60.31691],[25.49667,60.31689],[25.49672,60.31686],[25.49672,60.31686],[25.49677,60.31683],[25.49685,60.3168],[25.497,60.31674],[25.49723,60.31666],[25.49724,60.31666],[25.49749,60.31656],[25.49751,60.31655]],[[25.49751,60.31655],[25.49795,60.31635]]]},"properties":{"name":"Maantie 148 Hyrylä - Sköldvik (Nesteentie) parantaminen Kulloon yritysalueen rakentamisen yhteydessä","kind":"project","ptype":"road","subtype":"Tiehanke","status":"kaynnissa","date":"2021–2025","url":"https://vayla.fi/hankkeet","source":"Väylävirasto"}}]}