{"type":"FeatureCollection","features":[{"type":"Feature","geometry":{"type":"LineString","coordinates":[[24.31237,61.62459],[24.32232,61.6279],[24.32502,61.63131],[24.33115,61.63395],[24.33541,61.63622],[24.33666,61.63736],[24.35279,61.64133],[24.36497,61.64866],[24.37864,61.6553],[24.38519,61.6582],[24.40081,61.65966],[24.41464,61.65694],[24.42424,61.66092],[24.43022,61.66688],[24.46059,61.67833],[24.46917,61.68167],[24.48484,61.68213],[24.51252,61.68982],[24.53191,61.69058],[24.53618,61.69117],[24.55224,61.70131],[24.57591,61.70532],[24.61117,61.70235],[24.624,61.70411],[24.64788,61.71694],[24.66314,61.72674],[24.673,61.7308],[24.70779,61.73139],[24.73593,61.73412],[24.7389,61.73488]]},"properties":{"name":"Vt 9 ja Kt 58 tievalaisimien uusinta Orivesi","kind":"project","ptype":"road","subtype":"Tiehanke","status":"kaynnissa","date":"2025–2025","url":"https://vayla.fi/hankkeet","source":"Väylävirasto"}}]}