{"type":"FeatureCollection","features":[{"type":"Feature","geometry":{"type":"LineString","coordinates":[[24.53021,65.79856],[24.59079,65.8722],[24.61997,65.89948],[24.64501,65.90333],[24.69028,65.94121],[24.721,66.02472],[24.76637,66.06518],[24.81981,66.11266],[24.99833,66.14881],[25.09821,66.15613],[25.22739,66.17323],[25.33176,66.24444],[25.32049,66.28497],[25.34374,66.32327],[25.33331,66.35084],[25.38352,66.37385],[25.36715,66.39357],[25.42285,66.43393],[25.46146,66.43864],[25.46883,66.45947],[25.58808,66.49259],[25.74801,66.49914],[25.80507,66.52898],[26.03366,66.50635],[26.21503,66.52638],[26.26707,66.52664],[26.46951,66.59143],[26.69742,66.62057],[26.92369,66.64851],[27.09151,66.65888],[27.18324,66.68387],[27.2445,66.69935],[27.43695,66.71709],[27.46358,66.71534]]},"properties":{"name":"POKA VT17.2 Laurila-Patokangas","kind":"project","ptype":"rail","subtype":"Ratahanke","status":"kaynnissa","date":"2022–2025","url":"https://vayla.fi/hankkeet","source":"Väylävirasto"}},{"type":"Feature","geometry":{"type":"LineString","coordinates":[[27.22041,66.69593],[27.2214,66.69611],[27.22208,66.69628],[27.22491,66.6968],[27.2256,66.69691],[27.22613,66.69699],[27.2264,66.69702],[27.22735,66.69719]]},"properties":{"name":"Hankikosken vaihteenvaihdot 2027","kind":"project","ptype":"rail","subtype":"Ratahanke","status":"kaynnissa","date":"2027–2027","url":"https://vayla.fi/hankkeet","source":"Väylävirasto"}}]}