{"type":"FeatureCollection","features":[{"type":"Feature","geometry":{"type":"MultiLineString","coordinates":[[[22.01031,62.97957],[22.01016,62.9797],[22.00984,62.97986],[22.0094,62.98008],[22.00915,62.9802]],[[22.00915,62.9802],[22.00861,62.98045],[22.00788,62.9808],[22.00662,62.98141],[22.00616,62.98164],[22.00529,62.98207],[22.00456,62.98242]],[[22.00456,62.98242],[22.00439,62.9825]],[[22.00439,62.9825],[22.00433,62.98253]],[[22.00433,62.98253],[22.00424,62.98257]],[[22.00424,62.98257],[22.00393,62.9827],[22.00354,62.98285]],[[22.00354,62.98285],[22.00313,62.983],[22.00267,62.98316],[22.00235,62.98327],[22.00158,62.9835],[22.00096,62.98366],[22.00029,62.98382]],[[22.00029,62.98382],[21.99972,62.98395],[21.99938,62.98403]],[[21.99938,62.98403],[21.99926,62.98406],[21.9988,62.98416],[21.9981,62.98432],[21.99749,62.98446],[21.99674,62.98462]],[[21.99674,62.98462],[21.9961,62.98476],[21.9955,62.9849],[21.9951,62.98499],[21.99473,62.98508],[21.99439,62.98517],[21.99415,62.98524],[21.99376,62.98535],[21.99376,62.98535]],[[21.99376,62.98535],[21.99321,62.98551],[21.99309,62.98555]],[[21.99309,62.98555],[21.99288,62.98562],[21.99259,62.98571]],[[21.99259,62.98571],[21.99215,62.98586],[21.99177,62.986],[21.9912,62.98623],[21.99098,62.98632]],[[21.99098,62.98632],[21.99091,62.98635]],[[21.99091,62.98635],[21.99052,62.98652],[21.99016,62.98668],[21.98933,62.98707]],[[21.98933,62.98707],[21.98906,62.98719]],[[21.98906,62.98719],[21.98853,62.98743],[21.98822,62.98757],[21.98746,62.98788],[21.98701,62.98806],[21.98674,62.98816],[21.98576,62.98852],[21.98534,62.98867],[21.98513,62.98873],[21.98433,62.98898],[21.98395,62.9891],[21.98346,62.98924],[21.9831,62.98935],[21.98211,62.9896],[21.98151,62.98975],[21.98128,62.9898],[21.98108,62.98985],[21.98071,62.98994]],[[21.98071,62.98994],[21.97935,62.99022],[21.97908,62.99027],[21.97762,62.99053],[21.97731,62.99059],[21.97708,62.99063],[21.97697,62.99065],[21.97697,62.99065]],[[21.97697,62.99065],[21.97662,62.99071],[21.97587,62.99085],[21.97514,62.99098],[21.97452,62.99109],[21.97441,62.99111],[21.97426,62.99114],[21.9742,62.99115],[21.97414,62.99115],[21.97407,62.99115]],[[22.01029,62.97956],[22.00992,62.97969],[22.00965,62.97982],[22.00911,62.98009],[22.00901,62.98014]],[[22.00901,62.98014],[22.00771,62.98077],[22.00729,62.98097],[22.00642,62.98143],[22.00565,62.9818],[22.005,62.98211],[22.00446,62.98237]],[[22.00446,62.98237],[22.0043,62.98246]],[[22.0043,62.98246],[22.00421,62.9825]],[[22.00421,62.9825],[22.00413,62.98253]],[[22.00413,62.98253],[22.00406,62.98256],[22.00355,62.98277],[22.00319,62.98291],[22.00249,62.98316],[22.00197,62.98333],[22.00151,62.98345],[22.00106,62.98358],[22.00068,62.98367],[22.0002,62.98379]],[[22.0002,62.98379],[22.00008,62.98381],[21.99935,62.98398],[21.99769,62.98435]],[[21.99769,62.98435],[21.99666,62.98458]],[[21.99666,62.98458],[21.9958,62.98477],[21.99517,62.98492],[21.99426,62.98514]],[[21.99426,62.98514],[21.99369,62.98531]],[[21.99369,62.98531],[21.99342,62.98539],[21.99304,62.9855]],[[21.99304,62.9855],[21.9928,62.98558],[21.99263,62.98563],[21.99256,62.98566],[21.9925,62.98568],[21.99236,62.98573],[21.99175,62.98595],[21.9915,62.98604],[21.99107,62.98621],[21.99081,62.98632]],[[21.99081,62.98632],[21.99075,62.98634]],[[21.99075,62.98634],[21.99069,62.98637],[21.99023,62.98658],[21.98919,62.98706]],[[21.98919,62.98706],[21.98892,62.98718]],[[21.98892,62.98718],[21.9885,62.98737],[21.9881,62.98755],[21.98762,62.98775],[21.98722,62.98791],[21.98652,62.98818],[21.98608,62.98834],[21.98573,62.98847],[21.98515,62.98866],[21.98407,62.989],[21.98311,62.98928],[21.98264,62.98941],[21.98228,62.9895],[21.9808,62.98986],[21.97983,62.99007],[21.97859,62.9903],[21.97782,62.99044]],[[21.97782,62.99044],[21.97733,62.99053],[21.97714,62.99056],[21.97693,62.9906],[21.97692,62.9906]],[[21.97692,62.9906],[21.97631,62.9907],[21.97564,62.99083],[21.97468,62.991],[21.97439,62.99106],[21.97428,62.99108],[21.97424,62.99109],[21.97418,62.9911],[21.97414,62.99111],[21.9741,62.99113],[21.97407,62.99115]],[[21.97407,62.99115],[21.9735,62.99125]],[[21.9735,62.99125],[21.97253,62.99142],[21.97078,62.99172]],[[21.97078,62.99172],[21.97069,62.99174]]]},"properties":{"name":"Vt 3 ja 18 parantaminen Laihian kohdalla ST","kind":"project","ptype":"road","subtype":"Tiehanke","status":"kaynnissa","date":"2015–2025","url":"https://vayla.fi/vt3laihia#.XMvsWKRS9hE","source":"Väylävirasto"}},{"type":"Feature","geometry":{"type":"MultiLineString","coordinates":[[[21.98589,62.98724],[21.98628,62.98716],[21.98658,62.98712],[21.98681,62.98709],[21.98703,62.98707],[21.98725,62.98706],[21.98771,62.98705],[21.98797,62.98705],[21.98819,62.98706],[21.98861,62.98708],[21.98879,62.98709],[21.98888,62.9871]],[[21.98888,62.9871],[21.98925,62.98714]],[[21.98925,62.98714],[21.98929,62.98715],[21.98943,62.98717],[21.98959,62.98719],[21.98968,62.9872],[21.98989,62.98724],[21.99015,62.98728],[21.99048,62.98735],[21.99096,62.98744],[21.99107,62.98746]],[[21.99107,62.98746],[21.99148,62.98754],[21.99175,62.98758],[21.99182,62.9876],[21.99203,62.98763],[21.99224,62.98766],[21.99239,62.98768],[21.99254,62.98769],[21.99268,62.98771],[21.99277,62.98772],[21.99292,62.98773],[21.99306,62.98775],[21.99324,62.98776],[21.9934,62.98778],[21.99365,62.9878],[21.99387,62.98781],[21.99403,62.98782],[21.99428,62.98784],[21.99446,62.98784],[21.99467,62.98785],[21.99486,62.98786],[21.99514,62.98787],[21.99532,62.98788],[21.9956,62.98789],[21.99588,62.98789],[21.99607,62.98789],[21.99622,62.9879],[21.99653,62.9879],[21.9967,62.9879],[21.9971,62.9879]],[[21.9971,62.9879],[21.99743,62.98789],[21.99767,62.98789],[21.99792,62.98788],[21.99817,62.98787],[21.99848,62.98786],[21.99872,62.98785],[21.99904,62.98783],[21.99942,62.98781],[21.99965,62.98779]],[[21.99965,62.98779],[21.99973,62.98779],[22.00042,62.98775],[22.00086,62.98772],[22.00129,62.98769],[22.0021,62.98764]],[[22.0021,62.98764],[22.00229,62.98763],[22.00251,62.98762],[22.00304,62.98758],[22.00359,62.98755]],[[22.00359,62.98755],[22.00413,62.98752],[22.00488,62.98747],[22.00541,62.98744],[22.00647,62.98737],[22.00679,62.98735],[22.00708,62.98733],[22.00808,62.98727],[22.00875,62.98723]],[[22.00875,62.98723],[22.00904,62.98721]],[[22.00904,62.98721],[22.00931,62.9872],[22.00998,62.98715],[22.01074,62.98711],[22.01127,62.98707],[22.01165,62.98705],[22.01223,62.98702],[22.01259,62.98699],[22.0131,62.98696],[22.01328,62.98695]]]},"properties":{"name":"Vt 3 ja 18 parantaminen Laihian kohdalla ST","kind":"project","ptype":"road","subtype":"Tiehanke","status":"kaynnissa","date":"2015–2025","url":"https://vayla.fi/vt3laihia#.XMvsWKRS9hE","source":"Väylävirasto"}},{"type":"Feature","geometry":{"type":"MultiLineString","coordinates":[[[22.05437,62.93014],[22.05441,62.93011]],[[22.05441,62.93011],[22.05442,62.9301],[22.05454,62.93001],[22.05456,62.93],[22.05463,62.92993],[22.05472,62.92983],[22.05474,62.92982],[22.05484,62.9297],[22.05484,62.9297]],[[22.05484,62.9297],[22.05507,62.92947],[22.05508,62.92947],[22.0553,62.92928],[22.05531,62.92927],[22.05551,62.92912],[22.05552,62.92911],[22.05568,62.92901],[22.05569,62.929],[22.056,62.92882],[22.05601,62.92882],[22.05634,62.92864],[22.05634,62.92864],[22.05652,62.92854],[22.05654,62.92852],[22.05656,62.92851],[22.05672,62.92841],[22.05673,62.9284],[22.05684,62.92833],[22.05686,62.92831],[22.05686,62.92831],[22.05692,62.92826],[22.05699,62.9282],[22.057,62.92818],[22.05701,62.92817],[22.05706,62.92811],[22.05709,62.92807],[22.0571,62.92806],[22.05713,62.92801],[22.05715,62.92795],[22.05716,62.92792],[22.05716,62.92792],[22.05718,62.92783],[22.05718,62.92782],[22.05721,62.92762],[22.05722,62.92744],[22.05723,62.92736],[22.05724,62.92735]],[[22.05724,62.92735],[22.05725,62.92727],[22.05725,62.92725],[22.05729,62.92707],[22.05735,62.92689],[22.05738,62.92683]],[[22.05738,62.92683],[22.05742,62.9267],[22.05742,62.92669],[22.05752,62.92649],[22.0576,62.92634],[22.05761,62.92632],[22.0577,62.92615],[22.0577,62.92614],[22.05781,62.92597],[22.05782,62.92595],[22.05783,62.92594],[22.05785,62.92588],[22.05787,62.92581],[22.05788,62.92576],[22.05788,62.92575],[22.05789,62.92564],[22.05788,62.92557],[22.05788,62.92556],[22.05786,62.92546],[22.05784,62.92539],[22.05784,62.92537],[22.05778,62.92521],[22.05774,62.92513],[22.05773,62.92512],[22.05767,62.92501],[22.05766,62.92499],[22.05766,62.92499],[22.05761,62.92484],[22.05761,62.92483],[22.05759,62.92478],[22.05754,62.92469],[22.05753,62.92469],[22.05746,62.92457],[22.05745,62.92456],[22.0574,62.92448],[22.05738,62.92444],[22.05738,62.92444],[22.05736,62.9244],[22.05735,62.92437],[22.05735,62.92433],[22.05734,62.92431],[22.05734,62.92419]],[[22.05734,62.92419],[22.05734,62.92413],[22.05734,62.92412],[22.05735,62.92408],[22.05736,62.92401],[22.05737,62.92399],[22.05744,62.92382],[22.05744,62.92381]],[[22.05744,62.92381],[22.05748,62.92372],[22.05748,62.92371],[22.05755,62.92359],[22.05756,62.92358],[22.05763,62.92348],[22.05763,62.92347],[22.0577,62.92339],[22.0577,62.92338]],[[22.0577,62.92338],[22.05782,62.9232],[22.05792,62.92302],[22.05793,62.92302],[22.05793,62.923],[22.05795,62.92296],[22.05795,62.92295],[22.05795,62.92293],[22.05796,62.92286],[22.05796,62.92286],[22.05797,62.92271],[22.05797,62.9227],[22.05796,62.92254],[22.05796,62.92254],[22.05796,62.92225],[22.05796,62.92211],[22.05796,62.92209],[22.05796,62.92202],[22.05796,62.922],[22.05795,62.92199],[22.05795,62.92197],[22.05794,62.92196],[22.05793,62.92194]],[[22.05793,62.92194],[22.05788,62.92187]],[[22.05788,62.92187],[22.05788,62.92186],[22.05785,62.92183],[22.05785,62.92182],[22.05772,62.92162],[22.05772,62.92161],[22.05766,62.92153],[22.05765,62.92149],[22.05764,62.92148],[22.05763,62.92146],[22.05762,62.92143],[22.05761,62.92137],[22.05761,62.92137],[22.05761,62.92128],[22.05761,62.92123],[22.05761,62.92121],[22.05762,62.92118],[22.05764,62.92111],[22.05764,62.9211],[22.05767,62.921],[22.05767,62.92098],[22.05768,62.92095],[22.05768,62.92089],[22.05768,62.92088],[22.05767,62.92083],[22.05766,62.92078],[22.05766,62.92077],[22.05765,62.92073],[22.05762,62.92064],[22.05755,62.92048],[22.05754,62.92048],[22.05746,62.92032],[22.05745,62.9203],[22.05739,62.92016],[22.05736,62.92013]],[[22.05736,62.92013],[22.0573,62.92006],[22.0573,62.92006],[22.0572,62.91994],[22.05719,62.91993],[22.05716,62.9199],[22.05704,62.91979],[22.05702,62.91977],[22.05692,62.91968],[22.05691,62.91967],[22.05689,62.91965],[22.05683,62.91959],[22.05683,62.91958],[22.05681,62.91956],[22.05676,62.91948],[22.05675,62.91947],[22.05675,62.91946],[22.05674,62.91944],[22.05667,62.91932],[22.05667,62.91931],[22.05663,62.9192],[22.05662,62.91919],[22.05661,62.91917],[22.05654,62.91901],[22.05654,62.919],[22.05645,62.91879]],[[22.05645,62.91879],[22.05645,62.91879],[22.05645,62.91879],[22.05642,62.91868],[22.05642,62.91867],[22.0564,62.91858],[22.05639,62.91851],[22.05639,62.91851],[22.05638,62.91845],[22.05639,62.91838],[22.05641,62.91829],[22.05643,62.91822],[22.05643,62.91821],[22.05644,62.9182],[22.05647,62.91814],[22.05647,62.91814]],[[22.05647,62.91814],[22.05652,62.91807],[22.05654,62.91804],[22.05656,62.91803],[22.05659,62.918],[22.05666,62.91793]],[[22.05666,62.91793],[22.05669,62.91792],[22.05669,62.91791],[22.05671,62.91789],[22.05676,62.91786],[22.05678,62.91785],[22.0568,62.91784]],[[22.0568,62.91784],[22.0568,62.91784],[22.05683,62.91782],[22.05685,62.91781],[22.05691,62.91779],[22.05699,62.91775],[22.05708,62.91771],[22.05724,62.91766],[22.05726,62.91765],[22.05732,62.91763],[22.05752,62.91757],[22.05753,62.91757],[22.05787,62.91748],[22.05788,62.91748],[22.05819,62.9174],[22.0582,62.9174],[22.05823,62.91739],[22.05845,62.91734],[22.05848,62.91734],[22.05855,62.91732],[22.05866,62.91731],[22.05869,62.9173],[22.05891,62.91727],[22.05895,62.91727],[22.05898,62.91726],[22.05902,62.91725],[22.05905,62.91724],[22.05909,62.91723],[22.05912,62.91722],[22.05913,62.91722],[22.05916,62.91721],[22.05919,62.91719],[22.05922,62.91718],[22.05924,62.91717],[22.05926,62.91716],[22.05928,62.91715],[22.05931,62.91713],[22.05933,62.91712],[22.05935,62.9171],[22.05937,62.91709],[22.05938,62.91707],[22.0594,62.91705],[22.05941,62.91704],[22.05943,62.91698]],[[22.05943,62.91698],[22.05944,62.91695],[22.05944,62.91693],[22.05944,62.91693],[22.05944,62.91691],[22.05945,62.91689],[22.05946,62.91687],[22.05946,62.91686],[22.05953,62.91675],[22.05954,62.91674],[22.05957,62.91669],[22.05959,62.91663],[22.05959,62.91663],[22.05964,62.91647],[22.05964,62.91646],[22.05969,62.91634],[22.0597,62.91632],[22.05973,62.91623],[22.05974,62.91622]],[[22.05974,62.91622],[22.05976,62.91609],[22.05982,62.9158],[22.05983,62.91558],[22.05983,62.91549],[22.05983,62.91548],[22.05981,62.91526],[22.05981,62.91525],[22.05983,62.91505],[22.05983,62.91505],[22.05985,62.91483],[22.05985,62.91483],[22.05988,62.9147],[22.05989,62.91467],[22.05989,62.91465],[22.05994,62.91453],[22.05994,62.91451],[22.05997,62.91443],[22.05998,62.91441],[22.05998,62.9144],[22.06,62.91436],[22.06006,62.91428],[22.06006,62.91427],[22.06012,62.91418],[22.06013,62.91417],[22.06014,62.91416],[22.06019,62.91411],[22.06024,62.91406],[22.06026,62.91404],[22.06027,62.91403],[22.06039,62.91394],[22.0604,62.91393],[22.06048,62.91384],[22.06049,62.91383],[22.06063,62.91372],[22.06063,62.91372],[22.06081,62.91356],[22.06082,62.91355],[22.06102,62.91335],[22.06103,62.91335],[22.06117,62.91318],[22.06133,62.91298],[22.06134,62.91296],[22.06152,62.91273],[22.06158,62.91262],[22.06158,62.91262],[22.06172,62.91234],[22.06173,62.91232],[22.06174,62.91231],[22.06181,62.91219],[22.06183,62.91216],[22.06184,62.91215],[22.06185,62.91211],[22.06186,62.91207],[22.06186,62.91202],[22.06186,62.912],[22.06186,62.912],[22.06185,62.91185],[22.06185,62.91185],[22.06185,62.91178],[22.06185,62.91174],[22.06185,62.91173],[22.06186,62.91163],[22.06186,62.91161],[22.06186,62.91149],[22.06186,62.91148],[22.06186,62.91142],[22.06188,62.91131],[22.06188,62.9113],[22.06192,62.91118],[22.06194,62.91112],[22.06195,62.91111],[22.06204,62.91094],[22.06205,62.91093],[22.06211,62.9108],[22.06211,62.9108],[22.06215,62.91073],[22.06216,62.91071],[22.06216,62.91069],[22.06216,62.91069],[22.06217,62.91067],[22.06217,62.91065],[22.06217,62.91063],[22.06217,62.91062],[22.06216,62.91056],[22.06216,62.91053],[22.06215,62.91052],[22.0621,62.91034],[22.06209,62.91033]],[[22.06209,62.91033],[22.06209,62.91032],[22.06201,62.91016],[22.062,62.91015],[22.062,62.91013],[22.06197,62.91004],[22.06197,62.91003],[22.06196,62.90997],[22.06195,62.90988],[22.06195,62.90987],[22.06196,62.90971],[22.06196,62.9097],[22.06195,62.90959],[22.06193,62.90948],[22.06193,62.90947],[22.06193,62.90937]]]},"properties":{"name":"Mt 6871 Länsitien parantaminen, Laihia","kind":"project","ptype":"road","subtype":"Tiehanke","status":"kaynnissa","date":"2025–2025","url":"https://vayla.fi/hankkeet","source":"Väylävirasto"}},{"type":"Feature","geometry":{"type":"MultiPoint","coordinates":[[21.73328,62.90517],[21.90491,63.00051]]},"properties":{"name":"EPOELY Sillankorjauspaketti 2, 2026, KU","kind":"project","ptype":"road","subtype":"Tiehanke","status":"kaynnissa","date":"2026–2026","url":"https://vayla.fi/hankkeet","source":"Väylävirasto"}},{"type":"Feature","geometry":{"type":"MultiPoint","coordinates":[[21.89333,63.16331]]},"properties":{"name":"EPOELY Melsorkanavan silta V-64, 2026, KU","kind":"project","ptype":"road","subtype":"Tiehanke","status":"kaynnissa","date":"2026–2026","url":"https://vayla.fi/hankkeet","source":"Väylävirasto"}},{"type":"Feature","geometry":{"type":"MultiPoint","coordinates":[[21.67313,63.07543],[21.62879,63.08361],[21.67345,63.07574]]},"properties":{"name":"EPOELY Sillankorjauspaketti1, 2026, KU","kind":"project","ptype":"road","subtype":"Tiehanke","status":"kaynnissa","date":"2026–2026","url":"https://vayla.fi/hankkeet","source":"Väylävirasto"}}]}