{"type":"FeatureCollection","features":[{"type":"Feature","geometry":{"type":"LineString","coordinates":[[23.57572,61.5543],[23.54057,61.56087],[23.49025,61.57352],[23.45263,61.5811],[23.37055,61.6048],[23.31452,61.61185],[23.25568,61.61528],[23.23332,61.61752],[23.2189,61.62632],[23.20269,61.63463],[23.17138,61.65698],[23.15733,61.66995],[23.16386,61.68043],[23.15337,61.69989],[23.13998,61.71953],[23.12745,61.7345],[23.10738,61.74304],[23.06687,61.75407],[23.03196,61.75783],[23.02717,61.75929],[22.99602,61.78561],[22.96728,61.80511],[22.95256,61.81824],[22.93764,61.83783],[22.93101,61.84727]]},"properties":{"name":"Vt 3 tievalaisimien uusinta Ylöjärvi - Parkano. ST 2025","kind":"project","ptype":"road","subtype":"Tiehanke","status":"kaynnissa","date":"2025–2026","url":"https://vayla.fi/hankkeet","source":"Väylävirasto"}},{"type":"Feature","geometry":{"type":"LineString","coordinates":[[22.95929,61.86411],[22.96852,61.87752],[22.98165,61.89789],[22.97688,61.91748],[22.97713,61.92559],[22.99209,61.94928],[23.00739,61.98399],[23.01009,62.00047],[23.01804,62.01399],[23.01479,62.02532],[23.03957,62.04202],[23.03798,62.05422],[23.04657,62.08686],[23.04588,62.09557],[23.00198,62.1216],[22.98469,62.13091],[22.97925,62.17716],[22.97033,62.19161],[22.95255,62.2094],[22.94235,62.2176],[22.93776,62.23609],[22.93068,62.247],[22.92391,62.25563],[22.91403,62.26645],[22.91332,62.27166]]},"properties":{"name":"Vt 3 tievalaisimien uusinta Ylöjärvi - Parkano. ST 2025","kind":"project","ptype":"road","subtype":"Tiehanke","status":"kaynnissa","date":"2025–2026","url":"https://vayla.fi/hankkeet","source":"Väylävirasto"}},{"type":"Feature","geometry":{"type":"LineString","coordinates":[[23.07543,61.76808],[23.07839,61.76762],[23.08039,61.76694],[23.08394,61.76549],[23.08485,61.76494],[23.08611,61.76447],[23.08742,61.7641],[23.08991,61.76358],[23.09081,61.76313],[23.09163,61.76253],[23.09194,61.7618],[23.09289,61.76038],[23.09401,61.75923]]},"properties":{"name":"PIRELY/6536/2025 / Vanhan Tampereentien (Mt 13139) parantaminen, Ikaalinen KU","kind":"project","ptype":"road","subtype":"Tiehanke","status":"kaynnissa","date":"2025–2025","url":"https://vayla.fi/hankkeet","source":"Väylävirasto"}},{"type":"Feature","geometry":{"type":"MultiLineString","coordinates":[[[22.67338,61.95943],[22.6734,61.95945],[22.6734,61.95945]],[[22.6734,61.95945],[22.67348,61.95949],[22.67349,61.9595],[22.67354,61.95953]],[[22.67354,61.95953],[22.67358,61.95955]],[[22.67358,61.95955],[22.67367,61.95961],[22.67371,61.95965]]]},"properties":{"name":"H-5702 Kuusijoen silta","kind":"project","ptype":"road","subtype":"Tiehanke","status":"kaynnissa","date":"2026–2026","url":"https://vayla.fi/hankkeet","source":"Väylävirasto"}},{"type":"Feature","geometry":{"type":"MultiLineString","coordinates":[[[23.15563,62.20209],[23.15584,62.20203]],[[23.15584,62.20203],[23.15605,62.20196]],[[23.15605,62.20196],[23.15612,62.20194]]]},"properties":{"name":"H-5718 Taviojan silta","kind":"project","ptype":"road","subtype":"Tiehanke","status":"kaynnissa","date":"2026–2026","url":"https://vayla.fi/hankkeet","source":"Väylävirasto"}},{"type":"Feature","geometry":{"type":"LineString","coordinates":[[23.32723,61.82983],[23.32726,61.82984]]},"properties":{"name":"Rumpukohteet, PIR ELY Putkisilta- ja rumpu-urakka 2025, ST","kind":"project","ptype":"road","subtype":"Tiehanke","status":"kaynnissa","date":"2025–2025","url":"https://vayla.fi/hankkeet","source":"Väylävirasto"}},{"type":"Feature","geometry":{"type":"LineString","coordinates":[[23.01976,62.11033],[23.01974,62.11035]]},"properties":{"name":"Rumpukohteet, PIR ELY Putkisilta- ja rumpu-urakka 2025, ST","kind":"project","ptype":"road","subtype":"Tiehanke","status":"kaynnissa","date":"2025–2025","url":"https://vayla.fi/hankkeet","source":"Väylävirasto"}},{"type":"Feature","geometry":{"type":"LineString","coordinates":[[23.28169,61.77715],[23.2817,61.77716],[23.28172,61.77717],[23.28195,61.77729]]},"properties":{"name":"SIS Putkisilta- ja rumpu-urakan 2026, ST, rumpukohteet","kind":"project","ptype":"road","subtype":"Tiehanke","status":"kaynnissa","date":"2026–2026","url":"https://vayla.fi/hankkeet","source":"Väylävirasto"}},{"type":"Feature","geometry":{"type":"MultiLineString","coordinates":[[[22.86503,61.81704],[22.86487,61.81701],[22.86486,61.81701],[22.86481,61.817]],[[22.86481,61.817],[22.86467,61.81698]]]},"properties":{"name":"SIS Putkisilta- ja rumpu-urakan 2026, ST, rumpukohteet","kind":"project","ptype":"road","subtype":"Tiehanke","status":"kaynnissa","date":"2026–2026","url":"https://vayla.fi/hankkeet","source":"Väylävirasto"}}]}