{"type":"FeatureCollection","features":[{"type":"Feature","geometry":{"type":"LineString","coordinates":[[22.17354,60.48853],[22.17427,60.48876],[22.17475,60.48891],[22.1748,60.48892],[22.17485,60.48894],[22.17495,60.48896],[22.17506,60.48898],[22.17517,60.489],[22.17528,60.48902],[22.17539,60.48903],[22.17551,60.48903],[22.17562,60.48904],[22.17576,60.48905],[22.1759,60.48907],[22.17603,60.48908],[22.17617,60.48911],[22.17809,60.48942],[22.17824,60.48945],[22.1784,60.48948],[22.17864,60.48952],[22.17888,60.48958],[22.17912,60.48963],[22.17943,60.4897],[22.17966,60.48975],[22.17989,60.4898],[22.18013,60.48985],[22.18037,60.48989],[22.18062,60.48993],[22.18079,60.48995],[22.18086,60.48997],[22.18093,60.48998],[22.18101,60.49],[22.18109,60.49001],[22.18245,60.49016],[22.18265,60.49019],[22.18279,60.49021],[22.18291,60.49022],[22.18302,60.49024],[22.18313,60.49027],[22.18323,60.4903],[22.18333,60.49033],[22.18346,60.49037],[22.18353,60.49039],[22.18361,60.4904],[22.18368,60.49041],[22.18568,60.49066],[22.18584,60.49069],[22.18609,60.49072],[22.18642,60.49077],[22.18677,60.49081],[22.18712,60.49086],[22.18758,60.49091],[22.18803,60.49097]]},"properties":{"name":"E18 Raision keskusta, Allianssiurakka (RAILI) TOTEUTUSVAIHE","kind":"project","ptype":"road","subtype":"Tiehanke","status":"kaynnissa","date":"2026–2030","url":"https://vayla.fi/e18-turun-kehatie-raision-keskusta","source":"Väylävirasto"}},{"type":"Feature","geometry":{"type":"LineString","coordinates":[[22.16808,60.4932],[22.16849,60.49282],[22.16864,60.49269],[22.16905,60.49234],[22.16947,60.492],[22.1698,60.49173],[22.16994,60.49161],[22.17013,60.49145],[22.17031,60.49128],[22.17049,60.49111],[22.17077,60.49084],[22.17096,60.49067],[22.17121,60.49044],[22.17146,60.49022],[22.17172,60.49],[22.17198,60.48978],[22.17225,60.48957],[22.17253,60.48935],[22.17281,60.48914],[22.17319,60.48886],[22.17345,60.48867],[22.17362,60.48855],[22.17378,60.48843],[22.17395,60.48832],[22.17404,60.48826],[22.17414,60.4882]]},"properties":{"name":"E18 Raision keskusta, Allianssiurakka (RAILI) TOTEUTUSVAIHE","kind":"project","ptype":"road","subtype":"Tiehanke","status":"kaynnissa","date":"2026–2030","url":"https://vayla.fi/e18-turun-kehatie-raision-keskusta","source":"Väylävirasto"}},{"type":"Feature","geometry":{"type":"LineString","coordinates":[[22.16082,60.50084],[22.16269,60.49872],[22.16316,60.49819],[22.16358,60.49773],[22.16393,60.49735],[22.16425,60.497],[22.16459,60.49664],[22.16495,60.49628],[22.16531,60.49592],[22.16567,60.49556],[22.16605,60.4952],[22.16643,60.49485],[22.16681,60.4945],[22.16721,60.49414],[22.16761,60.4938],[22.16801,60.49345],[22.16842,60.4931],[22.16884,60.49276],[22.16928,60.4924],[22.16978,60.492],[22.17045,60.49148],[22.17511,60.48782],[22.17689,60.48642],[22.17755,60.4859],[22.17805,60.48551],[22.17836,60.48526],[22.17858,60.48508],[22.17877,60.48491],[22.17897,60.48473],[22.17917,60.48455],[22.17936,60.48437],[22.17954,60.48418],[22.17971,60.484],[22.17988,60.48381],[22.18004,60.48362],[22.1802,60.48343],[22.18035,60.48323],[22.18051,60.48301],[22.18069,60.48277],[22.18086,60.48253]]},"properties":{"name":"E18 Raision keskusta, Allianssiurakka (RAILI) TOTEUTUSVAIHE","kind":"project","ptype":"road","subtype":"Tiehanke","status":"kaynnissa","date":"2026–2030","url":"https://vayla.fi/e18-turun-kehatie-raision-keskusta","source":"Väylävirasto"}},{"type":"Feature","geometry":{"type":"LineString","coordinates":[[22.1742,60.48794],[22.17417,60.48797],[22.17414,60.488],[22.17412,60.48804],[22.17411,60.48807],[22.17411,60.4881],[22.17411,60.48814],[22.17412,60.48817],[22.17414,60.4882],[22.17416,60.48823],[22.17419,60.48826],[22.17423,60.48829],[22.17427,60.48832],[22.17432,60.48834],[22.17437,60.48836],[22.17443,60.48838],[22.17449,60.48839],[22.17455,60.48841],[22.17462,60.48841],[22.17469,60.48842],[22.17475,60.48842],[22.17482,60.48842],[22.17489,60.48841],[22.17495,60.4884],[22.17502,60.48839],[22.17508,60.48837],[22.17513,60.48835],[22.17518,60.48833],[22.17523,60.48831],[22.17527,60.48828],[22.17531,60.48825],[22.17533,60.48822],[22.17536,60.48819],[22.17537,60.48816],[22.17538,60.48812],[22.17538,60.48809],[22.17537,60.48806],[22.17536,60.48802],[22.17533,60.48799],[22.17531,60.48796],[22.17527,60.48793],[22.17523,60.48791],[22.17519,60.48788],[22.17513,60.48786],[22.17508,60.48784],[22.17502,60.48782],[22.17496,60.48781],[22.17489,60.4878],[22.17482,60.48779],[22.17476,60.48779],[22.17469,60.48779],[22.17462,60.4878],[22.17455,60.48781],[22.17449,60.48782],[22.17443,60.48783],[22.17437,60.48785],[22.17432,60.48787],[22.17427,60.48789],[22.17423,60.48792],[22.1742,60.48794]]},"properties":{"name":"E18 Raision keskusta, Allianssiurakka (RAILI) TOTEUTUSVAIHE","kind":"project","ptype":"road","subtype":"Tiehanke","status":"kaynnissa","date":"2026–2030","url":"https://vayla.fi/e18-turun-kehatie-raision-keskusta","source":"Väylävirasto"}},{"type":"Feature","geometry":{"type":"LineString","coordinates":[[22.17472,60.4878],[22.17549,60.48717],[22.17601,60.48676],[22.17615,60.48664],[22.17635,60.48649],[22.17655,60.48634],[22.17676,60.48619],[22.17698,60.48605],[22.17719,60.4859],[22.17742,60.48575],[22.17763,60.48559],[22.17784,60.48543],[22.17805,60.48527],[22.17819,60.48515],[22.17833,60.48504]]},"properties":{"name":"E18 Raision keskusta, Allianssiurakka (RAILI) TOTEUTUSVAIHE","kind":"project","ptype":"road","subtype":"Tiehanke","status":"kaynnissa","date":"2026–2030","url":"https://vayla.fi/e18-turun-kehatie-raision-keskusta","source":"Väylävirasto"}},{"type":"Feature","geometry":{"type":"LineString","coordinates":[[22.16636,60.48286],[22.16677,60.48321],[22.16691,60.48332],[22.16701,60.48341],[22.16702,60.48342],[22.16705,60.48343],[22.16707,60.48344],[22.16711,60.48345],[22.16714,60.48345],[22.16718,60.48345],[22.16722,60.48345],[22.16725,60.48344],[22.1676,60.48334],[22.16762,60.48334],[22.16765,60.48333],[22.16769,60.48333],[22.16772,60.48333],[22.16776,60.48334],[22.16779,60.48334],[22.16782,60.48335],[22.16784,60.48336],[22.16785,60.48338],[22.1691,60.48443],[22.17037,60.48551]]},"properties":{"name":"E18 Raision keskusta, Allianssiurakka (RAILI) TOTEUTUSVAIHE","kind":"project","ptype":"road","subtype":"Tiehanke","status":"kaynnissa","date":"2026–2030","url":"https://vayla.fi/e18-turun-kehatie-raision-keskusta","source":"Väylävirasto"}},{"type":"Feature","geometry":{"type":"LineString","coordinates":[[22.16547,60.48074],[22.16556,60.48087],[22.16558,60.48091],[22.16564,60.48098],[22.1657,60.48106],[22.16577,60.48113],[22.16585,60.4812],[22.1669,60.48209],[22.16693,60.48212],[22.16696,60.48215],[22.16697,60.48218],[22.16698,60.48221],[22.16699,60.48224],[22.16698,60.48227],[22.16697,60.4823],[22.16695,60.48233],[22.16692,60.48236],[22.16664,60.4826],[22.16651,60.48271],[22.16641,60.48285]]},"properties":{"name":"E18 Raision keskusta, Allianssiurakka (RAILI) TOTEUTUSVAIHE","kind":"project","ptype":"road","subtype":"Tiehanke","status":"kaynnissa","date":"2026–2030","url":"https://vayla.fi/e18-turun-kehatie-raision-keskusta","source":"Väylävirasto"}},{"type":"Feature","geometry":{"type":"LineString","coordinates":[[22.17136,60.49004],[22.17215,60.48942],[22.17267,60.48901],[22.17275,60.48894],[22.17282,60.48889],[22.17295,60.48878],[22.17307,60.48867],[22.17533,60.4865],[22.17555,60.48629],[22.17559,60.48624],[22.17563,60.48619],[22.17566,60.48614],[22.17568,60.48608],[22.1757,60.48603],[22.17571,60.48598],[22.17571,60.48592],[22.17571,60.48587],[22.1757,60.48582],[22.17568,60.48576],[22.17518,60.48459],[22.17515,60.48453],[22.17514,60.4845],[22.17511,60.48445],[22.17509,60.48442],[22.17496,60.48424],[22.17481,60.48404]]},"properties":{"name":"E18 Raision keskusta, Allianssiurakka (RAILI) TOTEUTUSVAIHE","kind":"project","ptype":"road","subtype":"Tiehanke","status":"kaynnissa","date":"2026–2030","url":"https://vayla.fi/e18-turun-kehatie-raision-keskusta","source":"Väylävirasto"}},{"type":"Feature","geometry":{"type":"LineString","coordinates":[[22.1696,60.48613],[22.16974,60.48622],[22.16988,60.48631],[22.17003,60.48639],[22.17019,60.48647],[22.17035,60.48655],[22.17052,60.48663],[22.17069,60.4867],[22.17086,60.48677],[22.17098,60.48682],[22.17114,60.48687],[22.1713,60.48693],[22.17147,60.48698],[22.17163,60.48702],[22.1718,60.48707],[22.17198,60.48711],[22.17214,60.48714],[22.1723,60.48719],[22.17244,60.48722],[22.1734,60.48751],[22.1745,60.48783]]},"properties":{"name":"E18 Raision keskusta, Allianssiurakka (RAILI) TOTEUTUSVAIHE","kind":"project","ptype":"road","subtype":"Tiehanke","status":"kaynnissa","date":"2026–2030","url":"https://vayla.fi/e18-turun-kehatie-raision-keskusta","source":"Väylävirasto"}},{"type":"Feature","geometry":{"type":"LineString","coordinates":[[22.171,60.48835],[22.17132,60.48835],[22.17143,60.48835],[22.17155,60.48836],[22.17166,60.48838],[22.17177,60.48839],[22.17188,60.48841],[22.17199,60.48843],[22.17207,60.48845],[22.17251,60.48857],[22.17303,60.48871]]},"properties":{"name":"E18 Raision keskusta, Allianssiurakka (RAILI) TOTEUTUSVAIHE","kind":"project","ptype":"road","subtype":"Tiehanke","status":"kaynnissa","date":"2026–2030","url":"https://vayla.fi/e18-turun-kehatie-raision-keskusta","source":"Väylävirasto"}},{"type":"Feature","geometry":{"type":"LineString","coordinates":[[22.1748,60.48842],[22.17296,60.48985],[22.17241,60.49028],[22.17228,60.49037],[22.17215,60.49046],[22.17191,60.49062],[22.17178,60.49071],[22.17155,60.49086],[22.17133,60.49102],[22.17112,60.49118],[22.17091,60.49134],[22.17075,60.49147],[22.17058,60.49161]]},"properties":{"name":"E18 Raision keskusta, Allianssiurakka (RAILI) TOTEUTUSVAIHE","kind":"project","ptype":"road","subtype":"Tiehanke","status":"kaynnissa","date":"2026–2030","url":"https://vayla.fi/e18-turun-kehatie-raision-keskusta","source":"Väylävirasto"}},{"type":"Feature","geometry":{"type":"LineString","coordinates":[[22.17412,60.48811],[22.17261,60.48765],[22.17209,60.48749],[22.17197,60.48745],[22.17183,60.48741],[22.17171,60.48736],[22.17141,60.48724],[22.17112,60.48713],[22.17096,60.48707],[22.17079,60.48702]]},"properties":{"name":"E18 Raision keskusta, Allianssiurakka (RAILI) TOTEUTUSVAIHE","kind":"project","ptype":"road","subtype":"Tiehanke","status":"kaynnissa","date":"2026–2030","url":"https://vayla.fi/e18-turun-kehatie-raision-keskusta","source":"Väylävirasto"}},{"type":"Feature","geometry":{"type":"LineString","coordinates":[[22.16232,60.4834],[22.16329,60.48341],[22.16395,60.48341],[22.1642,60.48342],[22.16427,60.48341],[22.16435,60.48341],[22.16443,60.4834],[22.16451,60.48339],[22.16458,60.48337],[22.16462,60.48336],[22.16466,60.48335],[22.1655,60.48311],[22.16641,60.48285]]},"properties":{"name":"E18 Raision keskusta, Allianssiurakka (RAILI) TOTEUTUSVAIHE","kind":"project","ptype":"road","subtype":"Tiehanke","status":"kaynnissa","date":"2026–2030","url":"https://vayla.fi/e18-turun-kehatie-raision-keskusta","source":"Väylävirasto"}},{"type":"Feature","geometry":{"type":"LineString","coordinates":[[22.16477,60.48014],[22.16501,60.48034],[22.16509,60.48041],[22.16513,60.48045],[22.16519,60.48051],[22.16529,60.4806]]},"properties":{"name":"E18 Raision keskusta, Allianssiurakka (RAILI) TOTEUTUSVAIHE","kind":"project","ptype":"road","subtype":"Tiehanke","status":"kaynnissa","date":"2026–2030","url":"https://vayla.fi/e18-turun-kehatie-raision-keskusta","source":"Väylävirasto"}},{"type":"Feature","geometry":{"type":"LineString","coordinates":[[22.18033,60.48979],[22.18009,60.48975],[22.17985,60.4897],[22.17961,60.48965],[22.17927,60.48958],[22.17893,60.48951],[22.17848,60.48943],[22.17814,60.48936],[22.1778,60.48929],[22.17746,60.48921],[22.17726,60.48916],[22.17705,60.48911],[22.17685,60.48906],[22.17667,60.489],[22.17648,60.48894],[22.1763,60.48888],[22.17613,60.48882],[22.17595,60.48875],[22.17578,60.48869],[22.17561,60.48861],[22.17544,60.48854],[22.17536,60.4885],[22.17531,60.48847],[22.17529,60.48846],[22.17527,60.48846],[22.17523,60.48845],[22.17519,60.48844],[22.17514,60.48844],[22.1751,60.48844],[22.17505,60.48844],[22.17501,60.48845],[22.17497,60.48846],[22.17494,60.48846]]},"properties":{"name":"E18 Raision keskusta, Allianssiurakka (RAILI) TOTEUTUSVAIHE","kind":"project","ptype":"road","subtype":"Tiehanke","status":"kaynnissa","date":"2026–2030","url":"https://vayla.fi/e18-turun-kehatie-raision-keskusta","source":"Väylävirasto"}},{"type":"Feature","geometry":{"type":"LineString","coordinates":[[22.17636,60.48891],[22.17597,60.48878],[22.17584,60.48874],[22.17574,60.48871],[22.17569,60.48869],[22.17562,60.48866],[22.17558,60.48864],[22.17551,60.48862],[22.17545,60.4886],[22.17538,60.48859],[22.17531,60.48858],[22.17523,60.48857],[22.17516,60.48857],[22.17508,60.48857],[22.17501,60.48857],[22.17493,60.48858],[22.17486,60.48859],[22.17479,60.4886],[22.17472,60.48862],[22.17466,60.48864],[22.1746,60.48866],[22.17455,60.48869],[22.17447,60.48873],[22.1744,60.48878],[22.17433,60.48882],[22.17389,60.48917],[22.17386,60.48919],[22.17336,60.48954]]},"properties":{"name":"E18 Raision keskusta, Allianssiurakka (RAILI) TOTEUTUSVAIHE","kind":"project","ptype":"road","subtype":"Tiehanke","status":"kaynnissa","date":"2026–2030","url":"https://vayla.fi/e18-turun-kehatie-raision-keskusta","source":"Väylävirasto"}},{"type":"Feature","geometry":{"type":"LineString","coordinates":[[22.17207,60.48836],[22.17218,60.48827],[22.1722,60.48825],[22.17225,60.48821],[22.17231,60.48818],[22.17238,60.48814],[22.17242,60.48812],[22.17247,60.4881],[22.17256,60.48806]]},"properties":{"name":"E18 Raision keskusta, Allianssiurakka (RAILI) TOTEUTUSVAIHE","kind":"project","ptype":"road","subtype":"Tiehanke","status":"kaynnissa","date":"2026–2030","url":"https://vayla.fi/e18-turun-kehatie-raision-keskusta","source":"Väylävirasto"}},{"type":"Feature","geometry":{"type":"LineString","coordinates":[[22.17973,60.48421],[22.17953,60.48443],[22.1794,60.48458],[22.17936,60.48462],[22.17935,60.48463],[22.17917,60.48481],[22.17898,60.48498],[22.17878,60.48516],[22.17858,60.48533],[22.17837,60.4855],[22.1782,60.48564],[22.17806,60.48576],[22.17792,60.48588],[22.17779,60.48601],[22.17714,60.48666],[22.17704,60.48675],[22.17694,60.48683],[22.17684,60.48692],[22.17623,60.48736],[22.17603,60.48751],[22.1759,60.4876],[22.17566,60.48776],[22.1753,60.48801]]},"properties":{"name":"E18 Raision keskusta, Allianssiurakka (RAILI) TOTEUTUSVAIHE","kind":"project","ptype":"road","subtype":"Tiehanke","status":"kaynnissa","date":"2026–2030","url":"https://vayla.fi/e18-turun-kehatie-raision-keskusta","source":"Väylävirasto"}},{"type":"Feature","geometry":{"type":"LineString","coordinates":[[22.17537,60.4881],[22.17651,60.48836],[22.1767,60.48841],[22.17691,60.48846],[22.17711,60.48852],[22.1773,60.48858],[22.17749,60.48864],[22.17768,60.48871],[22.17787,60.48877],[22.17805,60.48884],[22.17851,60.48903],[22.1786,60.48907],[22.17877,60.48913],[22.17894,60.48919],[22.1791,60.48924],[22.17928,60.4893],[22.17944,60.48934],[22.17961,60.48939],[22.1798,60.48943],[22.17998,60.48947],[22.18017,60.48951],[22.18037,60.48954],[22.18055,60.48957],[22.1807,60.4896],[22.18084,60.48962]]},"properties":{"name":"E18 Raision keskusta, Allianssiurakka (RAILI) TOTEUTUSVAIHE","kind":"project","ptype":"road","subtype":"Tiehanke","status":"kaynnissa","date":"2026–2030","url":"https://vayla.fi/e18-turun-kehatie-raision-keskusta","source":"Väylävirasto"}},{"type":"Feature","geometry":{"type":"LineString","coordinates":[[22.17541,60.48642],[22.17718,60.48691],[22.17729,60.48694],[22.17736,60.48696],[22.17742,60.48699],[22.17748,60.48702],[22.17753,60.48705],[22.17757,60.48708],[22.17761,60.48711],[22.17765,60.48715],[22.17768,60.48719],[22.1777,60.48723],[22.17798,60.48808],[22.17805,60.48829],[22.17809,60.48843],[22.17811,60.48848],[22.17813,60.48852],[22.17816,60.48855],[22.17819,60.48859],[22.17823,60.48863],[22.17827,60.48866],[22.17832,60.48869],[22.17838,60.48872],[22.17844,60.48875],[22.17851,60.48877],[22.17866,60.48882],[22.17882,60.48886],[22.17904,60.48893],[22.17927,60.48899],[22.1795,60.48904],[22.17973,60.4891],[22.17997,60.48915],[22.18021,60.48919],[22.18045,60.48924],[22.1807,60.48927],[22.18094,60.48931],[22.18119,60.48934],[22.18144,60.48937],[22.18384,60.48964],[22.18444,60.4897],[22.18463,60.48973],[22.18477,60.48974],[22.18485,60.48974],[22.18493,60.48975],[22.18501,60.48974],[22.18509,60.48974],[22.18517,60.48973],[22.18525,60.48972],[22.18532,60.4897],[22.18539,60.48968],[22.18546,60.48966],[22.18552,60.48963],[22.18558,60.4896],[22.18563,60.48957],[22.18568,60.48954],[22.18572,60.48951],[22.18576,60.48947],[22.18578,60.48943],[22.18581,60.48939],[22.18582,60.48935],[22.18615,60.48814],[22.18616,60.4881],[22.18618,60.48806],[22.18621,60.48803],[22.18624,60.48799],[22.18628,60.48795],[22.18633,60.48792],[22.18638,60.48789],[22.18644,60.48786],[22.1865,60.48784],[22.18654,60.48782],[22.18658,60.48781],[22.18683,60.48773],[22.18716,60.48764]]},"properties":{"name":"E18 Raision keskusta, Allianssiurakka (RAILI) TOTEUTUSVAIHE","kind":"project","ptype":"road","subtype":"Tiehanke","status":"kaynnissa","date":"2026–2030","url":"https://vayla.fi/e18-turun-kehatie-raision-keskusta","source":"Väylävirasto"}},{"type":"Feature","geometry":{"type":"LineString","coordinates":[[22.15343,60.47474],[22.15374,60.47489],[22.15402,60.47502],[22.15433,60.47517],[22.15465,60.47533],[22.15499,60.47551],[22.15535,60.47571],[22.15578,60.47594],[22.15636,60.47626],[22.15721,60.47673],[22.15776,60.47704],[22.15793,60.47714],[22.15811,60.47724],[22.15844,60.47744],[22.15876,60.47763],[22.15908,60.47783],[22.15939,60.47803],[22.1597,60.47824],[22.16,60.47844],[22.1603,60.47865],[22.16059,60.47886],[22.16087,60.47907],[22.16115,60.47929],[22.16142,60.4795],[22.16169,60.47972],[22.16202,60.48],[22.16864,60.4856],[22.16883,60.48575],[22.16897,60.48586],[22.16912,60.48598],[22.16926,60.48608],[22.16939,60.48617],[22.16952,60.48626],[22.16966,60.48635],[22.16981,60.48643],[22.16997,60.48651],[22.17013,60.4866],[22.1703,60.48667],[22.17047,60.48675],[22.17064,60.48682],[22.17081,60.48689],[22.171,60.48696],[22.17121,60.48703],[22.17144,60.48711],[22.1717,60.48719],[22.17205,60.48729],[22.17635,60.48859],[22.17759,60.48896],[22.17827,60.48917],[22.17852,60.48924],[22.17875,60.48931],[22.17899,60.48937],[22.1792,60.48943],[22.17943,60.48949],[22.17967,60.48954],[22.1799,60.48959],[22.18014,60.48963],[22.18039,60.48967],[22.18063,60.48971],[22.18085,60.48975],[22.18112,60.48978],[22.18144,60.48982],[22.18364,60.49007],[22.18421,60.49014],[22.18483,60.49021],[22.18545,60.49027],[22.18606,60.49033],[22.18668,60.49038],[22.1873,60.49044],[22.18792,60.4905],[22.18854,60.49056],[22.18916,60.49063],[22.18977,60.4907],[22.19038,60.49077],[22.19099,60.49084],[22.1916,60.49092],[22.19221,60.49101],[22.19282,60.49109],[22.19354,60.4912],[22.19415,60.49129],[22.19475,60.49137],[22.19536,60.49145],[22.19598,60.49152],[22.19636,60.49157],[22.20218,60.49224],[22.20838,60.49295]]},"properties":{"name":"E18 Raision keskusta, Allianssiurakka (RAILI) TOTEUTUSVAIHE","kind":"project","ptype":"road","subtype":"Tiehanke","status":"kaynnissa","date":"2026–2030","url":"https://vayla.fi/e18-turun-kehatie-raision-keskusta","source":"Väylävirasto"}},{"type":"Feature","geometry":{"type":"LineString","coordinates":[[22.16166,60.48638],[22.16512,60.48636],[22.16742,60.48635],[22.16753,60.48635],[22.16757,60.48635],[22.16761,60.48635],[22.1677,60.48634],[22.16778,60.48633],[22.16786,60.48632],[22.16794,60.4863],[22.16798,60.48628],[22.16803,60.48627],[22.17179,60.48503],[22.17564,60.48377]]},"properties":{"name":"E18 Raision keskusta, Allianssiurakka (RAILI) TOTEUTUSVAIHE","kind":"project","ptype":"road","subtype":"Tiehanke","status":"kaynnissa","date":"2026–2030","url":"https://vayla.fi/e18-turun-kehatie-raision-keskusta","source":"Väylävirasto"}},{"type":"Feature","geometry":{"type":"LineString","coordinates":[[22.17126,60.48924],[22.17173,60.48924],[22.17185,60.48924],[22.17191,60.48925],[22.17196,60.48925],[22.172,60.48926],[22.17206,60.48927],[22.17209,60.48928],[22.17216,60.4893],[22.17227,60.48933]]},"properties":{"name":"E18 Raision keskusta, Allianssiurakka (RAILI) TOTEUTUSVAIHE","kind":"project","ptype":"road","subtype":"Tiehanke","status":"kaynnissa","date":"2026–2030","url":"https://vayla.fi/e18-turun-kehatie-raision-keskusta","source":"Väylävirasto"}},{"type":"Feature","geometry":{"type":"LineString","coordinates":[[22.16972,60.48584],[22.17053,60.48644],[22.1706,60.48649],[22.17069,60.48655],[22.17078,60.4866],[22.17088,60.48665],[22.17099,60.48669],[22.17109,60.48674],[22.17121,60.48678],[22.17157,60.4869],[22.17193,60.48701]]},"properties":{"name":"E18 Raision keskusta, Allianssiurakka (RAILI) TOTEUTUSVAIHE","kind":"project","ptype":"road","subtype":"Tiehanke","status":"kaynnissa","date":"2026–2030","url":"https://vayla.fi/e18-turun-kehatie-raision-keskusta","source":"Väylävirasto"}},{"type":"Feature","geometry":{"type":"LineString","coordinates":[[22.16076,60.50505],[22.16091,60.50458],[22.16101,60.50426],[22.16103,60.5042],[22.16105,60.50415],[22.16108,60.50408],[22.16111,60.50402],[22.16116,60.50396],[22.16121,60.5039],[22.16127,60.50384],[22.16133,60.50378],[22.1617,60.50348],[22.16185,60.50335],[22.16191,60.5033],[22.16201,60.50321],[22.16209,60.50312],[22.16217,60.50304],[22.16225,60.50294],[22.16231,60.50285],[22.16237,60.50276],[22.16243,60.50266],[22.16247,60.50257],[22.16251,60.50247],[22.16255,60.50237],[22.16257,60.50228],[22.16259,60.50218],[22.1626,60.50208],[22.1626,60.50198],[22.1626,60.50188],[22.16258,60.50179],[22.16257,60.50169],[22.16254,60.50159],[22.16237,60.50106],[22.16233,60.5009],[22.1623,60.50081],[22.16228,60.50073],[22.16227,60.50065],[22.16227,60.50057],[22.16228,60.50049],[22.16229,60.50041],[22.16231,60.50033],[22.16234,60.50025],[22.16237,60.50017],[22.16241,60.5001],[22.16246,60.50002],[22.16252,60.49994],[22.16258,60.49987],[22.16265,60.4998],[22.16272,60.49973],[22.1628,60.49966],[22.16289,60.49959],[22.16363,60.49903],[22.1637,60.49898],[22.16376,60.49892],[22.16386,60.49884],[22.16395,60.49875],[22.16404,60.49866],[22.16412,60.49857],[22.16419,60.49848],[22.16425,60.49839],[22.1646,60.49788],[22.16463,60.49783],[22.16468,60.49777],[22.16473,60.49772],[22.16479,60.49767],[22.16485,60.49763],[22.16492,60.49758],[22.165,60.49754],[22.16508,60.4975],[22.16517,60.49746],[22.16526,60.49743],[22.16535,60.4974],[22.16781,60.49663],[22.16794,60.49659],[22.16807,60.49654],[22.16817,60.4965],[22.16829,60.49645],[22.16838,60.4964],[22.1685,60.49635],[22.1686,60.49629],[22.16868,60.49624],[22.16878,60.49617],[22.16885,60.49612],[22.16998,60.4953],[22.17026,60.4951],[22.17043,60.49497],[22.17047,60.49494],[22.17054,60.49488],[22.1706,60.49482],[22.17066,60.49476],[22.17071,60.49469],[22.17076,60.49463],[22.1708,60.49456],[22.17083,60.49449],[22.17085,60.49442],[22.17087,60.49435],[22.17088,60.49428],[22.17088,60.49421],[22.17088,60.49415],[22.17086,60.49408],[22.17084,60.49401],[22.17082,60.49394],[22.17078,60.49387],[22.1706,60.4935],[22.17054,60.49339],[22.17051,60.49331],[22.17049,60.49327],[22.17048,60.49322],[22.17048,60.49317],[22.17048,60.49312],[22.1705,60.49307],[22.17052,60.49302],[22.17054,60.49297],[22.17058,60.49293],[22.17062,60.49288],[22.17067,60.49284],[22.17072,60.4928],[22.17078,60.49276],[22.17084,60.49272],[22.17091,60.49269],[22.17099,60.49266],[22.1717,60.49236],[22.17191,60.49228],[22.17202,60.49223],[22.17215,60.49217],[22.17228,60.49211],[22.17241,60.49204],[22.17253,60.49197],[22.17264,60.4919],[22.17275,60.49183],[22.17285,60.49175],[22.17294,60.49168],[22.17303,60.4916],[22.17311,60.49152],[22.17319,60.49144],[22.17326,60.49135],[22.17332,60.49127],[22.17338,60.49118],[22.17342,60.4911],[22.17349,60.49098],[22.17351,60.49092],[22.17353,60.49087],[22.17355,60.49081],[22.17355,60.49076],[22.17355,60.4907],[22.17354,60.49064],[22.17348,60.4903],[22.17347,60.49026],[22.17347,60.49022]]},"properties":{"name":"E18 Raision keskusta, Allianssiurakka (RAILI) TOTEUTUSVAIHE","kind":"project","ptype":"road","subtype":"Tiehanke","status":"kaynnissa","date":"2026–2030","url":"https://vayla.fi/e18-turun-kehatie-raision-keskusta","source":"Väylävirasto"}},{"type":"Feature","geometry":{"type":"LineString","coordinates":[[22.18335,60.48924],[22.18331,60.48927],[22.18326,60.48929],[22.18322,60.48931],[22.18318,60.48933],[22.18312,60.48934],[22.18307,60.48936],[22.1828,60.48942],[22.18272,60.48943],[22.18271,60.48944],[22.18269,60.48945],[22.18268,60.48946],[22.18267,60.48946],[22.18267,60.48947],[22.18263,60.48957],[22.18259,60.48969]]},"properties":{"name":"E18 Raision keskusta, Allianssiurakka (RAILI) TOTEUTUSVAIHE","kind":"project","ptype":"road","subtype":"Tiehanke","status":"kaynnissa","date":"2026–2030","url":"https://vayla.fi/e18-turun-kehatie-raision-keskusta","source":"Väylävirasto"}},{"type":"Feature","geometry":{"type":"LineString","coordinates":[[22.18387,60.4897],[22.18385,60.48976],[22.18384,60.48977],[22.18384,60.48978],[22.18383,60.48979],[22.18383,60.48979],[22.18382,60.4898],[22.18381,60.4898],[22.18379,60.4898],[22.18378,60.4898],[22.1828,60.48971],[22.18255,60.48969],[22.18252,60.48968],[22.18249,60.48969],[22.18246,60.48969],[22.18243,60.4897],[22.18241,60.48971],[22.18239,60.48973],[22.18238,60.48974],[22.18234,60.48983],[22.18233,60.48987],[22.18232,60.48991],[22.18231,60.49025],[22.18231,60.49027],[22.18232,60.49029],[22.18234,60.49031],[22.18236,60.49032],[22.18238,60.49033],[22.18241,60.49034],[22.18303,60.49047],[22.1831,60.49049],[22.18313,60.49049],[22.18317,60.49049],[22.1832,60.49049],[22.18324,60.49048],[22.18327,60.49048],[22.1833,60.49046],[22.18331,60.49045],[22.18333,60.49044],[22.18337,60.49041]]},"properties":{"name":"E18 Raision keskusta, Allianssiurakka (RAILI) TOTEUTUSVAIHE","kind":"project","ptype":"road","subtype":"Tiehanke","status":"kaynnissa","date":"2026–2030","url":"https://vayla.fi/e18-turun-kehatie-raision-keskusta","source":"Väylävirasto"}},{"type":"Feature","geometry":{"type":"LineString","coordinates":[[22.18612,60.48665],[22.18628,60.4868],[22.18664,60.48718],[22.1867,60.48723],[22.18681,60.48734],[22.18693,60.48744],[22.187,60.48751],[22.18725,60.48771],[22.18758,60.48798]]},"properties":{"name":"E18 Raision keskusta, Allianssiurakka (RAILI) TOTEUTUSVAIHE","kind":"project","ptype":"road","subtype":"Tiehanke","status":"kaynnissa","date":"2026–2030","url":"https://vayla.fi/e18-turun-kehatie-raision-keskusta","source":"Väylävirasto"}},{"type":"Feature","geometry":{"type":"LineString","coordinates":[[22.16548,60.48074],[22.16569,60.48066],[22.16583,60.48061],[22.16598,60.48056],[22.16622,60.48048],[22.16646,60.4804]]},"properties":{"name":"E18 Raision keskusta, Allianssiurakka (RAILI) TOTEUTUSVAIHE","kind":"project","ptype":"road","subtype":"Tiehanke","status":"kaynnissa","date":"2026–2030","url":"https://vayla.fi/e18-turun-kehatie-raision-keskusta","source":"Väylävirasto"}},{"type":"Feature","geometry":{"type":"LineString","coordinates":[[22.16186,60.48678],[22.16195,60.48678],[22.16196,60.48678],[22.16198,60.48678],[22.16202,60.48677],[22.16205,60.48675],[22.16207,60.48674],[22.16209,60.48673],[22.1621,60.48671],[22.1621,60.4867],[22.16211,60.4866],[22.16212,60.48648]]},"properties":{"name":"E18 Raision keskusta, Allianssiurakka (RAILI) TOTEUTUSVAIHE","kind":"project","ptype":"road","subtype":"Tiehanke","status":"kaynnissa","date":"2026–2030","url":"https://vayla.fi/e18-turun-kehatie-raision-keskusta","source":"Väylävirasto"}},{"type":"Feature","geometry":{"type":"LineString","coordinates":[[22.18889,60.49234],[22.18878,60.49246],[22.18868,60.49255],[22.18862,60.49261],[22.18853,60.49269],[22.18844,60.49277],[22.18833,60.49284],[22.18823,60.49291],[22.18811,60.49298],[22.18799,60.49305],[22.18792,60.49309],[22.18785,60.49312],[22.18778,60.49315],[22.18771,60.49317],[22.18764,60.49319],[22.18756,60.49321],[22.18748,60.49322],[22.18739,60.49323],[22.18731,60.49323],[22.18723,60.49324],[22.18717,60.49324],[22.18714,60.49324],[22.18711,60.49324],[22.18709,60.49324],[22.18708,60.49325],[22.18706,60.49326],[22.18705,60.49327],[22.18702,60.49331],[22.187,60.49334],[22.18697,60.49338],[22.18693,60.49341],[22.18689,60.49344],[22.18684,60.49346],[22.18679,60.49349],[22.18673,60.49351],[22.18667,60.49353],[22.18662,60.49354],[22.18641,60.49358],[22.18614,60.49364]]},"properties":{"name":"E18 Raision keskusta, Allianssiurakka (RAILI) TOTEUTUSVAIHE","kind":"project","ptype":"road","subtype":"Tiehanke","status":"kaynnissa","date":"2026–2030","url":"https://vayla.fi/e18-turun-kehatie-raision-keskusta","source":"Väylävirasto"}},{"type":"Feature","geometry":{"type":"LineString","coordinates":[[22.17347,60.49022],[22.17348,60.49017],[22.17349,60.49011],[22.17351,60.49007],[22.17353,60.49001],[22.17356,60.48997],[22.17359,60.48993],[22.17363,60.48987],[22.17367,60.48983],[22.17373,60.48979],[22.17379,60.48974],[22.17399,60.48959],[22.17408,60.48953],[22.17414,60.48949],[22.17421,60.48945],[22.17429,60.4894],[22.17437,60.48936],[22.17446,60.48933],[22.17455,60.48929],[22.17465,60.48926],[22.17475,60.48924],[22.17486,60.48921],[22.17496,60.48919],[22.17507,60.48917],[22.17518,60.48916],[22.1753,60.48915],[22.17541,60.48914],[22.17552,60.48914],[22.17564,60.48914],[22.17575,60.48914],[22.17587,60.48915],[22.17598,60.48916],[22.17609,60.48917],[22.1762,60.48919],[22.17771,60.48944],[22.1781,60.4895],[22.17834,60.48954],[22.17857,60.48959],[22.17881,60.48964],[22.17905,60.48969],[22.17937,60.48977],[22.17959,60.48982],[22.17983,60.48987],[22.18007,60.48991],[22.18031,60.48996],[22.18055,60.49],[22.1808,60.49003],[22.18105,60.49006],[22.18242,60.49022],[22.18262,60.49025],[22.18275,60.49026],[22.18286,60.49028],[22.18297,60.4903],[22.18307,60.49032],[22.18317,60.49035],[22.18327,60.49038],[22.18346,60.49044],[22.18352,60.49046],[22.18362,60.49049],[22.18371,60.49051],[22.1838,60.49053],[22.18391,60.49054],[22.18401,60.49056],[22.18498,60.49068],[22.18524,60.49071],[22.18532,60.49073],[22.1854,60.49074],[22.18548,60.49076],[22.18556,60.49078],[22.18563,60.49081],[22.1857,60.49084],[22.18576,60.49087],[22.18582,60.4909],[22.18587,60.49094],[22.18592,60.49098],[22.18596,60.49101],[22.18599,60.49106],[22.18601,60.4911],[22.18603,60.49114],[22.18605,60.49118],[22.18605,60.49123],[22.18605,60.49127],[22.18604,60.49132],[22.18602,60.49136],[22.18565,60.49226],[22.18556,60.49246],[22.18551,60.49259],[22.1855,60.49261],[22.18549,60.49263],[22.18549,60.49267],[22.18549,60.49271],[22.1855,60.49275],[22.18552,60.49279],[22.18554,60.49283],[22.18557,60.49287],[22.18561,60.49291],[22.18565,60.49294],[22.1857,60.49297],[22.18576,60.493],[22.18582,60.49303],[22.18588,60.49305],[22.18595,60.49307],[22.18602,60.49309],[22.1861,60.49311],[22.18618,60.49312],[22.18686,60.49321],[22.187,60.49323],[22.18708,60.49323],[22.18717,60.49324],[22.18721,60.49324],[22.18726,60.49324]]},"properties":{"name":"E18 Raision keskusta, Allianssiurakka (RAILI) TOTEUTUSVAIHE","kind":"project","ptype":"road","subtype":"Tiehanke","status":"kaynnissa","date":"2026–2030","url":"https://vayla.fi/e18-turun-kehatie-raision-keskusta","source":"Väylävirasto"}},{"type":"Feature","geometry":{"type":"LineString","coordinates":[[22.16418,60.48182],[22.16351,60.48209],[22.16331,60.48217],[22.16323,60.48221],[22.16317,60.48224],[22.1631,60.48228],[22.16303,60.48232],[22.16298,60.48236],[22.16292,60.48241],[22.16287,60.48246],[22.16283,60.4825],[22.16279,60.48255],[22.16276,60.48261],[22.16264,60.48281],[22.16259,60.48291],[22.16249,60.48306],[22.16239,60.48321],[22.16232,60.4833],[22.16225,60.4834]]},"properties":{"name":"E18 Raision keskusta, Allianssiurakka (RAILI) TOTEUTUSVAIHE","kind":"project","ptype":"road","subtype":"Tiehanke","status":"kaynnissa","date":"2026–2030","url":"https://vayla.fi/e18-turun-kehatie-raision-keskusta","source":"Väylävirasto"}},{"type":"Feature","geometry":{"type":"LineString","coordinates":[[22.16222,60.48641],[22.16223,60.48574],[22.16223,60.48552],[22.16223,60.48549],[22.16223,60.48547],[22.16222,60.48542],[22.16222,60.48536],[22.16223,60.48459],[22.16223,60.48446],[22.16223,60.48435],[22.16224,60.48366],[22.16224,60.48357],[22.16224,60.48355],[22.16224,60.48354],[22.16228,60.48347],[22.16232,60.4834]]},"properties":{"name":"E18 Raision keskusta, Allianssiurakka (RAILI) TOTEUTUSVAIHE","kind":"project","ptype":"road","subtype":"Tiehanke","status":"kaynnissa","date":"2026–2030","url":"https://vayla.fi/e18-turun-kehatie-raision-keskusta","source":"Väylävirasto"}},{"type":"Feature","geometry":{"type":"LineString","coordinates":[[22.16876,60.48604],[22.16919,60.48632],[22.16929,60.48639],[22.16944,60.48648],[22.1696,60.48656],[22.16976,60.48665],[22.16993,60.48673],[22.1701,60.48681],[22.1716,60.48749],[22.17201,60.48767],[22.17215,60.48774],[22.17223,60.48777],[22.1723,60.48781],[22.17236,60.48785],[22.17241,60.48789],[22.17246,60.48793],[22.1725,60.48797],[22.17254,60.48802],[22.17258,60.48808],[22.17262,60.48812],[22.17266,60.48817],[22.17271,60.48821],[22.17276,60.48825],[22.17283,60.48828],[22.17289,60.48832],[22.17297,60.48835],[22.17304,60.48838],[22.17311,60.4884],[22.17329,60.48846],[22.17354,60.48853]]},"properties":{"name":"E18 Raision keskusta, Allianssiurakka (RAILI) TOTEUTUSVAIHE","kind":"project","ptype":"road","subtype":"Tiehanke","status":"kaynnissa","date":"2026–2030","url":"https://vayla.fi/e18-turun-kehatie-raision-keskusta","source":"Väylävirasto"}},{"type":"Feature","geometry":{"type":"LineString","coordinates":[[22.17197,60.48698],[22.17227,60.48707],[22.17234,60.4871],[22.17237,60.4871],[22.17243,60.48712],[22.17249,60.48713],[22.17255,60.48713],[22.17261,60.48714],[22.17268,60.48714],[22.17274,60.48713],[22.1728,60.48713],[22.17286,60.48712],[22.17291,60.4871],[22.17368,60.48688],[22.17378,60.48686],[22.17381,60.48685],[22.17388,60.48683],[22.17396,60.48682],[22.17403,60.48681],[22.17411,60.48681],[22.17418,60.4868],[22.17426,60.48681],[22.17434,60.48681],[22.17441,60.48682],[22.17445,60.48683],[22.17449,60.48683],[22.17465,60.48687],[22.17489,60.48692]]},"properties":{"name":"E18 Raision keskusta, Allianssiurakka (RAILI) TOTEUTUSVAIHE","kind":"project","ptype":"road","subtype":"Tiehanke","status":"kaynnissa","date":"2026–2030","url":"https://vayla.fi/e18-turun-kehatie-raision-keskusta","source":"Väylävirasto"}},{"type":"Feature","geometry":{"type":"LineString","coordinates":[[22.16186,60.4802],[22.16197,60.48029],[22.16205,60.48034],[22.16213,60.48041],[22.16221,60.48048],[22.16287,60.48109],[22.16299,60.48121],[22.16312,60.48132],[22.1633,60.48146],[22.16343,60.48157],[22.16347,60.48161],[22.1635,60.48164],[22.16352,60.48167],[22.16354,60.48171],[22.16355,60.48174],[22.16355,60.48178],[22.16354,60.48181],[22.16353,60.48185],[22.16351,60.48188],[22.16348,60.48192],[22.16345,60.48195],[22.16341,60.48198],[22.16336,60.482],[22.16325,60.48206],[22.16323,60.48208],[22.1632,60.48209],[22.16312,60.48213],[22.16304,60.48216],[22.16298,60.4822],[22.1629,60.48224],[22.16283,60.48229],[22.16278,60.48233],[22.16272,60.48238],[22.16267,60.48244],[22.16263,60.48248],[22.1626,60.48254],[22.16257,60.48258],[22.16234,60.483],[22.16229,60.48308],[22.16227,60.48311],[22.16224,60.48314],[22.1622,60.48316],[22.16216,60.48319],[22.16211,60.48321],[22.16206,60.48323],[22.16202,60.48324],[22.16198,60.48327],[22.16195,60.48329],[22.16192,60.48331],[22.1619,60.48334],[22.16189,60.48336]]},"properties":{"name":"E18 Raision keskusta, Allianssiurakka (RAILI) TOTEUTUSVAIHE","kind":"project","ptype":"road","subtype":"Tiehanke","status":"kaynnissa","date":"2026–2030","url":"https://vayla.fi/e18-turun-kehatie-raision-keskusta","source":"Väylävirasto"}},{"type":"Feature","geometry":{"type":"LineString","coordinates":[[22.16043,60.47834],[22.16087,60.47855],[22.16092,60.47858],[22.16098,60.47861],[22.16102,60.47864],[22.16106,60.47867],[22.16109,60.47871],[22.16112,60.47874],[22.16128,60.47898],[22.16131,60.47902],[22.16136,60.47907],[22.16141,60.47912],[22.16254,60.48009],[22.16278,60.4803],[22.16297,60.48046],[22.16302,60.4805],[22.1632,60.48063],[22.16326,60.48067],[22.16338,60.48077],[22.16355,60.48092]]},"properties":{"name":"E18 Raision keskusta, Allianssiurakka (RAILI) TOTEUTUSVAIHE","kind":"project","ptype":"road","subtype":"Tiehanke","status":"kaynnissa","date":"2026–2030","url":"https://vayla.fi/e18-turun-kehatie-raision-keskusta","source":"Väylävirasto"}},{"type":"Feature","geometry":{"type":"LineString","coordinates":[[22.16509,60.48066],[22.16504,60.48074],[22.16502,60.48076],[22.165,60.48078],[22.16496,60.48079],[22.16495,60.4808],[22.16493,60.48081],[22.16461,60.4809],[22.16425,60.481]]},"properties":{"name":"E18 Raision keskusta, Allianssiurakka (RAILI) TOTEUTUSVAIHE","kind":"project","ptype":"road","subtype":"Tiehanke","status":"kaynnissa","date":"2026–2030","url":"https://vayla.fi/e18-turun-kehatie-raision-keskusta","source":"Väylävirasto"}},{"type":"Feature","geometry":{"type":"LineString","coordinates":[[22.17782,60.48759],[22.17791,60.48759],[22.17797,60.48758],[22.17799,60.48758],[22.17801,60.48757],[22.17803,60.48756],[22.17804,60.48755],[22.17804,60.48754],[22.17805,60.48753],[22.17805,60.48752],[22.17797,60.48721],[22.17795,60.48715],[22.17793,60.48711],[22.17791,60.48707],[22.17788,60.48703],[22.17785,60.487],[22.17784,60.48699],[22.17782,60.48696],[22.17781,60.48693],[22.1778,60.48691],[22.1778,60.48687],[22.17781,60.48686],[22.17781,60.48684]]},"properties":{"name":"E18 Raision keskusta, Allianssiurakka (RAILI) TOTEUTUSVAIHE","kind":"project","ptype":"road","subtype":"Tiehanke","status":"kaynnissa","date":"2026–2030","url":"https://vayla.fi/e18-turun-kehatie-raision-keskusta","source":"Väylävirasto"}},{"type":"Feature","geometry":{"type":"LineString","coordinates":[[22.16187,60.48685],[22.1619,60.48612],[22.16191,60.48608],[22.16191,60.48606],[22.16192,60.48602],[22.16193,60.48598],[22.16193,60.48595],[22.16196,60.48476],[22.16199,60.48354]]},"properties":{"name":"E18 Raision keskusta, Allianssiurakka (RAILI) TOTEUTUSVAIHE","kind":"project","ptype":"road","subtype":"Tiehanke","status":"kaynnissa","date":"2026–2030","url":"https://vayla.fi/e18-turun-kehatie-raision-keskusta","source":"Väylävirasto"}},{"type":"Feature","geometry":{"type":"LineString","coordinates":[[22.34347,60.41056],[22.3429,60.40641],[22.35703,60.36997]]},"properties":{"name":"Mt 180 Kurkela—Kuusisto, Kaarinan läntinen ohitustie (MAL)","kind":"project","ptype":"road","subtype":"Tiehanke","status":"kaynnissa","date":"2025–2027","url":"https://vayla.fi/mt180-saaristotie/kurkela-kuusisto","source":"Väylävirasto"}},{"type":"Feature","geometry":{"type":"MultiLineString","coordinates":[[[21.85489,60.64914],[21.85474,60.64917]],[[21.85474,60.64917],[21.85415,60.64929],[21.8535,60.64943],[21.85235,60.64966],[21.85163,60.64979],[21.85079,60.64992]],[[21.85079,60.64992],[21.84979,60.65005],[21.84872,60.65016],[21.84797,60.65021],[21.84718,60.65026],[21.84641,60.65029]],[[21.84641,60.65029],[21.84561,60.65032],[21.84482,60.65035],[21.84409,60.65038],[21.84324,60.65041],[21.84231,60.65045],[21.84156,60.65048]],[[21.84156,60.65048],[21.8402,60.65053],[21.83939,60.65056],[21.83831,60.6506]],[[21.83831,60.6506],[21.83777,60.65061],[21.83706,60.65061],[21.83624,60.65061],[21.83572,60.65059],[21.83568,60.65058]],[[21.83568,60.65058],[21.8351,60.65056],[21.83443,60.65051],[21.83362,60.65045],[21.83294,60.6504],[21.8321,60.65034],[21.83105,60.65026],[21.83034,60.65021]],[[21.83034,60.65021],[21.82923,60.65013],[21.82725,60.64998]],[[21.82725,60.64998],[21.82637,60.64991],[21.82524,60.64983],[21.82462,60.64978],[21.82395,60.64972]],[[21.82395,60.64972],[21.82322,60.64968],[21.82234,60.64961],[21.82153,60.64955],[21.82078,60.64949],[21.82009,60.64944],[21.81956,60.6494]],[[21.81956,60.6494],[21.81924,60.64937]],[[21.81924,60.64937],[21.81867,60.64933],[21.81781,60.64927]],[[21.81781,60.64927],[21.81763,60.64926]],[[21.81763,60.64926],[21.8174,60.64924],[21.81611,60.64913],[21.81609,60.64913]],[[21.81609,60.64913],[21.81606,60.64913],[21.816,60.64913],[21.81588,60.64912],[21.81572,60.64911],[21.8156,60.6491],[21.81556,60.6491],[21.81551,60.64909],[21.81545,60.64909],[21.8153,60.64907],[21.81517,60.64906],[21.81508,60.64905],[21.81494,60.64904],[21.81476,60.64903],[21.81468,60.64902],[21.81458,60.64901],[21.8145,60.649],[21.81441,60.64899],[21.81432,60.64899],[21.81421,60.64898],[21.81401,60.64897],[21.81393,60.64896],[21.81382,60.64895]],[[21.81382,60.64895],[21.81333,60.64891],[21.8131,60.64889],[21.81265,60.64885],[21.81191,60.64877]],[[21.81191,60.64877],[21.81106,60.64868],[21.80995,60.64855],[21.80894,60.64844]],[[21.80894,60.64844],[21.80775,60.6483],[21.80565,60.64806],[21.80361,60.64783],[21.80247,60.6477]],[[21.80247,60.6477],[21.80236,60.64769],[21.80219,60.64767],[21.80211,60.64766],[21.80203,60.64765],[21.80195,60.64764],[21.80186,60.64763],[21.80173,60.64761],[21.8016,60.6476],[21.80144,60.64758],[21.80132,60.64757],[21.80116,60.64755],[21.80101,60.64753],[21.80085,60.64752],[21.80067,60.6475],[21.80048,60.64747],[21.80024,60.64745],[21.80002,60.64742],[21.79977,60.6474],[21.79962,60.64738],[21.79962,60.64738],[21.7995,60.64737],[21.7993,60.64734],[21.79916,60.64732],[21.79903,60.6473],[21.7989,60.64729],[21.79879,60.64728],[21.79873,60.64727],[21.79863,60.64726]],[[21.79863,60.64726],[21.79721,60.6471],[21.79672,60.64704]]]},"properties":{"name":"Mt 192 Kustavintien tievalaistuksen rakentaminen välille  Mietoinen Y-tie, ST2025","kind":"project","ptype":"road","subtype":"Tiehanke","status":"kaynnissa","date":"2025–2025","url":"https://vayla.fi/hankkeet","source":"Väylävirasto"}},{"type":"Feature","geometry":{"type":"MultiLineString","coordinates":[[[22.67113,60.42513],[22.67086,60.42519],[22.67084,60.42519],[22.67021,60.42533],[22.66978,60.42542],[22.66975,60.42543],[22.66939,60.42551],[22.66937,60.42551],[22.66901,60.4256],[22.669,60.42561],[22.66861,60.4257],[22.66859,60.4257],[22.66817,60.42581],[22.66816,60.42582],[22.66778,60.42591],[22.66739,60.42602],[22.66738,60.42602],[22.66703,60.42611],[22.667,60.42612],[22.66662,60.42622],[22.6666,60.42623],[22.66626,60.42633],[22.66623,60.42633],[22.66548,60.42655],[22.66547,60.42656],[22.66509,60.42667],[22.66472,60.42679],[22.66435,60.4269],[22.66434,60.42691],[22.66398,60.42702],[22.66397,60.42703],[22.66361,60.42714],[22.66324,60.42727],[22.66289,60.42739],[22.66287,60.4274],[22.66255,60.42751],[22.66252,60.42752],[22.66199,60.42771],[22.66198,60.42771],[22.66163,60.42784],[22.66129,60.42798],[22.66095,60.42811],[22.66094,60.42811],[22.66061,60.42825],[22.6606,60.42825],[22.66027,60.42839],[22.66026,60.42839],[22.65992,60.42853],[22.65992,60.42853],[22.65959,60.42867],[22.65959,60.42868],[22.65928,60.42881],[22.65926,60.42881]],[[22.65926,60.42881],[22.65905,60.42891],[22.65876,60.42905]],[[22.65876,60.42905],[22.65871,60.42907],[22.65828,60.42927]],[[22.65828,60.42927],[22.65776,60.42952],[22.65775,60.42952],[22.65722,60.42979],[22.65689,60.42996],[22.65687,60.42997]],[[22.65687,60.42997],[22.65674,60.43005],[22.65615,60.43037],[22.65557,60.43069],[22.65556,60.43069],[22.65498,60.43102],[22.65442,60.43132],[22.6544,60.43133],[22.65413,60.43148],[22.65411,60.43149],[22.65382,60.43165],[22.65382,60.43165],[22.65354,60.43179],[22.65352,60.4318],[22.65324,60.43195],[22.65322,60.43196],[22.65293,60.4321],[22.65291,60.43211],[22.65231,60.4324],[22.65229,60.4324],[22.65197,60.43255],[22.65167,60.43268],[22.65164,60.43269],[22.65118,60.43289],[22.65116,60.4329],[22.65085,60.43303],[22.65084,60.43303],[22.65047,60.43318],[22.65045,60.43319],[22.65008,60.43333],[22.65005,60.43334],[22.64953,60.43354],[22.64951,60.43354],[22.64898,60.43373],[22.64896,60.43374],[22.64854,60.43388],[22.64854,60.43389],[22.64812,60.43403],[22.6481,60.43403],[22.64773,60.43415],[22.64772,60.43415],[22.64732,60.43428],[22.64729,60.43429],[22.64685,60.43442],[22.64684,60.43442],[22.64637,60.43456]],[[22.64637,60.43456],[22.64629,60.43458]]]},"properties":{"name":"Vt 1 ja Mt 180 parantaminen rakentamalla riista-aita, KU","kind":"project","ptype":"road","subtype":"Tiehanke","status":"kaynnissa","date":"2026–2026","url":"https://vayla.fi/hankkeet","source":"Väylävirasto"}},{"type":"Feature","geometry":{"type":"MultiLineString","coordinates":[[[22.17395,60.48795],[22.17464,60.48815],[22.17535,60.48836]],[[22.17535,60.48836],[22.17575,60.48848]],[[22.17575,60.48848],[22.17594,60.48853]],[[22.17594,60.48853],[22.1761,60.48858],[22.17612,60.48859],[22.17684,60.4888],[22.17686,60.4888],[22.17757,60.48902],[22.17758,60.48902],[22.17761,60.48903],[22.17802,60.48918]],[[22.17802,60.48918],[22.17873,60.4894]],[[22.17873,60.4894],[22.17904,60.48948]],[[22.17904,60.48948],[22.17906,60.48949],[22.17957,60.48961]],[[22.17957,60.48961],[22.17968,60.48963],[22.17971,60.48964],[22.17991,60.48968],[22.18029,60.48974],[22.18031,60.48975],[22.18038,60.48976],[22.18087,60.48983],[22.1809,60.48983],[22.18132,60.48988]],[[22.18132,60.48988],[22.18258,60.49002]],[[22.18258,60.49002],[22.1826,60.49003],[22.18359,60.49014],[22.1836,60.49014],[22.18377,60.49016]],[[22.18377,60.49016],[22.18509,60.4903]],[[22.18509,60.4903],[22.18588,60.49037],[22.1859,60.49037],[22.18697,60.49047],[22.18699,60.49047],[22.18796,60.49055],[22.18799,60.49055],[22.18898,60.49066],[22.18899,60.49066],[22.18945,60.49072]],[[22.18945,60.49072],[22.18979,60.49076]],[[22.18979,60.49076],[22.19033,60.49082],[22.19036,60.49083],[22.19088,60.49089]],[[22.17406,60.48784],[22.1748,60.48806],[22.17546,60.48825]],[[22.17546,60.48825],[22.17562,60.4883]],[[22.17562,60.4883],[22.17585,60.48837]],[[22.17585,60.48837],[22.17607,60.48843]],[[22.17607,60.48843],[22.17692,60.48868]],[[22.17692,60.48868],[22.17693,60.48868],[22.17736,60.48881],[22.17739,60.48882],[22.17847,60.48912],[22.17888,60.48923],[22.1789,60.48924]],[[22.1789,60.48924],[22.17904,60.48928],[22.17905,60.48928],[22.17946,60.48939],[22.17949,60.4894],[22.17971,60.48945]],[[22.17971,60.48945],[22.17992,60.4895],[22.17993,60.4895],[22.18023,60.48956],[22.18044,60.4896],[22.18046,60.4896],[22.18091,60.48966],[22.1814,60.48973]],[[22.1814,60.48973],[22.18265,60.48988]],[[22.18265,60.48988],[22.183,60.48992],[22.18301,60.48992],[22.18336,60.48997],[22.18337,60.48997],[22.18389,60.49003]],[[22.18389,60.49003],[22.18418,60.49007],[22.18421,60.49007]],[[22.18421,60.49007],[22.18488,60.49015],[22.18709,60.49036],[22.18711,60.49036],[22.18943,60.49059],[22.18944,60.49059]],[[22.18944,60.49059],[22.1898,60.49064]],[[22.1898,60.49064],[22.191,60.49079]]]},"properties":{"name":"E18 Raision keskusta, Allianssiurakka (RAILI) KEHITYSVAIHE","kind":"project","ptype":"road","subtype":"Tiehanke","status":"kaynnissa","date":"2025–2026","url":"https://vayla.fi/e18-turun-kehatie-raision-keskusta","source":"Väylävirasto"}},{"type":"Feature","geometry":{"type":"MultiLineString","coordinates":[[[22.16341,60.48128],[22.16342,60.48129]],[[22.16342,60.48129],[22.16343,60.4813],[22.16356,60.48141],[22.16357,60.48141],[22.16381,60.48163],[22.16382,60.48165],[22.16398,60.48179],[22.16432,60.48206],[22.16495,60.48261],[22.16497,60.48262],[22.16559,60.48315],[22.16559,60.48315],[22.16603,60.48352],[22.16603,60.48353],[22.16636,60.48379],[22.16638,60.4838],[22.16678,60.48414],[22.16679,60.48416],[22.1671,60.48442]],[[22.1671,60.48442],[22.16711,60.48443],[22.1674,60.48468],[22.16742,60.48469],[22.16781,60.48501],[22.16781,60.48502],[22.16837,60.48548],[22.16838,60.48548],[22.16857,60.48564]],[[22.16857,60.48564],[22.1687,60.48574],[22.16884,60.48586]],[[22.16884,60.48586],[22.16892,60.48592],[22.16904,60.486]],[[22.16904,60.486],[22.16904,60.48601],[22.16922,60.48612],[22.16924,60.48614],[22.16951,60.48633]],[[22.16951,60.48633],[22.16975,60.48647]],[[22.16975,60.48647],[22.16976,60.48647],[22.16979,60.48648],[22.16999,60.48659],[22.17001,60.48659],[22.17019,60.48668],[22.17061,60.48685],[22.17063,60.48686],[22.17087,60.48695]],[[22.17087,60.48695],[22.1713,60.48711],[22.17175,60.48727],[22.17178,60.48728],[22.17263,60.48755],[22.17264,60.48756],[22.17277,60.48759]],[[22.17277,60.48759],[22.17278,60.4876],[22.17293,60.48765],[22.17309,60.48769]],[[22.17309,60.48769],[22.17315,60.48771],[22.17317,60.48771],[22.17351,60.48781],[22.17352,60.48782],[22.17372,60.48788]],[[22.16355,60.48117],[22.16358,60.48119],[22.1636,60.48121],[22.16363,60.48124]],[[22.16363,60.48124],[22.16393,60.4815],[22.16419,60.48172],[22.1642,60.48172],[22.1647,60.48216],[22.1647,60.48216],[22.16529,60.48264],[22.16607,60.48331],[22.16608,60.48332],[22.16673,60.48387],[22.16674,60.48388],[22.16721,60.48426],[22.16722,60.48427],[22.1673,60.48434],[22.1673,60.48434]],[[22.1673,60.48434],[22.16762,60.48461],[22.16763,60.48461],[22.16808,60.48496],[22.16843,60.48524],[22.16844,60.48525],[22.16875,60.48549],[22.16875,60.4855]],[[22.16875,60.4855],[22.16876,60.4855],[22.1691,60.48576],[22.16912,60.48577]],[[22.16912,60.48577],[22.16915,60.48579],[22.1692,60.48583],[22.1693,60.48591]],[[22.1693,60.48591],[22.16951,60.48604],[22.16953,60.48605],[22.16972,60.48619]],[[22.16972,60.48619],[22.16985,60.48627],[22.17,60.48636]],[[22.17,60.48636],[22.1703,60.48654],[22.17045,60.48662],[22.1705,60.48664],[22.17066,60.48672],[22.17098,60.48684]],[[22.17098,60.48684],[22.171,60.48685],[22.17101,60.48686],[22.17136,60.48698],[22.17139,60.48699],[22.17202,60.4872],[22.17204,60.48721],[22.17246,60.48735],[22.17248,60.48736],[22.17288,60.48748],[22.17289,60.48749]],[[22.17289,60.48749],[22.17298,60.48751],[22.17299,60.48752],[22.17311,60.48756],[22.17312,60.48756]],[[22.17312,60.48756],[22.1732,60.48758],[22.17327,60.4876]],[[22.17327,60.4876],[22.17374,60.48774],[22.17383,60.48776]]]},"properties":{"name":"E18 Raision keskusta, Allianssiurakka (RAILI) KEHITYSVAIHE","kind":"project","ptype":"road","subtype":"Tiehanke","status":"kaynnissa","date":"2025–2026","url":"https://vayla.fi/e18-turun-kehatie-raision-keskusta","source":"Väylävirasto"}},{"type":"Feature","geometry":{"type":"MultiLineString","coordinates":[[[22.17479,60.48796],[22.17463,60.48808],[22.17445,60.48822]],[[22.17445,60.48822],[22.17325,60.48915]],[[22.17325,60.48915],[22.1732,60.48919],[22.17319,60.4892],[22.17242,60.48981],[22.17241,60.48983],[22.17177,60.49033]],[[22.17177,60.49033],[22.16997,60.49174],[22.16996,60.49175],[22.16893,60.49258],[22.16892,60.49259],[22.16748,60.49379],[22.16746,60.4938],[22.16698,60.49422],[22.16696,60.49424],[22.16636,60.49477],[22.16636,60.49477],[22.16545,60.49563]],[[22.16545,60.49563],[22.16543,60.49566]],[[22.17501,60.48802],[22.17485,60.48815],[22.17471,60.48826]],[[22.17471,60.48826],[22.174,60.4888]],[[22.174,60.4888],[22.17342,60.48926],[22.17341,60.48926],[22.17262,60.48988],[22.17262,60.48988],[22.17225,60.49018],[22.17198,60.49038]],[[22.17198,60.49038],[22.17191,60.49044],[22.17017,60.4918],[22.17017,60.4918],[22.16928,60.49252],[22.16928,60.49253],[22.16828,60.4933],[22.16813,60.49342],[22.16812,60.49343],[22.16809,60.49346]],[[22.16809,60.49346],[22.16726,60.4942],[22.16725,60.49421],[22.16635,60.49505],[22.16634,60.49505],[22.1657,60.49567],[22.16568,60.49569]],[[22.16568,60.49569],[22.16566,60.49571]]]},"properties":{"name":"E18 Raision keskusta, Allianssiurakka (RAILI) KEHITYSVAIHE","kind":"project","ptype":"road","subtype":"Tiehanke","status":"kaynnissa","date":"2025–2026","url":"https://vayla.fi/e18-turun-kehatie-raision-keskusta","source":"Väylävirasto"}},{"type":"Feature","geometry":{"type":"MultiLineString","coordinates":[[[22.1799,60.48357],[22.1797,60.48381],[22.17933,60.48422],[22.17888,60.48465],[22.17887,60.48466],[22.17882,60.48471]],[[22.17882,60.48471],[22.17861,60.48489],[22.17733,60.48592],[22.17691,60.48627],[22.17502,60.48778],[22.17501,60.48779],[22.17486,60.4879]],[[22.18012,60.48366],[22.1801,60.48368]],[[22.1801,60.48368],[22.17996,60.48386],[22.17964,60.48424],[22.17961,60.48427],[22.1796,60.48428],[22.17917,60.4847],[22.17916,60.4847],[22.1789,60.48494],[22.17888,60.48495],[22.17861,60.48516],[22.1786,60.48518],[22.17805,60.48562],[22.17804,60.48562],[22.17746,60.48608],[22.17745,60.48609],[22.17631,60.48701],[22.176,60.48725],[22.17598,60.48726],[22.1755,60.48764],[22.17549,60.48765],[22.17508,60.48796]]]},"properties":{"name":"E18 Raision keskusta, Allianssiurakka (RAILI) KEHITYSVAIHE","kind":"project","ptype":"road","subtype":"Tiehanke","status":"kaynnissa","date":"2025–2026","url":"https://vayla.fi/e18-turun-kehatie-raision-keskusta","source":"Väylävirasto"}},{"type":"Feature","geometry":{"type":"MultiLineString","coordinates":[[[22.28391,60.49465],[22.28392,60.49467],[22.28393,60.49468],[22.28405,60.49487],[22.28406,60.49488]],[[22.28406,60.49488],[22.28435,60.49533],[22.28478,60.49602],[22.28478,60.49602],[22.28513,60.49663],[22.28514,60.49664],[22.28547,60.49721],[22.28547,60.49722]],[[22.28547,60.49722],[22.28554,60.49735]],[[22.28554,60.49735],[22.2858,60.49777]],[[22.2858,60.49777],[22.2859,60.49796],[22.28591,60.49798],[22.28604,60.49819]],[[22.28604,60.49819],[22.28625,60.49853],[22.28638,60.49872],[22.28639,60.49874]],[[22.28639,60.49874],[22.2865,60.49891]],[[22.2865,60.49891],[22.28662,60.4991],[22.28663,60.49911],[22.28688,60.49944],[22.28689,60.49945],[22.28718,60.49981],[22.28727,60.49991],[22.28729,60.49993],[22.28742,60.50006],[22.28743,60.50007]],[[22.28743,60.50007],[22.28775,60.50039],[22.28777,60.50041],[22.28831,60.50089],[22.28832,60.5009],[22.28867,60.50119]],[[22.28867,60.50119],[22.28878,60.50127],[22.28879,60.50128],[22.28945,60.50177],[22.28947,60.50178],[22.28966,60.5019],[22.29056,60.50247],[22.29057,60.50247],[22.29135,60.5029],[22.29158,60.50302],[22.29249,60.50346],[22.29252,60.50347],[22.29363,60.50396],[22.29365,60.50397],[22.29453,60.50435],[22.29455,60.50436]],[[22.29455,60.50436],[22.29597,60.50497],[22.29598,60.50498],[22.29709,60.50549],[22.29709,60.5055],[22.29787,60.5059],[22.29814,60.50604],[22.29815,60.50605],[22.2989,60.50651],[22.29894,60.50654],[22.29896,60.50656],[22.29936,60.50683],[22.29938,60.50685],[22.29957,60.507]],[[22.29957,60.507],[22.29967,60.50708],[22.29972,60.50713]],[[22.29972,60.50713],[22.29976,60.50716],[22.29977,60.50716]],[[22.29977,60.50716],[22.29985,60.50723],[22.29986,60.50725],[22.30037,60.50774],[22.30039,60.50776],[22.30039,60.50777],[22.30075,60.50816],[22.30076,60.50817],[22.301,60.5085],[22.30101,60.50851],[22.30123,60.50887],[22.30123,60.50889],[22.30145,60.50934],[22.30147,60.50941],[22.30148,60.50943],[22.30153,60.50956]],[[22.30153,60.50956],[22.30155,60.50964],[22.30157,60.50971],[22.30158,60.50972]],[[22.30158,60.50972],[22.30162,60.50984]],[[22.30162,60.50984],[22.30172,60.51016],[22.3019,60.51101],[22.3019,60.51102],[22.30201,60.51179],[22.30201,60.51179],[22.30208,60.51238],[22.30209,60.5124],[22.30216,60.51288],[22.30216,60.51289],[22.3022,60.51317],[22.3022,60.51318]],[[22.3022,60.51318],[22.30223,60.51343],[22.30224,60.51347]],[[22.30224,60.51347],[22.30229,60.5139],[22.30229,60.51391],[22.3024,60.51461],[22.3024,60.51462],[22.30258,60.51544],[22.30258,60.51544],[22.3028,60.51635],[22.30281,60.51636],[22.30305,60.5171],[22.30324,60.5176],[22.30324,60.5176],[22.30346,60.51817],[22.30371,60.51878],[22.30372,60.51879],[22.30393,60.51932]],[[22.30393,60.51932],[22.30409,60.51971],[22.3041,60.51972],[22.3045,60.52069],[22.30491,60.52173],[22.30491,60.52175],[22.30518,60.52249],[22.30518,60.5225],[22.30545,60.52336],[22.30545,60.52337],[22.30567,60.52411],[22.30567,60.52413],[22.30578,60.52464],[22.30578,60.52465],[22.30587,60.52506],[22.30588,60.52507],[22.30597,60.52559]],[[22.30597,60.52559],[22.30599,60.52569]],[[22.30599,60.52569],[22.30599,60.5257],[22.306,60.52577],[22.306,60.52578],[22.30603,60.52622],[22.30603,60.52624],[22.30608,60.52696],[22.30608,60.52697],[22.30611,60.52758],[22.30611,60.52759],[22.30615,60.52818],[22.30623,60.52901],[22.30624,60.52901],[22.30631,60.52946],[22.30632,60.52947]],[[22.30632,60.52947],[22.30636,60.52961]],[[22.30636,60.52961],[22.30658,60.53038],[22.3066,60.53045],[22.30661,60.53046],[22.30683,60.53095],[22.30683,60.53097],[22.30711,60.53147],[22.30712,60.53147],[22.30743,60.53193],[22.30747,60.53198],[22.30748,60.53199],[22.30793,60.53252],[22.30794,60.53253],[22.30815,60.53276],[22.30815,60.53276],[22.30838,60.53301],[22.30839,60.53301]],[[22.30839,60.53301],[22.30863,60.53322]],[[22.30863,60.53322],[22.30883,60.53339]],[[22.30883,60.53339],[22.3093,60.53379],[22.30931,60.5338],[22.30987,60.53422],[22.31008,60.53436],[22.31009,60.53437],[22.31017,60.53442]],[[22.31017,60.53442],[22.31081,60.53482],[22.31083,60.53483],[22.31152,60.53523],[22.31165,60.53529],[22.31214,60.53553],[22.31216,60.53554],[22.31282,60.53585],[22.31283,60.53585],[22.31319,60.53601]],[[22.31319,60.53601],[22.31335,60.53607]],[[22.31335,60.53607],[22.31387,60.53629],[22.31389,60.5363],[22.31456,60.53654],[22.31474,60.53661],[22.31476,60.53661],[22.31565,60.53689],[22.31566,60.5369],[22.31651,60.53714],[22.31653,60.53715],[22.31762,60.53743],[22.31765,60.53744],[22.3188,60.53772],[22.3188,60.53772],[22.32009,60.53801],[22.32012,60.53802],[22.32195,60.53842],[22.32197,60.53843],[22.32345,60.53875]],[[22.32345,60.53875],[22.32358,60.53878],[22.32361,60.53878],[22.3237,60.5388]],[[22.3237,60.5388],[22.32534,60.53917]],[[22.32534,60.53917],[22.32564,60.53924]],[[22.32564,60.53924],[22.32676,60.53951],[22.32817,60.53985],[22.32817,60.53985],[22.32914,60.5401],[22.32918,60.5401],[22.33043,60.54043],[22.33046,60.54044],[22.33204,60.54088],[22.33205,60.54088],[22.3326,60.54104]],[[22.3326,60.54104],[22.33374,60.54136],[22.33377,60.54136],[22.33527,60.54184],[22.33529,60.54184],[22.33577,60.54201],[22.33579,60.54201]],[[22.33579,60.54201],[22.33644,60.54224],[22.33706,60.54244]],[[22.33706,60.54244],[22.33718,60.54247],[22.3372,60.54248],[22.33879,60.54301],[22.33881,60.54302],[22.34012,60.54348],[22.34015,60.54349]],[[22.34015,60.54349],[22.3407,60.5437],[22.3409,60.54376]],[[22.3409,60.54376],[22.34202,60.54417],[22.34318,60.5446],[22.34319,60.5446]],[[22.34319,60.5446],[22.34328,60.54463],[22.34329,60.54464],[22.34492,60.54524],[22.34492,60.54524],[22.34645,60.5458],[22.34645,60.5458],[22.34759,60.54622],[22.34759,60.54622],[22.34917,60.54677],[22.35089,60.54734],[22.35091,60.54735],[22.35232,60.54779],[22.35234,60.5478],[22.3535,60.54814],[22.35352,60.54815],[22.35599,60.54884],[22.35825,60.54942],[22.35827,60.54943],[22.35975,60.54977],[22.35978,60.54978],[22.3616,60.55019],[22.36161,60.55019],[22.36372,60.55064],[22.36373,60.55065],[22.36521,60.55096],[22.36704,60.55133]],[[22.36704,60.55133],[22.3682,60.55157],[22.36821,60.55157],[22.3699,60.55192],[22.36992,60.55192],[22.37169,60.5523],[22.37172,60.5523],[22.37309,60.5526],[22.37312,60.5526],[22.37441,60.55289],[22.37442,60.5529],[22.37548,60.55314],[22.37551,60.55314]],[[22.37551,60.55314],[22.37597,60.55325]],[[22.37597,60.55325],[22.37676,60.55343],[22.37677,60.55344],[22.37806,60.55377],[22.37809,60.55377],[22.38015,60.5543],[22.38016,60.55431],[22.38153,60.55468],[22.38156,60.55469],[22.38331,60.55517],[22.38331,60.55517],[22.38449,60.55553],[22.38452,60.55554],[22.38615,60.55604]],[[22.38615,60.55604],[22.38637,60.55611],[22.38639,60.55611],[22.38701,60.5563],[22.38702,60.5563],[22.38991,60.55724],[22.38991,60.55724],[22.39156,60.55775]],[[22.39156,60.55775],[22.39191,60.55786]],[[22.39191,60.55786],[22.39281,60.55816],[22.39282,60.55816],[22.39438,60.55866]],[[22.39438,60.55866],[22.39456,60.55872],[22.39459,60.55873],[22.39676,60.55938],[22.39677,60.55938],[22.3987,60.55993],[22.40107,60.56053],[22.40107,60.56053],[22.40357,60.56112],[22.40358,60.56112],[22.40601,60.56165],[22.40602,60.56166],[22.40824,60.56211],[22.40827,60.56211],[22.41024,60.56254],[22.41026,60.56254]],[[22.41026,60.56254],[22.41053,60.5626]],[[22.41053,60.5626],[22.41173,60.56286],[22.41356,60.56327],[22.41496,60.56362],[22.41496,60.56362],[22.41509,60.56365]],[[22.41509,60.56365],[22.41577,60.56382],[22.41805,60.56446],[22.41807,60.56447],[22.41948,60.56492],[22.41963,60.56497],[22.41966,60.56498],[22.42102,60.56549],[22.4215,60.56568],[22.42151,60.56569],[22.42287,60.56628],[22.42316,60.56642],[22.42318,60.56643],[22.42452,60.56711],[22.42452,60.56711],[22.42582,60.56784],[22.42616,60.56805],[22.42616,60.56805],[22.42744,60.56893],[22.42748,60.56896],[22.42749,60.56896],[22.42826,60.56955],[22.42827,60.56956],[22.42897,60.57013]],[[22.42897,60.57013],[22.42918,60.57029],[22.42919,60.5703],[22.42981,60.57079],[22.42983,60.5708],[22.43038,60.57128],[22.43039,60.57129],[22.43121,60.57192],[22.4317,60.57228],[22.43171,60.57228],[22.43247,60.57281],[22.43249,60.57282],[22.4331,60.5732],[22.43311,60.5732],[22.4332,60.57325]],[[22.4332,60.57325],[22.43329,60.5733],[22.43347,60.57341]],[[22.43347,60.57341],[22.43352,60.57344],[22.43374,60.57356]],[[22.43374,60.57356],[22.43403,60.57373],[22.43536,60.57447],[22.43549,60.57454],[22.4355,60.57454],[22.43563,60.57461],[22.43565,60.57462]],[[22.43565,60.57462],[22.43696,60.57529],[22.43699,60.5753],[22.43825,60.57592],[22.43827,60.57594],[22.4395,60.57655],[22.4395,60.57655],[22.44017,60.5769]]]},"properties":{"name":"Vt 9 tiekaiteiden kunnostaminen väli Turku - Poikoja","kind":"project","ptype":"road","subtype":"Tiehanke","status":"kaynnissa","date":"2025–2026","url":"https://vayla.fi/hankkeet","source":"Väylävirasto"}},{"type":"Feature","geometry":{"type":"MultiPoint","coordinates":[[22.34319,60.41398]]},"properties":{"name":"VARELY Poikluoman risteyssiltojen peruskorjaukset, KU","kind":"project","ptype":"road","subtype":"Tiehanke","status":"kaynnissa","date":"2025–2025","url":"https://vayla.fi/hankkeet","source":"Väylävirasto"}},{"type":"Feature","geometry":{"type":"MultiPoint","coordinates":[[22.41748,60.42281]]},"properties":{"name":"Linja-Autopysäkkien parantaminen 2025","kind":"project","ptype":"road","subtype":"Tiehanke","status":"kaynnissa","date":"2025–2025","url":"https://vayla.fi/hankkeet","source":"Väylävirasto"}},{"type":"Feature","geometry":{"type":"MultiPoint","coordinates":[[22.05929,60.91799],[22.72802,62.19008],[22.2972,61.24737],[22.66932,60.27337],[22.67046,60.37224],[22.00161,60.59607],[22.46806,60.6736],[22.23702,60.66349],[21.96454,60.67899],[22.01953,60.82716],[21.60558,61.12697],[23.01632,60.9951],[22.03123,61.02229],[21.67434,61.15463],[21.55099,61.13324]]},"properties":{"name":"LOU Putkisiltaurakka 2026-2027, KU","kind":"project","ptype":"road","subtype":"Tiehanke","status":"kaynnissa","date":"2025–2027","url":"https://vayla.fi/hankkeet","source":"Väylävirasto"}},{"type":"Feature","geometry":{"type":"MultiPoint","coordinates":[[23.61956,60.65441],[23.07668,60.3907],[22.64807,60.33824],[23.16397,60.19494],[23.14993,60.63586],[23.25363,60.32909]]},"properties":{"name":"LOU Siltaurakka 2/2026-2027","kind":"project","ptype":"road","subtype":"Tiehanke","status":"kaynnissa","date":"2026–2027","url":"https://vayla.fi/hankkeet","source":"Väylävirasto"}},{"type":"Feature","geometry":{"type":"MultiPoint","coordinates":[[22.26292,60.44513]]},"properties":{"name":"VARELY Siltojen ja laitureiden ylläpitourakka 2024-2025","kind":"project","ptype":"road","subtype":"Tiehanke","status":"kaynnissa","date":"2024–2025","url":"https://vayla.fi/hankkeet","source":"Väylävirasto"}},{"type":"Feature","geometry":{"type":"MultiPoint","coordinates":[[22.19798,60.28463]]},"properties":{"name":"VARELY Marikarin sillan ja sulun uusiminen","kind":"project","ptype":"road","subtype":"Tiehanke","status":"kaynnissa","date":"2025–2026","url":"https://vayla.fi/hankkeet","source":"Väylävirasto"}},{"type":"Feature","geometry":{"type":"MultiPoint","coordinates":[[22.51395,60.90026],[21.66237,60.60157],[21.95352,60.64496],[22.05711,60.60116]]},"properties":{"name":"LOU Siltaurakka 1/2026","kind":"project","ptype":"road","subtype":"Tiehanke","status":"kaynnissa","date":"2026–2026","url":"https://vayla.fi/hankkeet","source":"Väylävirasto"}},{"type":"Feature","geometry":{"type":"Point","coordinates":[22.35831,60.36507]},"properties":{"name":"TOTEUTUSVAIHE Mt180 Kirjalansalmen ja Hessundinsalmen siltojen uusiminen","kind":"project","ptype":"road","subtype":"Tiehanke","status":"kaynnissa","date":null,"url":"https://vayla.fi/hankkeet","source":"Väylävirasto"}},{"type":"Feature","geometry":{"type":"LineString","coordinates":[[24.82588,60.21877],[24.81345,60.21953],[24.79581,60.2193],[24.78173,60.21772],[24.77145,60.21717],[24.75896,60.21708],[24.75019,60.2152],[24.74336,60.21329],[24.72889,60.21189],[24.72086,60.21053],[24.71343,60.20803],[24.70902,60.20667],[24.70605,60.20662],[24.69521,60.2074],[24.68909,60.20646],[24.68448,60.20606],[24.68074,60.206],[24.67341,60.2076],[24.67146,60.20782],[24.65254,60.20447],[24.63007,60.20055],[24.61929,60.19653],[24.59025,60.1859],[24.58018,60.18495],[24.57043,60.1837],[24.55411,60.1759],[24.54343,60.16668],[24.53666,60.15461],[24.51892,60.14142],[24.51065,60.13713],[24.50349,60.1344],[24.49395,60.1307],[24.48593,60.1232],[24.47643,60.11919],[24.46254,60.11632],[24.45482,60.11694],[24.43774,60.11967],[24.41533,60.11985],[24.39496,60.11761],[24.37108,60.10933],[24.36049,60.10759],[24.34978,60.10722],[24.34121,60.10705],[24.32992,60.11019],[24.31759,60.11851],[24.30865,60.12277],[24.27506,60.13571],[24.26163,60.13849],[24.23097,60.14168],[24.20327,60.13896],[24.16686,60.13405],[24.12351,60.12087],[24.11459,60.11409],[24.07329,60.10246],[24.06111,60.10158],[24.03928,60.0988],[24.03061,60.09631],[24.00688,60.08077],[23.97605,60.0695],[23.96167,60.06596],[23.94767,60.06165],[23.94193,60.06076],[23.93079,60.06203],[23.92424,60.06326],[23.91021,60.06262],[23.88133,60.06684],[23.8604,60.06788],[23.82908,60.06866],[23.80103,60.07044],[23.78446,60.07386],[23.76448,60.08072],[23.75678,60.08115],[23.74913,60.08096],[23.72944,60.07864],[23.70593,60.07775],[23.7,60.07576],[23.69019,60.0697],[23.68411,60.06924],[23.66921,60.07116],[23.64765,60.06326],[23.63362,60.0626],[23.61927,60.06514],[23.58786,60.07858],[23.54227,60.10419],[23.49969,60.11226],[23.4874,60.1153],[23.4656,60.11549],[23.41661,60.12581],[23.39055,60.1395],[23.31616,60.15383],[23.27023,60.1769],[23.2592,60.18731],[23.20346,60.21191],[23.19069,60.21583],[23.18662,60.21909],[23.18356,60.2216],[23.18295,60.22679],[23.15897,60.25015],[23.12175,60.27817],[23.11591,60.28581],[23.11403,60.29387],[23.10718,60.3073],[23.10595,60.31508],[23.09652,60.32675],[23.09688,60.33151],[23.1047,60.33848],[23.11555,60.34599],[23.1203,60.37355],[23.12455,60.37949],[23.12522,60.38166],[23.12172,60.38508],[23.11125,60.38983],[23.09626,60.39352],[23.07931,60.39547],[23.05978,60.3957],[23.04488,60.39862],[23.03718,60.40084],[23.02735,60.4027],[23.0218,60.40253],[23.01193,60.40223],[22.92033,60.41661],[22.88571,60.41356],[22.87724,60.41437],[22.80274,60.42521],[22.78894,60.42646],[22.77435,60.42906],[22.76621,60.43202],[22.76007,60.43397],[22.7315,60.43673],[22.72663,60.43841],[22.71217,60.44929],[22.69714,60.45738],[22.69196,60.45905],[22.68543,60.45915],[22.67299,60.45936],[22.63846,60.46237],[22.63321,60.46219],[22.62866,60.46143]]},"properties":{"name":"Helsinki-Turku, peruskorjaus","kind":"project","ptype":"rail","subtype":"Ratahanke","status":"kaynnissa","date":"2019–2024","url":"https://vayla.fi/hankkeet","source":"Väylävirasto"}},{"type":"Feature","geometry":{"type":"LineString","coordinates":[[22.62917,60.46147],[22.59553,60.44871],[22.57602,60.44163],[22.55138,60.4359],[22.53562,60.42649],[22.52902,60.42489],[22.52121,60.42309],[22.50523,60.42209],[22.4933,60.42322],[22.47637,60.42679],[22.44029,60.44318],[22.40366,60.44559],[22.38976,60.44297],[22.36994,60.44059],[22.35385,60.43819],[22.34248,60.43749],[22.32582,60.43905],[22.31583,60.44161],[22.29273,60.45336]]},"properties":{"name":"Helsinki-Turku, peruskorjaus","kind":"project","ptype":"rail","subtype":"Ratahanke","status":"kaynnissa","date":"2019–2024","url":"https://vayla.fi/hankkeet","source":"Väylävirasto"}}]}