{"type":"FeatureCollection","features":[{"type":"Feature","geometry":{"type":"MultiLineString","coordinates":[[[25.97932,60.49161],[25.97955,60.4916]],[[25.97955,60.4916],[25.98098,60.49151],[25.98281,60.49139],[25.98426,60.49127],[25.98572,60.49116],[25.98712,60.49108],[25.98828,60.49101]],[[25.98828,60.49101],[25.98912,60.49097],[25.99036,60.49092],[25.99187,60.49085],[25.99301,60.49079],[25.99337,60.49076]],[[25.99337,60.49076],[25.99402,60.49072],[25.99505,60.49063],[25.99596,60.49053],[25.99713,60.4904],[25.99838,60.49025],[25.99928,60.49014]],[[25.99928,60.49014],[25.99989,60.49006]],[[25.99989,60.49006],[26.0007,60.48993],[26.00159,60.48977],[26.00219,60.48967],[26.00304,60.48952],[26.00505,60.48911],[26.00679,60.4887],[26.00846,60.48827],[26.00985,60.48786],[26.01109,60.48749],[26.01209,60.48716]],[[26.01209,60.48716],[26.01285,60.4869]],[[26.01285,60.4869],[26.01347,60.48668],[26.01449,60.48627],[26.01572,60.4858],[26.01645,60.4855],[26.01705,60.48527],[26.01753,60.48507],[26.01808,60.48486],[26.01872,60.48462],[26.01921,60.48444],[26.01972,60.48424],[26.02022,60.48406],[26.02082,60.48384],[26.02148,60.4836],[26.02194,60.48345],[26.02248,60.48327],[26.023,60.48308]],[[26.023,60.48308],[26.02348,60.48292]],[[26.02348,60.48292],[26.02413,60.48271],[26.02462,60.48256],[26.0253,60.48235],[26.02583,60.48218],[26.02625,60.48206]],[[26.02625,60.48206],[26.02663,60.48195],[26.02717,60.4818],[26.0277,60.48164],[26.02823,60.48149],[26.02873,60.48135],[26.02937,60.48118],[26.02991,60.48104],[26.03045,60.48089],[26.03111,60.48072],[26.03164,60.48059],[26.03239,60.48041],[26.03301,60.48026],[26.03377,60.48009],[26.03454,60.47991],[26.03518,60.47977],[26.03576,60.47965],[26.03643,60.4795],[26.03709,60.47937],[26.03774,60.47924],[26.03828,60.47913],[26.03886,60.47902],[26.03947,60.47892],[26.04006,60.4788]],[[26.04006,60.4788],[26.04039,60.47874]],[[26.04039,60.47874],[26.04107,60.47864],[26.04169,60.47854],[26.04242,60.47843],[26.04308,60.47834],[26.04377,60.47825],[26.04443,60.47816],[26.0452,60.47808],[26.0458,60.47802],[26.04636,60.47796],[26.04687,60.47793],[26.04738,60.47789],[26.04809,60.47784],[26.0488,60.47779],[26.04987,60.47774],[26.05081,60.47771],[26.05175,60.47768],[26.05263,60.47767],[26.05339,60.47768],[26.05413,60.47768],[26.05475,60.4777],[26.05549,60.47771],[26.0561,60.47774],[26.05684,60.47777],[26.05766,60.47781],[26.0584,60.47785],[26.05909,60.47789],[26.05974,60.47793],[26.06061,60.47798],[26.06146,60.47804],[26.06221,60.47808],[26.06298,60.47813],[26.06379,60.47817],[26.06458,60.47822],[26.06552,60.47828],[26.06635,60.47833],[26.0672,60.47838],[26.06785,60.47842],[26.0689,60.47848],[26.06966,60.47853],[26.07061,60.47858],[26.07113,60.47861],[26.07202,60.47865],[26.07282,60.47867],[26.07461,60.47874],[26.07548,60.47876],[26.07623,60.47877],[26.07712,60.47879],[26.07802,60.47881],[26.07877,60.47882]],[[26.07877,60.47882],[26.07954,60.47882],[26.08186,60.47881]],[[26.08186,60.47881],[26.08225,60.4788],[26.08295,60.47879],[26.08354,60.47878],[26.08419,60.47877],[26.08516,60.47874],[26.08667,60.4787],[26.08737,60.47867],[26.08815,60.47863],[26.08889,60.47859]],[[26.08889,60.47859],[26.08954,60.47856],[26.09012,60.47853],[26.09065,60.4785],[26.09106,60.47848],[26.09152,60.47845],[26.09226,60.47841],[26.09313,60.47834],[26.09418,60.47826],[26.09495,60.4782],[26.09567,60.47815],[26.09629,60.47809],[26.09694,60.47802],[26.09755,60.47796]],[[26.09755,60.47796],[26.0979,60.47792],[26.09823,60.47789]],[[26.09823,60.47789],[26.09859,60.47786],[26.099,60.47782],[26.09988,60.47773],[26.10059,60.47764],[26.10121,60.47757],[26.10198,60.47746],[26.10263,60.47738],[26.10335,60.47727],[26.1041,60.47714],[26.10485,60.47702],[26.10537,60.47692],[26.10598,60.47681],[26.10667,60.47668],[26.10726,60.47655],[26.10777,60.47644]],[[26.10777,60.47644],[26.10822,60.47634]],[[26.10822,60.47634],[26.10868,60.47624],[26.10924,60.47611],[26.10967,60.47601],[26.11024,60.47587],[26.11095,60.47568],[26.11152,60.47554],[26.11209,60.47538],[26.11266,60.47521],[26.11313,60.47507],[26.11361,60.47493],[26.11413,60.47476],[26.11468,60.47459],[26.11526,60.4744],[26.11583,60.47421],[26.11626,60.47407],[26.11672,60.47391],[26.11724,60.47373],[26.11768,60.47358],[26.11794,60.47349]],[[26.11794,60.47349],[26.11821,60.4734],[26.11872,60.47322]],[[26.11872,60.47322],[26.11919,60.47305]],[[26.11919,60.47305],[26.11973,60.47285],[26.12023,60.47267],[26.12068,60.4725],[26.12113,60.47233],[26.12158,60.47216],[26.12209,60.47196],[26.12257,60.47177],[26.123,60.47159],[26.12348,60.4714],[26.12396,60.4712],[26.12445,60.47099],[26.12509,60.47072],[26.12573,60.47043],[26.12632,60.47018],[26.12707,60.46983],[26.1276,60.4696],[26.12998,60.46849],[26.13161,60.46775],[26.1326,60.46733]],[[26.1326,60.46733],[26.13347,60.46696]],[[26.13347,60.46696],[26.13374,60.46685],[26.13406,60.46672]],[[26.13406,60.46672],[26.13457,60.46651],[26.13514,60.46628],[26.13574,60.46606],[26.13712,60.46557],[26.13809,60.46521],[26.13909,60.46487],[26.14059,60.46434],[26.14183,60.46396],[26.14393,60.46334],[26.14429,60.46324],[26.14538,60.46294]],[[26.14538,60.46294],[26.14565,60.46287],[26.14688,60.46255],[26.14827,60.4622],[26.14969,60.46187],[26.15052,60.46168],[26.15169,60.46143],[26.15238,60.46128],[26.15299,60.46116],[26.15415,60.46093],[26.15518,60.46074],[26.15652,60.46051],[26.15815,60.46024],[26.15938,60.46006],[26.16068,60.45988],[26.16128,60.45982]],[[26.16128,60.45982],[26.16348,60.45954],[26.1645,60.45943],[26.16522,60.45935],[26.16581,60.4593],[26.16637,60.45925]],[[26.16637,60.45925],[26.16678,60.45922],[26.16716,60.45919]],[[26.16716,60.45919],[26.16811,60.45912],[26.1697,60.45904],[26.17185,60.45898],[26.17393,60.45898],[26.17643,60.45901]],[[26.17643,60.45901],[26.17711,60.45904]],[[26.17711,60.45904],[26.17811,60.45908],[26.17862,60.45911],[26.1791,60.45913],[26.17938,60.45915],[26.18036,60.45922],[26.18142,60.45931],[26.18316,60.45948],[26.18473,60.45965],[26.18527,60.45971]],[[26.18527,60.45971],[26.18586,60.45978],[26.18746,60.46001],[26.18911,60.46023],[26.19026,60.46039],[26.19071,60.46045],[26.19212,60.46065]],[[26.19212,60.46065],[26.19243,60.4607]],[[26.19243,60.4607],[26.19266,60.46073],[26.1927,60.46074],[26.19299,60.46079],[26.1936,60.46088],[26.19425,60.46099],[26.19468,60.46108],[26.19557,60.46124],[26.19641,60.46139],[26.1972,60.46155],[26.19807,60.46172],[26.19911,60.46195],[26.20163,60.46256],[26.20239,60.46276],[26.20279,60.46286]],[[26.20279,60.46286],[26.20327,60.46299],[26.20347,60.46304],[26.2038,60.46314]],[[26.2038,60.46314],[26.20398,60.46319],[26.20419,60.46325],[26.20494,60.46347],[26.20591,60.46376],[26.20678,60.46405],[26.20752,60.46428],[26.20765,60.46432]],[[26.20765,60.46432],[26.20778,60.46436]],[[26.20778,60.46436],[26.20838,60.46454]],[[26.20838,60.46454],[26.20856,60.4646]],[[26.20856,60.4646],[26.20896,60.46472],[26.20991,60.46497],[26.21038,60.4651],[26.21123,60.46532],[26.21253,60.46563],[26.21349,60.46583],[26.21453,60.46604],[26.21625,60.4663],[26.21748,60.4665]],[[26.21748,60.4665],[26.2177,60.46653],[26.21801,60.46656]],[[26.21801,60.46656],[26.21887,60.46667],[26.21955,60.46676],[26.22193,60.46704]],[[26.22193,60.46704],[26.22218,60.46707]],[[26.22218,60.46707],[26.22307,60.4672],[26.22449,60.46742]],[[26.22449,60.46742],[26.22453,60.46743],[26.22528,60.46755],[26.22598,60.46767],[26.22713,60.46789],[26.22841,60.46816],[26.22997,60.46853]],[[26.22997,60.46853],[26.23056,60.4687]],[[26.23056,60.4687],[26.23242,60.46923],[26.23485,60.46995],[26.23738,60.47054],[26.23957,60.47102],[26.24087,60.47128],[26.24197,60.47148],[26.24402,60.47184],[26.2457,60.47213]],[[26.2457,60.47213],[26.24655,60.47227],[26.24669,60.47229]],[[26.24669,60.47229],[26.24697,60.47234],[26.24831,60.47258]],[[26.24831,60.47258],[26.2494,60.47278],[26.25042,60.47293]],[[26.25042,60.47293],[26.25206,60.47321],[26.25445,60.47361],[26.25564,60.47381],[26.2573,60.47411],[26.25928,60.47445],[26.26034,60.47463],[26.26178,60.47487],[26.26282,60.47506]],[[26.26282,60.47506],[26.26319,60.47512]],[[26.26319,60.47512],[26.26398,60.47526],[26.26483,60.47543],[26.26572,60.47561],[26.26658,60.47579],[26.26739,60.47598],[26.26836,60.47621],[26.26937,60.47646],[26.26995,60.4766],[26.27109,60.47692],[26.272,60.47718],[26.27276,60.47739],[26.27371,60.47769]],[[26.27371,60.47769],[26.27432,60.47788],[26.27486,60.47806],[26.27556,60.4783]],[[26.27556,60.4783],[26.27635,60.47858],[26.27748,60.479],[26.27825,60.47928],[26.27957,60.47986],[26.28129,60.48059],[26.28164,60.48074],[26.28244,60.48107],[26.28513,60.48219],[26.28759,60.48314],[26.29055,60.48414]],[[26.29055,60.48414],[26.29058,60.48415],[26.29092,60.48426]],[[26.29092,60.48426],[26.29405,60.4852],[26.29691,60.48597],[26.29947,60.48663]],[[26.29947,60.48663],[26.29965,60.48667]],[[26.29965,60.48667],[26.30057,60.48686],[26.30282,60.48733],[26.30625,60.48799],[26.30936,60.48849],[26.30954,60.48852]],[[26.30954,60.48852],[26.31047,60.48865]],[[26.31047,60.48865],[26.31189,60.48884],[26.31209,60.48887]],[[26.31209,60.48887],[26.31228,60.4889]],[[26.31228,60.4889],[26.31356,60.48907],[26.31404,60.48912]],[[26.31404,60.48912],[26.31737,60.48947],[26.32139,60.48978],[26.32595,60.48999],[26.32686,60.49]],[[26.32686,60.49],[26.32751,60.49002]],[[26.32751,60.49002],[26.33028,60.49006],[26.33445,60.49003],[26.33822,60.48987],[26.34237,60.4896],[26.3425,60.48959]],[[26.3425,60.48959],[26.3429,60.48957]],[[26.3429,60.48957],[26.34665,60.4893],[26.35177,60.48894],[26.35469,60.48874],[26.35688,60.48859],[26.3588,60.48846],[26.36116,60.48829],[26.36288,60.48817],[26.36499,60.48802]],[[26.36499,60.48802],[26.36722,60.48787],[26.36962,60.4877],[26.37238,60.48751],[26.37389,60.4874],[26.37519,60.48731],[26.37649,60.48724],[26.37778,60.48718],[26.37974,60.48712],[26.38127,60.4871],[26.38278,60.4871],[26.38386,60.48711],[26.38539,60.48714],[26.38713,60.48721],[26.38906,60.48731]],[[26.38906,60.48731],[26.38963,60.48735]],[[26.38963,60.48735],[26.3908,60.48744],[26.39151,60.4875],[26.39274,60.48761],[26.39464,60.48781],[26.39697,60.48811],[26.39882,60.48839],[26.39997,60.48857],[26.40088,60.48876],[26.40143,60.48886]],[[26.40143,60.48886],[26.40184,60.48894],[26.40245,60.48906],[26.40282,60.48914],[26.40375,60.48933],[26.40463,60.48952],[26.40558,60.48973],[26.4065,60.48995],[26.40725,60.49013]],[[26.40725,60.49013],[26.40741,60.49017],[26.40876,60.49047],[26.41015,60.49077],[26.41103,60.49094],[26.41318,60.49134],[26.41487,60.49165],[26.41726,60.49201],[26.41908,60.49224]],[[26.41908,60.49224],[26.41934,60.49228]],[[26.41934,60.49228],[26.41951,60.4923],[26.41987,60.49234],[26.42111,60.49248],[26.422,60.49258],[26.42422,60.49278],[26.42438,60.4928],[26.42727,60.49297],[26.43001,60.49311],[26.4304,60.49312]],[[26.4304,60.49312],[26.43197,60.49316]],[[26.43197,60.49316],[26.43217,60.49317],[26.43482,60.49319],[26.43565,60.49318],[26.43608,60.49316]],[[26.43608,60.49316],[26.43883,60.49308],[26.44244,60.49287],[26.44488,60.49266]],[[26.44488,60.49266],[26.4456,60.49258]],[[26.4456,60.49258],[26.44591,60.49255],[26.44617,60.49252],[26.44714,60.4924],[26.44789,60.49231]],[[26.44789,60.49231],[26.44962,60.49211],[26.45034,60.49202],[26.45117,60.49192],[26.45195,60.49181]],[[26.45195,60.49181],[26.45277,60.4917],[26.45291,60.49168]],[[26.45291,60.49168],[26.45361,60.49158],[26.45399,60.49153],[26.45467,60.49141],[26.45474,60.4914],[26.45499,60.49136],[26.45538,60.49129],[26.45547,60.49128],[26.45568,60.49124],[26.45704,60.491]],[[26.45704,60.491],[26.4573,60.49095],[26.45833,60.49074],[26.45909,60.49059],[26.46015,60.49035],[26.4616,60.49002],[26.46187,60.48996],[26.46313,60.48967],[26.46428,60.4894],[26.4653,60.48916],[26.46619,60.48897],[26.46761,60.48863],[26.46887,60.48836],[26.4698,60.48815],[26.47055,60.48799],[26.47147,60.48782],[26.4725,60.48763],[26.47306,60.48753],[26.47413,60.48735],[26.47521,60.48717],[26.47614,60.48702]],[[26.47614,60.48702],[26.47649,60.48697]],[[26.47649,60.48697],[26.47744,60.48683],[26.47912,60.48662],[26.4793,60.4866]],[[26.4793,60.4866],[26.47998,60.48651],[26.48096,60.48639],[26.48198,60.48629],[26.48357,60.48613],[26.48528,60.486],[26.4868,60.48589],[26.48855,60.4858],[26.49033,60.48572]],[[26.49033,60.48572],[26.49059,60.48572]],[[26.49059,60.48572],[26.49213,60.48568],[26.4937,60.48565],[26.49515,60.48564],[26.49626,60.48564],[26.49739,60.48566],[26.49898,60.48572],[26.4992,60.48573],[26.50063,60.48577],[26.50087,60.48578]],[[26.50087,60.48578],[26.50283,60.48586],[26.50449,60.48592],[26.50549,60.48595],[26.50629,60.48598],[26.50683,60.486]],[[26.50683,60.486],[26.50708,60.48601],[26.50791,60.48604],[26.50868,60.48607],[26.50952,60.4861],[26.51027,60.48613],[26.51107,60.48616],[26.51189,60.48619],[26.5127,60.48622],[26.51352,60.48625],[26.51432,60.48627],[26.51514,60.4863],[26.51581,60.48633]],[[26.51581,60.48633],[26.51648,60.48635]],[[26.51648,60.48635],[26.51791,60.48641],[26.51901,60.48645],[26.52007,60.48648],[26.52096,60.48651],[26.52181,60.48654],[26.52264,60.48656],[26.52342,60.48656],[26.52432,60.48658],[26.52518,60.48659],[26.52601,60.48659],[26.52679,60.48659],[26.52768,60.48658],[26.52842,60.48657],[26.52925,60.48657],[26.53006,60.48655],[26.53087,60.48653],[26.5317,60.48651],[26.53253,60.48648],[26.53338,60.48645],[26.53416,60.48642],[26.53483,60.48639]],[[26.53483,60.48639],[26.53503,60.48639]],[[26.53503,60.48639],[26.53565,60.48636],[26.53637,60.48633],[26.53707,60.4863],[26.53773,60.48628],[26.53836,60.48626],[26.53902,60.48625],[26.53965,60.48625],[26.54033,60.48625],[26.54095,60.48625],[26.54162,60.48626],[26.54234,60.48628],[26.54295,60.4863]],[[26.54295,60.4863],[26.54315,60.48631]],[[26.54315,60.48631],[26.54375,60.48634],[26.54479,60.4864],[26.54553,60.48645],[26.54622,60.48651],[26.54689,60.48656],[26.54754,60.48662],[26.54849,60.48672]],[[26.54849,60.48672],[26.5498,60.48684]],[[26.5498,60.48684],[26.55226,60.48708]],[[26.55226,60.48708],[26.55296,60.48715],[26.55477,60.48733],[26.55502,60.48735],[26.55667,60.48749],[26.55693,60.48751],[26.55738,60.48754],[26.55758,60.48755],[26.55793,60.48757],[26.55856,60.4876],[26.55998,60.48767],[26.56136,60.48773],[26.56234,60.48775],[26.56351,60.48779]],[[26.56351,60.48779],[26.56383,60.4878]],[[26.56383,60.4878],[26.56558,60.48788],[26.5668,60.48795],[26.56708,60.48797],[26.56739,60.48798],[26.56856,60.48805],[26.57035,60.48819],[26.57153,60.48827],[26.57158,60.48828],[26.5719,60.48831],[26.57287,60.4884],[26.57359,60.48847]],[[26.57359,60.48847],[26.57475,60.48858],[26.57594,60.48871],[26.578,60.48897],[26.57954,60.48919],[26.58038,60.48932]],[[26.58038,60.48932],[26.58051,60.48934],[26.58161,60.48952]],[[26.58161,60.48952],[26.58192,60.48957]],[[26.58192,60.48957],[26.58346,60.48983],[26.58476,60.49006],[26.58616,60.4903],[26.5873,60.4905],[26.58849,60.4907],[26.58893,60.49077],[26.59016,60.49098],[26.59159,60.49119],[26.59205,60.49126],[26.59295,60.4914],[26.59432,60.49159],[26.59567,60.49177],[26.59703,60.49196],[26.59839,60.49212],[26.59976,60.49228],[26.60111,60.49243],[26.60249,60.49258],[26.6038,60.4927],[26.60517,60.49284],[26.60648,60.49296],[26.60785,60.49308],[26.60919,60.49319],[26.6104,60.49328]],[[26.6104,60.49328],[26.61045,60.49328]],[[26.61045,60.49328],[26.6115,60.49335],[26.61223,60.4934]],[[26.61223,60.4934],[26.61348,60.49349],[26.61437,60.49354],[26.6152,60.49357],[26.61634,60.49363],[26.61767,60.4937],[26.61905,60.49374],[26.62052,60.4938],[26.6213,60.49382],[26.62189,60.49384],[26.62326,60.49387],[26.62458,60.4939],[26.62583,60.49393],[26.62694,60.49394],[26.62826,60.49396],[26.62832,60.49396]],[[26.62832,60.49396],[26.62979,60.49397],[26.63114,60.49397],[26.63247,60.49397],[26.63383,60.49399],[26.6345,60.49399]],[[26.6345,60.49399],[26.63514,60.49399]],[[26.63514,60.49399],[26.63712,60.494],[26.63849,60.494],[26.63915,60.49401]],[[26.63915,60.49401],[26.63983,60.49401],[26.64126,60.49402],[26.64262,60.49403],[26.64404,60.49404],[26.64542,60.49404],[26.6468,60.49405],[26.64819,60.49406],[26.64957,60.49406],[26.65095,60.49406],[26.6523,60.49407],[26.65366,60.49408],[26.65499,60.49409],[26.65631,60.49411],[26.65741,60.49413],[26.65872,60.49417],[26.66014,60.49421],[26.66154,60.49425],[26.66284,60.4943],[26.66415,60.49436],[26.66554,60.49444],[26.66688,60.49452],[26.66819,60.49462],[26.66945,60.49472],[26.67086,60.49486],[26.67227,60.49502],[26.67365,60.49519],[26.6751,60.49539],[26.67624,60.49556]],[[26.67624,60.49556],[26.67637,60.49558]],[[26.67637,60.49558],[26.67777,60.49584],[26.67919,60.49608],[26.68056,60.49632],[26.68279,60.49672],[26.68501,60.49712],[26.68664,60.49741]],[[26.68664,60.49741],[26.68754,60.49757],[26.68938,60.49789],[26.69083,60.49815],[26.69262,60.49848],[26.69533,60.49896],[26.69758,60.49937]],[[26.69758,60.49937],[26.6978,60.49941]],[[26.6978,60.49941],[26.69845,60.49954]],[[26.69845,60.49954],[26.69904,60.49964]],[[26.69904,60.49964],[26.7006,60.49992],[26.7024,60.50023],[26.70395,60.50051],[26.70591,60.50086],[26.70796,60.50122],[26.70972,60.50153],[26.71094,60.50175],[26.71298,60.50211],[26.71446,60.50235],[26.71603,60.50258],[26.71713,60.50273],[26.71787,60.50283],[26.72014,60.5031],[26.72205,60.50328],[26.72376,60.50343],[26.72546,60.50355]],[[26.72546,60.50355],[26.72566,60.50356]],[[26.72566,60.50356],[26.72693,60.50364]],[[26.72693,60.50364],[26.72707,60.50365],[26.72754,60.50367],[26.72905,60.50374],[26.73081,60.50379],[26.73133,60.50379]],[[26.73133,60.50379],[26.7326,60.50381],[26.7339,60.5038],[26.73474,60.5038],[26.73656,60.50379],[26.73992,60.50369],[26.74221,60.50363]],[[26.74221,60.50363],[26.74253,60.50363]],[[26.74253,60.50363],[26.74563,60.50359],[26.74783,60.50358],[26.74914,60.50357],[26.75018,60.50358],[26.75124,60.50359]],[[26.75124,60.50359],[26.75278,60.50362],[26.75477,60.50367],[26.75564,60.5037]],[[26.75564,60.5037],[26.75614,60.50371],[26.75702,60.50374],[26.75804,60.50376]],[[26.75804,60.50376],[26.75823,60.50377]],[[26.75823,60.50377],[26.76074,60.50386],[26.76241,60.50392],[26.76566,60.50403],[26.76727,60.50409],[26.76882,60.50415],[26.77034,60.5042],[26.77222,60.50427],[26.7753,60.50438],[26.77808,60.50449],[26.78162,60.50461],[26.78305,60.50466],[26.78453,60.5047],[26.78659,60.5047],[26.78888,60.50466],[26.79189,60.50452],[26.79339,60.50439]],[[26.79339,60.50439],[26.79354,60.50438]],[[26.79354,60.50438],[26.79502,60.50425],[26.79653,60.50409],[26.79786,60.50393],[26.79943,60.50372],[26.8008,60.5035],[26.80231,60.50323],[26.80359,60.50298],[26.8048,60.50272],[26.80631,60.50236]],[[26.80631,60.50236],[26.80689,60.50222]],[[26.80689,60.50222],[26.80792,60.50195],[26.80982,60.5014],[26.81156,60.50088],[26.81168,60.50084]],[[26.81168,60.50084],[26.81296,60.50041],[26.81438,60.49988],[26.81447,60.49984],[26.81457,60.4998]],[[26.81457,60.4998],[26.81597,60.49927],[26.81675,60.49898],[26.81745,60.49872],[26.8185,60.49834],[26.819,60.49818],[26.82004,60.49786],[26.82157,60.49745],[26.82247,60.49722]],[[26.82247,60.49722],[26.82266,60.49717],[26.82322,60.49705],[26.8238,60.49692]],[[26.8238,60.49692],[26.82412,60.49685]],[[26.82412,60.49685],[26.82582,60.49653],[26.82725,60.4963],[26.82834,60.49616],[26.82933,60.49606],[26.83047,60.49597],[26.83135,60.49593],[26.83193,60.49589],[26.83224,60.49588]],[[26.83224,60.49588],[26.83256,60.49586]],[[26.83256,60.49586],[26.83344,60.49583],[26.83362,60.49583]],[[26.83362,60.49583],[26.83476,60.49581],[26.83623,60.49582],[26.83643,60.49582]],[[26.83643,60.49582],[26.83661,60.49583],[26.83674,60.49583]],[[26.83674,60.49583],[26.83743,60.49584],[26.83873,60.49589],[26.83973,60.49595],[26.84006,60.49597],[26.84052,60.496],[26.84115,60.49605],[26.84251,60.49617],[26.84332,60.49626],[26.84431,60.49638],[26.84532,60.49651]],[[26.84532,60.49651],[26.84558,60.49654],[26.84561,60.49654]],[[26.84561,60.49654],[26.84689,60.49671],[26.84706,60.49673]],[[26.84706,60.49673],[26.84863,60.49693],[26.84989,60.49708],[26.85177,60.4973],[26.85347,60.49746],[26.85502,60.49761],[26.85618,60.49771],[26.85833,60.49787],[26.85884,60.4979]],[[26.85884,60.4979],[26.86149,60.49807],[26.86151,60.49807],[26.86367,60.49822],[26.86556,60.49837],[26.86625,60.49843],[26.86791,60.49861],[26.86942,60.49879],[26.87102,60.49899]],[[26.87102,60.49899],[26.8715,60.49906]],[[26.8715,60.49906],[26.87202,60.49913]],[[26.87202,60.49913],[26.8729,60.49926],[26.87441,60.49951],[26.8757,60.49974],[26.87694,60.49997],[26.87815,60.50021]],[[26.87815,60.50021],[26.87831,60.50024]],[[26.87831,60.50024],[26.87858,60.5003]],[[26.87858,60.5003],[26.8786,60.5003],[26.87947,60.50049]],[[26.87947,60.50049],[26.87955,60.50051],[26.88026,60.50066],[26.88035,60.50069]],[[26.88035,60.50069],[26.88069,60.50076]],[[26.88069,60.50076],[26.8807,60.50076],[26.88147,60.50094],[26.88153,60.50096]],[[26.88153,60.50096],[26.88239,60.50116],[26.88307,60.50134]],[[26.88307,60.50134],[26.88407,60.5016],[26.88442,60.50168]],[[26.88442,60.50168],[26.88662,60.50223]],[[26.88662,60.50223],[26.88669,60.50225],[26.88809,60.5026],[26.88827,60.50265],[26.88834,60.50266],[26.88837,60.50267]],[[26.88837,60.50267],[26.88838,60.50267],[26.8884,60.50268],[26.88854,60.50271],[26.8886,60.50273]],[[26.8886,60.50273],[26.88864,60.50274],[26.88885,60.50279],[26.88963,60.50297],[26.89026,60.50312],[26.89149,60.50339],[26.89386,60.50391],[26.89407,60.50395]],[[26.89407,60.50395],[26.89567,60.50427],[26.89785,60.50468],[26.89796,60.5047],[26.89802,60.50471]],[[25.97912,60.49143],[25.9796,60.49141]],[[25.9796,60.49141],[25.97999,60.49139]],[[25.97999,60.49139],[25.98163,60.49128],[25.98315,60.49116],[25.98469,60.49103],[25.98707,60.49088],[25.98824,60.49082]],[[25.98824,60.49082],[25.98914,60.49078],[25.99051,60.49071],[25.99244,60.49061],[25.99317,60.49057]],[[25.99317,60.49057],[25.99378,60.49053],[25.99554,60.49038],[25.99727,60.4902],[25.99925,60.48993]],[[25.99925,60.48993],[25.99956,60.48989]],[[25.99956,60.48989],[26.00201,60.48948],[26.00468,60.48896],[26.00613,60.48866],[26.00784,60.48821],[26.01043,60.48747],[26.01213,60.48692]],[[26.01213,60.48692],[26.01247,60.4868]],[[26.01247,60.4868],[26.01294,60.48663],[26.01355,60.4864],[26.01403,60.48622],[26.01467,60.48597],[26.01518,60.48577],[26.01565,60.48558],[26.01625,60.48535],[26.01678,60.48513],[26.01735,60.48491],[26.01789,60.48471],[26.01841,60.48451],[26.01896,60.4843],[26.01952,60.48408],[26.02021,60.48384],[26.02071,60.48366],[26.02121,60.48348],[26.02179,60.48328],[26.02241,60.48307],[26.02277,60.48294]],[[26.02277,60.48294],[26.02324,60.48278]],[[26.02324,60.48278],[26.02364,60.48265],[26.02404,60.48253],[26.02445,60.48241],[26.02503,60.48222],[26.02557,60.48205],[26.02603,60.48191]],[[26.02603,60.48191],[26.02638,60.48181],[26.02684,60.48168],[26.02763,60.48145],[26.02817,60.4813],[26.02872,60.48115],[26.02935,60.48098],[26.02984,60.48085],[26.03051,60.48067],[26.03114,60.48051],[26.03205,60.48029],[26.0331,60.48004],[26.03397,60.47984],[26.03473,60.47966],[26.03543,60.47951],[26.03601,60.47939],[26.03661,60.47926],[26.03729,60.47914],[26.03788,60.47901],[26.03857,60.47888],[26.03921,60.47876],[26.03992,60.47863]],[[26.03992,60.47863],[26.04025,60.47857]],[[26.04025,60.47857],[26.04135,60.4784],[26.04211,60.47828],[26.04276,60.47819],[26.04363,60.47807],[26.04436,60.47799],[26.0451,60.4779],[26.0458,60.47783],[26.04645,60.47777],[26.04698,60.47773],[26.04757,60.47769],[26.04817,60.47764],[26.04877,60.4776],[26.04932,60.47757],[26.04991,60.47755],[26.05035,60.47754],[26.05106,60.47752],[26.0517,60.4775],[26.05249,60.47749],[26.05321,60.47749],[26.05369,60.47749],[26.05431,60.47749],[26.05483,60.47751],[26.05549,60.47752],[26.05621,60.47756],[26.05695,60.47759],[26.05777,60.47763],[26.05882,60.47769],[26.05972,60.47774],[26.0606,60.47778],[26.06137,60.47784],[26.06286,60.47793],[26.06417,60.47802],[26.06528,60.47808],[26.06605,60.47813],[26.0668,60.47817],[26.06768,60.47823],[26.06852,60.47829],[26.0693,60.47832],[26.07015,60.47838],[26.07104,60.47842],[26.07206,60.47846],[26.07284,60.4785],[26.07383,60.47853],[26.07461,60.47855],[26.07539,60.47857],[26.07614,60.47859],[26.07694,60.47861],[26.07796,60.47862],[26.07879,60.47863]],[[26.07879,60.47863],[26.0795,60.47864],[26.08183,60.47863]],[[26.08183,60.47863],[26.08223,60.47862],[26.083,60.47861],[26.08396,60.47859],[26.08497,60.47857],[26.08584,60.47854],[26.08664,60.47851],[26.08733,60.47849],[26.08804,60.47846],[26.08885,60.47841]],[[26.08885,60.47841],[26.08935,60.47839],[26.08993,60.47837],[26.09051,60.47833],[26.09091,60.47831],[26.09139,60.47828],[26.09199,60.47824],[26.0926,60.4782],[26.09339,60.47814],[26.09413,60.47809],[26.09465,60.47805],[26.0955,60.47797],[26.09626,60.47791],[26.0969,60.47785],[26.09749,60.4778]],[[26.09749,60.4778],[26.09814,60.47773]],[[26.09814,60.47773],[26.09859,60.47768],[26.09947,60.47759],[26.10017,60.47751],[26.10081,60.47743],[26.10158,60.47733],[26.10234,60.47723],[26.10304,60.47712],[26.10372,60.47702],[26.10494,60.47681],[26.10582,60.47665],[26.10676,60.47646],[26.10764,60.47628]],[[26.10764,60.47628],[26.10808,60.47619]],[[26.10808,60.47619],[26.10855,60.47607],[26.10903,60.47596],[26.10952,60.47584],[26.11004,60.47572],[26.11083,60.47552],[26.11131,60.47538],[26.11188,60.47522],[26.11237,60.47508],[26.11284,60.47494],[26.11343,60.47476],[26.11408,60.47456],[26.11495,60.47427],[26.11552,60.47409],[26.11608,60.47389],[26.11653,60.47374],[26.11704,60.47356],[26.11743,60.47342],[26.11772,60.47332]],[[26.11772,60.47332],[26.11813,60.47318],[26.11851,60.47304]],[[26.11851,60.47304],[26.119,60.47286]],[[26.119,60.47286],[26.11935,60.47273],[26.11962,60.47264],[26.12002,60.47249],[26.12045,60.47233],[26.12093,60.47215],[26.12142,60.47196],[26.12196,60.47175],[26.12237,60.47159],[26.12284,60.47141],[26.12328,60.47124],[26.12395,60.47096],[26.12445,60.47076],[26.12497,60.47053],[26.12588,60.47014],[26.12635,60.46992],[26.12689,60.46969],[26.12732,60.46949],[26.12782,60.46925],[26.12844,60.46897],[26.12904,60.46869],[26.12959,60.46843],[26.13001,60.46823],[26.13061,60.46796],[26.13122,60.46768],[26.13176,60.46744],[26.13232,60.46718]],[[26.13232,60.46718],[26.13323,60.4668]],[[26.13323,60.4668],[26.13324,60.4668],[26.13346,60.46671],[26.13377,60.46658]],[[26.13377,60.46658],[26.13421,60.46642],[26.13556,60.4659],[26.13709,60.46531],[26.13775,60.46508],[26.14131,60.46389],[26.14513,60.46279],[26.14829,60.46198],[26.15044,60.46151]],[[26.15044,60.46151],[26.1519,60.46118],[26.1535,60.46087],[26.15536,60.46051],[26.16028,60.45972],[26.16291,60.45938],[26.16635,60.45907]],[[26.16635,60.45907],[26.16669,60.45904],[26.16711,60.459]],[[26.16711,60.459],[26.16956,60.45887],[26.17264,60.45878],[26.17588,60.45877],[26.17713,60.45882]],[[26.17713,60.45882],[26.17861,60.45889],[26.18061,60.45901],[26.18261,60.4592],[26.18296,60.45924]],[[26.18296,60.45924],[26.18588,60.45958],[26.18706,60.45972],[26.18827,60.45987],[26.19224,60.46041]],[[26.19224,60.46041],[26.19259,60.46046]],[[26.19259,60.46046],[26.19286,60.4605],[26.1962,60.46109],[26.19873,60.46161],[26.19999,60.46189],[26.20231,60.46247],[26.203,60.46266]],[[26.203,60.46266],[26.20311,60.46269],[26.20404,60.46295]],[[26.20404,60.46295],[26.20463,60.46311],[26.20695,60.4638],[26.20788,60.4641]],[[26.20788,60.4641],[26.20804,60.46415]],[[26.20804,60.46415],[26.20859,60.46433]],[[26.20859,60.46433],[26.20874,60.46437]],[[26.20874,60.46437],[26.2093,60.46455],[26.21104,60.46502],[26.21274,60.46542],[26.21531,60.46592],[26.21783,60.46632]],[[26.21783,60.46632],[26.21815,60.46636],[26.21847,60.46641]],[[26.21847,60.46641],[26.22102,60.46668],[26.22139,60.46672],[26.22194,60.46678]],[[26.22194,60.46678],[26.2223,60.46683]],[[26.2223,60.46683],[26.2229,60.46693],[26.22438,60.46717],[26.22458,60.4672]],[[26.22458,60.4672],[26.22556,60.46737],[26.22651,60.46757],[26.22755,60.46779],[26.22903,60.46813],[26.23005,60.4684]],[[26.23005,60.4684],[26.23037,60.46848],[26.23067,60.46856]],[[26.23067,60.46856],[26.23145,60.46878],[26.23256,60.4691],[26.23309,60.46925],[26.2337,60.46943],[26.23424,60.46957],[26.23547,60.4699],[26.23664,60.47019],[26.23779,60.47046],[26.23913,60.47075],[26.24092,60.47111],[26.24187,60.4713],[26.24327,60.47155],[26.24492,60.47183],[26.24575,60.47197]],[[26.24575,60.47197],[26.24679,60.47214]],[[26.24679,60.47214],[26.24728,60.47222],[26.24841,60.47242]],[[26.24841,60.47242],[26.25013,60.47272],[26.25183,60.47301],[26.25292,60.47319]],[[26.25292,60.47319],[26.2538,60.47335],[26.25497,60.47354],[26.25571,60.47367],[26.25744,60.47398],[26.25951,60.47433],[26.2613,60.47463],[26.26297,60.47491]],[[26.26297,60.47491],[26.26323,60.47495]],[[26.26323,60.47495],[26.26338,60.47498],[26.26342,60.47499],[26.26639,60.47559],[26.26851,60.47607],[26.26948,60.47632],[26.27038,60.47655],[26.27118,60.47677],[26.27165,60.4769],[26.27231,60.4771],[26.27306,60.47731],[26.27364,60.47749],[26.27455,60.47778]],[[26.27455,60.47778],[26.27456,60.47778],[26.27576,60.47818]],[[26.27576,60.47818],[26.27603,60.47827],[26.27843,60.47916],[26.2814,60.48039],[26.28161,60.48048],[26.28202,60.48067],[26.28359,60.48135],[26.28573,60.48221],[26.28806,60.48307],[26.29067,60.48397],[26.29069,60.48398]],[[26.29069,60.48398],[26.29116,60.48412]],[[26.29116,60.48412],[26.2936,60.48488],[26.29573,60.48548],[26.29832,60.48615],[26.29965,60.48646]],[[26.29965,60.48646],[26.29982,60.48651]],[[26.29982,60.48651],[26.30073,60.48671],[26.30087,60.48675],[26.30358,60.48733],[26.30597,60.48775],[26.30861,60.48821],[26.30962,60.48836]],[[26.30962,60.48836],[26.31063,60.4885]],[[26.31063,60.4885],[26.31091,60.48855],[26.31197,60.48869],[26.31219,60.48872]],[[26.31219,60.48872],[26.31235,60.48874]],[[26.31235,60.48874],[26.31363,60.48891],[26.31411,60.48896]],[[26.31411,60.48896],[26.31662,60.48922],[26.31923,60.48946],[26.32216,60.48966],[26.32485,60.48979],[26.32689,60.48985]],[[26.32689,60.48985],[26.32753,60.48987]],[[26.32753,60.48987],[26.328,60.48988],[26.33058,60.48991],[26.33176,60.48991],[26.33276,60.48989],[26.33354,60.48988],[26.33446,60.48986],[26.33574,60.48982],[26.33677,60.48978],[26.33785,60.48973],[26.33886,60.48968],[26.34057,60.48958],[26.34244,60.48943]],[[26.34244,60.48943],[26.34289,60.4894]],[[26.34289,60.4894],[26.34291,60.4894],[26.34514,60.48926],[26.34923,60.48897],[26.35214,60.48877],[26.35561,60.48853],[26.35845,60.48833],[26.36126,60.48813],[26.36387,60.48795],[26.36494,60.48788]],[[26.36494,60.48788],[26.36735,60.48771],[26.37082,60.48746],[26.37406,60.48724],[26.37519,60.48717],[26.37667,60.48708],[26.3778,60.48703],[26.37975,60.48697],[26.38127,60.48695],[26.38302,60.48695],[26.38478,60.48698],[26.38652,60.48703],[26.38827,60.48712],[26.38913,60.48717]],[[26.38913,60.48717],[26.38923,60.48718],[26.38965,60.4872]],[[26.38965,60.4872],[26.39134,60.48734],[26.39284,60.48747],[26.39436,60.48763],[26.39537,60.48775],[26.39689,60.48795],[26.39824,60.48815],[26.40051,60.48852],[26.40105,60.48862],[26.40155,60.48871]],[[26.40155,60.48871],[26.4023,60.48885],[26.40354,60.48911],[26.40497,60.48941],[26.40507,60.48944],[26.40636,60.48974],[26.40769,60.49004],[26.40882,60.4903]],[[26.40882,60.4903],[26.4095,60.49045],[26.41131,60.49083],[26.41263,60.49108],[26.41391,60.49131],[26.41641,60.49172],[26.41822,60.49197],[26.41898,60.49206]],[[26.41898,60.49206],[26.41924,60.49209]],[[26.41924,60.49209],[26.41969,60.49215],[26.41973,60.49215],[26.42098,60.4923],[26.42166,60.49238],[26.42342,60.49254],[26.42344,60.49255],[26.42497,60.49266],[26.42647,60.49276],[26.42718,60.49279],[26.4288,60.49284],[26.43059,60.49288],[26.43122,60.49289]],[[26.43122,60.49289],[26.43201,60.4929]],[[26.43201,60.4929],[26.43257,60.49291],[26.43509,60.49292],[26.43603,60.4929]],[[26.43603,60.4929],[26.43724,60.49287],[26.4385,60.49283],[26.43945,60.4928],[26.44037,60.49274],[26.44137,60.49269],[26.44236,60.49261],[26.44331,60.49254],[26.4448,60.49243]],[[26.4448,60.49243],[26.44577,60.49234]],[[26.44577,60.49234],[26.44674,60.49225],[26.44797,60.49214]],[[26.44797,60.49214],[26.44951,60.49197],[26.45026,60.49188],[26.45118,60.49176],[26.45171,60.4917],[26.45203,60.49166]],[[26.45203,60.49166],[26.45257,60.49158],[26.45279,60.49155],[26.45287,60.49154]],[[26.45287,60.49154],[26.45376,60.49142],[26.45499,60.49122],[26.45523,60.49119],[26.45567,60.49111],[26.45629,60.491],[26.45694,60.49088]],[[26.45694,60.49088],[26.45744,60.49078],[26.45751,60.49077],[26.45889,60.49048],[26.46042,60.49014],[26.4615,60.4899],[26.46173,60.48985],[26.46335,60.48947],[26.46514,60.48906],[26.46707,60.48861],[26.46832,60.48833],[26.46939,60.4881],[26.47066,60.48785],[26.47182,60.48761],[26.47292,60.4874],[26.47484,60.48708],[26.47606,60.48689]],[[26.47606,60.48689],[26.47635,60.48684]],[[26.47635,60.48684],[26.47804,60.4866],[26.47989,60.48638],[26.48184,60.48617],[26.4836,60.48601],[26.48512,60.48588],[26.48546,60.48586]],[[26.48546,60.48586],[26.48653,60.48579],[26.48733,60.48574],[26.4885,60.48566],[26.48955,60.48561],[26.49028,60.48559]],[[26.49028,60.48559],[26.49053,60.48558]],[[26.49053,60.48558],[26.49189,60.48553],[26.4934,60.48551],[26.49497,60.48551],[26.49625,60.48551],[26.49765,60.48554],[26.49849,60.48557],[26.49911,60.48559],[26.50011,60.48562],[26.50097,60.48565],[26.50137,60.48566],[26.50257,60.4857],[26.50341,60.48571]],[[26.50341,60.48571],[26.50442,60.48574],[26.50576,60.4858],[26.50687,60.48585]],[[26.50687,60.48585],[26.5076,60.48587],[26.50921,60.48593],[26.5106,60.48598],[26.51177,60.48602],[26.51288,60.48606],[26.51395,60.4861],[26.51499,60.48614],[26.51505,60.48614],[26.51585,60.48618]],[[26.51585,60.48618],[26.51651,60.4862]],[[26.51651,60.4862],[26.51774,60.48626],[26.51851,60.48629],[26.51919,60.48632],[26.51988,60.48634],[26.52051,60.48636],[26.52121,60.48638],[26.52188,60.48641],[26.52256,60.48643],[26.52316,60.48643],[26.5238,60.48644],[26.52446,60.48645],[26.52515,60.48646],[26.52578,60.48646],[26.52644,60.48646],[26.52708,60.48646],[26.52771,60.48645],[26.52838,60.48645],[26.52904,60.48644],[26.52969,60.48643],[26.53035,60.48642],[26.53108,60.4864],[26.53174,60.48638],[26.53242,60.48636],[26.53314,60.48633],[26.5338,60.48631],[26.53451,60.48628],[26.53494,60.48627]],[[26.53494,60.48627],[26.53511,60.48626]],[[26.53511,60.48626],[26.53581,60.48623],[26.53649,60.4862],[26.53703,60.48617],[26.53765,60.48616],[26.53826,60.48614],[26.53894,60.48613],[26.53959,60.48612],[26.54025,60.48612],[26.54087,60.48612],[26.54149,60.48613],[26.54213,60.48615],[26.54273,60.48617],[26.54297,60.48618]],[[26.54297,60.48618],[26.54319,60.48618]],[[26.54319,60.48618],[26.5439,60.48622],[26.54474,60.48627],[26.54532,60.48631],[26.54596,60.48636],[26.54658,60.48641],[26.54709,60.48645],[26.54777,60.48652],[26.54857,60.4866]],[[26.54857,60.4866],[26.54988,60.48672]],[[26.54988,60.48672],[26.55224,60.48697],[26.55304,60.48705]],[[26.55304,60.48705],[26.55377,60.48711],[26.55515,60.48724],[26.55522,60.48725],[26.5555,60.48726],[26.5558,60.48729],[26.55656,60.48735],[26.55672,60.48736],[26.55711,60.48738],[26.55758,60.48741],[26.55957,60.48753],[26.56108,60.4876],[26.56242,60.48764],[26.56349,60.48767]],[[26.56349,60.48767],[26.56381,60.48769]],[[26.56381,60.48769],[26.56503,60.48773],[26.56606,60.48777],[26.56777,60.48786],[26.569,60.48793],[26.5699,60.488],[26.57065,60.48806],[26.57135,60.48812],[26.57215,60.48818],[26.57259,60.48822],[26.57306,60.48827],[26.57406,60.48836],[26.57451,60.48841]],[[26.57451,60.48841],[26.57615,60.48861],[26.5775,60.48878],[26.57872,60.48893],[26.58001,60.48912],[26.58046,60.48919]],[[26.58046,60.48919],[26.58117,60.48929],[26.58195,60.48942]],[[26.58195,60.48942],[26.58224,60.48947]],[[26.58224,60.48947],[26.583,60.4896],[26.58365,60.48972],[26.58463,60.48989],[26.58616,60.49015],[26.58747,60.49038],[26.58894,60.49063],[26.58989,60.49077],[26.59228,60.49113],[26.59317,60.49126],[26.59469,60.49148],[26.59719,60.49181],[26.60014,60.49219],[26.60288,60.49248],[26.60553,60.49272],[26.60828,60.49298],[26.61043,60.49313]],[[26.61043,60.49313],[26.61049,60.49313]],[[26.61049,60.49313],[26.61093,60.49316],[26.6136,60.49333],[26.6164,60.49349],[26.61913,60.49362],[26.62161,60.4937],[26.62261,60.49373],[26.62452,60.49376],[26.62622,60.49378],[26.62779,60.49379],[26.62916,60.4938],[26.63051,60.49381],[26.63186,60.49381],[26.63323,60.49382],[26.6345,60.49382]],[[26.6345,60.49382],[26.63515,60.49383]],[[26.63515,60.49383],[26.6382,60.49386],[26.63916,60.49386]],[[26.63916,60.49386],[26.63975,60.49386],[26.64111,60.49387],[26.64249,60.49388],[26.64389,60.49389],[26.64528,60.4939],[26.64663,60.49391],[26.64802,60.49392],[26.64939,60.49393],[26.65078,60.49394],[26.65217,60.49394],[26.6526,60.49394]],[[26.6526,60.49394],[26.65355,60.49395],[26.65492,60.49396],[26.6552,60.49397],[26.65616,60.49397],[26.65672,60.49398],[26.65784,60.49399],[26.65886,60.49403],[26.66016,60.49406],[26.66154,60.49411],[26.66298,60.49417],[26.66391,60.49421],[26.66404,60.49421],[26.66436,60.49423],[26.66567,60.4943],[26.66701,60.49438],[26.66827,60.49448],[26.66954,60.49459],[26.66994,60.49463],[26.67114,60.49475],[26.67213,60.49486]],[[26.67213,60.49486],[26.67263,60.49492],[26.67394,60.4951],[26.67521,60.49528],[26.67631,60.49545]],[[26.67631,60.49545],[26.67645,60.49547]],[[26.67645,60.49547],[26.67752,60.49564],[26.67871,60.49585],[26.68013,60.49609],[26.68154,60.49634],[26.68287,60.49658],[26.68424,60.49682],[26.68556,60.49706],[26.68674,60.49727]],[[26.68674,60.49727],[26.68701,60.49732],[26.68842,60.49757],[26.68974,60.49781],[26.69172,60.49816],[26.69364,60.4985],[26.69626,60.49897],[26.69773,60.49923]],[[26.69773,60.49923],[26.69797,60.49927]],[[26.69797,60.49927],[26.69862,60.49939]],[[26.69862,60.49939],[26.69921,60.4995]],[[26.69921,60.4995],[26.70229,60.50004],[26.70515,60.50055],[26.70764,60.501],[26.70961,60.50136],[26.71192,60.50177],[26.71353,60.50204],[26.71545,60.50234],[26.71669,60.50252],[26.71712,60.50258],[26.71816,60.50271],[26.71965,60.50289],[26.72109,60.50304],[26.72284,60.5032],[26.72411,60.5033],[26.72549,60.5034]],[[26.72549,60.5034],[26.7257,60.50341]],[[26.7257,60.50341],[26.72637,60.50345],[26.72696,60.50348]],[[26.72696,60.50348],[26.72709,60.50349],[26.72757,60.50351],[26.72864,60.50355],[26.7301,60.50361],[26.73213,60.50365],[26.73289,60.50365]],[[26.73289,60.50365],[26.73379,60.50366],[26.73442,60.50366],[26.73512,60.50364],[26.73626,60.50363],[26.73703,60.50362],[26.73874,60.50357],[26.74055,60.50353],[26.74221,60.50349]],[[26.74221,60.50349],[26.74257,60.50348]],[[26.74257,60.50348],[26.7447,60.50345],[26.74657,60.50343],[26.74863,60.50341],[26.75055,60.50345],[26.75101,60.50345],[26.75232,60.50347],[26.75406,60.50352],[26.75415,60.50352]],[[26.75415,60.50352],[26.75532,60.50355],[26.75566,60.50355]],[[26.75566,60.50355],[26.75684,60.50358],[26.75806,60.50361]],[[26.75806,60.50361],[26.75825,60.50362]],[[26.75825,60.50362],[26.76009,60.50367],[26.76164,60.50374],[26.76534,60.50387],[26.76771,60.50395],[26.76926,60.50402],[26.7719,60.50411],[26.7749,60.50422],[26.77815,60.50434],[26.78143,60.50446],[26.78399,60.50454],[26.78557,60.50456],[26.7871,60.50455],[26.78863,60.50452],[26.79073,60.50444],[26.79332,60.50424]],[[26.79332,60.50424],[26.7935,60.50423]],[[26.7935,60.50423],[26.79524,60.50407],[26.79676,60.5039],[26.79825,60.5037],[26.79977,60.50349],[26.80102,60.5033],[26.80239,60.50305],[26.80398,60.50272],[26.80518,60.50244],[26.80614,60.50221]],[[26.80614,60.50221],[26.80675,60.50207]],[[26.80675,60.50207],[26.80799,60.50176],[26.80927,60.5014],[26.81065,60.50098],[26.81149,60.5007]],[[26.81149,60.5007],[26.81212,60.5005],[26.81361,60.49996],[26.81394,60.49984],[26.81504,60.49942],[26.81611,60.49901]],[[26.81611,60.49901],[26.81644,60.49888],[26.81711,60.49864],[26.81781,60.49839],[26.81839,60.4982],[26.81927,60.49793],[26.82049,60.49758],[26.82156,60.4973],[26.82264,60.49703]],[[26.82264,60.49703],[26.82271,60.49701],[26.82371,60.49679]],[[26.82371,60.49679],[26.82404,60.49673]],[[26.82404,60.49673],[26.82497,60.49653],[26.8259,60.49636],[26.82683,60.4962],[26.82765,60.4961],[26.82826,60.49601],[26.82915,60.49592],[26.82987,60.49587],[26.83067,60.49581],[26.83148,60.49577],[26.83189,60.49575]],[[26.83189,60.49575],[26.83225,60.49573]],[[26.83225,60.49573],[26.83323,60.4957],[26.83361,60.49569]],[[26.83361,60.49569],[26.8342,60.49568],[26.83476,60.49568]],[[26.83476,60.49568],[26.83527,60.49568],[26.83622,60.49568],[26.83656,60.49568]],[[26.83656,60.49568],[26.83659,60.49568],[26.83689,60.49569]],[[26.83689,60.49569],[26.83761,60.49571],[26.83842,60.49574],[26.83893,60.49577],[26.83922,60.49579],[26.84003,60.49583],[26.84146,60.49594],[26.84267,60.49605],[26.84474,60.4963],[26.84538,60.49637]],[[26.84538,60.49637],[26.84568,60.49641]],[[26.84568,60.49641],[26.84714,60.49661]],[[26.84714,60.49661],[26.84764,60.49667],[26.84788,60.49671],[26.84978,60.49694],[26.85076,60.49705],[26.85179,60.49717],[26.85312,60.49731],[26.85397,60.49739],[26.8571,60.49765],[26.85975,60.49783],[26.86147,60.49794]],[[26.86147,60.49794],[26.86276,60.49802],[26.86311,60.49804],[26.86333,60.49806],[26.86481,60.49817],[26.86533,60.49821],[26.86723,60.49839],[26.8687,60.49856],[26.87068,60.4988],[26.87107,60.49885]],[[26.87107,60.49885],[26.87149,60.49891]],[[26.87149,60.49891],[26.87195,60.49897]],[[26.87195,60.49897],[26.87342,60.49919],[26.87555,60.49955],[26.87561,60.49956],[26.8766,60.49974],[26.87821,60.50005]],[[26.87821,60.50005],[26.87851,60.50012]],[[26.87851,60.50012],[26.87866,60.50015]],[[26.87866,60.50015],[26.87955,60.50033]],[[26.87955,60.50033],[26.87973,60.50037],[26.88079,60.50061]],[[26.88079,60.50061],[26.88131,60.50073],[26.88162,60.50081]],[[26.88162,60.50081],[26.88272,60.50108],[26.88322,60.5012]],[[26.88322,60.5012],[26.8835,60.50128],[26.88444,60.50152]],[[26.88444,60.50152],[26.88611,60.50195],[26.88834,60.50248],[26.88846,60.50251],[26.88852,60.50252],[26.88855,60.50253]],[[26.88855,60.50253],[26.88856,60.50253],[26.88869,60.50256],[26.88875,60.50258]],[[26.88875,60.50258],[26.88878,60.50258],[26.88912,60.50267]],[[26.88912,60.50267],[26.89093,60.50311],[26.89327,60.50364],[26.89407,60.5038]],[[26.89407,60.5038],[26.89681,60.50435],[26.89741,60.50445]],[[26.89741,60.50445],[26.89784,60.50453],[26.89803,60.50456]]]},"properties":{"name":"Kunnossapitojakso, E18 Koskenkylä-Kotka","kind":"project","ptype":"road","subtype":"Tiehanke","status":"kaynnissa","date":"2014–2026","url":"https://vayla.fi/hankkeet","source":"Väylävirasto"}},{"type":"Feature","geometry":{"type":"MultiLineString","coordinates":[[[26.19412,60.45847],[26.19401,60.45858]],[[26.19401,60.45858],[26.19399,60.45859],[26.19385,60.45875],[26.19371,60.45889],[26.19356,60.45905],[26.19349,60.45911]]]},"properties":{"name":"Kunnossapitojakso, E18 Koskenkylä-Kotka","kind":"project","ptype":"road","subtype":"Tiehanke","status":"kaynnissa","date":"2014–2026","url":"https://vayla.fi/hankkeet","source":"Väylävirasto"}},{"type":"Feature","geometry":{"type":"MultiLineString","coordinates":[[[26.26468,60.47377],[26.26428,60.47399],[26.26409,60.47411]],[[26.26409,60.47411],[26.26403,60.47415]],[[26.26403,60.47415],[26.26398,60.47418]],[[26.26352,60.47455],[26.26334,60.47473]],[[26.26334,60.47473],[26.26292,60.4753]],[[26.26292,60.4753],[26.26279,60.47552],[26.26274,60.47563]],[[26.26245,60.47611],[26.26235,60.47621]]]},"properties":{"name":"Kunnossapitojakso, E18 Koskenkylä-Kotka","kind":"project","ptype":"road","subtype":"Tiehanke","status":"kaynnissa","date":"2014–2026","url":"https://vayla.fi/hankkeet","source":"Väylävirasto"}},{"type":"Feature","geometry":{"type":"MultiLineString","coordinates":[[[26.18254,60.45736],[26.18288,60.45739],[26.1829,60.45739],[26.18304,60.45741]],[[26.18304,60.45741],[26.18305,60.45741],[26.18337,60.45744],[26.18339,60.45744],[26.18389,60.4575],[26.18391,60.4575],[26.18423,60.45753]],[[26.18423,60.45753],[26.18425,60.45753],[26.18465,60.45757],[26.18467,60.45757],[26.18517,60.45762],[26.18519,60.45762],[26.1859,60.4577],[26.18597,60.45771],[26.18613,60.45773],[26.18663,60.45778],[26.18666,60.45778],[26.18712,60.45783],[26.18757,60.45787]],[[26.18757,60.45787],[26.18765,60.45788],[26.18769,60.45788],[26.18822,60.45794],[26.18825,60.45794],[26.18878,60.458],[26.18931,60.45806],[26.18933,60.45806],[26.18983,60.45811]],[[26.18983,60.45811],[26.18983,60.45811],[26.1903,60.45814],[26.19033,60.45814],[26.19084,60.45818],[26.19085,60.45818],[26.19118,60.45819]]]},"properties":{"name":"Maantie 170 (Loviisantie) hälytysliittymän rakentaminen Loviisan pelastusaseman kohdalla, Loviisa","kind":"project","ptype":"road","subtype":"Tiehanke","status":"kaynnissa","date":"2025–2025","url":"https://vayla.fi/hankkeet","source":"Väylävirasto"}},{"type":"Feature","geometry":{"type":"LineString","coordinates":[[25.97119,60.49161],[25.98129,60.49151],[25.99448,60.4907],[26.0078,60.48833],[26.02511,60.4823],[26.04353,60.47821],[26.0559,60.47752],[26.07316,60.47868],[26.09197,60.47828],[26.10774,60.47647],[26.14089,60.46426],[26.1544,60.4607],[26.16575,60.4591],[26.18245,60.45914],[26.19815,60.46163],[26.21054,60.46507],[26.22005,60.46686],[26.23198,60.46911],[26.25565,60.47373],[26.27144,60.4768],[26.28244,60.48079],[26.2942,60.48512],[26.30689,60.48795],[26.31943,60.48961],[26.33159,60.49001],[26.35176,60.48897],[26.37257,60.48738],[26.38754,60.48714],[26.3955,60.48776],[26.40489,60.48942],[26.41728,60.49197],[26.42894,60.49297],[26.44202,60.49281],[26.45584,60.49106],[26.47221,60.4877],[26.48915,60.48557],[26.50915,60.48604],[26.52604,60.48662],[26.53984,60.48626],[26.56357,60.48766],[26.57712,60.4887],[26.60069,60.49238],[26.61916,60.49374],[26.6343,60.49398],[26.66982,60.49452],[26.70888,60.50153],[26.72818,60.50365],[26.74929,60.50353],[26.78476,60.50468],[26.80141,60.50311],[26.82422,60.4968],[26.83842,60.49586],[26.87141,60.49904],[26.89894,60.50482],[26.91471,60.50814]]},"properties":{"name":"E18 Koskenkylä-Kotka, rakentaminen","kind":"project","ptype":"road","subtype":"Tiehanke","status":"kaynnissa","date":"2011–2026","url":"https://vayla.fi/hankkeet","source":"Väylävirasto"}},{"type":"Feature","geometry":{"type":"LineString","coordinates":[[26.25844,60.4145],[26.28045,60.40729],[26.283,60.40364],[26.2856,60.38026],[26.33395,60.32631],[26.42377,60.28201],[26.43273,60.26683],[26.43364,60.25445],[26.42048,60.23983]]},"properties":{"name":"Loviisan meriväylän syventäminen","kind":"project","ptype":"waterway","subtype":"Vesiväylähanke","status":"kaynnissa","date":"2025–2025","url":"https://vayla.fi/hankkeet","source":"Väylävirasto"}}]}