{"type":"FeatureCollection","features":[{"type":"Feature","geometry":{"type":"LineString","coordinates":[[24.53945,64.06889],[24.54043,64.08016],[24.55638,64.08432],[24.57303,64.09174],[24.58971,64.09332],[24.63556,64.10662],[24.6422,64.10997],[24.67922,64.12289],[24.68666,64.12577],[24.72285,64.1523],[24.73744,64.15869],[24.7485,64.17217],[24.75663,64.17889],[24.77834,64.19274],[24.7888,64.21399],[24.80133,64.2251],[24.81469,64.23201],[24.82223,64.27203],[24.93657,64.33696],[24.97168,64.35118],[24.97618,64.35784],[24.9824,64.40924],[25.02637,64.6045],[25.31935,64.78632],[25.45931,64.82158],[25.51502,64.87923],[25.52659,64.9466],[25.4679,64.99185],[25.48413,65.01191]]},"properties":{"name":"POKA VT13 Ylivieska-Oulu","kind":"project","ptype":"rail","subtype":"Ratahanke","status":"kaynnissa","date":"2022–2024","url":"https://vayla.fi/hankkeet","source":"Väylävirasto"}},{"type":"Feature","geometry":{"type":"Point","coordinates":[25.02814,64.60838]},"properties":{"name":"Tuomioja asetinlaitteen siirto","kind":"project","ptype":"rail","subtype":"Ratahanke","status":"kaynnissa","date":"2025–2026","url":"https://vayla.fi/hankkeet","source":"Väylävirasto"}},{"type":"Feature","geometry":{"type":"LineString","coordinates":[[25.01785,64.60454],[25.01709,64.60456],[25.01647,64.60459],[25.01631,64.60459],[25.01604,64.60461],[25.01524,64.60464],[25.01442,64.6047],[25.0136,64.6048],[25.01254,64.60495],[25.01043,64.60527],[25.00822,64.6056],[25.006,64.60593],[25.00369,64.60628],[25.00192,64.60654],[25.00125,64.60664],[24.99912,64.60696],[24.99604,64.60742],[24.99225,64.60799],[24.98974,64.60836],[24.98637,64.60886],[24.98292,64.60937],[24.98198,64.60952],[24.98032,64.60976],[24.97836,64.61006],[24.97568,64.61046],[24.97434,64.61065],[24.97309,64.61084],[24.97037,64.61125],[24.96813,64.61158],[24.9653,64.612],[24.96298,64.61235],[24.96141,64.61258],[24.95696,64.61325],[24.94928,64.61439],[24.94348,64.61525],[24.94067,64.61567],[24.93667,64.61627],[24.93614,64.61635],[24.93389,64.61668],[24.93273,64.61686],[24.92948,64.61734],[24.92628,64.61782],[24.92366,64.6182],[24.92296,64.61831],[24.92027,64.6187],[24.91646,64.61927],[24.91412,64.61962],[24.91137,64.62003],[24.90603,64.62082],[24.9041,64.62111],[24.9007,64.62161],[24.89532,64.62241],[24.89291,64.62277],[24.88988,64.62322],[24.88705,64.62364],[24.88434,64.62404],[24.88372,64.62414],[24.88082,64.62456],[24.87803,64.62498],[24.876,64.62528],[24.87551,64.62535],[24.87363,64.62563],[24.86911,64.6263],[24.86382,64.62709],[24.86287,64.62723],[24.86074,64.62754],[24.85794,64.62797],[24.85628,64.62821],[24.85241,64.62878],[24.84673,64.62963],[24.84426,64.62999],[24.84347,64.63011],[24.84177,64.63036],[24.84035,64.63056],[24.83916,64.63073],[24.83775,64.63091],[24.8355,64.6312],[24.83264,64.63156],[24.83152,64.63171],[24.82703,64.63228],[24.82413,64.63265],[24.82212,64.63291],[24.81722,64.63353],[24.81188,64.63421],[24.80903,64.63457],[24.80588,64.63498],[24.80407,64.63524],[24.8034,64.63534],[24.80047,64.63579],[24.79585,64.63651],[24.79317,64.63693],[24.78985,64.63744],[24.78718,64.63786],[24.78461,64.63825],[24.78434,64.63829],[24.78201,64.63865],[24.78056,64.63889],[24.7787,64.6392],[24.77686,64.63955],[24.77518,64.63988],[24.77397,64.64013],[24.7726,64.64044],[24.77145,64.64073],[24.76937,64.64122],[24.76645,64.64192],[24.76563,64.64211],[24.7632,64.64269],[24.76053,64.64332],[24.75797,64.64394],[24.75638,64.64432],[24.75424,64.64483],[24.75176,64.64542],[24.74841,64.64622],[24.74694,64.64657],[24.74523,64.64698],[24.74207,64.64773],[24.73885,64.64849],[24.73648,64.64906],[24.73626,64.64911],[24.73329,64.6498],[24.73131,64.65029],[24.73021,64.65056],[24.72922,64.65084],[24.72915,64.65086],[24.7286,64.65102],[24.72806,64.65119],[24.7267,64.65161],[24.72527,64.65205],[24.72333,64.65263],[24.72143,64.65322],[24.71966,64.65376],[24.71642,64.65476],[24.71502,64.65519],[24.71332,64.6557],[24.71266,64.6559],[24.71167,64.65621],[24.71013,64.65668],[24.70879,64.65709],[24.70748,64.65749],[24.70641,64.65782],[24.70532,64.65817],[24.70456,64.65843],[24.70366,64.65876],[24.70257,64.65916],[24.70155,64.65952],[24.70055,64.65989],[24.69927,64.66036],[24.69796,64.66084],[24.69687,64.66123],[24.69606,64.6615],[24.69572,64.66161],[24.69536,64.66173],[24.69437,64.66201],[24.69335,64.66228],[24.69242,64.66248],[24.69143,64.66268],[24.6903,64.66287],[24.68932,64.66301],[24.68796,64.66321],[24.68615,64.66348],[24.68467,64.66369],[24.68183,64.6641],[24.68038,64.66431],[24.67967,64.66442],[24.67909,64.66452],[24.67841,64.66466],[24.67812,64.66471],[24.67746,64.66485],[24.67663,64.66505],[24.67634,64.66514],[24.67583,64.66529],[24.675,64.66556],[24.67393,64.66595],[24.67267,64.66642],[24.67116,64.66699],[24.66962,64.66756],[24.66548,64.6691],[24.66353,64.66982],[24.66147,64.67061],[24.66102,64.67077],[24.66025,64.67106],[24.65953,64.67132],[24.65949,64.67134],[24.65809,64.67185],[24.65713,64.67222],[24.65535,64.67289],[24.65188,64.67419],[24.64981,64.67495],[24.64753,64.6758],[24.64556,64.67653],[24.64469,64.67686],[24.64341,64.67733],[24.64188,64.6779],[24.64061,64.67835],[24.63912,64.67882],[24.63729,64.67938],[24.63441,64.68024],[24.63236,64.68086],[24.63077,64.68134],[24.62937,64.68176],[24.62849,64.68202],[24.62784,64.6822],[24.62778,64.68221],[24.62706,64.68239],[24.6264,64.68253],[24.62554,64.6827],[24.62484,64.68281],[24.62471,64.68283],[24.62437,64.68288],[24.62294,64.68305],[24.62058,64.68321],[24.61883,64.68323],[24.61672,64.68319],[24.61196,64.68308],[24.60768,64.68298],[24.60732,64.68297],[24.60287,64.68287],[24.59878,64.68276],[24.59632,64.6827],[24.59528,64.68266],[24.59437,64.68263],[24.59305,64.68253],[24.59035,64.68231],[24.58688,64.68204],[24.58681,64.68203],[24.58466,64.68186],[24.58236,64.68168],[24.58225,64.68167],[24.58219,64.68166],[24.58085,64.68156],[24.57945,64.68146],[24.57814,64.6814],[24.57709,64.68137],[24.57623,64.68135],[24.57569,64.68136],[24.57482,64.68138],[24.57375,64.68142],[24.57167,64.68153],[24.56845,64.68171],[24.56708,64.68179],[24.5661,64.68187],[24.56602,64.68187],[24.56509,64.68197],[24.5636,64.68216],[24.56152,64.68248],[24.55925,64.68281],[24.55735,64.6831],[24.55606,64.68329],[24.55514,64.68339],[24.5543,64.68347],[24.55324,64.68354],[24.55198,64.68358],[24.55059,64.68359],[24.55034,64.68359],[24.54636,64.6836],[24.54619,64.6836],[24.54538,64.6836],[24.54364,64.6836],[24.54154,64.6836],[24.54003,64.68361],[24.53901,64.68364],[24.53819,64.68367],[24.53729,64.68373],[24.53638,64.68379],[24.53551,64.68385],[24.52891,64.68431],[24.52539,64.68455],[24.52492,64.68458],[24.52356,64.68467],[24.52165,64.6848],[24.52,64.68491],[24.51813,64.68505],[24.51529,64.68525],[24.51369,64.68535],[24.51166,64.68549],[24.51011,64.68555],[24.50848,64.68555],[24.50666,64.68546],[24.50542,64.68536],[24.50516,64.68532],[24.5038,64.68516],[24.50357,64.68512],[24.50275,64.68502],[24.49922,64.68453],[24.49702,64.68424],[24.49563,64.68405],[24.49443,64.68388],[24.49257,64.68363],[24.49108,64.68343],[24.48919,64.68317],[24.48817,64.68303]]},"properties":{"name":"OULA Tuomioja-Raahe perusparannus, rakentaminen","kind":"project","ptype":"rail","subtype":"Ratahanke","status":"kaynnissa","date":"2022–2026","url":"https://vayla.fi/hankkeet","source":"Väylävirasto"}},{"type":"Feature","geometry":{"type":"Polygon","coordinates":[[[25.01831,64.60708],[25.01485,64.60243],[24.77667,64.63644],[24.71513,64.65213],[24.69052,64.66051],[24.67403,64.66292],[24.62291,64.68096],[24.57671,64.67979],[24.51009,64.68403],[24.48242,64.67989],[24.46411,64.67012],[24.45487,64.66073],[24.41402,64.65624],[24.43876,64.67458],[24.47954,64.68295],[24.50723,64.68687],[24.53934,64.68518],[24.55238,64.68462],[24.58296,64.68257],[24.62404,64.68501],[24.67858,64.66697],[24.69462,64.66455],[24.77748,64.64169],[25.01831,64.60708]]]},"properties":{"name":"OULA Tuomioja-Raahe perusparannus, suunnitteluvaihe","kind":"project","ptype":"rail","subtype":"Ratahanke","status":"kaynnissa","date":"2022–2026","url":"https://vayla.fi/tuomioja-raahe-perusparannus","source":"Väylävirasto"}}]}