{"type":"FeatureCollection","features":[{"type":"Feature","geometry":{"type":"Point","coordinates":[23.13462,63.83529]},"properties":{"name":"Kokkolan turvalaitteiden uusiminen","kind":"project","ptype":"rail","subtype":"Ratahanke","status":"kaynnissa","date":"2019–2024","url":"https://vayla.fi/hankkeet","source":"Väylävirasto"}},{"type":"Feature","geometry":{"type":"LineString","coordinates":[[23.12316,63.83443],[23.14368,63.83498],[23.16318,63.83226],[23.18396,63.83086],[23.25168,63.84151],[23.29312,63.84713],[23.32239,63.84463],[23.34052,63.84097],[23.40081,63.84509],[23.45059,63.85866],[23.46886,63.8617],[23.48204,63.86224],[23.50551,63.86692],[23.56905,63.86904],[23.65406,63.86822],[23.826,63.88855],[23.85314,63.89174],[23.91148,63.89755],[23.93155,63.90274],[24.00547,63.90061],[24.03355,63.89989],[24.07455,63.90245],[24.09431,63.9061],[24.13296,63.90773],[24.17067,63.92362],[24.20339,63.94546],[24.25209,63.97063],[24.27482,63.97495],[24.2907,63.98391],[24.33667,63.99774],[24.40743,64.0107],[24.48259,64.04123],[24.5006,64.04955],[24.52172,64.0564],[24.54137,64.06885]]},"properties":{"name":"POKA VT12 Kokkola-Ylivieska","kind":"project","ptype":"rail","subtype":"Ratahanke","status":"kaynnissa","date":"2022–2024","url":"https://vayla.fi/hankkeet","source":"Väylävirasto"}},{"type":"Feature","geometry":{"type":"LineString","coordinates":[[22.81409,63.29638],[22.81139,63.31492],[22.64335,63.41948],[22.68539,63.5191],[22.77692,63.58897],[22.82577,63.6073],[22.88429,63.61982],[23.02415,63.71255],[23.04697,63.73093],[23.10496,63.82779],[23.14039,63.83393]]},"properties":{"name":"POKA VT14 Lapua -Kokkola","kind":"project","ptype":"rail","subtype":"Ratahanke","status":"kaynnissa","date":"2022–2024","url":"https://vayla.fi/hankkeet","source":"Väylävirasto"}}]}