{"type":"FeatureCollection","features":[{"type":"Feature","geometry":{"type":"LineString","coordinates":[[26.0472,62.02071],[26.04735,62.02253],[26.04744,62.02417],[26.04769,62.02692],[26.0481,62.03004],[26.04866,62.03582],[26.04931,62.03871],[26.05092,62.04223],[26.05128,62.04329],[26.05163,62.04651],[26.05182,62.04929],[26.05193,62.05103],[26.05184,62.05279],[26.05177,62.05459],[26.0515,62.05608],[26.05102,62.05714],[26.05064,62.05782],[26.05021,62.0584],[26.04911,62.05971]]},"properties":{"name":"Vt 4 parantaminen Vestonmäen kohdalla, Joutsa ja Toivakka","kind":"project","ptype":"road","subtype":"Tiehanke","status":"kaynnissa","date":"2026–2033","url":"https://vayla.fi/hankkeet","source":"Väylävirasto"}},{"type":"Feature","geometry":{"type":"LineString","coordinates":[[25.19844,62.25766],[25.18378,62.26183],[25.17732,62.26433]]},"properties":{"name":"Vt18/Vt23 Petäjävesi Tievalaistuksen saneeraus 2024","kind":"project","ptype":"road","subtype":"Tiehanke","status":"kaynnissa","date":"2024–2024","url":"https://vayla.fi/hankkeet","source":"Väylävirasto"}},{"type":"Feature","geometry":{"type":"LineString","coordinates":[[25.19267,62.25209],[25.19414,62.25368],[25.1985,62.25738],[25.20048,62.25907],[25.20191,62.26004]]},"properties":{"name":"Vt18/Vt23 Petäjävesi Tievalaistuksen saneeraus 2024","kind":"project","ptype":"road","subtype":"Tiehanke","status":"kaynnissa","date":"2024–2024","url":"https://vayla.fi/hankkeet","source":"Väylävirasto"}},{"type":"Feature","geometry":{"type":"LineString","coordinates":[[25.74051,62.23465],[25.76835,62.24653],[25.77407,62.24679],[25.78392,62.24435],[25.79166,62.24052],[25.82453,62.2395],[25.86378,62.24135],[25.88683,62.25027],[25.89657,62.25078],[25.90908,62.24749],[25.93237,62.24564],[25.94157,62.24391],[25.9604,62.2455],[25.9955,62.24236],[26.02544,62.24077],[26.07445,62.23771],[26.08726,62.23917],[26.10104,62.24431],[26.14093,62.25164],[26.19785,62.26029],[26.23788,62.26391],[26.28212,62.2671],[26.31881,62.2683],[26.34925,62.27949],[26.37795,62.28598],[26.40106,62.28579],[26.43015,62.28873],[26.47261,62.29901],[26.48917,62.31012],[26.5181,62.31556],[26.52599,62.3157],[26.59396,62.3048],[26.63549,62.30838],[26.64635,62.30913],[26.72953,62.30751],[26.77651,62.3112],[26.79575,62.31116],[26.82954,62.31763],[26.90247,62.32204],[26.90853,62.32111],[26.95232,62.31045],[26.98119,62.29652],[27.03398,62.28397],[27.05909,62.2823],[27.07878,62.28214],[27.10174,62.28791],[27.14098,62.29083],[27.16254,62.29247],[27.16596,62.29456]]},"properties":{"name":"Jyväskylä-Pieksämäki perusparannus, rakentaminen","kind":"project","ptype":"road","subtype":"Tiehanke","status":"kaynnissa","date":"2022–2028","url":"https://vayla.fi/jyvaskyla-pieksamaki-perusparannus","source":"Väylävirasto"}},{"type":"Feature","geometry":{"type":"LineString","coordinates":[[27.26102,63.59514],[26.2622,62.91241],[26.56523,61.47161],[28.12668,61.86545],[28.71633,62.42373],[28.06256,63.39683],[27.2702,63.57624]]},"properties":{"name":"POSELY586/2025 Valaisinvaihdot 2025, Itä-Suomi","kind":"project","ptype":"road","subtype":"Tiehanke","status":"kaynnissa","date":"2024–2025","url":"https://vayla.fi/hankkeet","source":"Väylävirasto"}},{"type":"Feature","geometry":{"type":"LineString","coordinates":[[25.70686,62.2855],[25.70823,62.28614],[25.70953,62.2873],[25.71164,62.28814],[25.71349,62.28868],[25.71664,62.2894],[25.71942,62.28985],[25.72262,62.29046],[25.7264,62.29157],[25.73523,62.29434]]},"properties":{"name":"Vt 4 Palokan kohta","kind":"project","ptype":"road","subtype":"Tiehanke","status":"kaynnissa","date":"2025–2033","url":"https://vayla.fi/hankkeet","source":"Väylävirasto"}},{"type":"Feature","geometry":{"type":"LineString","coordinates":[[25.71927,62.292],[25.71996,62.29089],[25.721,62.28959],[25.72131,62.28943],[25.72173,62.28936]]},"properties":{"name":"Vt 4 Palokan kohta","kind":"project","ptype":"road","subtype":"Tiehanke","status":"kaynnissa","date":"2025–2033","url":"https://vayla.fi/hankkeet","source":"Väylävirasto"}},{"type":"Feature","geometry":{"type":"LineString","coordinates":[[25.7211,62.28856],[25.71976,62.29074],[25.71953,62.29088],[25.71921,62.29103],[25.71865,62.29107],[25.71809,62.291],[25.71799,62.2908],[25.71784,62.29039],[25.71795,62.2902],[25.71864,62.28981]]},"properties":{"name":"Vt 4 Palokan kohta","kind":"project","ptype":"road","subtype":"Tiehanke","status":"kaynnissa","date":"2025–2033","url":"https://vayla.fi/hankkeet","source":"Väylävirasto"}},{"type":"Feature","geometry":{"type":"LineString","coordinates":[[25.72315,62.28637],[25.72206,62.28796],[25.72183,62.28849],[25.72196,62.28897],[25.72251,62.28929],[25.72301,62.28957],[25.72313,62.28988],[25.72273,62.29038]]},"properties":{"name":"Vt 4 Palokan kohta","kind":"project","ptype":"road","subtype":"Tiehanke","status":"kaynnissa","date":"2025–2033","url":"https://vayla.fi/hankkeet","source":"Väylävirasto"}},{"type":"Feature","geometry":{"type":"LineString","coordinates":[[25.71768,62.29382],[25.71847,62.29266],[25.7188,62.29179],[25.71831,62.29115],[25.71767,62.29095],[25.7176,62.29025],[25.71814,62.28984]]},"properties":{"name":"Vt 4 Palokan kohta","kind":"project","ptype":"road","subtype":"Tiehanke","status":"kaynnissa","date":"2025–2033","url":"https://vayla.fi/hankkeet","source":"Väylävirasto"}},{"type":"Feature","geometry":{"type":"LineString","coordinates":[[25.72242,62.28944],[25.72266,62.28957],[25.72282,62.28978],[25.72281,62.28998],[25.72215,62.29041]]},"properties":{"name":"Vt 4 Palokan kohta","kind":"project","ptype":"road","subtype":"Tiehanke","status":"kaynnissa","date":"2025–2033","url":"https://vayla.fi/hankkeet","source":"Väylävirasto"}},{"type":"Feature","geometry":{"type":"MultiLineString","coordinates":[[[25.44206,62.49707],[25.44199,62.49724],[25.44198,62.49726],[25.44185,62.49751],[25.44184,62.49752],[25.44184,62.49753],[25.4418,62.49762],[25.4418,62.49764],[25.44177,62.49771],[25.44177,62.49772],[25.44174,62.49779],[25.44174,62.4978],[25.44172,62.49785],[25.44171,62.49786],[25.44169,62.49792],[25.44169,62.49792],[25.44166,62.49798],[25.44165,62.49799],[25.44161,62.49808],[25.44157,62.49815],[25.44156,62.49816],[25.44152,62.49824],[25.44147,62.49832],[25.44146,62.49833],[25.44142,62.4984],[25.44141,62.49841],[25.44136,62.49848],[25.44135,62.49849],[25.4413,62.49856],[25.44129,62.49857],[25.44126,62.4986]],[[25.44126,62.4986],[25.44124,62.49863],[25.44124,62.49864]]]},"properties":{"name":"Mt 627 ja 6304 jkpp-väylät, KU, Uurainen","kind":"project","ptype":"road","subtype":"Tiehanke","status":"kaynnissa","date":"2026–2026","url":"https://vayla.fi/maanteiden-627-ja-6304-jalankulku-ja-pyorailyvaylat-uurainen","source":"Väylävirasto"}},{"type":"Feature","geometry":{"type":"MultiLineString","coordinates":[[[25.44119,62.4948],[25.4412,62.49481]],[[25.4412,62.49481],[25.44122,62.49484],[25.4413,62.49498],[25.44131,62.495],[25.44136,62.49508],[25.44137,62.49509],[25.44142,62.49517],[25.44142,62.49518]],[[25.44142,62.49518],[25.44146,62.49525],[25.44146,62.49526],[25.44151,62.49535],[25.44156,62.49543],[25.44156,62.49544],[25.44161,62.49552],[25.44161,62.49553],[25.44165,62.49559],[25.44172,62.49573],[25.44177,62.49584],[25.44177,62.49585],[25.44181,62.49594],[25.44182,62.49595],[25.44185,62.49604],[25.44186,62.49605],[25.44188,62.49612]],[[25.44188,62.49612],[25.44189,62.49613],[25.44189,62.49615],[25.44191,62.49625],[25.44191,62.49626],[25.44193,62.49635],[25.44193,62.49636],[25.44193,62.49641],[25.44193,62.49645],[25.44193,62.49646],[25.4419,62.49664],[25.4419,62.49665],[25.4419,62.49667]],[[25.4419,62.49667],[25.44188,62.49674]]]},"properties":{"name":"Mt 627 ja 6304 jkpp-väylät, KU, Uurainen","kind":"project","ptype":"road","subtype":"Tiehanke","status":"kaynnissa","date":"2026–2026","url":"https://vayla.fi/maanteiden-627-ja-6304-jalankulku-ja-pyorailyvaylat-uurainen","source":"Väylävirasto"}},{"type":"Feature","geometry":{"type":"MultiLineString","coordinates":[[[25.90892,62.15057],[25.90894,62.15059],[25.90907,62.15074],[25.90917,62.15084],[25.90923,62.15091]],[[25.90923,62.15091],[25.90948,62.15117],[25.90973,62.15143],[25.90986,62.15157]],[[25.90986,62.15157],[25.90988,62.15159],[25.91001,62.15172],[25.91015,62.15188],[25.91029,62.15203],[25.91043,62.15219],[25.91048,62.15224]],[[25.91048,62.15224],[25.91051,62.15227],[25.91057,62.15234],[25.91071,62.15249],[25.9108,62.15259]],[[25.9108,62.15259],[25.91103,62.15283],[25.91165,62.1535],[25.91186,62.15374],[25.91192,62.1538]]]},"properties":{"name":"Vt 4 parantaminen Oravasaaren eritasoliittymän kohdalla, Jyväskylä, rakentaminen","kind":"project","ptype":"road","subtype":"Tiehanke","status":"kaynnissa","date":"2024–2026","url":"https://vayla.fi/hankkeet","source":"Väylävirasto"}},{"type":"Feature","geometry":{"type":"MultiLineString","coordinates":[[[25.89981,62.14351],[25.89948,62.14393],[25.8992,62.14432],[25.89899,62.1446],[25.89875,62.14495],[25.89847,62.14537],[25.89828,62.14569],[25.89819,62.14584]],[[25.89819,62.14584],[25.8981,62.14596]],[[25.8981,62.14596],[25.89806,62.14605]],[[25.89806,62.14605],[25.89804,62.14608],[25.89799,62.14617],[25.89794,62.14625],[25.8979,62.14633],[25.89786,62.1464],[25.89782,62.14647],[25.89779,62.14654],[25.89771,62.14668],[25.89768,62.14675],[25.89764,62.14683],[25.89759,62.14693],[25.89754,62.14702],[25.89749,62.14712],[25.89744,62.14723],[25.8974,62.14733],[25.89735,62.14743],[25.8973,62.14754],[25.89726,62.14764],[25.89721,62.14774],[25.89716,62.14785],[25.89712,62.14796],[25.89707,62.14806],[25.89703,62.14817],[25.89699,62.14828],[25.89695,62.14839],[25.89691,62.14849],[25.89688,62.14859],[25.89684,62.14869],[25.89681,62.14879],[25.89678,62.14888],[25.89675,62.14896],[25.89672,62.14905],[25.8967,62.14913],[25.89668,62.14921],[25.89666,62.1493],[25.89663,62.14939],[25.8966,62.1495],[25.89656,62.14961],[25.89653,62.14972],[25.8965,62.14984],[25.89647,62.14995],[25.89645,62.15006],[25.89642,62.15017],[25.8964,62.15028],[25.89637,62.15039],[25.89635,62.15049],[25.89633,62.1506],[25.89631,62.15071],[25.89629,62.15082],[25.89627,62.15092],[25.89625,62.15103],[25.89623,62.15113],[25.89622,62.15119]]]},"properties":{"name":"Vt 4 parantaminen Oravasaaren eritasoliittymän kohdalla, Jyväskylä, rakentaminen","kind":"project","ptype":"road","subtype":"Tiehanke","status":"kaynnissa","date":"2024–2026","url":"https://vayla.fi/hankkeet","source":"Väylävirasto"}},{"type":"Feature","geometry":{"type":"MultiLineString","coordinates":[[[25.91046,62.15224],[25.91027,62.15225]],[[25.91027,62.15225],[25.91006,62.15225],[25.90989,62.15222],[25.9098,62.15219],[25.9097,62.15215],[25.9096,62.15211],[25.90949,62.15207],[25.90938,62.15202],[25.90926,62.15198],[25.90915,62.15193],[25.90903,62.15189],[25.90891,62.15184],[25.90864,62.15175],[25.90851,62.15172],[25.90837,62.15168],[25.90823,62.15166],[25.90792,62.15162],[25.90776,62.15159],[25.90745,62.15155],[25.90729,62.15152],[25.90715,62.15149],[25.90692,62.15144],[25.90684,62.15142],[25.90665,62.15138],[25.90655,62.15135],[25.90608,62.15122],[25.90594,62.15118],[25.90564,62.1511],[25.90532,62.15102],[25.90516,62.15098],[25.90485,62.15088],[25.90469,62.15084],[25.90454,62.15078],[25.90441,62.15072],[25.90428,62.15066],[25.90416,62.1506],[25.90405,62.15052],[25.90395,62.15045],[25.90385,62.15037],[25.90376,62.15029],[25.90362,62.15013],[25.90354,62.15005],[25.90349,62.14999]],[[25.90349,62.14999],[25.90347,62.14997],[25.9034,62.14988],[25.90333,62.1498],[25.90326,62.14972],[25.90319,62.14963],[25.90312,62.14955],[25.90308,62.14951]],[[25.90308,62.14951],[25.90305,62.14947],[25.90298,62.14939],[25.90292,62.14931],[25.90285,62.14923],[25.90278,62.14915],[25.90271,62.14907],[25.90263,62.149],[25.90256,62.14892],[25.90247,62.14885],[25.90239,62.14878],[25.9023,62.14871],[25.9022,62.14864],[25.9021,62.14856],[25.902,62.14849],[25.90199,62.14849],[25.9019,62.14842]],[[25.9019,62.14842],[25.90169,62.14828],[25.90158,62.14821],[25.90148,62.14813],[25.90135,62.14805]],[[25.90135,62.14805],[25.90118,62.14793],[25.90109,62.14786],[25.901,62.14779],[25.90091,62.14771],[25.90082,62.14764],[25.90073,62.14756],[25.90064,62.14749],[25.90055,62.14741],[25.90045,62.14733],[25.90036,62.14725],[25.90019,62.14712]],[[25.90019,62.14712],[25.90004,62.14701],[25.89993,62.14694],[25.89982,62.14686],[25.8997,62.14679],[25.89958,62.14671],[25.89957,62.14671]],[[25.89957,62.14671],[25.89946,62.14664],[25.89934,62.14656],[25.89922,62.14649],[25.89909,62.14643],[25.89898,62.14637],[25.89886,62.14631],[25.89867,62.1462]],[[25.89867,62.1462],[25.89845,62.14611],[25.89819,62.146],[25.8979,62.14588],[25.89762,62.14577],[25.89726,62.14564]],[[25.89726,62.14564],[25.89708,62.14557],[25.89694,62.14553],[25.89687,62.14551],[25.89672,62.14546],[25.89656,62.14541],[25.8964,62.14535],[25.89625,62.1453],[25.8961,62.14525],[25.89595,62.14519],[25.8958,62.14513],[25.89565,62.14507],[25.89554,62.14503]]]},"properties":{"name":"Vt 4 parantaminen Oravasaaren eritasoliittymän kohdalla, Jyväskylä, rakentaminen","kind":"project","ptype":"road","subtype":"Tiehanke","status":"kaynnissa","date":"2024–2026","url":"https://vayla.fi/hankkeet","source":"Väylävirasto"}},{"type":"Feature","geometry":{"type":"MultiLineString","coordinates":[[[25.93356,62.35598],[25.93372,62.35611],[25.93382,62.3562],[25.93394,62.35631],[25.93406,62.35644],[25.93415,62.35658],[25.9342,62.35672],[25.93422,62.35683]],[[25.93422,62.35683],[25.93419,62.35696],[25.93416,62.35706],[25.93405,62.35724],[25.93392,62.35739],[25.9338,62.35756],[25.93371,62.35774],[25.93365,62.35787]],[[25.93365,62.35787],[25.93364,62.35789],[25.93355,62.35804],[25.93343,62.35817],[25.9333,62.3583],[25.93318,62.35842],[25.93304,62.35854],[25.93289,62.35868],[25.93277,62.35882],[25.93271,62.35896],[25.93268,62.35906],[25.93268,62.35918],[25.93275,62.35935],[25.93284,62.35948],[25.93293,62.35961],[25.93308,62.35978],[25.93321,62.35992]],[[25.93321,62.35992],[25.93336,62.36007],[25.9336,62.36027],[25.93385,62.36045],[25.93407,62.36061]],[[25.93407,62.36061],[25.93421,62.3607],[25.93441,62.36084],[25.93465,62.36101],[25.9349,62.36118],[25.93547,62.36158],[25.93586,62.36182],[25.93624,62.36205]],[[25.93624,62.36205],[25.93635,62.36212]],[[25.93635,62.36212],[25.93655,62.36225],[25.93675,62.36239],[25.93685,62.36249],[25.93693,62.3626],[25.93699,62.36273],[25.93705,62.3629],[25.9371,62.36305],[25.93712,62.36315],[25.93716,62.36333],[25.93716,62.36356],[25.93715,62.36376],[25.93715,62.36392],[25.93715,62.36404],[25.93717,62.36419],[25.93721,62.36433],[25.93728,62.36448],[25.93729,62.3645],[25.93736,62.3646],[25.93747,62.36476],[25.93763,62.36496],[25.93774,62.3651],[25.93783,62.36521],[25.93797,62.36531],[25.9381,62.3654],[25.93822,62.36549],[25.93836,62.36557],[25.93868,62.36573]],[[25.93868,62.36573],[25.93879,62.36579],[25.93895,62.36588],[25.93908,62.36595],[25.93925,62.36606],[25.93935,62.36615],[25.93947,62.36626],[25.93958,62.3664],[25.93966,62.36654],[25.93972,62.36672],[25.93976,62.36686],[25.9398,62.36706],[25.93982,62.36737],[25.93982,62.36762],[25.93984,62.36781],[25.93985,62.36797],[25.93988,62.36815],[25.93991,62.36823],[25.93994,62.36834],[25.93997,62.36842],[25.93999,62.36845],[25.94004,62.36863],[25.94011,62.36882],[25.94017,62.36897],[25.94023,62.36912],[25.94033,62.36938],[25.94041,62.36955]],[[25.94041,62.36955],[25.94045,62.36969],[25.94052,62.36987],[25.94057,62.36999],[25.94064,62.37016],[25.94069,62.3703],[25.94071,62.37042],[25.94072,62.37055],[25.94072,62.37056]],[[25.94072,62.37056],[25.94072,62.37065],[25.94068,62.37078],[25.94058,62.37099],[25.9405,62.37111],[25.94037,62.37127],[25.94025,62.37143],[25.94005,62.37165],[25.93985,62.37186],[25.93969,62.37206],[25.9395,62.37228],[25.93943,62.37238]],[[25.93943,62.37238],[25.9394,62.37243],[25.9393,62.37259],[25.93926,62.3727],[25.93924,62.37282],[25.93926,62.37294],[25.93928,62.37305],[25.93932,62.37318],[25.93937,62.37327],[25.93945,62.37339],[25.93952,62.3735],[25.93961,62.37364],[25.93962,62.37366]],[[25.93962,62.37366],[25.93967,62.37373],[25.93973,62.37389],[25.93978,62.374],[25.93984,62.37423],[25.93986,62.37434],[25.93987,62.37447],[25.93988,62.37461],[25.93986,62.37472],[25.93979,62.3749],[25.93969,62.37505],[25.93965,62.37511],[25.93962,62.37515],[25.93944,62.37534],[25.93917,62.37558]],[[25.93917,62.37558],[25.93916,62.37558],[25.93898,62.37572],[25.9388,62.3759],[25.93865,62.37604],[25.93843,62.37626],[25.93827,62.37644],[25.93812,62.37663],[25.93799,62.37687],[25.93791,62.37701],[25.93783,62.37727],[25.93781,62.37746],[25.93783,62.37761],[25.93788,62.37784],[25.93793,62.37803],[25.93798,62.37821],[25.93801,62.37836]],[[25.93801,62.37836],[25.93802,62.3784],[25.93808,62.37859],[25.93815,62.37881],[25.93822,62.37901],[25.93831,62.37928],[25.93844,62.37952],[25.93845,62.37955]],[[25.93845,62.37955],[25.93846,62.37956],[25.93858,62.37976]],[[25.93858,62.37976],[25.93859,62.37977],[25.93872,62.38002],[25.93883,62.38024],[25.93896,62.38049],[25.93897,62.38051],[25.9391,62.38076],[25.93923,62.38103],[25.93933,62.38122],[25.93938,62.38131],[25.93949,62.3815],[25.93959,62.38165],[25.93968,62.38176]],[[25.93968,62.38176],[25.93972,62.38179],[25.93996,62.38193],[25.94016,62.38202]],[[25.94016,62.38202],[25.94018,62.38203],[25.94022,62.38205],[25.94047,62.38219],[25.94072,62.38237],[25.94092,62.38253],[25.94106,62.38276],[25.94109,62.383],[25.94101,62.3833],[25.9409,62.38361],[25.94076,62.38393],[25.94061,62.38422],[25.94042,62.38451],[25.9404,62.38454]],[[25.9404,62.38454],[25.9402,62.38482],[25.93999,62.38509],[25.93986,62.38529],[25.93978,62.38544],[25.93969,62.38565],[25.93965,62.38585],[25.93965,62.38592],[25.93965,62.38596]],[[25.93965,62.38596],[25.93966,62.3861],[25.93968,62.38632],[25.93967,62.38647],[25.93965,62.38663],[25.93962,62.38677]],[[25.93962,62.38677],[25.93959,62.38695],[25.93958,62.38709]],[[25.93958,62.38709],[25.93958,62.38716],[25.93959,62.38723],[25.93962,62.38735],[25.93965,62.38746]],[[25.93965,62.38746],[25.93967,62.38753]],[[25.93967,62.38753],[25.93971,62.38768],[25.93974,62.38784],[25.93975,62.38788]]]},"properties":{"name":"Yt 16728 jalankulku- ja pyöräilyväylä välillä Laukkavirrantie-Vihtavuorentie, Laukaa","kind":"project","ptype":"road","subtype":"Tiehanke","status":"kaynnissa","date":"2026–2027","url":"https://vayla.fi/keski-suomessa-suunnitteilla/mt-16728-kantolantie-jalankulku-ja-pyorailyvayla-valilla-laukkavirrantie-vihtavuorentie-laukaa","source":"Väylävirasto"}},{"type":"Feature","geometry":{"type":"MultiLineString","coordinates":[[[26.13336,62.24715],[26.1337,62.24707],[26.13405,62.247],[26.13414,62.24698]],[[26.13414,62.24698],[26.13425,62.24695]],[[26.13425,62.24695],[26.1345,62.2469],[26.13471,62.24686]],[[26.13471,62.24686],[26.13494,62.24682]],[[26.13494,62.24682],[26.1354,62.24674],[26.13573,62.24669],[26.13599,62.24665]],[[26.13599,62.24665],[26.13633,62.24661],[26.13668,62.24656],[26.1371,62.24651],[26.13732,62.24648],[26.13748,62.24646],[26.13773,62.24639]],[[26.13327,62.24707],[26.13355,62.247],[26.13393,62.24692],[26.13406,62.24689]],[[26.13406,62.24689],[26.13419,62.24687]],[[26.13419,62.24687],[26.13444,62.24682],[26.13465,62.24678]],[[26.13465,62.24678],[26.13488,62.24674]],[[26.13488,62.24674],[26.13521,62.24668],[26.13553,62.24663],[26.13579,62.24658]],[[26.13579,62.24658],[26.13625,62.24653],[26.13667,62.24648],[26.13732,62.24641],[26.13773,62.24639]],[[26.13773,62.24639],[26.13796,62.24638],[26.1388,62.24632],[26.13928,62.24629],[26.13989,62.24628],[26.14056,62.24628],[26.14159,62.24631],[26.14191,62.24633],[26.14273,62.24637],[26.14332,62.24642],[26.14389,62.24648],[26.1446,62.24656],[26.14531,62.24666],[26.14628,62.24682],[26.14738,62.247],[26.14816,62.24713],[26.1488,62.24723]],[[26.1488,62.24723],[26.14968,62.24738],[26.15043,62.24748]],[[26.15043,62.24748],[26.15096,62.24756],[26.15178,62.24767],[26.15314,62.24782],[26.15398,62.2479],[26.15497,62.24799],[26.15586,62.24806],[26.15672,62.24811],[26.15768,62.24817],[26.1583,62.24821],[26.1593,62.24827],[26.15982,62.2483],[26.16078,62.24838],[26.16145,62.24843],[26.16197,62.24848],[26.16258,62.24855],[26.16302,62.2486],[26.16333,62.24864],[26.16362,62.24868],[26.16373,62.24869],[26.16468,62.24882],[26.16546,62.24892],[26.16631,62.24903],[26.16714,62.24914],[26.1674,62.24917]],[[26.1674,62.24917],[26.16777,62.2492]],[[26.16777,62.2492],[26.16856,62.24927],[26.1691,62.24931],[26.16942,62.24934]],[[26.16942,62.24934],[26.17074,62.24942],[26.1715,62.24947],[26.17172,62.24949]],[[26.17172,62.24949],[26.17185,62.24953],[26.17197,62.24954],[26.17216,62.24955],[26.17232,62.24956],[26.17283,62.24961],[26.17333,62.24967],[26.17397,62.24974],[26.17471,62.24984],[26.1758,62.25001]],[[26.1758,62.25001],[26.17611,62.25005],[26.17649,62.25011],[26.17688,62.25018],[26.17733,62.25026],[26.17789,62.25035],[26.17843,62.25044],[26.17897,62.25051],[26.17958,62.2506],[26.1798,62.25063],[26.18004,62.25065],[26.18027,62.25065]],[[26.17172,62.24949],[26.17191,62.24948],[26.17211,62.24949],[26.17257,62.24952],[26.17314,62.24957],[26.17369,62.24962],[26.17406,62.24966],[26.17441,62.2497],[26.17493,62.24978],[26.17553,62.24987],[26.17586,62.24991]],[[26.17586,62.24991],[26.17629,62.24999],[26.17672,62.25006],[26.17732,62.25017],[26.17781,62.25026],[26.17827,62.25033],[26.17863,62.25039],[26.17919,62.25047],[26.17966,62.25054],[26.17994,62.25058],[26.18008,62.25059],[26.18027,62.25065]],[[26.18027,62.25065],[26.18104,62.25075],[26.18167,62.2508],[26.18172,62.25081],[26.18226,62.25085],[26.18276,62.25087],[26.18354,62.2509],[26.18438,62.25091],[26.18529,62.25092],[26.18634,62.25092],[26.18731,62.25093],[26.18783,62.25094],[26.18836,62.25095],[26.18899,62.25097],[26.18963,62.25099],[26.1901,62.25102]],[[26.1901,62.25102],[26.19035,62.25103],[26.19099,62.25107],[26.19167,62.25112],[26.19223,62.25117],[26.19293,62.25124],[26.19385,62.25134],[26.19462,62.25143],[26.19519,62.25151],[26.19602,62.25163],[26.19719,62.25178],[26.19823,62.25191]],[[26.19823,62.25191],[26.19896,62.252],[26.19979,62.25209],[26.19996,62.25211]],[[26.19996,62.25211],[26.20063,62.25217],[26.2014,62.25223],[26.20202,62.25228],[26.20259,62.25231],[26.20318,62.25234],[26.20406,62.25237],[26.205,62.2524],[26.20581,62.2524],[26.20634,62.2524],[26.20695,62.2524],[26.20755,62.25238],[26.20836,62.25236],[26.20906,62.25232],[26.20962,62.25229],[26.21014,62.25226],[26.2108,62.25221],[26.21179,62.25212],[26.21255,62.25204],[26.21315,62.25197]],[[26.21315,62.25197],[26.21326,62.25196]],[[26.21326,62.25196],[26.21351,62.25193]]]},"properties":{"name":"Valtatien 9 parantaminen Lievestuoreen kohdalla, STk 2025-2028","kind":"project","ptype":"road","subtype":"Tiehanke","status":"kaynnissa","date":"2025–2027","url":"https://vayla.fi/hankkeet","source":"Väylävirasto"}},{"type":"Feature","geometry":{"type":"MultiLineString","coordinates":[[[26.21326,62.25196],[26.21344,62.25162],[26.21353,62.25151]],[[26.21353,62.25151],[26.21356,62.25147]],[[26.21356,62.25147],[26.21358,62.25145],[26.21384,62.25126],[26.21416,62.25096],[26.21416,62.25096],[26.21418,62.25094]],[[26.21418,62.25094],[26.2144,62.25072],[26.21471,62.25039]],[[26.21471,62.25039],[26.21478,62.25032]]]},"properties":{"name":"Valtatien 9 parantaminen Lievestuoreen kohdalla, STk 2025-2028","kind":"project","ptype":"road","subtype":"Tiehanke","status":"kaynnissa","date":"2025–2027","url":"https://vayla.fi/hankkeet","source":"Väylävirasto"}},{"type":"Feature","geometry":{"type":"MultiLineString","coordinates":[[[26.21179,62.25878],[26.21179,62.25876],[26.21176,62.2584]],[[26.21176,62.2584],[26.21176,62.25839]],[[26.21176,62.25839],[26.21176,62.25831]],[[26.21176,62.25831],[26.21174,62.25801],[26.21172,62.25768],[26.21172,62.2574],[26.21174,62.25724],[26.21177,62.25709],[26.21181,62.25689],[26.21187,62.25666],[26.21194,62.25643]],[[26.21194,62.25643],[26.21199,62.25624],[26.21206,62.25603]],[[26.21206,62.25603],[26.21212,62.25581],[26.21223,62.25545],[26.21232,62.25518],[26.21232,62.25518]],[[26.21232,62.25518],[26.21238,62.25497],[26.21239,62.25496],[26.21243,62.25479],[26.2125,62.25454],[26.21259,62.25428],[26.21259,62.25427]],[[26.21259,62.25427],[26.21263,62.25414]],[[26.21263,62.25414],[26.21267,62.25397],[26.21284,62.25338],[26.21287,62.25331]],[[26.21287,62.25331],[26.21295,62.25304]],[[26.21295,62.25304],[26.21297,62.25298],[26.21316,62.25231],[26.21326,62.25198]]]},"properties":{"name":"Valtatien 9 parantaminen Lievestuoreen kohdalla, STk 2025-2028","kind":"project","ptype":"road","subtype":"Tiehanke","status":"kaynnissa","date":"2025–2027","url":"https://vayla.fi/hankkeet","source":"Väylävirasto"}},{"type":"Feature","geometry":{"type":"MultiLineString","coordinates":[[[26.17578,62.25019],[26.17577,62.25021],[26.17584,62.25036]],[[26.17584,62.25036],[26.17584,62.25038],[26.17597,62.25062],[26.17615,62.25098],[26.17639,62.25141],[26.17661,62.25179]],[[26.17661,62.25179],[26.1768,62.25206],[26.17705,62.25238],[26.17739,62.25277],[26.1777,62.25308]],[[26.1777,62.25308],[26.17787,62.25327],[26.17819,62.25355],[26.17852,62.25383],[26.1787,62.25399],[26.17896,62.25419],[26.17924,62.25439],[26.17957,62.25462],[26.17997,62.25488]],[[26.17997,62.25488],[26.17998,62.25489],[26.18027,62.25507],[26.18052,62.25522],[26.18085,62.25541],[26.18102,62.25551]],[[26.18102,62.25551],[26.18144,62.25571],[26.18194,62.25597],[26.18235,62.25618]],[[26.18235,62.25618],[26.18273,62.25635],[26.18321,62.25656],[26.18364,62.25672]],[[26.18364,62.25672],[26.18399,62.25686]]]},"properties":{"name":"Valtatien 9 parantaminen Lievestuoreen kohdalla, STk 2025-2028","kind":"project","ptype":"road","subtype":"Tiehanke","status":"kaynnissa","date":"2025–2027","url":"https://vayla.fi/hankkeet","source":"Väylävirasto"}},{"type":"Feature","geometry":{"type":"MultiLineString","coordinates":[[[26.1758,62.25001],[26.17586,62.24991]],[[26.17586,62.24991],[26.17591,62.24985],[26.176,62.24965],[26.17598,62.24931],[26.17598,62.24926]],[[26.17598,62.24926],[26.17598,62.24926],[26.17598,62.24925],[26.17595,62.249],[26.17591,62.2486],[26.17589,62.24823],[26.17589,62.24823],[26.17589,62.24788],[26.1759,62.24735],[26.17591,62.24711],[26.17596,62.24662],[26.17604,62.24613],[26.17607,62.24594],[26.17607,62.24594]],[[26.17607,62.24594],[26.17608,62.24589]]]},"properties":{"name":"Valtatien 9 parantaminen Lievestuoreen kohdalla, STk 2025-2028","kind":"project","ptype":"road","subtype":"Tiehanke","status":"kaynnissa","date":"2025–2027","url":"https://vayla.fi/hankkeet","source":"Väylävirasto"}},{"type":"Feature","geometry":{"type":"LineString","coordinates":[[25.74051,62.23465],[25.76835,62.24653],[25.77407,62.24679],[25.78392,62.24435],[25.79166,62.24052],[25.82453,62.2395],[25.86378,62.24135],[25.88683,62.25027],[25.89657,62.25078],[25.90908,62.24749],[25.93237,62.24564],[25.94157,62.24391],[25.9604,62.2455],[25.9955,62.24236],[26.02544,62.24077],[26.07445,62.23771],[26.08726,62.23917],[26.10104,62.24431],[26.14093,62.25164],[26.19785,62.26029],[26.23788,62.26391],[26.28212,62.2671],[26.31881,62.2683],[26.34925,62.27949],[26.37795,62.28598],[26.40106,62.28579],[26.43015,62.28873],[26.47261,62.29901],[26.48917,62.31012],[26.5181,62.31556],[26.52599,62.3157],[26.59396,62.3048],[26.63549,62.30838],[26.64635,62.30913],[26.72953,62.30751],[26.77651,62.3112],[26.79575,62.31116],[26.82954,62.31763],[26.90247,62.32204],[26.90853,62.32111],[26.95232,62.31045],[26.98119,62.29652],[27.03398,62.28397],[27.05909,62.2823],[27.07878,62.28214],[27.10174,62.28791],[27.14098,62.29083],[27.16254,62.29247],[27.16596,62.29456]]},"properties":{"name":"Jyväskylä-Pieksämäki perusparannus, rakentaminen","kind":"project","ptype":"rail","subtype":"Ratahanke","status":"kaynnissa","date":"2022–2028","url":"https://vayla.fi/jyvaskyla-pieksamaki-perusparannus","source":"Väylävirasto"}}]}