{"type":"FeatureCollection","features":[{"type":"Feature","geometry":{"type":"LineString","coordinates":[[23.5401,61.50116],[23.53269,61.50118],[23.52909,61.50098],[23.52199,61.50035],[23.51784,61.5002],[23.49825,61.50004],[23.48827,61.49989],[23.48396,61.4995],[23.47817,61.49867],[23.47451,61.49831],[23.47002,61.49815],[23.46436,61.49825],[23.45748,61.49868],[23.44503,61.49978],[23.43702,61.50048],[23.42859,61.50122],[23.41877,61.50197],[23.41609,61.5021],[23.40831,61.50245],[23.39547,61.50296],[23.37969,61.50357],[23.36563,61.5038],[23.35055,61.50405],[23.34313,61.50376],[23.33627,61.50299],[23.31504,61.50009],[23.30336,61.49905],[23.29532,61.4987],[23.28732,61.49858],[23.27918,61.49878],[23.26893,61.49953],[23.25708,61.50084],[23.25052,61.50149],[23.2448,61.50192],[23.23661,61.50208],[23.22943,61.50201],[23.22233,61.50164],[23.2078,61.5006],[23.19115,61.49958],[23.18419,61.49948],[23.17455,61.49968],[23.16793,61.50008],[23.15833,61.50084],[23.15343,61.50118],[23.14344,61.50146],[23.11891,61.50178],[23.10852,61.50193],[23.10056,61.50224],[23.09201,61.50253],[23.08896,61.50251],[23.07629,61.50308],[23.05501,61.50379],[23.04322,61.50419],[23.03518,61.50398]]},"properties":{"name":"Vt 11 Tievalaistuksen rakentaminen välille Häijää - Nokia, ST2025","kind":"project","ptype":"road","subtype":"Tiehanke","status":"kaynnissa","date":"2025–2026","url":"https://vayla.fi/hankkeet","source":"Väylävirasto"}},{"type":"Feature","geometry":{"type":"Point","coordinates":[22.83549,61.34654]},"properties":{"name":"Kaukolantien ja Vinkkiläntien tasoristeysten poistaminen","kind":"project","ptype":"road","subtype":"Tiehanke","status":"kaynnissa","date":"2023–2024","url":"https://vayla.fi/hankkeet","source":"Väylävirasto"}},{"type":"Feature","geometry":{"type":"MultiLineString","coordinates":[[[22.68868,61.28612],[22.68879,61.28623]],[[22.68879,61.28623],[22.68882,61.28625]],[[22.68882,61.28625],[22.68893,61.28637]]]},"properties":{"name":"H-5452 Malvanojan silta","kind":"project","ptype":"road","subtype":"Tiehanke","status":"kaynnissa","date":"2026–2026","url":"https://vayla.fi/hankkeet","source":"Väylävirasto"}},{"type":"Feature","geometry":{"type":"LineString","coordinates":[[22.75356,61.34954],[22.75357,61.34956]]},"properties":{"name":"Putkisiltakohteet, PIR ELY Putkisilta- ja rumpu-urakka 2025, ST","kind":"project","ptype":"road","subtype":"Tiehanke","status":"kaynnissa","date":"2025–2025","url":"https://vayla.fi/hankkeet","source":"Väylävirasto"}},{"type":"Feature","geometry":{"type":"MultiLineString","coordinates":[[[23.04238,61.33764],[23.04258,61.3377],[23.04259,61.33771]],[[23.04259,61.33771],[23.04266,61.33772]],[[23.04266,61.33772],[23.04276,61.33775],[23.04277,61.33775],[23.04284,61.33776],[23.04288,61.33777]]]},"properties":{"name":"H-5462 Stormin silta","kind":"project","ptype":"road","subtype":"Tiehanke","status":"kaynnissa","date":"2026–2026","url":"https://vayla.fi/hankkeet","source":"Väylävirasto"}},{"type":"Feature","geometry":{"type":"LineString","coordinates":[[23.22775,61.13459],[23.22778,61.13458]]},"properties":{"name":"Rumpukohteet, PIR ELY Putkisilta- ja rumpu-urakka 2025, ST","kind":"project","ptype":"road","subtype":"Tiehanke","status":"kaynnissa","date":"2025–2025","url":"https://vayla.fi/hankkeet","source":"Väylävirasto"}},{"type":"Feature","geometry":{"type":"LineString","coordinates":[[22.5599,61.4423],[22.55993,61.44229]]},"properties":{"name":"Rumpukohteet, PIR ELY Putkisilta- ja rumpu-urakka 2025, ST","kind":"project","ptype":"road","subtype":"Tiehanke","status":"kaynnissa","date":"2025–2025","url":"https://vayla.fi/hankkeet","source":"Väylävirasto"}},{"type":"Feature","geometry":{"type":"LineString","coordinates":[[23.144,61.12481],[23.1441,61.12486],[23.14426,61.12493]]},"properties":{"name":"SIS Putkisilta- ja rumpu-urakan 2026, ST, rumpukohteet","kind":"project","ptype":"road","subtype":"Tiehanke","status":"kaynnissa","date":"2026–2026","url":"https://vayla.fi/hankkeet","source":"Väylävirasto"}},{"type":"Feature","geometry":{"type":"Point","coordinates":[22.83549,61.34654]},"properties":{"name":"Kaukolantien ja Vinkkiläntien tasoristeysten poistaminen","kind":"project","ptype":"rail","subtype":"Ratahanke","status":"kaynnissa","date":"2023–2024","url":"https://vayla.fi/hankkeet","source":"Väylävirasto"}}]}