{"type":"FeatureCollection","features":[{"type":"Feature","geometry":{"type":"LineString","coordinates":[[27.83591,62.16331],[27.83591,62.16332]]},"properties":{"name":"Sillankorjausurakka POS ELY 2025-26","kind":"project","ptype":"road","subtype":"Tiehanke","status":"kaynnissa","date":"2025–2026","url":"https://vayla.fi/hankkeet","source":"Väylävirasto"}},{"type":"Feature","geometry":{"type":"MultiLineString","coordinates":[[[27.77904,62.19836],[27.77929,62.19827],[27.77929,62.19827]],[[27.77929,62.19827],[27.77953,62.19818],[27.77962,62.19815],[27.77964,62.19814],[27.77975,62.19809],[27.77998,62.19797],[27.77999,62.19797],[27.7803,62.19778],[27.78031,62.19778],[27.78061,62.19759],[27.78063,62.19758],[27.78084,62.19745],[27.78091,62.19741],[27.78094,62.1974],[27.78123,62.19726],[27.78125,62.19725]],[[27.78125,62.19725],[27.78138,62.19718],[27.78144,62.19716],[27.78147,62.19715],[27.78148,62.19714],[27.78154,62.19712],[27.78161,62.1971],[27.78185,62.19704],[27.78187,62.19704],[27.78225,62.19695],[27.78227,62.19694],[27.7827,62.19686],[27.78272,62.19686],[27.78298,62.19682],[27.78301,62.19681],[27.78304,62.19681],[27.78346,62.19676]],[[27.78346,62.19676],[27.78376,62.19674],[27.7838,62.19674],[27.78382,62.19674],[27.78413,62.19673],[27.78463,62.19672],[27.78466,62.19672]],[[27.78466,62.19672],[27.78528,62.1967],[27.78593,62.19668],[27.78597,62.19668],[27.786,62.19667],[27.78643,62.19666],[27.78645,62.19666],[27.78664,62.19665],[27.78675,62.19664],[27.78683,62.19663],[27.78687,62.19663],[27.78689,62.19662],[27.78697,62.19661],[27.78704,62.1966],[27.78711,62.19658],[27.78717,62.19657],[27.78724,62.19655],[27.78727,62.19654],[27.78728,62.19653],[27.78734,62.19651],[27.78742,62.19648],[27.78756,62.19642],[27.78757,62.19641],[27.78783,62.19631],[27.78785,62.1963]],[[27.78785,62.1963],[27.78787,62.19629],[27.78835,62.19605],[27.78883,62.1958],[27.78886,62.19578],[27.78926,62.19559],[27.78928,62.19558],[27.7898,62.19532]],[[27.7898,62.19532],[27.78982,62.19531],[27.79023,62.19513],[27.79025,62.19512],[27.79039,62.19506],[27.79054,62.195],[27.79064,62.19497],[27.79065,62.19496],[27.79072,62.19494],[27.79082,62.19492],[27.79109,62.19485],[27.79112,62.19484],[27.79126,62.19481]]]},"properties":{"name":"Mt 455 ja 15323 liittymäjärjestelyt, KU, Joroinen","kind":"project","ptype":"road","subtype":"Tiehanke","status":"kaynnissa","date":"2026–2027","url":"https://vayla.fi/maanteiden-455-ja-15323-liittymajarjestely-joroinen","source":"Väylävirasto"}},{"type":"Feature","geometry":{"type":"LineString","coordinates":[[27.26102,63.59514],[26.2622,62.91241],[26.56523,61.47161],[28.12668,61.86545],[28.71633,62.42373],[28.06256,63.39683],[27.2702,63.57624]]},"properties":{"name":"POSELY586/2025 Valaisinvaihdot 2025, Itä-Suomi","kind":"project","ptype":"road","subtype":"Tiehanke","status":"kaynnissa","date":"2024–2025","url":"https://vayla.fi/hankkeet","source":"Väylävirasto"}},{"type":"Feature","geometry":{"type":"LineString","coordinates":[[27.66498,63.08273],[27.67863,63.0952],[27.74005,63.1083],[27.77414,63.13321],[27.79636,63.14217],[27.86648,63.153],[27.91227,63.14926],[28.05568,63.12188],[28.10642,63.12452],[28.11922,63.13437],[28.17344,63.12787],[28.21882,63.11624],[28.24007,63.09919],[28.25955,63.08604],[28.31803,63.0708],[28.3125,63.05398],[28.33622,63.03084],[28.49941,62.98118],[28.56552,62.97268],[28.62155,62.95431],[28.65735,62.93227],[28.69967,62.92527],[28.7789,62.88579],[28.81096,62.86765],[28.83179,62.85223],[28.92969,62.81458],[28.99779,62.77296],[29.08964,62.69634],[29.15362,62.66941],[29.1772,62.65736],[29.21502,62.64725],[29.19134,62.64503],[29.16421,62.62122],[29.14986,62.60456],[29.13371,62.57582],[29.13097,62.56375],[29.09189,62.55482],[29.04562,62.52262],[29.04246,62.49021],[29.03799,62.47946],[29.04151,62.46253],[29.0277,62.43807],[29.0256,62.42079],[29.03221,62.40815],[29.04292,62.40107],[29.04443,62.39585],[29.04032,62.39029],[29.02582,62.38271],[29.00877,62.37863],[28.99198,62.37844],[28.98149,62.3747],[28.92653,62.37504],[28.89732,62.36981],[28.86588,62.3737],[28.83313,62.38668],[28.80799,62.38701],[28.78835,62.38597],[28.74304,62.39216],[28.72063,62.39158],[28.70168,62.38619],[28.67445,62.38262],[28.6596,62.38367],[28.58211,62.38111],[28.52419,62.37829],[28.49794,62.37512],[28.40492,62.35835],[28.37975,62.35773],[28.31029,62.34499],[28.24306,62.33956],[28.22058,62.33586],[28.19516,62.32829],[28.15129,62.32434],[28.1212,62.3155],[28.10155,62.3122],[28.07699,62.30114],[28.05732,62.29697],[28.0202,62.29811],[27.99155,62.30308],[27.94213,62.29758],[27.91989,62.29946],[27.87007,62.31189]]},"properties":{"name":"POKA VT16 Joensuu-Nurmes","kind":"project","ptype":"rail","subtype":"Ratahanke","status":"kaynnissa","date":"2022–2025","url":"https://vayla.fi/hankkeet","source":"Väylävirasto"}},{"type":"Feature","geometry":{"type":"LineString","coordinates":[[27.86036,62.31379],[27.85927,62.30817],[27.87194,62.29641],[27.87857,62.28469],[27.86723,62.27784],[27.80081,62.25921],[27.77912,62.24592],[27.74305,62.23141],[27.69988,62.20871],[27.72947,62.2064],[27.77806,62.18688],[27.79038,62.17989],[27.82524,62.16866],[27.9155,62.12462],[27.97574,62.10149],[28.00491,62.09047],[28.08629,62.0693],[28.14293,62.055],[28.28124,62.01204]]},"properties":{"name":"POKA VT16 Joensuu-Nurmes","kind":"project","ptype":"rail","subtype":"Ratahanke","status":"kaynnissa","date":"2022–2025","url":"https://vayla.fi/hankkeet","source":"Väylävirasto"}},{"type":"Feature","geometry":{"type":"LineString","coordinates":[[27.86036,62.31379],[27.85927,62.30817],[27.87194,62.29641],[27.87857,62.28469],[27.86723,62.27784],[27.80081,62.25921],[27.77912,62.24592],[27.74305,62.23141],[27.69988,62.20871],[27.72947,62.2064],[27.77806,62.18688],[27.79038,62.17989],[27.82524,62.16866],[27.9155,62.12462],[27.97574,62.10149],[28.00491,62.09047],[28.08629,62.0693],[28.14293,62.055],[28.28124,62.01204]]},"properties":{"name":"POKA VT17.2 Laurila-Patokangas","kind":"project","ptype":"rail","subtype":"Ratahanke","status":"kaynnissa","date":"2022–2025","url":"https://vayla.fi/hankkeet","source":"Väylävirasto"}},{"type":"Feature","geometry":{"type":"LineString","coordinates":[[27.66498,63.08273],[27.67863,63.0952],[27.74005,63.1083],[27.77414,63.13321],[27.79636,63.14217],[27.86648,63.153],[27.91227,63.14926],[28.05568,63.12188],[28.10642,63.12452],[28.11922,63.13437],[28.17344,63.12787],[28.21882,63.11624],[28.24007,63.09919],[28.25955,63.08604],[28.31803,63.0708],[28.3125,63.05398],[28.33622,63.03084],[28.49941,62.98118],[28.56552,62.97268],[28.62155,62.95431],[28.65735,62.93227],[28.69967,62.92527],[28.7789,62.88579],[28.81096,62.86765],[28.83179,62.85223],[28.92969,62.81458],[28.99779,62.77296],[29.08964,62.69634],[29.15362,62.66941],[29.1772,62.65736],[29.21502,62.64725],[29.19134,62.64503],[29.16421,62.62122],[29.14986,62.60456],[29.13371,62.57582],[29.13097,62.56375],[29.09189,62.55482],[29.04562,62.52262],[29.04246,62.49021],[29.03799,62.47946],[29.04151,62.46253],[29.0277,62.43807],[29.0256,62.42079],[29.03221,62.40815],[29.04292,62.40107],[29.04443,62.39585],[29.04032,62.39029],[29.02582,62.38271],[29.00877,62.37863],[28.99198,62.37844],[28.98149,62.3747],[28.92653,62.37504],[28.89732,62.36981],[28.86588,62.3737],[28.83313,62.38668],[28.80799,62.38701],[28.78835,62.38597],[28.74304,62.39216],[28.72063,62.39158],[28.70168,62.38619],[28.67445,62.38262],[28.6596,62.38367],[28.58211,62.38111],[28.52419,62.37829],[28.49794,62.37512],[28.40492,62.35835],[28.37975,62.35773],[28.31029,62.34499],[28.24306,62.33956],[28.22058,62.33586],[28.19516,62.32829],[28.15129,62.32434],[28.1212,62.3155],[28.10155,62.3122],[28.07699,62.30114],[28.05732,62.29697],[28.0202,62.29811],[27.99155,62.30308],[27.94213,62.29758],[27.91989,62.29946],[27.87007,62.31189]]},"properties":{"name":"POKA VT17.2 Laurila-Patokangas","kind":"project","ptype":"rail","subtype":"Ratahanke","status":"kaynnissa","date":"2022–2025","url":"https://vayla.fi/hankkeet","source":"Väylävirasto"}},{"type":"Feature","geometry":{"type":"LineString","coordinates":[[27.66498,63.08273],[27.67863,63.0952],[27.74005,63.1083],[27.77414,63.13321],[27.79636,63.14217],[27.86648,63.153],[27.91227,63.14926],[28.05568,63.12188],[28.10642,63.12452],[28.11922,63.13437],[28.17344,63.12787],[28.21882,63.11624],[28.24007,63.09919],[28.25955,63.08604],[28.31803,63.0708],[28.3125,63.05398],[28.33622,63.03084],[28.49941,62.98118],[28.56552,62.97268],[28.62155,62.95431],[28.65735,62.93227],[28.69967,62.92527],[28.7789,62.88579],[28.81096,62.86765],[28.83179,62.85223],[28.92969,62.81458],[28.99779,62.77296],[29.08964,62.69634],[29.15362,62.66941],[29.1772,62.65736],[29.21502,62.64725],[29.19134,62.64503],[29.16421,62.62122],[29.14986,62.60456],[29.13371,62.57582],[29.13097,62.56375],[29.09189,62.55482],[29.04562,62.52262],[29.04246,62.49021],[29.03799,62.47946],[29.04151,62.46253],[29.0277,62.43807],[29.0256,62.42079],[29.03221,62.40815],[29.04292,62.40107],[29.04443,62.39585],[29.04032,62.39029],[29.02582,62.38271],[29.00877,62.37863],[28.99198,62.37844],[28.98149,62.3747],[28.92653,62.37504],[28.89732,62.36981],[28.86588,62.3737],[28.83313,62.38668],[28.80799,62.38701],[28.78835,62.38597],[28.74304,62.39216],[28.72063,62.39158],[28.70168,62.38619],[28.67445,62.38262],[28.6596,62.38367],[28.58211,62.38111],[28.52419,62.37829],[28.49794,62.37512],[28.40492,62.35835],[28.37975,62.35773],[28.31029,62.34499],[28.24306,62.33956],[28.22058,62.33586],[28.19516,62.32829],[28.15129,62.32434],[28.1212,62.3155],[28.10155,62.3122],[28.07699,62.30114],[28.05732,62.29697],[28.0202,62.29811],[27.99155,62.30308],[27.94213,62.29758],[27.91989,62.29946],[27.87007,62.31189]]},"properties":{"name":"POKA VT17.1 Tornio-Kolari","kind":"project","ptype":"rail","subtype":"Ratahanke","status":"kaynnissa","date":"2022–2025","url":"https://vayla.fi/hankkeet","source":"Väylävirasto"}},{"type":"Feature","geometry":{"type":"LineString","coordinates":[[27.86036,62.31379],[27.85927,62.30817],[27.87194,62.29641],[27.87857,62.28469],[27.86723,62.27784],[27.80081,62.25921],[27.77912,62.24592],[27.74305,62.23141],[27.69988,62.20871],[27.72947,62.2064],[27.77806,62.18688],[27.79038,62.17989],[27.82524,62.16866],[27.9155,62.12462],[27.97574,62.10149],[28.00491,62.09047],[28.08629,62.0693],[28.14293,62.055],[28.28124,62.01204]]},"properties":{"name":"POKA VT17.1 Tornio-Kolari","kind":"project","ptype":"rail","subtype":"Ratahanke","status":"kaynnissa","date":"2022–2025","url":"https://vayla.fi/hankkeet","source":"Väylävirasto"}},{"type":"Feature","geometry":{"type":"LineString","coordinates":[[27.6893,62.20999],[27.68939,62.20997],[27.69005,62.20986],[27.69081,62.2097],[27.69144,62.20959],[27.69199,62.20949],[27.69262,62.20938],[27.69338,62.20924],[27.69403,62.20912],[27.69465,62.209],[27.6958,62.20879],[27.69582,62.20879],[27.69638,62.20869],[27.6964,62.20868],[27.69704,62.20861],[27.69765,62.20855],[27.69833,62.20851],[27.69894,62.20851],[27.69964,62.2085],[27.70019,62.20854],[27.70094,62.20859],[27.70159,62.20869],[27.70224,62.2088],[27.70286,62.20894],[27.70344,62.20911],[27.70397,62.20929],[27.70448,62.20949],[27.70493,62.20972],[27.70531,62.20994],[27.70566,62.21014],[27.7064,62.21058],[27.70655,62.21066],[27.70675,62.21078],[27.70709,62.21099],[27.70744,62.21119],[27.70784,62.21142],[27.70816,62.21161],[27.70855,62.21183],[27.70892,62.21206],[27.7093,62.21228],[27.70964,62.21248],[27.70998,62.21267],[27.71034,62.21289],[27.7107,62.21311],[27.71107,62.21332],[27.71182,62.21376],[27.71217,62.21396],[27.71255,62.21418],[27.71292,62.2144],[27.71327,62.2146],[27.71365,62.21483],[27.71399,62.21502],[27.71436,62.21525],[27.71472,62.21546],[27.71507,62.21566],[27.71543,62.21587],[27.71623,62.21634],[27.71656,62.21653],[27.71699,62.21679],[27.71738,62.21701],[27.71767,62.21719],[27.71841,62.21763],[27.71842,62.21763],[27.71876,62.21784],[27.71917,62.21807],[27.71959,62.21832],[27.71992,62.21852],[27.72022,62.21868],[27.72036,62.21877],[27.72077,62.219],[27.722,62.21973],[27.72322,62.22045],[27.72466,62.22129],[27.72576,62.22194],[27.72631,62.22225],[27.72682,62.22255],[27.72727,62.22282],[27.72761,62.22302],[27.72842,62.2235],[27.72918,62.22395],[27.72954,62.22416],[27.72993,62.22438],[27.7303,62.2246],[27.73064,62.22479],[27.73099,62.22501],[27.73112,62.22508],[27.73134,62.22521],[27.73164,62.2254],[27.73198,62.22559],[27.73234,62.2258],[27.7327,62.22601],[27.73344,62.22644],[27.7338,62.22666],[27.73456,62.22711],[27.73503,62.22739],[27.73549,62.22765],[27.73565,62.22774],[27.73578,62.22782],[27.73626,62.2281],[27.73671,62.22836],[27.73707,62.22858],[27.73744,62.2288],[27.73786,62.22903],[27.73827,62.22927],[27.73861,62.22947],[27.73898,62.22969],[27.73946,62.22998],[27.74007,62.23033],[27.74066,62.23068],[27.74124,62.23101],[27.74177,62.2313],[27.7421,62.23147],[27.74222,62.23153],[27.74264,62.23174],[27.7431,62.23196],[27.7436,62.23218],[27.74405,62.23237],[27.74454,62.23258],[27.74503,62.23277],[27.74552,62.23294],[27.74604,62.23314],[27.74646,62.23329],[27.74711,62.23353],[27.74762,62.23373],[27.74821,62.23395],[27.74889,62.2342],[27.74959,62.23447],[27.75045,62.23479],[27.75112,62.23505],[27.75165,62.23524],[27.75229,62.23548],[27.75317,62.23581],[27.75407,62.23615],[27.75502,62.23651],[27.7559,62.23684],[27.75665,62.23711],[27.75684,62.23719],[27.75744,62.23742],[27.75821,62.2377],[27.7589,62.23796],[27.75968,62.23825],[27.76031,62.23849],[27.76061,62.23861],[27.76134,62.23888],[27.76199,62.23912],[27.76277,62.23942],[27.76331,62.23961],[27.76379,62.2398],[27.76426,62.23997],[27.76482,62.24017],[27.76527,62.24034],[27.7658,62.24054],[27.76619,62.24068],[27.77019,62.24219],[27.77194,62.24284],[27.77359,62.24346],[27.77597,62.24435],[27.77721,62.24485],[27.77858,62.24546],[27.77988,62.24613],[27.78097,62.24676],[27.78223,62.24757],[27.7836,62.24846],[27.78394,62.24869],[27.78504,62.2494],[27.78602,62.25004],[27.78813,62.25141],[27.78977,62.25249],[27.79153,62.25363],[27.79336,62.25483],[27.79507,62.25595],[27.79536,62.25613],[27.79633,62.25677],[27.79638,62.2568],[27.79649,62.25687],[27.79726,62.25743],[27.79854,62.25812],[27.79958,62.25862],[27.80115,62.25922],[27.80219,62.25955],[27.8041,62.26012],[27.80441,62.2602],[27.80631,62.26071],[27.81065,62.26184],[27.81149,62.26206],[27.81457,62.26289],[27.81753,62.26368],[27.82093,62.26462],[27.82364,62.26534],[27.82599,62.26599],[27.82804,62.26654],[27.82839,62.26663],[27.83013,62.26711],[27.83248,62.26772],[27.83486,62.26838],[27.83685,62.2689],[27.841,62.27001],[27.84463,62.27099],[27.84478,62.27103],[27.84764,62.27181],[27.8502,62.2725],[27.85211,62.27301],[27.85445,62.27365],[27.85572,62.27398],[27.85688,62.27433],[27.85788,62.27467],[27.85863,62.27494],[27.85959,62.27532],[27.86055,62.27573],[27.8609,62.27589],[27.86306,62.27691],[27.86342,62.27709],[27.86383,62.27729],[27.86712,62.27884],[27.87034,62.28039],[27.87222,62.28128],[27.87289,62.28159],[27.87423,62.28227],[27.87437,62.28235],[27.87523,62.28286],[27.87586,62.28332],[27.87625,62.28364],[27.8764,62.28378],[27.87679,62.28425],[27.87721,62.28467],[27.8775,62.28508],[27.87795,62.28601],[27.87805,62.28695],[27.87809,62.28739],[27.87802,62.28794],[27.87785,62.28859],[27.87737,62.28953],[27.87676,62.29076],[27.8767,62.29087],[27.87574,62.29278],[27.87559,62.29311],[27.87521,62.29384],[27.87484,62.29457],[27.87459,62.29501],[27.87444,62.29525],[27.87429,62.29544],[27.874,62.29582],[27.87363,62.29621],[27.87328,62.29654],[27.87283,62.29692],[27.87224,62.29743],[27.87161,62.29794],[27.87104,62.29841],[27.87096,62.29848],[27.87036,62.29898],[27.87008,62.29921],[27.86982,62.29943],[27.86919,62.29994],[27.86857,62.30046],[27.86792,62.30099],[27.86719,62.3016],[27.86701,62.30175],[27.86618,62.30244],[27.86521,62.30324],[27.86433,62.30396],[27.86419,62.30408],[27.86352,62.30464],[27.86332,62.3048],[27.86257,62.30542],[27.86203,62.30587],[27.86125,62.30651],[27.86069,62.30697],[27.86037,62.30724],[27.85922,62.30819],[27.8589,62.30847],[27.85858,62.30873],[27.85854,62.30876],[27.858,62.3092],[27.85773,62.30944],[27.85742,62.30977],[27.85716,62.31012],[27.85696,62.31053],[27.8569,62.31086],[27.85689,62.31119],[27.85696,62.31159],[27.8571,62.31194],[27.85738,62.31235],[27.85776,62.31273],[27.85808,62.313],[27.85858,62.31332],[27.85907,62.31358],[27.85965,62.31383],[27.86036,62.31408],[27.86109,62.31428],[27.8621,62.31449],[27.86213,62.3145],[27.86289,62.31459],[27.86337,62.31463],[27.86391,62.31466],[27.8643,62.31467],[27.8645,62.31467],[27.86463,62.31467],[27.86484,62.31466],[27.86552,62.31464],[27.86623,62.31459],[27.86673,62.31453],[27.86709,62.31448],[27.86755,62.3144],[27.8679,62.31432],[27.86823,62.31423],[27.86849,62.31415],[27.86879,62.31404],[27.86903,62.31396],[27.86914,62.31392],[27.86935,62.31384],[27.86965,62.31374],[27.8698,62.31368],[27.87093,62.31328],[27.8726,62.31268],[27.87384,62.31223],[27.87526,62.31172],[27.8765,62.31127],[27.87789,62.31077],[27.87853,62.31053],[27.87915,62.3103],[27.88061,62.30979],[27.8814,62.30948],[27.88219,62.3092],[27.88239,62.30913],[27.88307,62.30889],[27.88342,62.30875],[27.88357,62.30869],[27.8836,62.30868],[27.88436,62.30842],[27.88536,62.30809],[27.88596,62.30791],[27.88663,62.30772],[27.88786,62.30737],[27.88846,62.3072],[27.88913,62.30701],[27.88994,62.30678],[27.89097,62.30648],[27.89261,62.30602],[27.89447,62.30549],[27.89476,62.3054],[27.8958,62.3051],[27.89636,62.30496],[27.89708,62.30481],[27.89778,62.30466],[27.89891,62.30446],[27.90052,62.30418],[27.90126,62.30404],[27.90262,62.30381],[27.9044,62.30348],[27.90588,62.30317],[27.9066,62.303],[27.90774,62.30272],[27.90858,62.30251],[27.90903,62.30241],[27.90967,62.30224],[27.90994,62.30219],[27.91159,62.30178],[27.91194,62.3017],[27.91216,62.30164],[27.9138,62.30124],[27.91533,62.30088],[27.91665,62.3006],[27.91818,62.30032],[27.91948,62.30011],[27.92105,62.29991],[27.92248,62.29976],[27.92453,62.29961],[27.92511,62.29958],[27.92708,62.29952],[27.92853,62.29951],[27.93033,62.29955],[27.93035,62.29955],[27.93222,62.29965],[27.93418,62.29982],[27.93606,62.30003],[27.93702,62.30015],[27.93722,62.30017],[27.93771,62.30023],[27.93879,62.30037],[27.94039,62.30056],[27.9424,62.30081],[27.94411,62.30102],[27.94542,62.30118],[27.94656,62.30132],[27.94789,62.30148],[27.94817,62.30152],[27.94911,62.30163],[27.94921,62.30164],[27.9504,62.30179],[27.95102,62.30187],[27.95264,62.30207],[27.95422,62.30226],[27.9546,62.3023],[27.95551,62.30241],[27.95576,62.30245],[27.95686,62.30258],[27.95777,62.30269],[27.95881,62.30281],[27.95994,62.30296],[27.96055,62.30303],[27.96146,62.30314],[27.96157,62.30316],[27.96254,62.30327],[27.96383,62.30344],[27.9646,62.30353],[27.96585,62.30368],[27.96683,62.3038],[27.96779,62.30392],[27.968,62.30394],[27.97188,62.30442],[27.97222,62.30446],[27.97379,62.30465],[27.97619,62.30494],[27.97806,62.30516],[27.97944,62.30533],[27.98077,62.3055],[27.98142,62.30558],[27.98208,62.30566],[27.98269,62.30574],[27.98346,62.30583],[27.98412,62.30591],[27.98476,62.30597],[27.9854,62.30603],[27.98606,62.30607],[27.98631,62.30609],[27.98672,62.30611],[27.98735,62.30613],[27.98805,62.30614],[27.98822,62.30614],[27.98841,62.30615],[27.98865,62.30614],[27.98888,62.30614],[27.98997,62.30612],[27.99112,62.30607],[27.99178,62.30602],[27.99249,62.30595],[27.99371,62.30579],[27.99441,62.30567],[27.99517,62.30552],[27.99586,62.30536],[27.99667,62.30513],[27.99728,62.30495],[27.99791,62.30472],[27.99838,62.30454],[27.99888,62.30432],[27.99946,62.30404],[27.99997,62.30375],[28.00038,62.3035],[28.00082,62.30322],[28.00117,62.30299],[28.00146,62.30279],[28.00194,62.30247],[28.00223,62.30228],[28.00224,62.30227],[28.00234,62.3022],[28.00246,62.30212],[28.00306,62.30172],[28.00346,62.30146],[28.00381,62.30122],[28.00427,62.30092],[28.0047,62.30064],[28.0051,62.30041],[28.00555,62.30016],[28.00593,62.29995],[28.00633,62.29976],[28.00677,62.29957],[28.00727,62.29936],[28.00777,62.29916],[28.00823,62.299],[28.00864,62.29886],[28.00911,62.29871],[28.00968,62.29855],[28.01033,62.29837],[28.01091,62.29823],[28.01147,62.29811],[28.01221,62.29797],[28.01281,62.29786],[28.01344,62.29776],[28.01404,62.29768],[28.0148,62.29759],[28.01533,62.29754],[28.01599,62.29749],[28.01682,62.29744],[28.01742,62.29742],[28.01758,62.29741],[28.01806,62.2974],[28.01855,62.2974],[28.0192,62.2974],[28.01974,62.29741],[28.02035,62.29744],[28.02086,62.29746],[28.02147,62.2975],[28.02212,62.29754],[28.02267,62.29757],[28.02327,62.29761],[28.02399,62.29764],[28.02463,62.29767],[28.02519,62.29767],[28.02591,62.29767],[28.02662,62.29765],[28.02754,62.29762],[28.02845,62.29759],[28.0294,62.29755],[28.03001,62.29752],[28.03147,62.29747],[28.03211,62.29745],[28.03346,62.2974],[28.03526,62.29734],[28.03636,62.2973],[28.03715,62.29727],[28.03753,62.29726],[28.03866,62.29722],[28.03967,62.29718],[28.04062,62.29714],[28.04179,62.2971],[28.04297,62.29706],[28.04517,62.29698],[28.04723,62.29691],[28.04815,62.29688],[28.04911,62.29685],[28.04981,62.29684],[28.05052,62.29684],[28.05142,62.29685],[28.05232,62.29688],[28.05312,62.29691],[28.05444,62.29699],[28.05567,62.29708],[28.05626,62.29714],[28.05674,62.29719],[28.05701,62.29722],[28.05833,62.29738],[28.0592,62.29751],[28.06035,62.29769],[28.0613,62.29785],[28.06224,62.29801],[28.06317,62.29817],[28.06441,62.2984],[28.06531,62.29859],[28.06623,62.2988],[28.0671,62.29902],[28.06772,62.29918],[28.06839,62.29937],[28.0693,62.29965],[28.07027,62.29995],[28.07127,62.30026],[28.07206,62.3005],[28.07265,62.30069],[28.07321,62.30086],[28.07358,62.30097],[28.07432,62.3012],[28.07513,62.30145],[28.07598,62.30171],[28.07678,62.30196],[28.07754,62.30219],[28.07826,62.30241],[28.0789,62.30261],[28.07932,62.30274],[28.07986,62.30291],[28.08028,62.30304],[28.0808,62.30321],[28.08121,62.30335],[28.08158,62.3035],[28.08191,62.30363],[28.08225,62.30378],[28.08257,62.30394],[28.08302,62.30417],[28.08335,62.30436],[28.08373,62.3046],[28.08402,62.30479],[28.08436,62.30505],[28.08462,62.30525],[28.08482,62.30544],[28.08503,62.30563],[28.08523,62.30584],[28.08576,62.3064],[28.08613,62.30679],[28.08648,62.30716],[28.08652,62.30719],[28.0869,62.30759],[28.08719,62.30789],[28.08747,62.30816],[28.08768,62.30834],[28.08794,62.30855],[28.08818,62.30872],[28.08856,62.30898],[28.08895,62.30921],[28.08922,62.30937],[28.08965,62.30959],[28.09008,62.30979],[28.09044,62.30995],[28.09096,62.31016],[28.0916,62.31039],[28.09222,62.31058],[28.09326,62.31091],[28.09417,62.31118],[28.09506,62.31146],[28.09588,62.31172],[28.09666,62.31196],[28.09734,62.31218],[28.098,62.31238],[28.09877,62.31262],[28.09946,62.31283],[28.10015,62.31304],[28.10044,62.31313],[28.10079,62.31324],[28.1013,62.31338],[28.10204,62.31356],[28.1024,62.31364],[28.10269,62.31369],[28.10322,62.31378],[28.1037,62.31386],[28.10452,62.31396],[28.10562,62.31411],[28.10717,62.31431],[28.11036,62.31473],[28.11196,62.31494],[28.11491,62.31533],[28.11701,62.31561],[28.11858,62.31581],[28.11867,62.31583],[28.11998,62.31601],[28.12104,62.31618],[28.12217,62.31639],[28.12322,62.31661],[28.12347,62.31666],[28.12363,62.3167],[28.12457,62.31693],[28.12582,62.31725],[28.12656,62.31746],[28.12806,62.31785],[28.12939,62.3182],[28.13045,62.31848],[28.13233,62.31898],[28.13542,62.31979],[28.13559,62.31984],[28.13701,62.32022],[28.1386,62.32063],[28.14042,62.32111],[28.14246,62.32165],[28.14447,62.32218],[28.14576,62.32253],[28.14772,62.32305],[28.14986,62.32361],[28.15161,62.32407],[28.15258,62.32429],[28.15306,62.3244],[28.15416,62.32462],[28.1547,62.32471],[28.15533,62.32481],[28.15675,62.32504],[28.15821,62.32524],[28.15965,62.3254],[28.1609,62.3255],[28.16262,62.3256],[28.16415,62.32568],[28.16564,62.32579],[28.16768,62.3259],[28.16919,62.32599],[28.17131,62.32611],[28.17131,62.32611],[28.17448,62.32631],[28.17767,62.3265],[28.17931,62.32661],[28.18098,62.3267],[28.18258,62.32679],[28.1837,62.32686],[28.18543,62.32695],[28.18744,62.32706],[28.18869,62.32715],[28.18997,62.32727],[28.19037,62.32732],[28.19126,62.32742],[28.19291,62.32768],[28.19419,62.32792],[28.19527,62.32817],[28.19682,62.32859],[28.19812,62.32902],[28.19925,62.32945],[28.20022,62.32984],[28.20105,62.33018],[28.20192,62.33053],[28.2042,62.33146],[28.20495,62.33176],[28.20616,62.33224],[28.20619,62.33226],[28.20841,62.33314],[28.20944,62.33358],[28.21054,62.33401],[28.21073,62.33408],[28.21147,62.33435],[28.21216,62.33459],[28.21327,62.33492],[28.21396,62.33511],[28.21472,62.33529],[28.21583,62.33552],[28.21694,62.33572],[28.21828,62.33594],[28.22001,62.33622],[28.22126,62.33642],[28.22262,62.33665],[28.22353,62.3368],[28.22458,62.33697],[28.22618,62.33723],[28.22765,62.33748],[28.23014,62.33789],[28.2315,62.33812],[28.23286,62.33833],[28.2344,62.33859],[28.23595,62.33884],[28.23739,62.33908],[28.23915,62.33937],[28.24078,62.33962],[28.24087,62.33964],[28.24433,62.34021],[28.24714,62.34057],[28.2486,62.34072],[28.2505,62.34083],[28.2513,62.34087],[28.252,62.3409],[28.25348,62.34092],[28.25507,62.34094],[28.25668,62.34094],[28.25801,62.34095],[28.25915,62.34097],[28.26005,62.34097],[28.26028,62.34097],[28.26215,62.34098],[28.26386,62.34099],[28.26511,62.34099],[28.26642,62.341],[28.26826,62.34102],[28.27098,62.34117],[28.27215,62.34126],[28.27342,62.3414],[28.27498,62.3416],[28.27672,62.34184],[28.27879,62.34213],[28.27911,62.34217],[28.28054,62.34237],[28.28191,62.34255],[28.28334,62.34273],[28.28457,62.34284],[28.28629,62.34298],[28.28753,62.34303],[28.28885,62.34309],[28.29032,62.34316],[28.29158,62.34321],[28.29313,62.34327],[28.29421,62.34332],[28.29529,62.34337],[28.29789,62.34348],[28.29803,62.34348],[28.29906,62.34353],[28.29932,62.34354],[28.30067,62.3436],[28.30378,62.34372],[28.30566,62.34381],[28.30745,62.34388],[28.30872,62.34393],[28.30968,62.34398],[28.31046,62.34403],[28.3111,62.34408],[28.3116,62.34412],[28.31229,62.3442],[28.31303,62.34429],[28.31356,62.34436],[28.31409,62.34444],[28.31487,62.34457],[28.31538,62.34467],[28.316,62.3448],[28.31674,62.34496],[28.31681,62.34498],[28.31753,62.34516],[28.3182,62.34533],[28.319,62.34556],[28.3198,62.34579],[28.32191,62.34641],[28.32345,62.34686],[28.32517,62.34736],[28.32577,62.34754],[28.32647,62.34774],[28.32702,62.34791],[28.32775,62.34811],[28.32831,62.34827],[28.32919,62.34853],[28.32997,62.34876],[28.33024,62.34884],[28.33058,62.34894],[28.33119,62.34912],[28.33171,62.34927],[28.33231,62.34944],[28.33321,62.34971],[28.33396,62.34993],[28.33468,62.35014],[28.33549,62.35037],[28.33631,62.35058],[28.33709,62.35078],[28.33784,62.35095],[28.33859,62.35111],[28.33941,62.35128],[28.34031,62.35144],[28.34112,62.35159],[28.34192,62.35173],[28.34266,62.35187],[28.34326,62.35198],[28.34386,62.35208],[28.34455,62.3522],[28.34555,62.35238],[28.34709,62.35266],[28.34814,62.35285],[28.34835,62.35289],[28.34932,62.35306],[28.35057,62.35329],[28.35081,62.35333],[28.35189,62.35352],[28.35317,62.35375],[28.35564,62.3542],[28.35675,62.3544],[28.35758,62.35455],[28.35858,62.35473],[28.35947,62.35489],[28.35989,62.35496],[28.36028,62.35503],[28.36118,62.3552],[28.3621,62.35536],[28.36304,62.35553],[28.36418,62.35574],[28.36529,62.35594],[28.36629,62.35612],[28.3663,62.35612],[28.36749,62.35634],[28.36851,62.35652],[28.36881,62.35657],[28.36974,62.35674],[28.37184,62.35712],[28.37282,62.35729],[28.37381,62.35747],[28.37484,62.35763],[28.37566,62.35773],[28.3765,62.3578],[28.37761,62.35785],[28.37829,62.35786],[28.37905,62.35786],[28.37978,62.35784],[28.38066,62.35778],[28.38137,62.35772],[28.38207,62.35765],[28.38309,62.35753],[28.38389,62.35745],[28.38513,62.35734],[28.38604,62.35729],[28.38708,62.35724],[28.38754,62.35724],[28.38795,62.35723],[28.38885,62.35722],[28.3898,62.35723],[28.391,62.35724],[28.3921,62.35725],[28.39318,62.35725],[28.39411,62.35726],[28.39502,62.35727],[28.39577,62.35727],[28.39652,62.35728],[28.39716,62.35729],[28.39778,62.35731],[28.39849,62.35735],[28.39916,62.3574],[28.39999,62.35749],[28.4004,62.35755],[28.40086,62.35762],[28.40136,62.3577],[28.40166,62.35776],[28.40231,62.35789],[28.40458,62.35832],[28.40525,62.35845],[28.40619,62.35863],[28.40655,62.3587],[28.40718,62.35882],[28.40839,62.35905],[28.4097,62.3593],[28.411,62.35955],[28.41199,62.35975],[28.41297,62.35993],[28.41403,62.36011],[28.41502,62.36028],[28.41725,62.36062],[28.4186,62.36084],[28.42031,62.36111],[28.42148,62.36129],[28.42307,62.36155],[28.42484,62.36188],[28.42518,62.36195],[28.42671,62.36229],[28.429,62.36283],[28.43161,62.36343],[28.43418,62.36403],[28.43549,62.36435],[28.43706,62.3647],[28.43885,62.36513],[28.4401,62.36541],[28.44206,62.36587],[28.44278,62.36605],[28.44423,62.36637],[28.44524,62.3666],[28.44557,62.36666],[28.44655,62.36684],[28.44783,62.36705],[28.44948,62.36728],[28.45136,62.36755],[28.45279,62.36775],[28.45463,62.368],[28.45637,62.36824],[28.45795,62.36847],[28.45956,62.3687],[28.45983,62.36873],[28.4602,62.36879],[28.46103,62.36891],[28.46216,62.36906],[28.46321,62.3692],[28.46441,62.36937],[28.46555,62.36952],[28.467,62.36973],[28.46818,62.3699],[28.46928,62.37006],[28.47075,62.37026],[28.47174,62.37039],[28.47302,62.37057],[28.47574,62.37096],[28.47862,62.37138],[28.47881,62.3714],[28.47973,62.37157],[28.48072,62.37177],[28.48161,62.37198],[28.4827,62.37225],[28.48396,62.37255],[28.48483,62.37276],[28.48569,62.37297],[28.48663,62.3732],[28.48764,62.37345],[28.48851,62.37367],[28.48966,62.37395],[28.49044,62.37411],[28.49136,62.37427],[28.49215,62.37438],[28.4932,62.37447],[28.49395,62.37453],[28.49485,62.37456],[28.4954,62.37457],[28.496,62.37457],[28.49643,62.37456],[28.49669,62.37455],[28.49677,62.37455],[28.49679,62.37455],[28.49739,62.37451],[28.49817,62.37445],[28.49889,62.37438],[28.4995,62.3743],[28.50023,62.3742],[28.50077,62.37411],[28.50143,62.37401],[28.50213,62.37391],[28.50287,62.3738],[28.5036,62.37368],[28.50433,62.37357],[28.50498,62.37348],[28.50562,62.37339],[28.50647,62.37334],[28.50731,62.3733],[28.50811,62.37331],[28.50897,62.37337],[28.50967,62.37342],[28.51039,62.37351],[28.5112,62.37366],[28.51206,62.37384],[28.51267,62.374],[28.51326,62.37419],[28.51377,62.37437],[28.5143,62.37459],[28.51431,62.37459],[28.51477,62.37478],[28.51566,62.37514],[28.5164,62.37545],[28.51724,62.37579],[28.51814,62.37617],[28.51932,62.37664],[28.52043,62.37711],[28.5213,62.37748],[28.52181,62.3777],[28.52222,62.37787],[28.52363,62.37847],[28.52475,62.37893],[28.52542,62.37917],[28.52609,62.37938],[28.52678,62.37955],[28.52772,62.37974],[28.52843,62.37985],[28.52933,62.37995],[28.5298,62.37998],[28.53015,62.38001],[28.53093,62.38002],[28.53167,62.38001],[28.5326,62.37998],[28.53356,62.3799],[28.53378,62.37988],[28.53428,62.37984],[28.53471,62.37981],[28.53622,62.37968],[28.53784,62.37954],[28.5398,62.37937],[28.54152,62.37922],[28.54282,62.37911],[28.54339,62.37906],[28.54485,62.37894],[28.5459,62.37886],[28.54663,62.37881],[28.54741,62.37876],[28.54743,62.37876],[28.5484,62.37874],[28.54879,62.37874],[28.54908,62.37875],[28.54988,62.37877],[28.5506,62.37882],[28.55121,62.37887],[28.55223,62.37897],[28.55357,62.37919],[28.55463,62.37942],[28.55551,62.37965],[28.55624,62.37987],[28.55712,62.38018],[28.5579,62.3805],[28.55871,62.3809],[28.55937,62.38124],[28.56003,62.38157],[28.56059,62.38185],[28.56144,62.38223],[28.5623,62.38254],[28.56315,62.3828],[28.56423,62.38308],[28.56508,62.38325],[28.56511,62.38325],[28.56617,62.38344],[28.56723,62.38357],[28.56826,62.38366],[28.56924,62.38371],[28.56992,62.38373],[28.57079,62.38372],[28.57193,62.38367],[28.57294,62.38361],[28.5739,62.3835],[28.5749,62.38334],[28.57605,62.38312],[28.57708,62.38287],[28.57784,62.38265],[28.5786,62.38241],[28.57941,62.38215],[28.58016,62.38195],[28.5808,62.3818],[28.58161,62.38164],[28.58231,62.38153],[28.58254,62.3815],[28.58285,62.38146],[28.58309,62.38143],[28.58381,62.38136],[28.58464,62.38129],[28.58569,62.38124],[28.58639,62.38123],[28.58728,62.38124],[28.58845,62.38127],[28.5894,62.3813],[28.59048,62.38134],[28.59136,62.38137],[28.59244,62.38141],[28.59356,62.38144],[28.59461,62.38148],[28.59587,62.38152],[28.59719,62.38156],[28.59887,62.38162],[28.60027,62.38167],[28.6013,62.3817],[28.60153,62.38171],[28.60168,62.38171],[28.60222,62.38173],[28.60309,62.38176],[28.6041,62.3818],[28.60595,62.38186],[28.60747,62.38191],[28.60909,62.38196],[28.61086,62.38201],[28.61174,62.38201],[28.61269,62.382],[28.61376,62.38197],[28.61478,62.38192],[28.61553,62.38188],[28.6166,62.38181],[28.61744,62.38175],[28.61816,62.38171],[28.61896,62.38167],[28.61993,62.38165],[28.62125,62.38165],[28.62156,62.38165],[28.62219,62.38165],[28.62311,62.38165],[28.62419,62.38165],[28.62515,62.38165],[28.62621,62.38165],[28.62695,62.38165],[28.6273,62.38165],[28.62847,62.38165],[28.62954,62.38166],[28.63038,62.38167],[28.63114,62.38168],[28.63215,62.38173],[28.63306,62.38177],[28.63447,62.38187],[28.63574,62.38196],[28.63586,62.38197],[28.63637,62.38201],[28.63739,62.38209],[28.63864,62.38219],[28.63981,62.38228],[28.64081,62.38235],[28.64139,62.3824],[28.6419,62.38243],[28.64221,62.38245],[28.64316,62.38252],[28.64357,62.38256],[28.64357,62.38256],[28.64389,62.38258],[28.64422,62.38261],[28.64551,62.3827],[28.64672,62.38279],[28.64777,62.38287],[28.64882,62.38295],[28.6497,62.38302],[28.64981,62.38303],[28.64983,62.38303],[28.65031,62.38307],[28.65091,62.38311],[28.65205,62.3832],[28.65316,62.38329],[28.65424,62.38336],[28.65537,62.38345],[28.65619,62.38351],[28.65689,62.38353],[28.65779,62.38354],[28.65859,62.38352],[28.65946,62.38346],[28.65996,62.38342],[28.66011,62.3834],[28.66092,62.3833],[28.66154,62.38321],[28.66218,62.38309],[28.66289,62.38293],[28.66361,62.38274],[28.66423,62.38257],[28.66495,62.38235],[28.66553,62.38218],[28.66615,62.38201],[28.66701,62.3818],[28.66764,62.38167],[28.66854,62.38153],[28.66953,62.38141],[28.67036,62.38135],[28.67134,62.38131],[28.67238,62.3813],[28.67335,62.38134],[28.67436,62.38142],[28.67544,62.38155],[28.67603,62.38164],[28.67664,62.38175],[28.67719,62.38188],[28.67795,62.38208],[28.67796,62.38208],[28.6789,62.38235],[28.67996,62.38266],[28.68222,62.38333],[28.68349,62.38372],[28.68455,62.38403],[28.68559,62.38434],[28.68659,62.38463],[28.68736,62.38486],[28.68789,62.385],[28.68842,62.38512],[28.68871,62.38519],[28.68928,62.38532],[28.68989,62.38544],[28.69047,62.38554],[28.6909,62.38561],[28.69142,62.38568],[28.69191,62.38575],[28.69256,62.38583],[28.69319,62.3859],[28.69393,62.38596],[28.69464,62.38601],[28.69515,62.38604],[28.69552,62.38606],[28.69631,62.3861],[28.69686,62.38614],[28.69743,62.38619],[28.69812,62.38627],[28.69874,62.38634],[28.69932,62.38644],[28.69974,62.3865],[28.69996,62.38654],[28.70077,62.3867],[28.70148,62.38687],[28.70209,62.38702],[28.70286,62.38725],[28.70356,62.38748],[28.70424,62.38773],[28.70496,62.38803],[28.70551,62.38827],[28.70599,62.38848],[28.70619,62.38857],[28.70648,62.3887],[28.70695,62.3889],[28.70735,62.38907],[28.70767,62.38921],[28.70786,62.38929],[28.70842,62.38953],[28.70916,62.38983],[28.71004,62.39014],[28.71099,62.39044],[28.71118,62.39049],[28.71169,62.39064],[28.71241,62.39082],[28.71316,62.391],[28.71398,62.39117],[28.71493,62.39135],[28.71587,62.3915],[28.71697,62.39164],[28.71825,62.39176],[28.71922,62.39185],[28.72028,62.39194],[28.72159,62.39205],[28.7231,62.39218],[28.72423,62.39228],[28.72584,62.39241],[28.72695,62.39247],[28.72773,62.3925],[28.72876,62.39252],[28.72966,62.39251],[28.72997,62.3925],[28.7305,62.3925],[28.73132,62.39248],[28.73238,62.39247],[28.73339,62.39244],[28.73419,62.39243],[28.73507,62.39241],[28.73587,62.3924],[28.73679,62.39239],[28.73785,62.39236],[28.73966,62.39234],[28.74014,62.39233],[28.74097,62.39232],[28.74244,62.39228],[28.74353,62.39227],[28.74529,62.39224],[28.74699,62.39221],[28.74862,62.39217],[28.74905,62.39217],[28.74926,62.39216],[28.74971,62.39216],[28.75151,62.39213],[28.75277,62.39208],[28.75333,62.39205],[28.75406,62.392],[28.75485,62.39191],[28.75569,62.3918],[28.75648,62.3917],[28.75748,62.39154],[28.75835,62.39139],[28.75913,62.39128],[28.75996,62.39115],[28.76087,62.39105],[28.76189,62.39095],[28.76276,62.39086],[28.76286,62.39085],[28.76372,62.39074],[28.76478,62.39059],[28.76616,62.39037],[28.76801,62.3901],[28.7681,62.39008],[28.76968,62.38983],[28.77079,62.38965],[28.77272,62.38936],[28.77446,62.38909],[28.77586,62.38887],[28.77656,62.38874],[28.77738,62.38857],[28.77834,62.38833],[28.77954,62.38803],[28.78059,62.38775],[28.78178,62.38746],[28.78272,62.38721],[28.7836,62.38694],[28.7847,62.38659],[28.78557,62.38632],[28.78564,62.3863],[28.78643,62.3861],[28.78727,62.38592],[28.78799,62.38579],[28.78887,62.38567],[28.79003,62.38557],[28.7916,62.38551],[28.7917,62.38551],[28.79321,62.38556],[28.79453,62.38568],[28.79571,62.38585],[28.79581,62.38586],[28.79708,62.38607],[28.79868,62.38637],[28.80036,62.38666],[28.80178,62.38691],[28.80317,62.38711],[28.80383,62.38719],[28.80468,62.38728],[28.80637,62.38737],[28.80769,62.38738],[28.80926,62.38733],[28.81077,62.3872],[28.81215,62.38704],[28.81356,62.38683],[28.81541,62.38654],[28.81787,62.38619],[28.81981,62.38593],[28.82084,62.38584],[28.82208,62.38577],[28.82265,62.38576],[28.82344,62.38574],[28.82499,62.38572],[28.82692,62.3857],[28.82839,62.38566],[28.82997,62.38556],[28.83145,62.38539],[28.83292,62.38514],[28.83416,62.38488],[28.83542,62.38454],[28.83643,62.3842],[28.83714,62.38394],[28.83749,62.38379],[28.83817,62.38348],[28.83907,62.38306],[28.83969,62.38272],[28.83992,62.3826],[28.84099,62.38206],[28.84223,62.38143],[28.84392,62.38056],[28.84422,62.38038],[28.84509,62.37995],[28.84594,62.37952],[28.84691,62.37901],[28.84771,62.3786],[28.8478,62.37855],[28.84839,62.37825],[28.8487,62.3781],[28.84905,62.37793],[28.84985,62.37752],[28.85041,62.37723],[28.85102,62.37693],[28.85165,62.37661],[28.85245,62.37626],[28.85311,62.376],[28.8532,62.37596],[28.85416,62.37563],[28.85522,62.37532],[28.85618,62.37507],[28.85707,62.37485],[28.85795,62.37463],[28.85889,62.3744],[28.85997,62.37412],[28.86102,62.37386],[28.86207,62.37359],[28.86312,62.37334],[28.86377,62.37316],[28.86469,62.37294],[28.86553,62.37272],[28.86625,62.37254],[28.8669,62.37238],[28.86748,62.37223],[28.86807,62.37209],[28.86881,62.37191],[28.86943,62.3718],[28.8699,62.37172],[28.87037,62.37164],[28.87109,62.37156],[28.8717,62.37149],[28.87257,62.37145],[28.87362,62.3714],[28.87501,62.37135],[28.87557,62.37134],[28.8764,62.37131],[28.8776,62.37126],[28.87863,62.37119],[28.87978,62.37109],[28.88153,62.37091],[28.88313,62.37072],[28.88704,62.37026],[28.88871,62.37007],[28.88892,62.37004],[28.89169,62.36972],[28.89412,62.36943],[28.89636,62.36916],[28.89864,62.36889],[28.90074,62.36865],[28.90194,62.36851],[28.90622,62.368],[28.90747,62.36785],[28.90774,62.36782],[28.90897,62.36768],[28.91001,62.36757],[28.91116,62.3675],[28.9123,62.36747],[28.91336,62.36749],[28.91462,62.36754],[28.91556,62.36761],[28.91669,62.36774],[28.91749,62.36785],[28.91828,62.36799],[28.91907,62.36814],[28.91999,62.36836],[28.92148,62.36875],[28.92268,62.36906],[28.92365,62.3693],[28.9245,62.36947],[28.92533,62.36961],[28.92569,62.36966],[28.92604,62.36971],[28.92721,62.36983],[28.92815,62.36988],[28.92924,62.36991],[28.93019,62.3699],[28.93109,62.36987],[28.93223,62.36979],[28.93355,62.36966],[28.9343,62.3696],[28.93496,62.36955],[28.93614,62.36946],[28.93776,62.36933],[28.93938,62.36919],[28.94118,62.36905],[28.94223,62.36897],[28.94388,62.36884],[28.94481,62.36877],[28.94538,62.36872],[28.94645,62.36868],[28.94735,62.36868],[28.9484,62.3687],[28.94939,62.36877],[28.95073,62.36891],[28.95234,62.36912],[28.95388,62.36931],[28.95507,62.36943],[28.95621,62.36951],[28.95725,62.36954],[28.95822,62.36952],[28.95906,62.36949],[28.95972,62.36944],[28.96074,62.36935],[28.96255,62.36913],[28.96384,62.369],[28.96441,62.36894],[28.96563,62.3689],[28.96681,62.36889],[28.96812,62.36894],[28.96869,62.36897],[28.96967,62.36903],[28.97119,62.3691],[28.9727,62.3692],[28.97404,62.36936],[28.97514,62.36954],[28.97636,62.36982],[28.97742,62.37016],[28.97847,62.37055],[28.9793,62.37095],[28.98004,62.37139],[28.98087,62.37193],[28.98094,62.37198],[28.98181,62.37255],[28.9825,62.37294],[28.98276,62.37308],[28.9831,62.37325],[28.98411,62.37371],[28.98557,62.3743],[28.98693,62.37487],[28.98847,62.3755],[28.98971,62.37601],[28.99066,62.37636],[28.99161,62.37665],[28.99285,62.37694],[28.99402,62.37714],[28.99413,62.37715],[28.9951,62.37727],[28.99579,62.37733],[28.99599,62.37734],[28.99673,62.37738],[28.99755,62.3774],[28.99857,62.37737],[28.99956,62.37732],[29.00134,62.37718],[29.00454,62.37689],[29.00704,62.37667],[29.00906,62.37649],[29.01079,62.37641],[29.01231,62.37643],[29.01444,62.37653],[29.01487,62.37657],[29.01581,62.37667],[29.01741,62.3769],[29.01895,62.3772],[29.02048,62.37758],[29.02183,62.37799],[29.02239,62.3782],[29.02342,62.37858],[29.02346,62.3786],[29.02447,62.37896],[29.02614,62.37958],[29.02838,62.38041],[29.02935,62.38077],[29.0295,62.38083],[29.03053,62.38121],[29.03096,62.38137],[29.03112,62.38143],[29.03256,62.38198],[29.03283,62.38208],[29.03298,62.38213],[29.03373,62.38241],[29.03466,62.38275],[29.03487,62.38283],[29.03537,62.38301],[29.03601,62.38325],[29.03681,62.38354],[29.03793,62.38396],[29.03914,62.3844],[29.03973,62.38463],[29.04024,62.38484],[29.0412,62.38526],[29.04212,62.38572],[29.04257,62.38598],[29.04337,62.38648],[29.04372,62.38672],[29.04403,62.38696],[29.04438,62.38724],[29.04473,62.38754],[29.04474,62.38756],[29.04507,62.38787],[29.0451,62.38792],[29.04555,62.38841],[29.0458,62.38876],[29.04607,62.38918],[29.0461,62.38922],[29.04638,62.38978],[29.0464,62.38983],[29.04655,62.39024],[29.04657,62.39028],[29.04667,62.39066],[29.04673,62.39104],[29.04673,62.39108],[29.04678,62.3915],[29.04676,62.39192],[29.04668,62.39251],[29.04667,62.39255],[29.04656,62.39307],[29.04655,62.39312],[29.04645,62.39366],[29.04644,62.39371],[29.04633,62.39427],[29.04614,62.39526],[29.04604,62.39578],[29.04593,62.39634],[29.04591,62.39644],[29.04582,62.39689],[29.04582,62.39693],[29.04572,62.39745],[29.04562,62.3979],[29.04554,62.39834],[29.04549,62.39864],[29.04541,62.39902],[29.04534,62.39938],[29.04525,62.39981],[29.04519,62.40009],[29.0451,62.4004],[29.04498,62.40069],[29.04478,62.40105],[29.04459,62.40131],[29.04438,62.40157],[29.04407,62.40189],[29.0438,62.40214],[29.04345,62.40241],[29.04308,62.40267],[29.04265,62.40293],[29.04233,62.4031],[29.04195,62.40329],[29.04142,62.40353],[29.04081,62.40377],[29.04016,62.40399],[29.03965,62.40414],[29.0391,62.40428],[29.03895,62.40432],[29.03829,62.40447],[29.0377,62.4046],[29.03722,62.4047],[29.0367,62.40482],[29.03617,62.40495],[29.03557,62.40511],[29.03503,62.40527],[29.03458,62.40543],[29.03402,62.40564],[29.03354,62.40585],[29.03308,62.40607],[29.0325,62.40638],[29.03241,62.40643],[29.03188,62.40679],[29.03146,62.40712],[29.03071,62.40788],[29.03068,62.40793],[29.03049,62.40822],[29.03046,62.40827],[29.03027,62.40861],[29.03025,62.40866],[29.03015,62.409],[29.03011,62.40909],[29.02999,62.40941],[29.02998,62.40945],[29.02991,62.40979],[29.02987,62.40988],[29.02977,62.41024],[29.02976,62.41028],[29.02959,62.41087],[29.02958,62.41092],[29.02957,62.41098],[29.02949,62.41125],[29.02949,62.41127],[29.02948,62.4113],[29.02937,62.41169],[29.02936,62.41173],[29.02926,62.41215],[29.02911,62.41258],[29.02893,62.41298],[29.0289,62.41303],[29.02862,62.41345],[29.02845,62.41372],[29.0284,62.41376],[29.02818,62.41402],[29.02814,62.41407],[29.02786,62.41435],[29.02782,62.4144],[29.02746,62.4148],[29.02707,62.41521],[29.02671,62.41561],[29.02664,62.41572],[29.02646,62.41594],[29.02628,62.41617],[29.02626,62.41622],[29.02615,62.41647],[29.02612,62.41651],[29.02602,62.41675],[29.02599,62.41685],[29.02589,62.41712],[29.02582,62.41752],[29.02581,62.41756],[29.02573,62.41806],[29.02563,62.4187],[29.02558,62.41908],[29.02558,62.41913],[29.0255,62.41963],[29.02549,62.41972],[29.02547,62.41991],[29.02544,62.42011],[29.02544,62.42016],[29.02533,62.42068],[29.02529,62.42113],[29.02528,62.42118],[29.02527,62.42122],[29.02526,62.42147],[29.02524,62.42156],[29.02518,62.42211],[29.02513,62.42244],[29.02513,62.42253],[29.02513,62.4228],[29.02514,62.4229],[29.02516,62.42321],[29.02518,62.42364],[29.02519,62.42373],[29.02519,62.42378],[29.02521,62.42416],[29.02522,62.42431],[29.02526,62.4247],[29.02526,62.42474],[29.02529,62.42518],[29.02534,62.42576],[29.02535,62.42586],[29.02538,62.42628],[29.0254,62.42665],[29.02541,62.42679],[29.02543,62.42698],[29.02545,62.42723],[29.02557,62.42874],[29.02561,62.42919],[29.02574,62.43057],[29.02579,62.43113],[29.0259,62.43203],[29.02592,62.43283],[29.026,62.43491],[29.02603,62.43551],[29.02603,62.43554],[29.02605,62.43581],[29.02607,62.43615],[29.02608,62.43636],[29.02612,62.43656],[29.02619,62.43683],[29.02629,62.43702],[29.02636,62.43716],[29.0265,62.43738],[29.02655,62.43746],[29.02663,62.43757],[29.02678,62.43783],[29.02698,62.4382],[29.02726,62.43867],[29.02788,62.43972],[29.02809,62.44006],[29.02839,62.44053],[29.0286,62.44087],[29.02871,62.44105],[29.02912,62.44169],[29.02939,62.44213],[29.02966,62.44258],[29.03005,62.44319],[29.03046,62.44383],[29.03084,62.44445],[29.03134,62.44523],[29.03169,62.4458],[29.0323,62.44675],[29.03257,62.44719],[29.03289,62.4477],[29.03318,62.44815],[29.03347,62.44861],[29.03412,62.44965],[29.03476,62.45067],[29.03503,62.4511],[29.03541,62.4517],[29.03565,62.4521],[29.03586,62.45243],[29.03604,62.45269],[29.03625,62.45303],[29.03639,62.45326],[29.03652,62.45347],[29.0368,62.4539],[29.03702,62.45425],[29.03721,62.45456],[29.03743,62.45491],[29.03756,62.45512],[29.03773,62.45539],[29.03793,62.45571],[29.03815,62.45605],[29.03835,62.45639],[29.03854,62.4567],[29.03892,62.4573],[29.03912,62.45762],[29.03936,62.458],[29.03962,62.4584],[29.03983,62.45873],[29.04009,62.45916],[29.04034,62.45955],[29.04081,62.46031],[29.04107,62.46072],[29.04135,62.46115],[29.04155,62.46148],[29.04177,62.46183],[29.04204,62.46227],[29.04224,62.46261],[29.04242,62.46296],[29.04252,62.46328],[29.04258,62.46354],[29.0426,62.46363],[29.04262,62.46382],[29.04264,62.46407],[29.04263,62.46436],[29.04258,62.46466],[29.04245,62.46511],[29.04232,62.46546],[29.04213,62.46583],[29.04196,62.46612],[29.04182,62.46636],[29.04164,62.46668],[29.04141,62.46707],[29.04121,62.46742],[29.04063,62.46845],[29.04002,62.46951],[29.03978,62.46992],[29.03953,62.47038],[29.03928,62.47081],[29.03905,62.47119],[29.0388,62.47165],[29.03874,62.47175],[29.03848,62.4722],[29.03826,62.47257],[29.03817,62.47272],[29.03793,62.47315],[29.03772,62.47353],[29.03746,62.47397],[29.03722,62.47439],[29.03696,62.47486],[29.03682,62.47514],[29.03667,62.4755],[29.0366,62.47581],[29.03655,62.47609],[29.03653,62.47639],[29.03653,62.47644],[29.03654,62.47681],[29.0366,62.47709],[29.03669,62.4774],[29.03671,62.47744],[29.03684,62.47775],[29.03686,62.47779],[29.03699,62.47804],[29.03702,62.47809],[29.03719,62.47834],[29.03724,62.47839],[29.03745,62.4787],[29.03748,62.47875],[29.03769,62.47901],[29.03774,62.47906],[29.038,62.47942],[29.03803,62.47947],[29.0382,62.47973],[29.03852,62.48009],[29.03855,62.48014],[29.03883,62.48048],[29.03887,62.48053],[29.03908,62.48082],[29.03912,62.48086],[29.03942,62.48123],[29.03951,62.48135],[29.03973,62.48165],[29.04007,62.4821],[29.04041,62.48251],[29.0408,62.48303],[29.04084,62.48308],[29.04114,62.48348],[29.04117,62.48352],[29.04159,62.48408],[29.04195,62.48452],[29.04222,62.48487],[29.04254,62.4853],[29.04287,62.48571],[29.04291,62.48576],[29.04319,62.48614],[29.04323,62.48619],[29.04349,62.48652],[29.0437,62.48684],[29.04388,62.48716],[29.0439,62.4872],[29.04398,62.48738],[29.04407,62.48764],[29.04413,62.48784],[29.04417,62.48816],[29.04418,62.4884],[29.04415,62.48873],[29.04407,62.48908],[29.04397,62.48936],[29.04386,62.48961],[29.04371,62.48985],[29.04365,62.48996],[29.04345,62.49022],[29.04314,62.49057],[29.04289,62.49083],[29.04262,62.49111],[29.04229,62.49144],[29.04171,62.49202],[29.04139,62.49234],[29.04113,62.4926],[29.04077,62.49297],[29.04044,62.49332],[29.04019,62.49363],[29.03995,62.49398],[29.03979,62.49429],[29.0397,62.49451],[29.03961,62.49482],[29.03956,62.49513],[29.03955,62.49549],[29.03957,62.49571],[29.03962,62.49597],[29.03969,62.4962],[29.03971,62.49627],[29.03975,62.49636],[29.0398,62.49648],[29.03991,62.49673],[29.04003,62.49697],[29.04017,62.49722],[29.04038,62.49763],[29.04062,62.4981],[29.04077,62.49839],[29.04104,62.49892],[29.04204,62.50087],[29.0426,62.50197],[29.04317,62.50307],[29.0433,62.50333],[29.04351,62.50375],[29.04369,62.50408],[29.04378,62.50427],[29.04383,62.50436],[29.04395,62.5046],[29.04412,62.50495],[29.04426,62.50531],[29.04436,62.50562],[29.04442,62.50599],[29.04444,62.50632],[29.0444,62.50676],[29.04432,62.50716],[29.0443,62.50723],[29.0442,62.50764],[29.04412,62.50796],[29.04398,62.50845],[29.04375,62.50932],[29.04351,62.5103],[29.04323,62.51126],[29.04311,62.51173],[29.04303,62.51224],[29.04298,62.51272],[29.04298,62.51324],[29.04298,62.51329],[29.04303,62.51378],[29.04303,62.51382],[29.04308,62.51416],[29.04309,62.5142],[29.0432,62.5147],[29.04335,62.51525],[29.04337,62.5153],[29.0435,62.51574],[29.04352,62.51579],[29.0436,62.51608],[29.04368,62.51633],[29.04373,62.51647],[29.04379,62.51665],[29.04384,62.51682],[29.0441,62.51765],[29.04438,62.51854],[29.04439,62.51858],[29.04456,62.51909],[29.04471,62.51958],[29.04499,62.52026],[29.04501,62.52031],[29.0453,62.52087],[29.04567,62.52151],[29.04621,62.52222],[29.04661,62.52271],[29.04663,62.52275],[29.04724,62.52335],[29.04807,62.52416],[29.04858,62.52465],[29.04909,62.52516],[29.04985,62.52588],[29.05055,62.52656],[29.05128,62.52728],[29.05204,62.52801],[29.0523,62.52826],[29.05248,62.52844],[29.05259,62.52854],[29.05534,62.5312],[29.05697,62.53278],[29.05863,62.53438],[29.05885,62.5346],[29.06023,62.53594],[29.06027,62.53598],[29.06132,62.53701],[29.06138,62.53706],[29.06249,62.53813],[29.06253,62.53818],[29.06339,62.53899],[29.06412,62.53972],[29.06483,62.54034],[29.0654,62.54081],[29.06548,62.54087],[29.06614,62.54134],[29.06699,62.5419],[29.0677,62.54236],[29.06869,62.543],[29.06901,62.54319],[29.07028,62.54401],[29.07185,62.54502],[29.0735,62.54608],[29.07355,62.54611],[29.07449,62.54672],[29.07586,62.54759],[29.0764,62.54796],[29.07682,62.54823],[29.07725,62.5485],[29.07776,62.54884],[29.07945,62.54993],[29.08055,62.55063],[29.08078,62.55079],[29.0812,62.55105],[29.08151,62.55123],[29.08185,62.55141],[29.08236,62.55166],[29.08306,62.55196],[29.0838,62.55223],[29.08458,62.55248],[29.08547,62.55272],[29.0864,62.55293],[29.08748,62.55313],[29.08886,62.55338],[29.09028,62.55363],[29.09041,62.55365],[29.09102,62.55375],[29.09149,62.55384],[29.0916,62.55385],[29.09305,62.55411],[29.09435,62.55434],[29.09594,62.55462],[29.09769,62.55492],[29.09947,62.55523],[29.10074,62.55545],[29.10249,62.55576],[29.10356,62.55595],[29.10526,62.55624],[29.10674,62.5565],[29.1091,62.55691],[29.10971,62.55702],[29.11229,62.55747],[29.11234,62.55747],[29.11531,62.558],[29.11789,62.55846],[29.11903,62.55868],[29.11987,62.55886],[29.12102,62.55914],[29.12191,62.55939],[29.12195,62.5594],[29.12294,62.55971],[29.1236,62.55994],[29.12428,62.5602],[29.12483,62.56042],[29.125,62.56049],[29.12582,62.56087],[29.12654,62.56124],[29.1266,62.56127],[29.12749,62.56178],[29.12793,62.56206],[29.12818,62.56223],[29.12867,62.5626],[29.12925,62.56307],[29.12979,62.56358],[29.13041,62.56428],[29.13096,62.56508],[29.1314,62.56601],[29.13162,62.56678],[29.13172,62.5678],[29.13174,62.56888],[29.13177,62.56963],[29.13178,62.56987],[29.13178,62.57066],[29.13181,62.57168],[29.13182,62.5721],[29.13182,62.57217],[29.13185,62.57308],[29.13191,62.57352],[29.13207,62.57396],[29.13226,62.57438],[29.1325,62.57486],[29.13278,62.57538],[29.13324,62.57623],[29.13444,62.57842],[29.13454,62.5786],[29.13509,62.57962],[29.13573,62.58077],[29.13611,62.58147],[29.13644,62.58211],[29.13663,62.58245],[29.13709,62.58328],[29.13751,62.58406],[29.13809,62.58511],[29.13857,62.58599],[29.13907,62.5869],[29.13917,62.58708],[29.13961,62.58791],[29.14027,62.58912],[29.14095,62.59034],[29.14098,62.5904],[29.14137,62.59111],[29.14164,62.59162],[29.14199,62.59227],[29.14252,62.59323],[29.14301,62.59413],[29.14348,62.59499],[29.14359,62.5952],[29.14377,62.5955],[29.14387,62.5957],[29.14395,62.59585],[29.14414,62.59619],[29.14427,62.59642],[29.14448,62.5968],[29.14468,62.59717],[29.14488,62.59755],[29.1455,62.59868],[29.14574,62.59912],[29.14597,62.59954],[29.14613,62.59984],[29.14675,62.60097],[29.14699,62.6014],[29.14716,62.60172],[29.14738,62.60212],[29.1476,62.60253],[29.14778,62.60285],[29.14799,62.60323],[29.14828,62.60375],[29.14858,62.60432],[29.14861,62.60438],[29.14876,62.60464],[29.1489,62.6049],[29.14901,62.60508],[29.14916,62.60537],[29.14938,62.60575],[29.14963,62.60617],[29.14989,62.60656],[29.15013,62.60688],[29.15028,62.60707],[29.15029,62.60708],[29.15056,62.60739],[29.15088,62.60775],[29.15139,62.6083],[29.15179,62.60871],[29.15214,62.60909],[29.15246,62.60943],[29.15277,62.60976],[29.15304,62.61005],[29.15315,62.61016],[29.15347,62.6105],[29.15372,62.61077],[29.15406,62.61112],[29.15447,62.61156],[29.15478,62.61189],[29.15534,62.61249],[29.15559,62.61275],[29.15627,62.61347],[29.15712,62.61438],[29.15739,62.61466],[29.15757,62.61486],[29.15774,62.61503],[29.15814,62.61546],[29.15855,62.61589],[29.1589,62.61625],[29.15933,62.61668],[29.15976,62.61708],[29.1603,62.61752],[29.16074,62.61786],[29.16114,62.61815],[29.16158,62.61844],[29.16192,62.61865],[29.16268,62.61913],[29.16323,62.61948],[29.16424,62.62014],[29.1649,62.62061],[29.16495,62.62065],[29.16562,62.62118],[29.1662,62.62171],[29.16691,62.6224],[29.16808,62.62358],[29.16919,62.6247],[29.17061,62.62614],[29.1715,62.62703],[29.17268,62.62822],[29.17322,62.62875],[29.17371,62.62923],[29.17453,62.63006],[29.17552,62.63107],[29.17644,62.632],[29.17745,62.633],[29.17865,62.63422],[29.17896,62.63453],[29.18009,62.63569],[29.18124,62.63687],[29.18183,62.63748],[29.18253,62.63813],[29.18342,62.63903],[29.1842,62.63982],[29.18475,62.64037],[29.18543,62.64105],[29.18613,62.64174],[29.1863,62.64192],[29.18648,62.6421],[29.18688,62.64247],[29.18736,62.64286],[29.18795,62.64327],[29.18865,62.64369],[29.1893,62.64403],[29.19024,62.64445],[29.19071,62.64462],[29.19121,62.64481],[29.19156,62.64493],[29.19251,62.64523],[29.19369,62.64553],[29.19512,62.64581],[29.19692,62.64607],[29.1988,62.64629],[29.20043,62.64647],[29.20144,62.64658],[29.20155,62.64658],[29.2037,62.64682],[29.20554,62.64702],[29.20732,62.64721],[29.2081,62.64727],[29.20895,62.6473],[29.20908,62.64731],[29.21048,62.64733],[29.21172,62.64731],[29.21351,62.6472],[29.21369,62.64719],[29.21392,62.64717],[29.21447,62.64711],[29.2154,62.64699],[29.21605,62.6469],[29.21659,62.64681],[29.21687,62.64676],[29.21722,62.64669],[29.21773,62.64659],[29.21808,62.64652],[29.21854,62.64641],[29.21877,62.64635],[29.22155,62.64583],[29.22252,62.64557],[29.2229,62.64547],[29.22349,62.64531],[29.22409,62.64514],[29.22467,62.64499],[29.22527,62.64483],[29.22581,62.64468],[29.22629,62.64456],[29.22677,62.64443],[29.2271,62.64434]]},"properties":{"name":"POKA VT15 Siilinjärvi-Viinijärvi-Rantasalmi","kind":"project","ptype":"rail","subtype":"Ratahanke","status":"kaynnissa","date":"2022–2025","url":"https://vayla.fi/hankkeet","source":"Väylävirasto"}},{"type":"Feature","geometry":{"type":"LineString","coordinates":[[27.68894,62.21006],[27.68914,62.21002],[27.68939,62.20997],[27.69005,62.20986],[27.69081,62.2097],[27.69144,62.20959],[27.69199,62.20949],[27.69262,62.20938],[27.69338,62.20924],[27.69403,62.20912],[27.69465,62.209],[27.6958,62.20879],[27.69582,62.20879],[27.69638,62.20869],[27.69638,62.20869],[27.6964,62.20868],[27.69727,62.2085],[27.69782,62.2084],[27.69887,62.20821],[27.69944,62.20811],[27.69988,62.20802],[27.70041,62.20792],[27.70093,62.20784],[27.70152,62.20775],[27.70207,62.20767],[27.7027,62.2076],[27.70335,62.20754],[27.70401,62.20748],[27.7047,62.20745],[27.70535,62.20744],[27.70597,62.20742],[27.70655,62.20741],[27.70721,62.2074],[27.70736,62.2074],[27.70781,62.20739],[27.70896,62.20736],[27.70957,62.20735],[27.71037,62.20734],[27.71102,62.20733],[27.7117,62.20732],[27.71234,62.20731],[27.71298,62.2073],[27.71363,62.20729],[27.71492,62.20726],[27.71583,62.20725],[27.7165,62.20723],[27.71717,62.20722],[27.71788,62.20721],[27.71853,62.2072],[27.71906,62.20719],[27.71974,62.20718],[27.72032,62.20717],[27.72102,62.20716],[27.72158,62.20715],[27.7222,62.20712],[27.7227,62.20709],[27.72328,62.20707],[27.72383,62.20703],[27.72414,62.20701],[27.72442,62.20699],[27.72484,62.20696],[27.72529,62.20692],[27.72579,62.20687],[27.72637,62.20681],[27.7265,62.20679],[27.72692,62.20674],[27.72746,62.20667],[27.72796,62.20661],[27.72847,62.20654],[27.72897,62.20646],[27.72948,62.20638],[27.73004,62.20628],[27.73059,62.20618],[27.73112,62.20607],[27.7316,62.20598],[27.73215,62.20586],[27.73267,62.20574],[27.73316,62.20562],[27.73373,62.20547],[27.73426,62.20534],[27.73471,62.20522],[27.73517,62.20509],[27.73553,62.205],[27.73572,62.20495],[27.73585,62.20491],[27.73615,62.20483],[27.73654,62.20473],[27.737,62.2046],[27.73746,62.20447],[27.7379,62.20436],[27.73837,62.20424],[27.73882,62.2041],[27.73929,62.20396],[27.73968,62.20384],[27.73971,62.20383],[27.74014,62.20369],[27.74062,62.20352],[27.74103,62.20338],[27.74145,62.20323],[27.74188,62.20306],[27.7423,62.2029],[27.74267,62.20275],[27.74307,62.20259],[27.74331,62.20249],[27.74345,62.20243],[27.74384,62.20225],[27.74422,62.20209],[27.74459,62.20194],[27.74499,62.20176],[27.7454,62.2016],[27.74579,62.20144],[27.74618,62.20127],[27.74657,62.20111],[27.747,62.20092],[27.74737,62.20077],[27.74764,62.20066],[27.74802,62.20051],[27.74839,62.20034],[27.74878,62.20019],[27.74905,62.20007],[27.74946,62.19988],[27.75046,62.19946],[27.75134,62.19909],[27.752,62.19882],[27.75211,62.19877],[27.75312,62.19835],[27.75515,62.1975],[27.75627,62.19702],[27.75685,62.19678],[27.75736,62.19656],[27.75753,62.19649],[27.758,62.19629],[27.75902,62.19586],[27.75958,62.19563],[27.76017,62.19538],[27.76071,62.19516],[27.76134,62.19489],[27.76187,62.19466],[27.76239,62.19444],[27.76299,62.1942],[27.76351,62.19398],[27.76403,62.19375],[27.76461,62.19351],[27.76499,62.19335],[27.76551,62.19312],[27.76662,62.19262],[27.76922,62.19157],[27.77174,62.19049],[27.77206,62.19035],[27.77386,62.18962],[27.7749,62.18914],[27.77593,62.18863],[27.77691,62.1881],[27.7778,62.18757],[27.7784,62.18721],[27.77854,62.18709],[27.78013,62.18616],[27.78129,62.18546],[27.7825,62.18474],[27.78363,62.18406],[27.78396,62.18388],[27.78428,62.18369],[27.78498,62.18327],[27.78639,62.18243],[27.78778,62.18165],[27.78912,62.18102],[27.79026,62.18059],[27.79182,62.18007],[27.79353,62.17953],[27.79556,62.17891],[27.79803,62.17812],[27.79886,62.17787],[27.80023,62.17744],[27.80231,62.17679],[27.80302,62.17657],[27.80314,62.17653],[27.80386,62.1763],[27.80398,62.17626],[27.80504,62.17593],[27.80623,62.17556],[27.80769,62.1751],[27.80846,62.17486],[27.81015,62.17433],[27.81224,62.17368],[27.81374,62.17321],[27.81431,62.17304],[27.81491,62.17286],[27.81498,62.17283],[27.81608,62.17246],[27.81709,62.17209],[27.81821,62.17162],[27.8194,62.17106],[27.82063,62.17048],[27.82198,62.16985],[27.82478,62.16852],[27.82736,62.16731],[27.82858,62.16673],[27.82964,62.16622],[27.83164,62.1653],[27.83306,62.16465],[27.83404,62.16416],[27.83569,62.16337],[27.83613,62.16318],[27.83787,62.16234],[27.8396,62.16152],[27.84195,62.16044],[27.84294,62.15998],[27.84639,62.15836],[27.84671,62.15821],[27.85033,62.15651],[27.85363,62.15495],[27.85531,62.15414],[27.85739,62.15314],[27.85986,62.15198],[27.86003,62.1519],[27.86147,62.1512],[27.86296,62.1505],[27.8651,62.14952],[27.86703,62.14872],[27.8694,62.14773],[27.87175,62.14674],[27.87283,62.14629],[27.87473,62.1455],[27.87618,62.14489],[27.87812,62.14408],[27.8799,62.14333],[27.88186,62.14234],[27.88336,62.14154],[27.88396,62.14123],[27.88614,62.14009],[27.8875,62.13937],[27.88916,62.1385],[27.89061,62.13773],[27.89242,62.13678],[27.89452,62.13568],[27.89616,62.13481],[27.89619,62.13479],[27.89781,62.13394],[27.90004,62.13277],[27.90215,62.13166],[27.90497,62.13018],[27.90662,62.1293],[27.9088,62.12816],[27.90885,62.12814],[27.9119,62.12653],[27.91387,62.12549],[27.91583,62.12454],[27.91793,62.12367],[27.92136,62.12227],[27.92151,62.12221],[27.9223,62.12189],[27.9234,62.12144],[27.9264,62.12022],[27.92876,62.11926],[27.93113,62.11829],[27.93381,62.1172],[27.93612,62.11627],[27.93668,62.11604],[27.93875,62.1152],[27.94055,62.11447],[27.94449,62.11286],[27.9459,62.11228],[27.94698,62.11185],[27.94873,62.11113],[27.95075,62.11031],[27.95122,62.11012],[27.95177,62.1099],[27.95315,62.10934],[27.95426,62.10889],[27.9544,62.10883],[27.95532,62.10848],[27.95642,62.10808],[27.95738,62.10771],[27.9584,62.10734],[27.96119,62.10631],[27.96298,62.10564],[27.96396,62.10527],[27.96498,62.1049],[27.96575,62.10461],[27.96619,62.10445],[27.96666,62.10427],[27.96772,62.10388],[27.96865,62.10354],[27.96963,62.10318],[27.97106,62.10264],[27.97472,62.10128],[27.97568,62.10093],[27.97693,62.10046],[27.97779,62.10015],[27.97904,62.09968],[27.98036,62.09919],[27.98128,62.09885],[27.98372,62.09795],[27.9853,62.09736],[27.98877,62.09607],[27.99039,62.09547],[27.9918,62.09494],[27.99368,62.09425],[27.99438,62.09398],[27.99545,62.09359],[27.99627,62.09328],[27.99685,62.09307],[27.99813,62.0926],[27.99976,62.09198],[28.00078,62.09161],[28.00173,62.09126],[28.00276,62.09086],[28.00362,62.09056],[28.00469,62.09025],[28.00546,62.09006],[28.00678,62.08977],[28.0103,62.08901],[28.01242,62.08856],[28.01243,62.08856],[28.01374,62.08829],[28.01514,62.088],[28.01647,62.08772],[28.01762,62.08748],[28.02029,62.0869],[28.0212,62.08666],[28.02227,62.08637],[28.02368,62.08598],[28.02496,62.08563],[28.02646,62.08523],[28.02783,62.08485],[28.02918,62.08448],[28.02942,62.08441],[28.03015,62.08421],[28.03143,62.08387],[28.0328,62.08348],[28.03393,62.08317],[28.03679,62.08239],[28.03788,62.08209],[28.04595,62.07988],[28.04651,62.07972],[28.04847,62.0792],[28.04915,62.07901],[28.05202,62.07822],[28.05793,62.0767],[28.05801,62.07668],[28.0595,62.07632],[28.06161,62.07578],[28.0626,62.07553],[28.06332,62.07535],[28.0662,62.07463],[28.06906,62.07392],[28.07052,62.07356],[28.07202,62.07319],[28.07314,62.07291],[28.07415,62.07265],[28.07512,62.0724],[28.07642,62.07207],[28.07742,62.07183],[28.07845,62.07157],[28.07956,62.07129],[28.07973,62.07125],[28.08105,62.07093],[28.08236,62.07061],[28.08355,62.0703],[28.08499,62.06994],[28.08641,62.06958],[28.08795,62.06919],[28.08914,62.0689],[28.09062,62.06853],[28.09293,62.06795],[28.09637,62.06709],[28.09726,62.06687],[28.09727,62.06687],[28.09912,62.06641],[28.10105,62.06593],[28.10269,62.06549],[28.10449,62.06505],[28.10694,62.06444],[28.10824,62.06412],[28.10981,62.06374],[28.11104,62.06342],[28.11251,62.06305],[28.11322,62.06287],[28.11471,62.06249],[28.11624,62.06212],[28.11789,62.06171],[28.11945,62.06131],[28.12092,62.06094],[28.12256,62.06053],[28.12403,62.06016],[28.12506,62.0599],[28.12623,62.05961],[28.12956,62.05878],[28.12985,62.05871],[28.13009,62.05865],[28.13241,62.05806],[28.13366,62.05775],[28.1351,62.05737],[28.13567,62.05723],[28.13601,62.05714],[28.1367,62.05693],[28.13775,62.05659],[28.13893,62.05617],[28.1404,62.05565],[28.14157,62.05523],[28.1427,62.05482],[28.1438,62.05444],[28.1439,62.0544],[28.1446,62.05418],[28.14607,62.05381],[28.1475,62.05345],[28.15065,62.0529],[28.15199,62.05264],[28.15343,62.0524],[28.15474,62.05217],[28.15576,62.05199],[28.15903,62.05141],[28.1608,62.05107],[28.16228,62.05077],[28.16363,62.05042],[28.16371,62.0504],[28.16474,62.05012],[28.16565,62.04986],[28.16881,62.04897],[28.17052,62.04848],[28.17185,62.04811],[28.17396,62.04752],[28.17406,62.04748],[28.17618,62.04689],[28.17813,62.04633],[28.17983,62.04586],[28.18007,62.04579],[28.18191,62.04526],[28.18338,62.04484],[28.18473,62.04447],[28.18615,62.04407],[28.18743,62.0437],[28.18883,62.04331],[28.19094,62.04271],[28.19168,62.04252],[28.193,62.04213],[28.19597,62.04129],[28.19654,62.04113],[28.19741,62.04089],[28.20063,62.03996],[28.20141,62.03975],[28.2027,62.03938],[28.20425,62.03892],[28.2054,62.03852],[28.20679,62.03801],[28.20854,62.03736],[28.20971,62.03693],[28.21098,62.03645],[28.21208,62.03604],[28.21221,62.03599],[28.21345,62.03553],[28.21462,62.03509],[28.21618,62.03454],[28.21773,62.03403],[28.21925,62.03354],[28.22211,62.03261],[28.22364,62.03211],[28.22523,62.0316],[28.22631,62.03125],[28.22768,62.0308],[28.22915,62.03033],[28.23116,62.02968],[28.2327,62.02917],[28.2349,62.02847],[28.2368,62.02785],[28.23833,62.02736],[28.23841,62.02733],[28.24022,62.02674],[28.24195,62.02618],[28.24293,62.02586],[28.24322,62.02576],[28.24485,62.02523],[28.24552,62.02502],[28.24593,62.02488],[28.24652,62.0247],[28.2477,62.02431],[28.24811,62.02418],[28.24827,62.02413],[28.24942,62.02375],[28.25048,62.02341],[28.25163,62.02304],[28.25261,62.02272],[28.25361,62.0224],[28.25581,62.02168],[28.25697,62.0213],[28.25796,62.02099],[28.25877,62.02072],[28.25894,62.02066],[28.25908,62.02062],[28.25964,62.02044],[28.26072,62.02009],[28.26158,62.01981],[28.26275,62.01943],[28.26372,62.01911],[28.26561,62.0185],[28.26672,62.01814],[28.26774,62.0178],[28.26887,62.01744],[28.26974,62.01714],[28.27049,62.01684],[28.27078,62.01673],[28.27081,62.01672],[28.27109,62.0166],[28.27185,62.01629],[28.27303,62.01581],[28.27423,62.01531],[28.27473,62.01511],[28.27551,62.01479],[28.27632,62.01446],[28.27667,62.01432],[28.277,62.01418],[28.27772,62.01388],[28.27845,62.01359],[28.27897,62.01337],[28.27953,62.01314],[28.28014,62.01289],[28.28066,62.01268],[28.28086,62.01259],[28.28109,62.0125],[28.28151,62.01233],[28.28163,62.01228],[28.28203,62.01211],[28.28268,62.01185],[28.28348,62.01155],[28.28421,62.0113],[28.28603,62.01067],[28.28673,62.01042],[28.28747,62.01017],[28.28812,62.00995],[28.289,62.00964],[28.2891,62.0096],[28.28996,62.0093],[28.29086,62.009],[28.2916,62.00874],[28.2925,62.00842],[28.2937,62.00801],[28.29555,62.00738],[28.29654,62.00705]]},"properties":{"name":"POKA VT15 Siilinjärvi-Viinijärvi-Rantasalmi","kind":"project","ptype":"rail","subtype":"Ratahanke","status":"kaynnissa","date":"2022–2025","url":"https://vayla.fi/hankkeet","source":"Väylävirasto"}},{"type":"Feature","geometry":{"type":"LineString","coordinates":[[27.8688,62.31406],[27.86755,62.31453],[27.86569,62.31512],[27.86443,62.31551],[27.86334,62.31585],[27.86211,62.31624],[27.8607,62.31668],[27.85947,62.31707],[27.85843,62.3174],[27.85767,62.31767],[27.85766,62.31768],[27.85757,62.31771],[27.85744,62.31776],[27.85343,62.31948],[27.84323,62.32363],[27.83782,62.32583],[27.83547,62.32683],[27.83445,62.32756]]},"properties":{"name":"POKA VT15 Siilinjärvi-Viinijärvi-Rantasalmi","kind":"project","ptype":"rail","subtype":"Ratahanke","status":"kaynnissa","date":"2022–2025","url":"https://vayla.fi/hankkeet","source":"Väylävirasto"}},{"type":"Feature","geometry":{"type":"LineString","coordinates":[[27.85854,62.30876],[27.85854,62.30876],[27.85843,62.30883],[27.85841,62.30884],[27.85841,62.30884],[27.85773,62.30927],[27.85772,62.30928],[27.85751,62.30942],[27.85704,62.30974],[27.85641,62.31031],[27.85593,62.31089],[27.85546,62.31151],[27.85497,62.31212],[27.85455,62.31266],[27.85429,62.31299],[27.85407,62.31335],[27.8538,62.31387],[27.85378,62.31389],[27.85364,62.31419],[27.85352,62.31444],[27.85326,62.31488],[27.85302,62.31513],[27.85278,62.31538],[27.85264,62.31549],[27.85252,62.3156],[27.85236,62.31571],[27.85219,62.31582],[27.85181,62.31604],[27.85133,62.31628],[27.85072,62.31653],[27.85028,62.31671],[27.84973,62.31693],[27.84855,62.31741],[27.84791,62.31768],[27.84737,62.31796],[27.84682,62.3183],[27.84644,62.31855],[27.84612,62.31877],[27.844,62.32024],[27.84376,62.3204],[27.84311,62.32083],[27.84256,62.32122],[27.84239,62.32134],[27.8416,62.32189],[27.8415,62.32195],[27.84017,62.32287],[27.83928,62.32351],[27.83879,62.32386],[27.83788,62.32451],[27.83681,62.32542],[27.83596,62.32621],[27.83531,62.32679],[27.83464,62.32739],[27.83448,62.32754],[27.83402,62.32797],[27.83384,62.32814],[27.83354,62.32847],[27.83325,62.32908],[27.83323,62.32918]]},"properties":{"name":"POKA VT15 Siilinjärvi-Viinijärvi-Rantasalmi","kind":"project","ptype":"rail","subtype":"Ratahanke","status":"kaynnissa","date":"2022–2025","url":"https://vayla.fi/hankkeet","source":"Väylävirasto"}}]}