{"type":"FeatureCollection","features":[{"type":"Feature","geometry":{"type":"LineString","coordinates":[[23.5401,61.50116],[23.53269,61.50118],[23.52909,61.50098],[23.52199,61.50035],[23.51784,61.5002],[23.49825,61.50004],[23.48827,61.49989],[23.48396,61.4995],[23.47817,61.49867],[23.47451,61.49831],[23.47002,61.49815],[23.46436,61.49825],[23.45748,61.49868],[23.44503,61.49978],[23.43702,61.50048],[23.42859,61.50122],[23.41877,61.50197],[23.41609,61.5021],[23.40831,61.50245],[23.39547,61.50296],[23.37969,61.50357],[23.36563,61.5038],[23.35055,61.50405],[23.34313,61.50376],[23.33627,61.50299],[23.31504,61.50009],[23.30336,61.49905],[23.29532,61.4987],[23.28732,61.49858],[23.27918,61.49878],[23.26893,61.49953],[23.25708,61.50084],[23.25052,61.50149],[23.2448,61.50192],[23.23661,61.50208],[23.22943,61.50201],[23.22233,61.50164],[23.2078,61.5006],[23.19115,61.49958],[23.18419,61.49948],[23.17455,61.49968],[23.16793,61.50008],[23.15833,61.50084],[23.15343,61.50118],[23.14344,61.50146],[23.11891,61.50178],[23.10852,61.50193],[23.10056,61.50224],[23.09201,61.50253],[23.08896,61.50251],[23.07629,61.50308],[23.05501,61.50379],[23.04322,61.50419],[23.03518,61.50398]]},"properties":{"name":"Vt 11 Tievalaistuksen rakentaminen välille Häijää - Nokia, ST2025","kind":"project","ptype":"road","subtype":"Tiehanke","status":"kaynnissa","date":"2025–2026","url":"https://vayla.fi/hankkeet","source":"Väylävirasto"}},{"type":"Feature","geometry":{"type":"LineString","coordinates":[[24.31237,61.62459],[24.32232,61.6279],[24.32502,61.63131],[24.33115,61.63395],[24.33541,61.63622],[24.33666,61.63736],[24.35279,61.64133],[24.36497,61.64866],[24.37864,61.6553],[24.38519,61.6582],[24.40081,61.65966],[24.41464,61.65694],[24.42424,61.66092],[24.43022,61.66688],[24.46059,61.67833],[24.46917,61.68167],[24.48484,61.68213],[24.51252,61.68982],[24.53191,61.69058],[24.53618,61.69117],[24.55224,61.70131],[24.57591,61.70532],[24.61117,61.70235],[24.624,61.70411],[24.64788,61.71694],[24.66314,61.72674],[24.673,61.7308],[24.70779,61.73139],[24.73593,61.73412],[24.7389,61.73488]]},"properties":{"name":"Vt 9 ja Kt 58 tievalaisimien uusinta Orivesi","kind":"project","ptype":"road","subtype":"Tiehanke","status":"kaynnissa","date":"2025–2025","url":"https://vayla.fi/hankkeet","source":"Väylävirasto"}},{"type":"Feature","geometry":{"type":"LineString","coordinates":[[23.57572,61.5543],[23.54057,61.56087],[23.49025,61.57352],[23.45263,61.5811],[23.37055,61.6048],[23.31452,61.61185],[23.25568,61.61528],[23.23332,61.61752],[23.2189,61.62632],[23.20269,61.63463],[23.17138,61.65698],[23.15733,61.66995],[23.16386,61.68043],[23.15337,61.69989],[23.13998,61.71953],[23.12745,61.7345],[23.10738,61.74304],[23.06687,61.75407],[23.03196,61.75783],[23.02717,61.75929],[22.99602,61.78561],[22.96728,61.80511],[22.95256,61.81824],[22.93764,61.83783],[22.93101,61.84727]]},"properties":{"name":"Vt 3 tievalaisimien uusinta Ylöjärvi - Parkano. ST 2025","kind":"project","ptype":"road","subtype":"Tiehanke","status":"kaynnissa","date":"2025–2026","url":"https://vayla.fi/hankkeet","source":"Väylävirasto"}},{"type":"Feature","geometry":{"type":"LineString","coordinates":[[23.84508,61.50522],[23.84566,61.50517],[23.84669,61.50498],[23.84773,61.50485],[23.84855,61.50482],[23.85434,61.50373],[23.85701,61.50341],[23.8585,61.50336],[23.8614,61.5032],[23.86238,61.50313],[23.86411,61.50276],[23.86474,61.50249],[23.86447,61.50258],[23.86333,61.50268],[23.86144,61.50319]]},"properties":{"name":"VT 12 seudullisen JKP pääväylän parantaminen välillä Jaakonmäenkatu - Alasjärvenranta Tampere, KU 2024-2025","kind":"project","ptype":"road","subtype":"Tiehanke","status":"kaynnissa","date":"2024–2025","url":"https://vayla.fi/hankkeet","source":"Väylävirasto"}},{"type":"Feature","geometry":{"type":"LineString","coordinates":[[23.47685,61.46443],[23.4747,61.4644],[23.47108,61.46401],[23.46962,61.46371],[23.46556,61.46232],[23.46144,61.46183],[23.46034,61.46157],[23.45952,61.46128],[23.45801,61.46032],[23.4564,61.45976],[23.45398,61.45936],[23.44256,61.45609],[23.43869,61.45563],[23.43631,61.45545],[23.4343,61.45539],[23.43357,61.45531],[23.43149,61.45485],[23.43036,61.45461],[23.42801,61.45434],[23.42663,61.45434],[23.42091,61.45481],[23.42094,61.45496]]},"properties":{"name":"Maantien 2501 parantaminen rakentamalla jalankulku- ja pyöräilyväylä välille Pihtikorventie-Kuoppalankatu, Nokia","kind":"project","ptype":"road","subtype":"Tiehanke","status":"kaynnissa","date":"2025–2026","url":"https://vayla.fi/hankkeet","source":"Väylävirasto"}},{"type":"Feature","geometry":{"type":"LineString","coordinates":[[23.75956,61.30956],[23.76088,61.31132],[23.76133,61.31281]]},"properties":{"name":"Havaslahden risteyssillan kunnostaminen, Lempäälä","kind":"project","ptype":"road","subtype":"Tiehanke","status":"kaynnissa","date":"2026–2027","url":"https://vayla.fi/hankkeet","source":"Väylävirasto"}},{"type":"Feature","geometry":{"type":"LineString","coordinates":[[23.17541,61.6546],[23.17544,61.65462],[23.17544,61.65463],[23.17548,61.65467],[23.17553,61.65472],[23.17558,61.65476],[23.17564,61.6548],[23.17565,61.65482],[23.17573,61.65488],[23.17632,61.65531],[23.17637,61.65535],[23.17643,61.65539],[23.17649,61.65543],[23.17654,61.65547],[23.1766,61.65552],[23.17666,61.65556],[23.17672,61.6556],[23.17677,61.65564],[23.17683,61.65568],[23.17683,61.65569],[23.17706,61.65586],[23.1773,61.65602],[23.17738,61.65607],[23.17743,61.6561],[23.17745,61.65612],[23.17746,61.65612],[23.17769,61.65626],[23.1778,61.65633],[23.17792,61.6564],[23.17801,61.65648],[23.1781,61.65656],[23.17837,61.65681],[23.17845,61.65687],[23.17851,61.65692],[23.17854,61.65694],[23.17855,61.65695],[23.17913,61.65737],[23.17919,61.65742],[23.17934,61.65753],[23.17935,61.65754],[23.17939,61.65757],[23.1794,61.65757],[23.17943,61.65759],[23.1797,61.65776],[23.1798,61.65781],[23.17995,61.65791],[23.18004,61.658],[23.1801,61.65806],[23.18014,61.6581],[23.18025,61.65819],[23.18027,61.6582],[23.18032,61.65824],[23.18033,61.65825],[23.18041,61.65831],[23.18042,61.65831],[23.1805,61.65838],[23.18053,61.6584],[23.18057,61.65842],[23.18057,61.65842],[23.18062,61.65846],[23.1808,61.6586]]},"properties":{"name":"Vt 3 Hämeenkyrön ohitustie (Hämeenkyrönväylä)","kind":"project","ptype":"road","subtype":"Tiehanke","status":"kaynnissa","date":"2019–2028","url":"https://vayla.fi/vt3-hameenkyronvayla","source":"Väylävirasto"}},{"type":"Feature","geometry":{"type":"LineString","coordinates":[[23.25575,61.61544],[23.25618,61.61542],[23.2563,61.61542],[23.25641,61.61541],[23.25645,61.61541],[23.25655,61.61541],[23.25742,61.61539],[23.25754,61.61539],[23.25765,61.61539],[23.25776,61.6154],[23.25788,61.6154],[23.25799,61.6154],[23.258,61.6154],[23.25842,61.61542],[23.26238,61.61651],[23.26246,61.61656],[23.26253,61.61661],[23.2626,61.61666],[23.26267,61.61672],[23.26267,61.61672],[23.26274,61.61677],[23.26281,61.61682],[23.26288,61.61687],[23.26294,61.61693],[23.26301,61.61698],[23.26308,61.61703],[23.26315,61.61709],[23.26322,61.61714],[23.26328,61.61719],[23.26335,61.61725],[23.26342,61.6173],[23.26349,61.61735],[23.26355,61.6174],[23.2639,61.61768],[23.26395,61.61771],[23.264,61.61775],[23.26403,61.61778],[23.26425,61.61795],[23.26425,61.61795],[23.26435,61.61803],[23.26435,61.61803],[23.26445,61.6181]]},"properties":{"name":"Vt 3 Hämeenkyrön ohitustie (Hämeenkyrönväylä)","kind":"project","ptype":"road","subtype":"Tiehanke","status":"kaynnissa","date":"2019–2028","url":"https://vayla.fi/vt3-hameenkyronvayla","source":"Väylävirasto"}},{"type":"Feature","geometry":{"type":"LineString","coordinates":[[23.2136,61.64016],[23.21369,61.64025],[23.21379,61.64035],[23.21381,61.64038],[23.21387,61.64044],[23.21393,61.64051],[23.21395,61.64052],[23.21437,61.64134],[23.21438,61.64139],[23.21439,61.64145],[23.2144,61.6415],[23.21441,61.64156],[23.21441,61.64161],[23.21441,61.64161],[23.21439,61.64199],[23.21438,61.64203],[23.21435,61.64217],[23.21433,61.64231],[23.21428,61.64258],[23.21469,61.64399],[23.21476,61.64407],[23.21483,61.64414],[23.21486,61.64418],[23.2149,61.64422],[23.21492,61.64424],[23.21551,61.64484],[23.21556,61.6449],[23.21562,61.64496],[23.21567,61.64501],[23.21573,61.64507],[23.21578,61.64512],[23.21584,61.64518],[23.21589,61.64524],[23.21595,61.64529],[23.216,61.64535],[23.21606,61.64541],[23.21608,61.64543],[23.2163,61.64566],[23.21668,61.6478],[23.21656,61.64801],[23.2164,61.64928],[23.21653,61.64972],[23.21655,61.64979],[23.21657,61.64986],[23.21659,61.64993],[23.21662,61.65],[23.21664,61.65007],[23.21666,61.65014],[23.21668,61.65021],[23.2167,61.65027],[23.21672,61.65033],[23.21726,61.65212],[23.2173,61.65348],[23.21726,61.65362],[23.21721,61.65376],[23.21721,61.65377],[23.21716,61.65389],[23.21711,61.65403],[23.21706,61.65417],[23.21701,61.6543],[23.21698,61.65438],[23.21633,61.65612],[23.2163,61.65622],[23.21627,61.65632],[23.21625,61.65642],[23.21623,61.65652],[23.21622,61.65661],[23.21621,61.65671],[23.2162,61.65681],[23.2162,61.65691],[23.21621,61.65699],[23.21741,61.65894],[23.21748,61.659],[23.21756,61.65906],[23.21764,61.65911],[23.21767,61.65914],[23.21772,61.65917],[23.2178,61.65923],[23.21785,61.65926],[23.21872,61.65988]]},"properties":{"name":"Vt 3 Hämeenkyrön ohitustie (Hämeenkyrönväylä)","kind":"project","ptype":"road","subtype":"Tiehanke","status":"kaynnissa","date":"2019–2028","url":"https://vayla.fi/vt3-hameenkyronvayla","source":"Väylävirasto"}},{"type":"Feature","geometry":{"type":"LineString","coordinates":[[23.15979,61.6674],[23.1603,61.66639],[23.16035,61.6663],[23.1604,61.66622],[23.16045,61.66613],[23.16051,61.66605],[23.16056,61.66597],[23.16061,61.66588],[23.16067,61.6658],[23.16072,61.66571],[23.16078,61.66563],[23.16084,61.66555],[23.16089,61.66546],[23.16095,61.66538],[23.16101,61.6653],[23.16107,61.66521],[23.16114,61.66513],[23.1612,61.66505],[23.16126,61.66497],[23.16133,61.66488],[23.16139,61.6648],[23.16146,61.66472],[23.16152,61.66464],[23.16153,61.66463],[23.16216,61.66391],[23.16227,61.66379],[23.16239,61.66367],[23.16251,61.66355],[23.16263,61.66343],[23.16275,61.66331],[23.16287,61.66319],[23.163,61.66307],[23.16313,61.66295],[23.16326,61.66283],[23.16339,61.66271],[23.16352,61.6626],[23.16365,61.66248],[23.16379,61.66237],[23.16393,61.66225],[23.16407,61.66213],[23.16421,61.66202],[23.16436,61.66191],[23.1645,61.66179],[23.16465,61.66168],[23.1648,61.66157],[23.16495,61.66145],[23.165,61.66142],[23.1651,61.66134],[23.16525,61.66123],[23.16541,61.66112],[23.16556,61.66101],[23.16571,61.6609],[23.16586,61.66079],[23.16602,61.66067],[23.16615,61.66058],[23.16617,61.66056],[23.16632,61.66045],[23.16648,61.66034],[23.16664,61.66023],[23.16679,61.66012],[23.16695,61.66001],[23.16701,61.65998],[23.16705,61.65995],[23.16716,61.65987],[23.16728,61.6598],[23.1674,61.65972],[23.16752,61.65964],[23.16764,61.65957],[23.16776,61.65949],[23.16788,61.65942],[23.168,61.65934],[23.16812,61.65927],[23.16825,61.65919],[23.16837,61.65912],[23.1685,61.65905],[23.16862,61.65897],[23.16875,61.6589],[23.16888,61.65883],[23.169,61.65875],[23.16913,61.65868],[23.16926,61.65861],[23.1694,61.65854],[23.16953,61.65847],[23.16954,61.65846],[23.16959,61.65843],[23.16998,61.65823],[23.17038,61.65802],[23.17078,61.65782],[23.17119,61.65763],[23.17161,61.65743],[23.17203,61.65724],[23.17246,61.65706],[23.17289,61.65687],[23.17333,61.65669],[23.17378,61.65651],[23.17423,61.65634],[23.17469,61.65617],[23.17515,61.656],[23.17562,61.65584],[23.17609,61.65568],[23.17657,61.65552],[23.17705,61.65536],[23.17754,61.65521],[23.17762,61.65519],[23.17763,61.65519],[23.17774,61.65516],[23.17785,61.65512],[23.17796,61.65509],[23.17807,61.65506],[23.17818,61.65502],[23.1783,61.65499],[23.17841,61.65496],[23.17852,61.65493],[23.17863,61.6549],[23.17874,61.65486],[23.17886,61.65483],[23.17897,61.6548],[23.17908,61.65477],[23.17919,61.65474],[23.17931,61.65471],[23.17942,61.65467],[23.17953,61.65464],[23.17964,61.65461],[23.17982,61.65456],[23.19958,61.64902],[23.19974,61.64898],[23.1999,61.64893],[23.20006,61.64889],[23.20022,61.64884],[23.20037,61.6488],[23.20053,61.64875],[23.20069,61.64871],[23.20085,61.64866],[23.20101,61.64862],[23.20108,61.6486],[23.20117,61.64857],[23.20133,61.64853],[23.20149,61.64849],[23.20165,61.64844],[23.20181,61.6484],[23.20197,61.64836],[23.20214,61.64831],[23.20219,61.6483],[23.20229,61.64827],[23.20269,61.64816],[23.2031,61.64806],[23.2035,61.64795],[23.20391,61.64785],[23.20432,61.64775],[23.20473,61.64765],[23.20514,61.64755],[23.20555,61.64745],[23.20597,61.64735],[23.2062,61.6473],[23.20626,61.64728],[23.20642,61.64725],[23.20659,61.64721],[23.20676,61.64717],[23.20692,61.64713],[23.20709,61.64709],[23.20726,61.64706],[23.20735,61.64704],[23.20743,61.64702],[23.20759,61.64698],[23.20776,61.64694],[23.20793,61.64691],[23.2081,61.64687],[23.20826,61.64683],[23.20843,61.6468],[23.2086,61.64676],[23.20877,61.64672],[23.20893,61.64669],[23.21255,61.64589],[23.21291,61.64581],[23.21327,61.64573],[23.21362,61.64566],[23.21398,61.64558],[23.21433,61.6455],[23.21469,61.64542],[23.21505,61.64534],[23.2154,61.64526],[23.21576,61.64519],[23.21611,61.64511],[23.21647,61.64503],[23.21683,61.64495],[23.21718,61.64487],[23.21773,61.64475],[23.21785,61.64473],[23.21796,61.6447],[23.21808,61.64467],[23.2182,61.64465],[23.21832,61.64462],[23.21844,61.6446],[23.21856,61.64457],[23.21868,61.64454],[23.21879,61.64452],[23.21891,61.64449],[23.21903,61.64446],[23.21915,61.64444],[23.21927,61.64441],[23.21938,61.64438],[23.2195,61.64435],[23.21962,61.64433],[23.21974,61.6443],[23.21985,61.64427],[23.21986,61.64427],[23.22002,61.64423],[23.22036,61.64415],[23.22063,61.64408],[23.22204,61.64371],[23.22241,61.6436],[23.22278,61.6435],[23.22315,61.64339],[23.22351,61.64327],[23.22387,61.64316],[23.22423,61.64305],[23.22459,61.64293],[23.22494,61.64281],[23.22529,61.64269],[23.22564,61.64257],[23.22599,61.64244],[23.22633,61.64231],[23.22667,61.64218],[23.227,61.64205],[23.22733,61.64192],[23.22766,61.64179],[23.22799,61.64165],[23.22831,61.64151],[23.22863,61.64137],[23.22895,61.64123],[23.22926,61.64109],[23.22957,61.64095],[23.22987,61.6408],[23.23018,61.64065],[23.23047,61.6405],[23.23077,61.64035],[23.23106,61.6402],[23.23135,61.64004],[23.23163,61.63989],[23.23191,61.63973],[23.23219,61.63957],[23.23246,61.63941],[23.23273,61.63925],[23.23299,61.63909],[23.23325,61.63892],[23.23351,61.63875],[23.23376,61.63859],[23.23401,61.63842],[23.23425,61.63825],[23.23438,61.63816],[23.23707,61.63589],[23.23724,61.63571],[23.23741,61.63553],[23.23758,61.63535],[23.23774,61.63517],[23.2379,61.63499],[23.23805,61.63481],[23.2382,61.63462],[23.23835,61.63444],[23.23849,61.63425],[23.23862,61.63407],[23.23876,61.63388],[23.23888,61.63369],[23.23901,61.63351],[23.23913,61.63332],[23.23924,61.63313],[23.23935,61.63294],[23.23946,61.63275],[23.23956,61.63256],[23.23966,61.63237],[23.23975,61.63218],[23.23984,61.63199],[23.23992,61.63179],[23.23993,61.63178],[23.23993,61.63178],[23.23995,61.63172],[23.23998,61.63166],[23.24,61.6316],[23.24003,61.63154],[23.24005,61.63148],[23.24008,61.63142],[23.2401,61.63135],[23.24012,61.63129],[23.24015,61.63123],[23.24017,61.63117],[23.24019,61.63111],[23.24021,61.63105],[23.24024,61.63099],[23.24026,61.63093],[23.24028,61.63086],[23.2403,61.63082],[23.2403,61.6308],[23.24032,61.63074],[23.24035,61.63068],[23.24084,61.62929],[23.24086,61.62923],[23.24088,61.62918],[23.2409,61.62913],[23.24092,61.62908],[23.24094,61.62902],[23.24096,61.62897],[23.24098,61.62892],[23.241,61.62886],[23.24102,61.62881],[23.24104,61.62876],[23.24106,61.6287],[23.24108,61.62865],[23.2411,61.6286],[23.24112,61.62855],[23.24114,61.62849],[23.24116,61.62844],[23.24118,61.62839],[23.24121,61.62833],[23.24123,61.62828],[23.24125,61.62823],[23.24125,61.62823],[23.24986,61.62106],[23.25017,61.62093],[23.25048,61.6208],[23.2508,61.62068],[23.25112,61.62055],[23.25144,61.62043],[23.25176,61.62031],[23.25209,61.62019],[23.25243,61.62007],[23.25277,61.61996],[23.25311,61.61985],[23.25326,61.6198],[23.25326,61.6198],[23.25336,61.61977],[23.25345,61.61974],[23.25355,61.61971],[23.25364,61.61968],[23.25374,61.61965],[23.25383,61.61962],[23.25393,61.61959],[23.25402,61.61957],[23.25412,61.61954],[23.25421,61.61951],[23.25431,61.61948],[23.25441,61.61945],[23.2545,61.61942],[23.2546,61.61939],[23.2547,61.61937],[23.25479,61.61934],[23.25489,61.61931],[23.25498,61.61928],[23.25508,61.61925],[23.25518,61.61923],[23.2552,61.61922],[23.25555,61.61912],[23.25591,61.61902],[23.25626,61.61891],[23.25661,61.61881],[23.25697,61.61871],[23.25732,61.61861],[23.25767,61.6185],[23.25802,61.6184],[23.25838,61.6183],[23.25873,61.6182],[23.25908,61.61809],[23.25908,61.61809],[23.26253,61.61709],[23.26286,61.617],[23.2632,61.6169],[23.26353,61.6168],[23.26387,61.61671],[23.2642,61.61661],[23.26454,61.61651],[23.26487,61.61642],[23.26528,61.6163],[23.26539,61.61627],[23.2655,61.61623],[23.26561,61.6162],[23.26572,61.61617],[23.26583,61.61614],[23.26595,61.6161],[23.26606,61.61607],[23.26617,61.61604],[23.26628,61.61601],[23.26639,61.61598],[23.26651,61.61594],[23.26662,61.61591],[23.26673,61.61588],[23.26684,61.61585],[23.26696,61.61582],[23.26707,61.61579],[23.26718,61.61576],[23.2673,61.61573],[23.2673,61.61572],[23.26756,61.61565],[23.26791,61.61556],[23.26825,61.61548],[23.2686,61.61539],[23.26895,61.6153],[23.2693,61.61522],[23.26965,61.61514],[23.27001,61.61506],[23.27036,61.61498],[23.27072,61.61491],[23.27108,61.61483],[23.27144,61.61476],[23.2718,61.61469],[23.27217,61.61462],[23.27253,61.61455],[23.2729,61.61449],[23.27327,61.61442],[23.27364,61.61436],[23.27401,61.6143],[23.27438,61.61425],[23.27475,61.61419],[23.27513,61.61413],[23.27542,61.61409],[23.27598,61.61402],[23.27598,61.61402],[23.27638,61.61397],[23.27666,61.61393],[23.27695,61.6139],[23.27723,61.61387],[23.27727,61.61386],[23.27728,61.61386],[23.2774,61.61385],[23.27753,61.61383],[23.27766,61.61382],[23.27779,61.61381],[23.27791,61.61379],[23.27804,61.61378],[23.27817,61.61377],[23.2783,61.61375],[23.27842,61.61374],[23.27855,61.61373],[23.27868,61.61372],[23.27881,61.6137],[23.27894,61.61369],[23.27906,61.61368],[23.27919,61.61367],[23.27932,61.61365],[23.27945,61.61364],[23.27958,61.61363],[23.2798,61.61361],[23.28009,61.61358],[23.28037,61.61355],[23.28066,61.61352],[23.28095,61.6135],[23.28123,61.61347],[23.28152,61.61344],[23.2818,61.61341],[23.28209,61.61339],[23.28238,61.61336],[23.28266,61.61333],[23.28295,61.6133],[23.28324,61.61328],[23.28339,61.61326],[23.28393,61.61321],[23.28421,61.61318],[23.2845,61.61315],[23.28479,61.61313],[23.28507,61.6131],[23.28536,61.61307],[23.28553,61.61305],[23.28706,61.61291]]},"properties":{"name":"Vt 3 Hämeenkyrön ohitustie (Hämeenkyrönväylä)","kind":"project","ptype":"road","subtype":"Tiehanke","status":"kaynnissa","date":"2019–2028","url":"https://vayla.fi/vt3-hameenkyronvayla","source":"Väylävirasto"}},{"type":"Feature","geometry":{"type":"LineString","coordinates":[[23.4675,61.71621],[23.46752,61.71619]]},"properties":{"name":"Putkisiltakohteet, PIR ELY Putkisilta- ja rumpu-urakka 2025, ST","kind":"project","ptype":"road","subtype":"Tiehanke","status":"kaynnissa","date":"2025–2025","url":"https://vayla.fi/hankkeet","source":"Väylävirasto"}},{"type":"Feature","geometry":{"type":"MultiLineString","coordinates":[[[24.28822,61.69641],[24.28824,61.69641]],[[24.28824,61.69641],[24.28826,61.69641]]]},"properties":{"name":"Putkisiltakohteet, PIR ELY Putkisilta- ja rumpu-urakka 2025, ST","kind":"project","ptype":"road","subtype":"Tiehanke","status":"kaynnissa","date":"2025–2025","url":"https://vayla.fi/hankkeet","source":"Väylävirasto"}},{"type":"Feature","geometry":{"type":"LineString","coordinates":[[24.8391,61.50727],[24.83914,61.50727]]},"properties":{"name":"Putkisiltakohteet, PIR ELY Putkisilta- ja rumpu-urakka 2025, ST","kind":"project","ptype":"road","subtype":"Tiehanke","status":"kaynnissa","date":"2025–2025","url":"https://vayla.fi/hankkeet","source":"Väylävirasto"}},{"type":"Feature","geometry":{"type":"MultiLineString","coordinates":[[[23.6108,61.57729],[23.61091,61.57748]],[[23.61091,61.57748],[23.61096,61.57759],[23.61097,61.5776],[23.61112,61.57791],[23.61112,61.57792],[23.6113,61.57829],[23.6113,61.57831],[23.61142,61.5786],[23.61143,61.57861],[23.61149,61.57877],[23.61149,61.57878],[23.61155,61.57894],[23.61155,61.57894],[23.61159,61.57903],[23.61159,61.57904]],[[23.61159,61.57904],[23.61168,61.57929],[23.61168,61.5793],[23.6118,61.57962],[23.6118,61.57962],[23.61191,61.57996],[23.61191,61.57997],[23.61201,61.58027]],[[23.61201,61.58027],[23.61202,61.58027],[23.61202,61.58028],[23.61214,61.5806],[23.61214,61.58061],[23.61226,61.58083],[23.61229,61.58089],[23.61245,61.58112],[23.61246,61.58114],[23.61266,61.58137],[23.6127,61.58142],[23.6127,61.58143],[23.61293,61.58165],[23.61294,61.58166],[23.61321,61.5819],[23.61321,61.5819],[23.61354,61.58216],[23.61355,61.58217],[23.6138,61.58237],[23.61381,61.58238],[23.61404,61.58258],[23.61405,61.58259],[23.61422,61.58277],[23.61428,61.58284],[23.61429,61.58285],[23.6144,61.583],[23.61448,61.58312],[23.61449,61.58314],[23.61449,61.58315],[23.61454,61.58325],[23.61457,61.58334],[23.61459,61.58343],[23.61459,61.58345],[23.6146,61.58355],[23.61459,61.58373],[23.61459,61.58375],[23.61455,61.58394],[23.61452,61.58407],[23.61451,61.58408],[23.61443,61.58429],[23.61442,61.5843],[23.61432,61.58461],[23.61431,61.58462],[23.61424,61.58483],[23.61423,61.58491],[23.61423,61.58492],[23.61421,61.58519],[23.61421,61.5852],[23.61421,61.58528]],[[23.61421,61.58528],[23.61422,61.58549],[23.61423,61.58555],[23.61423,61.58555],[23.61426,61.58567],[23.61434,61.58589],[23.61435,61.58589],[23.61453,61.58624],[23.61453,61.58625],[23.61469,61.58651],[23.6147,61.58651],[23.61499,61.58689],[23.61526,61.58722],[23.61527,61.58723],[23.61548,61.58748],[23.61552,61.58753],[23.61553,61.58754],[23.61562,61.58769],[23.61563,61.5877]],[[23.61563,61.5877],[23.61572,61.5878],[23.61573,61.58781],[23.6159,61.58801],[23.61591,61.58802],[23.61606,61.58821],[23.61607,61.58822],[23.61624,61.58842],[23.61624,61.58843],[23.61637,61.58858],[23.61639,61.58859],[23.6164,61.58861],[23.61641,61.58862]],[[23.61641,61.58862],[23.61649,61.58873],[23.6165,61.58874],[23.61665,61.58892],[23.61665,61.58893],[23.61682,61.58913],[23.61698,61.58933],[23.61698,61.58933],[23.61717,61.58957],[23.61718,61.58958]],[[23.61718,61.58958],[23.61722,61.58964],[23.61747,61.58996],[23.61747,61.58996],[23.61769,61.59031],[23.61771,61.59034],[23.61772,61.59036],[23.61782,61.59055],[23.61782,61.59055],[23.61791,61.59075],[23.61792,61.59078],[23.61793,61.59079],[23.61798,61.59101],[23.61799,61.59102],[23.61804,61.59125],[23.61804,61.59127],[23.61805,61.59154],[23.61805,61.59155],[23.61805,61.59164],[23.61805,61.59164]],[[23.61805,61.59164],[23.61803,61.5918],[23.61803,61.59181],[23.61796,61.59211],[23.61795,61.59213],[23.61795,61.59213],[23.6179,61.59227],[23.61789,61.59229],[23.61789,61.59229],[23.61789,61.5923]],[[23.61789,61.5923],[23.61786,61.59236],[23.61785,61.59237],[23.61772,61.59262],[23.61766,61.59272],[23.61765,61.59273],[23.61749,61.59295],[23.61748,61.59296],[23.61728,61.59325],[23.61728,61.59326],[23.61697,61.59363],[23.61663,61.59403],[23.61662,61.59403],[23.61642,61.59428],[23.61641,61.5943],[23.61612,61.59467],[23.61612,61.59467],[23.61593,61.59496],[23.61586,61.59509],[23.61586,61.5951],[23.6157,61.59545],[23.61569,61.59548],[23.61569,61.5955],[23.61556,61.59593],[23.61555,61.59594],[23.61544,61.59639],[23.61543,61.5964],[23.61539,61.59658],[23.61539,61.59659]],[[23.61539,61.59659],[23.61538,61.59664],[23.61524,61.59719],[23.61512,61.59771],[23.61511,61.59771],[23.61504,61.598],[23.61504,61.59801]],[[23.61504,61.59801],[23.61503,61.59802],[23.61503,61.59804],[23.61503,61.59805],[23.61503,61.59805],[23.61493,61.59844],[23.61493,61.59845],[23.61477,61.59909],[23.61477,61.59909],[23.61465,61.59949],[23.61465,61.59949],[23.61455,61.59981],[23.61455,61.59983],[23.61447,61.60004]],[[23.61447,61.60004],[23.61446,61.60006],[23.61423,61.60051],[23.61422,61.60052],[23.61391,61.60106],[23.61391,61.60107],[23.61363,61.60151],[23.61363,61.60153],[23.61362,61.60153],[23.61361,61.60155]],[[23.61361,61.60155],[23.61358,61.6016],[23.61357,61.60161],[23.61357,61.60162]],[[23.61357,61.60162],[23.61327,61.60212],[23.61326,61.60212],[23.61295,61.60264],[23.61295,61.60265],[23.61254,61.60331],[23.61254,61.60332],[23.61225,61.6038],[23.61224,61.60381]],[[23.61224,61.60381],[23.61224,61.60381],[23.61222,61.60385],[23.61221,61.60386],[23.61221,61.60387]],[[23.61221,61.60387],[23.61187,61.60442],[23.61187,61.60442],[23.61164,61.6048]],[[23.61164,61.6048],[23.61153,61.60497]],[[23.61153,61.60497],[23.61131,61.60533]],[[23.61131,61.60533],[23.61092,61.60589],[23.61091,61.60591],[23.61069,61.60619],[23.61068,61.6062]],[[23.61068,61.6062],[23.61024,61.60672],[23.61023,61.60673],[23.60985,61.60717],[23.60984,61.60719],[23.60933,61.60779],[23.60933,61.60779],[23.60893,61.60826],[23.60871,61.60853],[23.60869,61.60854],[23.60869,61.60855]],[[23.60869,61.60855],[23.6086,61.60867]],[[23.6086,61.60867],[23.6086,61.60868],[23.60849,61.60887],[23.60849,61.60887],[23.60849,61.60888],[23.60837,61.60914],[23.60836,61.60915],[23.60833,61.60922],[23.60833,61.60923],[23.60824,61.6095],[23.60824,61.60953],[23.60823,61.60955],[23.60823,61.60956]],[[23.60823,61.60956],[23.6082,61.6097],[23.6082,61.60972],[23.60811,61.61011],[23.6081,61.61013],[23.60803,61.61043],[23.60802,61.61043]],[[23.60802,61.61043],[23.60802,61.61044],[23.60797,61.61067],[23.60797,61.61068],[23.6078,61.61127],[23.6078,61.61128],[23.60761,61.61187],[23.60761,61.61187],[23.60754,61.61211]],[[23.60754,61.61211],[23.6074,61.6125],[23.60739,61.61251],[23.6073,61.61279],[23.60729,61.6128],[23.60706,61.61342],[23.60706,61.61343],[23.60689,61.61397],[23.60675,61.61445],[23.60675,61.61446],[23.60665,61.6148],[23.60655,61.61513],[23.60655,61.61515],[23.60649,61.61545],[23.60648,61.61547],[23.60648,61.61547],[23.60646,61.61565],[23.60645,61.61578],[23.60645,61.61579],[23.60646,61.616],[23.60646,61.61601],[23.60647,61.61614],[23.60647,61.61614],[23.60648,61.61615]]]},"properties":{"name":"Mt 2774 rp-urakka","kind":"project","ptype":"road","subtype":"Tiehanke","status":"kaynnissa","date":"2025–2025","url":"https://vayla.fi/hankkeet","source":"Väylävirasto"}},{"type":"Feature","geometry":{"type":"MultiLineString","coordinates":[[[23.63968,61.49588],[23.63975,61.49589],[23.64042,61.49598],[23.64163,61.49617]],[[23.64163,61.49617],[23.64169,61.49618],[23.64173,61.49619],[23.64297,61.49638],[23.64464,61.49665],[23.64551,61.49678],[23.64628,61.4969],[23.64743,61.49707],[23.64863,61.49723],[23.64978,61.49738],[23.65105,61.49754],[23.65262,61.49771],[23.65391,61.49785],[23.65415,61.49787]],[[23.65415,61.49787],[23.65466,61.49792]],[[23.65466,61.49792],[23.6551,61.49796],[23.65749,61.49818],[23.65925,61.49833],[23.66098,61.49849],[23.66142,61.49854],[23.66239,61.49868]],[[23.66239,61.49868],[23.66291,61.49875],[23.66295,61.49875],[23.66436,61.49899],[23.66534,61.49919]],[[23.66534,61.49919],[23.66549,61.49922]],[[23.63988,61.49576],[23.6399,61.49576],[23.6414,61.49599],[23.64249,61.49616],[23.64401,61.49641],[23.64535,61.49662],[23.64678,61.49684],[23.64724,61.4969],[23.64848,61.49707]],[[23.64848,61.49707],[23.64877,61.49711],[23.64963,61.49722],[23.65204,61.49751],[23.65403,61.49772],[23.65439,61.49776]],[[23.65439,61.49776],[23.65478,61.49779]],[[23.65478,61.49779],[23.65626,61.49793],[23.65848,61.49812],[23.66047,61.4983],[23.66193,61.49846],[23.66376,61.49874],[23.66378,61.49874],[23.66502,61.49897],[23.66549,61.49907]],[[23.66549,61.49907],[23.66572,61.49912]]]},"properties":{"name":"PIR ELY Kaideurakka 2025","kind":"project","ptype":"road","subtype":"Tiehanke","status":"kaynnissa","date":"2025–2025","url":"https://vayla.fi/hankkeet","source":"Väylävirasto"}},{"type":"Feature","geometry":{"type":"MultiLineString","coordinates":[[[23.87066,61.47789],[23.87067,61.4779]],[[23.87067,61.4779],[23.87087,61.47819]],[[23.87087,61.47819],[23.8709,61.47823],[23.87095,61.4783]]]},"properties":{"name":"PIR ELY Kaideurakka 2025","kind":"project","ptype":"road","subtype":"Tiehanke","status":"kaynnissa","date":"2025–2025","url":"https://vayla.fi/hankkeet","source":"Väylävirasto"}},{"type":"Feature","geometry":{"type":"LineString","coordinates":[[23.46158,61.26645],[23.46161,61.26646]]},"properties":{"name":"Rumpukohteet, PIR ELY Putkisilta- ja rumpu-urakka 2025, ST","kind":"project","ptype":"road","subtype":"Tiehanke","status":"kaynnissa","date":"2025–2025","url":"https://vayla.fi/hankkeet","source":"Väylävirasto"}},{"type":"Feature","geometry":{"type":"LineString","coordinates":[[24.3149,61.62546],[24.31493,61.62547]]},"properties":{"name":"Rumpukohteet, PIR ELY Putkisilta- ja rumpu-urakka 2025, ST","kind":"project","ptype":"road","subtype":"Tiehanke","status":"kaynnissa","date":"2025–2025","url":"https://vayla.fi/hankkeet","source":"Väylävirasto"}},{"type":"Feature","geometry":{"type":"LineString","coordinates":[[23.29032,61.70214],[23.29032,61.70212]]},"properties":{"name":"Rumpukohteet, PIR ELY Putkisilta- ja rumpu-urakka 2025, ST","kind":"project","ptype":"road","subtype":"Tiehanke","status":"kaynnissa","date":"2025–2025","url":"https://vayla.fi/hankkeet","source":"Väylävirasto"}},{"type":"Feature","geometry":{"type":"LineString","coordinates":[[24.18786,61.46513],[24.18789,61.46514]]},"properties":{"name":"Rumpukohteet, PIR ELY Putkisilta- ja rumpu-urakka 2025, ST","kind":"project","ptype":"road","subtype":"Tiehanke","status":"kaynnissa","date":"2025–2025","url":"https://vayla.fi/hankkeet","source":"Väylävirasto"}},{"type":"Feature","geometry":{"type":"LineString","coordinates":[[23.47566,61.20844],[23.47567,61.20845]]},"properties":{"name":"Rumpukohteet, PIR ELY Putkisilta- ja rumpu-urakka 2025, ST","kind":"project","ptype":"road","subtype":"Tiehanke","status":"kaynnissa","date":"2025–2025","url":"https://vayla.fi/hankkeet","source":"Väylävirasto"}},{"type":"Feature","geometry":{"type":"LineString","coordinates":[[23.3162,61.69066],[23.31622,61.69066],[23.31626,61.69066],[23.31628,61.69065],[23.31646,61.69063],[23.31657,61.69062]]},"properties":{"name":"SIS Putkisilta- ja rumpu-urakan 2026, ST, rumpukohteet","kind":"project","ptype":"road","subtype":"Tiehanke","status":"kaynnissa","date":"2026–2026","url":"https://vayla.fi/hankkeet","source":"Väylävirasto"}},{"type":"Feature","geometry":{"type":"LineString","coordinates":[[23.47855,61.65349],[23.47886,61.65343]]},"properties":{"name":"SIS Putkisilta- ja rumpu-urakan 2026, ST, rumpukohteet","kind":"project","ptype":"road","subtype":"Tiehanke","status":"kaynnissa","date":"2026–2026","url":"https://vayla.fi/hankkeet","source":"Väylävirasto"}},{"type":"Feature","geometry":{"type":"LineString","coordinates":[[24.32227,61.47383],[24.32261,61.47393]]},"properties":{"name":"SIS Putkisilta- ja rumpu-urakan 2026, ST, rumpukohteet","kind":"project","ptype":"road","subtype":"Tiehanke","status":"kaynnissa","date":"2026–2026","url":"https://vayla.fi/hankkeet","source":"Väylävirasto"}},{"type":"Feature","geometry":{"type":"MultiPoint","coordinates":[[23.98572,61.77271],[23.62555,61.78223]]},"properties":{"name":"PIRELY/6541/2025 / PIR sillankorjausurakka 4/2025 (sillankannet) KU","kind":"project","ptype":"road","subtype":"Tiehanke","status":"kaynnissa","date":"2025–2025","url":"https://vayla.fi/hankkeet","source":"Väylävirasto"}},{"type":"Feature","geometry":{"type":"Point","coordinates":[23.65211,61.51889]},"properties":{"name":"Utti, Raippo ja Lämminpää syöttöasemien saneeraukset, ST","kind":"project","ptype":"rail","subtype":"Ratahanke","status":"kaynnissa","date":"2025–2027","url":"https://vayla.fi/hankkeet","source":"Väylävirasto"}},{"type":"Feature","geometry":{"type":"Point","coordinates":[23.75874,61.33048]},"properties":{"name":"IR220182 Virroitinvalvontakameroiden uusiminen","kind":"project","ptype":"rail","subtype":"Ratahanke","status":"kaynnissa","date":"2023–2025","url":"https://vayla.fi/hankkeet","source":"Väylävirasto"}}]}