{"type":"FeatureCollection","features":[{"type":"Feature","geometry":{"type":"LineString","coordinates":[[27.10187,62.28891],[27.10187,62.28892]]},"properties":{"name":"Sillankorjausurakka POS ELY 2025-26","kind":"project","ptype":"road","subtype":"Tiehanke","status":"kaynnissa","date":"2025–2026","url":"https://vayla.fi/hankkeet","source":"Väylävirasto"}},{"type":"Feature","geometry":{"type":"LineString","coordinates":[[25.74051,62.23465],[25.76835,62.24653],[25.77407,62.24679],[25.78392,62.24435],[25.79166,62.24052],[25.82453,62.2395],[25.86378,62.24135],[25.88683,62.25027],[25.89657,62.25078],[25.90908,62.24749],[25.93237,62.24564],[25.94157,62.24391],[25.9604,62.2455],[25.9955,62.24236],[26.02544,62.24077],[26.07445,62.23771],[26.08726,62.23917],[26.10104,62.24431],[26.14093,62.25164],[26.19785,62.26029],[26.23788,62.26391],[26.28212,62.2671],[26.31881,62.2683],[26.34925,62.27949],[26.37795,62.28598],[26.40106,62.28579],[26.43015,62.28873],[26.47261,62.29901],[26.48917,62.31012],[26.5181,62.31556],[26.52599,62.3157],[26.59396,62.3048],[26.63549,62.30838],[26.64635,62.30913],[26.72953,62.30751],[26.77651,62.3112],[26.79575,62.31116],[26.82954,62.31763],[26.90247,62.32204],[26.90853,62.32111],[26.95232,62.31045],[26.98119,62.29652],[27.03398,62.28397],[27.05909,62.2823],[27.07878,62.28214],[27.10174,62.28791],[27.14098,62.29083],[27.16254,62.29247],[27.16596,62.29456]]},"properties":{"name":"Jyväskylä-Pieksämäki perusparannus, rakentaminen","kind":"project","ptype":"road","subtype":"Tiehanke","status":"kaynnissa","date":"2022–2028","url":"https://vayla.fi/jyvaskyla-pieksamaki-perusparannus","source":"Väylävirasto"}},{"type":"Feature","geometry":{"type":"LineString","coordinates":[[27.26102,63.59514],[26.2622,62.91241],[26.56523,61.47161],[28.12668,61.86545],[28.71633,62.42373],[28.06256,63.39683],[27.2702,63.57624]]},"properties":{"name":"POSELY586/2025 Valaisinvaihdot 2025, Itä-Suomi","kind":"project","ptype":"road","subtype":"Tiehanke","status":"kaynnissa","date":"2024–2025","url":"https://vayla.fi/hankkeet","source":"Väylävirasto"}},{"type":"Feature","geometry":{"type":"LineString","coordinates":[[25.74051,62.23465],[25.76835,62.24653],[25.77407,62.24679],[25.78392,62.24435],[25.79166,62.24052],[25.82453,62.2395],[25.86378,62.24135],[25.88683,62.25027],[25.89657,62.25078],[25.90908,62.24749],[25.93237,62.24564],[25.94157,62.24391],[25.9604,62.2455],[25.9955,62.24236],[26.02544,62.24077],[26.07445,62.23771],[26.08726,62.23917],[26.10104,62.24431],[26.14093,62.25164],[26.19785,62.26029],[26.23788,62.26391],[26.28212,62.2671],[26.31881,62.2683],[26.34925,62.27949],[26.37795,62.28598],[26.40106,62.28579],[26.43015,62.28873],[26.47261,62.29901],[26.48917,62.31012],[26.5181,62.31556],[26.52599,62.3157],[26.59396,62.3048],[26.63549,62.30838],[26.64635,62.30913],[26.72953,62.30751],[26.77651,62.3112],[26.79575,62.31116],[26.82954,62.31763],[26.90247,62.32204],[26.90853,62.32111],[26.95232,62.31045],[26.98119,62.29652],[27.03398,62.28397],[27.05909,62.2823],[27.07878,62.28214],[27.10174,62.28791],[27.14098,62.29083],[27.16254,62.29247],[27.16596,62.29456]]},"properties":{"name":"Jyväskylä-Pieksämäki perusparannus, rakentaminen","kind":"project","ptype":"rail","subtype":"Ratahanke","status":"kaynnissa","date":"2022–2028","url":"https://vayla.fi/jyvaskyla-pieksamaki-perusparannus","source":"Väylävirasto"}}]}