{"type":"FeatureCollection","features":[{"type":"Feature","geometry":{"type":"LineString","coordinates":[[24.0189,62.52748],[24.01959,62.52779],[24.0196,62.5278],[24.0203,62.5281]]},"properties":{"name":"Kt 68 Härkösenmäen painuman korjaus, Ähtäri","kind":"project","ptype":"road","subtype":"Tiehanke","status":"kaynnissa","date":"2025–2025","url":"https://vayla.fi/hankkeet","source":"Väylävirasto"}},{"type":"Feature","geometry":{"type":"Point","coordinates":[24.21493,62.53597]},"properties":{"name":"Järvisen tasoristeyksen turvallisuuden parantaminen","kind":"project","ptype":"rail","subtype":"Ratahanke","status":"kaynnissa","date":"2022–2026","url":"https://vayla.fi/hankkeet","source":"Väylävirasto"}},{"type":"Feature","geometry":{"type":"Point","coordinates":[23.49785,62.62953]},"properties":{"name":"Kuuselan tasoristeyksen turvallisuuden parantaminen","kind":"project","ptype":"rail","subtype":"Ratahanke","status":"kaynnissa","date":"2022–2028","url":"https://vayla.fi/hankkeet","source":"Väylävirasto"}}]}