{"type":"FeatureCollection","features":[{"type":"Feature","geometry":{"type":"LineString","coordinates":[[27.26102,63.59514],[26.2622,62.91241],[26.56523,61.47161],[28.12668,61.86545],[28.71633,62.42373],[28.06256,63.39683],[27.2702,63.57624]]},"properties":{"name":"POSELY586/2025 Valaisinvaihdot 2025, Itä-Suomi","kind":"project","ptype":"road","subtype":"Tiehanke","status":"kaynnissa","date":"2024–2025","url":"https://vayla.fi/hankkeet","source":"Väylävirasto"}},{"type":"Feature","geometry":{"type":"LineString","coordinates":[[27.19758,63.57027],[27.19753,63.5704],[27.19744,63.57065],[27.19725,63.57121],[27.19715,63.57151],[27.19693,63.57211],[27.19663,63.57282],[27.19604,63.57377],[27.19533,63.5746],[27.19533,63.5746],[27.19499,63.5749],[27.19462,63.57524],[27.19372,63.5759],[27.19245,63.5767],[27.19123,63.57737],[27.19116,63.57741],[27.18906,63.57857],[27.18755,63.57939],[27.18586,63.58032],[27.18268,63.58206],[27.18248,63.58217],[27.17975,63.58366],[27.17787,63.58467],[27.17593,63.58573],[27.17402,63.58678],[27.17384,63.58687],[27.17253,63.58742],[27.1713,63.58781],[27.17021,63.58809],[27.16909,63.58829],[27.16874,63.58834],[27.16765,63.58848],[27.16554,63.58862],[27.16471,63.58868],[27.16393,63.58873],[27.16384,63.58873],[27.16155,63.58882],[27.16008,63.58889],[27.15766,63.58901],[27.15671,63.58906],[27.15414,63.58918],[27.15391,63.58919],[27.1501,63.58937],[27.14873,63.58943],[27.14752,63.58949],[27.1438,63.58967],[27.13996,63.58985],[27.13803,63.58994],[27.13473,63.59009],[27.13291,63.59018],[27.13104,63.59027],[27.12873,63.59038],[27.12868,63.59038],[27.12283,63.59066],[27.12,63.59079],[27.11726,63.59091],[27.11487,63.59103],[27.11286,63.59112],[27.11266,63.59113],[27.11247,63.59114],[27.10954,63.59128],[27.10858,63.59132],[27.10631,63.59143],[27.10391,63.59155],[27.09807,63.59183],[27.09727,63.59187],[27.09448,63.592],[27.0908,63.59217],[27.08852,63.59228],[27.08852,63.59228],[27.08733,63.59234],[27.08435,63.59247],[27.08257,63.59255],[27.08138,63.5926],[27.08026,63.59263],[27.07927,63.59263],[27.07822,63.5926],[27.07707,63.59254],[27.07584,63.59244],[27.07462,63.59233],[27.07308,63.59218],[27.0706,63.59195],[27.06858,63.59175],[27.06856,63.59175],[27.06785,63.59168],[27.06675,63.59159],[27.06542,63.5915],[27.06386,63.59142],[27.06195,63.59135],[27.06021,63.59133],[27.05801,63.59135],[27.05578,63.59142],[27.0543,63.5915],[27.05238,63.59163],[27.05105,63.59175],[27.05099,63.59176],[27.04918,63.59194],[27.04866,63.592],[27.0486,63.59201],[27.04703,63.59217],[27.0449,63.5924],[27.04234,63.59265],[27.04042,63.59286],[27.03932,63.59297],[27.03925,63.59298],[27.03841,63.59308],[27.03554,63.59338],[27.0329,63.59365],[27.03068,63.59388],[27.02893,63.59407],[27.02866,63.59409],[27.02716,63.59426],[27.02623,63.59436],[27.0247,63.59452],[27.02283,63.59471],[27.02155,63.59486],[27.02099,63.59492],[27.01972,63.59508],[27.01895,63.59519],[27.01821,63.5953],[27.01754,63.59541],[27.01669,63.59555],[27.01597,63.59567],[27.01393,63.59603],[27.01224,63.59632],[27.01155,63.59644],[27.01056,63.59661],[27.00982,63.59674],[27.00931,63.59683],[27.00803,63.59705],[27.00656,63.59729],[27.00542,63.5975],[27.00411,63.59772],[27.00286,63.59794],[27.00193,63.5981],[27.00018,63.5984],[26.99823,63.59874],[26.99779,63.59881],[26.99655,63.59903],[26.99535,63.59924],[26.99362,63.59954],[26.99153,63.5999],[26.99108,63.59998],[26.99061,63.60006],[26.98956,63.60025],[26.98902,63.60035],[26.98842,63.60047],[26.98745,63.60068],[26.98648,63.6009],[26.9854,63.60116],[26.98419,63.60146],[26.98337,63.60167],[26.98294,63.60178],[26.98072,63.60233],[26.97973,63.60257],[26.97934,63.60267],[26.97919,63.60271],[26.97918,63.60271],[26.97834,63.60292],[26.97676,63.60332],[26.97332,63.60417],[26.97299,63.60426],[26.97299,63.60426],[26.967,63.60575],[26.96535,63.60616],[26.96354,63.60662],[26.96194,63.60702],[26.96121,63.6072],[26.96072,63.60731],[26.95989,63.6075],[26.95895,63.60768],[26.95773,63.60789],[26.95653,63.60805],[26.95549,63.60816],[26.95527,63.60818],[26.95455,63.60823],[26.95352,63.6083],[26.95297,63.60832],[26.95223,63.60834],[26.95151,63.60835],[26.95046,63.60834],[26.94924,63.6083],[26.94781,63.60821],[26.94649,63.60811],[26.94511,63.60801],[26.94404,63.60792],[26.9408,63.60768],[26.93798,63.60746],[26.93742,63.60742],[26.9372,63.6074],[26.93553,63.60727],[26.93528,63.60725],[26.93386,63.60714],[26.93116,63.60693],[26.93009,63.60686],[26.92866,63.60674],[26.92794,63.60669],[26.92524,63.60648],[26.92257,63.60628],[26.92046,63.60611],[26.92029,63.6061],[26.9195,63.60604],[26.91726,63.60587],[26.91588,63.60576],[26.91569,63.60574],[26.91438,63.6056],[26.9129,63.60539],[26.91214,63.60526],[26.91136,63.60512],[26.91016,63.60485],[26.90876,63.60449],[26.9067,63.60392],[26.90445,63.6033],[26.90347,63.60305],[26.90268,63.60289],[26.90126,63.60266],[26.89978,63.60251],[26.89858,63.60245],[26.89691,63.6024],[26.8958,63.60236],[26.89569,63.60236],[26.89321,63.60227],[26.8932,63.60227],[26.89097,63.6022],[26.88311,63.60194],[26.8809,63.60187],[26.88009,63.60184],[26.88008,63.60184],[26.87849,63.60179],[26.87756,63.60176],[26.87677,63.60174],[26.87061,63.60153],[26.86272,63.60128],[26.85665,63.60108],[26.85523,63.60103],[26.85219,63.60093],[26.84629,63.60074],[26.84034,63.60054],[26.83651,63.60041],[26.8323,63.60027],[26.82487,63.60003],[26.82426,63.60001],[26.81977,63.59986],[26.81721,63.59977],[26.81282,63.59963],[26.8111,63.59957],[26.80875,63.59949],[26.80636,63.59941],[26.80426,63.59934],[26.8022,63.59928],[26.80042,63.59921],[26.79919,63.59917],[26.79806,63.59914],[26.79581,63.59906],[26.79507,63.59904],[26.79451,63.59896],[26.79369,63.59894],[26.79251,63.59891],[26.79072,63.59886],[26.78878,63.5988],[26.78741,63.59876],[26.78575,63.59871],[26.78343,63.59864],[26.78115,63.59855],[26.78003,63.5985],[26.77883,63.59844],[26.77759,63.59836],[26.77667,63.59828],[26.77595,63.5982],[26.77567,63.59817],[26.77404,63.59798],[26.77309,63.59784],[26.77242,63.59774],[26.77204,63.59769],[26.77155,63.59762],[26.77122,63.59757],[26.76962,63.59736],[26.76784,63.59718],[26.76662,63.59708],[26.76545,63.59699],[26.76392,63.59692],[26.76263,63.59692],[26.76027,63.59702],[26.75804,63.5971],[26.75638,63.59717],[26.75569,63.5972],[26.75389,63.59728],[26.75089,63.59741],[26.74837,63.59751],[26.7468,63.59762],[26.745,63.59775],[26.74354,63.5979],[26.74248,63.59804],[26.7407,63.59832],[26.73793,63.59874],[26.73684,63.5989],[26.73596,63.59903],[26.73375,63.59937],[26.73099,63.59981],[26.72868,63.60016],[26.72659,63.60049],[26.72224,63.60118],[26.71771,63.60189],[26.71765,63.60189],[26.7138,63.6025],[26.71191,63.60279],[26.71012,63.60306],[26.70807,63.60339],[26.70658,63.60361],[26.70434,63.60397],[26.70238,63.60427],[26.70103,63.60447],[26.69971,63.60469],[26.6988,63.60483],[26.69812,63.60493],[26.69668,63.60516],[26.69567,63.60532],[26.69426,63.60551],[26.69289,63.60572],[26.69271,63.60574],[26.69261,63.60576],[26.69019,63.60613],[26.6887,63.60638],[26.68793,63.6065],[26.68712,63.60664],[26.68641,63.60679],[26.68582,63.60689],[26.68505,63.60707],[26.68444,63.60723],[26.68351,63.60753],[26.68233,63.60793],[26.68113,63.60843],[26.68084,63.60856],[26.68027,63.60882],[26.67984,63.60905],[26.67973,63.60912],[26.6793,63.60936],[26.67888,63.60962],[26.67216,63.61319],[26.67175,63.6134],[26.67056,63.61403],[26.66768,63.61557],[26.65889,63.62027],[26.65478,63.62246],[26.65373,63.62302],[26.65073,63.62458],[26.64648,63.62694],[26.6437,63.62843],[26.64195,63.62938],[26.64147,63.62964],[26.64082,63.63002],[26.63977,63.63047],[26.63872,63.63095],[26.63691,63.63164],[26.63355,63.63284],[26.62972,63.63428],[26.62674,63.63533],[26.62427,63.63621],[26.61949,63.63798],[26.61594,63.63926],[26.61471,63.6397],[26.61177,63.64077],[26.61101,63.64102],[26.61032,63.64126],[26.6085,63.64195],[26.60653,63.64264],[26.60588,63.64287],[26.60463,63.64331],[26.60418,63.64347],[26.60346,63.64374],[26.60253,63.64408],[26.60082,63.64466],[26.59943,63.64507],[26.59868,63.64527],[26.5975,63.64556],[26.59655,63.64577],[26.59478,63.64611],[26.59439,63.64617],[26.5937,63.64629],[26.59337,63.64635],[26.59314,63.64639],[26.5929,63.64643],[26.5926,63.64648],[26.59233,63.64652],[26.5919,63.64657],[26.58822,63.64706],[26.58096,63.64805],[26.57503,63.64884],[26.57219,63.64923],[26.56367,63.65038],[26.55556,63.65147],[26.55301,63.65181],[26.54627,63.65271],[26.54287,63.65316],[26.53985,63.65352],[26.53786,63.65365],[26.53588,63.65373],[26.53552,63.65374],[26.53372,63.65374],[26.53096,63.65366],[26.52735,63.65348],[26.52181,63.65323],[26.51708,63.65301],[26.5162,63.65296],[26.51371,63.65285],[26.51333,63.65283],[26.51205,63.65279],[26.51065,63.65277],[26.51033,63.65277],[26.50802,63.65284],[26.50638,63.65296],[26.50434,63.65323],[26.5031,63.65341],[26.50162,63.65363],[26.49778,63.65419],[26.49661,63.65437],[26.49375,63.6548],[26.49184,63.6551],[26.48527,63.65608],[26.48166,63.65661],[26.48166,63.65661],[26.48133,63.65666],[26.47754,63.65721],[26.4767,63.65733],[26.47113,63.65815],[26.46892,63.65853],[26.46769,63.6587],[26.46656,63.6588],[26.46418,63.65899],[26.46124,63.65925],[26.4584,63.65951],[26.45522,63.6598],[26.4538,63.65993],[26.45339,63.65996],[26.43806,63.66131],[26.43487,63.66159],[26.43416,63.66165],[26.42083,63.66283],[26.41853,63.66303],[26.39854,63.66479],[26.39067,63.66548],[26.39027,63.66551],[26.38508,63.66597],[26.37904,63.66653],[26.3789,63.66654],[26.3789,63.66654],[26.37831,63.66659],[26.37375,63.667],[26.36712,63.66758],[26.36208,63.66801],[26.35975,63.6682],[26.35903,63.66825],[26.35903,63.66825],[26.35812,63.66829],[26.35678,63.66833],[26.35447,63.66832],[26.34825,63.66812],[26.33971,63.66784],[26.33871,63.6678],[26.33871,63.6678],[26.33253,63.66761],[26.32856,63.66748],[26.32389,63.66733],[26.3179,63.66712],[26.3179,63.66712],[26.31393,63.66699],[26.309,63.66682],[26.30554,63.6667],[26.30103,63.66655],[26.29805,63.66645],[26.29508,63.66635],[26.29327,63.66628],[26.28967,63.66618],[26.28347,63.66597],[26.27809,63.66579],[26.27113,63.66556],[26.25881,63.66515],[26.25783,63.66512],[26.24454,63.66467],[26.23794,63.66445],[26.22981,63.66417],[26.22037,63.66383],[26.2179,63.66374],[26.21163,63.66349],[26.20371,63.66323],[26.20296,63.66321],[26.1974,63.66299],[26.19396,63.66286],[26.18879,63.66272],[26.17734,63.66229],[26.17594,63.66223],[26.17253,63.66213],[26.16916,63.6621],[26.16745,63.66215],[26.16469,63.66233],[26.16041,63.6628],[26.15735,63.66315],[26.14825,63.66419],[26.13789,63.66537],[26.11805,63.66763],[26.10946,63.66861],[26.09882,63.66979],[26.08809,63.67099],[26.08754,63.67105],[26.07892,63.67203],[26.05955,63.67423],[26.04019,63.67643],[26.03126,63.67744],[26.02091,63.67861],[26.00093,63.68086],[25.99399,63.68165],[25.99337,63.68172],[25.98969,63.68213],[25.98613,63.68254],[25.98582,63.68258],[25.98057,63.68318],[25.97984,63.68326],[25.97582,63.6837],[25.9755,63.68374],[25.97507,63.68379],[25.97335,63.68399],[25.96907,63.6846],[25.9591,63.68615],[25.93856,63.68934],[25.91801,63.69253],[25.90791,63.6941],[25.90427,63.69466],[25.88529,63.69756],[25.88448,63.69768],[25.87521,63.6991],[25.86633,63.7005],[25.86294,63.70103],[25.86107,63.70139],[25.85677,63.70239],[25.84821,63.70429],[25.84815,63.7043],[25.83014,63.70825],[25.8119,63.71225],[25.79425,63.71612],[25.79381,63.71622],[25.78447,63.71827],[25.78248,63.7187],[25.77745,63.71983],[25.77576,63.7202],[25.76437,63.72268],[25.76117,63.72331],[25.7592,63.7236],[25.7577,63.7238],[25.7574,63.72383],[25.75482,63.72406],[25.73752,63.72528],[25.73509,63.72545],[25.73442,63.72549],[25.73431,63.7255],[25.73237,63.72563],[25.73032,63.72577],[25.72819,63.72591],[25.7265,63.72603],[25.72586,63.72608],[25.72413,63.72619],[25.7222,63.72633],[25.72019,63.72646],[25.71832,63.72659],[25.7176,63.72664],[25.71687,63.7267],[25.71674,63.7267],[25.71536,63.72679],[25.71371,63.72691],[25.7121,63.72702],[25.71069,63.72711],[25.70768,63.72732],[25.70432,63.72755],[25.70076,63.72779],[25.69916,63.7279],[25.69869,63.72793],[25.69744,63.72802],[25.69726,63.72803],[25.69605,63.72811],[25.69459,63.72822],[25.69304,63.72832],[25.69108,63.72845],[25.68856,63.72862],[25.68362,63.72896],[25.68081,63.72916],[25.68046,63.72919],[25.67993,63.72922],[25.67891,63.72929],[25.678,63.72935],[25.67559,63.72952],[25.67199,63.72976],[25.6676,63.73006],[25.66442,63.73028],[25.6631,63.73037],[25.66189,63.73044],[25.66102,63.7305],[25.65943,63.73061],[25.65813,63.7307],[25.65766,63.73073],[25.65706,63.73077],[25.65504,63.73091],[25.64995,63.73126],[25.64747,63.73143],[25.64433,63.73163],[25.64208,63.73179],[25.63956,63.73196],[25.63703,63.73213],[25.63517,63.73226],[25.63152,63.7325],[25.62851,63.73271],[25.62554,63.73291],[25.62328,63.73306],[25.62305,63.73308],[25.6192,63.73333],[25.61701,63.73348],[25.61082,63.7339],[25.60568,63.73424],[25.60198,63.73449],[25.60197,63.73449],[25.59915,63.73468],[25.59688,63.73484],[25.59532,63.73495],[25.58733,63.73549],[25.58041,63.73595],[25.57924,63.73603],[25.57715,63.73617],[25.57395,63.73638],[25.57269,63.73647],[25.57018,63.73664],[25.56761,63.73681],[25.56212,63.73718],[25.55688,63.73753],[25.55532,63.73763],[25.55139,63.7379],[25.54973,63.73801],[25.54711,63.73818],[25.53879,63.73874],[25.53664,63.73889],[25.53303,63.73913],[25.52983,63.73934],[25.52707,63.73952],[25.52424,63.73971],[25.5213,63.73991],[25.51726,63.74018],[25.51688,63.74021],[25.51512,63.74032],[25.51054,63.74063],[25.50757,63.74082],[25.50641,63.7409],[25.50425,63.74105],[25.50247,63.74117],[25.50089,63.74127],[25.49967,63.74135],[25.49955,63.74136],[25.49703,63.74153],[25.49677,63.74155],[25.49644,63.74157],[25.4948,63.74168],[25.49283,63.74181],[25.49162,63.74189],[25.49083,63.74194],[25.48862,63.74209],[25.48762,63.74216],[25.48573,63.74228],[25.48379,63.74241],[25.48227,63.74251],[25.47977,63.74268],[25.47891,63.74274],[25.47794,63.7428],[25.47687,63.74287],[25.47665,63.74289],[25.47349,63.7431],[25.47059,63.7433],[25.46947,63.74337],[25.46914,63.74339],[25.46826,63.74345],[25.46637,63.74358],[25.46227,63.74385],[25.4602,63.74397],[25.45819,63.74411],[25.4567,63.74421],[25.4555,63.74429],[25.45261,63.74448],[25.44524,63.74498],[25.44266,63.74515],[25.44091,63.74527],[25.43701,63.74553],[25.43586,63.7456],[25.43056,63.74595],[25.42574,63.74628],[25.42137,63.74657],[25.42017,63.74665],[25.41683,63.74687],[25.41427,63.74704],[25.4142,63.74704],[25.40835,63.74744],[25.4015,63.74789],[25.39851,63.74809],[25.39664,63.74822],[25.39503,63.74832],[25.39267,63.74848],[25.38984,63.74867],[25.38478,63.749],[25.38159,63.74921],[25.37816,63.74944],[25.37671,63.74954],[25.37596,63.74959],[25.37229,63.74983],[25.36982,63.75],[25.36654,63.75021],[25.36357,63.75041],[25.36055,63.75061],[25.35732,63.75082],[25.35675,63.75086],[25.35466,63.751],[25.35095,63.75125],[25.34814,63.75143],[25.3467,63.75152],[25.34574,63.75159],[25.34494,63.75166],[25.34416,63.75176],[25.3435,63.75188],[25.33784,63.75352],[25.33338,63.7548],[25.33312,63.75488],[25.33176,63.75528],[25.33022,63.75574],[25.32914,63.75606],[25.32858,63.75624],[25.32815,63.75638],[25.32749,63.75663],[25.32687,63.7569],[25.32629,63.75719],[25.32581,63.75746],[25.32554,63.75762],[25.32547,63.75765],[25.32444,63.75822],[25.32395,63.7585],[25.32327,63.75889],[25.32282,63.75919],[25.32263,63.75933],[25.32243,63.75947],[25.32202,63.75979],[25.32172,63.76006],[25.32149,63.7603],[25.32127,63.76055],[25.32101,63.76088],[25.32078,63.76122],[25.3205,63.76171],[25.32023,63.76215],[25.32008,63.76242],[25.31999,63.76257],[25.31975,63.76293],[25.31955,63.76321],[25.31922,63.76361],[25.31877,63.76408],[25.31789,63.76503],[25.31694,63.76605],[25.31535,63.76775],[25.31525,63.76785],[25.3145,63.76865],[25.31394,63.76925],[25.31372,63.76949],[25.31343,63.7698],[25.31328,63.76996],[25.31241,63.77088],[25.31031,63.77312],[25.30768,63.77592],[25.30765,63.77597],[25.30583,63.77789],[25.30456,63.77926],[25.30318,63.78074],[25.30221,63.78175],[25.30163,63.78232],[25.30095,63.78292],[25.30004,63.78368],[25.29943,63.78419],[25.29925,63.78434],[25.29827,63.78517],[25.29703,63.78621],[25.29563,63.78738],[25.29399,63.78876],[25.29266,63.78987],[25.29162,63.79075],[25.29076,63.79146],[25.28993,63.79216],[25.28837,63.79348],[25.28744,63.79426],[25.28656,63.795],[25.28611,63.79538],[25.28547,63.7959],[25.28436,63.79683],[25.28356,63.79751],[25.28345,63.7976],[25.28144,63.79929],[25.28052,63.80006],[25.28051,63.80007],[25.27963,63.8008],[25.27891,63.80134],[25.27811,63.8019],[25.27745,63.80232],[25.27684,63.8027],[25.27628,63.80302],[25.27544,63.80349],[25.27455,63.80394],[25.27344,63.80447],[25.27255,63.80487],[25.27106,63.80551],[25.26914,63.80633],[25.26888,63.80644],[25.26779,63.80691],[25.26738,63.80708],[25.26618,63.8076],[25.26521,63.80801],[25.26236,63.80923],[25.26136,63.80965],[25.26023,63.81014],[25.25953,63.81043],[25.25924,63.81056],[25.25873,63.81077],[25.25763,63.81124],[25.25621,63.81185],[25.25339,63.81305],[25.25312,63.81317],[25.25115,63.81401],[25.24972,63.81462],[25.24825,63.81524],[25.24799,63.81535],[25.24659,63.81596],[25.24488,63.81669],[25.24289,63.81753],[25.24036,63.8186],[25.23844,63.81943],[25.23827,63.8195],[25.23629,63.82035],[25.23441,63.82115],[25.23326,63.82165],[25.23176,63.82228],[25.22997,63.82304],[25.22831,63.82375],[25.22678,63.82441],[25.22503,63.82514],[25.22374,63.8257],[25.2225,63.82622],[25.22164,63.82659],[25.21902,63.8277],[25.21679,63.82866],[25.21516,63.82935],[25.21472,63.82954],[25.21319,63.83018],[25.21196,63.83071],[25.20998,63.83155],[25.20905,63.83195],[25.20902,63.83196],[25.20785,63.83246],[25.20655,63.83301],[25.20564,63.8334],[25.20442,63.83392],[25.20333,63.83438],[25.20258,63.83471],[25.20172,63.83507],[25.20066,63.83552],[25.19966,63.83594],[25.19854,63.83642],[25.19759,63.83683],[25.19713,63.83701],[25.19594,63.83752],[25.19434,63.8382],[25.19391,63.83838],[25.19233,63.83906],[25.19076,63.83972],[25.18914,63.84041],[25.18777,63.841],[25.18559,63.84192],[25.18216,63.84338],[25.17971,63.84442],[25.17782,63.84523],[25.17527,63.84631],[25.17331,63.84714],[25.17148,63.84791],[25.16756,63.84958],[25.16591,63.85027],[25.16511,63.85062],[25.16276,63.85162],[25.16026,63.85268],[25.15816,63.85358],[25.1551,63.85487],[25.1515,63.85639],[25.15042,63.85685],[25.14943,63.85727],[25.14688,63.85835],[25.1446,63.85931],[25.14333,63.85986],[25.14066,63.86099],[25.13964,63.86142],[25.13701,63.86254],[25.13579,63.86306],[25.13406,63.86379],[25.13118,63.86502],[25.13058,63.86528],[25.12995,63.86555],[25.12883,63.86603],[25.12775,63.86648],[25.12598,63.86723],[25.12226,63.8688],[25.12098,63.86934],[25.12005,63.86973],[25.11873,63.87029],[25.11614,63.87139],[25.11526,63.87176],[25.11138,63.87341],[25.10994,63.87402],[25.10881,63.8745],[25.10808,63.87482],[25.1064,63.87552],[25.10562,63.87585],[25.10356,63.87672],[25.10168,63.87752],[25.1,63.87823],[25.09735,63.87936],[25.09615,63.87986],[25.09562,63.88008],[25.09523,63.88025],[25.09378,63.88086],[25.0923,63.88149],[25.09178,63.8817],[25.09091,63.88207],[25.0899,63.8825],[25.08895,63.8829],[25.08785,63.88337],[25.0868,63.88381],[25.08447,63.8848],[25.08311,63.88537],[25.08231,63.88571],[25.08087,63.88633],[25.07936,63.88697],[25.07701,63.88796],[25.07683,63.88804],[25.07395,63.88926],[25.07168,63.89022],[25.06374,63.89358],[25.06236,63.89417],[25.05641,63.89669],[25.04976,63.8995],[25.04759,63.90042],[25.04403,63.90193],[25.0432,63.90228],[25.04225,63.90269],[25.03996,63.90365],[25.03534,63.90561],[25.03308,63.90657],[25.03286,63.90666],[25.03255,63.90679],[25.03192,63.90705],[25.03104,63.90743],[25.03004,63.90785],[25.02725,63.90903],[25.02552,63.90975],[25.02346,63.91063],[25.02163,63.9114],[25.01852,63.91272],[25.01825,63.91283],[25.01507,63.91418],[25.0142,63.91454],[25.00888,63.91679],[25.00364,63.91901],[25.00204,63.91968],[24.9999,63.92058],[24.998,63.92139],[24.99723,63.92171],[24.99636,63.92208],[24.99536,63.9225],[24.99443,63.9229],[24.99344,63.92331],[24.99339,63.92334],[24.99278,63.92359],[24.99113,63.92429],[24.99052,63.92454],[24.99023,63.92466],[24.98944,63.925],[24.98891,63.92522],[24.98778,63.9257],[24.98669,63.92616],[24.98523,63.92678],[24.98317,63.92765],[24.9815,63.92834],[24.97853,63.92953],[24.9781,63.92969],[24.9772,63.93003],[24.97644,63.93032],[24.97533,63.93075],[24.97421,63.93118],[24.97409,63.93123],[24.97281,63.93174],[24.97235,63.9319],[24.97122,63.93235],[24.96996,63.93284],[24.96978,63.9329],[24.96938,63.93305],[24.96839,63.93344],[24.96671,63.93409],[24.96636,63.93423],[24.96627,63.93426],[24.96586,63.93442],[24.96483,63.93481],[24.96401,63.93513],[24.96105,63.93629],[24.96052,63.93649],[24.95919,63.93701],[24.9589,63.93712],[24.95735,63.93772],[24.9554,63.93847],[24.95455,63.9388],[24.95307,63.93937],[24.94787,63.94138],[24.94432,63.94276],[24.94357,63.94305],[24.94239,63.9435],[24.93822,63.94511],[24.93016,63.94823],[24.93016,63.94823],[24.92788,63.94911],[24.92473,63.95033],[24.92224,63.95129],[24.91992,63.95219],[24.91971,63.95227],[24.91918,63.95248],[24.91724,63.95323],[24.91484,63.95415],[24.91449,63.95429],[24.9138,63.95456],[24.91248,63.95507],[24.91051,63.95583],[24.90779,63.95688],[24.9039,63.95838],[24.89836,63.96052],[24.89708,63.96102],[24.89393,63.96223],[24.89204,63.96297],[24.89016,63.96369],[24.8872,63.96483],[24.88499,63.96569],[24.88287,63.9665],[24.88191,63.96687],[24.88082,63.9673],[24.87719,63.96869],[24.8747,63.96966],[24.87205,63.97068],[24.87068,63.97121],[24.86997,63.97148],[24.86869,63.97198],[24.86787,63.9723],[24.86666,63.97276],[24.86374,63.97389],[24.86043,63.97516],[24.85826,63.976],[24.8562,63.97679],[24.85394,63.97765],[24.85252,63.97821],[24.8514,63.97863],[24.85109,63.97875],[24.84897,63.97957],[24.84778,63.98003],[24.84702,63.98032],[24.8462,63.98063],[24.84127,63.98254],[24.83772,63.98391],[24.83614,63.98452],[24.83428,63.98523],[24.83048,63.98669],[24.82824,63.98755],[24.82638,63.98827],[24.82381,63.98926],[24.82129,63.99022],[24.82077,63.99042],[24.81673,63.99198],[24.8136,63.99318],[24.81339,63.99327],[24.81323,63.99333],[24.81288,63.99346],[24.81185,63.99386],[24.81145,63.99401],[24.81031,63.99445],[24.80956,63.99474],[24.80865,63.99509],[24.80797,63.99534],[24.8067,63.99583],[24.80565,63.99624],[24.8054,63.99634],[24.80486,63.99655],[24.8032,63.99718],[24.80227,63.99754],[24.80152,63.99783],[24.79954,63.99858],[24.79714,63.99952],[24.79556,64.00012],[24.79367,64.00084],[24.79159,64.00164],[24.79,64.00225],[24.78962,64.0024],[24.78805,64.003],[24.78273,64.00504],[24.78076,64.0058],[24.77862,64.00662],[24.77692,64.00726],[24.77633,64.00749],[24.7752,64.00793],[24.77458,64.00816],[24.77137,64.00939],[24.76978,64.01001],[24.76741,64.01092],[24.76556,64.01163],[24.76538,64.01169],[24.76423,64.01213],[24.76297,64.01263],[24.76217,64.01299],[24.76155,64.01328],[24.76037,64.01386],[24.75962,64.01423],[24.75736,64.01536],[24.75572,64.01617],[24.75455,64.01675],[24.75307,64.01748],[24.7524,64.01782],[24.75162,64.01822],[24.75106,64.0185],[24.75058,64.01874],[24.75013,64.01897],[24.74976,64.01916],[24.7496,64.0192],[24.74873,64.01964],[24.748,64.02],[24.74655,64.02073],[24.74601,64.021],[24.74563,64.02119],[24.74374,64.02212],[24.74199,64.023],[24.73845,64.02476],[24.73382,64.02706],[24.73241,64.02776],[24.73173,64.0281],[24.72946,64.02922],[24.72648,64.03071],[24.72387,64.03201],[24.72209,64.03289],[24.72058,64.03365],[24.72036,64.03376],[24.72028,64.0338],[24.71899,64.03444],[24.71882,64.03452],[24.71729,64.03529],[24.71515,64.03635],[24.71384,64.037],[24.71257,64.03763],[24.7108,64.0385],[24.70827,64.03976],[24.70587,64.04095],[24.70547,64.04115],[24.70331,64.04222],[24.70147,64.04313],[24.70133,64.0432],[24.69549,64.04611],[24.69469,64.04651],[24.69376,64.04698],[24.69301,64.04734],[24.69251,64.04759],[24.69192,64.04788],[24.69079,64.04844],[24.68697,64.05033],[24.68404,64.05179],[24.68381,64.05191],[24.68215,64.05273],[24.68063,64.05349],[24.67939,64.0541],[24.67828,64.05465],[24.67794,64.05482],[24.67666,64.05546],[24.67536,64.0561],[24.67455,64.05646],[24.67395,64.0567],[24.67318,64.05699],[24.6715,64.05758],[24.66852,64.05867],[24.66634,64.05945],[24.66578,64.05965],[24.66499,64.05993],[24.66495,64.05995],[24.66465,64.06006],[24.66334,64.06053],[24.66301,64.06065],[24.66222,64.06093],[24.66157,64.06117],[24.66048,64.06156],[24.6591,64.06206],[24.65821,64.0624],[24.65788,64.06251],[24.65745,64.06265],[24.65707,64.06277],[24.65668,64.06289],[24.6562,64.06304],[24.6557,64.06316],[24.65524,64.06329],[24.65478,64.0634],[24.65421,64.06352],[24.65372,64.06363],[24.65315,64.06374],[24.65229,64.0639],[24.65172,64.06401],[24.65125,64.06409],[24.65068,64.06419],[24.64994,64.06434],[24.6492,64.06447],[24.64829,64.06464],[24.64744,64.0648],[24.6467,64.06493],[24.64559,64.06513],[24.64534,64.06517],[24.64452,64.06533],[24.64394,64.06543],[24.64313,64.06559],[24.64244,64.06571],[24.64172,64.06586],[24.64133,64.06591],[24.64128,64.06592],[24.64026,64.06611],[24.63851,64.06643],[24.63679,64.06675],[24.63544,64.06699],[24.63403,64.06725],[24.63251,64.06754],[24.6324,64.06754],[24.63114,64.06779],[24.62979,64.06804],[24.62835,64.0683],[24.62685,64.06858],[24.6264,64.06866],[24.62544,64.06884],[24.62397,64.0691],[24.62323,64.06924],[24.62246,64.06938],[24.62156,64.06955],[24.62117,64.06963],[24.62042,64.06976],[24.61931,64.06997],[24.61876,64.07008],[24.6184,64.07015],[24.61804,64.07024],[24.61745,64.07038],[24.61689,64.07053],[24.61628,64.0707],[24.6158,64.07085],[24.61524,64.07103],[24.61448,64.07126],[24.61403,64.0714],[24.61339,64.0716],[24.61273,64.0718],[24.6123,64.07194],[24.61174,64.07211],[24.61148,64.07219],[24.61121,64.07227],[24.611,64.07234],[24.6108,64.0724],[24.61049,64.0725],[24.60997,64.07266],[24.60955,64.07278],[24.60917,64.0729],[24.60889,64.07299],[24.60888,64.07299],[24.6085,64.0731],[24.60808,64.07322],[24.60757,64.07334],[24.60705,64.07347],[24.60639,64.07363],[24.6057,64.07377],[24.60521,64.07386],[24.60457,64.07397],[24.60396,64.07407],[24.60343,64.07414],[24.6026,64.07425],[24.60184,64.07436],[24.60122,64.07443],[24.60036,64.07454],[24.59967,64.07464],[24.59874,64.07475],[24.59823,64.07482],[24.59793,64.07486],[24.59719,64.07496],[24.59622,64.07508],[24.59541,64.07518],[24.59459,64.07529],[24.59363,64.07542],[24.59272,64.07553],[24.59183,64.07564],[24.59051,64.07581],[24.58908,64.076],[24.58856,64.07607],[24.58798,64.07615],[24.58757,64.07621],[24.58698,64.0763],[24.58607,64.07645],[24.58523,64.0766],[24.58435,64.07678],[24.58321,64.07702],[24.58244,64.07717],[24.58165,64.07733],[24.58096,64.07748],[24.58053,64.07757],[24.57993,64.07769],[24.57936,64.0778],[24.57838,64.078],[24.57783,64.07812],[24.57734,64.07822],[24.57681,64.07833],[24.57631,64.07843],[24.57588,64.07852],[24.57541,64.07861],[24.57398,64.0789],[24.57332,64.07903],[24.57195,64.07931],[24.57091,64.07954],[24.57067,64.07959],[24.57,64.07973],[24.56874,64.07998],[24.56774,64.08018],[24.56694,64.08035],[24.56557,64.08062],[24.56461,64.08082],[24.56395,64.08095],[24.56316,64.08112],[24.56214,64.08133],[24.56183,64.08139],[24.56106,64.08154],[24.56035,64.08171],[24.56024,64.08172],[24.55949,64.08187],[24.55883,64.08201],[24.55834,64.08212],[24.55753,64.08226],[24.55693,64.08236],[24.5564,64.08243],[24.55595,64.08249],[24.55557,64.08253],[24.55547,64.08253],[24.55484,64.08258],[24.5543,64.08261],[24.55374,64.08263],[24.55331,64.08264],[24.55282,64.08264],[24.5523,64.08263],[24.55213,64.08263],[24.55187,64.08262],[24.55138,64.0826],[24.55089,64.08256],[24.55045,64.08253],[24.5501,64.0825],[24.54929,64.08239],[24.54877,64.08233],[24.54831,64.08224],[24.54789,64.08216],[24.54749,64.08207],[24.54712,64.08199],[24.54672,64.08188],[24.54613,64.08172],[24.54556,64.08155],[24.54526,64.08144],[24.54497,64.08133],[24.54465,64.08121],[24.54427,64.08106],[24.54392,64.08089],[24.5436,64.08072],[24.54333,64.08056],[24.54303,64.0804],[24.54277,64.08023],[24.54252,64.08006],[24.54231,64.07988],[24.54208,64.07969],[24.54185,64.0795],[24.54166,64.07931],[24.5415,64.07911],[24.54133,64.0789],[24.54123,64.07875],[24.54113,64.07859],[24.54105,64.07842],[24.54097,64.07824],[24.5409,64.07806],[24.54083,64.07778],[24.5408,64.07749],[24.54077,64.07725],[24.54078,64.07677],[24.54077,64.07641]]},"properties":{"name":"Ylivieska - Iisalmi sähköistäminen, rakentaminen","kind":"project","ptype":"rail","subtype":"Ratahanke","status":"kaynnissa","date":"2020–2025","url":"https://vayla.fi/ylivieska-iisalmi","source":"Väylävirasto"}},{"type":"Feature","geometry":{"type":"Polygon","coordinates":[[[27.20449,63.55427],[27.20219,63.55434],[27.20359,63.55223],[27.20644,63.55247],[27.20449,63.55427]]]},"properties":{"name":"RO1805 Touhulan alikulkusilta","kind":"project","ptype":"rail","subtype":"Ratahanke","status":"kaynnissa","date":"2025–2025","url":"https://vayla.fi/hankkeet","source":"Väylävirasto"}},{"type":"Feature","geometry":{"type":"Polygon","coordinates":[[[26.56687,63.64987],[26.56623,63.64994],[26.56639,63.65009],[26.55338,63.65185],[26.54441,63.65304],[26.54459,63.65316],[26.56,63.65113],[26.56732,63.65018],[26.56687,63.64987]]]},"properties":{"name":"Tasoristeysturvallisuuden parantaminen Kylmälä-Niemistenkatu, toteutus","kind":"project","ptype":"rail","subtype":"Ratahanke","status":"kaynnissa","date":"2025–2026","url":"https://vayla.fi/hankkeet","source":"Väylävirasto"}},{"type":"Feature","geometry":{"type":"LineString","coordinates":[[27.2276,63.71161],[27.22833,63.71156],[27.22763,63.71071],[27.22767,63.71028],[27.22732,63.71026],[27.22755,63.71159]]},"properties":{"name":"Kauppilanmäen vaihteenvaihdot 2026","kind":"project","ptype":"rail","subtype":"Ratahanke","status":"kaynnissa","date":"2027–2027","url":"https://vayla.fi/hankkeet","source":"Väylävirasto"}},{"type":"Feature","geometry":{"type":"LineString","coordinates":[[27.22997,63.70413],[27.23074,63.70422],[27.23008,63.70546],[27.22928,63.70541],[27.22997,63.70414]]},"properties":{"name":"Kauppilanmäen vaihteenvaihdot 2026","kind":"project","ptype":"rail","subtype":"Ratahanke","status":"kaynnissa","date":"2027–2027","url":"https://vayla.fi/hankkeet","source":"Väylävirasto"}},{"type":"Feature","geometry":{"type":"LineString","coordinates":[[24.55359,64.08236],[24.66538,64.05995],[24.73494,64.02842],[25.29252,63.78931],[25.33407,63.75407],[25.76165,63.72347],[26.03517,63.67686],[26.17092,63.66066],[26.36627,63.66693],[26.48066,63.65724],[26.58522,63.64932],[26.65678,63.6215],[26.70806,63.60214],[26.77739,63.59577],[26.91407,63.60281],[26.95691,63.60852],[27.05626,63.59025],[27.08452,63.5947],[27.16467,63.58692],[27.17149,63.58794],[27.19052,63.57774]]},"properties":{"name":"Iisalmi-Ylivieska rataosalla tarpeettomien tasoristeysten ja ylikäytävärakenteiden poistaminen","kind":"project","ptype":"rail","subtype":"Ratahanke","status":"kaynnissa","date":"2020–2026","url":"https://vayla.fi/hankkeet","source":"Väylävirasto"}}]}