{"type":"FeatureCollection","features":[{"type":"Feature","geometry":{"type":"LineString","coordinates":[[22.38603,61.03806],[22.38703,61.03816]]},"properties":{"name":"Vähä-Säkylän risteyssillan uusiminen, KU","kind":"project","ptype":"road","subtype":"Tiehanke","status":"kaynnissa","date":"2025–2025","url":"https://vayla.fi/hankkeet","source":"Väylävirasto"}},{"type":"Feature","geometry":{"type":"LineString","coordinates":[[22.34121,61.12238],[22.34437,61.12226]]},"properties":{"name":"Polsun sillan uusiminen, KU","kind":"project","ptype":"road","subtype":"Tiehanke","status":"kaynnissa","date":"2025–2026","url":"https://vayla.fi/hankkeet","source":"Väylävirasto"}},{"type":"Feature","geometry":{"type":"MultiLineString","coordinates":[[[21.92294,61.05423],[21.92292,61.05424],[21.92239,61.05466],[21.92239,61.05467],[21.92233,61.05471]],[[21.92233,61.05471],[21.92229,61.05474]],[[21.92229,61.05474],[21.92193,61.05504]]]},"properties":{"name":"T-5369 Narviojan silta","kind":"project","ptype":"road","subtype":"Tiehanke","status":"kaynnissa","date":"2024–2025","url":"https://vayla.fi/hankkeet","source":"Väylävirasto"}},{"type":"Feature","geometry":{"type":"MultiLineString","coordinates":[[[21.51289,61.07317],[21.51231,61.07304],[21.51108,61.07277]],[[21.51108,61.07277],[21.51055,61.07265]],[[21.51055,61.07265],[21.50954,61.07242],[21.5081,61.07209],[21.50697,61.07184],[21.50609,61.07164],[21.50594,61.07161]],[[21.50594,61.07161],[21.50477,61.07134],[21.50372,61.07111],[21.50288,61.07092]],[[21.50288,61.07092],[21.50254,61.07084]],[[21.50254,61.07084],[21.50195,61.0707],[21.50082,61.07046],[21.50055,61.07039],[21.4999,61.07024],[21.49936,61.07012],[21.49869,61.06997],[21.49814,61.06984],[21.49785,61.06978],[21.49778,61.06976]],[[21.49778,61.06976],[21.49764,61.06973],[21.49726,61.06965],[21.49683,61.06958],[21.49632,61.06952],[21.49585,61.0695],[21.49544,61.06951]],[[21.49544,61.06951],[21.49534,61.06952],[21.49492,61.06955],[21.49453,61.06959]],[[21.49453,61.06959],[21.49448,61.0696],[21.49407,61.06961],[21.49366,61.06959]],[[21.49366,61.06959],[21.49359,61.06958],[21.49321,61.06951],[21.49285,61.0694],[21.49261,61.0693]],[[21.49261,61.0693],[21.49256,61.06927],[21.4922,61.06905],[21.49194,61.06886]],[[21.49194,61.06886],[21.49189,61.06882],[21.49157,61.06856],[21.49125,61.06831],[21.49114,61.06822]],[[21.49114,61.06822],[21.49098,61.0681],[21.49066,61.06785],[21.49041,61.06761],[21.49023,61.06737],[21.49016,61.06724]],[[21.49016,61.06724],[21.4901,61.06709],[21.49003,61.06686],[21.48997,61.06663],[21.48994,61.06636],[21.4899,61.06613],[21.48982,61.06587],[21.48968,61.06562],[21.48962,61.06554]],[[21.48962,61.06554],[21.4895,61.06541],[21.48926,61.06523],[21.48901,61.06511],[21.48874,61.065],[21.48869,61.06498]],[[21.48869,61.06498],[21.48846,61.06489],[21.48814,61.06477],[21.48779,61.06464],[21.48749,61.06452],[21.48734,61.06446]],[[21.48734,61.06446],[21.48719,61.06438],[21.48691,61.06421],[21.48676,61.0641],[21.48653,61.0639],[21.4864,61.06376]],[[21.4864,61.06376],[21.48636,61.06372],[21.48633,61.06366]],[[21.48633,61.06366],[21.48629,61.0636],[21.48615,61.06342],[21.486,61.06323],[21.48584,61.06307],[21.48565,61.06293],[21.48543,61.06281],[21.48523,61.06273]],[[21.48523,61.06273],[21.48476,61.0626],[21.48434,61.06249],[21.48391,61.06239],[21.48347,61.06229]],[[21.48347,61.06229],[21.48315,61.06221],[21.48272,61.0621],[21.48236,61.062],[21.48202,61.0619],[21.48176,61.06183],[21.48146,61.06174],[21.48111,61.06165],[21.48067,61.06155],[21.48039,61.06148],[21.48031,61.06146],[21.47994,61.06138],[21.47953,61.06132],[21.47935,61.06129],[21.47904,61.06125],[21.47853,61.0612],[21.47806,61.06117],[21.47803,61.06117]],[[21.47803,61.06117],[21.47766,61.06116],[21.4774,61.06116],[21.4772,61.06116],[21.4768,61.06116],[21.47656,61.06116],[21.47627,61.06115],[21.47599,61.06114],[21.47569,61.06114],[21.4752,61.06112],[21.47507,61.06112]],[[21.47507,61.06112],[21.47471,61.06111],[21.47431,61.06112],[21.47393,61.06113],[21.47341,61.06118],[21.47328,61.06119]],[[21.47328,61.06119],[21.47304,61.06121],[21.47267,61.06122],[21.47245,61.06122]],[[21.47245,61.06122],[21.47232,61.06121],[21.47201,61.06118],[21.4719,61.06117],[21.47187,61.06116]],[[21.47187,61.06116],[21.47183,61.06116],[21.47173,61.06114],[21.47146,61.06109],[21.47117,61.06104]],[[21.47117,61.06104],[21.47113,61.06103],[21.4708,61.06098],[21.47037,61.06093],[21.4702,61.06091]],[[21.4702,61.06091],[21.46991,61.06088],[21.46947,61.06081],[21.46941,61.06081]],[[21.46941,61.06081],[21.46917,61.06076],[21.46888,61.06068],[21.46886,61.06068]],[[21.46886,61.06068],[21.4686,61.06059],[21.46826,61.06048],[21.46792,61.06037],[21.4676,61.06029],[21.46736,61.06022]],[[21.46736,61.06022],[21.46722,61.0602],[21.46693,61.06014]],[[21.46693,61.06014],[21.46677,61.06012],[21.46655,61.06009]]]},"properties":{"name":"Mt1960 JKPP Voiluoto-Unaja, Rauma, KU","kind":"project","ptype":"road","subtype":"Tiehanke","status":"kaynnissa","date":"2025–2026","url":"https://vayla.fi/hankkeet","source":"Väylävirasto"}},{"type":"Feature","geometry":{"type":"MultiLineString","coordinates":[[[21.51291,61.07317],[21.51284,61.07328],[21.51269,61.07341],[21.51247,61.07356],[21.51225,61.07371],[21.51204,61.07388],[21.51188,61.07408],[21.51178,61.07423]],[[21.51178,61.07423],[21.51177,61.07425],[21.51172,61.07443],[21.51172,61.07458]],[[21.51172,61.07458],[21.51173,61.07469],[21.51183,61.07504],[21.51199,61.0753],[21.51213,61.07545]],[[21.51213,61.07545],[21.5122,61.07552],[21.51245,61.07572],[21.51263,61.07587],[21.51283,61.07608],[21.51305,61.0763],[21.51335,61.07659],[21.51358,61.07684],[21.51364,61.0769]],[[21.51364,61.0769],[21.51379,61.07709]],[[21.51379,61.07709],[21.51377,61.07714],[21.51374,61.07718]],[[21.51374,61.07718],[21.51362,61.07726],[21.51335,61.07745],[21.51331,61.07747]],[[21.51331,61.07747],[21.51314,61.07761],[21.51297,61.07777],[21.51288,61.07792],[21.51286,61.07805],[21.51288,61.0781]]]},"properties":{"name":"Mt1960 JKPP Voiluoto-Unaja, Rauma, KU","kind":"project","ptype":"road","subtype":"Tiehanke","status":"kaynnissa","date":"2025–2026","url":"https://vayla.fi/hankkeet","source":"Väylävirasto"}},{"type":"Feature","geometry":{"type":"LineString","coordinates":[[21.43158,61.0492],[21.4315,61.04915],[21.43131,61.04901],[21.43114,61.04885],[21.43103,61.04875],[21.4309,61.04861],[21.43069,61.04841]]},"properties":{"name":"T-5278 Vilokarin silta","kind":"project","ptype":"road","subtype":"Tiehanke","status":"kaynnissa","date":"2024–2025","url":"https://vayla.fi/hankkeet","source":"Väylävirasto"}},{"type":"Feature","geometry":{"type":"MultiPoint","coordinates":[[22.05929,60.91799],[22.72802,62.19008],[22.2972,61.24737],[22.66932,60.27337],[22.67046,60.37224],[22.00161,60.59607],[22.46806,60.6736],[22.23702,60.66349],[21.96454,60.67899],[22.01953,60.82716],[21.60558,61.12697],[23.01632,60.9951],[22.03123,61.02229],[21.67434,61.15463],[21.55099,61.13324]]},"properties":{"name":"LOU Putkisiltaurakka 2026-2027, KU","kind":"project","ptype":"road","subtype":"Tiehanke","status":"kaynnissa","date":"2025–2027","url":"https://vayla.fi/hankkeet","source":"Väylävirasto"}}]}