{"type":"FeatureCollection","features":[{"type":"Feature","geometry":{"type":"MultiLineString","coordinates":[[[25.97932,60.49161],[25.97955,60.4916]],[[25.97955,60.4916],[25.98098,60.49151],[25.98281,60.49139],[25.98426,60.49127],[25.98572,60.49116],[25.98712,60.49108],[25.98828,60.49101]],[[25.98828,60.49101],[25.98912,60.49097],[25.99036,60.49092],[25.99187,60.49085],[25.99301,60.49079],[25.99337,60.49076]],[[25.99337,60.49076],[25.99402,60.49072],[25.99505,60.49063],[25.99596,60.49053],[25.99713,60.4904],[25.99838,60.49025],[25.99928,60.49014]],[[25.99928,60.49014],[25.99989,60.49006]],[[25.99989,60.49006],[26.0007,60.48993],[26.00159,60.48977],[26.00219,60.48967],[26.00304,60.48952],[26.00505,60.48911],[26.00679,60.4887],[26.00846,60.48827],[26.00985,60.48786],[26.01109,60.48749],[26.01209,60.48716]],[[26.01209,60.48716],[26.01285,60.4869]],[[26.01285,60.4869],[26.01347,60.48668],[26.01449,60.48627],[26.01572,60.4858],[26.01645,60.4855],[26.01705,60.48527],[26.01753,60.48507],[26.01808,60.48486],[26.01872,60.48462],[26.01921,60.48444],[26.01972,60.48424],[26.02022,60.48406],[26.02082,60.48384],[26.02148,60.4836],[26.02194,60.48345],[26.02248,60.48327],[26.023,60.48308]],[[26.023,60.48308],[26.02348,60.48292]],[[26.02348,60.48292],[26.02413,60.48271],[26.02462,60.48256],[26.0253,60.48235],[26.02583,60.48218],[26.02625,60.48206]],[[26.02625,60.48206],[26.02663,60.48195],[26.02717,60.4818],[26.0277,60.48164],[26.02823,60.48149],[26.02873,60.48135],[26.02937,60.48118],[26.02991,60.48104],[26.03045,60.48089],[26.03111,60.48072],[26.03164,60.48059],[26.03239,60.48041],[26.03301,60.48026],[26.03377,60.48009],[26.03454,60.47991],[26.03518,60.47977],[26.03576,60.47965],[26.03643,60.4795],[26.03709,60.47937],[26.03774,60.47924],[26.03828,60.47913],[26.03886,60.47902],[26.03947,60.47892],[26.04006,60.4788]],[[26.04006,60.4788],[26.04039,60.47874]],[[26.04039,60.47874],[26.04107,60.47864],[26.04169,60.47854],[26.04242,60.47843],[26.04308,60.47834],[26.04377,60.47825],[26.04443,60.47816],[26.0452,60.47808],[26.0458,60.47802],[26.04636,60.47796],[26.04687,60.47793],[26.04738,60.47789],[26.04809,60.47784],[26.0488,60.47779],[26.04987,60.47774],[26.05081,60.47771],[26.05175,60.47768],[26.05263,60.47767],[26.05339,60.47768],[26.05413,60.47768],[26.05475,60.4777],[26.05549,60.47771],[26.0561,60.47774],[26.05684,60.47777],[26.05766,60.47781],[26.0584,60.47785],[26.05909,60.47789],[26.05974,60.47793],[26.06061,60.47798],[26.06146,60.47804],[26.06221,60.47808],[26.06298,60.47813],[26.06379,60.47817],[26.06458,60.47822],[26.06552,60.47828],[26.06635,60.47833],[26.0672,60.47838],[26.06785,60.47842],[26.0689,60.47848],[26.06966,60.47853],[26.07061,60.47858],[26.07113,60.47861],[26.07202,60.47865],[26.07282,60.47867],[26.07461,60.47874],[26.07548,60.47876],[26.07623,60.47877],[26.07712,60.47879],[26.07802,60.47881],[26.07877,60.47882]],[[26.07877,60.47882],[26.07954,60.47882],[26.08186,60.47881]],[[26.08186,60.47881],[26.08225,60.4788],[26.08295,60.47879],[26.08354,60.47878],[26.08419,60.47877],[26.08516,60.47874],[26.08667,60.4787],[26.08737,60.47867],[26.08815,60.47863],[26.08889,60.47859]],[[26.08889,60.47859],[26.08954,60.47856],[26.09012,60.47853],[26.09065,60.4785],[26.09106,60.47848],[26.09152,60.47845],[26.09226,60.47841],[26.09313,60.47834],[26.09418,60.47826],[26.09495,60.4782],[26.09567,60.47815],[26.09629,60.47809],[26.09694,60.47802],[26.09755,60.47796]],[[26.09755,60.47796],[26.0979,60.47792],[26.09823,60.47789]],[[26.09823,60.47789],[26.09859,60.47786],[26.099,60.47782],[26.09988,60.47773],[26.10059,60.47764],[26.10121,60.47757],[26.10198,60.47746],[26.10263,60.47738],[26.10335,60.47727],[26.1041,60.47714],[26.10485,60.47702],[26.10537,60.47692],[26.10598,60.47681],[26.10667,60.47668],[26.10726,60.47655],[26.10777,60.47644]],[[26.10777,60.47644],[26.10822,60.47634]],[[26.10822,60.47634],[26.10868,60.47624],[26.10924,60.47611],[26.10967,60.47601],[26.11024,60.47587],[26.11095,60.47568],[26.11152,60.47554],[26.11209,60.47538],[26.11266,60.47521],[26.11313,60.47507],[26.11361,60.47493],[26.11413,60.47476],[26.11468,60.47459],[26.11526,60.4744],[26.11583,60.47421],[26.11626,60.47407],[26.11672,60.47391],[26.11724,60.47373],[26.11768,60.47358],[26.11794,60.47349]],[[26.11794,60.47349],[26.11821,60.4734],[26.11872,60.47322]],[[26.11872,60.47322],[26.11919,60.47305]],[[26.11919,60.47305],[26.11973,60.47285],[26.12023,60.47267],[26.12068,60.4725],[26.12113,60.47233],[26.12158,60.47216],[26.12209,60.47196],[26.12257,60.47177],[26.123,60.47159],[26.12348,60.4714],[26.12396,60.4712],[26.12445,60.47099],[26.12509,60.47072],[26.12573,60.47043],[26.12632,60.47018],[26.12707,60.46983],[26.1276,60.4696],[26.12998,60.46849],[26.13161,60.46775],[26.1326,60.46733]],[[26.1326,60.46733],[26.13347,60.46696]],[[26.13347,60.46696],[26.13374,60.46685],[26.13406,60.46672]],[[26.13406,60.46672],[26.13457,60.46651],[26.13514,60.46628],[26.13574,60.46606],[26.13712,60.46557],[26.13809,60.46521],[26.13909,60.46487],[26.14059,60.46434],[26.14183,60.46396],[26.14393,60.46334],[26.14429,60.46324],[26.14538,60.46294]],[[26.14538,60.46294],[26.14565,60.46287],[26.14688,60.46255],[26.14827,60.4622],[26.14969,60.46187],[26.15052,60.46168],[26.15169,60.46143],[26.15238,60.46128],[26.15299,60.46116],[26.15415,60.46093],[26.15518,60.46074],[26.15652,60.46051],[26.15815,60.46024],[26.15938,60.46006],[26.16068,60.45988],[26.16128,60.45982]],[[26.16128,60.45982],[26.16348,60.45954],[26.1645,60.45943],[26.16522,60.45935],[26.16581,60.4593],[26.16637,60.45925]],[[26.16637,60.45925],[26.16678,60.45922],[26.16716,60.45919]],[[26.16716,60.45919],[26.16811,60.45912],[26.1697,60.45904],[26.17185,60.45898],[26.17393,60.45898],[26.17643,60.45901]],[[26.17643,60.45901],[26.17711,60.45904]],[[26.17711,60.45904],[26.17811,60.45908],[26.17862,60.45911],[26.1791,60.45913],[26.17938,60.45915],[26.18036,60.45922],[26.18142,60.45931],[26.18316,60.45948],[26.18473,60.45965],[26.18527,60.45971]],[[26.18527,60.45971],[26.18586,60.45978],[26.18746,60.46001],[26.18911,60.46023],[26.19026,60.46039],[26.19071,60.46045],[26.19212,60.46065]],[[26.19212,60.46065],[26.19243,60.4607]],[[26.19243,60.4607],[26.19266,60.46073],[26.1927,60.46074],[26.19299,60.46079],[26.1936,60.46088],[26.19425,60.46099],[26.19468,60.46108],[26.19557,60.46124],[26.19641,60.46139],[26.1972,60.46155],[26.19807,60.46172],[26.19911,60.46195],[26.20163,60.46256],[26.20239,60.46276],[26.20279,60.46286]],[[26.20279,60.46286],[26.20327,60.46299],[26.20347,60.46304],[26.2038,60.46314]],[[26.2038,60.46314],[26.20398,60.46319],[26.20419,60.46325],[26.20494,60.46347],[26.20591,60.46376],[26.20678,60.46405],[26.20752,60.46428],[26.20765,60.46432]],[[26.20765,60.46432],[26.20778,60.46436]],[[26.20778,60.46436],[26.20838,60.46454]],[[26.20838,60.46454],[26.20856,60.4646]],[[26.20856,60.4646],[26.20896,60.46472],[26.20991,60.46497],[26.21038,60.4651],[26.21123,60.46532],[26.21253,60.46563],[26.21349,60.46583],[26.21453,60.46604],[26.21625,60.4663],[26.21748,60.4665]],[[26.21748,60.4665],[26.2177,60.46653],[26.21801,60.46656]],[[26.21801,60.46656],[26.21887,60.46667],[26.21955,60.46676],[26.22193,60.46704]],[[26.22193,60.46704],[26.22218,60.46707]],[[26.22218,60.46707],[26.22307,60.4672],[26.22449,60.46742]],[[26.22449,60.46742],[26.22453,60.46743],[26.22528,60.46755],[26.22598,60.46767],[26.22713,60.46789],[26.22841,60.46816],[26.22997,60.46853]],[[26.22997,60.46853],[26.23056,60.4687]],[[26.23056,60.4687],[26.23242,60.46923],[26.23485,60.46995],[26.23738,60.47054],[26.23957,60.47102],[26.24087,60.47128],[26.24197,60.47148],[26.24402,60.47184],[26.2457,60.47213]],[[26.2457,60.47213],[26.24655,60.47227],[26.24669,60.47229]],[[26.24669,60.47229],[26.24697,60.47234],[26.24831,60.47258]],[[26.24831,60.47258],[26.2494,60.47278],[26.25042,60.47293]],[[26.25042,60.47293],[26.25206,60.47321],[26.25445,60.47361],[26.25564,60.47381],[26.2573,60.47411],[26.25928,60.47445],[26.26034,60.47463],[26.26178,60.47487],[26.26282,60.47506]],[[26.26282,60.47506],[26.26319,60.47512]],[[26.26319,60.47512],[26.26398,60.47526],[26.26483,60.47543],[26.26572,60.47561],[26.26658,60.47579],[26.26739,60.47598],[26.26836,60.47621],[26.26937,60.47646],[26.26995,60.4766],[26.27109,60.47692],[26.272,60.47718],[26.27276,60.47739],[26.27371,60.47769]],[[26.27371,60.47769],[26.27432,60.47788],[26.27486,60.47806],[26.27556,60.4783]],[[26.27556,60.4783],[26.27635,60.47858],[26.27748,60.479],[26.27825,60.47928],[26.27957,60.47986],[26.28129,60.48059],[26.28164,60.48074],[26.28244,60.48107],[26.28513,60.48219],[26.28759,60.48314],[26.29055,60.48414]],[[26.29055,60.48414],[26.29058,60.48415],[26.29092,60.48426]],[[26.29092,60.48426],[26.29405,60.4852],[26.29691,60.48597],[26.29947,60.48663]],[[26.29947,60.48663],[26.29965,60.48667]],[[26.29965,60.48667],[26.30057,60.48686],[26.30282,60.48733],[26.30625,60.48799],[26.30936,60.48849],[26.30954,60.48852]],[[26.30954,60.48852],[26.31047,60.48865]],[[26.31047,60.48865],[26.31189,60.48884],[26.31209,60.48887]],[[26.31209,60.48887],[26.31228,60.4889]],[[26.31228,60.4889],[26.31356,60.48907],[26.31404,60.48912]],[[26.31404,60.48912],[26.31737,60.48947],[26.32139,60.48978],[26.32595,60.48999],[26.32686,60.49]],[[26.32686,60.49],[26.32751,60.49002]],[[26.32751,60.49002],[26.33028,60.49006],[26.33445,60.49003],[26.33822,60.48987],[26.34237,60.4896],[26.3425,60.48959]],[[26.3425,60.48959],[26.3429,60.48957]],[[26.3429,60.48957],[26.34665,60.4893],[26.35177,60.48894],[26.35469,60.48874],[26.35688,60.48859],[26.3588,60.48846],[26.36116,60.48829],[26.36288,60.48817],[26.36499,60.48802]],[[26.36499,60.48802],[26.36722,60.48787],[26.36962,60.4877],[26.37238,60.48751],[26.37389,60.4874],[26.37519,60.48731],[26.37649,60.48724],[26.37778,60.48718],[26.37974,60.48712],[26.38127,60.4871],[26.38278,60.4871],[26.38386,60.48711],[26.38539,60.48714],[26.38713,60.48721],[26.38906,60.48731]],[[26.38906,60.48731],[26.38963,60.48735]],[[26.38963,60.48735],[26.3908,60.48744],[26.39151,60.4875],[26.39274,60.48761],[26.39464,60.48781],[26.39697,60.48811],[26.39882,60.48839],[26.39997,60.48857],[26.40088,60.48876],[26.40143,60.48886]],[[26.40143,60.48886],[26.40184,60.48894],[26.40245,60.48906],[26.40282,60.48914],[26.40375,60.48933],[26.40463,60.48952],[26.40558,60.48973],[26.4065,60.48995],[26.40725,60.49013]],[[26.40725,60.49013],[26.40741,60.49017],[26.40876,60.49047],[26.41015,60.49077],[26.41103,60.49094],[26.41318,60.49134],[26.41487,60.49165],[26.41726,60.49201],[26.41908,60.49224]],[[26.41908,60.49224],[26.41934,60.49228]],[[26.41934,60.49228],[26.41951,60.4923],[26.41987,60.49234],[26.42111,60.49248],[26.422,60.49258],[26.42422,60.49278],[26.42438,60.4928],[26.42727,60.49297],[26.43001,60.49311],[26.4304,60.49312]],[[26.4304,60.49312],[26.43197,60.49316]],[[26.43197,60.49316],[26.43217,60.49317],[26.43482,60.49319],[26.43565,60.49318],[26.43608,60.49316]],[[26.43608,60.49316],[26.43883,60.49308],[26.44244,60.49287],[26.44488,60.49266]],[[26.44488,60.49266],[26.4456,60.49258]],[[26.4456,60.49258],[26.44591,60.49255],[26.44617,60.49252],[26.44714,60.4924],[26.44789,60.49231]],[[26.44789,60.49231],[26.44962,60.49211],[26.45034,60.49202],[26.45117,60.49192],[26.45195,60.49181]],[[26.45195,60.49181],[26.45277,60.4917],[26.45291,60.49168]],[[26.45291,60.49168],[26.45361,60.49158],[26.45399,60.49153],[26.45467,60.49141],[26.45474,60.4914],[26.45499,60.49136],[26.45538,60.49129],[26.45547,60.49128],[26.45568,60.49124],[26.45704,60.491]],[[26.45704,60.491],[26.4573,60.49095],[26.45833,60.49074],[26.45909,60.49059],[26.46015,60.49035],[26.4616,60.49002],[26.46187,60.48996],[26.46313,60.48967],[26.46428,60.4894],[26.4653,60.48916],[26.46619,60.48897],[26.46761,60.48863],[26.46887,60.48836],[26.4698,60.48815],[26.47055,60.48799],[26.47147,60.48782],[26.4725,60.48763],[26.47306,60.48753],[26.47413,60.48735],[26.47521,60.48717],[26.47614,60.48702]],[[26.47614,60.48702],[26.47649,60.48697]],[[26.47649,60.48697],[26.47744,60.48683],[26.47912,60.48662],[26.4793,60.4866]],[[26.4793,60.4866],[26.47998,60.48651],[26.48096,60.48639],[26.48198,60.48629],[26.48357,60.48613],[26.48528,60.486],[26.4868,60.48589],[26.48855,60.4858],[26.49033,60.48572]],[[26.49033,60.48572],[26.49059,60.48572]],[[26.49059,60.48572],[26.49213,60.48568],[26.4937,60.48565],[26.49515,60.48564],[26.49626,60.48564],[26.49739,60.48566],[26.49898,60.48572],[26.4992,60.48573],[26.50063,60.48577],[26.50087,60.48578]],[[26.50087,60.48578],[26.50283,60.48586],[26.50449,60.48592],[26.50549,60.48595],[26.50629,60.48598],[26.50683,60.486]],[[26.50683,60.486],[26.50708,60.48601],[26.50791,60.48604],[26.50868,60.48607],[26.50952,60.4861],[26.51027,60.48613],[26.51107,60.48616],[26.51189,60.48619],[26.5127,60.48622],[26.51352,60.48625],[26.51432,60.48627],[26.51514,60.4863],[26.51581,60.48633]],[[26.51581,60.48633],[26.51648,60.48635]],[[26.51648,60.48635],[26.51791,60.48641],[26.51901,60.48645],[26.52007,60.48648],[26.52096,60.48651],[26.52181,60.48654],[26.52264,60.48656],[26.52342,60.48656],[26.52432,60.48658],[26.52518,60.48659],[26.52601,60.48659],[26.52679,60.48659],[26.52768,60.48658],[26.52842,60.48657],[26.52925,60.48657],[26.53006,60.48655],[26.53087,60.48653],[26.5317,60.48651],[26.53253,60.48648],[26.53338,60.48645],[26.53416,60.48642],[26.53483,60.48639]],[[26.53483,60.48639],[26.53503,60.48639]],[[26.53503,60.48639],[26.53565,60.48636],[26.53637,60.48633],[26.53707,60.4863],[26.53773,60.48628],[26.53836,60.48626],[26.53902,60.48625],[26.53965,60.48625],[26.54033,60.48625],[26.54095,60.48625],[26.54162,60.48626],[26.54234,60.48628],[26.54295,60.4863]],[[26.54295,60.4863],[26.54315,60.48631]],[[26.54315,60.48631],[26.54375,60.48634],[26.54479,60.4864],[26.54553,60.48645],[26.54622,60.48651],[26.54689,60.48656],[26.54754,60.48662],[26.54849,60.48672]],[[26.54849,60.48672],[26.5498,60.48684]],[[26.5498,60.48684],[26.55226,60.48708]],[[26.55226,60.48708],[26.55296,60.48715],[26.55477,60.48733],[26.55502,60.48735],[26.55667,60.48749],[26.55693,60.48751],[26.55738,60.48754],[26.55758,60.48755],[26.55793,60.48757],[26.55856,60.4876],[26.55998,60.48767],[26.56136,60.48773],[26.56234,60.48775],[26.56351,60.48779]],[[26.56351,60.48779],[26.56383,60.4878]],[[26.56383,60.4878],[26.56558,60.48788],[26.5668,60.48795],[26.56708,60.48797],[26.56739,60.48798],[26.56856,60.48805],[26.57035,60.48819],[26.57153,60.48827],[26.57158,60.48828],[26.5719,60.48831],[26.57287,60.4884],[26.57359,60.48847]],[[26.57359,60.48847],[26.57475,60.48858],[26.57594,60.48871],[26.578,60.48897],[26.57954,60.48919],[26.58038,60.48932]],[[26.58038,60.48932],[26.58051,60.48934],[26.58161,60.48952]],[[26.58161,60.48952],[26.58192,60.48957]],[[26.58192,60.48957],[26.58346,60.48983],[26.58476,60.49006],[26.58616,60.4903],[26.5873,60.4905],[26.58849,60.4907],[26.58893,60.49077],[26.59016,60.49098],[26.59159,60.49119],[26.59205,60.49126],[26.59295,60.4914],[26.59432,60.49159],[26.59567,60.49177],[26.59703,60.49196],[26.59839,60.49212],[26.59976,60.49228],[26.60111,60.49243],[26.60249,60.49258],[26.6038,60.4927],[26.60517,60.49284],[26.60648,60.49296],[26.60785,60.49308],[26.60919,60.49319],[26.6104,60.49328]],[[26.6104,60.49328],[26.61045,60.49328]],[[26.61045,60.49328],[26.6115,60.49335],[26.61223,60.4934]],[[26.61223,60.4934],[26.61348,60.49349],[26.61437,60.49354],[26.6152,60.49357],[26.61634,60.49363],[26.61767,60.4937],[26.61905,60.49374],[26.62052,60.4938],[26.6213,60.49382],[26.62189,60.49384],[26.62326,60.49387],[26.62458,60.4939],[26.62583,60.49393],[26.62694,60.49394],[26.62826,60.49396],[26.62832,60.49396]],[[26.62832,60.49396],[26.62979,60.49397],[26.63114,60.49397],[26.63247,60.49397],[26.63383,60.49399],[26.6345,60.49399]],[[26.6345,60.49399],[26.63514,60.49399]],[[26.63514,60.49399],[26.63712,60.494],[26.63849,60.494],[26.63915,60.49401]],[[26.63915,60.49401],[26.63983,60.49401],[26.64126,60.49402],[26.64262,60.49403],[26.64404,60.49404],[26.64542,60.49404],[26.6468,60.49405],[26.64819,60.49406],[26.64957,60.49406],[26.65095,60.49406],[26.6523,60.49407],[26.65366,60.49408],[26.65499,60.49409],[26.65631,60.49411],[26.65741,60.49413],[26.65872,60.49417],[26.66014,60.49421],[26.66154,60.49425],[26.66284,60.4943],[26.66415,60.49436],[26.66554,60.49444],[26.66688,60.49452],[26.66819,60.49462],[26.66945,60.49472],[26.67086,60.49486],[26.67227,60.49502],[26.67365,60.49519],[26.6751,60.49539],[26.67624,60.49556]],[[26.67624,60.49556],[26.67637,60.49558]],[[26.67637,60.49558],[26.67777,60.49584],[26.67919,60.49608],[26.68056,60.49632],[26.68279,60.49672],[26.68501,60.49712],[26.68664,60.49741]],[[26.68664,60.49741],[26.68754,60.49757],[26.68938,60.49789],[26.69083,60.49815],[26.69262,60.49848],[26.69533,60.49896],[26.69758,60.49937]],[[26.69758,60.49937],[26.6978,60.49941]],[[26.6978,60.49941],[26.69845,60.49954]],[[26.69845,60.49954],[26.69904,60.49964]],[[26.69904,60.49964],[26.7006,60.49992],[26.7024,60.50023],[26.70395,60.50051],[26.70591,60.50086],[26.70796,60.50122],[26.70972,60.50153],[26.71094,60.50175],[26.71298,60.50211],[26.71446,60.50235],[26.71603,60.50258],[26.71713,60.50273],[26.71787,60.50283],[26.72014,60.5031],[26.72205,60.50328],[26.72376,60.50343],[26.72546,60.50355]],[[26.72546,60.50355],[26.72566,60.50356]],[[26.72566,60.50356],[26.72693,60.50364]],[[26.72693,60.50364],[26.72707,60.50365],[26.72754,60.50367],[26.72905,60.50374],[26.73081,60.50379],[26.73133,60.50379]],[[26.73133,60.50379],[26.7326,60.50381],[26.7339,60.5038],[26.73474,60.5038],[26.73656,60.50379],[26.73992,60.50369],[26.74221,60.50363]],[[26.74221,60.50363],[26.74253,60.50363]],[[26.74253,60.50363],[26.74563,60.50359],[26.74783,60.50358],[26.74914,60.50357],[26.75018,60.50358],[26.75124,60.50359]],[[26.75124,60.50359],[26.75278,60.50362],[26.75477,60.50367],[26.75564,60.5037]],[[26.75564,60.5037],[26.75614,60.50371],[26.75702,60.50374],[26.75804,60.50376]],[[26.75804,60.50376],[26.75823,60.50377]],[[26.75823,60.50377],[26.76074,60.50386],[26.76241,60.50392],[26.76566,60.50403],[26.76727,60.50409],[26.76882,60.50415],[26.77034,60.5042],[26.77222,60.50427],[26.7753,60.50438],[26.77808,60.50449],[26.78162,60.50461],[26.78305,60.50466],[26.78453,60.5047],[26.78659,60.5047],[26.78888,60.50466],[26.79189,60.50452],[26.79339,60.50439]],[[26.79339,60.50439],[26.79354,60.50438]],[[26.79354,60.50438],[26.79502,60.50425],[26.79653,60.50409],[26.79786,60.50393],[26.79943,60.50372],[26.8008,60.5035],[26.80231,60.50323],[26.80359,60.50298],[26.8048,60.50272],[26.80631,60.50236]],[[26.80631,60.50236],[26.80689,60.50222]],[[26.80689,60.50222],[26.80792,60.50195],[26.80982,60.5014],[26.81156,60.50088],[26.81168,60.50084]],[[26.81168,60.50084],[26.81296,60.50041],[26.81438,60.49988],[26.81447,60.49984],[26.81457,60.4998]],[[26.81457,60.4998],[26.81597,60.49927],[26.81675,60.49898],[26.81745,60.49872],[26.8185,60.49834],[26.819,60.49818],[26.82004,60.49786],[26.82157,60.49745],[26.82247,60.49722]],[[26.82247,60.49722],[26.82266,60.49717],[26.82322,60.49705],[26.8238,60.49692]],[[26.8238,60.49692],[26.82412,60.49685]],[[26.82412,60.49685],[26.82582,60.49653],[26.82725,60.4963],[26.82834,60.49616],[26.82933,60.49606],[26.83047,60.49597],[26.83135,60.49593],[26.83193,60.49589],[26.83224,60.49588]],[[26.83224,60.49588],[26.83256,60.49586]],[[26.83256,60.49586],[26.83344,60.49583],[26.83362,60.49583]],[[26.83362,60.49583],[26.83476,60.49581],[26.83623,60.49582],[26.83643,60.49582]],[[26.83643,60.49582],[26.83661,60.49583],[26.83674,60.49583]],[[26.83674,60.49583],[26.83743,60.49584],[26.83873,60.49589],[26.83973,60.49595],[26.84006,60.49597],[26.84052,60.496],[26.84115,60.49605],[26.84251,60.49617],[26.84332,60.49626],[26.84431,60.49638],[26.84532,60.49651]],[[26.84532,60.49651],[26.84558,60.49654],[26.84561,60.49654]],[[26.84561,60.49654],[26.84689,60.49671],[26.84706,60.49673]],[[26.84706,60.49673],[26.84863,60.49693],[26.84989,60.49708],[26.85177,60.4973],[26.85347,60.49746],[26.85502,60.49761],[26.85618,60.49771],[26.85833,60.49787],[26.85884,60.4979]],[[26.85884,60.4979],[26.86149,60.49807],[26.86151,60.49807],[26.86367,60.49822],[26.86556,60.49837],[26.86625,60.49843],[26.86791,60.49861],[26.86942,60.49879],[26.87102,60.49899]],[[26.87102,60.49899],[26.8715,60.49906]],[[26.8715,60.49906],[26.87202,60.49913]],[[26.87202,60.49913],[26.8729,60.49926],[26.87441,60.49951],[26.8757,60.49974],[26.87694,60.49997],[26.87815,60.50021]],[[26.87815,60.50021],[26.87831,60.50024]],[[26.87831,60.50024],[26.87858,60.5003]],[[26.87858,60.5003],[26.8786,60.5003],[26.87947,60.50049]],[[26.87947,60.50049],[26.87955,60.50051],[26.88026,60.50066],[26.88035,60.50069]],[[26.88035,60.50069],[26.88069,60.50076]],[[26.88069,60.50076],[26.8807,60.50076],[26.88147,60.50094],[26.88153,60.50096]],[[26.88153,60.50096],[26.88239,60.50116],[26.88307,60.50134]],[[26.88307,60.50134],[26.88407,60.5016],[26.88442,60.50168]],[[26.88442,60.50168],[26.88662,60.50223]],[[26.88662,60.50223],[26.88669,60.50225],[26.88809,60.5026],[26.88827,60.50265],[26.88834,60.50266],[26.88837,60.50267]],[[26.88837,60.50267],[26.88838,60.50267],[26.8884,60.50268],[26.88854,60.50271],[26.8886,60.50273]],[[26.8886,60.50273],[26.88864,60.50274],[26.88885,60.50279],[26.88963,60.50297],[26.89026,60.50312],[26.89149,60.50339],[26.89386,60.50391],[26.89407,60.50395]],[[26.89407,60.50395],[26.89567,60.50427],[26.89785,60.50468],[26.89796,60.5047],[26.89802,60.50471]],[[25.97912,60.49143],[25.9796,60.49141]],[[25.9796,60.49141],[25.97999,60.49139]],[[25.97999,60.49139],[25.98163,60.49128],[25.98315,60.49116],[25.98469,60.49103],[25.98707,60.49088],[25.98824,60.49082]],[[25.98824,60.49082],[25.98914,60.49078],[25.99051,60.49071],[25.99244,60.49061],[25.99317,60.49057]],[[25.99317,60.49057],[25.99378,60.49053],[25.99554,60.49038],[25.99727,60.4902],[25.99925,60.48993]],[[25.99925,60.48993],[25.99956,60.48989]],[[25.99956,60.48989],[26.00201,60.48948],[26.00468,60.48896],[26.00613,60.48866],[26.00784,60.48821],[26.01043,60.48747],[26.01213,60.48692]],[[26.01213,60.48692],[26.01247,60.4868]],[[26.01247,60.4868],[26.01294,60.48663],[26.01355,60.4864],[26.01403,60.48622],[26.01467,60.48597],[26.01518,60.48577],[26.01565,60.48558],[26.01625,60.48535],[26.01678,60.48513],[26.01735,60.48491],[26.01789,60.48471],[26.01841,60.48451],[26.01896,60.4843],[26.01952,60.48408],[26.02021,60.48384],[26.02071,60.48366],[26.02121,60.48348],[26.02179,60.48328],[26.02241,60.48307],[26.02277,60.48294]],[[26.02277,60.48294],[26.02324,60.48278]],[[26.02324,60.48278],[26.02364,60.48265],[26.02404,60.48253],[26.02445,60.48241],[26.02503,60.48222],[26.02557,60.48205],[26.02603,60.48191]],[[26.02603,60.48191],[26.02638,60.48181],[26.02684,60.48168],[26.02763,60.48145],[26.02817,60.4813],[26.02872,60.48115],[26.02935,60.48098],[26.02984,60.48085],[26.03051,60.48067],[26.03114,60.48051],[26.03205,60.48029],[26.0331,60.48004],[26.03397,60.47984],[26.03473,60.47966],[26.03543,60.47951],[26.03601,60.47939],[26.03661,60.47926],[26.03729,60.47914],[26.03788,60.47901],[26.03857,60.47888],[26.03921,60.47876],[26.03992,60.47863]],[[26.03992,60.47863],[26.04025,60.47857]],[[26.04025,60.47857],[26.04135,60.4784],[26.04211,60.47828],[26.04276,60.47819],[26.04363,60.47807],[26.04436,60.47799],[26.0451,60.4779],[26.0458,60.47783],[26.04645,60.47777],[26.04698,60.47773],[26.04757,60.47769],[26.04817,60.47764],[26.04877,60.4776],[26.04932,60.47757],[26.04991,60.47755],[26.05035,60.47754],[26.05106,60.47752],[26.0517,60.4775],[26.05249,60.47749],[26.05321,60.47749],[26.05369,60.47749],[26.05431,60.47749],[26.05483,60.47751],[26.05549,60.47752],[26.05621,60.47756],[26.05695,60.47759],[26.05777,60.47763],[26.05882,60.47769],[26.05972,60.47774],[26.0606,60.47778],[26.06137,60.47784],[26.06286,60.47793],[26.06417,60.47802],[26.06528,60.47808],[26.06605,60.47813],[26.0668,60.47817],[26.06768,60.47823],[26.06852,60.47829],[26.0693,60.47832],[26.07015,60.47838],[26.07104,60.47842],[26.07206,60.47846],[26.07284,60.4785],[26.07383,60.47853],[26.07461,60.47855],[26.07539,60.47857],[26.07614,60.47859],[26.07694,60.47861],[26.07796,60.47862],[26.07879,60.47863]],[[26.07879,60.47863],[26.0795,60.47864],[26.08183,60.47863]],[[26.08183,60.47863],[26.08223,60.47862],[26.083,60.47861],[26.08396,60.47859],[26.08497,60.47857],[26.08584,60.47854],[26.08664,60.47851],[26.08733,60.47849],[26.08804,60.47846],[26.08885,60.47841]],[[26.08885,60.47841],[26.08935,60.47839],[26.08993,60.47837],[26.09051,60.47833],[26.09091,60.47831],[26.09139,60.47828],[26.09199,60.47824],[26.0926,60.4782],[26.09339,60.47814],[26.09413,60.47809],[26.09465,60.47805],[26.0955,60.47797],[26.09626,60.47791],[26.0969,60.47785],[26.09749,60.4778]],[[26.09749,60.4778],[26.09814,60.47773]],[[26.09814,60.47773],[26.09859,60.47768],[26.09947,60.47759],[26.10017,60.47751],[26.10081,60.47743],[26.10158,60.47733],[26.10234,60.47723],[26.10304,60.47712],[26.10372,60.47702],[26.10494,60.47681],[26.10582,60.47665],[26.10676,60.47646],[26.10764,60.47628]],[[26.10764,60.47628],[26.10808,60.47619]],[[26.10808,60.47619],[26.10855,60.47607],[26.10903,60.47596],[26.10952,60.47584],[26.11004,60.47572],[26.11083,60.47552],[26.11131,60.47538],[26.11188,60.47522],[26.11237,60.47508],[26.11284,60.47494],[26.11343,60.47476],[26.11408,60.47456],[26.11495,60.47427],[26.11552,60.47409],[26.11608,60.47389],[26.11653,60.47374],[26.11704,60.47356],[26.11743,60.47342],[26.11772,60.47332]],[[26.11772,60.47332],[26.11813,60.47318],[26.11851,60.47304]],[[26.11851,60.47304],[26.119,60.47286]],[[26.119,60.47286],[26.11935,60.47273],[26.11962,60.47264],[26.12002,60.47249],[26.12045,60.47233],[26.12093,60.47215],[26.12142,60.47196],[26.12196,60.47175],[26.12237,60.47159],[26.12284,60.47141],[26.12328,60.47124],[26.12395,60.47096],[26.12445,60.47076],[26.12497,60.47053],[26.12588,60.47014],[26.12635,60.46992],[26.12689,60.46969],[26.12732,60.46949],[26.12782,60.46925],[26.12844,60.46897],[26.12904,60.46869],[26.12959,60.46843],[26.13001,60.46823],[26.13061,60.46796],[26.13122,60.46768],[26.13176,60.46744],[26.13232,60.46718]],[[26.13232,60.46718],[26.13323,60.4668]],[[26.13323,60.4668],[26.13324,60.4668],[26.13346,60.46671],[26.13377,60.46658]],[[26.13377,60.46658],[26.13421,60.46642],[26.13556,60.4659],[26.13709,60.46531],[26.13775,60.46508],[26.14131,60.46389],[26.14513,60.46279],[26.14829,60.46198],[26.15044,60.46151]],[[26.15044,60.46151],[26.1519,60.46118],[26.1535,60.46087],[26.15536,60.46051],[26.16028,60.45972],[26.16291,60.45938],[26.16635,60.45907]],[[26.16635,60.45907],[26.16669,60.45904],[26.16711,60.459]],[[26.16711,60.459],[26.16956,60.45887],[26.17264,60.45878],[26.17588,60.45877],[26.17713,60.45882]],[[26.17713,60.45882],[26.17861,60.45889],[26.18061,60.45901],[26.18261,60.4592],[26.18296,60.45924]],[[26.18296,60.45924],[26.18588,60.45958],[26.18706,60.45972],[26.18827,60.45987],[26.19224,60.46041]],[[26.19224,60.46041],[26.19259,60.46046]],[[26.19259,60.46046],[26.19286,60.4605],[26.1962,60.46109],[26.19873,60.46161],[26.19999,60.46189],[26.20231,60.46247],[26.203,60.46266]],[[26.203,60.46266],[26.20311,60.46269],[26.20404,60.46295]],[[26.20404,60.46295],[26.20463,60.46311],[26.20695,60.4638],[26.20788,60.4641]],[[26.20788,60.4641],[26.20804,60.46415]],[[26.20804,60.46415],[26.20859,60.46433]],[[26.20859,60.46433],[26.20874,60.46437]],[[26.20874,60.46437],[26.2093,60.46455],[26.21104,60.46502],[26.21274,60.46542],[26.21531,60.46592],[26.21783,60.46632]],[[26.21783,60.46632],[26.21815,60.46636],[26.21847,60.46641]],[[26.21847,60.46641],[26.22102,60.46668],[26.22139,60.46672],[26.22194,60.46678]],[[26.22194,60.46678],[26.2223,60.46683]],[[26.2223,60.46683],[26.2229,60.46693],[26.22438,60.46717],[26.22458,60.4672]],[[26.22458,60.4672],[26.22556,60.46737],[26.22651,60.46757],[26.22755,60.46779],[26.22903,60.46813],[26.23005,60.4684]],[[26.23005,60.4684],[26.23037,60.46848],[26.23067,60.46856]],[[26.23067,60.46856],[26.23145,60.46878],[26.23256,60.4691],[26.23309,60.46925],[26.2337,60.46943],[26.23424,60.46957],[26.23547,60.4699],[26.23664,60.47019],[26.23779,60.47046],[26.23913,60.47075],[26.24092,60.47111],[26.24187,60.4713],[26.24327,60.47155],[26.24492,60.47183],[26.24575,60.47197]],[[26.24575,60.47197],[26.24679,60.47214]],[[26.24679,60.47214],[26.24728,60.47222],[26.24841,60.47242]],[[26.24841,60.47242],[26.25013,60.47272],[26.25183,60.47301],[26.25292,60.47319]],[[26.25292,60.47319],[26.2538,60.47335],[26.25497,60.47354],[26.25571,60.47367],[26.25744,60.47398],[26.25951,60.47433],[26.2613,60.47463],[26.26297,60.47491]],[[26.26297,60.47491],[26.26323,60.47495]],[[26.26323,60.47495],[26.26338,60.47498],[26.26342,60.47499],[26.26639,60.47559],[26.26851,60.47607],[26.26948,60.47632],[26.27038,60.47655],[26.27118,60.47677],[26.27165,60.4769],[26.27231,60.4771],[26.27306,60.47731],[26.27364,60.47749],[26.27455,60.47778]],[[26.27455,60.47778],[26.27456,60.47778],[26.27576,60.47818]],[[26.27576,60.47818],[26.27603,60.47827],[26.27843,60.47916],[26.2814,60.48039],[26.28161,60.48048],[26.28202,60.48067],[26.28359,60.48135],[26.28573,60.48221],[26.28806,60.48307],[26.29067,60.48397],[26.29069,60.48398]],[[26.29069,60.48398],[26.29116,60.48412]],[[26.29116,60.48412],[26.2936,60.48488],[26.29573,60.48548],[26.29832,60.48615],[26.29965,60.48646]],[[26.29965,60.48646],[26.29982,60.48651]],[[26.29982,60.48651],[26.30073,60.48671],[26.30087,60.48675],[26.30358,60.48733],[26.30597,60.48775],[26.30861,60.48821],[26.30962,60.48836]],[[26.30962,60.48836],[26.31063,60.4885]],[[26.31063,60.4885],[26.31091,60.48855],[26.31197,60.48869],[26.31219,60.48872]],[[26.31219,60.48872],[26.31235,60.48874]],[[26.31235,60.48874],[26.31363,60.48891],[26.31411,60.48896]],[[26.31411,60.48896],[26.31662,60.48922],[26.31923,60.48946],[26.32216,60.48966],[26.32485,60.48979],[26.32689,60.48985]],[[26.32689,60.48985],[26.32753,60.48987]],[[26.32753,60.48987],[26.328,60.48988],[26.33058,60.48991],[26.33176,60.48991],[26.33276,60.48989],[26.33354,60.48988],[26.33446,60.48986],[26.33574,60.48982],[26.33677,60.48978],[26.33785,60.48973],[26.33886,60.48968],[26.34057,60.48958],[26.34244,60.48943]],[[26.34244,60.48943],[26.34289,60.4894]],[[26.34289,60.4894],[26.34291,60.4894],[26.34514,60.48926],[26.34923,60.48897],[26.35214,60.48877],[26.35561,60.48853],[26.35845,60.48833],[26.36126,60.48813],[26.36387,60.48795],[26.36494,60.48788]],[[26.36494,60.48788],[26.36735,60.48771],[26.37082,60.48746],[26.37406,60.48724],[26.37519,60.48717],[26.37667,60.48708],[26.3778,60.48703],[26.37975,60.48697],[26.38127,60.48695],[26.38302,60.48695],[26.38478,60.48698],[26.38652,60.48703],[26.38827,60.48712],[26.38913,60.48717]],[[26.38913,60.48717],[26.38923,60.48718],[26.38965,60.4872]],[[26.38965,60.4872],[26.39134,60.48734],[26.39284,60.48747],[26.39436,60.48763],[26.39537,60.48775],[26.39689,60.48795],[26.39824,60.48815],[26.40051,60.48852],[26.40105,60.48862],[26.40155,60.48871]],[[26.40155,60.48871],[26.4023,60.48885],[26.40354,60.48911],[26.40497,60.48941],[26.40507,60.48944],[26.40636,60.48974],[26.40769,60.49004],[26.40882,60.4903]],[[26.40882,60.4903],[26.4095,60.49045],[26.41131,60.49083],[26.41263,60.49108],[26.41391,60.49131],[26.41641,60.49172],[26.41822,60.49197],[26.41898,60.49206]],[[26.41898,60.49206],[26.41924,60.49209]],[[26.41924,60.49209],[26.41969,60.49215],[26.41973,60.49215],[26.42098,60.4923],[26.42166,60.49238],[26.42342,60.49254],[26.42344,60.49255],[26.42497,60.49266],[26.42647,60.49276],[26.42718,60.49279],[26.4288,60.49284],[26.43059,60.49288],[26.43122,60.49289]],[[26.43122,60.49289],[26.43201,60.4929]],[[26.43201,60.4929],[26.43257,60.49291],[26.43509,60.49292],[26.43603,60.4929]],[[26.43603,60.4929],[26.43724,60.49287],[26.4385,60.49283],[26.43945,60.4928],[26.44037,60.49274],[26.44137,60.49269],[26.44236,60.49261],[26.44331,60.49254],[26.4448,60.49243]],[[26.4448,60.49243],[26.44577,60.49234]],[[26.44577,60.49234],[26.44674,60.49225],[26.44797,60.49214]],[[26.44797,60.49214],[26.44951,60.49197],[26.45026,60.49188],[26.45118,60.49176],[26.45171,60.4917],[26.45203,60.49166]],[[26.45203,60.49166],[26.45257,60.49158],[26.45279,60.49155],[26.45287,60.49154]],[[26.45287,60.49154],[26.45376,60.49142],[26.45499,60.49122],[26.45523,60.49119],[26.45567,60.49111],[26.45629,60.491],[26.45694,60.49088]],[[26.45694,60.49088],[26.45744,60.49078],[26.45751,60.49077],[26.45889,60.49048],[26.46042,60.49014],[26.4615,60.4899],[26.46173,60.48985],[26.46335,60.48947],[26.46514,60.48906],[26.46707,60.48861],[26.46832,60.48833],[26.46939,60.4881],[26.47066,60.48785],[26.47182,60.48761],[26.47292,60.4874],[26.47484,60.48708],[26.47606,60.48689]],[[26.47606,60.48689],[26.47635,60.48684]],[[26.47635,60.48684],[26.47804,60.4866],[26.47989,60.48638],[26.48184,60.48617],[26.4836,60.48601],[26.48512,60.48588],[26.48546,60.48586]],[[26.48546,60.48586],[26.48653,60.48579],[26.48733,60.48574],[26.4885,60.48566],[26.48955,60.48561],[26.49028,60.48559]],[[26.49028,60.48559],[26.49053,60.48558]],[[26.49053,60.48558],[26.49189,60.48553],[26.4934,60.48551],[26.49497,60.48551],[26.49625,60.48551],[26.49765,60.48554],[26.49849,60.48557],[26.49911,60.48559],[26.50011,60.48562],[26.50097,60.48565],[26.50137,60.48566],[26.50257,60.4857],[26.50341,60.48571]],[[26.50341,60.48571],[26.50442,60.48574],[26.50576,60.4858],[26.50687,60.48585]],[[26.50687,60.48585],[26.5076,60.48587],[26.50921,60.48593],[26.5106,60.48598],[26.51177,60.48602],[26.51288,60.48606],[26.51395,60.4861],[26.51499,60.48614],[26.51505,60.48614],[26.51585,60.48618]],[[26.51585,60.48618],[26.51651,60.4862]],[[26.51651,60.4862],[26.51774,60.48626],[26.51851,60.48629],[26.51919,60.48632],[26.51988,60.48634],[26.52051,60.48636],[26.52121,60.48638],[26.52188,60.48641],[26.52256,60.48643],[26.52316,60.48643],[26.5238,60.48644],[26.52446,60.48645],[26.52515,60.48646],[26.52578,60.48646],[26.52644,60.48646],[26.52708,60.48646],[26.52771,60.48645],[26.52838,60.48645],[26.52904,60.48644],[26.52969,60.48643],[26.53035,60.48642],[26.53108,60.4864],[26.53174,60.48638],[26.53242,60.48636],[26.53314,60.48633],[26.5338,60.48631],[26.53451,60.48628],[26.53494,60.48627]],[[26.53494,60.48627],[26.53511,60.48626]],[[26.53511,60.48626],[26.53581,60.48623],[26.53649,60.4862],[26.53703,60.48617],[26.53765,60.48616],[26.53826,60.48614],[26.53894,60.48613],[26.53959,60.48612],[26.54025,60.48612],[26.54087,60.48612],[26.54149,60.48613],[26.54213,60.48615],[26.54273,60.48617],[26.54297,60.48618]],[[26.54297,60.48618],[26.54319,60.48618]],[[26.54319,60.48618],[26.5439,60.48622],[26.54474,60.48627],[26.54532,60.48631],[26.54596,60.48636],[26.54658,60.48641],[26.54709,60.48645],[26.54777,60.48652],[26.54857,60.4866]],[[26.54857,60.4866],[26.54988,60.48672]],[[26.54988,60.48672],[26.55224,60.48697],[26.55304,60.48705]],[[26.55304,60.48705],[26.55377,60.48711],[26.55515,60.48724],[26.55522,60.48725],[26.5555,60.48726],[26.5558,60.48729],[26.55656,60.48735],[26.55672,60.48736],[26.55711,60.48738],[26.55758,60.48741],[26.55957,60.48753],[26.56108,60.4876],[26.56242,60.48764],[26.56349,60.48767]],[[26.56349,60.48767],[26.56381,60.48769]],[[26.56381,60.48769],[26.56503,60.48773],[26.56606,60.48777],[26.56777,60.48786],[26.569,60.48793],[26.5699,60.488],[26.57065,60.48806],[26.57135,60.48812],[26.57215,60.48818],[26.57259,60.48822],[26.57306,60.48827],[26.57406,60.48836],[26.57451,60.48841]],[[26.57451,60.48841],[26.57615,60.48861],[26.5775,60.48878],[26.57872,60.48893],[26.58001,60.48912],[26.58046,60.48919]],[[26.58046,60.48919],[26.58117,60.48929],[26.58195,60.48942]],[[26.58195,60.48942],[26.58224,60.48947]],[[26.58224,60.48947],[26.583,60.4896],[26.58365,60.48972],[26.58463,60.48989],[26.58616,60.49015],[26.58747,60.49038],[26.58894,60.49063],[26.58989,60.49077],[26.59228,60.49113],[26.59317,60.49126],[26.59469,60.49148],[26.59719,60.49181],[26.60014,60.49219],[26.60288,60.49248],[26.60553,60.49272],[26.60828,60.49298],[26.61043,60.49313]],[[26.61043,60.49313],[26.61049,60.49313]],[[26.61049,60.49313],[26.61093,60.49316],[26.6136,60.49333],[26.6164,60.49349],[26.61913,60.49362],[26.62161,60.4937],[26.62261,60.49373],[26.62452,60.49376],[26.62622,60.49378],[26.62779,60.49379],[26.62916,60.4938],[26.63051,60.49381],[26.63186,60.49381],[26.63323,60.49382],[26.6345,60.49382]],[[26.6345,60.49382],[26.63515,60.49383]],[[26.63515,60.49383],[26.6382,60.49386],[26.63916,60.49386]],[[26.63916,60.49386],[26.63975,60.49386],[26.64111,60.49387],[26.64249,60.49388],[26.64389,60.49389],[26.64528,60.4939],[26.64663,60.49391],[26.64802,60.49392],[26.64939,60.49393],[26.65078,60.49394],[26.65217,60.49394],[26.6526,60.49394]],[[26.6526,60.49394],[26.65355,60.49395],[26.65492,60.49396],[26.6552,60.49397],[26.65616,60.49397],[26.65672,60.49398],[26.65784,60.49399],[26.65886,60.49403],[26.66016,60.49406],[26.66154,60.49411],[26.66298,60.49417],[26.66391,60.49421],[26.66404,60.49421],[26.66436,60.49423],[26.66567,60.4943],[26.66701,60.49438],[26.66827,60.49448],[26.66954,60.49459],[26.66994,60.49463],[26.67114,60.49475],[26.67213,60.49486]],[[26.67213,60.49486],[26.67263,60.49492],[26.67394,60.4951],[26.67521,60.49528],[26.67631,60.49545]],[[26.67631,60.49545],[26.67645,60.49547]],[[26.67645,60.49547],[26.67752,60.49564],[26.67871,60.49585],[26.68013,60.49609],[26.68154,60.49634],[26.68287,60.49658],[26.68424,60.49682],[26.68556,60.49706],[26.68674,60.49727]],[[26.68674,60.49727],[26.68701,60.49732],[26.68842,60.49757],[26.68974,60.49781],[26.69172,60.49816],[26.69364,60.4985],[26.69626,60.49897],[26.69773,60.49923]],[[26.69773,60.49923],[26.69797,60.49927]],[[26.69797,60.49927],[26.69862,60.49939]],[[26.69862,60.49939],[26.69921,60.4995]],[[26.69921,60.4995],[26.70229,60.50004],[26.70515,60.50055],[26.70764,60.501],[26.70961,60.50136],[26.71192,60.50177],[26.71353,60.50204],[26.71545,60.50234],[26.71669,60.50252],[26.71712,60.50258],[26.71816,60.50271],[26.71965,60.50289],[26.72109,60.50304],[26.72284,60.5032],[26.72411,60.5033],[26.72549,60.5034]],[[26.72549,60.5034],[26.7257,60.50341]],[[26.7257,60.50341],[26.72637,60.50345],[26.72696,60.50348]],[[26.72696,60.50348],[26.72709,60.50349],[26.72757,60.50351],[26.72864,60.50355],[26.7301,60.50361],[26.73213,60.50365],[26.73289,60.50365]],[[26.73289,60.50365],[26.73379,60.50366],[26.73442,60.50366],[26.73512,60.50364],[26.73626,60.50363],[26.73703,60.50362],[26.73874,60.50357],[26.74055,60.50353],[26.74221,60.50349]],[[26.74221,60.50349],[26.74257,60.50348]],[[26.74257,60.50348],[26.7447,60.50345],[26.74657,60.50343],[26.74863,60.50341],[26.75055,60.50345],[26.75101,60.50345],[26.75232,60.50347],[26.75406,60.50352],[26.75415,60.50352]],[[26.75415,60.50352],[26.75532,60.50355],[26.75566,60.50355]],[[26.75566,60.50355],[26.75684,60.50358],[26.75806,60.50361]],[[26.75806,60.50361],[26.75825,60.50362]],[[26.75825,60.50362],[26.76009,60.50367],[26.76164,60.50374],[26.76534,60.50387],[26.76771,60.50395],[26.76926,60.50402],[26.7719,60.50411],[26.7749,60.50422],[26.77815,60.50434],[26.78143,60.50446],[26.78399,60.50454],[26.78557,60.50456],[26.7871,60.50455],[26.78863,60.50452],[26.79073,60.50444],[26.79332,60.50424]],[[26.79332,60.50424],[26.7935,60.50423]],[[26.7935,60.50423],[26.79524,60.50407],[26.79676,60.5039],[26.79825,60.5037],[26.79977,60.50349],[26.80102,60.5033],[26.80239,60.50305],[26.80398,60.50272],[26.80518,60.50244],[26.80614,60.50221]],[[26.80614,60.50221],[26.80675,60.50207]],[[26.80675,60.50207],[26.80799,60.50176],[26.80927,60.5014],[26.81065,60.50098],[26.81149,60.5007]],[[26.81149,60.5007],[26.81212,60.5005],[26.81361,60.49996],[26.81394,60.49984],[26.81504,60.49942],[26.81611,60.49901]],[[26.81611,60.49901],[26.81644,60.49888],[26.81711,60.49864],[26.81781,60.49839],[26.81839,60.4982],[26.81927,60.49793],[26.82049,60.49758],[26.82156,60.4973],[26.82264,60.49703]],[[26.82264,60.49703],[26.82271,60.49701],[26.82371,60.49679]],[[26.82371,60.49679],[26.82404,60.49673]],[[26.82404,60.49673],[26.82497,60.49653],[26.8259,60.49636],[26.82683,60.4962],[26.82765,60.4961],[26.82826,60.49601],[26.82915,60.49592],[26.82987,60.49587],[26.83067,60.49581],[26.83148,60.49577],[26.83189,60.49575]],[[26.83189,60.49575],[26.83225,60.49573]],[[26.83225,60.49573],[26.83323,60.4957],[26.83361,60.49569]],[[26.83361,60.49569],[26.8342,60.49568],[26.83476,60.49568]],[[26.83476,60.49568],[26.83527,60.49568],[26.83622,60.49568],[26.83656,60.49568]],[[26.83656,60.49568],[26.83659,60.49568],[26.83689,60.49569]],[[26.83689,60.49569],[26.83761,60.49571],[26.83842,60.49574],[26.83893,60.49577],[26.83922,60.49579],[26.84003,60.49583],[26.84146,60.49594],[26.84267,60.49605],[26.84474,60.4963],[26.84538,60.49637]],[[26.84538,60.49637],[26.84568,60.49641]],[[26.84568,60.49641],[26.84714,60.49661]],[[26.84714,60.49661],[26.84764,60.49667],[26.84788,60.49671],[26.84978,60.49694],[26.85076,60.49705],[26.85179,60.49717],[26.85312,60.49731],[26.85397,60.49739],[26.8571,60.49765],[26.85975,60.49783],[26.86147,60.49794]],[[26.86147,60.49794],[26.86276,60.49802],[26.86311,60.49804],[26.86333,60.49806],[26.86481,60.49817],[26.86533,60.49821],[26.86723,60.49839],[26.8687,60.49856],[26.87068,60.4988],[26.87107,60.49885]],[[26.87107,60.49885],[26.87149,60.49891]],[[26.87149,60.49891],[26.87195,60.49897]],[[26.87195,60.49897],[26.87342,60.49919],[26.87555,60.49955],[26.87561,60.49956],[26.8766,60.49974],[26.87821,60.50005]],[[26.87821,60.50005],[26.87851,60.50012]],[[26.87851,60.50012],[26.87866,60.50015]],[[26.87866,60.50015],[26.87955,60.50033]],[[26.87955,60.50033],[26.87973,60.50037],[26.88079,60.50061]],[[26.88079,60.50061],[26.88131,60.50073],[26.88162,60.50081]],[[26.88162,60.50081],[26.88272,60.50108],[26.88322,60.5012]],[[26.88322,60.5012],[26.8835,60.50128],[26.88444,60.50152]],[[26.88444,60.50152],[26.88611,60.50195],[26.88834,60.50248],[26.88846,60.50251],[26.88852,60.50252],[26.88855,60.50253]],[[26.88855,60.50253],[26.88856,60.50253],[26.88869,60.50256],[26.88875,60.50258]],[[26.88875,60.50258],[26.88878,60.50258],[26.88912,60.50267]],[[26.88912,60.50267],[26.89093,60.50311],[26.89327,60.50364],[26.89407,60.5038]],[[26.89407,60.5038],[26.89681,60.50435],[26.89741,60.50445]],[[26.89741,60.50445],[26.89784,60.50453],[26.89803,60.50456]]]},"properties":{"name":"Kunnossapitojakso, E18 Koskenkylä-Kotka","kind":"project","ptype":"road","subtype":"Tiehanke","status":"kaynnissa","date":"2014–2026","url":"https://vayla.fi/hankkeet","source":"Väylävirasto"}},{"type":"Feature","geometry":{"type":"LineString","coordinates":[[26.91481,60.4774],[26.91507,60.4771],[26.91539,60.47659],[26.91604,60.47537],[26.91625,60.47498],[26.91659,60.47455],[26.91718,60.47426],[26.91785,60.47408],[26.91873,60.47391],[26.91962,60.47372],[26.92068,60.47337],[26.92125,60.47308],[26.9217,60.47267],[26.92219,60.47163]]},"properties":{"name":"Vt 15 Paimenportin eritasoliittymä","kind":"project","ptype":"road","subtype":"Tiehanke","status":"kaynnissa","date":"2020–2025","url":"https://vayla.fi/vt-15-paimenportin-eritasoliittyma","source":"Väylävirasto"}},{"type":"Feature","geometry":{"type":"LineString","coordinates":[[26.91232,60.48149],[26.91317,60.48061],[26.91548,60.47843],[26.91687,60.477],[26.91724,60.4764],[26.91756,60.47556],[26.91771,60.47488],[26.91776,60.47386],[26.91778,60.47323],[26.91786,60.47242],[26.91879,60.46997]]},"properties":{"name":"Vt 15 Paimenportin eritasoliittymä","kind":"project","ptype":"road","subtype":"Tiehanke","status":"kaynnissa","date":"2020–2025","url":"https://vayla.fi/vt-15-paimenportin-eritasoliittyma","source":"Väylävirasto"}},{"type":"Feature","geometry":{"type":"LineString","coordinates":[[26.92208,60.47163],[26.92228,60.47163],[26.92213,60.47204],[26.92195,60.47221],[26.92174,60.47232],[26.92111,60.47243],[26.92028,60.47268],[26.91849,60.47354],[26.91898,60.47507],[26.91872,60.47657],[26.91581,60.47852],[26.91258,60.48155],[26.91198,60.4814],[26.915,60.47839],[26.91477,60.47726],[26.91489,60.47659],[26.91526,60.47612],[26.91587,60.47435],[26.91651,60.47407],[26.91751,60.47213],[26.91831,60.46992],[26.91908,60.47],[26.91829,60.47191],[26.91829,60.47309],[26.92012,60.47247],[26.92128,60.47222],[26.9218,60.47209],[26.92207,60.47163]]},"properties":{"name":"Vt 15 Paimenportin eritasoliittymä","kind":"project","ptype":"road","subtype":"Tiehanke","status":"kaynnissa","date":"2020–2025","url":"https://vayla.fi/vt-15-paimenportin-eritasoliittyma","source":"Väylävirasto"}},{"type":"Feature","geometry":{"type":"Polygon","coordinates":[[[26.9161,60.47484],[26.91987,60.47481],[26.91998,60.47122],[26.91666,60.47116],[26.9161,60.47484]]]},"properties":{"name":"Vt 15 Paimenportin eritasoliittymä","kind":"project","ptype":"road","subtype":"Tiehanke","status":"kaynnissa","date":"2020–2025","url":"https://vayla.fi/vt-15-paimenportin-eritasoliittyma","source":"Väylävirasto"}},{"type":"Feature","geometry":{"type":"LineString","coordinates":[[25.97119,60.49161],[25.98129,60.49151],[25.99448,60.4907],[26.0078,60.48833],[26.02511,60.4823],[26.04353,60.47821],[26.0559,60.47752],[26.07316,60.47868],[26.09197,60.47828],[26.10774,60.47647],[26.14089,60.46426],[26.1544,60.4607],[26.16575,60.4591],[26.18245,60.45914],[26.19815,60.46163],[26.21054,60.46507],[26.22005,60.46686],[26.23198,60.46911],[26.25565,60.47373],[26.27144,60.4768],[26.28244,60.48079],[26.2942,60.48512],[26.30689,60.48795],[26.31943,60.48961],[26.33159,60.49001],[26.35176,60.48897],[26.37257,60.48738],[26.38754,60.48714],[26.3955,60.48776],[26.40489,60.48942],[26.41728,60.49197],[26.42894,60.49297],[26.44202,60.49281],[26.45584,60.49106],[26.47221,60.4877],[26.48915,60.48557],[26.50915,60.48604],[26.52604,60.48662],[26.53984,60.48626],[26.56357,60.48766],[26.57712,60.4887],[26.60069,60.49238],[26.61916,60.49374],[26.6343,60.49398],[26.66982,60.49452],[26.70888,60.50153],[26.72818,60.50365],[26.74929,60.50353],[26.78476,60.50468],[26.80141,60.50311],[26.82422,60.4968],[26.83842,60.49586],[26.87141,60.49904],[26.89894,60.50482],[26.91471,60.50814]]},"properties":{"name":"E18 Koskenkylä-Kotka, rakentaminen","kind":"project","ptype":"road","subtype":"Tiehanke","status":"kaynnissa","date":"2011–2026","url":"https://vayla.fi/hankkeet","source":"Väylävirasto"}},{"type":"Feature","geometry":{"type":"MultiLineString","coordinates":[[[26.92283,60.623],[26.92247,60.62323],[26.9219,60.62361],[26.92129,60.62402],[26.92085,60.62431],[26.92033,60.62467],[26.91993,60.62495]],[[26.91993,60.62495],[26.91958,60.62518]],[[26.91958,60.62518],[26.91901,60.62557],[26.91762,60.62653],[26.91724,60.62679],[26.91672,60.62714],[26.91653,60.62727]],[[26.91653,60.62727],[26.91614,60.62754],[26.91515,60.62822],[26.91473,60.6285],[26.91319,60.62956],[26.91279,60.62983],[26.91214,60.63028],[26.91164,60.63061],[26.91109,60.63099],[26.91107,60.63101],[26.9105,60.6314],[26.9099,60.63181],[26.90926,60.63226]],[[26.90926,60.63226],[26.90861,60.63272],[26.90801,60.63316],[26.90742,60.6336],[26.90656,60.63424],[26.90605,60.63462],[26.9056,60.63495],[26.90554,60.635],[26.90532,60.63516],[26.90503,60.63538],[26.90489,60.63549],[26.90451,60.63578],[26.90389,60.63624],[26.90346,60.63656],[26.90302,60.6369],[26.90242,60.63735]],[[26.90242,60.63735],[26.90201,60.63764],[26.90127,60.63819],[26.90069,60.63862],[26.90063,60.63867],[26.90027,60.63894],[26.89989,60.63922],[26.89961,60.63943],[26.89955,60.63948],[26.89912,60.6398],[26.89882,60.64002],[26.89845,60.6403],[26.89837,60.64036]],[[26.89837,60.64036],[26.89817,60.64051],[26.89778,60.64082],[26.89748,60.64108],[26.89723,60.64131],[26.89686,60.64168],[26.89685,60.64169]],[[26.89685,60.64169],[26.8968,60.64175],[26.89678,60.64178]],[[26.89678,60.64178],[26.89655,60.64206],[26.89627,60.6424],[26.89602,60.6427],[26.89581,60.64298],[26.89556,60.64328],[26.89535,60.64355],[26.89516,60.64381],[26.89491,60.64411],[26.89467,60.64442],[26.89441,60.64474],[26.89439,60.64476]],[[26.89439,60.64476],[26.89405,60.6452],[26.89376,60.64557],[26.89296,60.64657],[26.89246,60.64719]],[[26.89246,60.64719],[26.89246,60.6472],[26.89244,60.64722]],[[26.89244,60.64722],[26.89206,60.64771],[26.89175,60.64811],[26.89134,60.64862],[26.89095,60.64911],[26.89048,60.64971],[26.89009,60.65021],[26.8898,60.6506],[26.88951,60.65101],[26.88918,60.65151],[26.88886,60.65203],[26.88885,60.65205]],[[26.88885,60.65205],[26.88858,60.65249]],[[26.88858,60.65249],[26.88849,60.65265],[26.88826,60.65306],[26.88804,60.65347],[26.88789,60.65379],[26.8877,60.6542],[26.88759,60.65445]],[[26.88759,60.65445],[26.88756,60.65453],[26.88734,60.65505],[26.88718,60.6555],[26.88702,60.65594],[26.88673,60.65676],[26.88662,60.65708],[26.88648,60.65748],[26.88624,60.65813],[26.88605,60.65865]],[[26.88605,60.65865],[26.88592,60.659],[26.88578,60.6594],[26.88576,60.65946],[26.88562,60.65982],[26.88547,60.66022],[26.88531,60.66063],[26.88515,60.66104],[26.88493,60.66156],[26.88456,60.66241],[26.8843,60.66302],[26.88412,60.66344],[26.88386,60.664],[26.88364,60.66454],[26.88321,60.66554],[26.88298,60.66609],[26.88269,60.66678],[26.88268,60.66678]],[[26.88268,60.66678],[26.88237,60.6675],[26.88204,60.66828],[26.88179,60.6689],[26.8816,60.6694],[26.88135,60.67013],[26.88117,60.67075],[26.88099,60.67147],[26.88098,60.6715]],[[26.88098,60.6715],[26.88087,60.672],[26.88074,60.67258],[26.88057,60.67332]],[[26.88057,60.67332],[26.88056,60.67334],[26.8805,60.67357],[26.88029,60.67445],[26.88015,60.6751],[26.88002,60.67563]],[[26.88002,60.67563],[26.87991,60.67612],[26.87986,60.67628],[26.87977,60.67664],[26.87962,60.6771],[26.87948,60.67753],[26.87931,60.678],[26.87882,60.67914],[26.8785,60.67977],[26.87802,60.68063],[26.87771,60.68115],[26.87752,60.68141]],[[26.87752,60.68141],[26.87746,60.68151]],[[26.87746,60.68151],[26.87746,60.68151],[26.87732,60.68175],[26.87681,60.68254],[26.87678,60.68259]],[[26.87678,60.68259],[26.87673,60.68267],[26.87672,60.68268]],[[26.87672,60.68268],[26.8767,60.68272],[26.87614,60.68362],[26.87613,60.68363]],[[26.87613,60.68363],[26.87502,60.68578],[26.87473,60.68644]],[[26.87473,60.68644],[26.87471,60.68647]],[[26.87471,60.68647],[26.8747,60.6865],[26.87453,60.68687]],[[26.87453,60.68687],[26.87452,60.6869]],[[26.87452,60.6869],[26.87439,60.68719],[26.87412,60.68781],[26.87373,60.68871],[26.87371,60.68878]],[[26.87371,60.68878],[26.87336,60.68962],[26.87296,60.69043],[26.87264,60.69111],[26.87249,60.69138]],[[26.87249,60.69138],[26.8722,60.69193],[26.87193,60.6924],[26.87166,60.69283],[26.8714,60.69328],[26.87108,60.69378],[26.87084,60.69418],[26.87072,60.69436],[26.87059,60.69458],[26.87011,60.6953]],[[26.87011,60.6953],[26.86966,60.69601],[26.86911,60.69686],[26.86844,60.69791],[26.8681,60.69844],[26.86785,60.69881],[26.8676,60.6992],[26.86757,60.69925]]]},"properties":{"name":"Vt 15 Rantahaka (Kotka) - Kouvola, 1.vaihe","kind":"project","ptype":"road","subtype":"Tiehanke","status":"kaynnissa","date":"2025–2029","url":"https://vayla.fi/vt-15-parantaminen-valilla-kotka-kouvola","source":"Väylävirasto"}},{"type":"Feature","geometry":{"type":"MultiLineString","coordinates":[[[27.00685,60.55985],[27.00681,60.55987],[27.00655,60.56]],[[27.00655,60.56],[27.0062,60.56019],[27.00572,60.56047],[27.00524,60.56077],[27.0052,60.56079],[27.005,60.56092]],[[27.005,60.56092],[27.00438,60.5614],[27.00405,60.56168],[27.00379,60.56193],[27.00356,60.56218],[27.00344,60.56232],[27.0034,60.56239],[27.00343,60.56246]],[[27.00702,60.55989],[27.00649,60.56014]],[[27.00649,60.56014],[27.00582,60.56051],[27.00541,60.56078],[27.00511,60.56096]],[[27.00511,60.56096],[27.00476,60.56125],[27.00444,60.56152],[27.00403,60.5619],[27.00382,60.56211],[27.00373,60.56222],[27.00362,60.56234],[27.00353,60.56241],[27.00343,60.56246]],[[27.00343,60.56246],[27.00295,60.56304],[27.00276,60.56329],[27.00235,60.56381],[27.00229,60.56389]],[[27.00229,60.56389],[27.00214,60.56409]],[[27.00214,60.56409],[27.002,60.56428]],[[27.002,60.56428],[27.00186,60.56448],[27.00184,60.56449]],[[27.00184,60.56449],[27.00158,60.56484]],[[27.00158,60.56484],[27.00141,60.56505],[27.00093,60.56569],[27.00027,60.56651]],[[27.00027,60.56651],[26.99973,60.56719],[26.99904,60.56798],[26.99828,60.56875],[26.99691,60.57014]],[[26.99691,60.57014],[26.9968,60.57025]],[[26.9968,60.57025],[26.9966,60.57045],[26.99503,60.57205]],[[26.99503,60.57205],[26.99496,60.57213],[26.99455,60.57255],[26.99374,60.57335],[26.9931,60.57399],[26.99159,60.57551],[26.99086,60.57624]],[[26.99086,60.57624],[26.99056,60.57655],[26.98888,60.57826],[26.98789,60.57926]],[[26.98789,60.57926],[26.98723,60.57993],[26.98654,60.58062]],[[26.98654,60.58062],[26.98637,60.58078],[26.98621,60.58094],[26.98607,60.58108]],[[26.98607,60.58108],[26.98407,60.58298],[26.9837,60.5833]],[[26.9837,60.5833],[26.98343,60.58352],[26.98312,60.58378],[26.9828,60.58405]],[[26.9828,60.58405],[26.9828,60.58405],[26.98279,60.58406],[26.98278,60.58406],[26.98274,60.5841],[26.98271,60.58412]],[[26.98271,60.58412],[26.98254,60.58425],[26.98239,60.58438],[26.98211,60.58461],[26.98137,60.58519]],[[26.98137,60.58519],[26.98107,60.58543],[26.97916,60.58682],[26.97916,60.58682],[26.97915,60.58683]],[[26.97915,60.58683],[26.97898,60.58695],[26.97884,60.58705],[26.97862,60.58721],[26.97841,60.58736]],[[26.97841,60.58736],[26.97769,60.58786],[26.97625,60.58889],[26.97551,60.58942],[26.97458,60.59009]],[[26.97458,60.59009],[26.97443,60.5902]],[[26.97443,60.5902],[26.97397,60.59053]],[[26.97397,60.59053],[26.97376,60.59069],[26.97339,60.59096]]]},"properties":{"name":"Vt 15 Rantahaka (Kotka) - Kouvola, 1.vaihe","kind":"project","ptype":"road","subtype":"Tiehanke","status":"kaynnissa","date":"2025–2029","url":"https://vayla.fi/vt-15-parantaminen-valilla-kotka-kouvola","source":"Väylävirasto"}},{"type":"Feature","geometry":{"type":"MultiLineString","coordinates":[[[26.91466,60.47907],[26.91445,60.47926],[26.9142,60.47949],[26.91394,60.47974],[26.91351,60.48016]],[[26.91351,60.48016],[26.91339,60.48028]],[[26.91339,60.48028],[26.91325,60.48042],[26.91295,60.48072],[26.91275,60.48093],[26.91255,60.48113],[26.91229,60.4814],[26.91215,60.48154],[26.91201,60.48169],[26.91195,60.48175],[26.91196,60.48184]],[[26.91479,60.47912],[26.91454,60.47935],[26.91402,60.47984],[26.91386,60.48],[26.91367,60.48018]],[[26.91367,60.48018],[26.91355,60.4803]],[[26.91355,60.4803],[26.91301,60.48084],[26.91262,60.48124],[26.9124,60.48147],[26.91222,60.48166],[26.91215,60.48174],[26.9121,60.48179],[26.91196,60.48184]],[[26.91196,60.48184],[26.91122,60.48264],[26.91075,60.48319],[26.91028,60.48374],[26.90983,60.48427],[26.90916,60.48503],[26.90882,60.48538]],[[26.90882,60.48538],[26.90821,60.4859],[26.90752,60.48654],[26.90697,60.48703],[26.90663,60.48733],[26.9066,60.48736]],[[26.9066,60.48736],[26.90657,60.48739],[26.9064,60.48756]],[[26.9064,60.48756],[26.90628,60.48767],[26.90622,60.48773]],[[26.90622,60.48773],[26.90606,60.48789]],[[26.90606,60.48789],[26.90584,60.48808],[26.90564,60.48829],[26.90553,60.48843]],[[26.90882,60.48538],[26.90865,60.48565],[26.9085,60.48585],[26.9081,60.48629],[26.90765,60.48672],[26.90723,60.48711],[26.90686,60.48743],[26.90685,60.48744],[26.90679,60.48749]],[[26.90679,60.48749],[26.90653,60.48769],[26.90642,60.48778]],[[26.90642,60.48778],[26.90623,60.48793]],[[26.90623,60.48793],[26.90602,60.4881],[26.9058,60.48828],[26.90553,60.48843]],[[26.90553,60.48843],[26.90537,60.48857],[26.905,60.48885],[26.90446,60.48926],[26.90392,60.48973],[26.90341,60.49018],[26.90314,60.49044]],[[26.90314,60.49044],[26.90297,60.49061],[26.90274,60.49086],[26.90254,60.49111],[26.90225,60.49149],[26.90203,60.49178],[26.90129,60.49298],[26.90057,60.49397],[26.89996,60.49465],[26.89969,60.49494]],[[26.89969,60.49494],[26.89947,60.49519],[26.89944,60.49522],[26.89931,60.49536],[26.89928,60.49539],[26.89916,60.49552]],[[26.89916,60.49552],[26.89873,60.49602],[26.8982,60.49678],[26.89773,60.49764],[26.89756,60.49814]],[[26.89756,60.49814],[26.89753,60.49823],[26.89744,60.49854]],[[26.89744,60.49854],[26.89728,60.49969],[26.89733,60.50018]],[[26.89733,60.50018],[26.89729,60.50039],[26.89731,60.50071],[26.8974,60.5011],[26.89752,60.50167]],[[26.89752,60.50167],[26.89762,60.50193]],[[26.89762,60.50193],[26.89766,60.50207]],[[26.89766,60.50207],[26.89774,60.50233]],[[26.89733,60.50018],[26.89741,60.50054],[26.89745,60.50073]],[[26.89745,60.50073],[26.89754,60.5012],[26.89763,60.5015],[26.89768,60.50174],[26.89773,60.50193]],[[26.89773,60.50193],[26.89777,60.50206]],[[26.89777,60.50206],[26.89787,60.50233]]]},"properties":{"name":"Vt 15 Kotkan sisääntulotie (Hyväntuulentie) rakentaminen","kind":"project","ptype":"road","subtype":"Tiehanke","status":"kaynnissa","date":"2026–2027","url":"https://vayla.fi/hankkeet","source":"Väylävirasto"}},{"type":"Feature","geometry":{"type":"LineString","coordinates":[[27.16693,60.55174],[27.16695,60.55167],[27.1673,60.55055],[27.1674,60.55022],[27.16741,60.54924],[27.16742,60.54879],[27.16742,60.54818],[27.16746,60.54456],[27.16602,60.54258],[27.166,60.54256],[27.16524,60.54098],[27.16506,60.54062],[27.16505,60.54059],[27.16509,60.54044],[27.16542,60.5392],[27.16859,60.53727],[27.16932,60.5369],[27.17028,60.53643],[27.17137,60.53588],[27.17234,60.53505],[27.1729,60.53457]]},"properties":{"name":"Kouvola - Kotka / Hamina rautatiehanke - rakentaminen","kind":"project","ptype":"rail","subtype":"Ratahanke","status":"kaynnissa","date":"2019–2025","url":"https://vayla.fi/kouvola-kotka-hamina","source":"Väylävirasto"}},{"type":"Feature","geometry":{"type":"LineString","coordinates":[[26.74996,60.86849],[26.75033,60.86852],[26.75175,60.86863],[26.75259,60.86868],[26.75379,60.86873],[26.75468,60.86877],[26.75566,60.86878],[26.75646,60.86879],[26.75713,60.86879],[26.75757,60.86878],[26.75802,60.86876],[26.75851,60.86871],[26.75865,60.8687],[26.75899,60.86866],[26.7594,60.86861],[26.75968,60.86856],[26.75994,60.8685],[26.76025,60.86844],[26.76063,60.86834],[26.76126,60.86816],[26.76176,60.86799],[26.76216,60.86783],[26.76271,60.86758],[26.76314,60.86733],[26.76351,60.86707],[26.76387,60.86678],[26.76415,60.86649],[26.76435,60.86625],[26.76436,60.86625],[26.76444,60.86615],[26.76455,60.86594],[26.76471,60.8656],[26.76479,60.86543],[26.76486,60.86525],[26.76493,60.86498],[26.76491,60.86472],[26.76488,60.86441],[26.76481,60.86402],[26.76461,60.86319],[26.76434,60.86199],[26.76429,60.86171],[26.7641,60.86087],[26.7639,60.86009],[26.76381,60.85975],[26.76381,60.85966],[26.76379,60.85958],[26.76379,60.85957],[26.76378,60.85956],[26.76365,60.85909],[26.76355,60.85865],[26.76348,60.85843],[26.76339,60.85792],[26.76322,60.85719],[26.76307,60.85654],[26.76301,60.85627],[26.7628,60.8554],[26.76256,60.85428],[26.76251,60.85407],[26.76244,60.85371],[26.76232,60.85318],[26.76224,60.85283],[26.76208,60.85214],[26.76189,60.85131],[26.76176,60.85078],[26.76149,60.8495],[26.76124,60.84847],[26.76112,60.84794],[26.76102,60.84747],[26.76092,60.84701],[26.76083,60.84654],[26.76061,60.84554],[26.76044,60.84487],[26.76028,60.8441],[26.76019,60.84375],[26.75995,60.84264],[26.75961,60.84118],[26.75945,60.84044],[26.75927,60.83973],[26.75915,60.83907],[26.75906,60.83868],[26.75897,60.83828],[26.75892,60.83805],[26.75882,60.8376],[26.75857,60.83655],[26.75847,60.83615],[26.75836,60.83571],[26.7582,60.83497],[26.75809,60.83444],[26.75797,60.83391],[26.75791,60.83376],[26.75781,60.83333],[26.75774,60.83294],[26.75763,60.83246],[26.75754,60.83216],[26.7574,60.83156],[26.75726,60.83101],[26.75701,60.82993],[26.75696,60.82972],[26.75677,60.82892],[26.75666,60.82841],[26.75666,60.82839],[26.75662,60.82824],[26.75662,60.82823],[26.75637,60.82712],[26.75622,60.82655],[26.7561,60.82595],[26.75599,60.82542],[26.7559,60.82502],[26.75585,60.82478],[26.75547,60.8229],[26.75545,60.82242],[26.75543,60.82206],[26.75547,60.82169],[26.75553,60.82113],[26.75559,60.82046],[26.75567,60.81978],[26.75574,60.81911],[26.75577,60.81876],[26.75584,60.81796],[26.75612,60.81468],[26.75615,60.81426],[26.75618,60.81403],[26.75631,60.81264],[26.75663,60.80934],[26.75666,60.80902],[26.75669,60.8087],[26.75672,60.80842],[26.75679,60.80774],[26.75686,60.80715],[26.75702,60.80648],[26.75722,60.80594],[26.75726,60.80586],[26.7576,60.80509],[26.75829,60.80399],[26.75862,60.80357],[26.75892,60.8032],[26.76032,60.80182],[26.76151,60.8009],[26.76178,60.80073],[26.76281,60.80005],[26.76333,60.79973],[26.76371,60.79951],[26.76467,60.79893],[26.76589,60.79819],[26.76697,60.79752],[26.76768,60.79704],[26.76825,60.79661],[26.76855,60.79636],[26.76942,60.79563],[26.7699,60.79521],[26.77054,60.79465],[26.77183,60.79353],[26.77208,60.7933],[26.77263,60.79279],[26.77306,60.79235],[26.77351,60.7918],[26.77406,60.79101],[26.77447,60.79026],[26.77492,60.78938],[26.77585,60.78762],[26.77627,60.78685],[26.77682,60.78584],[26.77683,60.78583],[26.77739,60.78478],[26.77831,60.78306],[26.77866,60.78238],[26.77964,60.78054],[26.77965,60.78053],[26.78084,60.7783],[26.78085,60.7783],[26.78165,60.77677],[26.78203,60.77608],[26.78236,60.77547],[26.78245,60.77531],[26.78251,60.7752],[26.78286,60.77465],[26.78323,60.77417],[26.78381,60.77356],[26.78453,60.77289],[26.78607,60.77144],[26.78739,60.77022],[26.78778,60.76986],[26.78822,60.76947],[26.78887,60.76887],[26.78952,60.76827],[26.78984,60.76798],[26.79024,60.76762],[26.79098,60.76692],[26.79228,60.76572],[26.79279,60.76524],[26.79346,60.76462],[26.79379,60.76431],[26.79403,60.7641],[26.79437,60.76378],[26.79474,60.76343],[26.79524,60.76297],[26.79563,60.76263],[26.79601,60.76231],[26.79636,60.76204],[26.79661,60.76184],[26.79694,60.7616],[26.79712,60.76146],[26.79763,60.76112],[26.79823,60.76073],[26.79891,60.76032],[26.79907,60.76024],[26.79969,60.7599],[26.80059,60.75945],[26.80178,60.75892],[26.80287,60.75845],[26.80406,60.75793],[26.80508,60.7575],[26.80644,60.75692],[26.80785,60.75631],[26.81125,60.75485],[26.81269,60.75424],[26.81308,60.75407],[26.81349,60.75388],[26.81379,60.75374],[26.81403,60.75362],[26.81514,60.753],[26.81616,60.75229],[26.81717,60.75136],[26.81783,60.75054],[26.81811,60.7501],[26.81838,60.74971],[26.81891,60.7489],[26.81928,60.74832],[26.81938,60.74815],[26.82012,60.74705],[26.82056,60.74634],[26.8206,60.74626],[26.82113,60.74526],[26.82159,60.74407],[26.82166,60.7439],[26.82189,60.74298],[26.822,60.74232],[26.82222,60.74049],[26.8226,60.73746],[26.82266,60.737],[26.82288,60.73513],[26.82309,60.73356],[26.82323,60.73239],[26.82338,60.73118],[26.82358,60.72944],[26.82371,60.72851],[26.82379,60.72791],[26.82399,60.72627],[26.82414,60.72504],[26.82421,60.72446],[26.82444,60.72256],[26.82464,60.72093],[26.82474,60.72004],[26.8248,60.71955],[26.82495,60.71825],[26.82515,60.71669],[26.82539,60.71474],[26.82561,60.71295],[26.82584,60.7111],[26.82591,60.71052],[26.82595,60.71015],[26.82607,60.70916],[26.82627,60.70759],[26.82643,60.70627],[26.82665,60.70534],[26.82717,60.70439],[26.82796,60.70349],[26.82877,60.70284],[26.8296,60.70232],[26.82984,60.70218],[26.83014,60.70201],[26.83074,60.70165],[26.83076,60.70164],[26.83084,60.7016],[26.83097,60.70149],[26.8312,60.70131],[26.83123,60.70129],[26.83205,60.70083],[26.83286,60.70036],[26.83343,60.70003],[26.83402,60.69967],[26.83475,60.69923],[26.83546,60.69881],[26.83623,60.69837],[26.8366,60.69815],[26.83699,60.69794],[26.83778,60.69749],[26.83838,60.69713],[26.83998,60.6962],[26.84076,60.69576],[26.84146,60.69535],[26.84151,60.69532],[26.84204,60.69503],[26.84233,60.69486],[26.84236,60.69484],[26.84266,60.6947],[26.84287,60.69459],[26.84291,60.69457],[26.84352,60.6943],[26.84411,60.69398],[26.84463,60.69367],[26.84585,60.69288],[26.84672,60.69211],[26.84737,60.6912],[26.84766,60.69035],[26.84776,60.68972],[26.84778,60.68962],[26.84797,60.68854],[26.84801,60.68823],[26.84823,60.68694],[26.84826,60.68683],[26.84855,60.68566],[26.84872,60.68528],[26.84884,60.68505],[26.84975,60.68383],[26.85105,60.68263],[26.85259,60.68133],[26.8539,60.68044],[26.85432,60.6802],[26.85457,60.68007],[26.85523,60.67975],[26.85582,60.67947],[26.85623,60.6793],[26.85695,60.679],[26.85825,60.67845],[26.85969,60.67783],[26.86085,60.67733],[26.8622,60.6767],[26.86311,60.67617],[26.86384,60.67568],[26.86449,60.67515],[26.865,60.67468],[26.86542,60.67421],[26.8658,60.67376],[26.86669,60.67266],[26.86707,60.67218],[26.86763,60.67149],[26.86813,60.67086],[26.86859,60.67027],[26.86902,60.66975],[26.87014,60.66836],[26.87077,60.66758],[26.87151,60.66667],[26.87217,60.66585],[26.87248,60.66546],[26.87272,60.66516],[26.87295,60.66488],[26.87318,60.66459],[26.87345,60.66424],[26.87365,60.66396],[26.87371,60.66387],[26.87394,60.66349],[26.87408,60.6632],[26.87428,60.66274],[26.87443,60.66232],[26.87453,60.66187],[26.87459,60.66152],[26.87467,60.66113],[26.87477,60.66067],[26.87486,60.66035],[26.87496,60.65997],[26.8751,60.65967],[26.87524,60.65938],[26.87529,60.65927],[26.8754,60.65904],[26.87541,60.65903],[26.87559,60.65865],[26.8756,60.65862],[26.87568,60.65847],[26.8757,60.65844],[26.87576,60.6583],[26.87587,60.65809],[26.87597,60.65785],[26.87609,60.6576],[26.87632,60.65712],[26.87655,60.65667],[26.87674,60.65626],[26.87692,60.65588],[26.87711,60.65547],[26.8773,60.65509],[26.87732,60.65505],[26.87753,60.65463],[26.87771,60.65424],[26.87789,60.65385],[26.87807,60.65349],[26.87824,60.65312],[26.87854,60.65249],[26.87869,60.65217],[26.87887,60.65179],[26.87903,60.65146],[26.87914,60.65122],[26.87927,60.65094],[26.87928,60.65092],[26.87946,60.65056],[26.87963,60.65021],[26.87974,60.64997],[26.87999,60.64946],[26.88026,60.64888],[26.88054,60.6483],[26.88088,60.64759],[26.88116,60.647],[26.88143,60.64643],[26.88149,60.64629],[26.88199,60.64525],[26.88233,60.64454],[26.88259,60.64401],[26.88281,60.64353],[26.88313,60.64286],[26.88342,60.64227],[26.88399,60.64108],[26.88423,60.64058],[26.88445,60.64011],[26.88463,60.63978],[26.88486,60.6394],[26.88512,60.63902],[26.88545,60.63862],[26.88582,60.63821],[26.88606,60.63796],[26.88639,60.63765],[26.88642,60.63762],[26.8871,60.63698],[26.8877,60.63641],[26.88817,60.63595],[26.88879,60.63536],[26.8888,60.63536],[26.88908,60.63509],[26.88936,60.6348],[26.88957,60.63456],[26.88975,60.63437],[26.88995,60.63412],[26.89015,60.63386],[26.89086,60.63296],[26.89122,60.63251],[26.89162,60.63201],[26.89193,60.63162],[26.89217,60.63131],[26.89239,60.63099],[26.89259,60.63067],[26.89277,60.63039],[26.8929,60.63015],[26.89303,60.62988],[26.89323,60.62947],[26.89328,60.62937],[26.89342,60.62906],[26.8937,60.62845],[26.89391,60.62803],[26.89421,60.6274],[26.89434,60.62711],[26.89456,60.62674],[26.89495,60.6259],[26.89523,60.62529],[26.89545,60.62482],[26.89562,60.62449],[26.89583,60.62411],[26.896,60.62383],[26.89625,60.62348],[26.89653,60.62313],[26.8969,60.62272],[26.89731,60.6223],[26.89775,60.62187],[26.89826,60.62136],[26.89858,60.62105],[26.89874,60.6209],[26.89922,60.62047],[26.89964,60.62012],[26.90023,60.61969],[26.9007,60.61936],[26.90116,60.61906],[26.90157,60.61881],[26.90181,60.61867],[26.90231,60.6184],[26.90271,60.61818],[26.90316,60.61797],[26.90379,60.61768],[26.90441,60.61741],[26.90501,60.61718],[26.90553,60.61698],[26.90559,60.61696],[26.90601,60.6168],[26.90656,60.61662],[26.90683,60.61653],[26.90701,60.61647],[26.90763,60.61628],[26.90808,60.61616],[26.9088,60.61595],[26.90956,60.61574],[26.91073,60.61542],[26.91172,60.61515],[26.91191,60.61509],[26.91241,60.61495],[26.91326,60.61472],[26.91419,60.61446],[26.91516,60.61419],[26.9161,60.61394],[26.91717,60.61363],[26.91853,60.61326],[26.91922,60.61307],[26.91997,60.61284],[26.92041,60.6127],[26.92102,60.6125],[26.92156,60.61229],[26.92198,60.61212],[26.92238,60.61194],[26.92286,60.61171],[26.92363,60.61133],[26.92423,60.61104],[26.92502,60.61065],[26.92575,60.61029],[26.92649,60.60993],[26.92649,60.60993],[26.92682,60.60976],[26.92755,60.60939],[26.92923,60.60855],[26.92963,60.60836],[26.9301,60.60813],[26.93113,60.60762],[26.93194,60.60722],[26.9326,60.6069],[26.93338,60.60651],[26.93492,60.60574],[26.93558,60.6054],[26.93663,60.60489],[26.93759,60.60444],[26.93837,60.60403],[26.93925,60.6036],[26.93943,60.60351],[26.9409,60.60278],[26.94188,60.60228],[26.94251,60.60197],[26.94318,60.60165],[26.94393,60.60128],[26.94453,60.60097],[26.94523,60.60063],[26.94601,60.60024],[26.9468,60.59985],[26.94729,60.59961],[26.94773,60.59936],[26.94809,60.59915],[26.94849,60.59891],[26.94895,60.5986],[26.94908,60.59851],[26.94933,60.59832],[26.94951,60.59818],[26.94968,60.59804],[26.94988,60.59787],[26.95006,60.59771],[26.9502,60.59758],[26.95031,60.59747],[26.95043,60.59735],[26.95052,60.59726],[26.9506,60.59717],[26.95074,60.59701],[26.95085,60.59688],[26.95097,60.59673],[26.951,60.5967],[26.95106,60.59661],[26.9512,60.59642],[26.95131,60.59626],[26.95141,60.59611],[26.95153,60.59592],[26.95166,60.5957],[26.95175,60.59551],[26.95184,60.59532],[26.95193,60.59513],[26.95203,60.59492],[26.95219,60.59458],[26.95225,60.59444],[26.95232,60.5943],[26.9524,60.59409],[26.95251,60.59387],[26.9526,60.59368],[26.95273,60.59342],[26.95281,60.59324],[26.95291,60.59301],[26.95301,60.59279],[26.95317,60.59248],[26.95328,60.59226],[26.95336,60.59208],[26.95357,60.59164],[26.95368,60.5914],[26.95377,60.59118],[26.95388,60.59095],[26.95392,60.59086],[26.95397,60.59077],[26.95407,60.59056],[26.95408,60.59052],[26.95423,60.59025],[26.95455,60.58974],[26.95498,60.5892],[26.95556,60.58861],[26.95618,60.58807],[26.95622,60.58805],[26.95697,60.58752],[26.95806,60.58685],[26.95897,60.58628],[26.95986,60.58556],[26.96028,60.58509],[26.96069,60.58447],[26.96072,60.58442],[26.96105,60.58328],[26.96112,60.58217],[26.96116,60.58078],[26.96105,60.58013],[26.96092,60.57978],[26.96077,60.57941],[26.9601,60.57841],[26.95965,60.57794],[26.95904,60.57736],[26.95822,60.5766],[26.9575,60.57593],[26.95637,60.57488],[26.95519,60.57379],[26.95394,60.57263],[26.95361,60.57232],[26.95306,60.5718],[26.95274,60.57151],[26.95217,60.57098],[26.9515,60.57036],[26.95074,60.56967],[26.95008,60.56904],[26.94947,60.56842],[26.94891,60.56776],[26.9483,60.56693],[26.94775,60.56612],[26.94713,60.56534],[26.94637,60.56464],[26.94494,60.56362],[26.94488,60.56358],[26.94346,60.56279],[26.94221,60.56212],[26.94081,60.56136],[26.93925,60.56052],[26.93744,60.55954],[26.93261,60.55692],[26.93207,60.55663],[26.92981,60.5554],[26.92687,60.55381],[26.92358,60.55203],[26.92311,60.55177],[26.92244,60.5514],[26.92158,60.55093],[26.92059,60.55039],[26.92038,60.55027],[26.92016,60.55013],[26.91958,60.54977],[26.91896,60.54935],[26.91836,60.54891],[26.91774,60.54839],[26.91722,60.54794],[26.91678,60.54751],[26.91612,60.54687],[26.91544,60.54624],[26.91481,60.54563],[26.91461,60.54544],[26.91408,60.54494],[26.9136,60.54447],[26.91348,60.54435],[26.91311,60.54399],[26.91278,60.54367],[26.91255,60.54352],[26.91237,60.54338],[26.91201,60.54303],[26.91161,60.54266],[26.91144,60.54251],[26.91111,60.54223],[26.91061,60.54183],[26.91007,60.54143],[26.90889,60.54055],[26.90868,60.54039],[26.90769,60.53965],[26.90721,60.53928],[26.90665,60.53886],[26.90591,60.53832],[26.90582,60.53825],[26.90562,60.53809],[26.90555,60.53803],[26.9054,60.5379],[26.90514,60.53765],[26.90512,60.53763],[26.90473,60.53734],[26.90407,60.53684],[26.90359,60.53647],[26.90253,60.53567],[26.9016,60.53498],[26.90132,60.53477],[26.90076,60.53434],[26.90038,60.534],[26.90032,60.53394],[26.90028,60.53389],[26.89992,60.53338],[26.89967,60.53289],[26.89964,60.53282],[26.8996,60.53273],[26.89955,60.53262],[26.89928,60.53198],[26.89903,60.53108],[26.89905,60.52998],[26.8991,60.52912],[26.89914,60.52842],[26.89916,60.52795],[26.89917,60.52711],[26.8991,60.52657],[26.89891,60.5259],[26.89885,60.52569],[26.89847,60.52491],[26.8979,60.52408],[26.8967,60.52287],[26.89478,60.52122],[26.89312,60.51981],[26.89179,60.51867],[26.89116,60.51809],[26.89101,60.51793],[26.89101,60.51793],[26.89084,60.51774],[26.8905,60.51733],[26.89012,60.51673],[26.88986,60.51619],[26.88951,60.51492],[26.88961,60.51357],[26.88996,60.51265],[26.89038,60.51196],[26.89059,60.51163],[26.8906,60.51162],[26.89085,60.51125],[26.89097,60.51108],[26.89158,60.51034],[26.89239,60.50972],[26.89243,60.5097],[26.89299,60.50937],[26.89492,60.50859],[26.8971,60.50776],[26.89867,60.50711],[26.89957,60.50662],[26.90038,60.50607],[26.90101,60.50551],[26.90115,60.50536],[26.90161,60.5048],[26.90189,60.5044],[26.90265,60.50294],[26.90285,60.50254],[26.90331,60.50159],[26.90384,60.50075],[26.90398,60.50057],[26.90492,60.49954],[26.90589,60.49874],[26.90593,60.4987],[26.90732,60.49771],[26.90856,60.49682],[26.90972,60.49597],[26.90999,60.49578],[26.91133,60.49482],[26.91172,60.49454],[26.91287,60.49371],[26.9132,60.49342],[26.91332,60.49332],[26.91347,60.49319],[26.9137,60.49299],[26.9142,60.49248],[26.91465,60.49196],[26.91473,60.49179],[26.91764,60.48691],[26.91786,60.48654],[26.91807,60.48617],[26.91842,60.48539],[26.91848,60.48522],[26.91871,60.48463],[26.91892,60.48406],[26.919,60.48383],[26.91914,60.4834],[26.91926,60.483],[26.91932,60.48258],[26.91935,60.48209],[26.91935,60.48088],[26.91937,60.47985],[26.91936,60.4788],[26.91938,60.47769],[26.91938,60.47764],[26.91938,60.47685],[26.91934,60.47593],[26.91929,60.47569],[26.91923,60.47547],[26.91917,60.47526],[26.91903,60.47493],[26.91889,60.47454],[26.91877,60.47425],[26.91867,60.47399],[26.91863,60.47384],[26.91853,60.47345],[26.91846,60.47294],[26.91843,60.47243],[26.91845,60.47211],[26.91851,60.47181],[26.91863,60.47142],[26.91889,60.47078],[26.91911,60.47023],[26.91913,60.4702],[26.91913,60.47018],[26.91917,60.47009],[26.91972,60.46876],[26.91973,60.46873],[26.92065,60.46676],[26.92123,60.46627],[26.92187,60.46584],[26.92319,60.46525],[26.92416,60.46486],[26.92525,60.46459],[26.92641,60.4644],[26.92757,60.46433],[26.92844,60.46435],[26.92972,60.46457],[26.9312,60.46497],[26.93218,60.46533],[26.93242,60.46542],[26.9339,60.466],[26.94609,60.4711],[26.94676,60.47138],[26.94773,60.47185],[26.94836,60.47216]]},"properties":{"name":"Kouvola - Kotka / Hamina rautatiehanke - rakentaminen","kind":"project","ptype":"rail","subtype":"Ratahanke","status":"kaynnissa","date":"2019–2025","url":"https://vayla.fi/kouvola-kotka-hamina","source":"Väylävirasto"}},{"type":"Feature","geometry":{"type":"LineString","coordinates":[[26.91973,60.46873],[26.91981,60.46856],[26.92066,60.46675],[26.92162,60.46543],[26.92181,60.46522],[26.92192,60.4651],[26.92222,60.46466],[26.92238,60.46437],[26.92245,60.46414],[26.9225,60.46382],[26.92248,60.46353],[26.92239,60.46315],[26.92237,60.46308],[26.92225,60.46269],[26.92223,60.46263],[26.92207,60.46195],[26.92197,60.46137],[26.92188,60.46091],[26.92172,60.46045],[26.92152,60.46008],[26.92149,60.46003],[26.92134,60.45977],[26.92112,60.4595],[26.92085,60.45923],[26.92052,60.45896],[26.92019,60.45874],[26.91975,60.45849],[26.91933,60.4583],[26.91888,60.45812],[26.91829,60.45793],[26.91725,60.45762],[26.91458,60.45683],[26.91349,60.45651],[26.91312,60.4564],[26.91217,60.45611],[26.91141,60.45588],[26.91066,60.45561],[26.91027,60.45544],[26.90981,60.45521],[26.90949,60.45503],[26.90914,60.45485],[26.90865,60.45464],[26.90788,60.45438],[26.90787,60.45437],[26.9065,60.45401],[26.90606,60.45389],[26.90564,60.45377],[26.90467,60.45346],[26.90401,60.4532],[26.90346,60.45293],[26.90292,60.45262],[26.90231,60.45218],[26.90175,60.45165],[26.90132,60.45103],[26.90108,60.45043],[26.90089,60.44972],[26.90064,60.44885],[26.90045,60.44825],[26.90011,60.44745],[26.89979,60.44696],[26.89977,60.44692],[26.89924,60.44625],[26.8984,60.44541],[26.8972,60.44443],[26.89596,60.44342],[26.89565,60.44317],[26.89547,60.44302],[26.8953,60.44288],[26.8948,60.44247],[26.89409,60.44191],[26.89339,60.44132],[26.89253,60.44064],[26.89213,60.44031],[26.89145,60.43976],[26.89088,60.43929],[26.89075,60.43919],[26.89041,60.43891],[26.88994,60.43855],[26.88938,60.43804],[26.8891,60.43768],[26.88901,60.43753],[26.88888,60.43708],[26.88888,60.43678],[26.88908,60.43627],[26.88921,60.43602],[26.88923,60.43599],[26.88958,60.43561],[26.88968,60.4355],[26.89014,60.43499],[26.89041,60.43471],[26.89089,60.4343],[26.89135,60.43397],[26.89183,60.43371],[26.89227,60.43346],[26.89282,60.43322],[26.89336,60.43302],[26.8938,60.43287],[26.89492,60.43255],[26.89661,60.43206],[26.90474,60.42967],[26.90639,60.42905],[26.90759,60.4287],[26.90799,60.42854],[26.91162,60.42703],[26.91864,60.42411],[26.91955,60.42381],[26.92187,60.42284]]},"properties":{"name":"Kouvola - Kotka / Hamina rautatiehanke - rakentaminen","kind":"project","ptype":"rail","subtype":"Ratahanke","status":"kaynnissa","date":"2019–2025","url":"https://vayla.fi/kouvola-kotka-hamina","source":"Väylävirasto"}},{"type":"Feature","geometry":{"type":"LineString","coordinates":[[26.92419,60.61111],[26.92428,60.61107],[26.92662,60.60991],[26.93807,60.60425],[26.93903,60.60378],[26.9395,60.60354],[26.94028,60.60316],[26.9411,60.60275],[26.94168,60.60245],[26.94205,60.60226],[26.94259,60.602],[26.94318,60.60171],[26.94394,60.60133],[26.94488,60.60088],[26.94561,60.60052],[26.94631,60.60017],[26.94676,60.59994],[26.94744,60.59959],[26.94814,60.5992],[26.94856,60.59894],[26.94896,60.59867],[26.94919,60.59852],[26.94935,60.5984],[26.94953,60.59825],[26.94974,60.59809],[26.94986,60.59798],[26.95003,60.59783],[26.95023,60.59766],[26.95039,60.59749],[26.95055,60.59731],[26.95069,60.59716],[26.95086,60.59697],[26.95101,60.5968],[26.95108,60.59671],[26.95117,60.59659],[26.9513,60.59642],[26.95143,60.59622],[26.95158,60.59599],[26.95166,60.59583],[26.95185,60.59546],[26.95206,60.59503],[26.95224,60.59462],[26.95241,60.59427],[26.95263,60.59382],[26.95276,60.59351],[26.95293,60.59317],[26.95308,60.59285],[26.9532,60.59259],[26.95337,60.59224],[26.95358,60.59177],[26.95398,60.59092],[26.9541,60.59066],[26.95417,60.59052],[26.95436,60.59016],[26.95485,60.58945],[26.95527,60.58897],[26.95569,60.58856],[26.95622,60.58812],[26.95628,60.58807],[26.95687,60.58765],[26.95774,60.5871],[26.95798,60.58696],[26.95877,60.58649],[26.95877,60.58649],[26.95958,60.58601],[26.96052,60.58545],[26.96052,60.58545],[26.96136,60.58497],[26.96136,60.58497],[26.9621,60.58461],[26.9621,60.58461],[26.96316,60.58416],[26.96316,60.58416],[26.96316,60.58416],[26.96403,60.58385],[26.96563,60.5834],[26.96768,60.58299],[26.96853,60.58289],[26.96886,60.58286],[26.9702,60.58278],[26.97027,60.58278],[26.97191,60.58282],[26.97366,60.58299],[26.97581,60.58325],[26.97684,60.58337],[26.98224,60.584],[26.98272,60.58406],[26.9831,60.58411],[26.9858,60.58443],[26.98744,60.58462],[26.98773,60.58465],[26.98811,60.5847],[26.98821,60.58471],[26.98972,60.58488],[26.99128,60.58506],[26.99358,60.58533],[26.99574,60.58554],[26.9969,60.58564],[26.99716,60.58567],[26.99754,60.5857],[26.99823,60.58576],[27.00131,60.58604],[27.00591,60.58646],[27.01094,60.58692],[27.01492,60.58728],[27.0191,60.58766],[27.02255,60.58797],[27.02376,60.58808],[27.02643,60.58832],[27.02931,60.58858],[27.03127,60.58872],[27.03258,60.58879],[27.03326,60.58883],[27.03718,60.58896],[27.04186,60.58909],[27.04234,60.58911],[27.04799,60.58927],[27.0536,60.58943],[27.05518,60.58947],[27.05736,60.58954],[27.06007,60.58962],[27.06105,60.58965],[27.06382,60.58978],[27.06823,60.59013],[27.07146,60.5905],[27.07155,60.59051],[27.07342,60.59078],[27.07511,60.59105],[27.07669,60.59134],[27.07775,60.59154],[27.08,60.59196],[27.08206,60.59236],[27.0848,60.5929],[27.08642,60.5932],[27.08784,60.59347],[27.08815,60.59353],[27.09062,60.59401],[27.09083,60.59405],[27.09119,60.59412],[27.09338,60.59454],[27.0947,60.5948],[27.09661,60.59516],[27.09837,60.5955],[27.10185,60.59617],[27.10434,60.59665],[27.10469,60.59671],[27.10775,60.5973],[27.10946,60.59762],[27.11085,60.59788],[27.11167,60.59802],[27.11211,60.59809],[27.1122,60.59811],[27.12277,60.59983],[27.12558,60.60029],[27.12684,60.60041],[27.12846,60.6005],[27.12908,60.60049],[27.12988,60.60048],[27.13169,60.60032],[27.13317,60.60007],[27.13545,60.59956],[27.13867,60.59882],[27.1416,60.59816],[27.14304,60.59782],[27.14415,60.59758],[27.14553,60.59726],[27.14592,60.59717],[27.14648,60.59703],[27.14791,60.59666],[27.14911,60.59632],[27.15088,60.59583],[27.15301,60.59523],[27.15523,60.59462],[27.15745,60.59399],[27.15765,60.59393],[27.15799,60.59383],[27.15827,60.59374],[27.15853,60.59365],[27.15862,60.59362],[27.15876,60.59356],[27.15883,60.59354],[27.15894,60.59349],[27.15913,60.59341],[27.1593,60.59334],[27.15957,60.59321],[27.15978,60.59311],[27.15999,60.59299],[27.16012,60.59292],[27.16029,60.59282],[27.16052,60.59267],[27.16069,60.59256],[27.16084,60.59245],[27.16097,60.59234],[27.16108,60.59225],[27.1611,60.59223],[27.1612,60.59215],[27.16132,60.59203],[27.16147,60.59187],[27.1616,60.59172],[27.16171,60.59159],[27.16187,60.59136],[27.16193,60.59128],[27.16199,60.59116],[27.16221,60.59068],[27.16232,60.59043],[27.16272,60.58959],[27.16353,60.58786],[27.16481,60.58518],[27.16506,60.58465],[27.1652,60.58428],[27.16524,60.58415],[27.16534,60.58366],[27.16535,60.58308],[27.16525,60.58248],[27.16505,60.58192],[27.16487,60.58145],[27.16419,60.57985],[27.16345,60.57811],[27.16285,60.57672],[27.16283,60.57667],[27.16253,60.57595],[27.16228,60.57547],[27.16227,60.57545],[27.16198,60.57493],[27.16161,60.57428],[27.16072,60.57272],[27.16028,60.57199],[27.16,60.57132],[27.15988,60.57095],[27.1598,60.57056],[27.15976,60.56983],[27.15976,60.56983],[27.15982,60.56908],[27.15996,60.56849],[27.16019,60.56788],[27.16048,60.56716],[27.1606,60.56686],[27.16065,60.56672],[27.16067,60.56665],[27.16082,60.5661],[27.16088,60.56559],[27.16089,60.5653],[27.16089,60.56506],[27.16088,60.56492],[27.16087,60.56457],[27.16082,60.56373],[27.16081,60.5634],[27.16081,60.56334],[27.16081,60.56274],[27.16084,60.56234],[27.16087,60.56205],[27.16089,60.5618],[27.16093,60.56155],[27.16104,60.56093],[27.16115,60.56028],[27.16122,60.55989],[27.1614,60.55929],[27.16169,60.55865],[27.16213,60.55796],[27.1623,60.55773],[27.16245,60.55753],[27.16337,60.55633],[27.16422,60.55521],[27.165,60.55421],[27.16533,60.55378],[27.16533,60.55377],[27.16577,60.55321],[27.16616,60.5527],[27.16674,60.55203],[27.16705,60.55168],[27.1674,60.55022],[27.16738,60.54921],[27.16737,60.54867],[27.16746,60.54456],[27.166,60.54256],[27.16409,60.54147],[27.1628,60.54106],[27.15001,60.53697],[27.14754,60.53617],[27.14753,60.53616],[27.14556,60.53552],[27.14173,60.53432],[27.13989,60.53407],[27.1333,60.53189],[27.13184,60.53182],[27.13181,60.53182],[27.13024,60.53175],[27.12892,60.53207],[27.12772,60.53239],[27.11895,60.53759],[27.11892,60.53761],[27.11062,60.54253]]},"properties":{"name":"Kouvola - Kotka / Hamina rautatiehanke - rakentaminen","kind":"project","ptype":"rail","subtype":"Ratahanke","status":"kaynnissa","date":"2019–2025","url":"https://vayla.fi/kouvola-kotka-hamina","source":"Väylävirasto"}}]}