{"type":"FeatureCollection","features":[{"type":"Feature","geometry":{"type":"LineString","coordinates":[[27.26102,63.59514],[26.2622,62.91241],[26.56523,61.47161],[28.12668,61.86545],[28.71633,62.42373],[28.06256,63.39683],[27.2702,63.57624]]},"properties":{"name":"POSELY586/2025 Valaisinvaihdot 2025, Itä-Suomi","kind":"project","ptype":"road","subtype":"Tiehanke","status":"kaynnissa","date":"2024–2025","url":"https://vayla.fi/hankkeet","source":"Väylävirasto"}},{"type":"Feature","geometry":{"type":"LineString","coordinates":[[27.86036,62.31379],[27.85927,62.30817],[27.87194,62.29641],[27.87857,62.28469],[27.86723,62.27784],[27.80081,62.25921],[27.77912,62.24592],[27.74305,62.23141],[27.69988,62.20871],[27.72947,62.2064],[27.77806,62.18688],[27.79038,62.17989],[27.82524,62.16866],[27.9155,62.12462],[27.97574,62.10149],[28.00491,62.09047],[28.08629,62.0693],[28.14293,62.055],[28.28124,62.01204]]},"properties":{"name":"POKA VT16 Joensuu-Nurmes","kind":"project","ptype":"rail","subtype":"Ratahanke","status":"kaynnissa","date":"2022–2025","url":"https://vayla.fi/hankkeet","source":"Väylävirasto"}},{"type":"Feature","geometry":{"type":"LineString","coordinates":[[28.28035,62.01292],[28.27943,62.01293]]},"properties":{"name":"POKA VT16 Joensuu-Nurmes","kind":"project","ptype":"rail","subtype":"Ratahanke","status":"kaynnissa","date":"2022–2025","url":"https://vayla.fi/hankkeet","source":"Väylävirasto"}},{"type":"Feature","geometry":{"type":"LineString","coordinates":[[27.86036,62.31379],[27.85927,62.30817],[27.87194,62.29641],[27.87857,62.28469],[27.86723,62.27784],[27.80081,62.25921],[27.77912,62.24592],[27.74305,62.23141],[27.69988,62.20871],[27.72947,62.2064],[27.77806,62.18688],[27.79038,62.17989],[27.82524,62.16866],[27.9155,62.12462],[27.97574,62.10149],[28.00491,62.09047],[28.08629,62.0693],[28.14293,62.055],[28.28124,62.01204]]},"properties":{"name":"POKA VT17.2 Laurila-Patokangas","kind":"project","ptype":"rail","subtype":"Ratahanke","status":"kaynnissa","date":"2022–2025","url":"https://vayla.fi/hankkeet","source":"Väylävirasto"}},{"type":"Feature","geometry":{"type":"LineString","coordinates":[[28.28035,62.01292],[28.27943,62.01293]]},"properties":{"name":"POKA VT17.2 Laurila-Patokangas","kind":"project","ptype":"rail","subtype":"Ratahanke","status":"kaynnissa","date":"2022–2025","url":"https://vayla.fi/hankkeet","source":"Väylävirasto"}},{"type":"Feature","geometry":{"type":"LineString","coordinates":[[27.86036,62.31379],[27.85927,62.30817],[27.87194,62.29641],[27.87857,62.28469],[27.86723,62.27784],[27.80081,62.25921],[27.77912,62.24592],[27.74305,62.23141],[27.69988,62.20871],[27.72947,62.2064],[27.77806,62.18688],[27.79038,62.17989],[27.82524,62.16866],[27.9155,62.12462],[27.97574,62.10149],[28.00491,62.09047],[28.08629,62.0693],[28.14293,62.055],[28.28124,62.01204]]},"properties":{"name":"POKA VT17.1 Tornio-Kolari","kind":"project","ptype":"rail","subtype":"Ratahanke","status":"kaynnissa","date":"2022–2025","url":"https://vayla.fi/hankkeet","source":"Väylävirasto"}},{"type":"Feature","geometry":{"type":"LineString","coordinates":[[28.28035,62.01292],[28.27943,62.01293]]},"properties":{"name":"POKA VT17.1 Tornio-Kolari","kind":"project","ptype":"rail","subtype":"Ratahanke","status":"kaynnissa","date":"2022–2025","url":"https://vayla.fi/hankkeet","source":"Väylävirasto"}},{"type":"Feature","geometry":{"type":"LineString","coordinates":[[27.68894,62.21006],[27.68914,62.21002],[27.68939,62.20997],[27.69005,62.20986],[27.69081,62.2097],[27.69144,62.20959],[27.69199,62.20949],[27.69262,62.20938],[27.69338,62.20924],[27.69403,62.20912],[27.69465,62.209],[27.6958,62.20879],[27.69582,62.20879],[27.69638,62.20869],[27.69638,62.20869],[27.6964,62.20868],[27.69727,62.2085],[27.69782,62.2084],[27.69887,62.20821],[27.69944,62.20811],[27.69988,62.20802],[27.70041,62.20792],[27.70093,62.20784],[27.70152,62.20775],[27.70207,62.20767],[27.7027,62.2076],[27.70335,62.20754],[27.70401,62.20748],[27.7047,62.20745],[27.70535,62.20744],[27.70597,62.20742],[27.70655,62.20741],[27.70721,62.2074],[27.70736,62.2074],[27.70781,62.20739],[27.70896,62.20736],[27.70957,62.20735],[27.71037,62.20734],[27.71102,62.20733],[27.7117,62.20732],[27.71234,62.20731],[27.71298,62.2073],[27.71363,62.20729],[27.71492,62.20726],[27.71583,62.20725],[27.7165,62.20723],[27.71717,62.20722],[27.71788,62.20721],[27.71853,62.2072],[27.71906,62.20719],[27.71974,62.20718],[27.72032,62.20717],[27.72102,62.20716],[27.72158,62.20715],[27.7222,62.20712],[27.7227,62.20709],[27.72328,62.20707],[27.72383,62.20703],[27.72414,62.20701],[27.72442,62.20699],[27.72484,62.20696],[27.72529,62.20692],[27.72579,62.20687],[27.72637,62.20681],[27.7265,62.20679],[27.72692,62.20674],[27.72746,62.20667],[27.72796,62.20661],[27.72847,62.20654],[27.72897,62.20646],[27.72948,62.20638],[27.73004,62.20628],[27.73059,62.20618],[27.73112,62.20607],[27.7316,62.20598],[27.73215,62.20586],[27.73267,62.20574],[27.73316,62.20562],[27.73373,62.20547],[27.73426,62.20534],[27.73471,62.20522],[27.73517,62.20509],[27.73553,62.205],[27.73572,62.20495],[27.73585,62.20491],[27.73615,62.20483],[27.73654,62.20473],[27.737,62.2046],[27.73746,62.20447],[27.7379,62.20436],[27.73837,62.20424],[27.73882,62.2041],[27.73929,62.20396],[27.73968,62.20384],[27.73971,62.20383],[27.74014,62.20369],[27.74062,62.20352],[27.74103,62.20338],[27.74145,62.20323],[27.74188,62.20306],[27.7423,62.2029],[27.74267,62.20275],[27.74307,62.20259],[27.74331,62.20249],[27.74345,62.20243],[27.74384,62.20225],[27.74422,62.20209],[27.74459,62.20194],[27.74499,62.20176],[27.7454,62.2016],[27.74579,62.20144],[27.74618,62.20127],[27.74657,62.20111],[27.747,62.20092],[27.74737,62.20077],[27.74764,62.20066],[27.74802,62.20051],[27.74839,62.20034],[27.74878,62.20019],[27.74905,62.20007],[27.74946,62.19988],[27.75046,62.19946],[27.75134,62.19909],[27.752,62.19882],[27.75211,62.19877],[27.75312,62.19835],[27.75515,62.1975],[27.75627,62.19702],[27.75685,62.19678],[27.75736,62.19656],[27.75753,62.19649],[27.758,62.19629],[27.75902,62.19586],[27.75958,62.19563],[27.76017,62.19538],[27.76071,62.19516],[27.76134,62.19489],[27.76187,62.19466],[27.76239,62.19444],[27.76299,62.1942],[27.76351,62.19398],[27.76403,62.19375],[27.76461,62.19351],[27.76499,62.19335],[27.76551,62.19312],[27.76662,62.19262],[27.76922,62.19157],[27.77174,62.19049],[27.77206,62.19035],[27.77386,62.18962],[27.7749,62.18914],[27.77593,62.18863],[27.77691,62.1881],[27.7778,62.18757],[27.7784,62.18721],[27.77854,62.18709],[27.78013,62.18616],[27.78129,62.18546],[27.7825,62.18474],[27.78363,62.18406],[27.78396,62.18388],[27.78428,62.18369],[27.78498,62.18327],[27.78639,62.18243],[27.78778,62.18165],[27.78912,62.18102],[27.79026,62.18059],[27.79182,62.18007],[27.79353,62.17953],[27.79556,62.17891],[27.79803,62.17812],[27.79886,62.17787],[27.80023,62.17744],[27.80231,62.17679],[27.80302,62.17657],[27.80314,62.17653],[27.80386,62.1763],[27.80398,62.17626],[27.80504,62.17593],[27.80623,62.17556],[27.80769,62.1751],[27.80846,62.17486],[27.81015,62.17433],[27.81224,62.17368],[27.81374,62.17321],[27.81431,62.17304],[27.81491,62.17286],[27.81498,62.17283],[27.81608,62.17246],[27.81709,62.17209],[27.81821,62.17162],[27.8194,62.17106],[27.82063,62.17048],[27.82198,62.16985],[27.82478,62.16852],[27.82736,62.16731],[27.82858,62.16673],[27.82964,62.16622],[27.83164,62.1653],[27.83306,62.16465],[27.83404,62.16416],[27.83569,62.16337],[27.83613,62.16318],[27.83787,62.16234],[27.8396,62.16152],[27.84195,62.16044],[27.84294,62.15998],[27.84639,62.15836],[27.84671,62.15821],[27.85033,62.15651],[27.85363,62.15495],[27.85531,62.15414],[27.85739,62.15314],[27.85986,62.15198],[27.86003,62.1519],[27.86147,62.1512],[27.86296,62.1505],[27.8651,62.14952],[27.86703,62.14872],[27.8694,62.14773],[27.87175,62.14674],[27.87283,62.14629],[27.87473,62.1455],[27.87618,62.14489],[27.87812,62.14408],[27.8799,62.14333],[27.88186,62.14234],[27.88336,62.14154],[27.88396,62.14123],[27.88614,62.14009],[27.8875,62.13937],[27.88916,62.1385],[27.89061,62.13773],[27.89242,62.13678],[27.89452,62.13568],[27.89616,62.13481],[27.89619,62.13479],[27.89781,62.13394],[27.90004,62.13277],[27.90215,62.13166],[27.90497,62.13018],[27.90662,62.1293],[27.9088,62.12816],[27.90885,62.12814],[27.9119,62.12653],[27.91387,62.12549],[27.91583,62.12454],[27.91793,62.12367],[27.92136,62.12227],[27.92151,62.12221],[27.9223,62.12189],[27.9234,62.12144],[27.9264,62.12022],[27.92876,62.11926],[27.93113,62.11829],[27.93381,62.1172],[27.93612,62.11627],[27.93668,62.11604],[27.93875,62.1152],[27.94055,62.11447],[27.94449,62.11286],[27.9459,62.11228],[27.94698,62.11185],[27.94873,62.11113],[27.95075,62.11031],[27.95122,62.11012],[27.95177,62.1099],[27.95315,62.10934],[27.95426,62.10889],[27.9544,62.10883],[27.95532,62.10848],[27.95642,62.10808],[27.95738,62.10771],[27.9584,62.10734],[27.96119,62.10631],[27.96298,62.10564],[27.96396,62.10527],[27.96498,62.1049],[27.96575,62.10461],[27.96619,62.10445],[27.96666,62.10427],[27.96772,62.10388],[27.96865,62.10354],[27.96963,62.10318],[27.97106,62.10264],[27.97472,62.10128],[27.97568,62.10093],[27.97693,62.10046],[27.97779,62.10015],[27.97904,62.09968],[27.98036,62.09919],[27.98128,62.09885],[27.98372,62.09795],[27.9853,62.09736],[27.98877,62.09607],[27.99039,62.09547],[27.9918,62.09494],[27.99368,62.09425],[27.99438,62.09398],[27.99545,62.09359],[27.99627,62.09328],[27.99685,62.09307],[27.99813,62.0926],[27.99976,62.09198],[28.00078,62.09161],[28.00173,62.09126],[28.00276,62.09086],[28.00362,62.09056],[28.00469,62.09025],[28.00546,62.09006],[28.00678,62.08977],[28.0103,62.08901],[28.01242,62.08856],[28.01243,62.08856],[28.01374,62.08829],[28.01514,62.088],[28.01647,62.08772],[28.01762,62.08748],[28.02029,62.0869],[28.0212,62.08666],[28.02227,62.08637],[28.02368,62.08598],[28.02496,62.08563],[28.02646,62.08523],[28.02783,62.08485],[28.02918,62.08448],[28.02942,62.08441],[28.03015,62.08421],[28.03143,62.08387],[28.0328,62.08348],[28.03393,62.08317],[28.03679,62.08239],[28.03788,62.08209],[28.04595,62.07988],[28.04651,62.07972],[28.04847,62.0792],[28.04915,62.07901],[28.05202,62.07822],[28.05793,62.0767],[28.05801,62.07668],[28.0595,62.07632],[28.06161,62.07578],[28.0626,62.07553],[28.06332,62.07535],[28.0662,62.07463],[28.06906,62.07392],[28.07052,62.07356],[28.07202,62.07319],[28.07314,62.07291],[28.07415,62.07265],[28.07512,62.0724],[28.07642,62.07207],[28.07742,62.07183],[28.07845,62.07157],[28.07956,62.07129],[28.07973,62.07125],[28.08105,62.07093],[28.08236,62.07061],[28.08355,62.0703],[28.08499,62.06994],[28.08641,62.06958],[28.08795,62.06919],[28.08914,62.0689],[28.09062,62.06853],[28.09293,62.06795],[28.09637,62.06709],[28.09726,62.06687],[28.09727,62.06687],[28.09912,62.06641],[28.10105,62.06593],[28.10269,62.06549],[28.10449,62.06505],[28.10694,62.06444],[28.10824,62.06412],[28.10981,62.06374],[28.11104,62.06342],[28.11251,62.06305],[28.11322,62.06287],[28.11471,62.06249],[28.11624,62.06212],[28.11789,62.06171],[28.11945,62.06131],[28.12092,62.06094],[28.12256,62.06053],[28.12403,62.06016],[28.12506,62.0599],[28.12623,62.05961],[28.12956,62.05878],[28.12985,62.05871],[28.13009,62.05865],[28.13241,62.05806],[28.13366,62.05775],[28.1351,62.05737],[28.13567,62.05723],[28.13601,62.05714],[28.1367,62.05693],[28.13775,62.05659],[28.13893,62.05617],[28.1404,62.05565],[28.14157,62.05523],[28.1427,62.05482],[28.1438,62.05444],[28.1439,62.0544],[28.1446,62.05418],[28.14607,62.05381],[28.1475,62.05345],[28.15065,62.0529],[28.15199,62.05264],[28.15343,62.0524],[28.15474,62.05217],[28.15576,62.05199],[28.15903,62.05141],[28.1608,62.05107],[28.16228,62.05077],[28.16363,62.05042],[28.16371,62.0504],[28.16474,62.05012],[28.16565,62.04986],[28.16881,62.04897],[28.17052,62.04848],[28.17185,62.04811],[28.17396,62.04752],[28.17406,62.04748],[28.17618,62.04689],[28.17813,62.04633],[28.17983,62.04586],[28.18007,62.04579],[28.18191,62.04526],[28.18338,62.04484],[28.18473,62.04447],[28.18615,62.04407],[28.18743,62.0437],[28.18883,62.04331],[28.19094,62.04271],[28.19168,62.04252],[28.193,62.04213],[28.19597,62.04129],[28.19654,62.04113],[28.19741,62.04089],[28.20063,62.03996],[28.20141,62.03975],[28.2027,62.03938],[28.20425,62.03892],[28.2054,62.03852],[28.20679,62.03801],[28.20854,62.03736],[28.20971,62.03693],[28.21098,62.03645],[28.21208,62.03604],[28.21221,62.03599],[28.21345,62.03553],[28.21462,62.03509],[28.21618,62.03454],[28.21773,62.03403],[28.21925,62.03354],[28.22211,62.03261],[28.22364,62.03211],[28.22523,62.0316],[28.22631,62.03125],[28.22768,62.0308],[28.22915,62.03033],[28.23116,62.02968],[28.2327,62.02917],[28.2349,62.02847],[28.2368,62.02785],[28.23833,62.02736],[28.23841,62.02733],[28.24022,62.02674],[28.24195,62.02618],[28.24293,62.02586],[28.24322,62.02576],[28.24485,62.02523],[28.24552,62.02502],[28.24593,62.02488],[28.24652,62.0247],[28.2477,62.02431],[28.24811,62.02418],[28.24827,62.02413],[28.24942,62.02375],[28.25048,62.02341],[28.25163,62.02304],[28.25261,62.02272],[28.25361,62.0224],[28.25581,62.02168],[28.25697,62.0213],[28.25796,62.02099],[28.25877,62.02072],[28.25894,62.02066],[28.25908,62.02062],[28.25964,62.02044],[28.26072,62.02009],[28.26158,62.01981],[28.26275,62.01943],[28.26372,62.01911],[28.26561,62.0185],[28.26672,62.01814],[28.26774,62.0178],[28.26887,62.01744],[28.26974,62.01714],[28.27049,62.01684],[28.27078,62.01673],[28.27081,62.01672],[28.27109,62.0166],[28.27185,62.01629],[28.27303,62.01581],[28.27423,62.01531],[28.27473,62.01511],[28.27551,62.01479],[28.27632,62.01446],[28.27667,62.01432],[28.277,62.01418],[28.27772,62.01388],[28.27845,62.01359],[28.27897,62.01337],[28.27953,62.01314],[28.28014,62.01289],[28.28066,62.01268],[28.28086,62.01259],[28.28109,62.0125],[28.28151,62.01233],[28.28163,62.01228],[28.28203,62.01211],[28.28268,62.01185],[28.28348,62.01155],[28.28421,62.0113],[28.28603,62.01067],[28.28673,62.01042],[28.28747,62.01017],[28.28812,62.00995],[28.289,62.00964],[28.2891,62.0096],[28.28996,62.0093],[28.29086,62.009],[28.2916,62.00874],[28.2925,62.00842],[28.2937,62.00801],[28.29555,62.00738],[28.29654,62.00705]]},"properties":{"name":"POKA VT15 Siilinjärvi-Viinijärvi-Rantasalmi","kind":"project","ptype":"rail","subtype":"Ratahanke","status":"kaynnissa","date":"2022–2025","url":"https://vayla.fi/hankkeet","source":"Väylävirasto"}}]}