{"type":"FeatureCollection","features":[{"type":"Feature","geometry":{"type":"MultiLineString","coordinates":[[[23.49609,60.5248],[23.49609,60.52483],[23.49605,60.52502],[23.49603,60.52518],[23.496,60.52534],[23.49598,60.5254],[23.49598,60.52542],[23.49597,60.52544],[23.49595,60.52551]],[[23.49595,60.52551],[23.49592,60.52558],[23.49585,60.5257],[23.49574,60.52578],[23.49563,60.52587],[23.49549,60.52595],[23.49534,60.52603],[23.49525,60.52607],[23.49492,60.52617],[23.49462,60.52626],[23.49439,60.52632]]]},"properties":{"name":"T-5353 Sianojan silta","kind":"project","ptype":"road","subtype":"Tiehanke","status":"kaynnissa","date":"2024–2025","url":"https://vayla.fi/hankkeet","source":"Väylävirasto"}},{"type":"Feature","geometry":{"type":"MultiLineString","coordinates":[[[23.35322,60.71147],[23.35323,60.7115],[23.35323,60.71151],[23.35333,60.71175],[23.35334,60.71176]],[[23.35334,60.71176],[23.35344,60.71199],[23.35345,60.71201],[23.35353,60.7122],[23.3536,60.71234]],[[23.3536,60.71234],[23.35362,60.71242],[23.35362,60.71242],[23.35366,60.71251],[23.35368,60.71255],[23.35368,60.71255],[23.35371,60.7126],[23.35375,60.71265],[23.35375,60.71266],[23.35381,60.71273],[23.35382,60.71274],[23.35384,60.71276],[23.35394,60.71285],[23.35395,60.71285],[23.35403,60.71293],[23.35405,60.71295],[23.35415,60.71302],[23.35417,60.71303]],[[23.35417,60.71303],[23.35418,60.71305],[23.35419,60.71306],[23.3543,60.71313],[23.35432,60.71314],[23.35446,60.71325],[23.35448,60.71325],[23.35449,60.71326]],[[23.35449,60.71326],[23.35454,60.7133],[23.35456,60.71331],[23.3546,60.71334],[23.35463,60.71337],[23.35464,60.71338],[23.35478,60.71351],[23.35479,60.71352],[23.35481,60.71354],[23.35487,60.7136],[23.35488,60.71362]],[[23.35488,60.71362],[23.35493,60.7137],[23.35494,60.71371],[23.35499,60.7138],[23.35499,60.7138],[23.35501,60.71382]]]},"properties":{"name":"VAR ELY Sorateiksi parantaminen 2025","kind":"project","ptype":"road","subtype":"Tiehanke","status":"kaynnissa","date":"2025–2025","url":"https://vayla.fi/hankkeet","source":"Väylävirasto"}},{"type":"Feature","geometry":{"type":"MultiLineString","coordinates":[[[23.38147,60.69729],[23.3815,60.69733],[23.38152,60.69735]],[[23.38152,60.69735],[23.38168,60.69753],[23.38169,60.69754],[23.38184,60.6977],[23.38186,60.69772],[23.38195,60.69782],[23.38198,60.69787],[23.38199,60.69788],[23.38202,60.69792],[23.38202,60.69794],[23.38203,60.69795],[23.38204,60.69797],[23.38204,60.69798],[23.38205,60.69799],[23.38205,60.69801],[23.38205,60.69803],[23.38205,60.69805],[23.38205,60.69807],[23.38204,60.69808],[23.38204,60.69809],[23.38204,60.69811],[23.38203,60.69812],[23.382,60.69818],[23.38199,60.69819]],[[23.38199,60.69819],[23.38197,60.69822],[23.38196,60.69824],[23.38195,60.69825],[23.38193,60.69827],[23.38191,60.69828],[23.3819,60.69829],[23.38188,60.69831],[23.38186,60.69832],[23.38184,60.69833],[23.38181,60.69835],[23.38179,60.69836],[23.38174,60.69838],[23.3816,60.69844],[23.38159,60.69845],[23.38137,60.69854],[23.38135,60.69855],[23.38096,60.69871],[23.38094,60.69871],[23.38058,60.69886],[23.38057,60.69887],[23.38026,60.69899],[23.38024,60.699],[23.38004,60.69908],[23.38002,60.69909],[23.37997,60.69912],[23.37994,60.69913],[23.37992,60.69914],[23.3799,60.69916],[23.37988,60.69917],[23.37986,60.69918],[23.37985,60.6992],[23.37984,60.69922],[23.37982,60.69925],[23.37981,60.69926]],[[23.37981,60.69926],[23.37983,60.69931],[23.37983,60.69933],[23.37984,60.69935],[23.37986,60.69937],[23.37987,60.69938],[23.37989,60.6994],[23.37991,60.69941],[23.37993,60.69943],[23.37995,60.69944],[23.37998,60.69945],[23.38007,60.69951],[23.38015,60.69955],[23.38016,60.69955],[23.38035,60.69963],[23.38037,60.69964],[23.38074,60.69979],[23.38075,60.69979],[23.38122,60.69996],[23.38123,60.69997],[23.38166,60.70013],[23.38167,60.70014],[23.38215,60.70031],[23.38216,60.70031],[23.38263,60.70049],[23.38264,60.70049],[23.38311,60.70066],[23.38313,60.70067],[23.38371,60.70089],[23.38372,60.7009],[23.38428,60.7011],[23.3843,60.70111],[23.3849,60.70134],[23.38545,60.70154],[23.38548,60.70155],[23.38589,60.7017],[23.3859,60.7017],[23.3863,60.70186],[23.38668,60.702],[23.38703,60.70213],[23.38731,60.70225],[23.38732,60.70225],[23.38748,60.70233],[23.38755,60.70236],[23.38758,60.70238],[23.3876,60.70239],[23.38769,60.70244],[23.38782,60.70253],[23.38783,60.70253],[23.38804,60.70268],[23.38828,60.70288],[23.38829,60.70289],[23.38851,60.70307],[23.38851,60.70308],[23.38872,60.70329],[23.38874,60.7033],[23.38893,60.70348],[23.38894,60.70349],[23.38917,60.70372],[23.38917,60.70372],[23.3893,60.70385],[23.38933,60.70388],[23.38934,60.70389],[23.3894,60.70398],[23.38946,60.70408],[23.38947,60.70409],[23.3896,60.70428],[23.38975,60.70452],[23.38975,60.70453],[23.38987,60.70475],[23.38988,60.70477],[23.38999,60.70498],[23.38999,60.70498],[23.39004,60.70511],[23.39006,60.70518],[23.39006,60.70518],[23.3901,60.70536],[23.3901,60.70537],[23.39016,60.70558],[23.39016,60.70559],[23.39021,60.70577],[23.39021,60.70578],[23.39024,60.70587],[23.39026,60.7059],[23.39028,60.70594],[23.39029,60.70595],[23.39031,60.70599],[23.39034,60.70602],[23.39039,60.70607],[23.39042,60.7061],[23.3905,60.70616],[23.39062,60.70625],[23.39064,60.70626],[23.39085,60.70641],[23.3911,60.70659],[23.39111,60.7066],[23.39135,60.70676],[23.39137,60.70677],[23.39162,60.70695],[23.39163,60.70696],[23.39173,60.70703],[23.39178,60.70706],[23.3918,60.70707],[23.39184,60.7071],[23.3919,60.70712],[23.39198,60.70716],[23.39198,60.70716],[23.39212,60.70722],[23.39213,60.70722]],[[23.39213,60.70722],[23.39232,60.70731],[23.39241,60.70734],[23.39243,60.70734],[23.39252,60.70737],[23.39271,60.70743],[23.39303,60.70752],[23.39305,60.70752],[23.39335,60.7076],[23.39396,60.70775],[23.39398,60.70776],[23.3943,60.70784],[23.39433,60.70785],[23.39452,60.7079],[23.39455,60.70791],[23.39461,60.70793],[23.39464,60.70795],[23.39467,60.70796],[23.39469,60.70797],[23.39472,60.70798],[23.39473,60.70799],[23.39475,60.708],[23.39477,60.70802],[23.39479,60.70803],[23.39482,60.70806],[23.39482,60.70807]],[[23.39482,60.70807],[23.39486,60.70812],[23.39487,60.70814],[23.39488,60.70816],[23.39489,60.70818],[23.3949,60.7082],[23.3949,60.70825],[23.3949,60.70826],[23.39492,60.7084],[23.39492,60.7084],[23.39492,60.70855],[23.39492,60.70857],[23.39491,60.70874],[23.39491,60.70876],[23.39489,60.70885],[23.39489,60.70887],[23.39489,60.70888],[23.39488,60.7089],[23.39487,60.70891],[23.39487,60.70893],[23.39481,60.70902],[23.39481,60.70903]],[[23.39481,60.70903],[23.39474,60.70907],[23.39473,60.70908],[23.39459,60.70916],[23.39446,60.70923],[23.39431,60.7093],[23.3943,60.70931]],[[23.3943,60.70931],[23.39389,60.70949],[23.39387,60.7095],[23.39356,60.70966],[23.39354,60.70967],[23.3932,60.70983],[23.39317,60.70984],[23.39302,60.70991]]]},"properties":{"name":"VAR ELY Sorateiksi parantaminen 2025","kind":"project","ptype":"road","subtype":"Tiehanke","status":"kaynnissa","date":"2025–2025","url":"https://vayla.fi/hankkeet","source":"Väylävirasto"}},{"type":"Feature","geometry":{"type":"LineString","coordinates":[[23.37981,60.69926],[23.37974,60.69926],[23.3797,60.69926],[23.37967,60.69927],[23.37966,60.69927],[23.37962,60.69927],[23.37959,60.69928],[23.37956,60.69929],[23.3795,60.69931],[23.37947,60.69932],[23.37925,60.69942],[23.37924,60.69942],[23.37902,60.69952],[23.379,60.69952],[23.37878,60.69962],[23.37877,60.69962],[23.37859,60.6997],[23.37844,60.69976]]},"properties":{"name":"VAR ELY Sorateiksi parantaminen 2025","kind":"project","ptype":"road","subtype":"Tiehanke","status":"kaynnissa","date":"2025–2025","url":"https://vayla.fi/hankkeet","source":"Väylävirasto"}},{"type":"Feature","geometry":{"type":"MultiLineString","coordinates":[[[23.36341,60.71166],[23.36332,60.71169],[23.36329,60.71169],[23.363,60.71177],[23.36297,60.71177],[23.36273,60.71182],[23.36263,60.71184],[23.36261,60.71185],[23.3624,60.71188],[23.36222,60.7119],[23.36221,60.71191],[23.36189,60.71194],[23.36187,60.71194],[23.36151,60.71198],[23.3615,60.71198]],[[23.3615,60.71198],[23.36121,60.712],[23.36093,60.71202],[23.36091,60.71202],[23.36055,60.71206],[23.36023,60.71209],[23.36012,60.71211],[23.36009,60.71211],[23.35987,60.71215]],[[23.35987,60.71215],[23.35967,60.71218],[23.35936,60.71224],[23.35906,60.7123]],[[23.35906,60.7123],[23.35882,60.71234],[23.35879,60.71235],[23.35841,60.71241],[23.35796,60.7125],[23.35795,60.7125],[23.35763,60.71255],[23.35762,60.71255]],[[23.35762,60.71255],[23.35741,60.71259],[23.3574,60.71259],[23.35688,60.71268],[23.35639,60.71275],[23.35637,60.71276],[23.35595,60.71282],[23.35592,60.71282],[23.35567,60.71286],[23.35566,60.71286],[23.35513,60.71293],[23.35511,60.71293],[23.35476,60.71297],[23.35475,60.71297],[23.35443,60.71301],[23.35418,60.71303],[23.35417,60.71303]]]},"properties":{"name":"VAR ELY Sorateiksi parantaminen 2025","kind":"project","ptype":"road","subtype":"Tiehanke","status":"kaynnissa","date":"2025–2025","url":"https://vayla.fi/hankkeet","source":"Väylävirasto"}},{"type":"Feature","geometry":{"type":"MultiLineString","coordinates":[[[23.29443,60.66891],[23.2941,60.66889],[23.29406,60.66889],[23.29403,60.66888],[23.29389,60.66888],[23.29378,60.66888],[23.29374,60.66888],[23.2936,60.66888],[23.29349,60.66888],[23.29348,60.66888],[23.29333,60.66889],[23.29326,60.6689],[23.29324,60.6689]],[[23.29324,60.6689],[23.29322,60.6689],[23.29315,60.66891],[23.29308,60.66892],[23.29301,60.66893],[23.293,60.66893],[23.29287,60.66896],[23.2928,60.66897],[23.29278,60.66898],[23.29255,60.66903],[23.29253,60.66904],[23.29231,60.6691],[23.2923,60.6691]],[[23.2923,60.6691],[23.29224,60.66912],[23.29221,60.66913],[23.29212,60.66915],[23.29211,60.66915]],[[23.29211,60.66915],[23.29192,60.66921],[23.29189,60.66922],[23.29171,60.66928],[23.29169,60.66928],[23.2915,60.66934],[23.29148,60.66934],[23.29119,60.66942],[23.29118,60.66942],[23.29098,60.66946],[23.29091,60.66948],[23.29088,60.66948],[23.29071,60.66951],[23.29064,60.66952],[23.29061,60.66953],[23.2904,60.66956],[23.29037,60.66956],[23.29022,60.66958],[23.29011,60.66958],[23.29009,60.66959],[23.28998,60.66959],[23.28987,60.66959],[23.28983,60.66959],[23.28982,60.66959],[23.28975,60.66959],[23.28964,60.66959],[23.28957,60.66958],[23.28953,60.66958],[23.28943,60.66957],[23.28932,60.66955],[23.2893,60.66955],[23.2892,60.66953],[23.28906,60.66951],[23.28904,60.6695]],[[23.28904,60.6695],[23.28867,60.66942],[23.28838,60.66935],[23.28835,60.66934],[23.28781,60.66923],[23.28744,60.66915],[23.28742,60.66914],[23.28738,60.66913]],[[23.28738,60.66913],[23.28702,60.66905],[23.287,60.66905],[23.28662,60.66897],[23.2866,60.66897],[23.28635,60.66893],[23.28632,60.66892],[23.28629,60.66892],[23.28594,60.66887],[23.28593,60.66887],[23.28546,60.66883],[23.28544,60.66882],[23.28498,60.66878],[23.28495,60.66878],[23.28445,60.66874],[23.28444,60.66874],[23.284,60.66871],[23.28393,60.66871],[23.2839,60.66871],[23.28379,60.66871],[23.2835,60.6687],[23.28348,60.6687],[23.28304,60.66869],[23.28303,60.66869],[23.28262,60.6687],[23.2826,60.6687],[23.28223,60.66871],[23.28222,60.66871],[23.28193,60.66872],[23.2819,60.66872],[23.28157,60.66874],[23.28156,60.66874]],[[23.28156,60.66874],[23.28112,60.66876],[23.2811,60.66876],[23.28056,60.66879],[23.28055,60.66879],[23.27995,60.66883],[23.27944,60.66886]],[[23.27944,60.66886],[23.27926,60.66887],[23.27922,60.66887],[23.27904,60.66888],[23.27902,60.66888]],[[23.27902,60.66888],[23.27877,60.66889],[23.27875,60.66889],[23.27849,60.66891],[23.27813,60.66892],[23.2781,60.66892],[23.27777,60.66894],[23.27776,60.66894],[23.27739,60.66896],[23.2771,60.66897],[23.27706,60.66898],[23.27706,60.66898],[23.27691,60.66899],[23.27673,60.66901],[23.27652,60.66904],[23.27641,60.66905],[23.27638,60.66906],[23.27634,60.66907],[23.27631,60.66907],[23.27628,60.66908],[23.27625,60.66909],[23.27622,60.6691],[23.27619,60.66911],[23.27618,60.66912],[23.27613,60.66914],[23.27602,60.66919],[23.27592,60.66924],[23.27587,60.66927],[23.2758,60.66931],[23.27572,60.66937],[23.27571,60.66938],[23.27555,60.6695],[23.27555,60.6695],[23.27545,60.66958],[23.27538,60.66962],[23.27538,60.66962],[23.27531,60.66966],[23.27523,60.6697],[23.2752,60.66972],[23.27518,60.66973],[23.2751,60.66976],[23.27501,60.6698],[23.27496,60.66982],[23.27494,60.66983],[23.27484,60.66986],[23.27465,60.66991],[23.27436,60.66998],[23.27433,60.66999],[23.27407,60.67005],[23.27404,60.67006],[23.27371,60.67013],[23.2737,60.67014]],[[23.2737,60.67014],[23.2736,60.67016],[23.27345,60.6702]],[[23.27345,60.6702],[23.27309,60.67029],[23.27268,60.67041],[23.27259,60.67044],[23.27257,60.67044],[23.2723,60.67053],[23.27228,60.67054],[23.27198,60.67064],[23.27195,60.67065],[23.27164,60.67075]],[[23.27164,60.67075],[23.27155,60.67078],[23.27153,60.67079],[23.27144,60.67082],[23.27143,60.67083]],[[23.27143,60.67083],[23.27113,60.67093],[23.27112,60.67093],[23.27078,60.67105],[23.27076,60.67105],[23.27049,60.67115],[23.27048,60.67115],[23.27015,60.67126],[23.27014,60.67126],[23.26984,60.67136],[23.26982,60.67137],[23.26948,60.67148],[23.26946,60.67148]],[[23.26946,60.67148],[23.26918,60.67157],[23.26918,60.67157],[23.26886,60.67166],[23.26883,60.67167]],[[23.26883,60.67167],[23.26865,60.67173],[23.26864,60.67173],[23.26848,60.67178],[23.26846,60.67178]],[[23.26846,60.67178],[23.26836,60.67181],[23.26835,60.67182],[23.26822,60.67185],[23.26821,60.67186]],[[23.26821,60.67186],[23.26792,60.67193],[23.26789,60.67194],[23.26756,60.67202],[23.26753,60.67203],[23.26707,60.67214],[23.26707,60.67214],[23.26657,60.67226],[23.26654,60.67227],[23.26615,60.67236],[23.26613,60.67237],[23.26563,60.67248],[23.26561,60.67249],[23.26538,60.67254],[23.26537,60.67254],[23.2651,60.67261],[23.26497,60.67264],[23.26494,60.67264],[23.26477,60.67268],[23.26474,60.67269],[23.26458,60.67273],[23.26456,60.67274],[23.26433,60.6728],[23.26411,60.67286],[23.2641,60.67286],[23.26391,60.67292],[23.2639,60.67292],[23.26368,60.67298],[23.26348,60.67302],[23.26345,60.67303],[23.26335,60.67305],[23.26331,60.67306],[23.2633,60.67306],[23.26323,60.67307],[23.26306,60.67309],[23.26303,60.6731],[23.26278,60.67313],[23.26276,60.67313]],[[23.26276,60.67313],[23.26251,60.67315],[23.2625,60.67315],[23.26228,60.67316],[23.26225,60.67317],[23.26199,60.67318],[23.26196,60.67318],[23.26178,60.67319],[23.26175,60.67319],[23.26153,60.6732],[23.26151,60.6732],[23.26125,60.67321],[23.26123,60.67321],[23.26101,60.67321],[23.26098,60.67321],[23.26083,60.67322],[23.2608,60.67323],[23.26065,60.67324],[23.26062,60.67324],[23.26047,60.67325],[23.26045,60.67325],[23.26027,60.67328],[23.26026,60.67328]],[[23.26026,60.67328],[23.26008,60.6733],[23.25998,60.67332],[23.25995,60.67333],[23.25992,60.67333],[23.25988,60.67334],[23.25985,60.67335],[23.25973,60.67339],[23.25972,60.67339],[23.25956,60.67344],[23.25955,60.67344]],[[23.25955,60.67344],[23.2593,60.67352],[23.25915,60.67357],[23.25912,60.67358],[23.25911,60.67358],[23.25888,60.67367],[23.25885,60.67368],[23.25867,60.67374],[23.25858,60.67377],[23.25857,60.67378],[23.25832,60.67385],[23.25806,60.67393],[23.25806,60.67393],[23.25783,60.67399],[23.25781,60.674]],[[23.25781,60.674],[23.25756,60.67407],[23.25753,60.67407],[23.25731,60.67413],[23.25721,60.67416],[23.25718,60.67417],[23.25706,60.67421],[23.25705,60.67421],[23.25686,60.67427],[23.25685,60.67427],[23.25679,60.67429],[23.25673,60.67431],[23.2567,60.67432],[23.25668,60.67433],[23.25652,60.6744],[23.25638,60.67446],[23.25636,60.67446],[23.25616,60.67454],[23.25613,60.67455],[23.25611,60.67456],[23.25589,60.67463],[23.25571,60.67469],[23.25569,60.6747]],[[23.25569,60.6747],[23.25558,60.67472],[23.25555,60.67473],[23.25548,60.67474],[23.25544,60.67474],[23.25543,60.67474],[23.25532,60.67475],[23.25529,60.67476],[23.25511,60.67477],[23.25509,60.67478],[23.25484,60.6748],[23.25482,60.6748],[23.25457,60.67484],[23.25454,60.67484],[23.25452,60.67485],[23.25431,60.67488],[23.25427,60.67489],[23.25425,60.67489],[23.25401,60.67494],[23.25399,60.67495],[23.25365,60.67502],[23.25365,60.67502],[23.25335,60.67509],[23.25333,60.67509],[23.25316,60.67513],[23.25305,60.67514],[23.25302,60.67515],[23.25288,60.67517],[23.2527,60.67519],[23.25267,60.67519],[23.25235,60.67521],[23.25231,60.67522],[23.2523,60.67522],[23.25204,60.67523],[23.25202,60.67523],[23.25169,60.67525],[23.25168,60.67525],[23.25132,60.67528],[23.25131,60.67528],[23.25084,60.67531],[23.25083,60.67532],[23.25055,60.67534],[23.25052,60.67535]],[[23.25052,60.67535],[23.25031,60.67537],[23.2502,60.67538],[23.25019,60.67538],[23.25008,60.6754],[23.24991,60.67543],[23.24988,60.67544],[23.24961,60.67549],[23.24958,60.67549],[23.24938,60.67554],[23.24935,60.67554]],[[23.24935,60.67554],[23.24912,60.6756],[23.24883,60.67567],[23.24861,60.67573],[23.2486,60.67574],[23.24828,60.67583],[23.24827,60.67583],[23.24783,60.67595],[23.24781,60.67596],[23.24742,60.67606],[23.24738,60.67607],[23.24709,60.67614],[23.24707,60.67614],[23.24687,60.67619],[23.24687,60.67619],[23.2466,60.67624],[23.24657,60.67625],[23.24611,60.67636],[23.24581,60.67643],[23.2458,60.67643],[23.24564,60.67647],[23.2456,60.67647],[23.2456,60.67648],[23.24547,60.67651],[23.24545,60.67652],[23.24523,60.67659],[23.24522,60.67659],[23.24495,60.67669],[23.24494,60.67669],[23.24468,60.67679],[23.24467,60.6768],[23.24447,60.67688],[23.24438,60.67691],[23.24437,60.67691],[23.24427,60.67694],[23.24418,60.67697],[23.24416,60.67698],[23.24393,60.67703],[23.24386,60.67705],[23.24384,60.67705],[23.24353,60.67711],[23.24351,60.67712],[23.24309,60.67718],[23.24281,60.67723],[23.2428,60.67723],[23.24249,60.67729],[23.24247,60.67729],[23.2422,60.67735],[23.24219,60.67735]],[[23.24219,60.67735],[23.24178,60.67743],[23.24175,60.67744],[23.24142,60.67751],[23.24138,60.67752],[23.24136,60.67752],[23.24119,60.67755],[23.24098,60.67758],[23.24096,60.67758],[23.24063,60.67762],[23.24024,60.67766],[23.24022,60.67766],[23.23987,60.6777],[23.23985,60.67771],[23.23964,60.67774],[23.2395,60.67776],[23.2395,60.67776],[23.23936,60.67779],[23.23926,60.67781],[23.23923,60.67782],[23.23922,60.67783],[23.2391,60.67786],[23.23897,60.6779],[23.23895,60.67791],[23.23867,60.678],[23.23866,60.67801],[23.23845,60.67808],[23.23842,60.67809],[23.23841,60.6781],[23.23831,60.67812],[23.23818,60.67816],[23.23815,60.67816],[23.23789,60.67823],[23.23788,60.67824],[23.23765,60.67829],[23.23764,60.67829],[23.23755,60.67832],[23.23739,60.67837],[23.23737,60.67838]],[[23.23737,60.67838],[23.23711,60.67847],[23.2369,60.67854],[23.23687,60.67855],[23.23664,60.67863],[23.23663,60.67864],[23.23654,60.67867],[23.23637,60.67871]],[[23.23637,60.67871],[23.23622,60.67876],[23.23619,60.67877],[23.23617,60.67878],[23.2361,60.67879],[23.23594,60.67883],[23.23591,60.67883],[23.23565,60.67889],[23.23561,60.6789],[23.23538,60.67895],[23.23537,60.67895],[23.23507,60.67903],[23.23507,60.67903],[23.23487,60.67908],[23.23481,60.6791],[23.23469,60.67914],[23.23466,60.67915],[23.23445,60.67922],[23.23439,60.67924],[23.23438,60.67925],[23.23416,60.67934],[23.23414,60.67935],[23.23395,60.67943],[23.23392,60.67944]],[[23.23392,60.67944],[23.23376,60.67951],[23.23374,60.67952],[23.23352,60.67962],[23.23351,60.67962],[23.23332,60.67971],[23.23331,60.67971]],[[23.23331,60.67971],[23.2332,60.67976],[23.23318,60.67977],[23.23309,60.67981],[23.23304,60.67983],[23.23303,60.67983],[23.23291,60.67987],[23.23289,60.67988]],[[23.23289,60.67988],[23.23278,60.67987],[23.23275,60.67987],[23.23271,60.67987],[23.23268,60.67986],[23.23264,60.67986],[23.23262,60.67985],[23.23259,60.67985],[23.23255,60.67984],[23.23252,60.67983],[23.23249,60.67982],[23.23243,60.6798],[23.23235,60.67976],[23.23229,60.67974],[23.23229,60.67973],[23.23214,60.67966],[23.23213,60.67965],[23.23194,60.67954],[23.23193,60.67954],[23.23171,60.67942],[23.2317,60.67941],[23.23152,60.6793],[23.2315,60.67929],[23.23135,60.67919],[23.23132,60.67917],[23.23132,60.67917],[23.23115,60.67903],[23.23114,60.67903],[23.23102,60.67892],[23.231,60.67891]],[[23.231,60.67891],[23.2309,60.67881]],[[23.2309,60.67881],[23.23073,60.67865]],[[23.23073,60.67865],[23.23062,60.67854],[23.23061,60.67852],[23.2306,60.67851],[23.23051,60.67843],[23.2305,60.67842],[23.23024,60.6782],[23.23023,60.6782],[23.22999,60.678],[23.22998,60.67799],[23.22975,60.6778],[23.22974,60.6778],[23.22963,60.6777],[23.22959,60.67767],[23.22957,60.67766],[23.22952,60.67763],[23.22945,60.67759],[23.22944,60.67759],[23.22936,60.67755],[23.22934,60.67754],[23.22932,60.67753],[23.22929,60.67752],[23.22926,60.67751],[23.22923,60.6775],[23.22917,60.67748],[23.22914,60.67747],[23.22912,60.67747],[23.22906,60.67745],[23.22899,60.67744],[23.22892,60.67743],[23.22888,60.67742],[23.22888,60.67742],[23.22881,60.67741],[23.2287,60.6774],[23.22863,60.6774],[23.2286,60.67739],[23.2283,60.67738],[23.22808,60.67737],[23.22783,60.67736],[23.22779,60.67735],[23.2275,60.67733],[23.22749,60.67733],[23.22728,60.67732],[23.22724,60.67731],[23.22713,60.6773],[23.22706,60.67729],[23.22703,60.67729],[23.227,60.67728],[23.22697,60.67728],[23.22694,60.67727],[23.2269,60.67726],[23.22687,60.67725],[23.22684,60.67724],[23.22681,60.67724],[23.22678,60.67723],[23.22675,60.67722],[23.22672,60.67721],[23.22669,60.67719],[23.22667,60.67718],[23.22664,60.67717],[23.22662,60.67716],[23.22659,60.67714],[23.22658,60.67714],[23.22656,60.67712],[23.22654,60.67711],[23.22652,60.67709],[23.22649,60.67706],[23.22645,60.67703],[23.22644,60.67702],[23.22637,60.67693],[23.22634,60.6769],[23.22633,60.67689],[23.22623,60.67673],[23.22621,60.67672],[23.22611,60.67656],[23.2261,60.67656],[23.22599,60.67637],[23.22599,60.67636],[23.22593,60.67627],[23.2259,60.67622],[23.22585,60.67617],[23.2258,60.67612],[23.22579,60.67611],[23.22572,60.67605],[23.22568,60.67602],[23.22567,60.67601],[23.22556,60.67594],[23.22552,60.67591],[23.22551,60.6759],[23.22535,60.67581],[23.2253,60.67578],[23.22529,60.67577],[23.22509,60.67567],[23.22508,60.67566],[23.22485,60.67554],[23.22483,60.67553],[23.22451,60.67536],[23.2245,60.67536],[23.22417,60.67519],[23.22415,60.67518],[23.22387,60.67504],[23.22384,60.67503],[23.22358,60.67488],[23.22356,60.67487]]]},"properties":{"name":"VAR ELY Sorateiksi parantaminen 2025","kind":"project","ptype":"road","subtype":"Tiehanke","status":"kaynnissa","date":"2025–2025","url":"https://vayla.fi/hankkeet","source":"Väylävirasto"}},{"type":"Feature","geometry":{"type":"LineString","coordinates":[[23.35297,60.71323],[23.35333,60.71315],[23.35334,60.71315],[23.35361,60.71309],[23.35371,60.71308],[23.35382,60.71306],[23.35384,60.71306],[23.35388,60.71306],[23.35395,60.71305],[23.35417,60.71303]]},"properties":{"name":"VAR ELY Sorateiksi parantaminen 2025","kind":"project","ptype":"road","subtype":"Tiehanke","status":"kaynnissa","date":"2025–2025","url":"https://vayla.fi/hankkeet","source":"Väylävirasto"}},{"type":"Feature","geometry":{"type":"MultiLineString","coordinates":[[[23.16864,60.42261],[23.16865,60.42262],[23.16866,60.42263],[23.16896,60.42309],[23.16897,60.4231],[23.16913,60.42336],[23.16914,60.42337],[23.16929,60.42365],[23.16931,60.42367],[23.16944,60.42387],[23.16946,60.42389],[23.16962,60.42418],[23.16985,60.4246],[23.16986,60.42461],[23.17004,60.42494],[23.17017,60.42517],[23.17017,60.42517],[23.17031,60.4254],[23.17032,60.42541],[23.17042,60.42562],[23.17042,60.42562],[23.17058,60.42588],[23.17059,60.42589],[23.17068,60.42607],[23.17069,60.42608],[23.17077,60.4262],[23.17078,60.42621],[23.17082,60.42628],[23.17086,60.42636],[23.17087,60.42638]],[[23.17087,60.42638],[23.17091,60.42647],[23.17092,60.42648],[23.17093,60.4265],[23.171,60.4266],[23.17107,60.42672],[23.17117,60.42691],[23.17133,60.42721],[23.17148,60.42749],[23.17149,60.4275],[23.17158,60.42767],[23.17158,60.42768],[23.17171,60.42791],[23.17172,60.42791],[23.17184,60.42814],[23.17185,60.42814],[23.17195,60.42831],[23.17196,60.42833],[23.17203,60.42847],[23.17204,60.42848],[23.17213,60.42864],[23.17214,60.42865]],[[23.17214,60.42865],[23.17229,60.42897],[23.17229,60.42897],[23.17244,60.42923],[23.17245,60.42925],[23.17264,60.42956],[23.17265,60.42957],[23.1728,60.42985],[23.17281,60.42987],[23.17281,60.42987],[23.17292,60.43004],[23.17293,60.43005],[23.17305,60.43028],[23.17305,60.43029],[23.17313,60.43043],[23.17318,60.4305],[23.17324,60.43058],[23.17325,60.43059]],[[23.17325,60.43059],[23.17326,60.4306],[23.17327,60.43062],[23.17328,60.43063],[23.17329,60.43065],[23.1733,60.43066],[23.1733,60.43068],[23.17333,60.43073],[23.17334,60.43074]],[[23.17334,60.43074],[23.17341,60.43082],[23.17342,60.43084],[23.17356,60.43106],[23.17356,60.43106],[23.17384,60.43141],[23.17385,60.43143],[23.17407,60.43171],[23.17408,60.43171],[23.1744,60.43207],[23.1744,60.43208],[23.17463,60.43232],[23.17464,60.43234],[23.17473,60.43244],[23.17474,60.43245],[23.1748,60.43251],[23.17482,60.43253],[23.17491,60.4326],[23.17492,60.43262],[23.17494,60.43263],[23.17499,60.4327],[23.175,60.43271],[23.17509,60.4328],[23.1751,60.43281],[23.17522,60.43293],[23.1754,60.43311],[23.1754,60.43311]],[[23.1754,60.43311],[23.17545,60.43316],[23.17546,60.43317],[23.17562,60.43333],[23.17562,60.43333],[23.17578,60.43348],[23.17579,60.43349],[23.17601,60.4337],[23.17602,60.4337],[23.1762,60.43386],[23.17644,60.43406],[23.17645,60.43407],[23.17664,60.43422],[23.17665,60.43423],[23.17685,60.4344],[23.17687,60.43441],[23.17706,60.43456],[23.17706,60.43457],[23.17721,60.43467],[23.17722,60.43468],[23.17738,60.4348],[23.17739,60.4348],[23.17755,60.43492],[23.17755,60.43493],[23.17768,60.43501],[23.17769,60.43502]],[[23.17769,60.43502],[23.17778,60.43508],[23.17779,60.43509],[23.17816,60.43535],[23.17817,60.43535],[23.17838,60.4355],[23.17838,60.4355],[23.17853,60.4356],[23.17858,60.43563],[23.17859,60.43564],[23.17871,60.4357],[23.17872,60.43571],[23.17891,60.43584],[23.17892,60.43585],[23.17908,60.43595],[23.17915,60.43599],[23.17917,60.436],[23.17938,60.43612],[23.1794,60.43614],[23.17941,60.43614],[23.1796,60.43627],[23.17962,60.43629],[23.17963,60.43629],[23.17985,60.43641],[23.17987,60.43642],[23.18009,60.43657],[23.18012,60.43658],[23.18013,60.43659],[23.18036,60.4367],[23.18059,60.43684],[23.18061,60.43685],[23.18087,60.43697],[23.18088,60.43697],[23.181,60.43704],[23.18108,60.43709]]]},"properties":{"name":"Kt 52 Tievalaistuksen rakentaminen Piihovi - Lope Salo ST2026","kind":"project","ptype":"road","subtype":"Tiehanke","status":"kaynnissa","date":"2026–2026","url":"https://vayla.fi/hankkeet","source":"Väylävirasto"}},{"type":"Feature","geometry":{"type":"MultiLineString","coordinates":[[[23.77722,60.53349],[23.77721,60.5335],[23.77714,60.53354]],[[23.77714,60.53354],[23.77692,60.53367]],[[23.77692,60.53367],[23.77639,60.53397]],[[23.77639,60.53397],[23.77635,60.53399]],[[23.77635,60.53399],[23.77623,60.53405]],[[23.77623,60.53405],[23.77614,60.53411]]]},"properties":{"name":"T-5373 Kuritun silta","kind":"project","ptype":"road","subtype":"Tiehanke","status":"kaynnissa","date":"2024–2025","url":"https://vayla.fi/hankkeet","source":"Väylävirasto"}},{"type":"Feature","geometry":{"type":"LineString","coordinates":[[23.68711,60.36962],[23.68693,60.36961]]},"properties":{"name":"T-4 Lahnajärven silta","kind":"project","ptype":"road","subtype":"Tiehanke","status":"kaynnissa","date":"2024–2025","url":"https://vayla.fi/hankkeet","source":"Väylävirasto"}},{"type":"Feature","geometry":{"type":"MultiLineString","coordinates":[[[23.60972,60.52571],[23.60977,60.52572],[23.61009,60.52575],[23.61046,60.5258],[23.61074,60.52584]],[[23.61074,60.52584],[23.61097,60.52587]],[[23.61097,60.52587],[23.61134,60.52592],[23.61166,60.52594],[23.61196,60.52593],[23.61207,60.52592]]]},"properties":{"name":"T-5398 Puoljoen silta","kind":"project","ptype":"road","subtype":"Tiehanke","status":"kaynnissa","date":"2024–2025","url":"https://vayla.fi/hankkeet","source":"Väylävirasto"}},{"type":"Feature","geometry":{"type":"MultiPoint","coordinates":[[23.58743,60.37903],[23.57689,60.38056],[23.5874,60.37891],[23.55077,60.38221]]},"properties":{"name":"VARELY Siltaurakka 2/2025","kind":"project","ptype":"road","subtype":"Tiehanke","status":"kaynnissa","date":"2025–2025","url":"https://vayla.fi/hankkeet","source":"Väylävirasto"}},{"type":"Feature","geometry":{"type":"MultiPoint","coordinates":[[23.61956,60.65441],[23.07668,60.3907],[22.64807,60.33824],[23.16397,60.19494],[23.14993,60.63586],[23.25363,60.32909]]},"properties":{"name":"LOU Siltaurakka 2/2026-2027","kind":"project","ptype":"road","subtype":"Tiehanke","status":"kaynnissa","date":"2026–2027","url":"https://vayla.fi/hankkeet","source":"Väylävirasto"}},{"type":"Feature","geometry":{"type":"LineString","coordinates":[[24.82588,60.21877],[24.81345,60.21953],[24.79581,60.2193],[24.78173,60.21772],[24.77145,60.21717],[24.75896,60.21708],[24.75019,60.2152],[24.74336,60.21329],[24.72889,60.21189],[24.72086,60.21053],[24.71343,60.20803],[24.70902,60.20667],[24.70605,60.20662],[24.69521,60.2074],[24.68909,60.20646],[24.68448,60.20606],[24.68074,60.206],[24.67341,60.2076],[24.67146,60.20782],[24.65254,60.20447],[24.63007,60.20055],[24.61929,60.19653],[24.59025,60.1859],[24.58018,60.18495],[24.57043,60.1837],[24.55411,60.1759],[24.54343,60.16668],[24.53666,60.15461],[24.51892,60.14142],[24.51065,60.13713],[24.50349,60.1344],[24.49395,60.1307],[24.48593,60.1232],[24.47643,60.11919],[24.46254,60.11632],[24.45482,60.11694],[24.43774,60.11967],[24.41533,60.11985],[24.39496,60.11761],[24.37108,60.10933],[24.36049,60.10759],[24.34978,60.10722],[24.34121,60.10705],[24.32992,60.11019],[24.31759,60.11851],[24.30865,60.12277],[24.27506,60.13571],[24.26163,60.13849],[24.23097,60.14168],[24.20327,60.13896],[24.16686,60.13405],[24.12351,60.12087],[24.11459,60.11409],[24.07329,60.10246],[24.06111,60.10158],[24.03928,60.0988],[24.03061,60.09631],[24.00688,60.08077],[23.97605,60.0695],[23.96167,60.06596],[23.94767,60.06165],[23.94193,60.06076],[23.93079,60.06203],[23.92424,60.06326],[23.91021,60.06262],[23.88133,60.06684],[23.8604,60.06788],[23.82908,60.06866],[23.80103,60.07044],[23.78446,60.07386],[23.76448,60.08072],[23.75678,60.08115],[23.74913,60.08096],[23.72944,60.07864],[23.70593,60.07775],[23.7,60.07576],[23.69019,60.0697],[23.68411,60.06924],[23.66921,60.07116],[23.64765,60.06326],[23.63362,60.0626],[23.61927,60.06514],[23.58786,60.07858],[23.54227,60.10419],[23.49969,60.11226],[23.4874,60.1153],[23.4656,60.11549],[23.41661,60.12581],[23.39055,60.1395],[23.31616,60.15383],[23.27023,60.1769],[23.2592,60.18731],[23.20346,60.21191],[23.19069,60.21583],[23.18662,60.21909],[23.18356,60.2216],[23.18295,60.22679],[23.15897,60.25015],[23.12175,60.27817],[23.11591,60.28581],[23.11403,60.29387],[23.10718,60.3073],[23.10595,60.31508],[23.09652,60.32675],[23.09688,60.33151],[23.1047,60.33848],[23.11555,60.34599],[23.1203,60.37355],[23.12455,60.37949],[23.12522,60.38166],[23.12172,60.38508],[23.11125,60.38983],[23.09626,60.39352],[23.07931,60.39547],[23.05978,60.3957],[23.04488,60.39862],[23.03718,60.40084],[23.02735,60.4027],[23.0218,60.40253],[23.01193,60.40223],[22.92033,60.41661],[22.88571,60.41356],[22.87724,60.41437],[22.80274,60.42521],[22.78894,60.42646],[22.77435,60.42906],[22.76621,60.43202],[22.76007,60.43397],[22.7315,60.43673],[22.72663,60.43841],[22.71217,60.44929],[22.69714,60.45738],[22.69196,60.45905],[22.68543,60.45915],[22.67299,60.45936],[22.63846,60.46237],[22.63321,60.46219],[22.62866,60.46143]]},"properties":{"name":"Helsinki-Turku, peruskorjaus","kind":"project","ptype":"rail","subtype":"Ratahanke","status":"kaynnissa","date":"2019–2024","url":"https://vayla.fi/hankkeet","source":"Väylävirasto"}}]}