{"type":"FeatureCollection","features":[{"type":"Feature","geometry":{"type":"LineString","coordinates":[[23.00358,60.86959],[23.00037,60.87198],[22.99819,60.87357],[22.99264,60.87731],[22.99012,60.87886],[22.98551,60.8804],[22.98327,60.88099]]},"properties":{"name":"Mt 210 Tievalaistuksen uudistaminen Loimaa, KU2025","kind":"project","ptype":"road","subtype":"Tiehanke","status":"kaynnissa","date":"2025–2026","url":"https://vayla.fi/hankkeet","source":"Väylävirasto"}},{"type":"Feature","geometry":{"type":"LineString","coordinates":[[22.96116,60.86359],[22.96344,60.86382],[22.96472,60.86397],[22.96679,60.86435],[22.96874,60.8648],[22.96991,60.86497],[22.97129,60.86497],[22.97556,60.86477],[22.97791,60.86483],[22.98003,60.86522],[22.98198,60.86586],[22.98406,60.86716],[22.98546,60.86776],[22.98733,60.86816],[22.99071,60.86821],[22.99435,60.86789],[22.99695,60.86776],[22.99792,60.86789],[23.00045,60.86857],[23.00349,60.86957],[23.00567,60.86843],[23.0086,60.86743],[23.01258,60.86645],[23.01755,60.86507],[23.02014,60.86397],[23.02373,60.86201],[23.02767,60.86019]]},"properties":{"name":"Mt 210 Tievalaistuksen uudistaminen Loimaa, KU2025","kind":"project","ptype":"road","subtype":"Tiehanke","status":"kaynnissa","date":"2025–2026","url":"https://vayla.fi/hankkeet","source":"Väylävirasto"}},{"type":"Feature","geometry":{"type":"MultiLineString","coordinates":[[[22.8129,60.74591],[22.81284,60.74592],[22.81269,60.74596]],[[22.81269,60.74596],[22.81252,60.74603],[22.81224,60.74617],[22.81203,60.74633],[22.81191,60.74649],[22.81182,60.74676],[22.81189,60.74693],[22.81195,60.74702]],[[22.81195,60.74702],[22.81198,60.74705]],[[22.81198,60.74705],[22.81209,60.74718]],[[22.81209,60.74718],[22.81269,60.74765]]]},"properties":{"name":"T-5370 Liutin silta","kind":"project","ptype":"road","subtype":"Tiehanke","status":"kaynnissa","date":"2024–2025","url":"https://vayla.fi/hankkeet","source":"Väylävirasto"}},{"type":"Feature","geometry":{"type":"MultiLineString","coordinates":[[[23.29443,60.66891],[23.2941,60.66889],[23.29406,60.66889],[23.29403,60.66888],[23.29389,60.66888],[23.29378,60.66888],[23.29374,60.66888],[23.2936,60.66888],[23.29349,60.66888],[23.29348,60.66888],[23.29333,60.66889],[23.29326,60.6689],[23.29324,60.6689]],[[23.29324,60.6689],[23.29322,60.6689],[23.29315,60.66891],[23.29308,60.66892],[23.29301,60.66893],[23.293,60.66893],[23.29287,60.66896],[23.2928,60.66897],[23.29278,60.66898],[23.29255,60.66903],[23.29253,60.66904],[23.29231,60.6691],[23.2923,60.6691]],[[23.2923,60.6691],[23.29224,60.66912],[23.29221,60.66913],[23.29212,60.66915],[23.29211,60.66915]],[[23.29211,60.66915],[23.29192,60.66921],[23.29189,60.66922],[23.29171,60.66928],[23.29169,60.66928],[23.2915,60.66934],[23.29148,60.66934],[23.29119,60.66942],[23.29118,60.66942],[23.29098,60.66946],[23.29091,60.66948],[23.29088,60.66948],[23.29071,60.66951],[23.29064,60.66952],[23.29061,60.66953],[23.2904,60.66956],[23.29037,60.66956],[23.29022,60.66958],[23.29011,60.66958],[23.29009,60.66959],[23.28998,60.66959],[23.28987,60.66959],[23.28983,60.66959],[23.28982,60.66959],[23.28975,60.66959],[23.28964,60.66959],[23.28957,60.66958],[23.28953,60.66958],[23.28943,60.66957],[23.28932,60.66955],[23.2893,60.66955],[23.2892,60.66953],[23.28906,60.66951],[23.28904,60.6695]],[[23.28904,60.6695],[23.28867,60.66942],[23.28838,60.66935],[23.28835,60.66934],[23.28781,60.66923],[23.28744,60.66915],[23.28742,60.66914],[23.28738,60.66913]],[[23.28738,60.66913],[23.28702,60.66905],[23.287,60.66905],[23.28662,60.66897],[23.2866,60.66897],[23.28635,60.66893],[23.28632,60.66892],[23.28629,60.66892],[23.28594,60.66887],[23.28593,60.66887],[23.28546,60.66883],[23.28544,60.66882],[23.28498,60.66878],[23.28495,60.66878],[23.28445,60.66874],[23.28444,60.66874],[23.284,60.66871],[23.28393,60.66871],[23.2839,60.66871],[23.28379,60.66871],[23.2835,60.6687],[23.28348,60.6687],[23.28304,60.66869],[23.28303,60.66869],[23.28262,60.6687],[23.2826,60.6687],[23.28223,60.66871],[23.28222,60.66871],[23.28193,60.66872],[23.2819,60.66872],[23.28157,60.66874],[23.28156,60.66874]],[[23.28156,60.66874],[23.28112,60.66876],[23.2811,60.66876],[23.28056,60.66879],[23.28055,60.66879],[23.27995,60.66883],[23.27944,60.66886]],[[23.27944,60.66886],[23.27926,60.66887],[23.27922,60.66887],[23.27904,60.66888],[23.27902,60.66888]],[[23.27902,60.66888],[23.27877,60.66889],[23.27875,60.66889],[23.27849,60.66891],[23.27813,60.66892],[23.2781,60.66892],[23.27777,60.66894],[23.27776,60.66894],[23.27739,60.66896],[23.2771,60.66897],[23.27706,60.66898],[23.27706,60.66898],[23.27691,60.66899],[23.27673,60.66901],[23.27652,60.66904],[23.27641,60.66905],[23.27638,60.66906],[23.27634,60.66907],[23.27631,60.66907],[23.27628,60.66908],[23.27625,60.66909],[23.27622,60.6691],[23.27619,60.66911],[23.27618,60.66912],[23.27613,60.66914],[23.27602,60.66919],[23.27592,60.66924],[23.27587,60.66927],[23.2758,60.66931],[23.27572,60.66937],[23.27571,60.66938],[23.27555,60.6695],[23.27555,60.6695],[23.27545,60.66958],[23.27538,60.66962],[23.27538,60.66962],[23.27531,60.66966],[23.27523,60.6697],[23.2752,60.66972],[23.27518,60.66973],[23.2751,60.66976],[23.27501,60.6698],[23.27496,60.66982],[23.27494,60.66983],[23.27484,60.66986],[23.27465,60.66991],[23.27436,60.66998],[23.27433,60.66999],[23.27407,60.67005],[23.27404,60.67006],[23.27371,60.67013],[23.2737,60.67014]],[[23.2737,60.67014],[23.2736,60.67016],[23.27345,60.6702]],[[23.27345,60.6702],[23.27309,60.67029],[23.27268,60.67041],[23.27259,60.67044],[23.27257,60.67044],[23.2723,60.67053],[23.27228,60.67054],[23.27198,60.67064],[23.27195,60.67065],[23.27164,60.67075]],[[23.27164,60.67075],[23.27155,60.67078],[23.27153,60.67079],[23.27144,60.67082],[23.27143,60.67083]],[[23.27143,60.67083],[23.27113,60.67093],[23.27112,60.67093],[23.27078,60.67105],[23.27076,60.67105],[23.27049,60.67115],[23.27048,60.67115],[23.27015,60.67126],[23.27014,60.67126],[23.26984,60.67136],[23.26982,60.67137],[23.26948,60.67148],[23.26946,60.67148]],[[23.26946,60.67148],[23.26918,60.67157],[23.26918,60.67157],[23.26886,60.67166],[23.26883,60.67167]],[[23.26883,60.67167],[23.26865,60.67173],[23.26864,60.67173],[23.26848,60.67178],[23.26846,60.67178]],[[23.26846,60.67178],[23.26836,60.67181],[23.26835,60.67182],[23.26822,60.67185],[23.26821,60.67186]],[[23.26821,60.67186],[23.26792,60.67193],[23.26789,60.67194],[23.26756,60.67202],[23.26753,60.67203],[23.26707,60.67214],[23.26707,60.67214],[23.26657,60.67226],[23.26654,60.67227],[23.26615,60.67236],[23.26613,60.67237],[23.26563,60.67248],[23.26561,60.67249],[23.26538,60.67254],[23.26537,60.67254],[23.2651,60.67261],[23.26497,60.67264],[23.26494,60.67264],[23.26477,60.67268],[23.26474,60.67269],[23.26458,60.67273],[23.26456,60.67274],[23.26433,60.6728],[23.26411,60.67286],[23.2641,60.67286],[23.26391,60.67292],[23.2639,60.67292],[23.26368,60.67298],[23.26348,60.67302],[23.26345,60.67303],[23.26335,60.67305],[23.26331,60.67306],[23.2633,60.67306],[23.26323,60.67307],[23.26306,60.67309],[23.26303,60.6731],[23.26278,60.67313],[23.26276,60.67313]],[[23.26276,60.67313],[23.26251,60.67315],[23.2625,60.67315],[23.26228,60.67316],[23.26225,60.67317],[23.26199,60.67318],[23.26196,60.67318],[23.26178,60.67319],[23.26175,60.67319],[23.26153,60.6732],[23.26151,60.6732],[23.26125,60.67321],[23.26123,60.67321],[23.26101,60.67321],[23.26098,60.67321],[23.26083,60.67322],[23.2608,60.67323],[23.26065,60.67324],[23.26062,60.67324],[23.26047,60.67325],[23.26045,60.67325],[23.26027,60.67328],[23.26026,60.67328]],[[23.26026,60.67328],[23.26008,60.6733],[23.25998,60.67332],[23.25995,60.67333],[23.25992,60.67333],[23.25988,60.67334],[23.25985,60.67335],[23.25973,60.67339],[23.25972,60.67339],[23.25956,60.67344],[23.25955,60.67344]],[[23.25955,60.67344],[23.2593,60.67352],[23.25915,60.67357],[23.25912,60.67358],[23.25911,60.67358],[23.25888,60.67367],[23.25885,60.67368],[23.25867,60.67374],[23.25858,60.67377],[23.25857,60.67378],[23.25832,60.67385],[23.25806,60.67393],[23.25806,60.67393],[23.25783,60.67399],[23.25781,60.674]],[[23.25781,60.674],[23.25756,60.67407],[23.25753,60.67407],[23.25731,60.67413],[23.25721,60.67416],[23.25718,60.67417],[23.25706,60.67421],[23.25705,60.67421],[23.25686,60.67427],[23.25685,60.67427],[23.25679,60.67429],[23.25673,60.67431],[23.2567,60.67432],[23.25668,60.67433],[23.25652,60.6744],[23.25638,60.67446],[23.25636,60.67446],[23.25616,60.67454],[23.25613,60.67455],[23.25611,60.67456],[23.25589,60.67463],[23.25571,60.67469],[23.25569,60.6747]],[[23.25569,60.6747],[23.25558,60.67472],[23.25555,60.67473],[23.25548,60.67474],[23.25544,60.67474],[23.25543,60.67474],[23.25532,60.67475],[23.25529,60.67476],[23.25511,60.67477],[23.25509,60.67478],[23.25484,60.6748],[23.25482,60.6748],[23.25457,60.67484],[23.25454,60.67484],[23.25452,60.67485],[23.25431,60.67488],[23.25427,60.67489],[23.25425,60.67489],[23.25401,60.67494],[23.25399,60.67495],[23.25365,60.67502],[23.25365,60.67502],[23.25335,60.67509],[23.25333,60.67509],[23.25316,60.67513],[23.25305,60.67514],[23.25302,60.67515],[23.25288,60.67517],[23.2527,60.67519],[23.25267,60.67519],[23.25235,60.67521],[23.25231,60.67522],[23.2523,60.67522],[23.25204,60.67523],[23.25202,60.67523],[23.25169,60.67525],[23.25168,60.67525],[23.25132,60.67528],[23.25131,60.67528],[23.25084,60.67531],[23.25083,60.67532],[23.25055,60.67534],[23.25052,60.67535]],[[23.25052,60.67535],[23.25031,60.67537],[23.2502,60.67538],[23.25019,60.67538],[23.25008,60.6754],[23.24991,60.67543],[23.24988,60.67544],[23.24961,60.67549],[23.24958,60.67549],[23.24938,60.67554],[23.24935,60.67554]],[[23.24935,60.67554],[23.24912,60.6756],[23.24883,60.67567],[23.24861,60.67573],[23.2486,60.67574],[23.24828,60.67583],[23.24827,60.67583],[23.24783,60.67595],[23.24781,60.67596],[23.24742,60.67606],[23.24738,60.67607],[23.24709,60.67614],[23.24707,60.67614],[23.24687,60.67619],[23.24687,60.67619],[23.2466,60.67624],[23.24657,60.67625],[23.24611,60.67636],[23.24581,60.67643],[23.2458,60.67643],[23.24564,60.67647],[23.2456,60.67647],[23.2456,60.67648],[23.24547,60.67651],[23.24545,60.67652],[23.24523,60.67659],[23.24522,60.67659],[23.24495,60.67669],[23.24494,60.67669],[23.24468,60.67679],[23.24467,60.6768],[23.24447,60.67688],[23.24438,60.67691],[23.24437,60.67691],[23.24427,60.67694],[23.24418,60.67697],[23.24416,60.67698],[23.24393,60.67703],[23.24386,60.67705],[23.24384,60.67705],[23.24353,60.67711],[23.24351,60.67712],[23.24309,60.67718],[23.24281,60.67723],[23.2428,60.67723],[23.24249,60.67729],[23.24247,60.67729],[23.2422,60.67735],[23.24219,60.67735]],[[23.24219,60.67735],[23.24178,60.67743],[23.24175,60.67744],[23.24142,60.67751],[23.24138,60.67752],[23.24136,60.67752],[23.24119,60.67755],[23.24098,60.67758],[23.24096,60.67758],[23.24063,60.67762],[23.24024,60.67766],[23.24022,60.67766],[23.23987,60.6777],[23.23985,60.67771],[23.23964,60.67774],[23.2395,60.67776],[23.2395,60.67776],[23.23936,60.67779],[23.23926,60.67781],[23.23923,60.67782],[23.23922,60.67783],[23.2391,60.67786],[23.23897,60.6779],[23.23895,60.67791],[23.23867,60.678],[23.23866,60.67801],[23.23845,60.67808],[23.23842,60.67809],[23.23841,60.6781],[23.23831,60.67812],[23.23818,60.67816],[23.23815,60.67816],[23.23789,60.67823],[23.23788,60.67824],[23.23765,60.67829],[23.23764,60.67829],[23.23755,60.67832],[23.23739,60.67837],[23.23737,60.67838]],[[23.23737,60.67838],[23.23711,60.67847],[23.2369,60.67854],[23.23687,60.67855],[23.23664,60.67863],[23.23663,60.67864],[23.23654,60.67867],[23.23637,60.67871]],[[23.23637,60.67871],[23.23622,60.67876],[23.23619,60.67877],[23.23617,60.67878],[23.2361,60.67879],[23.23594,60.67883],[23.23591,60.67883],[23.23565,60.67889],[23.23561,60.6789],[23.23538,60.67895],[23.23537,60.67895],[23.23507,60.67903],[23.23507,60.67903],[23.23487,60.67908],[23.23481,60.6791],[23.23469,60.67914],[23.23466,60.67915],[23.23445,60.67922],[23.23439,60.67924],[23.23438,60.67925],[23.23416,60.67934],[23.23414,60.67935],[23.23395,60.67943],[23.23392,60.67944]],[[23.23392,60.67944],[23.23376,60.67951],[23.23374,60.67952],[23.23352,60.67962],[23.23351,60.67962],[23.23332,60.67971],[23.23331,60.67971]],[[23.23331,60.67971],[23.2332,60.67976],[23.23318,60.67977],[23.23309,60.67981],[23.23304,60.67983],[23.23303,60.67983],[23.23291,60.67987],[23.23289,60.67988]],[[23.23289,60.67988],[23.23278,60.67987],[23.23275,60.67987],[23.23271,60.67987],[23.23268,60.67986],[23.23264,60.67986],[23.23262,60.67985],[23.23259,60.67985],[23.23255,60.67984],[23.23252,60.67983],[23.23249,60.67982],[23.23243,60.6798],[23.23235,60.67976],[23.23229,60.67974],[23.23229,60.67973],[23.23214,60.67966],[23.23213,60.67965],[23.23194,60.67954],[23.23193,60.67954],[23.23171,60.67942],[23.2317,60.67941],[23.23152,60.6793],[23.2315,60.67929],[23.23135,60.67919],[23.23132,60.67917],[23.23132,60.67917],[23.23115,60.67903],[23.23114,60.67903],[23.23102,60.67892],[23.231,60.67891]],[[23.231,60.67891],[23.2309,60.67881]],[[23.2309,60.67881],[23.23073,60.67865]],[[23.23073,60.67865],[23.23062,60.67854],[23.23061,60.67852],[23.2306,60.67851],[23.23051,60.67843],[23.2305,60.67842],[23.23024,60.6782],[23.23023,60.6782],[23.22999,60.678],[23.22998,60.67799],[23.22975,60.6778],[23.22974,60.6778],[23.22963,60.6777],[23.22959,60.67767],[23.22957,60.67766],[23.22952,60.67763],[23.22945,60.67759],[23.22944,60.67759],[23.22936,60.67755],[23.22934,60.67754],[23.22932,60.67753],[23.22929,60.67752],[23.22926,60.67751],[23.22923,60.6775],[23.22917,60.67748],[23.22914,60.67747],[23.22912,60.67747],[23.22906,60.67745],[23.22899,60.67744],[23.22892,60.67743],[23.22888,60.67742],[23.22888,60.67742],[23.22881,60.67741],[23.2287,60.6774],[23.22863,60.6774],[23.2286,60.67739],[23.2283,60.67738],[23.22808,60.67737],[23.22783,60.67736],[23.22779,60.67735],[23.2275,60.67733],[23.22749,60.67733],[23.22728,60.67732],[23.22724,60.67731],[23.22713,60.6773],[23.22706,60.67729],[23.22703,60.67729],[23.227,60.67728],[23.22697,60.67728],[23.22694,60.67727],[23.2269,60.67726],[23.22687,60.67725],[23.22684,60.67724],[23.22681,60.67724],[23.22678,60.67723],[23.22675,60.67722],[23.22672,60.67721],[23.22669,60.67719],[23.22667,60.67718],[23.22664,60.67717],[23.22662,60.67716],[23.22659,60.67714],[23.22658,60.67714],[23.22656,60.67712],[23.22654,60.67711],[23.22652,60.67709],[23.22649,60.67706],[23.22645,60.67703],[23.22644,60.67702],[23.22637,60.67693],[23.22634,60.6769],[23.22633,60.67689],[23.22623,60.67673],[23.22621,60.67672],[23.22611,60.67656],[23.2261,60.67656],[23.22599,60.67637],[23.22599,60.67636],[23.22593,60.67627],[23.2259,60.67622],[23.22585,60.67617],[23.2258,60.67612],[23.22579,60.67611],[23.22572,60.67605],[23.22568,60.67602],[23.22567,60.67601],[23.22556,60.67594],[23.22552,60.67591],[23.22551,60.6759],[23.22535,60.67581],[23.2253,60.67578],[23.22529,60.67577],[23.22509,60.67567],[23.22508,60.67566],[23.22485,60.67554],[23.22483,60.67553],[23.22451,60.67536],[23.2245,60.67536],[23.22417,60.67519],[23.22415,60.67518],[23.22387,60.67504],[23.22384,60.67503],[23.22358,60.67488],[23.22356,60.67487]]]},"properties":{"name":"VAR ELY Sorateiksi parantaminen 2025","kind":"project","ptype":"road","subtype":"Tiehanke","status":"kaynnissa","date":"2025–2025","url":"https://vayla.fi/hankkeet","source":"Väylävirasto"}},{"type":"Feature","geometry":{"type":"MultiLineString","coordinates":[[[23.08251,61.01113],[23.0819,61.0109],[23.08189,61.0109],[23.08155,61.01079],[23.08153,61.01078],[23.08103,61.01063],[23.08101,61.01062],[23.08072,61.01054],[23.0807,61.01054],[23.08045,61.01046],[23.08044,61.01046],[23.08002,61.01034],[23.08,61.01034],[23.07975,61.01026],[23.07971,61.01025],[23.07956,61.0102],[23.07954,61.01019],[23.07945,61.01016],[23.07943,61.01015],[23.07938,61.01013],[23.0793,61.01009],[23.07928,61.01008],[23.07923,61.01005],[23.07916,61.01001],[23.07914,61.01],[23.07907,61.00995],[23.07893,61.00985],[23.07892,61.00984],[23.07874,61.00968],[23.07864,61.00959],[23.07861,61.00956],[23.0786,61.00955],[23.07836,61.00931],[23.07813,61.00911]],[[23.07813,61.00911],[23.07813,61.0091],[23.07782,61.00877],[23.07782,61.00877],[23.07742,61.0084],[23.0774,61.00839],[23.0773,61.00829],[23.07717,61.00814],[23.07716,61.00812],[23.07694,61.00783],[23.07694,61.00782],[23.07693,61.00781],[23.07692,61.0078],[23.07691,61.00778],[23.0769,61.00777],[23.07687,61.00774]],[[23.07687,61.00774],[23.07686,61.00772],[23.07682,61.00763],[23.07678,61.00758],[23.07677,61.00756],[23.07675,61.00755],[23.07671,61.0075],[23.07662,61.00742],[23.07662,61.00742],[23.07642,61.00724],[23.07642,61.00724],[23.07636,61.00719],[23.07631,61.00715],[23.07629,61.00711],[23.07628,61.0071],[23.07618,61.00695],[23.07617,61.00694],[23.07615,61.00692],[23.07612,61.00689],[23.07602,61.00679],[23.07601,61.00678],[23.07584,61.00664],[23.07583,61.00663],[23.0757,61.00652],[23.07568,61.00651],[23.0756,61.00645],[23.07559,61.00644],[23.07543,61.00633],[23.07541,61.00632],[23.07539,61.0063],[23.07534,61.00625],[23.0753,61.00622],[23.07527,61.00619],[23.07526,61.00618],[23.07521,61.00611],[23.07519,61.00609],[23.07504,61.00589],[23.07504,61.00588],[23.075,61.00583],[23.07493,61.00569],[23.07493,61.00569],[23.07484,61.00549],[23.07484,61.00549],[23.07469,61.00519],[23.07468,61.00518],[23.07464,61.00511],[23.07463,61.0051],[23.07459,61.00503],[23.0745,61.00493],[23.07449,61.00492],[23.07437,61.00479],[23.07435,61.00478],[23.07425,61.00469],[23.07424,61.00468],[23.07422,61.00467],[23.07412,61.00459],[23.07399,61.0045],[23.07397,61.0045],[23.07388,61.00444],[23.0737,61.00435],[23.07369,61.00434],[23.07364,61.00432],[23.07334,61.00418],[23.07333,61.00417],[23.07319,61.00412],[23.07302,61.00405],[23.07296,61.00403],[23.07289,61.00401],[23.07283,61.00399],[23.07276,61.00398],[23.07274,61.00397],[23.07271,61.00397],[23.07267,61.00396],[23.07264,61.00395],[23.0726,61.00395],[23.0726,61.00395],[23.07256,61.00395],[23.07253,61.00394],[23.07249,61.00394],[23.07247,61.00394],[23.07246,61.00394],[23.07242,61.00394],[23.07241,61.00393],[23.07238,61.00393],[23.07234,61.00393],[23.07233,61.00393],[23.07229,61.00393],[23.07228,61.00393],[23.07225,61.00393],[23.07223,61.00393],[23.07216,61.00393],[23.07214,61.00393],[23.07196,61.00393],[23.07193,61.00393],[23.07182,61.00393],[23.07181,61.00394],[23.0717,61.00394],[23.07167,61.00394],[23.07159,61.00394],[23.07156,61.00394],[23.07152,61.00394],[23.07149,61.00394],[23.07146,61.00394],[23.07143,61.00394],[23.07139,61.00394],[23.07136,61.00394],[23.07132,61.00393],[23.07121,61.00392],[23.07119,61.00392],[23.07115,61.00392],[23.07113,61.00391],[23.0711,61.00391],[23.07103,61.00389],[23.071,61.00389],[23.07097,61.00388],[23.07096,61.00388],[23.07093,61.00387],[23.07083,61.00385],[23.0708,61.00384],[23.07067,61.00381],[23.07066,61.00381],[23.07063,61.0038],[23.0706,61.00379],[23.07054,61.00376],[23.07051,61.00375],[23.07043,61.00372],[23.07041,61.00371],[23.07032,61.00368],[23.07029,61.00367],[23.07029,61.00366],[23.07018,61.00361],[23.07016,61.0036],[23.07013,61.00359],[23.07004,61.00353],[23.07002,61.00352],[23.0699,61.00345],[23.06989,61.00344],[23.06987,61.00343],[23.06983,61.0034],[23.06981,61.00338],[23.0698,61.00337],[23.06978,61.00335],[23.06977,61.00334],[23.06977,61.00333],[23.06974,61.0033],[23.06973,61.00328],[23.06971,61.00327],[23.0697,61.00326],[23.06969,61.00324],[23.06967,61.00321],[23.06965,61.00318],[23.06961,61.00309],[23.0696,61.00307],[23.06953,61.00293],[23.06952,61.00292],[23.0695,61.00287],[23.06949,61.00281],[23.06948,61.00276],[23.06948,61.00275],[23.06948,61.00272],[23.06948,61.00265],[23.06948,61.00263],[23.06949,61.00262],[23.06949,61.00258],[23.0695,61.00256],[23.06951,61.00254],[23.06951,61.00253],[23.06953,61.0025],[23.06954,61.00249],[23.06956,61.00247],[23.06957,61.00245],[23.06958,61.00244],[23.06959,61.00243],[23.06968,61.00235],[23.06968,61.00234],[23.06975,61.00228],[23.06976,61.00227],[23.06978,61.00225],[23.06994,61.00211],[23.06996,61.0021],[23.07027,61.00186],[23.07028,61.00186],[23.07056,61.00165],[23.07056,61.00164],[23.07062,61.0016],[23.07064,61.00158],[23.07065,61.00156],[23.07066,61.00156],[23.07067,61.00154],[23.07068,61.00153],[23.07071,61.00147],[23.07072,61.00146],[23.07075,61.00139],[23.07076,61.00138],[23.07078,61.00132],[23.07079,61.00127],[23.0708,61.00122],[23.0708,61.00121],[23.0708,61.00116],[23.0708,61.00114],[23.0708,61.00109],[23.07079,61.00103],[23.07078,61.00102],[23.07078,61.001],[23.07076,61.00097],[23.07076,61.00096],[23.07073,61.00091],[23.07068,61.0008],[23.07068,61.00079],[23.07066,61.00076],[23.07065,61.00075],[23.07063,61.00071],[23.07062,61.0007],[23.07059,61.00067],[23.07059,61.00066],[23.07057,61.00064],[23.07051,61.00058],[23.0705,61.00057],[23.07045,61.00053],[23.07043,61.00051],[23.07043,61.00051],[23.07037,61.00046],[23.07029,61.0004],[23.07028,61.0004],[23.07015,61.00031],[23.07014,61.0003],[23.07008,61.00026],[23.07008,61.00026],[23.07002,61.00021],[23.06985,61.00009],[23.06982,61.00008],[23.0698,61.00007],[23.06971,61.00001],[23.06965,60.99998],[23.0696,60.99996],[23.06959,60.99996],[23.06956,60.99994],[23.06933,60.99985],[23.06931,60.99985],[23.06923,60.99981],[23.06905,60.99972],[23.06902,60.99971],[23.06888,60.99963],[23.06883,60.9996],[23.06883,60.9996],[23.0688,60.99958],[23.06874,60.99954],[23.06865,60.99946],[23.06863,60.99945],[23.06852,60.99936],[23.06851,60.99934],[23.0684,60.99925],[23.06839,60.99925],[23.06834,60.9992],[23.06833,60.9992],[23.06831,60.99918],[23.06823,60.99912],[23.06821,60.99911],[23.06812,60.99905],[23.068,60.99898]],[[23.068,60.99898],[23.06798,60.99897],[23.06793,60.99895],[23.06791,60.99894],[23.0678,60.99889],[23.06766,60.99883],[23.06765,60.99882],[23.06752,60.99876],[23.0675,60.99875],[23.06739,60.9987],[23.06737,60.99868],[23.06735,60.99867],[23.06733,60.99866],[23.06731,60.99865],[23.06729,60.99863],[23.06727,60.99861],[23.06726,60.9986],[23.06725,60.99859],[23.06723,60.99858],[23.06719,60.99853]],[[23.06719,60.99853],[23.06719,60.99852],[23.06705,60.99837],[23.06704,60.99836],[23.06703,60.99834],[23.06697,60.99826],[23.06696,60.99825],[23.06691,60.99816],[23.06688,60.99813],[23.06687,60.99812],[23.06681,60.99805],[23.0668,60.99804],[23.06677,60.99801],[23.06676,60.998],[23.06673,60.99797],[23.06673,60.99796],[23.06671,60.99795],[23.06669,60.99793],[23.06664,60.9979],[23.06663,60.9979],[23.06661,60.99788],[23.06651,60.99781],[23.0665,60.9978],[23.06648,60.99778],[23.06637,60.99771],[23.06637,60.99771],[23.06617,60.99758],[23.0661,60.99753],[23.06609,60.99752],[23.06608,60.99751],[23.06603,60.99746],[23.06602,60.99745],[23.06592,60.99736],[23.06591,60.99735],[23.06588,60.99731],[23.06587,60.9973],[23.06582,60.99725],[23.06579,60.99722],[23.06578,60.9972],[23.06577,60.9972],[23.06571,60.99715],[23.0657,60.99714],[23.06566,60.99711],[23.06565,60.9971],[23.06563,60.99709],[23.06557,60.99704],[23.06553,60.99701],[23.06551,60.997],[23.06549,60.99699],[23.06537,60.99692],[23.06536,60.99692],[23.06528,60.99688],[23.06528,60.99687],[23.06525,60.99686],[23.0652,60.99684],[23.06518,60.99683],[23.06504,60.99677],[23.06501,60.99676],[23.06496,60.99674],[23.06493,60.99673],[23.06488,60.99671],[23.06487,60.9967],[23.06481,60.99668],[23.0648,60.99668],[23.06464,60.99663],[23.06462,60.99662],[23.06446,60.99658],[23.06443,60.99657],[23.06426,60.99653],[23.06425,60.99652],[23.06405,60.99648],[23.06403,60.99648],[23.06397,60.99647],[23.06375,60.99644],[23.06372,60.99643],[23.06347,60.9964],[23.0634,60.99639],[23.06332,60.99638],[23.06329,60.99638],[23.06325,60.99638],[23.06317,60.99638]],[[23.06317,60.99638],[23.06314,60.99638],[23.06285,60.99638],[23.06282,60.99638],[23.06278,60.99639],[23.0626,60.99639],[23.06245,60.9964],[23.06242,60.99641],[23.06227,60.99642],[23.06194,60.99646],[23.06193,60.99646],[23.06131,60.99652],[23.06128,60.99652],[23.06074,60.99657],[23.06072,60.99657],[23.06054,60.99658],[23.06043,60.99658],[23.06039,60.99658],[23.06036,60.99658],[23.06021,60.99658],[23.06019,60.99658],[23.06,60.99657]],[[23.06,60.99657],[23.05997,60.99657],[23.05986,60.99655],[23.05972,60.99653],[23.05971,60.99653],[23.05961,60.99651],[23.05957,60.9965],[23.05954,60.99649],[23.05951,60.99648],[23.05948,60.99647],[23.05945,60.99646],[23.05936,60.99642],[23.05936,60.99642],[23.05927,60.99639],[23.05926,60.99639],[23.05923,60.99637],[23.05921,60.99636],[23.05919,60.99635],[23.05912,60.9963],[23.05911,60.9963],[23.05899,60.99621],[23.0587,60.99602],[23.05868,60.996],[23.05858,60.99593],[23.05853,60.9959],[23.05848,60.99587],[23.05846,60.99586],[23.05843,60.99585],[23.0584,60.99584],[23.05839,60.99583],[23.05833,60.99581],[23.05824,60.99578],[23.05823,60.99577],[23.05811,60.99573],[23.05804,60.99571],[23.05803,60.99571],[23.058,60.9957],[23.05797,60.99569],[23.05793,60.99568],[23.05786,60.99567],[23.05785,60.99567],[23.05778,60.99566],[23.05775,60.99565],[23.05754,60.99561],[23.05752,60.9956],[23.05738,60.99558],[23.05731,60.99556],[23.05724,60.99555],[23.0572,60.99555],[23.05717,60.99554],[23.05714,60.99553],[23.05707,60.99551],[23.05706,60.99551],[23.05696,60.99548],[23.05694,60.99548],[23.05675,60.99543],[23.05674,60.99542],[23.05649,60.99534],[23.05648,60.99534],[23.05636,60.99529],[23.05634,60.99529],[23.05631,60.99528],[23.05618,60.99522],[23.05617,60.99522],[23.05609,60.99518]],[[23.05609,60.99518],[23.05607,60.99517],[23.056,60.99512],[23.05598,60.99511],[23.05597,60.9951],[23.05592,60.99505],[23.0559,60.99504],[23.05588,60.99502],[23.05588,60.99502],[23.05579,60.99494],[23.05578,60.99493],[23.05576,60.99492],[23.05572,60.99487],[23.05571,60.99486],[23.0557,60.99484],[23.05569,60.99484],[23.0555,60.99461],[23.05549,60.9946],[23.05527,60.99435],[23.05526,60.99434],[23.05501,60.99406],[23.05493,60.99398],[23.0549,60.99394],[23.0549,60.99393],[23.05486,60.99388],[23.05485,60.99387],[23.05479,60.99379],[23.05476,60.99373],[23.05475,60.99371],[23.0547,60.99359],[23.0547,60.99358],[23.05467,60.99351],[23.05462,60.99338],[23.0546,60.99335],[23.0546,60.99334],[23.05458,60.99332],[23.0545,60.99321],[23.05449,60.99319],[23.05447,60.99317],[23.05447,60.99317],[23.05446,60.99315],[23.05441,60.99311],[23.0544,60.9931],[23.05431,60.993],[23.0543,60.99299],[23.05426,60.99296],[23.05413,60.99285],[23.05412,60.99284],[23.05405,60.99277],[23.05397,60.99269],[23.05396,60.99269],[23.05391,60.99262],[23.05385,60.99253],[23.05384,60.99253],[23.05383,60.99251],[23.05373,60.99232],[23.05363,60.99214],[23.05362,60.99213],[23.05351,60.99199],[23.05351,60.99198],[23.05338,60.99184],[23.05323,60.99169],[23.05322,60.99168],[23.05313,60.9916],[23.05307,60.99153],[23.05304,60.9915],[23.053,60.99145],[23.05296,60.99138],[23.05294,60.99135],[23.0529,60.99126],[23.0529,60.99125],[23.05289,60.99124],[23.05287,60.99116],[23.05286,60.99109],[23.05286,60.99109],[23.05286,60.99098],[23.05286,60.99091],[23.05286,60.99089],[23.05286,60.99075],[23.05286,60.99069],[23.05286,60.99069],[23.05285,60.99065],[23.05285,60.99064],[23.05283,60.99059],[23.05283,60.99058],[23.05281,60.99053],[23.05281,60.99051],[23.0528,60.99046],[23.0528,60.99045],[23.05279,60.9904],[23.05279,60.99039],[23.05279,60.99033],[23.0528,60.99023],[23.0528,60.99022],[23.0528,60.99016],[23.05281,60.99013],[23.05281,60.99012],[23.05281,60.9901],[23.05282,60.99009],[23.05284,60.99003],[23.05288,60.98993],[23.0529,60.98987],[23.0529,60.98986],[23.05291,60.9898],[23.05292,60.98979],[23.05293,60.98975],[23.05294,60.98974],[23.05294,60.98972],[23.05294,60.98968],[23.05294,60.98967],[23.05294,60.98958],[23.05294,60.98957],[23.05293,60.98953],[23.05291,60.98948],[23.0529,60.98942],[23.05289,60.98942],[23.05288,60.98938],[23.05287,60.98936],[23.05287,60.98936],[23.05286,60.98934],[23.05285,60.98933],[23.05283,60.98929],[23.05282,60.98928],[23.0528,60.98922],[23.0528,60.98922],[23.05277,60.98913],[23.05276,60.98913],[23.0527,60.98899],[23.05269,60.98897],[23.05262,60.98883],[23.05261,60.98882],[23.05259,60.98878],[23.05253,60.9887],[23.05253,60.98869],[23.05243,60.98857],[23.05243,60.98857],[23.05236,60.98849],[23.05233,60.98846],[23.05232,60.98845],[23.0523,60.98843],[23.05216,60.98833],[23.05216,60.98832],[23.05207,60.98824],[23.05203,60.98821],[23.05202,60.98821],[23.052,60.98819],[23.0519,60.98814]],[[23.0519,60.98814],[23.05178,60.98808],[23.05176,60.98807],[23.05171,60.98805],[23.05168,60.98803],[23.05165,60.98802],[23.05159,60.988],[23.05158,60.988],[23.05149,60.98796],[23.05148,60.98796],[23.05136,60.98792],[23.05117,60.98787],[23.05113,60.98786],[23.05077,60.98777],[23.05075,60.98777],[23.05025,60.98766],[23.05007,60.98763],[23.04996,60.98761],[23.04995,60.98761],[23.04991,60.9876],[23.0499,60.9876],[23.04986,60.9876],[23.04985,60.9876],[23.04981,60.9876],[23.0498,60.9876],[23.04976,60.98759],[23.04975,60.98759],[23.04971,60.98759],[23.0497,60.98759],[23.04963,60.98759]],[[23.04963,60.98759],[23.04953,60.98759],[23.04938,60.98759],[23.04936,60.98759],[23.04892,60.98759],[23.04889,60.98759],[23.04845,60.98759],[23.04844,60.98759],[23.04796,60.98759],[23.04793,60.98759],[23.04782,60.9876],[23.04779,60.9876],[23.04772,60.9876],[23.04769,60.9876],[23.04736,60.98762],[23.04733,60.98762],[23.04722,60.98762],[23.04714,60.98763],[23.04707,60.98763],[23.04696,60.98763],[23.04673,60.98762],[23.04662,60.98761],[23.04659,60.98761],[23.04656,60.98761],[23.04654,60.98761],[23.04647,60.9876]],[[23.04647,60.9876],[23.04645,60.98759],[23.04635,60.98758],[23.04624,60.98756],[23.04621,60.98755],[23.04607,60.98752],[23.04604,60.98751],[23.04598,60.98749],[23.04595,60.98748],[23.04592,60.98747],[23.04589,60.98746],[23.04586,60.98745],[23.04585,60.98744],[23.0458,60.98741]],[[23.0458,60.98741],[23.04578,60.98741],[23.04568,60.98735],[23.04556,60.98728],[23.04554,60.98727],[23.04552,60.98725],[23.04546,60.98721],[23.04544,60.9872],[23.04523,60.98703],[23.04491,60.98676],[23.0449,60.98676],[23.04443,60.98636],[23.04441,60.98635],[23.04398,60.98601],[23.04397,60.986],[23.0438,60.98586]],[[23.0438,60.98586],[23.04342,60.98555],[23.04342,60.98554],[23.04316,60.98532],[23.04315,60.98531],[23.04299,60.98517],[23.04299,60.98517],[23.04283,60.985],[23.04282,60.985],[23.04271,60.9849],[23.04271,60.98489],[23.04265,60.98483],[23.04263,60.98481],[23.04263,60.98481],[23.04261,60.98479],[23.04259,60.98478],[23.04252,60.98473],[23.04252,60.98473],[23.04243,60.98467],[23.04243,60.98466],[23.0424,60.98465],[23.04238,60.98464],[23.04235,60.98462],[23.04227,60.98459],[23.04226,60.98458],[23.04215,60.98453],[23.04214,60.98453],[23.04205,60.98449],[23.04199,60.98447],[23.04197,60.98446],[23.04193,60.98445],[23.04178,60.98441],[23.04175,60.9844],[23.04159,60.98436],[23.04152,60.98434],[23.04151,60.98434],[23.04147,60.98433],[23.0414,60.98432],[23.04119,60.98428],[23.04116,60.98428],[23.04099,60.98425],[23.04095,60.98425],[23.04077,60.98422],[23.04067,60.98421],[23.04063,60.98421],[23.0406,60.9842],[23.04042,60.98418],[23.04028,60.98415],[23.04026,60.98415],[23.04023,60.98414],[23.0402,60.98413],[23.04016,60.98412],[23.0401,60.9841],[23.04007,60.98409],[23.03994,60.98406],[23.03992,60.98405],[23.03989,60.98404],[23.03987,60.98403],[23.03984,60.98401],[23.03982,60.984],[23.03974,60.98397],[23.03973,60.98396],[23.03971,60.98395],[23.03968,60.98394],[23.03967,60.98392],[23.03962,60.9839],[23.03961,60.98389],[23.03959,60.98388],[23.03958,60.98386],[23.03957,60.98385],[23.03953,60.98382],[23.03952,60.98381],[23.03949,60.98378],[23.03944,60.98373],[23.03943,60.98373],[23.03941,60.98371],[23.03937,60.98368],[23.03931,60.98364],[23.03908,60.98345],[23.03906,60.98344],[23.039,60.98339],[23.03899,60.98339],[23.03883,60.98327],[23.03881,60.98325],[23.03862,60.9831],[23.03861,60.9831],[23.03835,60.98288],[23.03834,60.98287],[23.03812,60.98268],[23.03811,60.98268],[23.03792,60.98253],[23.03792,60.98252],[23.03776,60.98238],[23.03775,60.98237],[23.03761,60.98222],[23.0376,60.98221],[23.03749,60.98208],[23.03748,60.98206],[23.03736,60.98191],[23.03735,60.9819],[23.03724,60.98175],[23.03724,60.98174],[23.03716,60.98164],[23.03712,60.98159],[23.0371,60.98157],[23.03696,60.98145],[23.03695,60.98144],[23.03693,60.98142],[23.03691,60.98141],[23.0369,60.9814],[23.03685,60.98138],[23.03683,60.98136],[23.03681,60.98135],[23.03677,60.98132],[23.03676,60.98131],[23.03674,60.98129],[23.03669,60.98127],[23.03667,60.98125],[23.03665,60.98124],[23.03663,60.98123],[23.03653,60.98118],[23.03645,60.98114],[23.03642,60.98113],[23.03641,60.98112],[23.03638,60.98111],[23.03632,60.98109],[23.03631,60.98108],[23.03614,60.98101],[23.03611,60.981],[23.03588,60.98091],[23.03585,60.9809],[23.03553,60.98078],[23.03551,60.98078],[23.03521,60.98068],[23.03518,60.98067],[23.03487,60.98057],[23.03485,60.98057],[23.03459,60.9805],[23.03459,60.98049],[23.03433,60.98043],[23.0343,60.98042],[23.03417,60.9804],[23.03406,60.98038],[23.03405,60.98037],[23.03402,60.98037],[23.03377,60.98033],[23.03351,60.9803],[23.03349,60.9803],[23.03327,60.98028],[23.03326,60.98028],[23.03308,60.98026],[23.03304,60.98026],[23.03289,60.98025],[23.03287,60.98025],[23.03265,60.98024],[23.03263,60.98024],[23.03245,60.98024],[23.03243,60.98024],[23.0324,60.98024],[23.03214,60.98023]],[[23.03214,60.98023],[23.03212,60.98024],[23.03197,60.98024],[23.0319,60.98024],[23.03186,60.98025],[23.03182,60.98025],[23.03168,60.98027],[23.03165,60.98027],[23.03154,60.98029]]]},"properties":{"name":"VAR ELY Sorateiksi parantaminen 2025","kind":"project","ptype":"road","subtype":"Tiehanke","status":"kaynnissa","date":"2025–2025","url":"https://vayla.fi/hankkeet","source":"Väylävirasto"}},{"type":"Feature","geometry":{"type":"MultiLineString","coordinates":[[[23.16789,60.64706],[23.1679,60.64705],[23.16811,60.64702],[23.16847,60.64697],[23.16885,60.64691],[23.16932,60.64684],[23.16954,60.6468]],[[23.16954,60.6468],[23.16957,60.6468],[23.1696,60.6468]],[[23.1696,60.6468],[23.16983,60.64677],[23.17013,60.64672],[23.17045,60.64666],[23.17058,60.64663],[23.17071,60.6466]],[[23.17071,60.6466],[23.17077,60.64659]]]},"properties":{"name":"T-5357 Hallin silta","kind":"project","ptype":"road","subtype":"Tiehanke","status":"kaynnissa","date":"2024–2025","url":"https://vayla.fi/hankkeet","source":"Väylävirasto"}},{"type":"Feature","geometry":{"type":"MultiLineString","coordinates":[[[22.9566,60.94712],[22.95631,60.94715],[22.95592,60.94719],[22.95552,60.94722],[22.95537,60.94723]],[[22.95537,60.94723],[22.95533,60.94723]],[[22.95533,60.94723],[22.95531,60.94723],[22.95503,60.94725],[22.95477,60.94725],[22.9547,60.94725],[22.95457,60.94725],[22.95441,60.94725],[22.95415,60.94725],[22.95358,60.94725],[22.95333,60.94725]]]},"properties":{"name":"T-5375 Pokanojan silta","kind":"project","ptype":"road","subtype":"Tiehanke","status":"kaynnissa","date":"2024–2025","url":"https://vayla.fi/hankkeet","source":"Väylävirasto"}},{"type":"Feature","geometry":{"type":"MultiPoint","coordinates":[[22.05929,60.91799],[22.72802,62.19008],[22.2972,61.24737],[22.66932,60.27337],[22.67046,60.37224],[22.00161,60.59607],[22.46806,60.6736],[22.23702,60.66349],[21.96454,60.67899],[22.01953,60.82716],[21.60558,61.12697],[23.01632,60.9951],[22.03123,61.02229],[21.67434,61.15463],[21.55099,61.13324]]},"properties":{"name":"LOU Putkisiltaurakka 2026-2027, KU","kind":"project","ptype":"road","subtype":"Tiehanke","status":"kaynnissa","date":"2025–2027","url":"https://vayla.fi/hankkeet","source":"Väylävirasto"}},{"type":"Feature","geometry":{"type":"MultiPoint","coordinates":[[23.61956,60.65441],[23.07668,60.3907],[22.64807,60.33824],[23.16397,60.19494],[23.14993,60.63586],[23.25363,60.32909]]},"properties":{"name":"LOU Siltaurakka 2/2026-2027","kind":"project","ptype":"road","subtype":"Tiehanke","status":"kaynnissa","date":"2026–2027","url":"https://vayla.fi/hankkeet","source":"Väylävirasto"}},{"type":"Feature","geometry":{"type":"MultiPoint","coordinates":[[22.51395,60.90026],[21.66237,60.60157],[21.95352,60.64496],[22.05711,60.60116]]},"properties":{"name":"LOU Siltaurakka 1/2026","kind":"project","ptype":"road","subtype":"Tiehanke","status":"kaynnissa","date":"2026–2026","url":"https://vayla.fi/hankkeet","source":"Väylävirasto"}}]}