{"type":"FeatureCollection","features":[{"type":"Feature","geometry":{"type":"LineString","coordinates":[[22.95929,61.86411],[22.96852,61.87752],[22.98165,61.89789],[22.97688,61.91748],[22.97713,61.92559],[22.99209,61.94928],[23.00739,61.98399],[23.01009,62.00047],[23.01804,62.01399],[23.01479,62.02532],[23.03957,62.04202],[23.03798,62.05422],[23.04657,62.08686],[23.04588,62.09557],[23.00198,62.1216],[22.98469,62.13091],[22.97925,62.17716],[22.97033,62.19161],[22.95255,62.2094],[22.94235,62.2176],[22.93776,62.23609],[22.93068,62.247],[22.92391,62.25563],[22.91403,62.26645],[22.91332,62.27166]]},"properties":{"name":"Vt 3 tievalaisimien uusinta Ylöjärvi - Parkano. ST 2025","kind":"project","ptype":"road","subtype":"Tiehanke","status":"kaynnissa","date":"2025–2026","url":"https://vayla.fi/hankkeet","source":"Väylävirasto"}},{"type":"Feature","geometry":{"type":"MultiLineString","coordinates":[[[23.32304,62.98318],[23.32317,62.9831],[23.32318,62.98309],[23.32352,62.9829]],[[23.32352,62.9829],[23.32357,62.98287],[23.32358,62.98286],[23.32382,62.98272],[23.32383,62.98271]],[[23.32383,62.98271],[23.32388,62.98268],[23.324,62.98261],[23.32402,62.9826],[23.32404,62.98259],[23.32412,62.98253],[23.32413,62.98252],[23.32425,62.98242],[23.32426,62.98241],[23.32434,62.98235],[23.32436,62.98233],[23.32437,62.98232],[23.32448,62.98221],[23.32449,62.9822],[23.32456,62.98212],[23.32457,62.98211],[23.32461,62.98206],[23.32465,62.982],[23.32465,62.982],[23.32471,62.98189],[23.32477,62.98177],[23.32478,62.98176],[23.32484,62.98162],[23.32485,62.98162],[23.32485,62.98161]],[[23.32485,62.98161],[23.32489,62.98149],[23.3249,62.98147],[23.32495,62.98135],[23.32495,62.98135],[23.32498,62.98127],[23.32498,62.98127]],[[23.32498,62.98127],[23.32502,62.98118],[23.32502,62.98117],[23.32505,62.98112],[23.32507,62.98108],[23.32508,62.98107],[23.32511,62.98103],[23.32511,62.98103]],[[23.32511,62.98103],[23.32523,62.98092],[23.32523,62.98092],[23.32531,62.98085],[23.32532,62.98084],[23.32538,62.98079],[23.3254,62.98078],[23.32543,62.98076],[23.32545,62.98075],[23.32547,62.98074],[23.3255,62.98073],[23.32558,62.98069],[23.32561,62.98068],[23.32575,62.98061],[23.32577,62.9806]],[[23.32577,62.9806],[23.32579,62.9806],[23.32582,62.98058],[23.32585,62.98057],[23.32588,62.98056],[23.32591,62.98055],[23.32595,62.98055],[23.32599,62.98054],[23.32613,62.98051],[23.32615,62.98051],[23.32665,62.9804],[23.32673,62.98039],[23.32675,62.98038],[23.327,62.98034],[23.32704,62.98033],[23.32706,62.98033],[23.32727,62.98028],[23.32746,62.98025],[23.32749,62.98024],[23.32781,62.98017],[23.32784,62.98017],[23.32814,62.98012],[23.32843,62.98007],[23.32846,62.98006],[23.32882,62.97999],[23.32884,62.97998],[23.32895,62.97996],[23.32899,62.97996]],[[23.32899,62.97996],[23.32913,62.97993],[23.32914,62.97993],[23.32943,62.97987],[23.32945,62.97987],[23.32956,62.97985]],[[23.32956,62.97985],[23.32961,62.97984],[23.32983,62.97979],[23.32984,62.97979],[23.33028,62.97971],[23.33029,62.97971],[23.33058,62.97965],[23.33059,62.97965],[23.3308,62.97961],[23.33083,62.9796],[23.33112,62.97954],[23.33114,62.97954],[23.33135,62.97949],[23.33135,62.97949],[23.3316,62.97943],[23.3316,62.97943],[23.3319,62.97934],[23.33207,62.97929],[23.3321,62.97928],[23.3321,62.97927],[23.33217,62.97925],[23.33225,62.97921],[23.33228,62.97921],[23.33248,62.97912],[23.33249,62.97912],[23.33269,62.97903],[23.33271,62.97902]],[[23.33271,62.97902],[23.33272,62.97901],[23.33286,62.97895],[23.33294,62.97891],[23.33295,62.97891],[23.3332,62.97877],[23.33322,62.97875],[23.33333,62.9787],[23.33335,62.97869],[23.33339,62.97866],[23.33344,62.97863],[23.33356,62.97854],[23.33357,62.97853],[23.33378,62.97836],[23.3338,62.97834],[23.33394,62.97819],[23.33395,62.97818],[23.33413,62.97798],[23.33414,62.97797],[23.33423,62.97787],[23.33424,62.97786],[23.33437,62.97772],[23.3345,62.97761],[23.33452,62.9776],[23.33453,62.97759],[23.33469,62.97746],[23.3347,62.97746],[23.33486,62.97735],[23.33487,62.97734],[23.33507,62.97721],[23.33514,62.97717],[23.33516,62.97716],[23.33531,62.97708],[23.33548,62.977],[23.33584,62.97684],[23.33585,62.97683],[23.33619,62.97668],[23.3362,62.97668],[23.33671,62.97648],[23.33674,62.97647]],[[23.33674,62.97647],[23.33725,62.9763],[23.33769,62.97615],[23.33771,62.97614],[23.33827,62.97594],[23.33829,62.97594],[23.33906,62.97569],[23.33907,62.97568],[23.33943,62.97557],[23.33945,62.97557],[23.33977,62.97546],[23.33999,62.97539],[23.34002,62.97538],[23.34021,62.97531],[23.34023,62.97531],[23.34038,62.97525],[23.34047,62.97521],[23.34049,62.9752],[23.34057,62.97516],[23.34067,62.97511],[23.3407,62.97509],[23.34084,62.975],[23.34085,62.97499],[23.34103,62.97487],[23.34105,62.97486],[23.34105,62.97485],[23.34118,62.97474],[23.34127,62.97466],[23.34129,62.97465],[23.34142,62.9745],[23.34143,62.97449],[23.34154,62.97434],[23.34155,62.97433],[23.34159,62.97427]],[[23.34159,62.97427],[23.3417,62.97412],[23.3417,62.97412],[23.34197,62.97368],[23.34219,62.9733],[23.34219,62.97329],[23.34242,62.97289],[23.34243,62.97287],[23.34273,62.97235],[23.34273,62.97234],[23.34302,62.97184],[23.34303,62.97183],[23.34331,62.97131],[23.34332,62.9713],[23.34361,62.97082],[23.34361,62.97081],[23.34402,62.9701],[23.34403,62.97008],[23.34421,62.96977],[23.34422,62.96975],[23.34453,62.96922],[23.3448,62.96873],[23.34481,62.96872],[23.34504,62.9683],[23.34504,62.9683],[23.3452,62.96803],[23.34522,62.96797],[23.34523,62.96797],[23.34535,62.96771],[23.34535,62.9677],[23.34544,62.96745],[23.34545,62.96744],[23.34545,62.96743],[23.34548,62.96727],[23.34549,62.96723],[23.34549,62.96722],[23.34549,62.9672]],[[23.34549,62.9672],[23.3455,62.96707],[23.3455,62.96706],[23.34552,62.96691],[23.34552,62.9669],[23.34553,62.96685],[23.34553,62.96685],[23.34552,62.96676],[23.34552,62.96672],[23.34552,62.96671],[23.34552,62.96669]],[[23.34552,62.96669],[23.34552,62.96657],[23.34552,62.96655],[23.34552,62.96654],[23.34551,62.96645],[23.3455,62.96638],[23.34546,62.96625],[23.34542,62.96616],[23.34541,62.96614],[23.34531,62.96597],[23.34531,62.96596],[23.34527,62.96589],[23.34525,62.96586],[23.34524,62.96582],[23.34524,62.96581],[23.34523,62.96577],[23.34523,62.96572],[23.34523,62.96565],[23.34523,62.96564],[23.34525,62.96548],[23.34525,62.96548],[23.34524,62.9653],[23.34524,62.96529],[23.34523,62.96518]],[[23.34523,62.96518],[23.34523,62.96517],[23.34522,62.96514],[23.34517,62.96503],[23.34516,62.96503],[23.34509,62.96489],[23.34508,62.96487],[23.34502,62.96471],[23.34502,62.9647],[23.34494,62.96441],[23.34488,62.96416],[23.34488,62.96416],[23.34484,62.96394],[23.34483,62.96394],[23.34481,62.96374],[23.3448,62.96364],[23.34481,62.96362],[23.34482,62.96349],[23.34481,62.96338],[23.34481,62.96337],[23.3448,62.96328],[23.3448,62.96326],[23.34479,62.96325],[23.34479,62.96322],[23.34477,62.96318],[23.34475,62.96315],[23.34475,62.96313],[23.34472,62.9631],[23.3447,62.96307],[23.34469,62.96305],[23.34461,62.96297],[23.34459,62.96296],[23.34459,62.96295],[23.34448,62.96285],[23.34447,62.96284],[23.34436,62.96273],[23.34434,62.96271],[23.3443,62.96266],[23.34429,62.96265],[23.34428,62.96263],[23.34427,62.96261],[23.34427,62.96261],[23.34426,62.96259],[23.34426,62.96257],[23.34425,62.96255],[23.34425,62.96252],[23.34425,62.96251],[23.34426,62.96247],[23.34426,62.96243],[23.34427,62.96242],[23.34427,62.9624],[23.34428,62.96239],[23.34429,62.96238],[23.34431,62.96234],[23.34434,62.96229],[23.34435,62.96228]],[[23.34435,62.96228],[23.3444,62.96223],[23.34442,62.96222],[23.34457,62.96209],[23.34458,62.96209],[23.3447,62.96197],[23.34472,62.96196],[23.34487,62.96181],[23.34489,62.9618],[23.34489,62.96179],[23.345,62.96167],[23.34505,62.9616],[23.34507,62.96157],[23.34508,62.96155],[23.34508,62.96154],[23.3451,62.96151],[23.3451,62.96149],[23.3451,62.96148],[23.34512,62.96141],[23.34512,62.9614]],[[23.34512,62.9614],[23.34515,62.96131],[23.34516,62.96127],[23.34516,62.96126],[23.34517,62.96113],[23.34517,62.96111],[23.34517,62.9611],[23.34517,62.9611]],[[23.34517,62.9611],[23.34522,62.96097],[23.34523,62.96097],[23.34529,62.96081],[23.34529,62.9608],[23.34538,62.96063],[23.34538,62.96061],[23.34548,62.96042],[23.34548,62.96042],[23.34557,62.96019],[23.34557,62.96018],[23.34565,62.95993],[23.34565,62.95991],[23.34573,62.95954],[23.34573,62.95953],[23.34579,62.95919],[23.34579,62.95917],[23.34583,62.95887],[23.34584,62.95886],[23.34587,62.95859],[23.34587,62.95858],[23.34589,62.9584],[23.3459,62.95826],[23.3459,62.95825],[23.34591,62.95816],[23.34591,62.95814],[23.34591,62.95814],[23.34591,62.95812]],[[23.34591,62.95812],[23.34589,62.95802],[23.34589,62.95801],[23.34589,62.95801]],[[23.34589,62.95801],[23.3459,62.95792],[23.3459,62.9579],[23.34589,62.95774],[23.34589,62.95762],[23.34589,62.95761],[23.34588,62.95746],[23.34588,62.95746],[23.34588,62.95744]],[[23.34588,62.95744],[23.34585,62.95728]],[[23.34585,62.95728],[23.34584,62.95721],[23.34583,62.95719],[23.34583,62.95718],[23.34582,62.95714],[23.34579,62.95707],[23.34578,62.95706],[23.34567,62.95687],[23.34566,62.95685],[23.34557,62.9567],[23.34556,62.95668],[23.3455,62.95656],[23.34549,62.95654],[23.34546,62.95645],[23.34546,62.95644],[23.34542,62.95634],[23.34541,62.95632],[23.34534,62.95613],[23.34534,62.95612],[23.34533,62.95611]],[[23.34533,62.95611],[23.34531,62.95606],[23.3453,62.95604],[23.3453,62.95602],[23.3453,62.95602],[23.3453,62.956],[23.34529,62.95598],[23.3453,62.95591],[23.3453,62.9559],[23.3453,62.95584],[23.34531,62.95582],[23.34532,62.95581],[23.34532,62.95579],[23.34533,62.95577],[23.34537,62.95572],[23.34538,62.95571],[23.34543,62.95564],[23.34545,62.95563],[23.34546,62.95562],[23.34549,62.95558],[23.34559,62.95551],[23.34561,62.95549],[23.34582,62.95532],[23.34584,62.95531],[23.34601,62.95519],[23.34603,62.95518],[23.34625,62.95503],[23.34626,62.95502]],[[23.34626,62.95502],[23.34629,62.955],[23.34651,62.95485],[23.34653,62.95484],[23.34672,62.9547],[23.34692,62.95455],[23.34713,62.9544],[23.34714,62.95439],[23.34725,62.95432],[23.34727,62.9543],[23.34729,62.9543],[23.34734,62.95427],[23.3474,62.95424],[23.34751,62.95419],[23.34753,62.95419],[23.34781,62.95406],[23.34782,62.95406]],[[23.34782,62.95406],[23.34796,62.95397],[23.34798,62.95396],[23.34799,62.95395],[23.34806,62.95391],[23.34811,62.95386],[23.34815,62.95383],[23.34818,62.9538],[23.34819,62.95379],[23.34823,62.95374],[23.34833,62.95358],[23.34834,62.95358],[23.34847,62.95335],[23.34848,62.95334],[23.34859,62.95313],[23.34859,62.95312],[23.34866,62.95298],[23.34867,62.95297],[23.34868,62.95295],[23.34872,62.95279],[23.34873,62.95277]],[[23.34873,62.95277],[23.34873,62.95274],[23.34875,62.95265],[23.34875,62.95262],[23.34875,62.95258],[23.34875,62.95257],[23.34874,62.95253],[23.34873,62.9525],[23.34871,62.95244],[23.34871,62.95244],[23.34866,62.95228],[23.34866,62.95227],[23.34861,62.95217],[23.3486,62.95213],[23.34859,62.95212],[23.34848,62.95193],[23.34841,62.95181],[23.34834,62.95171]]]},"properties":{"name":"Mt 7112 Hirvijoentie, Lapua","kind":"project","ptype":"road","subtype":"Tiehanke","status":"kaynnissa","date":"2025–2025","url":"https://vayla.fi/hankkeet","source":"Väylävirasto"}},{"type":"Feature","geometry":{"type":"LineString","coordinates":[[22.95739,62.55625],[22.95792,62.55622],[22.95794,62.55622],[22.95848,62.5562],[22.95849,62.5562],[22.95872,62.55618],[22.95873,62.55618],[22.9592,62.55616],[22.95922,62.55616],[22.95932,62.55615]]},"properties":{"name":"Mt 672 Haukinevan rummun uusiminen, Seinäjoki","kind":"project","ptype":"road","subtype":"Tiehanke","status":"kaynnissa","date":"2025–2025","url":"https://vayla.fi/hankkeet","source":"Väylävirasto"}},{"type":"Feature","geometry":{"type":"MultiLineString","coordinates":[[[22.42695,62.71208],[22.42704,62.71208],[22.42708,62.71208],[22.42727,62.71208],[22.42729,62.71208],[22.42753,62.71207],[22.42755,62.71207],[22.42809,62.71205],[22.42812,62.71205],[22.4284,62.71204],[22.42871,62.71204],[22.42872,62.71204],[22.42887,62.71203],[22.42903,62.71203],[22.42935,62.71202],[22.42937,62.71202],[22.42972,62.71202],[22.42974,62.71202],[22.43044,62.712],[22.43046,62.712],[22.43085,62.71199],[22.43088,62.71199],[22.43139,62.71197],[22.4314,62.71197],[22.43191,62.71196],[22.43193,62.71196],[22.43248,62.71194],[22.43303,62.71192],[22.43304,62.71192],[22.43355,62.71191],[22.43357,62.71191],[22.43388,62.71191],[22.43391,62.7119],[22.43414,62.7119],[22.43418,62.71189],[22.43441,62.71188],[22.43443,62.71188],[22.43478,62.71186],[22.43479,62.71186],[22.43506,62.71184],[22.43509,62.71184],[22.43532,62.71182]],[[22.43532,62.71182],[22.43534,62.71181],[22.43563,62.71177],[22.43564,62.71176],[22.4359,62.71173],[22.43594,62.71172],[22.43598,62.71171],[22.43616,62.71168],[22.43617,62.71168],[22.43642,62.71162],[22.43643,62.71162],[22.43668,62.71156],[22.43668,62.71156],[22.43692,62.7115],[22.43715,62.71143],[22.43716,62.71143],[22.43738,62.71136],[22.43741,62.71135],[22.43744,62.71134],[22.4375,62.71131],[22.43758,62.71128],[22.43761,62.71126],[22.43777,62.71119],[22.43779,62.71118],[22.43799,62.71109],[22.43801,62.71109],[22.43821,62.711],[22.43822,62.711],[22.43841,62.71091],[22.43844,62.7109],[22.43861,62.71082],[22.43862,62.71082],[22.43882,62.71073],[22.43883,62.71073],[22.43902,62.71064],[22.43918,62.71056],[22.43919,62.71056],[22.43946,62.71043],[22.43947,62.71042],[22.4395,62.7104],[22.43972,62.71028],[22.43974,62.71027],[22.4399,62.71017],[22.43991,62.71017],[22.44006,62.71006],[22.44008,62.71005],[22.44015,62.71001],[22.44022,62.70996],[22.44022,62.70996],[22.44035,62.70985],[22.44037,62.70984],[22.44045,62.70978],[22.44049,62.70975],[22.4405,62.70974],[22.44059,62.70966],[22.44059,62.70965],[22.44067,62.70959],[22.44069,62.70957],[22.44073,62.70954],[22.44075,62.70952],[22.4408,62.70949],[22.44086,62.70944],[22.44087,62.70943],[22.44089,62.70942]],[[22.44089,62.70942],[22.44091,62.70941],[22.44104,62.70934],[22.44105,62.70934],[22.44107,62.70933],[22.44116,62.70929],[22.44128,62.70925],[22.44129,62.70924],[22.44151,62.70917]],[[22.44151,62.70917],[22.44154,62.70916],[22.4418,62.70908],[22.44182,62.70907],[22.44199,62.70903],[22.44213,62.70899],[22.44215,62.70899],[22.44244,62.70893],[22.44245,62.70893],[22.44284,62.70885],[22.44285,62.70885],[22.44307,62.70881],[22.44308,62.7088],[22.44329,62.70876],[22.44332,62.70876],[22.44336,62.70875]]]},"properties":{"name":"Mt 17409 Ilkkalantie, Ilmajoki","kind":"project","ptype":"road","subtype":"Tiehanke","status":"kaynnissa","date":"2025–2025","url":"https://vayla.fi/hankkeet","source":"Väylävirasto"}},{"type":"Feature","geometry":{"type":"MultiLineString","coordinates":[[[23.21903,62.57353],[23.21912,62.57353],[23.21915,62.57354]],[[23.21915,62.57354],[23.21926,62.57354],[23.22152,62.57355],[23.22155,62.57355],[23.22245,62.57356]]]},"properties":{"name":"Mt 672 parantaminen Mäenpääm kohdalla, Seinäjoki","kind":"project","ptype":"road","subtype":"Tiehanke","status":"kaynnissa","date":"2025–2025","url":"https://vayla.fi/hankkeet","source":"Väylävirasto"}},{"type":"Feature","geometry":{"type":"MultiLineString","coordinates":[[[22.51474,62.94267],[22.51475,62.94271],[22.51476,62.94272]],[[22.51476,62.94272],[22.51478,62.94275],[22.51478,62.94276],[22.51483,62.94287],[22.51488,62.94301],[22.51488,62.94301],[22.51497,62.94319],[22.51497,62.94319]],[[22.51497,62.94319],[22.51505,62.94341],[22.51506,62.94342],[22.51523,62.94382],[22.51524,62.94384],[22.5154,62.94423],[22.51553,62.94453],[22.51553,62.94453]],[[22.51553,62.94453],[22.51567,62.94483],[22.51568,62.94484],[22.51586,62.94521],[22.51587,62.94522],[22.51603,62.9455],[22.51604,62.94552],[22.51619,62.94572]],[[22.51619,62.94572],[22.5163,62.94587],[22.5163,62.94588],[22.51655,62.94618],[22.51655,62.94619],[22.51676,62.94642],[22.51676,62.94643],[22.51706,62.94674],[22.51708,62.94675]],[[22.51708,62.94675],[22.5172,62.94687]],[[22.5172,62.94687],[22.51741,62.94707],[22.51742,62.94708],[22.5177,62.94731],[22.51772,62.94733],[22.51805,62.9476],[22.51807,62.94761]],[[22.51807,62.94761],[22.51832,62.94779],[22.51883,62.94818],[22.51884,62.94818],[22.51923,62.94848],[22.51951,62.94869]],[[22.51951,62.94869],[22.5198,62.9489],[22.51981,62.94891],[22.52032,62.94929],[22.52033,62.9493],[22.52093,62.94974],[22.52093,62.94975],[22.52132,62.95004],[22.52134,62.95005],[22.52165,62.95028],[22.52166,62.95028],[22.52216,62.95067],[22.52217,62.95067]],[[22.52217,62.95067],[22.52242,62.95086],[22.52244,62.95087],[22.52309,62.95136],[22.52311,62.95137],[22.52345,62.95164],[22.52347,62.95165],[22.52348,62.95165],[22.52379,62.95186],[22.52381,62.95187]],[[22.52381,62.95187],[22.5241,62.95208],[22.52412,62.95209],[22.52449,62.95233]],[[22.52449,62.95233],[22.52476,62.95251],[22.52521,62.95276],[22.52523,62.95277],[22.52551,62.95292],[22.52553,62.95292],[22.5259,62.95311]],[[22.5259,62.95311],[22.5259,62.95311],[22.5259,62.95311],[22.52619,62.95325]],[[22.52619,62.95325],[22.52665,62.95346],[22.52732,62.95377],[22.52733,62.95378],[22.52804,62.95409],[22.52868,62.95438],[22.52869,62.95438],[22.52911,62.95457],[22.52913,62.95458]],[[22.52913,62.95458],[22.52963,62.9548],[22.5301,62.95501]],[[22.5301,62.95501],[22.53045,62.95516],[22.53046,62.95517],[22.53106,62.95543],[22.53108,62.95543],[22.53154,62.95563],[22.53157,62.95564]],[[22.53157,62.95564],[22.53189,62.95577],[22.53263,62.95606],[22.53265,62.95606],[22.53341,62.95635],[22.53344,62.95636],[22.5341,62.95658],[22.53412,62.95659],[22.5352,62.95692],[22.53521,62.95693],[22.53612,62.95718],[22.53613,62.95718],[22.53719,62.95746],[22.5372,62.95747],[22.53785,62.95764],[22.53787,62.95764],[22.53856,62.95782],[22.53859,62.95783],[22.53914,62.95797],[22.53917,62.95798]],[[22.53917,62.95798],[22.53975,62.95813],[22.53977,62.95813],[22.54049,62.95832],[22.54095,62.95844]],[[22.54095,62.95844],[22.54142,62.95855],[22.54143,62.95856],[22.54177,62.95865],[22.5418,62.95865]],[[22.5418,62.95865],[22.54229,62.95878],[22.54283,62.95892]],[[22.54283,62.95892],[22.54375,62.95916],[22.54441,62.95933]],[[22.54441,62.95933],[22.54516,62.95952],[22.54517,62.95952],[22.546,62.95974],[22.54602,62.95974],[22.54633,62.95982]],[[22.54633,62.95982],[22.5464,62.95984],[22.54643,62.95985],[22.54715,62.96003],[22.54717,62.96004],[22.54765,62.96016],[22.54767,62.96016],[22.54794,62.96024],[22.54798,62.96025]],[[22.54798,62.96025],[22.54809,62.96027]],[[22.54809,62.96027],[22.54877,62.96045],[22.54879,62.96045],[22.54958,62.96066],[22.54959,62.96066],[22.54993,62.96075],[22.54994,62.96075],[22.55015,62.9608],[22.55017,62.96081],[22.55038,62.96086],[22.5504,62.96087],[22.55068,62.96094],[22.5507,62.96094]],[[22.5507,62.96094],[22.55113,62.96105],[22.55189,62.96125],[22.55191,62.96125],[22.55297,62.96152],[22.55299,62.96153],[22.55354,62.96167]],[[22.55354,62.96167],[22.55369,62.96171]],[[22.55369,62.96171],[22.5546,62.96194],[22.55552,62.96218],[22.55622,62.96236]],[[22.55622,62.96236],[22.55628,62.96237],[22.5563,62.96238]],[[22.5563,62.96238],[22.55639,62.9624]],[[22.55639,62.9624],[22.55659,62.96245]],[[22.55659,62.96245],[22.55712,62.96259],[22.55787,62.96279],[22.55789,62.96279],[22.55851,62.96295],[22.55854,62.96295],[22.55911,62.96308],[22.55918,62.9631],[22.55921,62.9631],[22.55968,62.96319],[22.55971,62.9632],[22.56015,62.96327]],[[22.56015,62.96327],[22.5604,62.9633]],[[22.5604,62.9633],[22.56065,62.96333],[22.56111,62.96338],[22.56114,62.96338],[22.56161,62.96342],[22.56163,62.96342],[22.56218,62.96345],[22.56249,62.96346],[22.56252,62.96347],[22.56319,62.96348],[22.5632,62.96348],[22.56426,62.9635],[22.56428,62.9635],[22.5655,62.96352],[22.56553,62.96352],[22.56687,62.96353],[22.56689,62.96353]],[[22.56689,62.96353],[22.56748,62.96354],[22.56749,62.96354],[22.56824,62.96355],[22.56825,62.96355],[22.569,62.96356],[22.56967,62.96357],[22.5697,62.96357],[22.57053,62.96359],[22.57055,62.96359],[22.57126,62.96359],[22.5713,62.96359],[22.57205,62.9636],[22.57296,62.96361],[22.57297,62.96361],[22.57407,62.96363],[22.57408,62.96363],[22.57499,62.96364],[22.575,62.96364],[22.57614,62.96366],[22.57616,62.96366],[22.5771,62.96367],[22.57714,62.96367],[22.5782,62.96369],[22.57823,62.96369]],[[22.57823,62.96369],[22.57881,62.9637],[22.57917,62.9637]],[[22.57917,62.9637],[22.57965,62.96371],[22.58055,62.96372],[22.58142,62.96373],[22.5823,62.96374],[22.58293,62.96375],[22.58296,62.96375],[22.58347,62.96375],[22.5835,62.96376]],[[22.5835,62.96376],[22.58417,62.96376],[22.58503,62.96378],[22.58507,62.96378],[22.58605,62.96379],[22.58607,62.96379],[22.58698,62.9638],[22.587,62.9638],[22.58763,62.96381]],[[22.58763,62.96381],[22.58795,62.96382],[22.58874,62.96382],[22.58875,62.96382],[22.58923,62.96383],[22.58926,62.96383]],[[22.58926,62.96383],[22.58993,62.96384],[22.59072,62.96385],[22.59075,62.96385],[22.59138,62.96386],[22.59139,62.96386],[22.59202,62.96387],[22.59205,62.96387],[22.59245,62.96387]],[[22.59245,62.96387],[22.59319,62.96388],[22.59398,62.9639],[22.59401,62.9639],[22.59469,62.9639],[22.59539,62.96391],[22.59543,62.96391]],[[22.59543,62.96391],[22.59557,62.96392],[22.59592,62.96392],[22.59593,62.96392],[22.59633,62.96393],[22.59634,62.96393],[22.59646,62.96393],[22.59646,62.96393]],[[22.59646,62.96393],[22.59686,62.96394],[22.59689,62.96394],[22.59756,62.96395],[22.59758,62.96395],[22.59789,62.96396],[22.59792,62.96397],[22.59812,62.96398],[22.59814,62.96398],[22.59858,62.964]],[[22.59858,62.964],[22.599,62.96403],[22.59902,62.96403],[22.5995,62.96407]],[[22.5995,62.96407],[22.59952,62.96408],[22.59955,62.96408],[22.60009,62.96413],[22.60011,62.96414]],[[22.60011,62.96414],[22.60038,62.96417],[22.60039,62.96417],[22.60096,62.96424],[22.60097,62.96424],[22.60119,62.96427]],[[22.60119,62.96427],[22.60164,62.96434],[22.60166,62.96434],[22.60229,62.96445],[22.60233,62.96446],[22.60291,62.96456],[22.60294,62.96457],[22.60354,62.9647],[22.60355,62.9647],[22.60377,62.96474],[22.60378,62.96474]],[[22.60378,62.96474],[22.60415,62.96482],[22.60479,62.96496],[22.60511,62.96503],[22.60514,62.96504]],[[22.60514,62.96504],[22.60541,62.96509]],[[22.60541,62.96509],[22.60547,62.9651],[22.60579,62.96517]],[[22.60579,62.96517],[22.60591,62.9652]]]},"properties":{"name":"EPO teiden korjausurakka 2026, KU","kind":"project","ptype":"road","subtype":"Tiehanke","status":"kaynnissa","date":"2026–2026","url":"https://vayla.fi/hankkeet","source":"Väylävirasto"}},{"type":"Feature","geometry":{"type":"LineString","coordinates":[[22.14118,62.56624],[22.14118,62.56625]]},"properties":{"name":"EPO teiden korjausurakka 2026, KU","kind":"project","ptype":"road","subtype":"Tiehanke","status":"kaynnissa","date":"2026–2026","url":"https://vayla.fi/hankkeet","source":"Väylävirasto"}},{"type":"Feature","geometry":{"type":"MultiLineString","coordinates":[[[22.31225,62.57325],[22.31201,62.57309],[22.31201,62.57308],[22.31188,62.57299],[22.31187,62.57299]],[[22.31187,62.57299],[22.31173,62.57287]]]},"properties":{"name":"Mt 6900 Kakkurin rummun uusiminen, Kurikka","kind":"project","ptype":"road","subtype":"Tiehanke","status":"kaynnissa","date":"2025–2025","url":"https://vayla.fi/hankkeet","source":"Väylävirasto"}},{"type":"Feature","geometry":{"type":"MultiLineString","coordinates":[[[23.05983,63.10894],[23.05988,63.10917],[23.05988,63.10918],[23.05992,63.10947],[23.05993,63.10954],[23.05993,63.10955],[23.05992,63.10973],[23.05989,63.10992],[23.05988,63.10996],[23.05988,63.10996],[23.05981,63.11018],[23.05969,63.11044],[23.05968,63.11045],[23.05944,63.11089],[23.05943,63.11089],[23.05913,63.11147],[23.05913,63.11148],[23.05889,63.11191],[23.05888,63.11195],[23.05887,63.11196],[23.05878,63.11221],[23.05868,63.11268],[23.05868,63.11268]],[[23.05868,63.11268],[23.05867,63.1129],[23.05867,63.11291],[23.05868,63.1132],[23.05869,63.11329],[23.05869,63.1133],[23.05876,63.11359],[23.05877,63.11362],[23.05878,63.11364],[23.0589,63.11396],[23.05892,63.11401],[23.05893,63.11402],[23.0591,63.11431],[23.05919,63.11445],[23.0592,63.11447],[23.05968,63.11507],[23.05969,63.11508],[23.0603,63.11581],[23.06093,63.11654],[23.06093,63.11655],[23.0614,63.1171],[23.0614,63.11711],[23.06186,63.11765],[23.06187,63.11766],[23.06229,63.11816],[23.06229,63.11817],[23.06276,63.11872],[23.06277,63.11873]],[[23.06277,63.11873],[23.06319,63.11923],[23.06348,63.11956],[23.06348,63.11957],[23.06404,63.12024],[23.06405,63.12025],[23.06442,63.12069],[23.06443,63.1207],[23.06517,63.12155],[23.06518,63.12156]],[[23.06518,63.12156],[23.06575,63.12225],[23.0664,63.12302],[23.06641,63.12303],[23.06706,63.1238],[23.06707,63.12382],[23.06778,63.12467],[23.06779,63.12469],[23.06835,63.12536],[23.06836,63.12537],[23.06909,63.12622],[23.0691,63.12624],[23.06974,63.12699],[23.06975,63.127],[23.07054,63.12794],[23.07055,63.12795],[23.07072,63.12815],[23.07073,63.12817]],[[23.07073,63.12817],[23.07111,63.1286],[23.07161,63.12919],[23.07246,63.13021],[23.07248,63.13023],[23.07307,63.13093],[23.07307,63.13093],[23.07387,63.13187],[23.07388,63.13187],[23.07461,63.13275],[23.07462,63.13276],[23.07538,63.13366],[23.0754,63.13368],[23.07608,63.13444],[23.07651,63.13487],[23.07662,63.13496],[23.07663,63.13497],[23.07717,63.13541],[23.07719,63.13542],[23.07771,63.13581],[23.07782,63.13588],[23.07784,63.13589],[23.07848,63.13628],[23.0795,63.13685],[23.07952,63.13687],[23.08053,63.13737],[23.08055,63.13738],[23.08166,63.13794],[23.08168,63.13795],[23.08244,63.13832],[23.08244,63.13833]],[[23.08244,63.13833],[23.08315,63.13867],[23.08317,63.13868],[23.08662,63.14041],[23.08832,63.14129],[23.08837,63.14132],[23.08838,63.14132],[23.08846,63.14137],[23.08848,63.14138],[23.0885,63.14139],[23.08852,63.1414],[23.08862,63.14145],[23.08864,63.14146],[23.08875,63.14151]],[[23.08875,63.14151],[23.08961,63.14198],[23.08993,63.14214],[23.0909,63.14259],[23.09091,63.1426],[23.09125,63.14277],[23.09127,63.14278],[23.09203,63.14317],[23.093,63.14365],[23.09303,63.14366],[23.09363,63.14397],[23.09365,63.14398]],[[23.09365,63.14398],[23.09464,63.14447],[23.09466,63.14448],[23.09551,63.1449],[23.09554,63.14491],[23.09597,63.14515],[23.09599,63.14515],[23.09696,63.14568],[23.09701,63.1457],[23.09702,63.14571],[23.09723,63.14581],[23.09828,63.14633],[23.0983,63.14634],[23.10117,63.14775],[23.10118,63.14775],[23.10241,63.14837],[23.10243,63.14838],[23.10379,63.14908],[23.10381,63.14909],[23.10536,63.14988],[23.10537,63.14988],[23.10743,63.15093],[23.10745,63.15094],[23.10887,63.15163],[23.10888,63.15164]],[[23.10888,63.15164],[23.10939,63.15188],[23.1114,63.1529],[23.11141,63.1529],[23.11374,63.15408],[23.11375,63.15408],[23.11431,63.15437]]]},"properties":{"name":"Kt 63 kuivatuksen parantaminen, Kauhava","kind":"project","ptype":"road","subtype":"Tiehanke","status":"kaynnissa","date":"2025–2025","url":"https://vayla.fi/hankkeet","source":"Väylävirasto"}},{"type":"Feature","geometry":{"type":"LineString","coordinates":[[23.0099,62.90962],[23.00991,62.90963],[23.00992,62.90963],[23.00996,62.90967],[23.00997,62.90968],[23.01001,62.90971],[23.01002,62.90972],[23.0101,62.90978],[23.01012,62.90979],[23.01025,62.9099],[23.01025,62.9099],[23.01027,62.90992],[23.01034,62.91],[23.01036,62.91002],[23.01043,62.9101],[23.01052,62.9102],[23.01059,62.91027],[23.0106,62.91028],[23.01064,62.91033],[23.01066,62.91034],[23.01067,62.91036],[23.01075,62.91043]]},"properties":{"name":"Mt 17517 Matarojan rummun uusiminen, Lapua","kind":"project","ptype":"road","subtype":"Tiehanke","status":"kaynnissa","date":"2025–2025","url":"https://vayla.fi/hankkeet","source":"Väylävirasto"}},{"type":"Feature","geometry":{"type":"MultiLineString","coordinates":[[[23.0251,63.09409],[23.02525,63.09407],[23.02528,63.09407],[23.02552,63.09405],[23.02587,63.09403],[23.02591,63.09403],[23.02594,63.09403]],[[23.02594,63.09403],[23.02623,63.09402]],[[23.02623,63.09402],[23.02651,63.09403]],[[23.02651,63.09403],[23.02653,63.09403],[23.02656,63.09403],[23.02679,63.09405],[23.02691,63.09406],[23.02699,63.09406],[23.02722,63.09409],[23.02722,63.09409],[23.02738,63.09412],[23.02749,63.09413],[23.02751,63.09414],[23.02762,63.09416],[23.02783,63.09421],[23.0281,63.09427]],[[23.0281,63.09427],[23.02829,63.09431],[23.0283,63.09432],[23.02886,63.09445],[23.02888,63.09445],[23.02965,63.09464]],[[23.02965,63.09464],[23.02967,63.09464],[23.02984,63.09468],[23.02985,63.09469],[23.03091,63.09493],[23.03092,63.09493],[23.03134,63.09503],[23.03135,63.09504],[23.03163,63.0951]],[[23.03163,63.0951],[23.03166,63.09511],[23.03183,63.09515],[23.03185,63.09516],[23.0322,63.09524],[23.03255,63.09533]],[[23.03255,63.09533],[23.03292,63.09543]],[[23.03292,63.09543],[23.03309,63.09548],[23.03311,63.09548],[23.0332,63.09552],[23.03335,63.09558],[23.03336,63.09558],[23.03339,63.09559],[23.03367,63.09572]],[[23.03367,63.09572],[23.03368,63.09572],[23.03395,63.09588],[23.03396,63.09589],[23.03405,63.09595],[23.03419,63.09605],[23.03425,63.0961],[23.03441,63.09623]],[[23.03441,63.09623],[23.03441,63.09623],[23.03454,63.09632],[23.03458,63.09635],[23.03478,63.09649],[23.03489,63.09655]],[[23.03489,63.09655],[23.03491,63.09656],[23.035,63.09662],[23.03502,63.09663],[23.03505,63.09664],[23.03519,63.09671],[23.03519,63.09671],[23.03533,63.09677],[23.03542,63.09681],[23.03543,63.09682]],[[23.03543,63.09682],[23.03558,63.09687],[23.0356,63.09688],[23.03569,63.09691]],[[23.03569,63.09691],[23.03586,63.09697],[23.03632,63.09714],[23.03634,63.09715],[23.03649,63.0972],[23.03696,63.09737],[23.03697,63.09737],[23.03721,63.09746],[23.03723,63.09747]],[[23.03723,63.09747],[23.03736,63.09752]],[[23.03736,63.09752],[23.0377,63.09765],[23.03816,63.09783],[23.03832,63.09789],[23.03888,63.09809]],[[23.03888,63.09809],[23.03893,63.09811],[23.03894,63.09812],[23.03921,63.09822],[23.03923,63.09823]],[[23.03923,63.09823],[23.03948,63.09832],[23.0395,63.09832],[23.03981,63.09844],[23.03982,63.09844],[23.03987,63.09846]],[[23.03987,63.09846],[23.04003,63.09852],[23.04005,63.09853],[23.04041,63.09867],[23.04043,63.09868],[23.04074,63.09879],[23.04075,63.0988]],[[23.04075,63.0988],[23.04091,63.09885],[23.04093,63.09886],[23.04133,63.099],[23.04136,63.09901],[23.04137,63.09902],[23.0416,63.09909],[23.04162,63.09909]],[[23.04162,63.09909],[23.04182,63.09915],[23.04183,63.09916],[23.04207,63.09922],[23.04209,63.09923],[23.0423,63.09928],[23.04234,63.09928]],[[23.04234,63.09928],[23.04288,63.09939],[23.04289,63.09939],[23.0441,63.09962],[23.04412,63.09962]],[[23.04412,63.09962],[23.04438,63.09967],[23.04439,63.09968],[23.04457,63.09971],[23.04459,63.09972],[23.04477,63.09975],[23.04495,63.09979]],[[23.04495,63.09979],[23.04542,63.09988],[23.04543,63.09988],[23.04576,63.09994],[23.04602,63.09999],[23.04603,63.09999]],[[23.04603,63.09999],[23.04605,63.09999],[23.04642,63.10006],[23.04686,63.10015]],[[23.04686,63.10015],[23.04707,63.10019],[23.04723,63.10023]],[[23.04723,63.10023],[23.0476,63.10029],[23.04772,63.10031],[23.04774,63.10031],[23.04796,63.10034],[23.04827,63.10038],[23.04829,63.10038]],[[23.04829,63.10038],[23.04845,63.10039],[23.04846,63.10039],[23.04877,63.1004],[23.04881,63.1004],[23.04896,63.10041],[23.04897,63.10041],[23.04921,63.10041],[23.04937,63.1004],[23.04945,63.1004],[23.04948,63.1004],[23.04968,63.10039],[23.0497,63.10038]],[[23.0497,63.10038],[23.05037,63.10028],[23.05053,63.10026],[23.05055,63.10025],[23.05085,63.10022],[23.05105,63.1002],[23.05107,63.1002],[23.05134,63.10018],[23.05158,63.10017],[23.05173,63.10017],[23.05177,63.10017],[23.052,63.10017],[23.05202,63.10017]],[[23.05202,63.10017],[23.05209,63.10017]],[[23.05209,63.10017],[23.05233,63.10017],[23.05234,63.10017],[23.05293,63.10016],[23.05294,63.10016],[23.0535,63.10017],[23.05352,63.10017],[23.0538,63.10017],[23.05392,63.10017],[23.05396,63.10016],[23.05431,63.10014],[23.05434,63.10014]],[[23.05434,63.10014],[23.0544,63.10015]],[[23.0544,63.10015],[23.05442,63.10015],[23.05446,63.10015],[23.0545,63.10015],[23.05454,63.10015],[23.05458,63.10015],[23.05462,63.10014],[23.05473,63.10012],[23.05474,63.10012],[23.05512,63.10007],[23.05512,63.10007],[23.05569,63.09999],[23.05571,63.09998],[23.05609,63.09992],[23.05612,63.09992],[23.05621,63.0999]],[[23.05621,63.0999],[23.05646,63.09985],[23.05656,63.09984]],[[23.05656,63.09984],[23.05685,63.09978],[23.05692,63.09976],[23.05694,63.09976]],[[23.05694,63.09976],[23.05718,63.09972],[23.0572,63.09971],[23.05742,63.09968],[23.05746,63.09968],[23.05765,63.09965],[23.05769,63.09965],[23.05772,63.09965],[23.05784,63.09964],[23.05796,63.09963],[23.05807,63.09962],[23.05819,63.09962],[23.05831,63.09962],[23.05833,63.09962],[23.05844,63.09963],[23.05856,63.09963],[23.05864,63.09964],[23.05866,63.09964],[23.05877,63.09965],[23.059,63.09968],[23.05901,63.09968],[23.0591,63.0997]],[[23.0591,63.0997],[23.05923,63.09972],[23.05925,63.09972],[23.05933,63.09973],[23.05937,63.09974],[23.05941,63.09974],[23.05945,63.09974],[23.05949,63.09974],[23.05952,63.09974]],[[23.05434,63.10014],[23.05439,63.10012]],[[23.05439,63.10012],[23.0544,63.10012],[23.05443,63.10011],[23.05445,63.1001],[23.05448,63.10009],[23.05452,63.10009],[23.05456,63.10008],[23.05459,63.10008],[23.05481,63.10004],[23.05485,63.10004],[23.05511,63.1],[23.05513,63.09999],[23.05546,63.09994],[23.0558,63.09988],[23.05582,63.09988],[23.05609,63.09983],[23.05617,63.09982]],[[23.05617,63.09982],[23.05642,63.09978],[23.05652,63.09976]],[[23.05652,63.09976],[23.05689,63.09969]],[[23.05689,63.09969],[23.05706,63.09966],[23.05709,63.09965],[23.05728,63.09962],[23.05736,63.09961],[23.05737,63.09961],[23.05752,63.09959],[23.05768,63.09958],[23.05769,63.09957],[23.05785,63.09956],[23.05792,63.09955],[23.05794,63.09955],[23.05802,63.09955],[23.0581,63.09955],[23.05817,63.09955],[23.05819,63.09955],[23.05831,63.09955],[23.05843,63.09956],[23.05847,63.09956],[23.0585,63.09956],[23.05862,63.09957],[23.05892,63.09961],[23.05895,63.09961],[23.05914,63.09964],[23.05915,63.09964]],[[23.05915,63.09964],[23.05921,63.09965],[23.05922,63.09965],[23.05926,63.09966],[23.05929,63.09966],[23.05933,63.09967],[23.05936,63.09968],[23.0594,63.09969],[23.05943,63.0997],[23.05946,63.09971],[23.05951,63.09974],[23.05952,63.09974]],[[23.05952,63.09974],[23.06011,63.09989],[23.06012,63.09989],[23.06023,63.09992]],[[23.06023,63.09992],[23.06029,63.09994]],[[23.06029,63.09994],[23.06069,63.10005],[23.0611,63.10016],[23.06112,63.10017],[23.06157,63.10028],[23.06158,63.10028]],[[23.06158,63.10028],[23.06231,63.10046],[23.06296,63.10063],[23.06297,63.10064],[23.06347,63.10078],[23.06348,63.10078],[23.06405,63.10097],[23.06408,63.10098]],[[23.06408,63.10098],[23.06438,63.10107],[23.0644,63.10108],[23.0647,63.10116],[23.06471,63.10116],[23.06478,63.10118]],[[23.06478,63.10118],[23.06505,63.10125]],[[23.06505,63.10125],[23.06539,63.10133],[23.06592,63.10145],[23.06596,63.10146],[23.06618,63.1015],[23.06633,63.10153],[23.06634,63.10153],[23.06653,63.10156],[23.06655,63.10156]],[[23.06655,63.10156],[23.06658,63.10156],[23.06681,63.10159],[23.06683,63.10159],[23.06687,63.10159],[23.06699,63.1016],[23.06715,63.10161],[23.06719,63.10161],[23.0672,63.10161]],[[23.0672,63.10161],[23.06723,63.10161],[23.06739,63.10161],[23.06743,63.10161],[23.06747,63.10161],[23.0677,63.1016]],[[23.0677,63.1016],[23.06794,63.10158],[23.06796,63.10158],[23.06831,63.10154],[23.06835,63.10153],[23.06842,63.10152],[23.06897,63.10147],[23.069,63.10147],[23.06935,63.10144]],[[23.06935,63.10144],[23.06966,63.10142],[23.06994,63.10141],[23.07026,63.10141],[23.07027,63.10141],[23.07082,63.10142],[23.07086,63.10142],[23.07161,63.10145],[23.07164,63.10145]],[[23.07164,63.10145],[23.07242,63.1015],[23.07317,63.10154],[23.07318,63.10155],[23.07377,63.10158],[23.0738,63.10158]],[[23.0738,63.10158],[23.07431,63.10162],[23.07433,63.10162],[23.07485,63.10166]]]},"properties":{"name":"Mt 17766 kunnostaminen Kauhavan keskustan kohdalla","kind":"project","ptype":"road","subtype":"Tiehanke","status":"kaynnissa","date":"2026–2026","url":"https://vayla.fi/hankkeet","source":"Väylävirasto"}},{"type":"Feature","geometry":{"type":"Point","coordinates":[22.84526,62.79148]},"properties":{"name":"Seinäjoen aseman alikäytävä","kind":"project","ptype":"rail","subtype":"Ratahanke","status":"kaynnissa","date":"2023–2024","url":"https://vayla.fi/hankkeet","source":"Väylävirasto"}},{"type":"Feature","geometry":{"type":"LineString","coordinates":[[23.01231,62.96251],[23.00778,63.00266],[23.00827,63.02],[23.01851,63.05667],[23.03874,63.06936],[23.04176,63.0963],[23.01113,63.12446],[22.9904,63.14986],[22.962,63.16811],[22.86851,63.23906],[22.8619,63.25836],[22.81403,63.29681]]},"properties":{"name":"POKA VT14 Lapua -Kokkola","kind":"project","ptype":"rail","subtype":"Ratahanke","status":"kaynnissa","date":"2022–2024","url":"https://vayla.fi/hankkeet","source":"Väylävirasto"}},{"type":"Feature","geometry":{"type":"LineString","coordinates":[[22.81409,63.29638],[22.81139,63.31492],[22.64335,63.41948],[22.68539,63.5191],[22.77692,63.58897],[22.82577,63.6073],[22.88429,63.61982],[23.02415,63.71255],[23.04697,63.73093],[23.10496,63.82779],[23.14039,63.83393]]},"properties":{"name":"POKA VT14 Lapua -Kokkola","kind":"project","ptype":"rail","subtype":"Ratahanke","status":"kaynnissa","date":"2022–2024","url":"https://vayla.fi/hankkeet","source":"Väylävirasto"}}]}