{"type":"FeatureCollection","features":[{"type":"Feature","geometry":{"type":"MultiLineString","coordinates":[[[24.12791,63.03374],[24.12789,63.03376],[24.12789,63.03378],[24.12759,63.03448],[24.12759,63.03449],[24.12742,63.03491],[24.12742,63.03492]],[[24.12742,63.03492],[24.12715,63.03565],[24.12712,63.03572],[24.12712,63.03573],[24.12694,63.03609],[24.12694,63.03611],[24.12652,63.03709],[24.12651,63.0371],[24.12623,63.03781],[24.12622,63.03782],[24.12585,63.03872],[24.12585,63.03873],[24.12557,63.03941],[24.12556,63.03943],[24.12542,63.03978],[24.12541,63.03979],[24.12533,63.04001],[24.12533,63.04002]],[[24.12533,63.04002],[24.12529,63.04013],[24.12528,63.04014],[24.12522,63.04026],[24.12522,63.04027],[24.1252,63.04032],[24.1252,63.04033]],[[24.1252,63.04033],[24.12518,63.04041],[24.12517,63.04046],[24.12516,63.04049],[24.12514,63.04053],[24.12513,63.04055]],[[24.12513,63.04055],[24.12508,63.04078],[24.12507,63.04085],[24.12507,63.04085],[24.12507,63.04114],[24.12507,63.04115],[24.12508,63.04157],[24.12508,63.04158],[24.12508,63.04233],[24.12508,63.04233],[24.12509,63.04269],[24.12509,63.0427]],[[24.12509,63.0427],[24.12511,63.04319],[24.12511,63.04319],[24.1251,63.044],[24.1251,63.044],[24.12511,63.04522],[24.12511,63.04523],[24.12514,63.0464]],[[24.12514,63.0464],[24.12513,63.04666],[24.12513,63.04667],[24.12513,63.04755],[24.12513,63.04757],[24.12512,63.04809],[24.12512,63.0481]],[[24.12512,63.0481],[24.12513,63.04841],[24.12514,63.04872],[24.12514,63.04874],[24.12515,63.04909],[24.12515,63.0491],[24.12516,63.04952]],[[24.12516,63.04952],[24.12515,63.04985],[24.12515,63.04985],[24.12516,63.05043],[24.12516,63.05044],[24.12515,63.05085]],[[24.12515,63.05085],[24.12516,63.05142],[24.12517,63.05202],[24.12518,63.05267],[24.12518,63.05268],[24.12519,63.05321],[24.12518,63.05371],[24.12518,63.05372],[24.12515,63.05394],[24.12513,63.05399],[24.12511,63.05406],[24.12509,63.0541],[24.12509,63.05412],[24.12508,63.05413],[24.12506,63.05415],[24.12505,63.05417],[24.12504,63.05419],[24.12497,63.05425]],[[24.12497,63.05425],[24.12408,63.05491],[24.123,63.05571],[24.12299,63.05572],[24.1219,63.05653],[24.12188,63.05654],[24.12085,63.05732]],[[24.12085,63.05732],[24.12084,63.05752],[24.12084,63.05754],[24.12083,63.05766],[24.12083,63.05767],[24.12083,63.0578],[24.12083,63.05781],[24.12083,63.05793],[24.12084,63.058],[24.12084,63.05801],[24.12087,63.0581],[24.12089,63.05817],[24.12093,63.05826],[24.12102,63.0584],[24.12102,63.0584],[24.12122,63.05866],[24.12125,63.05869],[24.12126,63.0587],[24.12159,63.05904],[24.12159,63.05905],[24.12184,63.05929],[24.12186,63.0593],[24.1222,63.0596],[24.1222,63.05961],[24.12249,63.05986]],[[24.12249,63.05986],[24.12267,63.06002]],[[24.12267,63.06002],[24.12282,63.06014],[24.12283,63.06016],[24.12301,63.06032],[24.12301,63.06032],[24.12314,63.06044]],[[24.12314,63.06044],[24.12328,63.06059],[24.12331,63.06062],[24.12332,63.06064],[24.12332,63.06064]]]},"properties":{"name":"Mt 17721 Uusikyläntie, Alajärvi","kind":"project","ptype":"road","subtype":"Tiehanke","status":"kaynnissa","date":"2025–2025","url":"https://vayla.fi/hankkeet","source":"Väylävirasto"}}]}