{"type":"FeatureCollection","features":[{"type":"Feature","geometry":{"type":"MultiLineString","coordinates":[[[23.59445,60.81706],[23.59436,60.81716]],[[23.59436,60.81716],[23.59434,60.81717],[23.5943,60.81722]]]},"properties":{"name":"U-2698 Talsoilan AKK peruskorjaus","kind":"project","ptype":"road","subtype":"Tiehanke","status":"kaynnissa","date":"2026–2026","url":"https://vayla.fi/hankkeet","source":"Väylävirasto"}},{"type":"Feature","geometry":{"type":"MultiLineString","coordinates":[[[23.57438,60.82777],[23.57375,60.82787]],[[23.57375,60.82787],[23.5733,60.82795],[23.57328,60.82795],[23.57182,60.8282],[23.57116,60.82831],[23.57073,60.82838],[23.56986,60.82853],[23.56983,60.82853],[23.56931,60.82862],[23.56929,60.82863],[23.56874,60.82873],[23.56871,60.82873],[23.56822,60.82882],[23.56775,60.82892],[23.56765,60.82894],[23.56764,60.82894],[23.56743,60.82899]],[[23.56743,60.82899],[23.56708,60.82908]],[[23.56708,60.82908],[23.56707,60.82908],[23.56646,60.82924],[23.56644,60.82925]],[[23.56644,60.82925],[23.56639,60.82926],[23.56637,60.82926],[23.56595,60.82938],[23.56594,60.82938],[23.56541,60.82954],[23.56539,60.82955],[23.56487,60.82972],[23.56487,60.82972],[23.56446,60.82987],[23.56443,60.82988],[23.56443,60.82988],[23.56412,60.83],[23.56363,60.83019],[23.56304,60.83044],[23.56302,60.83044],[23.56237,60.83071],[23.56236,60.83071]],[[23.56236,60.83071],[23.56198,60.83087]],[[23.56198,60.83087],[23.56189,60.8309],[23.56188,60.83091],[23.56155,60.83105]],[[23.56155,60.83105],[23.561,60.83127]],[[23.561,60.83127],[23.56091,60.83131],[23.56018,60.83161]],[[23.56018,60.83161],[23.56015,60.83162],[23.56013,60.83163],[23.5588,60.83218],[23.55766,60.83265],[23.55655,60.83313]],[[23.55655,60.83313],[23.55549,60.83354],[23.55454,60.83394],[23.55452,60.83395]],[[23.55452,60.83395],[23.55365,60.83431],[23.55364,60.83431],[23.55226,60.83488],[23.55224,60.83489],[23.55061,60.83556],[23.55059,60.83557],[23.5493,60.83611],[23.54928,60.83611],[23.54813,60.83659],[23.54763,60.8368],[23.5476,60.83681]],[[23.5476,60.83681],[23.54561,60.83764],[23.54337,60.83856],[23.54334,60.83858],[23.54178,60.83923],[23.54177,60.83923]],[[23.54177,60.83923],[23.54145,60.83937],[23.53971,60.84011],[23.53969,60.84013],[23.53968,60.84013],[23.53838,60.84076],[23.53835,60.84078],[23.53779,60.84106],[23.53729,60.84132],[23.53727,60.84133]],[[23.53727,60.84133],[23.53682,60.84157],[23.53681,60.84158],[23.53605,60.84199],[23.53604,60.842],[23.53514,60.84252],[23.53513,60.84253],[23.53426,60.84304],[23.53424,60.84305],[23.5334,60.84356]],[[23.5334,60.84356],[23.53325,60.84366],[23.53323,60.84367],[23.53242,60.8442],[23.5324,60.84422],[23.53143,60.84489],[23.53142,60.8449],[23.5305,60.84555],[23.53049,60.84556],[23.52991,60.84595],[23.5299,60.84596],[23.52908,60.84654],[23.52877,60.84676],[23.52801,60.84731],[23.528,60.84732],[23.52675,60.84821],[23.52675,60.84821],[23.52555,60.84905],[23.52514,60.84935]],[[23.52514,60.84935],[23.52432,60.84994],[23.5243,60.84995],[23.52308,60.85081],[23.52308,60.85081],[23.5226,60.85115],[23.52258,60.85116],[23.5221,60.85151],[23.52209,60.85152],[23.52208,60.85153],[23.52037,60.85274],[23.52035,60.85275],[23.51893,60.85378],[23.51891,60.85379],[23.51837,60.85417],[23.51837,60.85418],[23.51836,60.85418],[23.51733,60.85492],[23.51665,60.85541],[23.51664,60.85542],[23.51482,60.8567],[23.51481,60.85672],[23.51375,60.85747],[23.51373,60.85748],[23.51369,60.85751],[23.51205,60.85868],[23.51204,60.85869],[23.51052,60.85979],[23.51051,60.8598],[23.50934,60.86058]],[[23.50934,60.86058],[23.5092,60.86067],[23.5092,60.86067],[23.50838,60.86127],[23.50836,60.86128],[23.50747,60.86192],[23.50677,60.86242]],[[23.50677,60.86242],[23.50623,60.8628],[23.50622,60.86281],[23.50544,60.86338],[23.50543,60.86339]],[[23.50543,60.86339],[23.50528,60.86349],[23.50527,60.8635],[23.50474,60.86387],[23.50473,60.86388],[23.50328,60.86491],[23.50257,60.86542],[23.50256,60.86542],[23.50173,60.86601],[23.50171,60.86602]],[[23.50171,60.86602],[23.50152,60.86616]],[[23.50152,60.86616],[23.50128,60.86632]],[[23.50128,60.86632],[23.50091,60.86659],[23.50091,60.86659],[23.5002,60.8671],[23.5002,60.8671]],[[23.5002,60.8671],[23.49979,60.86739],[23.49977,60.8674],[23.4976,60.86894],[23.49759,60.86895],[23.49701,60.86937],[23.497,60.86937],[23.49614,60.86997],[23.49613,60.86998],[23.49542,60.87048],[23.49452,60.87112],[23.49451,60.87113],[23.49434,60.87125],[23.49432,60.87127],[23.49384,60.87161],[23.49357,60.8718],[23.49356,60.8718],[23.49335,60.87195],[23.49333,60.87196],[23.49299,60.8722],[23.49298,60.87221],[23.49275,60.87237],[23.49274,60.87237],[23.49248,60.87255],[23.49246,60.87256]],[[23.49246,60.87256],[23.49241,60.87259],[23.49198,60.87288],[23.49196,60.87289],[23.49157,60.87315],[23.49155,60.87316],[23.49145,60.87323],[23.49134,60.8733],[23.49121,60.87338],[23.4912,60.87339],[23.49082,60.87363],[23.49082,60.87363],[23.49012,60.87407],[23.49011,60.87408],[23.48979,60.87428],[23.48977,60.87429],[23.48964,60.87438],[23.48963,60.87438]],[[23.48963,60.87438],[23.4887,60.87496],[23.48868,60.87497],[23.48739,60.87568],[23.48738,60.87568],[23.48681,60.87599],[23.4868,60.876],[23.48611,60.87637],[23.48609,60.87638],[23.48522,60.87685],[23.48521,60.87685],[23.48491,60.87701],[23.4849,60.87701],[23.48409,60.87742],[23.48407,60.87743],[23.48348,60.87773],[23.48345,60.87774],[23.48281,60.87806],[23.4828,60.87806],[23.48193,60.8785],[23.48192,60.87851],[23.48104,60.87894],[23.48063,60.87915],[23.48062,60.87915],[23.48008,60.87942],[23.48006,60.87943],[23.47955,60.87969],[23.47952,60.8797]],[[23.47952,60.8797],[23.47946,60.87973],[23.47945,60.87974],[23.47839,60.88026],[23.47838,60.88027],[23.47761,60.88065],[23.47759,60.88066],[23.47701,60.88096],[23.47698,60.88097],[23.47627,60.88133],[23.47625,60.88134],[23.47563,60.88165],[23.47562,60.88166],[23.47514,60.88188],[23.47513,60.88189],[23.47446,60.88222],[23.47444,60.88223]],[[23.47444,60.88223],[23.47387,60.88252],[23.47309,60.88291],[23.47261,60.88316],[23.4726,60.88316],[23.47202,60.88346],[23.472,60.88346],[23.47081,60.88405],[23.47012,60.8844],[23.47011,60.8844]],[[23.47011,60.8844],[23.46894,60.88498],[23.4679,60.8855],[23.4669,60.886],[23.46688,60.88601],[23.46591,60.8865],[23.46589,60.88651],[23.46512,60.88689],[23.46511,60.8869],[23.46442,60.88725],[23.46442,60.88725],[23.46399,60.88748],[23.46376,60.8876],[23.46375,60.8876]],[[23.46375,60.8876],[23.46373,60.88761],[23.46372,60.88761],[23.46329,60.88783],[23.46245,60.88827],[23.46244,60.88827],[23.46171,60.88865],[23.4617,60.88865],[23.46096,60.88903],[23.46095,60.88904],[23.46034,60.88935],[23.45973,60.88966],[23.45972,60.88967],[23.4593,60.88988],[23.45925,60.88991],[23.45924,60.88991],[23.45919,60.88994],[23.45917,60.88995]],[[23.45917,60.88995],[23.45906,60.89],[23.45818,60.89046],[23.45806,60.89052]],[[23.45806,60.89052],[23.45804,60.89053],[23.45735,60.89088],[23.45734,60.89089],[23.45661,60.89127],[23.45512,60.89204],[23.45511,60.89204],[23.45316,60.89304],[23.45314,60.89305],[23.4525,60.89338],[23.45248,60.89339],[23.45209,60.89361],[23.45207,60.89361],[23.45159,60.89386],[23.45146,60.89392]],[[23.45146,60.89392],[23.45089,60.89421],[23.45087,60.89423],[23.44945,60.89496],[23.44943,60.89496],[23.44847,60.89546],[23.44805,60.89568]],[[23.44805,60.89568],[23.44743,60.89598],[23.44742,60.89599],[23.44696,60.89622],[23.44694,60.89623],[23.44628,60.89658],[23.44626,60.89659],[23.44534,60.89706],[23.44533,60.89706]],[[23.44533,60.89706],[23.44474,60.89736],[23.44405,60.89771],[23.44404,60.89772],[23.44364,60.89793],[23.44363,60.89793],[23.44295,60.89826],[23.44293,60.89827],[23.44255,60.89847],[23.44253,60.89848],[23.44207,60.89872],[23.44206,60.89872],[23.44163,60.89894],[23.44162,60.89895],[23.44111,60.89921],[23.44108,60.89922],[23.44047,60.89953],[23.44045,60.89954],[23.43976,60.8999]],[[23.43976,60.8999],[23.43943,60.90007],[23.43941,60.90008],[23.4389,60.90034],[23.4389,60.90034],[23.43828,60.90065],[23.43827,60.90066],[23.43778,60.90091],[23.43776,60.90091]],[[23.43776,60.90091],[23.43775,60.90092]],[[23.43775,60.90092],[23.43774,60.90092],[23.43713,60.90123],[23.43712,60.90124],[23.43659,60.90152],[23.43656,60.90153],[23.43626,60.90169]],[[23.43626,60.90169],[23.43625,60.90169],[23.43551,60.90206],[23.43548,60.90208],[23.43477,60.90244],[23.43414,60.90277],[23.43412,60.90277],[23.43326,60.90322],[23.43324,60.90323],[23.43247,60.90362],[23.43176,60.90398],[23.43174,60.90399],[23.43095,60.90439],[23.43093,60.9044],[23.43029,60.90473],[23.42951,60.90513]],[[23.42951,60.90513],[23.42949,60.90514],[23.42944,60.90517],[23.42943,60.90517],[23.42872,60.90553],[23.4287,60.90554],[23.42777,60.90602],[23.42776,60.90602],[23.42772,60.90604]],[[23.42772,60.90604],[23.42713,60.90635],[23.42712,60.90635],[23.42586,60.90698],[23.42522,60.9073]],[[23.42522,60.9073],[23.42415,60.90785],[23.42414,60.90786],[23.42273,60.90857]],[[23.42273,60.90857],[23.42272,60.90858],[23.42193,60.90898],[23.42192,60.90898],[23.4211,60.9094],[23.42109,60.9094],[23.42031,60.90981],[23.4203,60.90981],[23.41954,60.9102],[23.41951,60.91021],[23.41862,60.91066],[23.41862,60.91067],[23.41787,60.91104],[23.41654,60.91172],[23.41544,60.91227]],[[23.41544,60.91227],[23.41544,60.91227],[23.41506,60.91247],[23.41504,60.91248],[23.41463,60.91269],[23.41463,60.91269],[23.4143,60.91286]],[[23.4143,60.91286],[23.41429,60.91286],[23.41341,60.91332],[23.41339,60.91332],[23.4125,60.91378],[23.4125,60.91378],[23.41113,60.91446]],[[23.41113,60.91446],[23.41112,60.91447],[23.41059,60.91475],[23.41057,60.91475],[23.41005,60.91501],[23.40955,60.91527],[23.40953,60.91528],[23.409,60.91556],[23.40898,60.91556],[23.40833,60.9159]],[[23.40833,60.9159],[23.4083,60.91592],[23.40684,60.91665],[23.40499,60.9176],[23.40154,60.91937]],[[23.40154,60.91937],[23.40154,60.91937],[23.40148,60.9194],[23.40147,60.9194],[23.40145,60.91942]],[[23.40145,60.91942],[23.40143,60.91942],[23.39968,60.92032],[23.39966,60.92032],[23.39763,60.92136],[23.39571,60.92235]],[[23.39571,60.92235],[23.39476,60.92284],[23.39474,60.92284],[23.39319,60.92364],[23.39316,60.92365],[23.39201,60.92423]],[[23.39201,60.92423],[23.39165,60.92443]],[[23.39165,60.92443],[23.39147,60.92451],[23.39145,60.92452],[23.38997,60.92527]],[[23.38997,60.92527],[23.38969,60.92542],[23.38967,60.92542],[23.3894,60.92557],[23.38938,60.92558],[23.38915,60.9257],[23.38914,60.9257],[23.38884,60.92586],[23.38851,60.92603],[23.3885,60.92603],[23.38795,60.92632],[23.38746,60.92658],[23.38681,60.92693],[23.38679,60.92694],[23.38594,60.92741],[23.38534,60.92775]],[[23.38534,60.92775],[23.38501,60.92794],[23.38498,60.92795],[23.3846,60.92817],[23.38458,60.92818],[23.38403,60.9285],[23.38403,60.9285],[23.38366,60.9287]],[[23.38366,60.9287],[23.38347,60.92881],[23.38346,60.92882],[23.38312,60.92903],[23.3831,60.92904],[23.38263,60.92932],[23.38221,60.92959],[23.38219,60.9296],[23.38162,60.92996],[23.38161,60.92996],[23.3811,60.93029],[23.38109,60.93029],[23.38042,60.93072],[23.38041,60.93073],[23.37985,60.93109],[23.37983,60.9311],[23.37923,60.93148],[23.3792,60.93149],[23.37874,60.9318],[23.37872,60.93181],[23.37825,60.9321],[23.37823,60.93212],[23.37767,60.93247],[23.37766,60.93248]],[[23.37766,60.93248],[23.37695,60.93293],[23.37606,60.9335]],[[23.37606,60.9335],[23.37556,60.93382],[23.37502,60.93416],[23.37437,60.93457],[23.37436,60.93458],[23.37371,60.93499],[23.37319,60.93532],[23.37317,60.93533],[23.37279,60.93557],[23.37277,60.93559],[23.37212,60.936],[23.37211,60.93601],[23.37146,60.93642],[23.37144,60.93643],[23.37055,60.937],[23.37053,60.93701],[23.36985,60.93744],[23.36985,60.93744],[23.3692,60.93786],[23.36918,60.93787],[23.36847,60.93833],[23.36847,60.93833],[23.36798,60.93865],[23.36797,60.93866],[23.36761,60.93891],[23.36759,60.93892]],[[23.36759,60.93892],[23.36675,60.93942],[23.36675,60.93942],[23.36663,60.9395],[23.36657,60.93954],[23.36526,60.94036],[23.36526,60.94037],[23.36444,60.9409],[23.36442,60.94091],[23.36433,60.94096],[23.36431,60.94097],[23.36422,60.94103],[23.36421,60.94104]],[[23.36421,60.94104],[23.36378,60.9413],[23.36377,60.94131],[23.36336,60.94157],[23.36334,60.94158],[23.363,60.94179],[23.363,60.94179],[23.36282,60.94191],[23.3628,60.94192],[23.36258,60.94207],[23.36256,60.94208]],[[23.36256,60.94208],[23.36201,60.94242],[23.36159,60.94269]],[[23.36159,60.94269],[23.36127,60.9429],[23.36126,60.9429],[23.36046,60.94341],[23.36045,60.94342],[23.36,60.9437],[23.35998,60.94372],[23.35951,60.94401],[23.35949,60.94402],[23.35861,60.94455],[23.35859,60.94456],[23.35798,60.94492],[23.35795,60.94493],[23.35749,60.94519],[23.35659,60.94567],[23.35658,60.94568],[23.35597,60.94599],[23.35595,60.94599]],[[23.35595,60.94599],[23.35567,60.94613],[23.35565,60.94615],[23.35489,60.94651],[23.35487,60.94652],[23.35348,60.94716],[23.35347,60.94717],[23.35241,60.94764],[23.3524,60.94764],[23.35191,60.94786],[23.35189,60.94788],[23.35178,60.94792],[23.35176,60.94793],[23.35132,60.94813],[23.35092,60.94831],[23.3509,60.94832],[23.3506,60.94845],[23.35058,60.94846]],[[23.35058,60.94846],[23.35045,60.94852],[23.35042,60.94853],[23.34999,60.94873],[23.34997,60.94874],[23.34956,60.94892],[23.34954,60.94893],[23.3487,60.94931],[23.34868,60.94932],[23.34744,60.94988],[23.34742,60.94988],[23.34682,60.95015],[23.3468,60.95017],[23.34647,60.95031],[23.34645,60.95032]],[[23.34645,60.95032],[23.34638,60.95035],[23.34631,60.95038],[23.34624,60.95041],[23.34618,60.95044],[23.34611,60.95048],[23.34604,60.95051],[23.34597,60.95054],[23.34591,60.95057],[23.34584,60.9506],[23.34577,60.95063],[23.3457,60.95066],[23.34564,60.95069],[23.34557,60.95072],[23.3455,60.95075],[23.34543,60.95078],[23.34537,60.95081],[23.3453,60.95084],[23.34523,60.95087],[23.34516,60.9509],[23.3451,60.95093],[23.34503,60.95096],[23.34496,60.95099],[23.34489,60.95103],[23.34482,60.95106],[23.34476,60.95109],[23.34469,60.95112],[23.34462,60.95115],[23.34455,60.95118],[23.34449,60.95121],[23.34442,60.95124],[23.34435,60.95127],[23.34428,60.9513],[23.34412,60.95137],[23.34412,60.95138]],[[23.34412,60.95138],[23.34405,60.95141],[23.34398,60.95144],[23.34392,60.95147],[23.34385,60.9515],[23.34378,60.95153],[23.34371,60.95156],[23.34364,60.95159],[23.34358,60.95162],[23.34351,60.95165],[23.34344,60.95168],[23.34337,60.95171],[23.34331,60.95174],[23.34324,60.95177],[23.34317,60.9518],[23.3431,60.95183],[23.34303,60.95186],[23.34297,60.95189],[23.3429,60.95192],[23.34283,60.95195],[23.34276,60.95199],[23.3427,60.95202],[23.34263,60.95205],[23.34256,60.95208],[23.34249,60.95211],[23.34242,60.95214],[23.34236,60.95217],[23.34229,60.9522],[23.34222,60.95223],[23.34215,60.95226],[23.34208,60.95229],[23.34202,60.95232],[23.34195,60.95235],[23.34188,60.95238],[23.34181,60.95241],[23.34163,60.9525],[23.34161,60.9525],[23.34142,60.95259]],[[23.34142,60.95259],[23.34135,60.95262],[23.34129,60.95265],[23.34122,60.95268],[23.34115,60.95271],[23.34108,60.95274],[23.34102,60.95277],[23.34095,60.9528],[23.34088,60.95283],[23.34081,60.95286],[23.34075,60.95289],[23.34068,60.95292],[23.34061,60.95295],[23.34054,60.95299],[23.34047,60.95302],[23.34041,60.95305],[23.34034,60.95308],[23.34027,60.95311],[23.3402,60.95314],[23.34014,60.95317],[23.34007,60.9532],[23.34,60.95323],[23.33993,60.95326],[23.33987,60.95329],[23.3398,60.95332],[23.33973,60.95335],[23.33966,60.95338],[23.33955,60.95343],[23.33949,60.95346],[23.33947,60.95346]],[[23.33947,60.95346],[23.33901,60.95368]],[[23.33901,60.95368],[23.33894,60.95371],[23.33887,60.95374],[23.3388,60.95377],[23.33873,60.9538],[23.33867,60.95383],[23.3386,60.95386],[23.33853,60.95389],[23.33846,60.95392],[23.33839,60.95395],[23.33833,60.95398],[23.33826,60.95401],[23.33819,60.95404],[23.33812,60.95407],[23.33805,60.9541],[23.33799,60.95413],[23.33792,60.95416],[23.33785,60.95419],[23.33778,60.95422],[23.33771,60.95425],[23.33765,60.95428],[23.33758,60.95432],[23.33751,60.95435],[23.33744,60.95438],[23.33737,60.95441],[23.33724,60.95447],[23.33722,60.95448]],[[23.33722,60.95448],[23.33715,60.95451],[23.33708,60.95454],[23.33701,60.95457],[23.33694,60.9546],[23.33688,60.95463],[23.33681,60.95466],[23.33674,60.95469],[23.33667,60.95472],[23.3366,60.95475],[23.33654,60.95478],[23.33647,60.95481],[23.3364,60.95484],[23.33633,60.95487],[23.33627,60.9549],[23.3362,60.95493],[23.33613,60.95496],[23.33606,60.95499],[23.33599,60.95502],[23.33593,60.95505],[23.33586,60.95509],[23.33579,60.95512],[23.33572,60.95515],[23.33566,60.95518],[23.33549,60.95525],[23.33547,60.95526],[23.33536,60.95531],[23.33534,60.95531]],[[23.33534,60.95531],[23.33518,60.95539],[23.33517,60.95539],[23.33503,60.95546],[23.33501,60.95546]],[[23.33501,60.95546],[23.33472,60.9556]]]},"properties":{"name":"Vt 2 viitoituksen uusiminen välillä Matkailijankatu - Vt 9, KU","kind":"project","ptype":"road","subtype":"Tiehanke","status":"kaynnissa","date":"2024–2025","url":"https://vayla.fi/hankkeet","source":"Väylävirasto"}},{"type":"Feature","geometry":{"type":"LineString","coordinates":[[23.6097,60.85341],[23.60969,60.85343],[23.60968,60.85344],[23.60966,60.85349],[23.60962,60.85358]]},"properties":{"name":"SIS Putkisilta- ja rumpu-urakan 2026, ST, rumpukohteet","kind":"project","ptype":"road","subtype":"Tiehanke","status":"kaynnissa","date":"2026–2026","url":"https://vayla.fi/hankkeet","source":"Väylävirasto"}}]}