{"type":"FeatureCollection","features":[{"type":"Feature","geometry":{"type":"MultiLineString","coordinates":[[[24.91062,60.48291],[24.91038,60.48297],[24.91036,60.48298],[24.91012,60.48305],[24.91006,60.48307],[24.91004,60.48308],[24.90969,60.48321],[24.90967,60.48321],[24.90941,60.48331],[24.90933,60.48335],[24.9092,60.48341],[24.90912,60.48345],[24.90908,60.48348],[24.90906,60.48349],[24.90901,60.48352],[24.90895,60.48356],[24.90889,60.48361],[24.90888,60.48363],[24.90881,60.48369],[24.90877,60.48374],[24.90875,60.48376],[24.90875,60.48376],[24.90871,60.48381],[24.90868,60.48388],[24.90867,60.4839],[24.90866,60.48391],[24.90858,60.48411],[24.90858,60.48412],[24.90851,60.48426],[24.9085,60.48429],[24.90849,60.4843],[24.90841,60.48443],[24.9084,60.48444],[24.90829,60.48457],[24.90828,60.48458],[24.90809,60.48476],[24.90808,60.48477],[24.90781,60.485],[24.9078,60.485],[24.90763,60.48514],[24.90756,60.48519],[24.90755,60.48519],[24.90741,60.48528]],[[24.90741,60.48528],[24.90738,60.48531],[24.90735,60.48532],[24.90734,60.48533],[24.90715,60.48544],[24.9071,60.48546],[24.90687,60.48558],[24.90685,60.48559]],[[24.90685,60.48559],[24.90669,60.48566],[24.90667,60.48568],[24.90664,60.48569],[24.90657,60.48573],[24.90651,60.48577],[24.90642,60.48583],[24.9064,60.48585],[24.90639,60.48586],[24.90632,60.48592],[24.90627,60.48597],[24.90626,60.48598],[24.90622,60.48603],[24.90618,60.48608],[24.90616,60.48612],[24.90616,60.48612],[24.90608,60.4863],[24.90607,60.48631],[24.90606,60.4864],[24.90604,60.48649],[24.90604,60.4865]],[[24.90604,60.4865],[24.90603,60.48673],[24.90603,60.48674],[24.90601,60.48688],[24.90601,60.48689],[24.90599,60.48699],[24.90598,60.48703],[24.90597,60.48705],[24.90594,60.48712],[24.9059,60.48719],[24.90589,60.4872],[24.90589,60.48721],[24.90583,60.4873],[24.90568,60.48746],[24.90567,60.48747]],[[24.90567,60.48747],[24.90546,60.4877],[24.90546,60.4877],[24.90515,60.48805],[24.90515,60.48805],[24.90472,60.48853],[24.90471,60.48854],[24.90412,60.48922],[24.90411,60.48923],[24.90351,60.49002],[24.90312,60.49049],[24.90311,60.49049],[24.90274,60.49094],[24.90273,60.49095],[24.90223,60.49155],[24.90221,60.49156],[24.90188,60.49198],[24.90138,60.49262],[24.90137,60.49263],[24.90089,60.49325],[24.90088,60.49326],[24.90064,60.49358]],[[24.90064,60.49358],[24.90044,60.49383],[24.90043,60.49385],[24.90022,60.49411],[24.90022,60.49412],[24.9,60.49437],[24.89999,60.49438],[24.89987,60.49451],[24.89982,60.49456],[24.8998,60.49457],[24.89973,60.49463],[24.89961,60.49472],[24.89958,60.49474],[24.89958,60.49474],[24.89945,60.49482],[24.89933,60.49489],[24.89922,60.49494],[24.8992,60.49495],[24.89904,60.49502],[24.89878,60.49512],[24.89876,60.49513],[24.89827,60.49532],[24.89825,60.49533],[24.89798,60.49543],[24.8979,60.49546],[24.89787,60.49547],[24.89785,60.49548],[24.8978,60.49551],[24.89775,60.49553],[24.8977,60.49556],[24.89766,60.49559],[24.89762,60.49562],[24.8976,60.49564],[24.89757,60.49567],[24.89754,60.4957],[24.89751,60.49573],[24.89748,60.49579],[24.89746,60.49582],[24.89744,60.49587],[24.89742,60.49591],[24.89742,60.49593],[24.89741,60.49595],[24.89741,60.49596],[24.89741,60.49598],[24.89741,60.496],[24.89741,60.49601],[24.89742,60.49603],[24.89742,60.49605],[24.89743,60.49607],[24.89749,60.49619],[24.8975,60.4962],[24.89762,60.49641],[24.89762,60.49641],[24.89777,60.49669],[24.89778,60.4967],[24.89793,60.497],[24.89793,60.497],[24.89799,60.49716],[24.89803,60.49729],[24.89803,60.4973],[24.89803,60.49731],[24.89804,60.49744],[24.89804,60.49767],[24.89804,60.49769],[24.89803,60.49783],[24.89803,60.49785],[24.89803,60.49787],[24.89801,60.49796],[24.89797,60.49806],[24.89797,60.49807],[24.8979,60.49825],[24.89789,60.49827],[24.89788,60.49828],[24.89782,60.4984],[24.89781,60.49841]],[[24.89781,60.49841],[24.89773,60.49853]],[[24.89773,60.49853],[24.89772,60.49853],[24.89743,60.4988],[24.89741,60.49881],[24.89739,60.49883],[24.89719,60.499],[24.89718,60.49901],[24.89691,60.49924],[24.89683,60.4993],[24.89664,60.49944],[24.89663,60.49945],[24.89645,60.49956],[24.89643,60.49958],[24.89642,60.49958],[24.89635,60.49962],[24.89612,60.49973]]]},"properties":{"name":"Maantie 11480 (Hynnänkorventie) valaistuksen rakentaminen, Nurmijärvi","kind":"project","ptype":"road","subtype":"Tiehanke","status":"kaynnissa","date":"2023–2025","url":"https://vayla.fi/hankkeet","source":"Väylävirasto"}},{"type":"Feature","geometry":{"type":"MultiLineString","coordinates":[[[24.98649,60.22262],[24.98704,60.22276],[24.98704,60.22276],[24.988,60.22297],[24.98803,60.22298]],[[24.98803,60.22298],[24.98831,60.22304]],[[24.98695,60.22255],[24.98706,60.22257],[24.98827,60.22285],[24.9883,60.22286]],[[24.9883,60.22286],[24.98877,60.22296]]]},"properties":{"name":"Valtatie 4 (Lahdenväylä) työmaatien rakentaminen, Helsinki","kind":"project","ptype":"road","subtype":"Tiehanke","status":"kaynnissa","date":"2025–2025","url":"https://vayla.fi/hankkeet","source":"Väylävirasto"}},{"type":"Feature","geometry":{"type":"MultiLineString","coordinates":[[[24.8384,60.37699],[24.83841,60.377]],[[24.83841,60.377],[24.83853,60.37715],[24.83854,60.37717],[24.83867,60.37734],[24.83868,60.37735],[24.83874,60.37743]]]},"properties":{"name":"Maantie 11455 Riipiläntie kevyen liikenteen väylän rakentaminen välille Seutula-Männikkö-Reuna, vaihe 2","kind":"project","ptype":"road","subtype":"Tiehanke","status":"kaynnissa","date":"2021–2024","url":"https://vayla.fi/hankkeet","source":"Väylävirasto"}},{"type":"Feature","geometry":{"type":"MultiLineString","coordinates":[[[24.84768,60.36598],[24.84768,60.36599],[24.84766,60.366]],[[24.84766,60.366],[24.84761,60.36604],[24.84758,60.36606],[24.84757,60.36606],[24.84755,60.36608],[24.8475,60.3661],[24.84748,60.36612],[24.84726,60.36624],[24.84724,60.36625],[24.84713,60.3663],[24.8468,60.36643],[24.84677,60.36644],[24.84635,60.36661]],[[24.84635,60.36661],[24.84603,60.36673],[24.8454,60.36698],[24.84538,60.36698],[24.84481,60.3672],[24.84479,60.36721],[24.84434,60.36739],[24.84432,60.3674]],[[24.84432,60.3674],[24.8442,60.36744],[24.84418,60.36745],[24.84355,60.36769],[24.84298,60.3679]],[[24.84298,60.3679],[24.84264,60.36803]],[[24.84264,60.36803],[24.84124,60.36857],[24.84123,60.36857],[24.84041,60.36889],[24.84018,60.36898],[24.84016,60.36898],[24.83997,60.36907],[24.83996,60.36907]],[[24.83996,60.36907],[24.83975,60.36919],[24.8396,60.36928]],[[24.8396,60.36928],[24.8394,60.36944]],[[24.8394,60.36944],[24.83891,60.36987]],[[24.83891,60.36987],[24.83888,60.3699],[24.83885,60.36992]],[[24.83885,60.36992],[24.83856,60.37023],[24.83854,60.37025],[24.83825,60.37055],[24.83824,60.37056]],[[24.83824,60.37056],[24.83791,60.37092],[24.8379,60.37094],[24.83779,60.37107],[24.83776,60.37112],[24.83775,60.37113]],[[24.83775,60.37113],[24.83767,60.37127],[24.83766,60.37128],[24.83756,60.37143],[24.83754,60.37147],[24.83752,60.37152],[24.83747,60.37167],[24.8374,60.37188],[24.8374,60.37188]],[[24.8374,60.37188],[24.83737,60.37222],[24.83737,60.37223],[24.83737,60.37245],[24.83738,60.37255],[24.83743,60.3728],[24.83743,60.37281],[24.83746,60.37314]],[[24.83746,60.37314],[24.83746,60.37315],[24.83755,60.37355],[24.83755,60.37355],[24.83758,60.37387],[24.83758,60.37388],[24.8376,60.37413],[24.8376,60.37413],[24.83761,60.37428]],[[24.83761,60.37428],[24.83761,60.37429],[24.83761,60.37454],[24.8376,60.37469],[24.8376,60.37471]],[[24.8376,60.37471],[24.83758,60.37486]]]},"properties":{"name":"Maantie 11455 Riipiläntie kevyen liikenteen väylän rakentaminen välille Seutula-Männikkö-Reuna, vaihe 2","kind":"project","ptype":"road","subtype":"Tiehanke","status":"kaynnissa","date":"2021–2024","url":"https://vayla.fi/hankkeet","source":"Väylävirasto"}},{"type":"Feature","geometry":{"type":"MultiLineString","coordinates":[[[24.83944,60.37869],[24.83944,60.3787]],[[24.83944,60.3787],[24.83953,60.37893]],[[24.83953,60.37893],[24.83955,60.37905],[24.83956,60.3791],[24.83956,60.37911],[24.83955,60.37917],[24.83955,60.37922],[24.8395,60.3794],[24.8395,60.37941],[24.83943,60.37962]],[[24.83943,60.37962],[24.8392,60.38028],[24.83919,60.38032],[24.83919,60.38032],[24.83915,60.38041],[24.83913,60.38044],[24.8391,60.38048],[24.83907,60.38051],[24.83902,60.38056],[24.83901,60.38058],[24.83887,60.38068],[24.83887,60.38069],[24.83876,60.38076],[24.83869,60.3808],[24.83864,60.38083],[24.83863,60.38083],[24.83853,60.38088],[24.83832,60.38098],[24.83816,60.38105]],[[24.83816,60.38105],[24.83808,60.38108],[24.83807,60.38108],[24.83798,60.38111],[24.8378,60.38117],[24.83779,60.38117],[24.83738,60.38129],[24.83705,60.38137],[24.83696,60.38139],[24.83687,60.38142],[24.83681,60.38145],[24.83678,60.38146],[24.83676,60.38147],[24.83671,60.38149],[24.83665,60.38152],[24.83658,60.38156],[24.83656,60.38157],[24.83654,60.38158],[24.83643,60.38165],[24.83641,60.38166],[24.83632,60.38172],[24.8363,60.38173],[24.83628,60.38175],[24.83627,60.38176],[24.83625,60.38177],[24.83624,60.38179],[24.83622,60.38181],[24.83621,60.38182],[24.83616,60.38189],[24.83615,60.38191],[24.83614,60.38192],[24.8361,60.38201],[24.83609,60.38202]],[[24.83609,60.38202],[24.83607,60.38208],[24.83607,60.3821],[24.83606,60.38211],[24.83606,60.38212],[24.83607,60.38214],[24.83608,60.38223],[24.83608,60.38225],[24.83608,60.38226]],[[24.83608,60.38226],[24.83609,60.38233],[24.8361,60.38234],[24.83612,60.38241],[24.83613,60.38243]],[[24.83613,60.38243],[24.8363,60.38274],[24.8363,60.38274],[24.8364,60.38295],[24.8364,60.38297]],[[24.8364,60.38297],[24.83652,60.38316],[24.83653,60.38317],[24.83661,60.38329],[24.83664,60.38332],[24.83665,60.38334],[24.83666,60.38335],[24.8368,60.38349],[24.83681,60.38349],[24.83691,60.38361],[24.83692,60.38362],[24.83697,60.38367],[24.8372,60.38385],[24.83721,60.38387],[24.83726,60.38392],[24.83732,60.38398],[24.83733,60.384],[24.83739,60.38408],[24.83743,60.38415],[24.83744,60.38417],[24.83748,60.38427],[24.83752,60.3844],[24.83753,60.38445],[24.83753,60.38445],[24.83756,60.38465],[24.83756,60.38466]]]},"properties":{"name":"Maantie 11455 Riipiläntie kevyen liikenteen väylän rakentaminen välille Seutula-Männikkö-Reuna, vaihe 2","kind":"project","ptype":"road","subtype":"Tiehanke","status":"kaynnissa","date":"2021–2024","url":"https://vayla.fi/hankkeet","source":"Väylävirasto"}},{"type":"Feature","geometry":{"type":"MultiLineString","coordinates":[[[24.83711,60.38585],[24.8366,60.38658],[24.83659,60.38659],[24.83644,60.38679],[24.83643,60.38681],[24.83639,60.38689],[24.83636,60.38694],[24.83635,60.38696],[24.83635,60.38698],[24.83634,60.38703],[24.83632,60.38718]],[[24.83632,60.38718],[24.83632,60.38728]],[[24.83632,60.38728],[24.83642,60.3875],[24.83662,60.38794],[24.83678,60.38826],[24.83682,60.38836],[24.83682,60.38837],[24.83686,60.38853],[24.83689,60.38867],[24.83689,60.38868],[24.8369,60.38885],[24.8369,60.38894],[24.8369,60.38895],[24.83688,60.38911],[24.83682,60.38936],[24.83682,60.38936],[24.83675,60.38968],[24.83675,60.3897],[24.83668,60.38998],[24.83667,60.38999],[24.83662,60.39021],[24.8366,60.39026],[24.83652,60.39044],[24.83651,60.39045],[24.83645,60.39057]],[[24.83645,60.39057],[24.83633,60.39069],[24.83621,60.39079]],[[24.83621,60.39079],[24.83586,60.39102],[24.83585,60.39103],[24.83513,60.3915],[24.83511,60.39151],[24.83446,60.39194],[24.83444,60.39196],[24.83397,60.39225],[24.83396,60.39226],[24.83384,60.39234]],[[24.83384,60.39234],[24.83363,60.39248]],[[24.83363,60.39248],[24.83327,60.39273]],[[24.83327,60.39273],[24.83314,60.39281]],[[24.83314,60.39281],[24.83305,60.39286]],[[24.83305,60.39286],[24.83261,60.39314]],[[24.83261,60.39314],[24.83192,60.3936]],[[24.83192,60.3936],[24.83062,60.39446]],[[24.83062,60.39446],[24.8306,60.39448]]]},"properties":{"name":"Maantie 11455 Riipiläntie kevyen liikenteen väylän rakentaminen välille Seutula-Männikkö-Reuna, vaihe 2","kind":"project","ptype":"road","subtype":"Tiehanke","status":"kaynnissa","date":"2021–2024","url":"https://vayla.fi/hankkeet","source":"Väylävirasto"}},{"type":"Feature","geometry":{"type":"MultiLineString","coordinates":[[[24.99968,60.28752],[24.9997,60.28752]],[[24.99958,60.28729],[24.9996,60.28729]]]},"properties":{"name":"Kantatie 50 Kirkkonummi-Vantaa (Kehä III) vesijohdon saneeraus, Vantaa","kind":"project","ptype":"road","subtype":"Tiehanke","status":"kaynnissa","date":"2024–2024","url":"https://vayla.fi/hankkeet","source":"Väylävirasto"}},{"type":"Feature","geometry":{"type":"LineString","coordinates":[[24.99839,60.28803],[24.99878,60.28799],[24.99932,60.28794],[24.99973,60.28788],[24.99985,60.28786]]},"properties":{"name":"Kantatie 50 Kirkkonummi-Vantaa (Kehä III) vesijohdon saneeraus, Vantaa","kind":"project","ptype":"road","subtype":"Tiehanke","status":"kaynnissa","date":"2024–2024","url":"https://vayla.fi/hankkeet","source":"Väylävirasto"}},{"type":"Feature","geometry":{"type":"LineString","coordinates":[[24.83322,60.46006],[24.83351,60.46077],[24.83383,60.4615],[24.83384,60.46152],[24.83417,60.46218],[24.83417,60.46219],[24.83457,60.4629],[24.83458,60.46291],[24.83495,60.46351],[24.83496,60.46352],[24.83517,60.46382],[24.83518,60.46384],[24.83535,60.46411],[24.83535,60.46411],[24.8355,60.46434],[24.83568,60.46461],[24.83569,60.46462],[24.8359,60.46493],[24.83604,60.46514]]},"properties":{"name":"Maantie 130 (Hämeenlinnantie) ja maantie 1131 (Siippoontie) parantaminen liittymäjärjestelyineen Ilvesvuori pohjoinen työpaikka-alueen kohdalla, Nurmijärvi","kind":"project","ptype":"road","subtype":"Tiehanke","status":"kaynnissa","date":"2024–2025","url":"https://vayla.fi/hankkeet","source":"Väylävirasto"}},{"type":"Feature","geometry":{"type":"MultiLineString","coordinates":[[[24.84494,60.45575],[24.84417,60.45575]],[[24.84417,60.45575],[24.84352,60.45578],[24.8435,60.45578],[24.84296,60.4558],[24.84294,60.4558]],[[24.84294,60.4558],[24.8426,60.45583]],[[24.8426,60.45583],[24.84185,60.4559],[24.84184,60.45591],[24.84114,60.45599],[24.84111,60.456]],[[24.84111,60.456],[24.84035,60.45611],[24.84033,60.45611],[24.83989,60.45619],[24.83987,60.4562],[24.83984,60.4562],[24.83867,60.45644],[24.83865,60.45645],[24.83809,60.45658],[24.83806,60.45658],[24.83717,60.45679],[24.83714,60.45679],[24.83698,60.45683]],[[24.84497,60.45585],[24.84464,60.45585],[24.84442,60.45585],[24.84439,60.45585],[24.84421,60.45586],[24.8442,60.45586]],[[24.8442,60.45586],[24.84298,60.45593]],[[24.84298,60.45593],[24.84284,60.45594],[24.84264,60.45595]],[[24.84264,60.45595],[24.84203,60.456],[24.84201,60.456],[24.84159,60.45605],[24.84156,60.45605],[24.84117,60.45609],[24.84116,60.4561]],[[24.84116,60.4561],[24.84057,60.45619],[24.84056,60.45619],[24.83998,60.45629],[24.83994,60.4563],[24.83934,60.45642],[24.83933,60.45642],[24.83778,60.45678],[24.83777,60.45678],[24.83705,60.45695]]]},"properties":{"name":"Maantie 130 (Hämeenlinnantie) ja maantie 1131 (Siippoontie) parantaminen liittymäjärjestelyineen Ilvesvuori pohjoinen työpaikka-alueen kohdalla, Nurmijärvi","kind":"project","ptype":"road","subtype":"Tiehanke","status":"kaynnissa","date":"2024–2025","url":"https://vayla.fi/hankkeet","source":"Väylävirasto"}},{"type":"Feature","geometry":{"type":"LineString","coordinates":[[24.75254,60.16783],[24.75254,60.16784]]},"properties":{"name":"Kantatie 51 (Länsiväylä) ja maantie 102 (Kehä II), vesihuollon rakentaminen, Espoo","kind":"project","ptype":"road","subtype":"Tiehanke","status":"kaynnissa","date":"2024–2026","url":"https://vayla.fi/hankkeet","source":"Väylävirasto"}},{"type":"Feature","geometry":{"type":"MultiLineString","coordinates":[[[24.75207,60.16785],[24.75207,60.16786]],[[24.75223,60.16787],[24.75223,60.16788]]]},"properties":{"name":"Kantatie 51 (Länsiväylä) ja maantie 102 (Kehä II), vesihuollon rakentaminen, Espoo","kind":"project","ptype":"road","subtype":"Tiehanke","status":"kaynnissa","date":"2024–2026","url":"https://vayla.fi/hankkeet","source":"Väylävirasto"}},{"type":"Feature","geometry":{"type":"LineString","coordinates":[[24.75294,60.16782],[24.75294,60.16783]]},"properties":{"name":"Kantatie 51 (Länsiväylä) ja maantie 102 (Kehä II), vesihuollon rakentaminen, Espoo","kind":"project","ptype":"road","subtype":"Tiehanke","status":"kaynnissa","date":"2024–2026","url":"https://vayla.fi/hankkeet","source":"Väylävirasto"}},{"type":"Feature","geometry":{"type":"LineString","coordinates":[[24.77333,60.16818],[24.77321,60.16817],[24.77314,60.16817],[24.77313,60.16816],[24.77239,60.16812]]},"properties":{"name":"Kantatie 51 (Länsiväylä) ja maantie 102 (Kehä II), vesihuollon rakentaminen, Espoo","kind":"project","ptype":"road","subtype":"Tiehanke","status":"kaynnissa","date":"2024–2026","url":"https://vayla.fi/hankkeet","source":"Väylävirasto"}},{"type":"Feature","geometry":{"type":"MultiLineString","coordinates":[[[24.67786,60.38339],[24.6776,60.38335],[24.6775,60.38333],[24.6774,60.38331],[24.67739,60.38331],[24.67729,60.38328],[24.67704,60.38321],[24.67702,60.3832],[24.67669,60.38309],[24.67657,60.38305],[24.67655,60.38304],[24.67638,60.38297],[24.67636,60.38296]],[[24.67636,60.38296],[24.6759,60.38283],[24.67561,60.38275],[24.6756,60.38274],[24.67529,60.38265],[24.67526,60.38265]],[[24.67526,60.38265],[24.67468,60.3825],[24.67467,60.3825],[24.67422,60.3824]],[[24.67422,60.3824],[24.67391,60.38233],[24.67289,60.38209],[24.67246,60.38199]],[[24.67246,60.38199],[24.67159,60.38179],[24.67093,60.38164],[24.67092,60.38164],[24.67023,60.38148],[24.67019,60.38147],[24.66982,60.3814],[24.66979,60.38139],[24.66952,60.38134],[24.66948,60.38134],[24.66913,60.38129],[24.66911,60.38129]],[[24.66911,60.38129],[24.66876,60.38127],[24.66873,60.38127],[24.66844,60.38125],[24.6683,60.38125],[24.66827,60.38125],[24.66798,60.38125],[24.66758,60.38126],[24.66756,60.38126],[24.66741,60.38127],[24.66694,60.38129],[24.66692,60.38129],[24.66691,60.38129]],[[24.66691,60.38129],[24.66689,60.38129],[24.66664,60.38131],[24.66661,60.38131],[24.66628,60.38134],[24.66618,60.38135],[24.66615,60.38135],[24.66576,60.3814]],[[24.66576,60.3814],[24.66549,60.38145],[24.66547,60.38146],[24.66479,60.38159],[24.66478,60.38159],[24.66406,60.38172],[24.66404,60.38173],[24.66343,60.38185],[24.6634,60.38185]],[[24.6634,60.38185],[24.6631,60.38191],[24.66307,60.38192],[24.66267,60.382],[24.66263,60.38201],[24.6623,60.38207],[24.66229,60.38207],[24.66205,60.38212],[24.66202,60.38212],[24.66178,60.38217],[24.66176,60.38217]],[[24.66176,60.38217],[24.66145,60.38222]],[[24.66145,60.38222],[24.66121,60.38226],[24.66119,60.38226],[24.66077,60.38232],[24.66077,60.38232],[24.66046,60.38236]]]},"properties":{"name":"Maantie 11345 (Lepsämäntie) valaistuksen parantaminen, Nurmijärvi","kind":"project","ptype":"road","subtype":"Tiehanke","status":"kaynnissa","date":"2025–2025","url":"https://vayla.fi/hankkeet","source":"Väylävirasto"}},{"type":"Feature","geometry":{"type":"MultiLineString","coordinates":[[[24.69565,60.38252],[24.69563,60.38252],[24.69562,60.38252]],[[24.69562,60.38252],[24.69541,60.38249]],[[24.69541,60.38249],[24.69515,60.38247]],[[24.69515,60.38247],[24.69509,60.38246],[24.69495,60.38245],[24.69493,60.38245],[24.69475,60.38245],[24.69472,60.38245],[24.69421,60.38245],[24.69418,60.38245]],[[24.69418,60.38245],[24.694,60.38246],[24.69396,60.38246],[24.69386,60.38247],[24.69371,60.38249],[24.69344,60.38254],[24.69341,60.38254],[24.69326,60.38257]],[[24.69326,60.38257],[24.69324,60.38258],[24.69321,60.38258],[24.69234,60.38277],[24.69221,60.38279],[24.69218,60.3828]],[[24.69218,60.3828],[24.69138,60.38297],[24.69134,60.38297],[24.69077,60.3831]],[[24.69077,60.3831],[24.69051,60.38315]],[[24.69051,60.38315],[24.69025,60.3832],[24.69023,60.38321],[24.68937,60.3834],[24.68869,60.38355],[24.68853,60.38358],[24.68851,60.38359],[24.68838,60.38362],[24.68834,60.38362],[24.68833,60.38363],[24.68829,60.38363],[24.68828,60.38363],[24.68805,60.38368],[24.68804,60.38368]],[[24.68804,60.38368],[24.68799,60.38369]]]},"properties":{"name":"Maantie 11345 (Lepsämäntie) valaistuksen parantaminen, Nurmijärvi","kind":"project","ptype":"road","subtype":"Tiehanke","status":"kaynnissa","date":"2025–2025","url":"https://vayla.fi/hankkeet","source":"Väylävirasto"}},{"type":"Feature","geometry":{"type":"MultiLineString","coordinates":[[[24.69367,60.23752],[24.69367,60.23753],[24.69368,60.23753]],[[24.69389,60.23743],[24.69389,60.23743],[24.6939,60.23744]]]},"properties":{"name":"Kantatie 50 (Kehä III) maakaapelin rakentaminen, Espoo","kind":"project","ptype":"road","subtype":"Tiehanke","status":"kaynnissa","date":"2025–2025","url":"https://vayla.fi/hankkeet","source":"Väylävirasto"}},{"type":"Feature","geometry":{"type":"MultiLineString","coordinates":[[[24.6942,60.23732],[24.69424,60.23736],[24.69425,60.23737]],[[24.69425,60.23737],[24.69431,60.23743],[24.69432,60.23745],[24.69436,60.23748],[24.69441,60.23752],[24.69454,60.23761],[24.69455,60.23762],[24.69478,60.2378],[24.69479,60.2378],[24.69508,60.23805],[24.69509,60.23805],[24.69541,60.23831],[24.69541,60.23832],[24.69564,60.2385],[24.69565,60.23851],[24.69588,60.23869],[24.69589,60.2387],[24.69612,60.23888],[24.69613,60.23888],[24.69637,60.23907],[24.6966,60.23925],[24.69662,60.23926],[24.69688,60.23945],[24.69688,60.23946],[24.69702,60.23956],[24.69709,60.23961],[24.69711,60.23962],[24.69712,60.23963],[24.69716,60.23965],[24.69719,60.23967],[24.69721,60.23968],[24.69724,60.23969],[24.69727,60.2397],[24.69729,60.23971],[24.69732,60.23972],[24.69735,60.23973],[24.69738,60.23974],[24.69748,60.23976],[24.69751,60.23976],[24.69757,60.23978],[24.69761,60.23979],[24.69764,60.2398],[24.69767,60.23981],[24.6977,60.23982],[24.69773,60.23983],[24.69775,60.23984],[24.69778,60.23985],[24.6978,60.23987],[24.69785,60.23989],[24.69787,60.23991],[24.69789,60.23992],[24.69801,60.24001],[24.69803,60.24002],[24.69804,60.24003],[24.69809,60.24006],[24.69813,60.24009],[24.69826,60.24015],[24.69827,60.24015],[24.69852,60.24026],[24.69853,60.24026],[24.69886,60.2404],[24.69888,60.24041],[24.69916,60.24052]]]},"properties":{"name":"Kantatie 50 (Kehä III) maakaapelin rakentaminen, Espoo","kind":"project","ptype":"road","subtype":"Tiehanke","status":"kaynnissa","date":"2025–2025","url":"https://vayla.fi/hankkeet","source":"Väylävirasto"}},{"type":"Feature","geometry":{"type":"MultiLineString","coordinates":[[[24.98286,60.30236],[24.98265,60.30239]],[[24.98265,60.30239],[24.98251,60.30241],[24.98248,60.30242],[24.98244,60.30242],[24.98241,60.30243],[24.9824,60.30243],[24.98226,60.30244],[24.98223,60.30244],[24.98219,60.30245],[24.98216,60.30245],[24.98212,60.30246],[24.98199,60.30249],[24.98197,60.30249],[24.98174,60.30255],[24.98173,60.30255],[24.98153,60.3026],[24.98121,60.30269],[24.98118,60.3027],[24.9808,60.3028],[24.98079,60.3028],[24.98042,60.30291],[24.98036,60.30293],[24.98035,60.30294],[24.98008,60.30303],[24.97991,60.3031],[24.97989,60.30311],[24.97964,60.30322],[24.97949,60.30329],[24.97948,60.3033],[24.97914,60.30348],[24.9789,60.30362],[24.9789,60.30362],[24.97867,60.30376],[24.97866,60.30377],[24.9784,60.30393]]]},"properties":{"name":"Maantie 138 Ilmakehä ja Maantie 1371 Junkersintie, vesihuollon rakentaminen, Vantaa","kind":"project","ptype":"road","subtype":"Tiehanke","status":"kaynnissa","date":"2024–2025","url":"https://vayla.fi/hankkeet","source":"Väylävirasto"}},{"type":"Feature","geometry":{"type":"MultiLineString","coordinates":[[[24.99372,60.30682],[24.99374,60.30669],[24.99374,60.30668],[24.99375,60.30657]],[[24.99375,60.30657],[24.99375,60.30644],[24.99375,60.30644],[24.99378,60.30621],[24.99378,60.30619],[24.99378,60.30618],[24.99381,60.30602],[24.99383,60.30585],[24.99383,60.3058],[24.99383,60.30579],[24.99382,60.30558],[24.99382,60.30556],[24.99381,60.30545],[24.9938,60.30542],[24.9938,60.3054],[24.99379,60.30536],[24.99377,60.30533],[24.99374,60.30528],[24.9937,60.30523],[24.99369,60.30521],[24.99362,60.30513],[24.99354,60.30505],[24.99353,60.30505],[24.99332,60.30486],[24.99331,60.30485],[24.99322,60.30475],[24.99321,60.30474],[24.99305,60.30459],[24.99304,60.30459],[24.99301,60.30456],[24.99299,60.30454],[24.99298,60.30452],[24.99297,60.30451],[24.99296,60.30449],[24.99295,60.30447],[24.99295,60.30447],[24.99294,60.30445],[24.99294,60.30443],[24.99294,60.30439],[24.99294,60.30438]],[[24.99294,60.30438],[24.99286,60.30439],[24.99283,60.30439],[24.99279,60.30439],[24.99278,60.30439],[24.99275,60.30439],[24.99271,60.30439],[24.99267,60.30439],[24.99264,60.30438],[24.9926,60.30438],[24.99256,60.30437],[24.99253,60.30437],[24.9925,60.30436],[24.99246,60.30435],[24.99237,60.30433],[24.99236,60.30432],[24.99211,60.30425],[24.99208,60.30424],[24.99178,60.30414],[24.99177,60.30414],[24.99162,60.30409],[24.99149,60.30406],[24.99142,60.30404],[24.9914,60.30404],[24.99127,60.30401],[24.99103,60.30397],[24.99102,60.30397],[24.9907,60.30393],[24.99056,60.30391],[24.99056,60.30391],[24.99009,60.30388],[24.98937,60.30384],[24.98935,60.30384],[24.98859,60.3038],[24.98855,60.3038],[24.98823,60.30379],[24.98801,60.30379],[24.98787,60.30378],[24.98779,60.30378],[24.98772,60.30378],[24.98769,60.30378],[24.98766,60.30378],[24.98759,60.30377],[24.98745,60.30375],[24.98742,60.30375]],[[24.98742,60.30375],[24.98709,60.30375]],[[24.98709,60.30375],[24.98695,60.30375],[24.98687,60.30375],[24.98655,60.30373],[24.98608,60.3037],[24.98606,60.3037],[24.98545,60.30365],[24.98543,60.30365],[24.98522,60.30363],[24.98515,60.30362],[24.98508,60.3036],[24.98501,60.30359],[24.98498,60.30359],[24.98492,60.30357],[24.98476,60.30353],[24.98473,60.30352],[24.98449,60.30344],[24.9844,60.30341],[24.98437,60.3034],[24.98426,60.30336],[24.98412,60.3033],[24.98399,60.30324],[24.98384,60.30316],[24.9837,60.30308],[24.98364,60.30303],[24.98363,60.30302],[24.98351,60.30293],[24.98334,60.30279],[24.98333,60.30279],[24.98313,60.30262],[24.98307,60.30255],[24.98306,60.30254],[24.98297,60.30244],[24.98296,60.30243]],[[24.98296,60.30243],[24.9829,60.3024],[24.98288,60.30236]]]},"properties":{"name":"Maantie 138 Ilmakehä ja Maantie 1371 Junkersintie, vesihuollon rakentaminen, Vantaa","kind":"project","ptype":"road","subtype":"Tiehanke","status":"kaynnissa","date":"2024–2025","url":"https://vayla.fi/hankkeet","source":"Väylävirasto"}},{"type":"Feature","geometry":{"type":"MultiLineString","coordinates":[[[24.97608,60.56812],[24.97613,60.5682],[24.97613,60.5682]],[[24.97613,60.5682],[24.97614,60.56821],[24.97637,60.56858],[24.97638,60.56859],[24.9766,60.56899]],[[24.9766,60.56899],[24.97661,60.56899],[24.97663,60.56903],[24.97663,60.56904]]]},"properties":{"name":"Maantien 1403 (Ridasjärventie/Uudenkyläntie) tievalaistuksen saneeraus, Tuusula, Hyvinkää","kind":"project","ptype":"road","subtype":"Tiehanke","status":"kaynnissa","date":"2025–2025","url":"https://vayla.fi/hankkeet","source":"Väylävirasto"}},{"type":"Feature","geometry":{"type":"MultiLineString","coordinates":[[[24.97073,60.55943],[24.97079,60.5595],[24.97079,60.5595]],[[24.97079,60.5595],[24.97092,60.55969],[24.97122,60.56019],[24.97122,60.5602],[24.97151,60.56068],[24.97152,60.56069],[24.97184,60.5612],[24.97185,60.56122]],[[24.97185,60.56122],[24.97211,60.56161],[24.97211,60.56162],[24.97221,60.56178]],[[24.97221,60.56178],[24.97232,60.56196]],[[24.97232,60.56196],[24.97256,60.56239],[24.97257,60.5624],[24.97307,60.56323],[24.97308,60.56324],[24.97347,60.56388],[24.97348,60.56388]],[[24.97348,60.56388],[24.97351,60.56393],[24.97392,60.5646],[24.97392,60.56461],[24.97414,60.56494],[24.97415,60.56495]],[[24.97415,60.56495],[24.97446,60.56545],[24.97502,60.56638],[24.97503,60.56638],[24.97564,60.56744],[24.97565,60.56745],[24.97587,60.56781],[24.97588,60.56782],[24.97608,60.56812]]]},"properties":{"name":"Maantien 1403 (Ridasjärventie/Uudenkyläntie) tievalaistuksen saneeraus, Tuusula, Hyvinkää","kind":"project","ptype":"road","subtype":"Tiehanke","status":"kaynnissa","date":"2025–2025","url":"https://vayla.fi/hankkeet","source":"Väylävirasto"}},{"type":"Feature","geometry":{"type":"MultiLineString","coordinates":[[[24.91423,60.50379],[24.91434,60.50387],[24.91456,60.50406],[24.91457,60.50407],[24.91502,60.5045],[24.91503,60.50451],[24.91545,60.50489],[24.91547,60.5049]],[[24.91547,60.5049],[24.91567,60.50509],[24.91568,60.5051],[24.91598,60.50539],[24.91599,60.5054],[24.9163,60.50569],[24.91631,60.5057],[24.91658,60.50595],[24.91678,60.50615],[24.91679,60.50615],[24.91704,60.50637],[24.91705,60.50638],[24.91727,60.50659],[24.91727,60.5066],[24.91744,60.50675],[24.91745,60.50676],[24.91762,60.50692],[24.91763,60.50693],[24.91769,60.507],[24.91773,60.50707],[24.91776,60.5071],[24.91776,60.50711],[24.91783,60.50725],[24.91784,60.50726],[24.91793,60.50751],[24.91794,60.50753],[24.91802,60.50781],[24.91808,60.508],[24.91814,60.5082],[24.91814,60.5082],[24.91821,60.50851],[24.91821,60.50851],[24.91828,60.50874],[24.91828,60.50876],[24.91837,60.5091],[24.91837,60.50911],[24.91849,60.50948],[24.91849,60.50949]],[[24.91849,60.50949],[24.91856,60.50974],[24.91864,60.51004],[24.91865,60.51006],[24.91867,60.51014]]]},"properties":{"name":"Maantie 1321 (Raalantie) tievalaistuksen rakentaminen, Nurmijärvi","kind":"project","ptype":"road","subtype":"Tiehanke","status":"kaynnissa","date":"2023–2025","url":"https://vayla.fi/hankkeet","source":"Väylävirasto"}},{"type":"Feature","geometry":{"type":"MultiLineString","coordinates":[[[24.39186,60.18169],[24.39187,60.1818],[24.39187,60.18185],[24.39185,60.18205],[24.39185,60.18206],[24.3918,60.18236],[24.39178,60.18254],[24.39178,60.18261],[24.39179,60.18263],[24.39179,60.18263],[24.3918,60.18269],[24.39183,60.18279],[24.39184,60.18283],[24.39184,60.18283],[24.39186,60.18289]],[[24.39186,60.18289],[24.3919,60.18296],[24.39192,60.18299],[24.39192,60.183],[24.39197,60.18307],[24.39202,60.18313],[24.39203,60.18314],[24.39216,60.18329],[24.39216,60.18329],[24.39226,60.18339],[24.39227,60.1834],[24.39244,60.18356],[24.39245,60.18357],[24.39257,60.18368],[24.39258,60.18369],[24.39273,60.18382],[24.39277,60.18385],[24.39297,60.184],[24.39299,60.18401],[24.39312,60.1841],[24.39317,60.18412],[24.39319,60.18414],[24.39331,60.1842],[24.39334,60.18421],[24.39355,60.18431],[24.39357,60.18432]],[[24.39357,60.18432],[24.39373,60.18439],[24.39376,60.1844],[24.39384,60.18443],[24.3939,60.18445],[24.39392,60.18446],[24.39404,60.18449],[24.39408,60.1845],[24.39411,60.18451],[24.39423,60.18454],[24.39425,60.18455],[24.39434,60.18457],[24.39437,60.18458],[24.39456,60.18462],[24.39458,60.18463],[24.39465,60.18465],[24.39487,60.18471],[24.3949,60.18472]],[[24.3949,60.18472],[24.39493,60.18473],[24.39496,60.18474],[24.39496,60.18474],[24.39513,60.18483],[24.39517,60.18486],[24.39519,60.18487],[24.39525,60.18491],[24.39534,60.18499],[24.39536,60.185],[24.39541,60.18505],[24.39544,60.18508],[24.39546,60.1851],[24.39547,60.18512],[24.39548,60.18513],[24.39549,60.18515],[24.3955,60.18517],[24.39552,60.18522],[24.39554,60.18525],[24.39554,60.18526],[24.39558,60.1854],[24.39559,60.18542]],[[24.39559,60.18542],[24.39558,60.18552],[24.39558,60.18556],[24.39558,60.18556],[24.39556,60.18562],[24.39552,60.18574],[24.39552,60.18574],[24.39544,60.18599],[24.39538,60.18624],[24.39538,60.18625],[24.3953,60.18644],[24.3953,60.18645],[24.39523,60.18666],[24.39522,60.18667],[24.39517,60.18683],[24.39517,60.18684],[24.39514,60.18693],[24.39513,60.18694],[24.39511,60.18701],[24.3951,60.18705],[24.3951,60.18706],[24.3951,60.18708],[24.3951,60.1871],[24.3951,60.18711],[24.39511,60.18715],[24.39512,60.18719],[24.39512,60.18719],[24.39513,60.18722],[24.39517,60.18731]],[[24.39517,60.18731],[24.39518,60.18732],[24.39523,60.1874],[24.39524,60.18742],[24.39525,60.18744],[24.39528,60.18747],[24.39529,60.18748],[24.39531,60.1875],[24.39533,60.18752],[24.39535,60.18753],[24.39535,60.18754],[24.39537,60.18755],[24.3954,60.18756],[24.39542,60.18758],[24.39555,60.18764],[24.39556,60.18765],[24.39576,60.18775],[24.39577,60.18775],[24.39595,60.18784],[24.39611,60.18791],[24.39614,60.18792],[24.39661,60.18814],[24.39677,60.18822],[24.39679,60.18823]],[[24.39679,60.18823],[24.39681,60.18824],[24.39682,60.18824]],[[24.39682,60.18824],[24.39708,60.18836],[24.39709,60.18836],[24.39743,60.18852],[24.39745,60.18853],[24.39778,60.18867],[24.3978,60.18867],[24.39855,60.18898],[24.39856,60.18899],[24.39893,60.18914],[24.39894,60.18915],[24.39922,60.18926],[24.39924,60.18927],[24.39955,60.18939],[24.39958,60.1894],[24.39981,60.18949],[24.3999,60.18952],[24.39992,60.18952],[24.40002,60.18955],[24.40014,60.18959],[24.40021,60.1896],[24.40024,60.18961],[24.40034,60.18963],[24.40041,60.18964],[24.40048,60.18965],[24.40051,60.18965],[24.40053,60.18966],[24.4006,60.18966],[24.40068,60.18967],[24.40089,60.18967],[24.40115,60.18968],[24.40122,60.18968],[24.40125,60.18969],[24.40136,60.1897],[24.4015,60.18971],[24.40157,60.18972],[24.40158,60.18972],[24.40176,60.18975],[24.40186,60.18977],[24.40192,60.18978],[24.40194,60.18978],[24.40203,60.18981],[24.40228,60.18988],[24.40229,60.18988],[24.40255,60.18995],[24.40257,60.18996]],[[24.40257,60.18996],[24.40266,60.18999],[24.40268,60.18999],[24.40308,60.19012],[24.40308,60.19012],[24.40349,60.19023],[24.4035,60.19024],[24.4039,60.19036],[24.40414,60.19044],[24.40417,60.19045]],[[24.40417,60.19045],[24.40436,60.19051],[24.40437,60.19051],[24.4048,60.19064],[24.40514,60.19075],[24.40515,60.19075],[24.40536,60.19082],[24.40538,60.19082],[24.4055,60.19086],[24.40552,60.19087],[24.40576,60.19095],[24.40578,60.19096],[24.40608,60.19106],[24.40609,60.19106],[24.40635,60.19116],[24.40636,60.19116],[24.40663,60.19125],[24.40666,60.19126],[24.40679,60.19129],[24.40682,60.1913],[24.40686,60.1913],[24.40689,60.19131],[24.4069,60.19131],[24.40694,60.19132],[24.40697,60.19132],[24.40701,60.19132],[24.40708,60.19133],[24.40715,60.19133],[24.40718,60.19133],[24.4074,60.19133],[24.40747,60.19134],[24.40751,60.19134],[24.40758,60.19135],[24.40768,60.19136],[24.40769,60.19136]],[[24.40769,60.19136],[24.40776,60.19137],[24.40778,60.19137],[24.40781,60.19138],[24.40784,60.19139],[24.40787,60.1914],[24.40791,60.19141],[24.40797,60.19143],[24.40803,60.19145],[24.40805,60.19146],[24.40814,60.19149],[24.40827,60.19155],[24.4083,60.19157],[24.40849,60.19167],[24.4085,60.19167],[24.4087,60.19178],[24.40872,60.19179],[24.40889,60.19188],[24.40891,60.19189],[24.40896,60.19192],[24.40897,60.19192],[24.40912,60.192],[24.4092,60.19203],[24.40921,60.19204],[24.40927,60.19206],[24.40929,60.19207],[24.40943,60.19212],[24.40946,60.19213],[24.40974,60.19221],[24.40975,60.19222],[24.41006,60.19231],[24.41006,60.19231],[24.41035,60.19238],[24.41039,60.19239],[24.41064,60.19245],[24.41065,60.19245],[24.41072,60.19247],[24.41075,60.19248],[24.41079,60.19249]],[[24.41079,60.19249],[24.41105,60.19255],[24.41107,60.19256],[24.41123,60.1926],[24.41132,60.19263],[24.41134,60.19264],[24.4114,60.19266],[24.41146,60.19268],[24.41151,60.1927],[24.41153,60.19271],[24.41155,60.19272],[24.41158,60.19274],[24.41164,60.19278],[24.41167,60.19279],[24.41168,60.19281],[24.4117,60.19282],[24.41172,60.19284],[24.41174,60.19285],[24.41175,60.19287],[24.41176,60.19289],[24.41177,60.1929],[24.41178,60.19292],[24.41178,60.19292],[24.41179,60.19298]],[[24.41179,60.19298],[24.41177,60.19304],[24.41177,60.19305],[24.41176,60.19307],[24.41175,60.19309],[24.41174,60.19311],[24.4117,60.19316],[24.41168,60.19317],[24.41159,60.19327],[24.41156,60.1933],[24.41155,60.19332],[24.41141,60.19344],[24.4114,60.19345],[24.41129,60.19356],[24.41128,60.19358]],[[24.41128,60.19358],[24.41127,60.19358],[24.41125,60.19361],[24.41119,60.19372],[24.41118,60.19373],[24.41111,60.19387],[24.41102,60.19406],[24.41102,60.19407],[24.41091,60.1943],[24.41091,60.19431],[24.4108,60.19453],[24.41079,60.19454],[24.41069,60.19475],[24.41069,60.19475],[24.41063,60.19489],[24.41062,60.19491]],[[24.41062,60.19491],[24.4106,60.19496],[24.41053,60.19511],[24.41053,60.19512],[24.41046,60.1953],[24.41045,60.19531],[24.41041,60.1954],[24.41041,60.1954],[24.41034,60.19553],[24.41033,60.19554],[24.41028,60.19563],[24.41026,60.19566],[24.41025,60.19567],[24.41024,60.19569],[24.41024,60.19569],[24.41023,60.19571],[24.41021,60.19574],[24.41009,60.19587],[24.41007,60.19589],[24.41007,60.19589],[24.41006,60.1959]],[[24.41006,60.1959],[24.41006,60.19591],[24.40994,60.19608],[24.40994,60.19608],[24.40982,60.19627],[24.40981,60.19627],[24.40971,60.19644],[24.4097,60.19646],[24.4097,60.19648],[24.40957,60.19668],[24.40957,60.19669],[24.40945,60.1969],[24.40944,60.19691],[24.40939,60.197]],[[24.40939,60.197],[24.40939,60.197],[24.40934,60.19707],[24.40931,60.1971],[24.40931,60.19711],[24.40929,60.19713],[24.40926,60.19716],[24.40922,60.19719],[24.40911,60.19728],[24.4091,60.19729],[24.40884,60.19748],[24.40882,60.1975],[24.40869,60.19758],[24.40858,60.19765],[24.40856,60.19766],[24.40848,60.1977],[24.40828,60.1978],[24.40826,60.19781],[24.40797,60.19794],[24.40796,60.19795],[24.40788,60.19798],[24.40771,60.19807],[24.40761,60.19813],[24.40748,60.19821],[24.40747,60.19822],[24.40745,60.19823],[24.40733,60.19832],[24.40732,60.19833],[24.40712,60.1985],[24.40711,60.1985],[24.40709,60.19852],[24.40689,60.19867],[24.40689,60.19867],[24.40659,60.19888],[24.40658,60.19888],[24.40649,60.19894],[24.40639,60.199],[24.40638,60.19901],[24.40634,60.19904],[24.40633,60.19904],[24.40609,60.19918],[24.40602,60.19922]],[[24.40602,60.19922],[24.40581,60.19934],[24.4058,60.19935],[24.40553,60.19952],[24.40553,60.19952],[24.40547,60.19957],[24.40541,60.19961],[24.40537,60.19964],[24.40534,60.19967],[24.40534,60.19968],[24.40532,60.1997],[24.4053,60.19973],[24.40527,60.19976],[24.40524,60.19982],[24.40521,60.19988],[24.40521,60.19989],[24.40519,60.19993],[24.40517,60.2],[24.40516,60.20005],[24.40516,60.20011],[24.40516,60.20012],[24.40516,60.20015],[24.40518,60.20031],[24.40518,60.20032],[24.40519,60.20048]],[[24.40519,60.20048],[24.40519,60.20049],[24.40518,60.20051],[24.40518,60.20051],[24.40518,60.20053],[24.40517,60.20058],[24.40512,60.20071],[24.40511,60.20071],[24.40511,60.20073],[24.40505,60.20091]],[[24.40505,60.20091],[24.40504,60.20092],[24.40504,60.20093],[24.40503,60.20096],[24.40502,60.20102],[24.40501,60.20107],[24.405,60.20113],[24.405,60.20113],[24.405,60.20115],[24.40501,60.2012],[24.40503,60.20131],[24.40503,60.20132],[24.40507,60.20149],[24.40508,60.20151],[24.40514,60.2017],[24.40514,60.20171],[24.40529,60.20216],[24.40536,60.20237],[24.40537,60.20238],[24.40538,60.20245],[24.4054,60.20254],[24.4054,60.20259],[24.4054,60.2026],[24.4054,60.20262],[24.40539,60.20275],[24.40539,60.20276],[24.40537,60.20289],[24.40537,60.2029],[24.40536,60.20295]]]},"properties":{"name":"Maantien 11255 (Juusjärventie, Volsintie) parantaminen rakentamalla tievalaistus, Kirkkonummi","kind":"project","ptype":"road","subtype":"Tiehanke","status":"kaynnissa","date":"2023–2024","url":"https://vayla.fi/hankkeet","source":"Väylävirasto"}},{"type":"Feature","geometry":{"type":"LineString","coordinates":[[25.45537,60.30564],[25.45538,60.30564]]},"properties":{"name":"Maantie 11746 Kilpilahden läntinen tie (Kilpilahdentie) Nesteen huoltokatkon aikaiset liikennejärjestelyt sekä tilapäisen liittymän rakentaminen, Porvoo","kind":"project","ptype":"road","subtype":"Tiehanke","status":"kaynnissa","date":"2024–2024","url":"https://vayla.fi/hankkeet","source":"Väylävirasto"}},{"type":"Feature","geometry":{"type":"MultiLineString","coordinates":[[[24.89787,60.20793],[24.89856,60.20789],[24.89857,60.20789],[24.89884,60.20788]],[[24.89884,60.20788],[24.89889,60.20788]]]},"properties":{"name":"Maantie 100 Hakamäentie (Hakamäentie) sähkökaapeleiden siirrot, Helsinki","kind":"project","ptype":"road","subtype":"Tiehanke","status":"kaynnissa","date":"2024–2025","url":"https://vayla.fi/hankkeet","source":"Väylävirasto"}},{"type":"Feature","geometry":{"type":"MultiLineString","coordinates":[[[24.90136,60.20796],[24.9015,60.20796]],[[24.9015,60.20796],[24.90163,60.20796]]]},"properties":{"name":"Maantie 100 Hakamäentie (Hakamäentie) sähkökaapeleiden siirrot, Helsinki","kind":"project","ptype":"road","subtype":"Tiehanke","status":"kaynnissa","date":"2024–2025","url":"https://vayla.fi/hankkeet","source":"Väylävirasto"}},{"type":"Feature","geometry":{"type":"MultiLineString","coordinates":[[[24.89806,60.20777],[24.89807,60.20777],[24.89811,60.20777],[24.89812,60.20777]],[[24.89812,60.20777],[24.89818,60.20777],[24.89829,60.20777],[24.89847,60.20776],[24.89851,60.20776],[24.89858,60.20775],[24.89869,60.20775],[24.89869,60.20775]],[[24.89869,60.20775],[24.89884,60.20776],[24.89909,60.20776],[24.89911,60.20776],[24.89933,60.20776],[24.89958,60.20776],[24.89961,60.20776]],[[24.89961,60.20776],[24.89961,60.20778],[24.89961,60.2078],[24.89962,60.2078],[24.89964,60.20781],[24.89968,60.20782],[24.89971,60.20782],[24.89975,60.20782],[24.89979,60.20782],[24.89997,60.20782],[24.9,60.20782],[24.9004,60.20782],[24.90043,60.20782],[24.90079,60.20781],[24.90086,60.20782],[24.90088,60.20782],[24.90106,60.20782],[24.9011,60.20782],[24.90113,60.20782],[24.9012,60.20782],[24.90124,60.20782],[24.90127,60.20782],[24.9013,60.20783],[24.90133,60.20784],[24.90137,60.20785],[24.9014,60.20786],[24.90148,60.20788]]]},"properties":{"name":"Maantie 100 Hakamäentie (Hakamäentie) sähkökaapeleiden siirrot, Helsinki","kind":"project","ptype":"road","subtype":"Tiehanke","status":"kaynnissa","date":"2024–2025","url":"https://vayla.fi/hankkeet","source":"Väylävirasto"}},{"type":"Feature","geometry":{"type":"LineString","coordinates":[[24.89909,60.20776],[24.89911,60.20776],[24.89911,60.20776]]},"properties":{"name":"Maantie 100 Hakamäentie (Hakamäentie) sähkökaapeleiden siirrot, Helsinki","kind":"project","ptype":"road","subtype":"Tiehanke","status":"kaynnissa","date":"2024–2025","url":"https://vayla.fi/hankkeet","source":"Väylävirasto"}},{"type":"Feature","geometry":{"type":"LineString","coordinates":[[24.97409,60.30604],[24.97408,60.30605]]},"properties":{"name":"Maantie 138 Ilmakehä vesihuollon saneeraus, Vantaa","kind":"project","ptype":"road","subtype":"Tiehanke","status":"kaynnissa","date":"2024–2025","url":"https://vayla.fi/hankkeet","source":"Väylävirasto"}},{"type":"Feature","geometry":{"type":"MultiLineString","coordinates":[[[24.97389,60.30585],[24.97387,60.30585]],[[24.97395,60.30595],[24.97395,60.30596],[24.97394,60.30596]]]},"properties":{"name":"Maantie 138 Ilmakehä vesihuollon saneeraus, Vantaa","kind":"project","ptype":"road","subtype":"Tiehanke","status":"kaynnissa","date":"2024–2025","url":"https://vayla.fi/hankkeet","source":"Väylävirasto"}},{"type":"Feature","geometry":{"type":"LineString","coordinates":[[24.97258,60.30595],[24.97257,60.30595]]},"properties":{"name":"Maantie 138 Ilmakehä vesihuollon saneeraus, Vantaa","kind":"project","ptype":"road","subtype":"Tiehanke","status":"kaynnissa","date":"2024–2025","url":"https://vayla.fi/hankkeet","source":"Väylävirasto"}},{"type":"Feature","geometry":{"type":"MultiLineString","coordinates":[[[24.80395,60.4676],[24.80367,60.46785],[24.80366,60.46786],[24.80337,60.46811],[24.80331,60.46817],[24.8033,60.46819],[24.80319,60.46831]],[[24.80319,60.46831],[24.80315,60.46835],[24.80306,60.46847],[24.80305,60.46847],[24.80296,60.46859],[24.80295,60.46861]],[[24.80295,60.46861],[24.80285,60.46874],[24.80261,60.46902],[24.80261,60.46903],[24.80236,60.46935],[24.80235,60.46937]],[[24.80235,60.46937],[24.80234,60.46938],[24.80234,60.4694],[24.80225,60.46955],[24.80217,60.46967],[24.80205,60.46986],[24.80201,60.46995],[24.80201,60.46996],[24.8019,60.47024],[24.8019,60.47025],[24.80184,60.47041],[24.80183,60.47043],[24.80183,60.47044],[24.80181,60.47051],[24.8018,60.47065]],[[24.8018,60.47065],[24.8018,60.47067],[24.8018,60.47069],[24.8018,60.47081],[24.8018,60.47082],[24.80179,60.47098],[24.80179,60.47099],[24.80182,60.47129],[24.80182,60.47131]],[[24.80182,60.47131],[24.80184,60.47138],[24.80188,60.47156],[24.80188,60.47157],[24.80196,60.47179]],[[24.80196,60.47179],[24.80198,60.47183],[24.80198,60.47184],[24.80218,60.47244],[24.80218,60.47245],[24.80226,60.47268],[24.80226,60.47268],[24.80234,60.47297],[24.80234,60.47297],[24.80239,60.47337],[24.80239,60.47337],[24.8024,60.47368],[24.8024,60.47369],[24.80238,60.47396],[24.80237,60.47397],[24.80231,60.47433],[24.8023,60.47435],[24.80226,60.47453]],[[24.80226,60.47453],[24.80223,60.47466],[24.80223,60.47467],[24.80212,60.47494],[24.80209,60.47501],[24.80208,60.47502],[24.80197,60.47524],[24.80197,60.47525],[24.80185,60.47545],[24.80184,60.47547],[24.80171,60.47568],[24.80155,60.4759],[24.80154,60.4759],[24.80129,60.4762],[24.80128,60.47621],[24.80118,60.47632]]]},"properties":{"name":"Maantie 1311 (Rajamäentie) valaistuksen parantaminen, Nurmijärvi","kind":"project","ptype":"road","subtype":"Tiehanke","status":"kaynnissa","date":"2023–2025","url":"https://vayla.fi/hankkeet","source":"Väylävirasto"}},{"type":"Feature","geometry":{"type":"LineString","coordinates":[[25.12785,60.40711],[25.12785,60.40712]]},"properties":{"name":"Maantie 140 (Lahdentie) Pohjois-Ahjon risteyssillan (U-599) uusiminen, Kerava","kind":"project","ptype":"road","subtype":"Tiehanke","status":"kaynnissa","date":"2024–2026","url":"https://vayla.fi/hankkeet","source":"Väylävirasto"}},{"type":"Feature","geometry":{"type":"MultiLineString","coordinates":[[[24.86194,60.44766],[24.86181,60.44783],[24.8618,60.44784],[24.86163,60.44812],[24.86163,60.44813],[24.86139,60.44847],[24.86138,60.44848],[24.86128,60.44862],[24.86122,60.44868],[24.8612,60.4487],[24.86103,60.44885],[24.86102,60.44886],[24.86084,60.44903],[24.86083,60.44904],[24.8606,60.44924]],[[24.8606,60.44924],[24.8604,60.44941],[24.86021,60.44959],[24.8602,60.4496],[24.85998,60.4498],[24.85996,60.44982],[24.8597,60.45005],[24.85969,60.45006],[24.85945,60.45026]],[[24.85945,60.45026],[24.85925,60.45041],[24.85925,60.45041],[24.85902,60.45058],[24.85901,60.45058],[24.85877,60.45074],[24.85875,60.45076],[24.85875,60.45076],[24.85851,60.4509],[24.85849,60.4509]],[[24.85849,60.4509],[24.85824,60.45106],[24.85823,60.45106],[24.85801,60.45121],[24.858,60.45121],[24.8579,60.45128],[24.85786,60.45131],[24.85784,60.45133],[24.85779,60.45138],[24.85771,60.45146],[24.8577,60.45147],[24.85763,60.45155],[24.85759,60.4516],[24.85759,60.45161],[24.85756,60.45166],[24.85754,60.45172],[24.85753,60.45173],[24.8575,60.45182],[24.85748,60.45188],[24.85747,60.45193],[24.85747,60.45209]],[[24.85747,60.45209],[24.85746,60.45224],[24.85746,60.45224],[24.85745,60.45242],[24.85745,60.45243],[24.85745,60.45268],[24.85745,60.45268],[24.85746,60.45286],[24.85747,60.45292],[24.85747,60.45293],[24.8575,60.45305],[24.8575,60.45307],[24.85757,60.45327],[24.85758,60.45328],[24.85764,60.45343],[24.85764,60.45344]],[[24.85764,60.45344],[24.85763,60.45365],[24.85762,60.45369],[24.85762,60.4537],[24.85759,60.45384],[24.85753,60.45402],[24.85753,60.45402],[24.85746,60.45424],[24.85745,60.45425]],[[24.85745,60.45425],[24.85737,60.45453],[24.85737,60.45454],[24.85731,60.45475],[24.85731,60.45476],[24.85728,60.45492],[24.85727,60.45495],[24.85727,60.45497],[24.85727,60.45513]]]},"properties":{"name":"Maantie 11473 (Kylmänojantie) valaistuksen rakentaminen, Nurmijärvi","kind":"project","ptype":"road","subtype":"Tiehanke","status":"kaynnissa","date":"2025–2025","url":"https://vayla.fi/hankkeet","source":"Väylävirasto"}},{"type":"Feature","geometry":{"type":"MultiLineString","coordinates":[[[24.83367,60.2506],[24.83367,60.2506],[24.83365,60.25062],[24.83363,60.25063],[24.83361,60.25065],[24.83359,60.25067],[24.83358,60.25068],[24.83357,60.25069],[24.83355,60.25072],[24.83354,60.25074],[24.83353,60.25075],[24.83351,60.25076],[24.83349,60.25078],[24.83347,60.25079],[24.83344,60.2508],[24.83334,60.25085],[24.83333,60.25086],[24.83328,60.25088],[24.83314,60.25096],[24.83297,60.25106],[24.83297,60.25106],[24.83277,60.25117],[24.83277,60.25117],[24.83248,60.25133],[24.83246,60.25134],[24.83221,60.25147],[24.83181,60.25168],[24.83179,60.25169],[24.83126,60.25196],[24.83125,60.25197],[24.83101,60.2521]],[[24.83101,60.2521],[24.83091,60.25214]]]},"properties":{"name":"Mt 120 Vihdintie kaukolämpölinjan rakentaminen jalankulku- ja pyöräilyväylän rakenteisiin, Helsinki, Espoo","kind":"project","ptype":"road","subtype":"Tiehanke","status":"kaynnissa","date":"2025–2025","url":"https://vayla.fi/hankkeet","source":"Väylävirasto"}},{"type":"Feature","geometry":{"type":"MultiLineString","coordinates":[[[25.12702,60.40422],[25.12698,60.40462],[25.12698,60.40463],[25.12688,60.4056],[25.12688,60.4056],[25.1268,60.40619]],[[25.1268,60.40619],[25.1267,60.407]],[[25.1267,60.407],[25.12665,60.4073]],[[25.12665,60.4073],[25.12664,60.40734],[25.12636,60.40886],[25.12636,60.40887],[25.12604,60.41033],[25.12603,60.41034],[25.1257,60.41172],[25.1257,60.41172],[25.12542,60.41281],[25.12542,60.41282],[25.12494,60.41434],[25.12494,60.41436],[25.12425,60.41645],[25.12424,60.41646],[25.12415,60.41676]],[[25.12415,60.41676],[25.12405,60.41706]],[[25.12405,60.41706],[25.12366,60.41848],[25.12365,60.41849],[25.12333,60.42023],[25.12333,60.42024],[25.12319,60.42185],[25.12319,60.42209],[25.12319,60.42209],[25.12322,60.42254]],[[25.12753,60.40406],[25.12749,60.40441],[25.12749,60.40441],[25.1274,60.40522],[25.1274,60.40522],[25.12732,60.40617],[25.12731,60.40619],[25.12724,60.40669],[25.12723,60.4067],[25.12719,60.40697],[25.12719,60.40698]],[[25.12719,60.40698],[25.12713,60.40728]],[[25.12713,60.40728],[25.12693,60.40836],[25.12642,60.41081],[25.12642,60.41081],[25.12575,60.41333],[25.12508,60.41542],[25.12508,60.41543],[25.12459,60.41687],[25.12459,60.41687]],[[25.12459,60.41687],[25.1245,60.41716]],[[25.1245,60.41716],[25.12443,60.41737],[25.12443,60.41738],[25.124,60.41916],[25.12399,60.41917],[25.12377,60.42052],[25.12377,60.42052],[25.1237,60.42209],[25.1237,60.4221],[25.12371,60.42238]]]},"properties":{"name":"Valtatie 4 (Keravanväylä) melunsuojauksen rakentaminen, vaihe 1, Kerava","kind":"project","ptype":"road","subtype":"Tiehanke","status":"kaynnissa","date":"2022–2026","url":"https://vayla.fi/hankkeet","source":"Väylävirasto"}},{"type":"Feature","geometry":{"type":"MultiLineString","coordinates":[[[24.69287,60.23606],[24.69298,60.23616],[24.69298,60.23616],[24.69335,60.23647],[24.69336,60.23647],[24.69369,60.23677],[24.6937,60.23678],[24.69392,60.23699],[24.69399,60.23707],[24.69401,60.23709],[24.69402,60.2371],[24.69413,60.23725],[24.69415,60.23727],[24.69416,60.23728],[24.69424,60.23736],[24.69425,60.23737]],[[24.69425,60.23737],[24.69428,60.2374]]]},"properties":{"name":"Kantatie 50 (Kehä III) kaukolämpölinjan rakentaminen jalankulku- ja pyöräilyväylän rakenteisiin, Espoo","kind":"project","ptype":"road","subtype":"Tiehanke","status":"kaynnissa","date":"2025–2025","url":"https://vayla.fi/hankkeet","source":"Väylävirasto"}},{"type":"Feature","geometry":{"type":"MultiLineString","coordinates":[[[24.74938,60.52803],[24.74935,60.52806],[24.74934,60.52807],[24.74913,60.52834],[24.74908,60.52841],[24.74907,60.52842],[24.74899,60.52854]],[[24.74899,60.52854],[24.74899,60.52854],[24.74882,60.52878],[24.7486,60.52918],[24.74843,60.52955],[24.74842,60.52955],[24.74831,60.52984],[24.74831,60.52984],[24.7482,60.53016],[24.7482,60.53017],[24.7481,60.53051],[24.74784,60.53169],[24.74784,60.5317],[24.74773,60.53216],[24.74773,60.53217],[24.74764,60.53247],[24.74763,60.53247],[24.74759,60.5326],[24.74744,60.53297],[24.74743,60.53298],[24.74729,60.53326],[24.74728,60.53327],[24.74716,60.5335],[24.74715,60.53351],[24.74696,60.53378],[24.74684,60.53395],[24.74683,60.53397],[24.74672,60.5341],[24.74671,60.53411]],[[24.74671,60.53411],[24.74657,60.53429]],[[24.74657,60.53429],[24.74653,60.53434],[24.74641,60.53451],[24.74641,60.53452]],[[24.74641,60.53452],[24.74631,60.53464],[24.7463,60.53464],[24.74615,60.53483],[24.74614,60.53484],[24.74595,60.53509],[24.74594,60.53509],[24.74572,60.53536],[24.74571,60.53537],[24.74546,60.53571],[24.74546,60.53571],[24.74545,60.53572]],[[24.74545,60.53572],[24.74528,60.53597],[24.74493,60.53657],[24.74492,60.53658],[24.74479,60.5368],[24.74477,60.53684],[24.74477,60.53685],[24.74467,60.53713],[24.74466,60.53714],[24.74455,60.53747],[24.74454,60.53748],[24.74446,60.53773],[24.74445,60.53777],[24.74445,60.53778],[24.74445,60.5378]],[[24.74445,60.5378],[24.74441,60.53791]],[[24.74441,60.53791],[24.74433,60.53831],[24.74433,60.53832],[24.74425,60.53875],[24.74425,60.53876]],[[24.74425,60.53876],[24.74423,60.53901],[24.74422,60.5393],[24.74424,60.53977],[24.74424,60.53978],[24.74429,60.5408],[24.74431,60.54123],[24.74431,60.54125],[24.74432,60.5417],[24.74432,60.54171],[24.7443,60.54196],[24.7443,60.54197],[24.74426,60.54229],[24.74424,60.54234],[24.74424,60.54236],[24.74415,60.54268],[24.74414,60.54269],[24.74401,60.54303],[24.74401,60.54303],[24.74391,60.54324],[24.74391,60.54326],[24.74381,60.54346]],[[24.74381,60.54346],[24.7438,60.54348],[24.74379,60.5435],[24.74378,60.54351],[24.74377,60.54353],[24.74367,60.54368],[24.74367,60.54369],[24.74355,60.54384],[24.74355,60.54385]],[[24.74355,60.54385],[24.74331,60.54411],[24.7433,60.54412],[24.74316,60.54429],[24.74315,60.54429],[24.74292,60.54452],[24.74292,60.54452],[24.74269,60.54476],[24.74267,60.54478],[24.7424,60.54505],[24.74239,60.54506],[24.74212,60.54532]]]},"properties":{"name":"Maantie 1311 Rajamäentie valaistuksen parantaminen välillä Kiljavantie - Hangonväylä, Nurmijärvi","kind":"project","ptype":"road","subtype":"Tiehanke","status":"kaynnissa","date":"2023–2025","url":"https://vayla.fi/hankkeet","source":"Väylävirasto"}},{"type":"Feature","geometry":{"type":"LineString","coordinates":[[24.41238,60.38179],[24.41257,60.38192],[24.41258,60.38193],[24.41312,60.38233],[24.41314,60.38235],[24.41384,60.38289],[24.41444,60.38334],[24.41444,60.38335],[24.41495,60.38372]]},"properties":{"name":"Valtatien 25 (Kehätie) parantaminen Ukintien liittymän kohdalla, Vihti","kind":"project","ptype":"road","subtype":"Tiehanke","status":"kaynnissa","date":"2026–2026","url":"https://vayla.fi/hankkeet","source":"Väylävirasto"}},{"type":"Feature","geometry":{"type":"MultiLineString","coordinates":[[[25.11057,60.35294],[25.11058,60.35295]],[[25.11105,60.35293],[25.11105,60.35294]]]},"properties":{"name":"Valtatie 4 (Lahdenväylä) Naalitien risteyssillan (U-1598) peruskorjaus, Vantaa","kind":"project","ptype":"road","subtype":"Tiehanke","status":"kaynnissa","date":"2024–2025","url":"https://vayla.fi/hankkeet","source":"Väylävirasto"}},{"type":"Feature","geometry":{"type":"Polygon","coordinates":[[[25.11051,60.42318],[25.11098,60.42321],[25.09894,60.46693],[25.09824,60.46684],[25.11051,60.42318]]]},"properties":{"name":"HERI2 Kytömaa-Ainola, rakentaminen","kind":"project","ptype":"road","subtype":"Tiehanke","status":"kaynnissa","date":"2021–2030","url":"https://vayla.fi/pasila-riihimaki","source":"Väylävirasto"}},{"type":"Feature","geometry":{"type":"LineString","coordinates":[[24.87871,60.22236],[24.87874,60.2219],[24.8807,60.22173],[24.88063,60.22231],[24.87872,60.22236]]},"properties":{"name":"Infraohjelma Helsinki, Länsiratikat","kind":"project","ptype":"road","subtype":"Tiehanke","status":"kaynnissa","date":"2026–2028","url":"https://vayla.fi/hankkeet","source":"Väylävirasto"}},{"type":"Feature","geometry":{"type":"LineString","coordinates":[[25.04773,60.50307],[25.04107,60.51037],[25.03683,60.515],[25.03184,60.52041],[25.03049,60.52185],[25.02922,60.52301],[25.02798,60.52401],[25.02718,60.52462],[25.02542,60.52584],[25.02297,60.52732],[25.01948,60.52914],[25.01632,60.53067],[25.01185,60.53283],[25.00702,60.53518],[25.00242,60.53742],[24.99848,60.53934],[24.99355,60.54174],[24.98897,60.54395],[24.98443,60.54617],[24.98171,60.54748],[24.9757,60.55046],[24.96867,60.55387],[24.96165,60.5573],[24.95585,60.5601],[24.951,60.56245],[24.94569,60.56503]]},"properties":{"name":"HERI2 Purola-Jokela, rakentaminen","kind":"project","ptype":"road","subtype":"Tiehanke","status":"kaynnissa","date":"2021–2030","url":"https://vayla.fi/pasila-riihimaki","source":"Väylävirasto"}},{"type":"Feature","geometry":{"type":"Polygon","coordinates":[[[25.04664,60.50279],[25.04837,60.50323],[25.02923,60.52324],[25.02587,60.52571],[25.02071,60.52869],[24.9458,60.56505],[24.94559,60.56501],[25.02036,60.5286],[25.02555,60.52558],[25.02907,60.52295],[25.04664,60.50279]]]},"properties":{"name":"HERI2 Purola-Jokela, rakentaminen","kind":"project","ptype":"road","subtype":"Tiehanke","status":"kaynnissa","date":"2021–2030","url":"https://vayla.fi/pasila-riihimaki","source":"Väylävirasto"}},{"type":"Feature","geometry":{"type":"Point","coordinates":[24.23685,60.12374]},"properties":{"name":"Mt 115 kevyenliikenteen väylä välille Degerbyntie - Sudenkaari, Siuntio KU","kind":"project","ptype":"road","subtype":"Tiehanke","status":"kaynnissa","date":null,"url":"https://vayla.fi/hankkeet","source":"Väylävirasto"}},{"type":"Feature","geometry":{"type":"LineString","coordinates":[[25.04431,60.29232],[25.04601,60.29585],[25.04364,60.29074],[25.04433,60.29237]]},"properties":{"name":"HERI1 Tikkurila","kind":"project","ptype":"rail","subtype":"Ratahanke","status":"kaynnissa","date":"2022–2024","url":"https://vayla.fi/hankkeet","source":"Väylävirasto"}},{"type":"Feature","geometry":{"type":"Point","coordinates":[24.89935,60.60651]},"properties":{"name":"Pikkusuon syöttöaseman uudistaminen, ST","kind":"project","ptype":"rail","subtype":"Ratahanke","status":"kaynnissa","date":"2024–2026","url":"https://vayla.fi/hankkeet","source":"Väylävirasto"}},{"type":"Feature","geometry":{"type":"LineString","coordinates":[[24.81561,60.2192],[24.81127,60.21955],[24.80666,60.21945],[24.79547,60.21929],[24.77632,60.21723],[24.7715,60.21715],[24.76015,60.21705],[24.75818,60.21693],[24.75401,60.21607],[24.74665,60.21381],[24.74102,60.21284],[24.72531,60.21138],[24.7212,60.21075],[24.71693,60.20942],[24.7127,60.20758],[24.71035,60.20697],[24.70735,60.20667],[24.69923,60.20716],[24.69695,60.20735],[24.69303,60.20705],[24.68788,60.20631],[24.68355,60.20596],[24.68022,60.20616],[24.67698,60.20691],[24.67249,60.20765],[24.66839,60.20749],[24.65917,60.20566],[24.63675,60.20136],[24.63073,60.20063],[24.62714,60.19985],[24.62143,60.19758],[24.60028,60.18935]]},"properties":{"name":"Espoon kaupunkirata","kind":"project","ptype":"rail","subtype":"Ratahanke","status":"kaynnissa","date":"2020–2030","url":"https://vayla.fi/hankkeet","source":"Väylävirasto"}},{"type":"Feature","geometry":{"type":"Polygon","coordinates":[[[25.11142,60.41884],[25.11173,60.41882],[25.11177,60.41769],[25.11108,60.41773],[25.11142,60.41884]]]},"properties":{"name":"Helsinki-Tampere -rataosan peruskorjaus, rakentaminen","kind":"project","ptype":"rail","subtype":"Ratahanke","status":"kaynnissa","date":"2021–2032","url":"https://vayla.fi/hankkeet","source":"Väylävirasto"}},{"type":"Feature","geometry":{"type":"Polygon","coordinates":[[[25.11031,60.42315],[25.11115,60.4232],[25.09906,60.46693],[25.09822,60.46685],[25.11031,60.42315]]]},"properties":{"name":"HERI2 Muu aluerajaus, rakentaminen","kind":"project","ptype":"rail","subtype":"Ratahanke","status":"kaynnissa","date":"2022–2030","url":"https://vayla.fi/hankkeet","source":"Väylävirasto"}},{"type":"Feature","geometry":{"type":"Polygon","coordinates":[[[24.84044,60.64884],[24.84094,60.64886],[24.83711,60.6761],[24.8357,60.67951],[24.83441,60.6817],[24.83198,60.68456],[24.81782,60.69829],[24.81727,60.69818],[24.83143,60.68437],[24.83387,60.68161],[24.83517,60.67965],[24.83666,60.67607],[24.84044,60.64884]]]},"properties":{"name":"HERI2 Muu aluerajaus, rakentaminen","kind":"project","ptype":"rail","subtype":"Ratahanke","status":"kaynnissa","date":"2022–2030","url":"https://vayla.fi/hankkeet","source":"Väylävirasto"}},{"type":"Feature","geometry":{"type":"Polygon","coordinates":[[[25.0468,60.50279],[25.04855,60.50324],[25.03942,60.51279],[25.02968,60.52297],[25.02581,60.52592],[24.94592,60.56508],[24.94547,60.56495],[25.0253,60.52569],[25.0292,60.52281],[25.0468,60.50279]]]},"properties":{"name":"HERI2 Muu aluerajaus, rakentaminen","kind":"project","ptype":"rail","subtype":"Ratahanke","status":"kaynnissa","date":"2022–2030","url":"https://vayla.fi/hankkeet","source":"Väylävirasto"}},{"type":"Feature","geometry":{"type":"Point","coordinates":[24.90127,60.60511]},"properties":{"name":"Pikkusuon syöttöaseman uudistaminen","kind":"project","ptype":"rail","subtype":"Ratahanke","status":"kaynnissa","date":"2024–2026","url":"https://vayla.fi/hankkeet","source":"Väylävirasto"}},{"type":"Feature","geometry":{"type":"LineString","coordinates":[[24.42948,60.11988],[24.41974,60.11988],[24.41298,60.1194],[24.40399,60.11854],[24.39736,60.11791],[24.39478,60.11749],[24.39131,60.11633],[24.38754,60.11501]]},"properties":{"name":"Rantaradan parantaminen Jeppaksen alueella","kind":"project","ptype":"rail","subtype":"Ratahanke","status":"kaynnissa","date":"2020–2025","url":"https://vayla.fi/hankkeet","source":"Väylävirasto"}},{"type":"Feature","geometry":{"type":"Point","coordinates":[24.44287,60.11947]},"properties":{"name":"Kirkkonummentien ylikulkusillan rakentaminen","kind":"project","ptype":"rail","subtype":"Ratahanke","status":"kaynnissa","date":"2022–2024","url":"https://vayla.fi/hankkeet","source":"Väylävirasto"}},{"type":"Feature","geometry":{"type":"LineString","coordinates":[[24.82588,60.21877],[24.81345,60.21953],[24.79581,60.2193],[24.78173,60.21772],[24.77145,60.21717],[24.75896,60.21708],[24.75019,60.2152],[24.74336,60.21329],[24.72889,60.21189],[24.72086,60.21053],[24.71343,60.20803],[24.70902,60.20667],[24.70605,60.20662],[24.69521,60.2074],[24.68909,60.20646],[24.68448,60.20606],[24.68074,60.206],[24.67341,60.2076],[24.67146,60.20782],[24.65254,60.20447],[24.63007,60.20055],[24.61929,60.19653],[24.59025,60.1859],[24.58018,60.18495],[24.57043,60.1837],[24.55411,60.1759],[24.54343,60.16668],[24.53666,60.15461],[24.51892,60.14142],[24.51065,60.13713],[24.50349,60.1344],[24.49395,60.1307],[24.48593,60.1232],[24.47643,60.11919],[24.46254,60.11632],[24.45482,60.11694],[24.43774,60.11967],[24.41533,60.11985],[24.39496,60.11761],[24.37108,60.10933],[24.36049,60.10759],[24.34978,60.10722],[24.34121,60.10705],[24.32992,60.11019],[24.31759,60.11851],[24.30865,60.12277],[24.27506,60.13571],[24.26163,60.13849],[24.23097,60.14168],[24.20327,60.13896],[24.16686,60.13405],[24.12351,60.12087],[24.11459,60.11409],[24.07329,60.10246],[24.06111,60.10158],[24.03928,60.0988],[24.03061,60.09631],[24.00688,60.08077],[23.97605,60.0695],[23.96167,60.06596],[23.94767,60.06165],[23.94193,60.06076],[23.93079,60.06203],[23.92424,60.06326],[23.91021,60.06262],[23.88133,60.06684],[23.8604,60.06788],[23.82908,60.06866],[23.80103,60.07044],[23.78446,60.07386],[23.76448,60.08072],[23.75678,60.08115],[23.74913,60.08096],[23.72944,60.07864],[23.70593,60.07775],[23.7,60.07576],[23.69019,60.0697],[23.68411,60.06924],[23.66921,60.07116],[23.64765,60.06326],[23.63362,60.0626],[23.61927,60.06514],[23.58786,60.07858],[23.54227,60.10419],[23.49969,60.11226],[23.4874,60.1153],[23.4656,60.11549],[23.41661,60.12581],[23.39055,60.1395],[23.31616,60.15383],[23.27023,60.1769],[23.2592,60.18731],[23.20346,60.21191],[23.19069,60.21583],[23.18662,60.21909],[23.18356,60.2216],[23.18295,60.22679],[23.15897,60.25015],[23.12175,60.27817],[23.11591,60.28581],[23.11403,60.29387],[23.10718,60.3073],[23.10595,60.31508],[23.09652,60.32675],[23.09688,60.33151],[23.1047,60.33848],[23.11555,60.34599],[23.1203,60.37355],[23.12455,60.37949],[23.12522,60.38166],[23.12172,60.38508],[23.11125,60.38983],[23.09626,60.39352],[23.07931,60.39547],[23.05978,60.3957],[23.04488,60.39862],[23.03718,60.40084],[23.02735,60.4027],[23.0218,60.40253],[23.01193,60.40223],[22.92033,60.41661],[22.88571,60.41356],[22.87724,60.41437],[22.80274,60.42521],[22.78894,60.42646],[22.77435,60.42906],[22.76621,60.43202],[22.76007,60.43397],[22.7315,60.43673],[22.72663,60.43841],[22.71217,60.44929],[22.69714,60.45738],[22.69196,60.45905],[22.68543,60.45915],[22.67299,60.45936],[22.63846,60.46237],[22.63321,60.46219],[22.62866,60.46143]]},"properties":{"name":"Helsinki-Turku, peruskorjaus","kind":"project","ptype":"rail","subtype":"Ratahanke","status":"kaynnissa","date":"2019–2024","url":"https://vayla.fi/hankkeet","source":"Väylävirasto"}},{"type":"Feature","geometry":{"type":"LineString","coordinates":[[23.71574,60.07833],[23.73223,60.08393],[23.74428,60.08875],[23.75137,60.09518],[23.7578,60.10026],[23.7723,60.10461],[23.79091,60.11065],[23.80341,60.11921],[23.81079,60.12564],[23.82066,60.12841],[23.83673,60.13052],[23.84621,60.13181],[23.85855,60.13663],[23.88955,60.14748],[23.89781,60.15047],[23.90916,60.15752],[23.91837,60.15893],[23.92783,60.16061],[23.94244,60.16428],[23.957,60.1714]]},"properties":{"name":"Hyvinkää-Hanko sähköistys ja tasoristeyksien turvallisuuden parantaminen","kind":"project","ptype":"rail","subtype":"Ratahanke","status":"kaynnissa","date":"2020–2024","url":"https://vayla.fi/hyvinkaa-hanko","source":"Väylävirasto"}},{"type":"Feature","geometry":{"type":"LineString","coordinates":[[23.95724,60.17167],[23.96557,60.17692],[23.97799,60.18133],[23.98423,60.1832],[23.99221,60.18937],[23.99904,60.19365],[24.0063,60.19901],[24.01517,60.20733],[24.02217,60.21267],[24.0302,60.21551],[24.0468,60.22134],[24.05472,60.22551],[24.08833,60.24768],[24.11256,60.26431],[24.12119,60.26676],[24.1328,60.26874],[24.15154,60.275],[24.15946,60.27942],[24.18178,60.28788],[24.22316,60.29927],[24.23151,60.30516],[24.2345,60.30789],[24.2462,60.31225],[24.25703,60.31421],[24.27188,60.31944],[24.2866,60.32307],[24.30121,60.32163],[24.31297,60.32546],[24.3194,60.33211],[24.3359,60.34043],[24.38819,60.36462],[24.39689,60.36665],[24.41123,60.36866],[24.43075,60.3733],[24.44244,60.37844],[24.44602,60.38423],[24.44866,60.38828],[24.45351,60.39156],[24.45586,60.39586],[24.46291,60.39853],[24.47396,60.3982],[24.47808,60.39709],[24.48765,60.3986],[24.49336,60.40123],[24.49241,60.4241],[24.49788,60.42992],[24.51187,60.43351],[24.52946,60.43583],[24.53574,60.43821],[24.53812,60.44238],[24.54157,60.45016],[24.55275,60.4662],[24.55491,60.4697],[24.5557,60.47357],[24.55895,60.47695],[24.56637,60.47855],[24.57468,60.47924],[24.58474,60.48168],[24.59346,60.4841],[24.60804,60.48742],[24.62023,60.4903],[24.63614,60.49032],[24.65185,60.4894],[24.65801,60.48991],[24.66854,60.49342],[24.69233,60.50022],[24.70072,60.50369],[24.71469,60.51204],[24.73258,60.5186],[24.75157,60.52504],[24.76048,60.52878],[24.76167,60.5312],[24.76191,60.53546],[24.76025,60.54394],[24.76551,60.54988],[24.7731,60.55733],[24.78537,60.56365],[24.79963,60.56854],[24.80251,60.57391],[24.8046,60.58286],[24.80636,60.59286],[24.80782,60.59927],[24.81702,60.60727],[24.82342,60.61256],[24.82791,60.61822],[24.83254,60.62189],[24.84163,60.62363],[24.85012,60.62617],[24.854,60.62902],[24.85568,60.63224]]},"properties":{"name":"Hyvinkää-Hanko sähköistys ja tasoristeyksien turvallisuuden parantaminen","kind":"project","ptype":"rail","subtype":"Ratahanke","status":"kaynnissa","date":"2020–2024","url":"https://vayla.fi/hyvinkaa-hanko","source":"Väylävirasto"}},{"type":"Feature","geometry":{"type":"LineString","coordinates":[[23.95006,60.18282],[23.94972,60.18654],[23.94627,60.18912]]},"properties":{"name":"Hyvinkää-Hanko sähköistys ja tasoristeyksien turvallisuuden parantaminen","kind":"project","ptype":"rail","subtype":"Ratahanke","status":"kaynnissa","date":"2020–2024","url":"https://vayla.fi/hyvinkaa-hanko","source":"Väylävirasto"}},{"type":"Feature","geometry":{"type":"LineString","coordinates":[[23.95723,60.17181],[23.95623,60.17391],[23.95025,60.1779],[23.94977,60.18308]]},"properties":{"name":"Hyvinkää-Hanko sähköistys ja tasoristeyksien turvallisuuden parantaminen","kind":"project","ptype":"rail","subtype":"Ratahanke","status":"kaynnissa","date":"2020–2024","url":"https://vayla.fi/hyvinkaa-hanko","source":"Väylävirasto"}},{"type":"Feature","geometry":{"type":"Polygon","coordinates":[[[24.93301,60.21704],[24.93139,60.21628],[24.92929,60.2148],[24.92995,60.2146],[24.93015,60.21473],[24.9303,60.21474],[24.93199,60.21597],[24.93301,60.21704]]]},"properties":{"name":"Ilmalan vaihteiden vaihto 2025","kind":"project","ptype":"rail","subtype":"Ratahanke","status":"kaynnissa","date":"2025–2025","url":"https://vayla.fi/hankkeet","source":"Väylävirasto"}},{"type":"Feature","geometry":{"type":"Point","coordinates":[24.89327,60.21845]},"properties":{"name":"Cut-kannattimien vaihto Ilmala-Huopalahti","kind":"project","ptype":"rail","subtype":"Ratahanke","status":"kaynnissa","date":"2026–2026","url":"https://vayla.fi/hankkeet","source":"Väylävirasto"}},{"type":"Feature","geometry":{"type":"LineString","coordinates":[[24.94117,60.17303],[24.94084,60.17586],[24.9348,60.18942],[24.93366,60.19197],[24.93354,60.1938],[24.93426,60.19691],[24.93416,60.19804],[24.93242,60.20203],[24.93227,60.20415]]},"properties":{"name":"Helra - rakentaminen","kind":"project","ptype":"rail","subtype":"Ratahanke","status":"kaynnissa","date":"2016–2024","url":"https://vayla.fi/helra#.XFFYms1S-Uk","source":"Väylävirasto"}},{"type":"Feature","geometry":{"type":"LineString","coordinates":[[24.9193,60.20879],[24.91914,60.20883]]},"properties":{"name":"Helra - rakentaminen","kind":"project","ptype":"rail","subtype":"Ratahanke","status":"kaynnissa","date":"2016–2024","url":"https://vayla.fi/helra#.XFFYms1S-Uk","source":"Väylävirasto"}},{"type":"Feature","geometry":{"type":"LineString","coordinates":[[24.9341,60.19637],[24.93152,60.20212],[24.93031,60.203],[24.9193,60.20879]]},"properties":{"name":"Helra - rakentaminen","kind":"project","ptype":"rail","subtype":"Ratahanke","status":"kaynnissa","date":"2016–2024","url":"https://vayla.fi/helra#.XFFYms1S-Uk","source":"Väylävirasto"}},{"type":"Feature","geometry":{"type":"Polygon","coordinates":[[[25.11051,60.42318],[25.11098,60.42321],[25.09894,60.46693],[25.09824,60.46684],[25.11051,60.42318]]]},"properties":{"name":"HERI2 Kytömaa-Ainola, rakentaminen","kind":"project","ptype":"rail","subtype":"Ratahanke","status":"kaynnissa","date":"2021–2030","url":"https://vayla.fi/pasila-riihimaki","source":"Väylävirasto"}},{"type":"Feature","geometry":{"type":"LineString","coordinates":[[23.69875,60.06875],[23.74701,60.07982],[23.80203,60.07253],[23.84494,60.06246],[23.88678,60.06345],[23.9434,60.06477],[24.00182,60.07351],[24.04707,60.09179],[24.09954,60.11268],[24.20113,60.1383]]},"properties":{"name":"Karjaa-Kauklahti merkkisiivous","kind":"project","ptype":"rail","subtype":"Ratahanke","status":"kaynnissa","date":"2024–2025","url":"https://vayla.fi/hankkeet","source":"Väylävirasto"}},{"type":"Feature","geometry":{"type":"LineString","coordinates":[[24.87871,60.22236],[24.87874,60.2219],[24.8807,60.22173],[24.88063,60.22231],[24.87872,60.22236]]},"properties":{"name":"Infraohjelma Helsinki, Länsiratikat","kind":"project","ptype":"rail","subtype":"Ratahanke","status":"kaynnissa","date":"2026–2028","url":"https://vayla.fi/hankkeet","source":"Väylävirasto"}},{"type":"Feature","geometry":{"type":"Point","coordinates":[24.91394,60.21136]},"properties":{"name":"IR220182 Virroitinvalvontakameroiden uusiminen","kind":"project","ptype":"rail","subtype":"Ratahanke","status":"kaynnissa","date":"2023–2025","url":"https://vayla.fi/hankkeet","source":"Väylävirasto"}},{"type":"Feature","geometry":{"type":"Point","coordinates":[25.08802,60.36527]},"properties":{"name":"IR220182 Virroitinvalvontakameroiden uusiminen","kind":"project","ptype":"rail","subtype":"Ratahanke","status":"kaynnissa","date":"2023–2025","url":"https://vayla.fi/hankkeet","source":"Väylävirasto"}},{"type":"Feature","geometry":{"type":"LineString","coordinates":[[25.04773,60.50307],[25.04107,60.51037],[25.03683,60.515],[25.03184,60.52041],[25.03049,60.52185],[25.02922,60.52301],[25.02798,60.52401],[25.02718,60.52462],[25.02542,60.52584],[25.02297,60.52732],[25.01948,60.52914],[25.01632,60.53067],[25.01185,60.53283],[25.00702,60.53518],[25.00242,60.53742],[24.99848,60.53934],[24.99355,60.54174],[24.98897,60.54395],[24.98443,60.54617],[24.98171,60.54748],[24.9757,60.55046],[24.96867,60.55387],[24.96165,60.5573],[24.95585,60.5601],[24.951,60.56245],[24.94569,60.56503]]},"properties":{"name":"HERI2 Purola-Jokela, rakentaminen","kind":"project","ptype":"rail","subtype":"Ratahanke","status":"kaynnissa","date":"2021–2030","url":"https://vayla.fi/pasila-riihimaki","source":"Väylävirasto"}},{"type":"Feature","geometry":{"type":"Polygon","coordinates":[[[25.04664,60.50279],[25.04837,60.50323],[25.02923,60.52324],[25.02587,60.52571],[25.02071,60.52869],[24.9458,60.56505],[24.94559,60.56501],[25.02036,60.5286],[25.02555,60.52558],[25.02907,60.52295],[25.04664,60.50279]]]},"properties":{"name":"HERI2 Purola-Jokela, rakentaminen","kind":"project","ptype":"rail","subtype":"Ratahanke","status":"kaynnissa","date":"2021–2030","url":"https://vayla.fi/pasila-riihimaki","source":"Väylävirasto"}},{"type":"Feature","geometry":{"type":"Polygon","coordinates":[[[24.84047,60.64887],[24.84087,60.64888],[24.83697,60.67598],[24.83655,60.67747],[24.83562,60.67953],[24.83464,60.68114],[24.83332,60.6829],[24.81777,60.69827],[24.81734,60.69818],[24.82154,60.69423],[24.83037,60.6857],[24.83315,60.6828],[24.83444,60.68111],[24.83633,60.67745],[24.83701,60.67491],[24.84047,60.64887]]]},"properties":{"name":"HERI2 Hyvinkää-Arolampi, rakentaminen","kind":"project","ptype":"rail","subtype":"Ratahanke","status":"kaynnissa","date":"2021–2030","url":"https://vayla.fi/hankkeet","source":"Väylävirasto"}},{"type":"Feature","geometry":{"type":"Polygon","coordinates":[[[24.94,60.21868],[24.92586,60.21766],[24.9232,60.2167],[24.92031,60.21188],[24.92113,60.21037],[24.9212,60.20863],[24.92181,60.2078],[24.92761,60.20462],[24.92798,60.20542],[24.93395,60.2167],[24.94162,60.21827],[24.94,60.21868]]]},"properties":{"name":"ILESKO Ilmalan ohjauksen siirto Eskoon","kind":"project","ptype":"rail","subtype":"Ratahanke","status":"kaynnissa","date":"2023–2026","url":"https://vayla.fi/hankkeet","source":"Väylävirasto"}},{"type":"Feature","geometry":{"type":"Point","coordinates":[24.58928,60.18585]},"properties":{"name":"RO1104 U-2964 Mankin alikulkusilta, peruskorjaus","kind":"project","ptype":"rail","subtype":"Ratahanke","status":"kaynnissa","date":"2025–2025","url":"https://vayla.fi/hankkeet","source":"Väylävirasto"}},{"type":"Feature","geometry":{"type":"Polygon","coordinates":[[[25.04555,60.2937],[25.04464,60.29382],[25.04452,60.29356],[25.04541,60.29346],[25.04555,60.2937]]]},"properties":{"name":"Vantaan ratikka","kind":"project","ptype":"rail","subtype":"Ratahanke","status":"kaynnissa","date":"2025–2029","url":"https://vayla.fi/hankkeet","source":"Väylävirasto"}}]}