{"type":"FeatureCollection","features":[{"type":"Feature","geometry":{"type":"LineString","coordinates":[[23.85957,61.16981],[23.85965,61.16981]]},"properties":{"name":"PIRELY/6582/2025 / PIRELY Akaan viitoitus 2025, KU","kind":"project","ptype":"road","subtype":"Tiehanke","status":"kaynnissa","date":"2025–2026","url":"https://vayla.fi/hankkeet","source":"Väylävirasto"}},{"type":"Feature","geometry":{"type":"MultiLineString","coordinates":[[[23.66967,61.02266],[23.66983,61.02264]],[[23.66983,61.02264],[23.66994,61.02262],[23.66994,61.02262],[23.67006,61.0226]],[[23.67006,61.0226],[23.6702,61.02259]]]},"properties":{"name":"H-5264 Särkilahden silta","kind":"project","ptype":"road","subtype":"Tiehanke","status":"kaynnissa","date":"2026–2026","url":"https://vayla.fi/hankkeet","source":"Väylävirasto"}},{"type":"Feature","geometry":{"type":"MultiLineString","coordinates":[[[23.39914,61.12791],[23.39898,61.12794],[23.39898,61.12794]],[[23.39898,61.12794],[23.39895,61.12794],[23.39892,61.12795]],[[23.39892,61.12795],[23.3986,61.128]]]},"properties":{"name":"H-5277 Tuorrettennenän silta","kind":"project","ptype":"road","subtype":"Tiehanke","status":"kaynnissa","date":"2026–2026","url":"https://vayla.fi/hankkeet","source":"Väylävirasto"}},{"type":"Feature","geometry":{"type":"MultiLineString","coordinates":[[[24.02129,61.13529],[24.02127,61.13533],[24.02122,61.13541]],[[24.02122,61.13541],[24.0212,61.13544]],[[24.0212,61.13544],[24.0212,61.13545],[24.02115,61.13554],[24.02114,61.13554],[24.02114,61.13555]]]},"properties":{"name":"H-5190 Oikolan silta","kind":"project","ptype":"road","subtype":"Tiehanke","status":"kaynnissa","date":"2026–2026","url":"https://vayla.fi/hankkeet","source":"Väylävirasto"}},{"type":"Feature","geometry":{"type":"LineString","coordinates":[[23.48254,61.01807],[23.48256,61.01809]]},"properties":{"name":"Putkisiltakohteet, PIR ELY Putkisilta- ja rumpu-urakka 2025, ST","kind":"project","ptype":"road","subtype":"Tiehanke","status":"kaynnissa","date":"2025–2025","url":"https://vayla.fi/hankkeet","source":"Väylävirasto"}},{"type":"Feature","geometry":{"type":"MultiLineString","coordinates":[[[23.42301,60.97745],[23.42303,60.97745]],[[23.42303,60.97745],[23.42304,60.97745]]]},"properties":{"name":"Putkisiltakohteet, PIR ELY Putkisilta- ja rumpu-urakka 2025, ST","kind":"project","ptype":"road","subtype":"Tiehanke","status":"kaynnissa","date":"2025–2025","url":"https://vayla.fi/hankkeet","source":"Väylävirasto"}},{"type":"Feature","geometry":{"type":"MultiLineString","coordinates":[[[23.49532,61.2003],[23.49525,61.20031],[23.49522,61.20032],[23.49515,61.20034]],[[23.49515,61.20034],[23.4951,61.20035]],[[23.4951,61.20035],[23.49484,61.20042]]]},"properties":{"name":"H-5296 Rusthollin silta","kind":"project","ptype":"road","subtype":"Tiehanke","status":"kaynnissa","date":"2026–2026","url":"https://vayla.fi/hankkeet","source":"Väylävirasto"}},{"type":"Feature","geometry":{"type":"MultiPoint","coordinates":[[23.73322,61.18828]]},"properties":{"name":"PIRELY/77/2025 / PIR sillankorjausurakka 1/2025 Järviön silta Akaa KU","kind":"project","ptype":"road","subtype":"Tiehanke","status":"kaynnissa","date":"2025–2025","url":"https://vayla.fi/hankkeet","source":"Väylävirasto"}}]}