{"type":"FeatureCollection","features":[{"type":"Feature","geometry":{"type":"LineString","coordinates":[[27.26102,63.59514],[26.2622,62.91241],[26.56523,61.47161],[28.12668,61.86545],[28.71633,62.42373],[28.06256,63.39683],[27.2702,63.57624]]},"properties":{"name":"POSELY586/2025 Valaisinvaihdot 2025, Itä-Suomi","kind":"project","ptype":"road","subtype":"Tiehanke","status":"kaynnissa","date":"2024–2025","url":"https://vayla.fi/hankkeet","source":"Väylävirasto"}},{"type":"Feature","geometry":{"type":"MultiLineString","coordinates":[[[26.09756,61.73397],[26.09757,61.73392],[26.09758,61.7339],[26.09759,61.73388],[26.0976,61.73387],[26.0976,61.73386],[26.09762,61.73384],[26.09764,61.73383],[26.09765,61.73382],[26.09767,61.73381],[26.0977,61.7338],[26.09772,61.73379],[26.09775,61.73378],[26.09779,61.73378],[26.09782,61.73377],[26.09786,61.73377],[26.09804,61.73374],[26.09805,61.73374]],[[26.0972,61.7336],[26.09726,61.73362],[26.09729,61.73363],[26.09732,61.73364],[26.09735,61.73364],[26.09739,61.73365],[26.09741,61.73365],[26.09751,61.73367],[26.09753,61.73367],[26.09767,61.73369],[26.09771,61.7337],[26.09804,61.73374],[26.09805,61.73374]],[[26.09805,61.73374],[26.09838,61.73376]],[[26.09838,61.73376],[26.0988,61.73378],[26.09881,61.73378],[26.09923,61.73381],[26.09923,61.73381],[26.09965,61.73383],[26.09968,61.73383],[26.09977,61.73383]],[[26.09977,61.73383],[26.10017,61.73385],[26.10018,61.73385],[26.10056,61.73386],[26.10058,61.73387],[26.101,61.73389],[26.10122,61.73391]],[[26.10122,61.73391],[26.10133,61.73392],[26.10136,61.73392],[26.10154,61.73394],[26.10165,61.73395],[26.10168,61.73396],[26.10186,61.73399],[26.10194,61.734],[26.10214,61.73404],[26.10218,61.73405],[26.1022,61.73406],[26.10247,61.73412],[26.10247,61.73412],[26.10254,61.73414]],[[26.10254,61.73414],[26.10272,61.73418]],[[26.10272,61.73418],[26.10295,61.73424]],[[26.10295,61.73424],[26.10302,61.73425],[26.10304,61.73426],[26.10317,61.73429]],[[26.10317,61.73429],[26.10327,61.73431],[26.1033,61.73432],[26.10344,61.73435],[26.10351,61.73436],[26.10352,61.73436],[26.10367,61.73438],[26.10373,61.73439]],[[26.10373,61.73439],[26.10378,61.73439],[26.1038,61.7344],[26.10406,61.73442],[26.10409,61.73443],[26.10443,61.73446],[26.10446,61.73446],[26.10472,61.73449],[26.10475,61.73449]],[[26.10475,61.73449],[26.10512,61.73454],[26.10514,61.73454],[26.10554,61.73459],[26.10566,61.7346]],[[26.10566,61.7346],[26.10591,61.73464],[26.10593,61.73464],[26.10614,61.73467],[26.10616,61.73468]],[[26.10616,61.73468],[26.1064,61.73472]],[[26.1064,61.73472],[26.10646,61.73474],[26.10677,61.7348],[26.10679,61.73481],[26.10696,61.73485],[26.10715,61.73491],[26.10719,61.73492],[26.10719,61.73492],[26.10753,61.73503],[26.10756,61.73504]],[[26.10756,61.73504],[26.10777,61.73512],[26.10779,61.73513],[26.10803,61.73521],[26.10806,61.73523],[26.10808,61.73523],[26.1083,61.73533],[26.10833,61.73534],[26.10834,61.73535],[26.10847,61.73541],[26.10855,61.73546],[26.10862,61.7355],[26.10875,61.73559],[26.10876,61.73559],[26.10886,61.73567],[26.10889,61.7357],[26.10893,61.73573],[26.10894,61.73574],[26.10897,61.73578],[26.109,61.73581],[26.10907,61.73593],[26.10908,61.73594],[26.10921,61.73615],[26.10921,61.73615],[26.10929,61.73627],[26.1093,61.73628],[26.10937,61.73639],[26.10937,61.7364]],[[26.10937,61.7364],[26.10946,61.73649],[26.10954,61.7366]],[[26.10954,61.7366],[26.10958,61.73664],[26.10962,61.73669]],[[26.10962,61.73669],[26.10984,61.73692],[26.10985,61.73693],[26.11007,61.73714],[26.11007,61.73715],[26.11015,61.73723],[26.11016,61.73724]],[[26.11016,61.73724],[26.1103,61.73736],[26.11032,61.73737],[26.11041,61.73747],[26.11043,61.73748]],[[26.11043,61.73748],[26.11062,61.73768],[26.11063,61.73768],[26.11084,61.73788]],[[26.11084,61.73788],[26.11091,61.73794],[26.11091,61.73795],[26.11111,61.73814],[26.11112,61.73814],[26.11125,61.73827]],[[26.11125,61.73827],[26.11129,61.7383],[26.11129,61.73831]],[[26.11129,61.73831],[26.11152,61.73854],[26.11176,61.7388],[26.11185,61.73889]],[[26.11185,61.73889],[26.11191,61.73895],[26.11192,61.73895],[26.11192,61.73896]],[[26.11192,61.73896],[26.11218,61.73923]],[[26.11218,61.73923],[26.11226,61.73932]],[[26.11226,61.73932],[26.11234,61.7394],[26.11234,61.73941],[26.11249,61.73957]],[[26.11249,61.73957],[26.11252,61.7396],[26.11253,61.73961],[26.11259,61.73968]],[[26.11259,61.73968],[26.1127,61.7398]],[[26.1127,61.7398],[26.11272,61.73983],[26.11272,61.73983],[26.11295,61.74008]],[[26.11295,61.74008],[26.11304,61.74018]],[[26.11304,61.74018],[26.11315,61.7403]],[[26.11315,61.7403],[26.11318,61.74033],[26.11319,61.74034],[26.11327,61.74044]],[[26.11327,61.74044],[26.11334,61.74052],[26.11334,61.74053],[26.11347,61.74069]],[[26.11347,61.74069],[26.11348,61.7407],[26.1135,61.74072],[26.11362,61.74087],[26.11363,61.74088],[26.11375,61.74101],[26.11376,61.74103]],[[26.11376,61.74103],[26.11383,61.74111]],[[26.11383,61.74111],[26.11386,61.74114]],[[26.11386,61.74114],[26.11401,61.74129],[26.11401,61.7413],[26.11411,61.74141],[26.11412,61.74142],[26.11428,61.74156],[26.11446,61.74172],[26.11447,61.74172],[26.11475,61.74194],[26.11475,61.74194]],[[26.11475,61.74194],[26.11493,61.74207]],[[26.11493,61.74207],[26.11516,61.7422]],[[26.11516,61.7422],[26.1154,61.74234],[26.11574,61.74253],[26.11575,61.74253],[26.11635,61.74288],[26.11637,61.74289]],[[26.11637,61.74289],[26.11648,61.74296],[26.11664,61.74304]],[[26.11664,61.74304],[26.11693,61.74321],[26.11693,61.74321],[26.11711,61.7433]],[[26.11711,61.7433],[26.11711,61.7433],[26.11712,61.74331],[26.11729,61.74341],[26.11731,61.74342]],[[26.11731,61.74342],[26.11738,61.74346]],[[26.11738,61.74346],[26.11761,61.74358]],[[26.11761,61.74358],[26.11785,61.74372],[26.11786,61.74372],[26.11819,61.74392],[26.11831,61.74398]],[[26.11831,61.74398],[26.11853,61.74411],[26.11855,61.74412],[26.11872,61.74422]],[[26.11872,61.74422],[26.11892,61.74433],[26.11893,61.74433],[26.11917,61.74447],[26.11919,61.74448]],[[26.11919,61.74448],[26.11938,61.74459],[26.1194,61.7446],[26.11964,61.74474],[26.11966,61.74475],[26.11975,61.7448]],[[26.11975,61.7448],[26.11987,61.74487],[26.11989,61.74488],[26.12006,61.74498],[26.12008,61.74499]],[[26.12008,61.74499],[26.1201,61.745],[26.12012,61.74501],[26.12014,61.74503],[26.12015,61.74504],[26.12017,61.74506],[26.12018,61.74507],[26.12021,61.7451],[26.12021,61.74511]],[[26.12021,61.74511],[26.1203,61.74524],[26.1203,61.74526],[26.1204,61.74545],[26.12041,61.74547],[26.12051,61.74564],[26.12051,61.74565],[26.12052,61.74567]],[[26.12052,61.74567],[26.1206,61.74582]],[[26.1206,61.74582],[26.12068,61.74598],[26.12078,61.74615],[26.12078,61.74615],[26.12088,61.74635],[26.12088,61.74636],[26.12096,61.74652],[26.12097,61.74652],[26.12101,61.74663],[26.12102,61.74663]],[[26.12102,61.74663],[26.12106,61.74673]],[[26.12106,61.74673],[26.12114,61.74689],[26.12126,61.7471]],[[26.12126,61.7471],[26.12136,61.74729],[26.12137,61.7473],[26.12147,61.74751],[26.12147,61.74752],[26.12158,61.7477],[26.12158,61.74771],[26.12159,61.74772],[26.12165,61.74784]],[[26.12165,61.74784],[26.12169,61.74791]],[[26.12169,61.74791],[26.12175,61.74805],[26.12175,61.74806],[26.1218,61.74817],[26.12181,61.74821],[26.12181,61.74822],[26.12182,61.74829],[26.12183,61.7484],[26.12183,61.7484]]]},"properties":{"name":"Yt 16647 päällystetyn tien kunnostus Joutsan keskustassa","kind":"project","ptype":"road","subtype":"Tiehanke","status":"kaynnissa","date":"2025–2025","url":"https://vayla.fi/hankkeet","source":"Väylävirasto"}},{"type":"Feature","geometry":{"type":"MultiLineString","coordinates":[[[26.10333,61.74426],[26.1035,61.74424]],[[26.1035,61.74424],[26.10354,61.74424],[26.10361,61.74423],[26.10384,61.74422],[26.10386,61.74422],[26.10409,61.74422],[26.10412,61.74422],[26.1044,61.74422]],[[26.1044,61.74422],[26.10446,61.74422],[26.1045,61.74421],[26.10484,61.74421]],[[26.10484,61.74421],[26.10511,61.74421]],[[26.10511,61.74421],[26.10512,61.74421],[26.10527,61.74421],[26.10539,61.74421],[26.10541,61.74421],[26.10568,61.7442]],[[26.10568,61.7442],[26.1057,61.7442],[26.106,61.74419],[26.10602,61.74419],[26.10629,61.74418],[26.10631,61.74418],[26.10657,61.74417],[26.10659,61.74417],[26.10664,61.74417]],[[26.10664,61.74417],[26.10678,61.74416],[26.10693,61.74415],[26.10696,61.74415],[26.1071,61.74413]],[[26.1071,61.74413],[26.10722,61.74412],[26.10725,61.74412],[26.10754,61.74408],[26.1076,61.74407]],[[26.1076,61.74407],[26.10791,61.74404]],[[26.10791,61.74404],[26.10808,61.74401]],[[26.10808,61.74401],[26.10813,61.744],[26.10816,61.744],[26.10837,61.74396],[26.10839,61.74396],[26.10867,61.74391],[26.10868,61.7439],[26.10899,61.74384],[26.109,61.74384],[26.10921,61.74379]],[[26.10921,61.74379],[26.10937,61.74375]],[[26.10937,61.74375],[26.10963,61.74369],[26.10964,61.74369],[26.10996,61.74359],[26.10999,61.74359],[26.11034,61.74349],[26.11036,61.74348],[26.11069,61.74338]],[[26.11069,61.74338],[26.11083,61.74333]],[[26.11083,61.74333],[26.11098,61.74329],[26.11099,61.74329],[26.11115,61.74324]],[[26.11115,61.74324],[26.11135,61.74317],[26.11138,61.74316],[26.11153,61.74311]],[[26.11153,61.74311],[26.1116,61.74309],[26.11161,61.74309],[26.11206,61.74295],[26.11208,61.74294],[26.11209,61.74294]],[[26.11209,61.74294],[26.11223,61.7429]],[[26.11223,61.7429],[26.11237,61.74286]],[[26.11237,61.74286],[26.1124,61.74285],[26.11241,61.74285],[26.11276,61.74274],[26.11279,61.74273],[26.1128,61.74272]],[[26.1128,61.74272],[26.11298,61.74267]],[[26.11298,61.74267],[26.11317,61.74261]],[[26.11317,61.74261],[26.11327,61.74258],[26.11359,61.74248]],[[26.11359,61.74248],[26.11366,61.74246],[26.11368,61.74246],[26.11415,61.74231]],[[26.11415,61.74231],[26.11418,61.7423],[26.11421,61.74229],[26.11468,61.74215]],[[26.11468,61.74215],[26.11493,61.74207]]]},"properties":{"name":"Yt 16646 päällystetyn tien kunnostus Joutsan keskustassa","kind":"project","ptype":"road","subtype":"Tiehanke","status":"kaynnissa","date":"2025–2025","url":"https://vayla.fi/hankkeet","source":"Väylävirasto"}}]}