{"type":"FeatureCollection","features":[{"type":"Feature","geometry":{"type":"MultiLineString","coordinates":[[[22.09424,60.21946],[22.09402,60.21942],[22.09401,60.21942],[22.09315,60.21928],[22.09313,60.21928],[22.09224,60.21913]],[[22.09224,60.21913],[22.09217,60.21912],[22.09216,60.21912],[22.09158,60.21901],[22.09145,60.21898],[22.09143,60.21898],[22.09085,60.21884],[22.09063,60.21878],[22.0906,60.21877],[22.09013,60.21864],[22.08998,60.21859],[22.08996,60.21859],[22.08967,60.21848],[22.08925,60.21832],[22.08923,60.21831],[22.08825,60.21788]],[[22.08825,60.21788],[22.08817,60.21785]],[[22.08817,60.21785],[22.08756,60.21758],[22.08667,60.21719],[22.08561,60.21673],[22.08419,60.21612],[22.08418,60.21611],[22.08323,60.2157],[22.08321,60.21569],[22.08226,60.21528],[22.08224,60.21527],[22.08162,60.215],[22.08161,60.21499],[22.08119,60.21482],[22.08105,60.21477],[22.08075,60.21467],[22.08074,60.21466]],[[22.08074,60.21466],[22.08043,60.21456],[22.08037,60.21454],[22.08036,60.21454],[22.08021,60.2145]],[[22.08021,60.2145],[22.07988,60.21442],[22.07987,60.21442],[22.07941,60.21431],[22.07938,60.2143],[22.07936,60.2143],[22.07915,60.21426],[22.07909,60.21425],[22.07905,60.21424],[22.07899,60.21423],[22.07895,60.21422],[22.07882,60.2142],[22.07879,60.2142],[22.07847,60.21415],[22.07845,60.21415],[22.07806,60.21411],[22.07785,60.21409],[22.07783,60.21409],[22.07729,60.21406],[22.07726,60.21405],[22.07686,60.21403],[22.07683,60.21403],[22.07644,60.21401],[22.07633,60.214],[22.07631,60.214],[22.07617,60.21398],[22.07585,60.21394],[22.07558,60.2139],[22.07554,60.21389],[22.07551,60.21389],[22.07538,60.21386],[22.07521,60.21382],[22.07512,60.2138],[22.07511,60.2138],[22.07505,60.21378]],[[22.07505,60.21378],[22.07477,60.2137],[22.07476,60.21369],[22.07451,60.21362],[22.0745,60.21362],[22.07411,60.21349],[22.0741,60.21348],[22.07361,60.2133],[22.07359,60.21329],[22.07322,60.21314],[22.07321,60.21314],[22.07274,60.21294],[22.07273,60.21294],[22.07232,60.21276],[22.07231,60.21276],[22.0719,60.21258],[22.07189,60.21258],[22.07151,60.21241],[22.07149,60.2124],[22.07115,60.21227],[22.07114,60.21226],[22.07085,60.21213],[22.07083,60.21212],[22.07069,60.21206]],[[22.07069,60.21206],[22.07066,60.21205],[22.07066,60.21205],[22.07044,60.21196],[22.07044,60.21195],[22.07011,60.21181],[22.0701,60.2118],[22.06967,60.21161],[22.06967,60.21161],[22.06919,60.21136],[22.06916,60.21135],[22.0688,60.21118],[22.06832,60.21096],[22.0683,60.21095],[22.06804,60.21083],[22.06802,60.21082]],[[22.06802,60.21082],[22.06719,60.21046]],[[22.06719,60.21046],[22.06699,60.21039],[22.06698,60.21038],[22.06671,60.21026]],[[22.06671,60.21026],[22.06649,60.21017],[22.06647,60.21016],[22.06601,60.20995],[22.066,60.20995],[22.06556,60.20974],[22.06554,60.20973],[22.06528,60.20961],[22.06528,60.20961],[22.06509,60.20952],[22.06508,60.20951]],[[22.06508,60.20951],[22.06492,60.20944]],[[22.06492,60.20944],[22.06452,60.20922],[22.06418,60.20904],[22.06382,60.20884],[22.0638,60.20882],[22.06353,60.20868],[22.06351,60.20867],[22.0629,60.20833],[22.06256,60.20815],[22.06254,60.20814],[22.06227,60.20799]],[[22.06227,60.20799],[22.06218,60.20793],[22.06216,60.20792],[22.06163,60.20763],[22.06161,60.20762],[22.06115,60.20737],[22.06113,60.20736],[22.06079,60.20717],[22.06077,60.20716],[22.06074,60.20715]],[[22.06074,60.20715],[22.06038,60.20695],[22.06037,60.20695],[22.05999,60.20673],[22.05987,60.20666],[22.05986,60.20665],[22.05962,60.20649],[22.05956,60.20645],[22.05955,60.20644],[22.05925,60.2062],[22.05923,60.20619],[22.05904,60.20604]]]},"properties":{"name":"VARELY Mt 180 Nauvon saaristotien jalankulku- ja pyöräilyväylän rakentaminen Prostvik 2025, Parainen, KU","kind":"project","ptype":"road","subtype":"Tiehanke","status":"kaynnissa","date":"2025–2025","url":"https://vayla.fi/hankkeet","source":"Väylävirasto"}},{"type":"Feature","geometry":{"type":"MultiLineString","coordinates":[[[22.35982,60.35239],[22.35988,60.35224],[22.36006,60.35162],[22.36019,60.35095],[22.36023,60.35043]],[[22.36023,60.35043],[22.36025,60.35018],[22.36032,60.34921],[22.36034,60.3488]],[[22.36034,60.3488],[22.36036,60.34842],[22.36037,60.34834],[22.36038,60.34806]],[[22.36038,60.34806],[22.3604,60.34778],[22.36043,60.34751]],[[22.36043,60.34751],[22.36044,60.34738],[22.36046,60.34718],[22.36046,60.34715],[22.36046,60.34714],[22.36047,60.3471]],[[22.36047,60.3471],[22.3605,60.34693]],[[22.3605,60.34693],[22.36058,60.34654],[22.36059,60.3465],[22.36059,60.3465],[22.36076,60.346],[22.36076,60.346]],[[22.36076,60.346],[22.36099,60.34557],[22.36103,60.3455],[22.36103,60.34549],[22.36122,60.34522],[22.36133,60.34508],[22.36134,60.34507],[22.36168,60.3447],[22.36169,60.34469],[22.36238,60.34396],[22.3624,60.34394],[22.36303,60.34328],[22.36304,60.34327],[22.36324,60.34306],[22.36325,60.34305],[22.36353,60.34276],[22.36353,60.34275],[22.36373,60.3425]],[[22.36373,60.3425],[22.36385,60.34235],[22.36386,60.34234],[22.3641,60.342],[22.36418,60.34186],[22.36418,60.34186],[22.36438,60.34148],[22.36445,60.34132],[22.36457,60.34096]],[[22.36457,60.34096],[22.36461,60.34077],[22.36462,60.34076],[22.36469,60.34044],[22.36469,60.34042],[22.36469,60.34041],[22.36471,60.34021],[22.36471,60.33998]]]},"properties":{"name":"Vt 1 ja Mt 180 parantaminen rakentamalla riista-aita, KU","kind":"project","ptype":"road","subtype":"Tiehanke","status":"kaynnissa","date":"2026–2026","url":"https://vayla.fi/hankkeet","source":"Väylävirasto"}},{"type":"Feature","geometry":{"type":"MultiLineString","coordinates":[[[22.36411,60.33759],[22.36361,60.33634],[22.3636,60.33633],[22.36343,60.33593],[22.3634,60.33587],[22.3634,60.33586],[22.36314,60.33541],[22.36313,60.3354],[22.36302,60.33519],[22.36301,60.33517],[22.363,60.33517],[22.36293,60.33507],[22.36271,60.33482],[22.36271,60.33481],[22.36243,60.3345],[22.36242,60.3345],[22.36226,60.33432]],[[22.36226,60.33432],[22.36217,60.33422],[22.36203,60.3341]],[[22.36203,60.3341],[22.36183,60.33395],[22.36183,60.33395],[22.36138,60.3336],[22.36137,60.33359],[22.3609,60.33327],[22.3609,60.33327],[22.36037,60.33293],[22.35999,60.33271],[22.35982,60.33262],[22.3598,60.33261],[22.35939,60.33241],[22.35937,60.3324],[22.35929,60.33236],[22.35883,60.33215],[22.35872,60.33211],[22.35871,60.3321],[22.35809,60.33185],[22.35806,60.33184]],[[22.35806,60.33184],[22.35747,60.33164],[22.35747,60.33164],[22.35695,60.33147]],[[22.35695,60.33147],[22.35667,60.33139],[22.35489,60.3309],[22.35487,60.3309],[22.35437,60.33075],[22.35436,60.33075],[22.35401,60.33065],[22.35314,60.33035],[22.35305,60.33032],[22.35304,60.33032],[22.35286,60.33027],[22.35285,60.33027],[22.3527,60.33022],[22.35224,60.33004],[22.35222,60.33003],[22.35169,60.32982],[22.35168,60.32981],[22.35117,60.32958]],[[22.35117,60.32958],[22.35115,60.32956],[22.35112,60.32955],[22.35107,60.32953],[22.35106,60.32952]],[[22.35106,60.32952],[22.35066,60.32932],[22.35047,60.32922],[22.35045,60.32921],[22.35004,60.32896],[22.35003,60.32895]],[[22.35003,60.32895],[22.34973,60.32877],[22.34967,60.32873],[22.3496,60.32868]],[[22.3496,60.32868],[22.34954,60.32864],[22.34953,60.32863]]]},"properties":{"name":"Vt 1 ja Mt 180 parantaminen rakentamalla riista-aita, KU","kind":"project","ptype":"road","subtype":"Tiehanke","status":"kaynnissa","date":"2026–2026","url":"https://vayla.fi/hankkeet","source":"Väylävirasto"}},{"type":"Feature","geometry":{"type":"MultiLineString","coordinates":[[[22.33207,60.31579],[22.33199,60.31576],[22.33196,60.31574]],[[22.33196,60.31574],[22.33194,60.31574]],[[22.33194,60.31574],[22.33179,60.31568],[22.33178,60.31567],[22.33162,60.3156],[22.3314,60.3155],[22.33137,60.31549],[22.33126,60.31545],[22.33102,60.31536],[22.33078,60.31529],[22.33034,60.31516],[22.32982,60.31504],[22.32979,60.31503],[22.32872,60.31481],[22.32871,60.31481],[22.32779,60.31464],[22.32748,60.31459],[22.32745,60.31459],[22.32689,60.31451],[22.32686,60.3145],[22.32591,60.31439],[22.3259,60.31439],[22.32514,60.3143]],[[22.32514,60.3143],[22.32439,60.31421]],[[22.32439,60.31421],[22.32397,60.31416],[22.32339,60.3141],[22.32308,60.31406]],[[22.32308,60.31406],[22.32293,60.31404]],[[22.32293,60.31404],[22.32291,60.31404],[22.32157,60.31388],[22.32155,60.31387],[22.3208,60.31378],[22.32024,60.31371],[22.32023,60.31371],[22.31978,60.31364],[22.31976,60.31364],[22.31929,60.31355],[22.31906,60.31349],[22.31887,60.31344],[22.31886,60.31344],[22.31864,60.31338],[22.31825,60.31325],[22.31822,60.31324]],[[22.31822,60.31324],[22.31759,60.313],[22.31737,60.31291],[22.31716,60.31281],[22.31714,60.3128],[22.31707,60.31276],[22.31705,60.31275],[22.31645,60.31244],[22.31644,60.31243],[22.31584,60.31209],[22.31583,60.31209],[22.31541,60.31186],[22.31531,60.31181],[22.31531,60.31181],[22.31501,60.31167],[22.31482,60.31159],[22.31482,60.31159],[22.31456,60.31149],[22.3145,60.31147],[22.31448,60.31146],[22.31396,60.3113],[22.31393,60.31128],[22.31391,60.31128],[22.31379,60.31123],[22.31379,60.31123]],[[22.31379,60.31123],[22.31363,60.31118]]]},"properties":{"name":"Vt 1 ja Mt 180 parantaminen rakentamalla riista-aita, KU","kind":"project","ptype":"road","subtype":"Tiehanke","status":"kaynnissa","date":"2026–2026","url":"https://vayla.fi/hankkeet","source":"Väylävirasto"}}]}