{"type":"FeatureCollection","features":[{"type":"Feature","geometry":{"type":"MultiLineString","coordinates":[[[21.37185,62.14558],[21.37184,62.14558],[21.37178,62.14561],[21.37173,62.14563],[21.37172,62.14564],[21.37169,62.14565],[21.37164,62.14568],[21.3716,62.14571],[21.37147,62.1458],[21.37146,62.14581],[21.37114,62.14607],[21.37112,62.1461]],[[21.37112,62.1461],[21.37084,62.14637],[21.37062,62.14659],[21.37061,62.1466],[21.3706,62.14662],[21.37052,62.14672],[21.37048,62.14679],[21.37047,62.1468],[21.37044,62.14687],[21.37036,62.14708],[21.37028,62.1473],[21.37028,62.1473],[21.37023,62.14744],[21.37021,62.14755],[21.37021,62.14756],[21.3702,62.14763],[21.37021,62.14783]],[[21.37021,62.14783],[21.37021,62.14784],[21.37022,62.14791],[21.37023,62.14795],[21.37023,62.14795],[21.37022,62.14797],[21.37022,62.148],[21.37021,62.14806],[21.3702,62.14807],[21.37016,62.14818],[21.37016,62.1482],[21.37011,62.14832],[21.37011,62.14833],[21.37005,62.14852],[21.37005,62.14853],[21.37002,62.14858],[21.36997,62.14869],[21.36996,62.1487],[21.36994,62.14873],[21.36987,62.14883],[21.36986,62.14885],[21.36977,62.14895],[21.36977,62.14895],[21.36973,62.149],[21.3697,62.14906],[21.36969,62.14907],[21.36966,62.14912],[21.36964,62.14921],[21.36963,62.14923],[21.3696,62.14939],[21.3696,62.1494],[21.36958,62.14958],[21.36958,62.14965],[21.36958,62.14966],[21.36959,62.14975]],[[21.36959,62.14975],[21.36959,62.14975],[21.36964,62.14984],[21.36967,62.14988],[21.36967,62.14988],[21.36968,62.1499],[21.36971,62.14993],[21.36975,62.14996],[21.36976,62.14997],[21.36977,62.14999],[21.36981,62.15002],[21.36986,62.15005],[21.3699,62.15008],[21.36995,62.1501],[21.36996,62.15011],[21.36998,62.15012],[21.37006,62.15016],[21.37023,62.15023],[21.37025,62.15024],[21.37048,62.15034]],[[21.37048,62.15034],[21.37067,62.15043],[21.3707,62.15044],[21.37106,62.1506],[21.37108,62.15061],[21.3713,62.15071],[21.37142,62.15077],[21.37143,62.15078],[21.37152,62.15083],[21.37161,62.15089],[21.37167,62.15094],[21.37169,62.15095],[21.37174,62.151],[21.37177,62.15103],[21.3718,62.15107],[21.37181,62.15108],[21.37182,62.1511],[21.37184,62.15113],[21.37187,62.1512],[21.37187,62.15121],[21.37192,62.15135],[21.37193,62.15135],[21.37195,62.1514],[21.37201,62.15149],[21.37202,62.1515],[21.3721,62.15162],[21.37211,62.15163],[21.37223,62.15182],[21.37239,62.15204],[21.37246,62.15214],[21.37249,62.15218],[21.3725,62.1522],[21.37252,62.15221],[21.37255,62.15224],[21.37259,62.15227],[21.37261,62.15229],[21.37272,62.15236]],[[21.37272,62.15236],[21.37273,62.15237],[21.37287,62.15245],[21.37294,62.15249],[21.37296,62.1525],[21.37309,62.15257],[21.37317,62.15261],[21.37319,62.15262],[21.37321,62.15263],[21.37323,62.15265],[21.37325,62.15266],[21.37327,62.15268],[21.37335,62.15274],[21.37336,62.15275],[21.37353,62.15289],[21.37354,62.1529],[21.37358,62.15293],[21.37365,62.15298],[21.37369,62.153],[21.37372,62.15302],[21.37377,62.15304],[21.37382,62.15307],[21.37388,62.15309],[21.37393,62.15312],[21.37396,62.15313],[21.37403,62.15315],[21.37412,62.15318],[21.37428,62.15323],[21.37445,62.15327],[21.37469,62.15332],[21.37471,62.15333],[21.37506,62.1534],[21.37509,62.15341],[21.37516,62.15342],[21.37522,62.15344],[21.37526,62.15345],[21.37527,62.15346]],[[21.37527,62.15346],[21.37529,62.15346],[21.37532,62.15347],[21.37534,62.15349],[21.37537,62.1535],[21.3754,62.15351],[21.37542,62.15353],[21.37547,62.15355],[21.37553,62.1536],[21.37555,62.15361],[21.37561,62.15366],[21.37565,62.15369],[21.37568,62.15372],[21.37569,62.15374],[21.37571,62.15375],[21.37573,62.15379],[21.37578,62.15388]],[[21.37578,62.15388],[21.37579,62.15389],[21.37588,62.15407],[21.37592,62.15416],[21.37593,62.15417],[21.37601,62.15431],[21.37602,62.15432],[21.37609,62.15446],[21.3761,62.15447],[21.37611,62.15453],[21.37613,62.15458],[21.37613,62.15461],[21.37613,62.15463],[21.37613,62.15472],[21.37613,62.15473],[21.37612,62.15488],[21.37612,62.15489],[21.37612,62.15501],[21.37613,62.15509],[21.37614,62.15514],[21.37614,62.15515],[21.37614,62.15517],[21.37616,62.15522],[21.3762,62.15531],[21.37622,62.15534],[21.37627,62.15541],[21.37629,62.15545],[21.37632,62.15548],[21.37634,62.1555],[21.37638,62.15553],[21.37642,62.15556],[21.37657,62.15566]],[[21.37657,62.15566],[21.37664,62.1557],[21.3768,62.15578],[21.37681,62.15579],[21.37687,62.15584],[21.37689,62.15585],[21.3769,62.15586],[21.37691,62.15587],[21.37693,62.15589],[21.37694,62.15591],[21.37698,62.15596],[21.37698,62.15596],[21.37706,62.15608],[21.37707,62.1561],[21.37717,62.15625],[21.37717,62.15626],[21.37732,62.15646],[21.37732,62.15647],[21.37733,62.15648],[21.37737,62.15657],[21.37741,62.15668],[21.37741,62.15669],[21.37743,62.15674],[21.37746,62.15692],[21.37746,62.15694],[21.37748,62.15711]],[[21.37748,62.15711],[21.37748,62.15712],[21.37748,62.15733],[21.37747,62.15743],[21.37745,62.15757],[21.37745,62.15757],[21.37739,62.15777],[21.37739,62.15777],[21.37731,62.158]],[[21.37731,62.158],[21.37721,62.15823],[21.37721,62.15824],[21.37709,62.15847],[21.37709,62.15847],[21.37708,62.15849],[21.37705,62.15856],[21.37703,62.15865],[21.37703,62.15866],[21.37701,62.15887],[21.37701,62.15888],[21.377,62.15895],[21.37698,62.15904],[21.37697,62.15905],[21.37696,62.15907],[21.3769,62.15923],[21.37689,62.15923],[21.37679,62.15948],[21.37678,62.15949],[21.37666,62.15972],[21.3766,62.15984],[21.37659,62.15988],[21.37658,62.15991],[21.37658,62.15992],[21.37657,62.15994],[21.37657,62.15998],[21.37658,62.16008],[21.37658,62.16009],[21.37659,62.16012],[21.3766,62.1602],[21.37661,62.16021],[21.37662,62.16023],[21.37662,62.16025],[21.37663,62.16026],[21.37665,62.16028],[21.37666,62.1603],[21.37668,62.16031],[21.37674,62.16038]],[[21.37674,62.16038],[21.37675,62.16039],[21.37706,62.16061],[21.37708,62.16063],[21.37735,62.1608],[21.37737,62.16081],[21.37741,62.16085],[21.37759,62.161],[21.3776,62.16101],[21.37769,62.16109],[21.37779,62.16117],[21.37788,62.16123],[21.37793,62.16125],[21.378,62.16129],[21.37811,62.16135],[21.37837,62.16146],[21.37848,62.16151],[21.37849,62.16151],[21.37851,62.16152],[21.37856,62.16155],[21.37861,62.16158],[21.37865,62.16161],[21.37869,62.16164],[21.3787,62.16165],[21.37872,62.16167],[21.37875,62.1617],[21.37881,62.16177],[21.37881,62.16178],[21.37894,62.16195]],[[21.37894,62.16195],[21.37894,62.16195],[21.37912,62.16217],[21.37959,62.16279],[21.3796,62.1628],[21.37991,62.16328],[21.37992,62.16328],[21.38009,62.1636],[21.3801,62.1636],[21.38019,62.16381]],[[21.38019,62.16381],[21.38019,62.16382],[21.38023,62.16409],[21.38023,62.16411],[21.38024,62.16416],[21.38028,62.16428],[21.38029,62.1643],[21.3803,62.16433],[21.38042,62.16456],[21.38043,62.16457],[21.38061,62.16488],[21.38062,62.1649],[21.38064,62.16493],[21.38087,62.16528],[21.38107,62.16553],[21.38108,62.16554],[21.38134,62.16586],[21.38134,62.16587],[21.38167,62.16629],[21.38169,62.1663],[21.382,62.16673]],[[21.382,62.16673],[21.382,62.16674],[21.3821,62.16689],[21.38211,62.16691],[21.38223,62.16706],[21.38224,62.16707],[21.38241,62.16727],[21.38242,62.16728],[21.38248,62.16735],[21.38255,62.16741],[21.38261,62.16746],[21.38262,62.16746],[21.38264,62.16748],[21.38271,62.16752],[21.3829,62.16763]],[[21.3829,62.16763],[21.38291,62.16764],[21.38304,62.1677],[21.38305,62.1677],[21.38318,62.16777],[21.38324,62.16779],[21.38326,62.1678],[21.38329,62.16781],[21.38339,62.16784],[21.38358,62.16789],[21.38361,62.1679],[21.38403,62.16803],[21.38405,62.16803],[21.38453,62.16818],[21.38455,62.16819],[21.38505,62.16832],[21.38507,62.16833],[21.38539,62.16842],[21.38559,62.16848],[21.38561,62.16849],[21.38572,62.16851],[21.38582,62.16854],[21.38583,62.16854],[21.3859,62.16855],[21.38619,62.1686],[21.3862,62.1686],[21.38677,62.1687],[21.38711,62.16875],[21.38714,62.16875],[21.38732,62.16878],[21.38751,62.1688],[21.38753,62.1688],[21.38783,62.16883],[21.38794,62.16884],[21.38796,62.16885],[21.38799,62.16885],[21.38806,62.16886],[21.38828,62.16891],[21.38829,62.16891],[21.3885,62.16895],[21.3886,62.16898],[21.38863,62.16899],[21.38873,62.16902],[21.38885,62.16906],[21.38888,62.16907],[21.38903,62.16913],[21.38911,62.16917],[21.38911,62.16917],[21.38917,62.1692],[21.3894,62.16932],[21.38942,62.16933],[21.38945,62.16934],[21.38956,62.1694],[21.38961,62.16942],[21.38963,62.16943],[21.38966,62.16944],[21.38972,62.16946],[21.38981,62.16949],[21.38984,62.1695],[21.39018,62.16959],[21.39021,62.1696],[21.39053,62.16969]],[[21.39053,62.16969],[21.39055,62.1697],[21.39085,62.16978],[21.39111,62.16985],[21.39111,62.16986],[21.39143,62.16996],[21.39145,62.16996],[21.39165,62.17002],[21.39167,62.17002],[21.39174,62.17004],[21.39177,62.17005],[21.39181,62.17005],[21.39181,62.17006],[21.39185,62.17006],[21.39189,62.17007],[21.392,62.17008],[21.39202,62.17008],[21.3922,62.1701],[21.39223,62.1701],[21.39226,62.1701],[21.39238,62.17011],[21.39265,62.17012],[21.39266,62.17012],[21.39282,62.17012],[21.39289,62.17013],[21.39297,62.17013],[21.39298,62.17013],[21.39302,62.17014],[21.39309,62.17014],[21.39328,62.17017]],[[21.39328,62.17017],[21.39331,62.17017],[21.3939,62.17025],[21.39391,62.17025],[21.39468,62.17037],[21.39471,62.17037],[21.39533,62.17047]],[[21.39533,62.17047],[21.39574,62.17053],[21.39576,62.17054],[21.39627,62.17061],[21.39631,62.17062],[21.39685,62.17071],[21.39688,62.17071],[21.39724,62.17077],[21.39725,62.17077],[21.39773,62.17084],[21.39775,62.17085],[21.39789,62.17087],[21.39811,62.1709],[21.39815,62.17091],[21.39833,62.17094],[21.39836,62.17095],[21.39846,62.17097],[21.39877,62.17104],[21.3988,62.17105],[21.39919,62.17116],[21.39921,62.17116],[21.3994,62.17122],[21.39943,62.17123],[21.3996,62.17127],[21.39967,62.17129],[21.39968,62.17129],[21.39971,62.1713],[21.39975,62.1713],[21.39978,62.17131],[21.39982,62.17132],[21.39986,62.17132],[21.39989,62.17132],[21.3999,62.17132],[21.39994,62.17133],[21.39998,62.17133],[21.40002,62.17133],[21.40017,62.17133],[21.4002,62.17133],[21.40035,62.17133],[21.40039,62.17133],[21.40043,62.17133],[21.40047,62.17134],[21.40048,62.17134],[21.40052,62.17134],[21.40056,62.17135],[21.40059,62.17135],[21.40063,62.17136],[21.40066,62.17137],[21.4007,62.17137],[21.40072,62.17138],[21.40075,62.17139],[21.40079,62.1714],[21.40082,62.1714],[21.40085,62.17142],[21.40088,62.17143],[21.40091,62.17144],[21.40094,62.17145],[21.40097,62.17146],[21.401,62.17147],[21.40101,62.17148],[21.40104,62.17149],[21.40109,62.17152],[21.40113,62.17155],[21.40125,62.17164],[21.40126,62.17165],[21.40148,62.17181],[21.40149,62.17183],[21.40151,62.17184],[21.40163,62.17196]],[[21.40163,62.17196],[21.40163,62.17197],[21.40173,62.17208],[21.40177,62.17211],[21.40177,62.17212],[21.40179,62.17213],[21.40183,62.17216],[21.40187,62.17219],[21.40194,62.17224],[21.40195,62.17225],[21.40205,62.1723],[21.40228,62.17242],[21.40228,62.17243],[21.40249,62.17253],[21.40258,62.17257],[21.40259,62.17257],[21.40262,62.17258],[21.40271,62.17262],[21.40281,62.17265],[21.4029,62.17267],[21.40297,62.17269],[21.40304,62.1727],[21.40307,62.17271],[21.40314,62.17272],[21.40322,62.17273],[21.40333,62.17275],[21.40341,62.17275],[21.4036,62.17277],[21.40363,62.17277],[21.40385,62.17278],[21.40401,62.17279],[21.40403,62.17279],[21.40441,62.1728],[21.40443,62.1728],[21.40447,62.1728],[21.40481,62.17282],[21.40484,62.17282],[21.40503,62.17283],[21.40507,62.17283],[21.40522,62.17283],[21.40534,62.17283],[21.40546,62.17282],[21.40561,62.17282],[21.40564,62.17281],[21.40579,62.1728],[21.4059,62.17278],[21.40592,62.17278],[21.40611,62.17275]]]},"properties":{"name":"Mt 17023 Läntinen Härkmerentie, Kristiinankaupunki","kind":"project","ptype":"road","subtype":"Tiehanke","status":"kaynnissa","date":"2025–2025","url":"https://vayla.fi/hankkeet","source":"Väylävirasto"}},{"type":"Feature","geometry":{"type":"MultiLineString","coordinates":[[[21.42365,62.43517],[21.42364,62.43517],[21.42361,62.43516],[21.42358,62.43515],[21.42355,62.43513],[21.42354,62.43513],[21.42351,62.43512],[21.42349,62.4351],[21.42344,62.43507],[21.4234,62.43504],[21.42339,62.43504],[21.42334,62.43499]],[[21.42334,62.43499],[21.42333,62.43498],[21.42322,62.43489],[21.42321,62.43488],[21.423,62.43469],[21.42299,62.43468],[21.42286,62.43457]],[[21.42286,62.43457],[21.4228,62.43451],[21.42278,62.43449],[21.42252,62.43425],[21.42251,62.43424],[21.42232,62.43406],[21.42208,62.43384],[21.42207,62.43382],[21.42185,62.43362],[21.42183,62.4336],[21.42163,62.43341],[21.42162,62.4334],[21.42143,62.43318],[21.42132,62.43306]],[[21.42132,62.43306],[21.4213,62.43303],[21.42127,62.433],[21.42111,62.4328],[21.42099,62.43263]],[[21.42099,62.43263],[21.42098,62.43261],[21.42095,62.43258],[21.42095,62.43257],[21.42093,62.43255],[21.42088,62.43246]],[[21.42088,62.43246],[21.42087,62.43245],[21.42069,62.4322],[21.42069,62.43219],[21.42052,62.43191],[21.42051,62.4319],[21.42033,62.43163],[21.42031,62.43159],[21.42026,62.43153]],[[21.42026,62.43153],[21.42019,62.43141],[21.42018,62.43139],[21.42014,62.43132],[21.42008,62.43122],[21.41998,62.43107],[21.41996,62.43104]],[[21.41996,62.43104],[21.41969,62.43064]],[[21.41969,62.43064],[21.41959,62.43049]],[[21.41959,62.43049],[21.41958,62.43047],[21.41952,62.43039],[21.41952,62.43038],[21.41942,62.43021]],[[21.41942,62.43021],[21.41905,62.42961],[21.41904,62.42959],[21.41885,62.4293]],[[21.41885,62.4293],[21.41884,62.42929],[21.41808,62.42812],[21.41807,62.42811],[21.41789,62.42782]],[[21.41789,62.42782],[21.41775,62.4276],[21.41761,62.42737]],[[21.41761,62.42737],[21.41752,62.42722]],[[21.41752,62.42722],[21.41751,62.42721],[21.4174,62.42705],[21.41739,62.42705],[21.41729,62.42693],[21.41714,62.42679]],[[21.41714,62.42679],[21.41707,62.42672],[21.41683,62.42652],[21.41675,62.42646],[21.41673,62.42645],[21.41671,62.42643],[21.41661,62.42637],[21.41638,62.42625]],[[21.41638,62.42625],[21.41638,62.42625],[21.41625,62.42618],[21.41624,62.42618],[21.41614,62.42613]],[[21.41614,62.42613],[21.41611,62.42612],[21.41572,62.42592],[21.4157,62.42591],[21.41495,62.42554],[21.41494,62.42554],[21.41417,62.42516],[21.41345,62.42481]],[[21.41345,62.42481],[21.41344,62.4248],[21.41317,62.42467],[21.41316,62.42466],[21.41256,62.42436],[21.41172,62.42394],[21.41169,62.42392],[21.41156,62.42386]],[[21.41156,62.42386],[21.41154,62.42385],[21.41081,62.4235],[21.4108,62.4235],[21.41009,62.42315],[21.41009,62.42314],[21.4089,62.42255]],[[21.4089,62.42255],[21.40855,62.42238],[21.40782,62.42201],[21.40744,62.42183]],[[21.40744,62.42183],[21.40743,62.42182],[21.40717,62.42169],[21.40716,62.42169],[21.40666,62.42143],[21.40664,62.42142],[21.40617,62.42119],[21.40615,62.42118],[21.40576,62.42098],[21.40563,62.42092],[21.40562,62.42091],[21.40547,62.42083],[21.40542,62.4208],[21.40538,62.42077],[21.40534,62.42074],[21.40523,62.42064],[21.40522,62.42063],[21.40511,62.42053],[21.4051,62.42052],[21.40505,62.42047],[21.40496,62.42037],[21.40479,62.42014],[21.40478,62.42013],[21.40444,62.41965],[21.4044,62.4196]],[[21.4044,62.4196],[21.40439,62.41959],[21.40412,62.41922],[21.40411,62.4192],[21.40373,62.41867]],[[21.40373,62.41867],[21.40353,62.41839],[21.40352,62.41838],[21.40304,62.41772],[21.40298,62.41764],[21.40298,62.41763],[21.40264,62.41717],[21.40262,62.41716],[21.4022,62.4166],[21.40219,62.41658],[21.40194,62.41623]],[[21.40194,62.41623],[21.40184,62.41609],[21.40183,62.41609],[21.40149,62.41563],[21.40148,62.41562],[21.40141,62.41552],[21.40122,62.41519],[21.40119,62.41514]],[[21.40119,62.41514],[21.40119,62.41513],[21.40108,62.41493]],[[21.40108,62.41493],[21.40107,62.4149],[21.40106,62.41489],[21.4008,62.41434],[21.4008,62.41433],[21.40053,62.41379],[21.40053,62.41378],[21.40028,62.41326],[21.40028,62.41324],[21.40008,62.41281],[21.40007,62.41279],[21.3999,62.41242],[21.39989,62.41241],[21.39968,62.41199],[21.39967,62.41197],[21.39945,62.41146],[21.39944,62.41145],[21.39927,62.41109],[21.39927,62.41108],[21.39909,62.41071],[21.39908,62.4107],[21.39902,62.4106],[21.39895,62.41051],[21.39894,62.4105],[21.39888,62.41043]],[[21.39888,62.41043],[21.39887,62.41042],[21.39876,62.41032],[21.39875,62.41032],[21.39867,62.41025],[21.39846,62.4101],[21.39844,62.41009],[21.398,62.40978],[21.39798,62.40977],[21.39774,62.4096]],[[21.39774,62.4096],[21.39773,62.4096],[21.39756,62.40948],[21.39719,62.40923],[21.39718,62.40923],[21.39681,62.409],[21.3968,62.40899],[21.39654,62.40882],[21.39653,62.40881],[21.39652,62.40881],[21.39642,62.40875],[21.39641,62.40874],[21.39629,62.40867],[21.39602,62.40849],[21.39602,62.40849],[21.39542,62.40809],[21.39541,62.40809],[21.39483,62.40771],[21.39482,62.4077],[21.39413,62.40727],[21.39413,62.40726],[21.39353,62.40687],[21.39351,62.40686],[21.39306,62.40657],[21.39305,62.40656],[21.39285,62.40645],[21.39284,62.40645],[21.39276,62.40641],[21.39244,62.40625],[21.39244,62.40625],[21.39232,62.4062],[21.39197,62.40606],[21.39195,62.40605],[21.39144,62.40585],[21.39142,62.40585],[21.39136,62.40582]]]},"properties":{"name":"Mt 17093 Bäcklidvägen, Närpiö","kind":"project","ptype":"road","subtype":"Tiehanke","status":"kaynnissa","date":"2025–2025","url":"https://vayla.fi/hankkeet","source":"Väylävirasto"}},{"type":"Feature","geometry":{"type":"MultiLineString","coordinates":[[[21.43683,62.10896],[21.43684,62.10897]],[[21.43684,62.10897],[21.43691,62.10905],[21.43692,62.10907],[21.43692,62.10907],[21.43703,62.10926],[21.43704,62.10928],[21.43707,62.10932],[21.4371,62.10935],[21.43713,62.10938],[21.43717,62.10941],[21.43721,62.10944],[21.43725,62.10947],[21.43726,62.10948],[21.43733,62.10953],[21.43748,62.10961],[21.43754,62.10963],[21.43755,62.10964],[21.43786,62.10979],[21.43788,62.1098],[21.43819,62.10998],[21.43821,62.10999],[21.43852,62.11017],[21.43854,62.11018],[21.43887,62.11035],[21.4389,62.11037],[21.43907,62.11046],[21.43909,62.11048]],[[21.43909,62.11048],[21.43925,62.11056],[21.4396,62.11076],[21.43961,62.11076],[21.43996,62.11096],[21.43996,62.11096],[21.44017,62.11109],[21.44026,62.11115],[21.44027,62.11116],[21.44035,62.11122],[21.44048,62.11135],[21.44049,62.11137],[21.44061,62.1115],[21.44065,62.11155],[21.44069,62.1116],[21.4407,62.11161],[21.4408,62.11182],[21.44081,62.11183],[21.44093,62.112],[21.44094,62.11202],[21.44106,62.11222],[21.44106,62.11223],[21.44113,62.11233],[21.44116,62.11238],[21.44118,62.11242],[21.44118,62.11243],[21.44118,62.11245],[21.44119,62.11248],[21.4412,62.11252],[21.44119,62.11264],[21.44119,62.11266],[21.44118,62.11285],[21.44118,62.11286],[21.44115,62.11304],[21.44115,62.11305],[21.44111,62.11328],[21.44111,62.11329],[21.44106,62.11354],[21.44106,62.11355],[21.44099,62.11376],[21.44099,62.11378],[21.44097,62.11381],[21.44088,62.11399],[21.44087,62.114],[21.44078,62.11414],[21.44073,62.11421],[21.44072,62.11422],[21.44068,62.11427],[21.44055,62.1144],[21.44053,62.11441],[21.44032,62.11462],[21.44031,62.11463],[21.44022,62.11471],[21.44016,62.11477],[21.44012,62.11482],[21.44011,62.11483],[21.44009,62.11487],[21.44006,62.11492],[21.44003,62.11499],[21.44,62.11509],[21.43999,62.11511],[21.43997,62.1152],[21.43991,62.11541],[21.43991,62.11542],[21.43991,62.11546],[21.4399,62.11553],[21.4399,62.11554],[21.43991,62.11559],[21.43993,62.11577],[21.43994,62.11578],[21.43997,62.11598],[21.43997,62.11599],[21.43998,62.11617],[21.43999,62.11638]],[[21.43999,62.11638],[21.43999,62.11639],[21.44001,62.11657],[21.44001,62.11668],[21.44001,62.11672],[21.44001,62.11673],[21.44,62.11675],[21.44,62.11676],[21.43998,62.1168],[21.43995,62.11687],[21.43994,62.11688],[21.43984,62.11704],[21.43983,62.11705],[21.43977,62.11714],[21.43976,62.11717],[21.43975,62.11721],[21.43975,62.11721],[21.43974,62.11723],[21.43974,62.11727],[21.43974,62.1173],[21.43974,62.11739],[21.43975,62.1174],[21.43975,62.11742],[21.43979,62.11763],[21.43979,62.11764],[21.43985,62.11784],[21.43985,62.11784],[21.43986,62.11788],[21.43988,62.11804],[21.43989,62.11805],[21.43989,62.11814],[21.43989,62.11837],[21.43986,62.11859],[21.43986,62.11859],[21.43986,62.11882],[21.43986,62.11883],[21.43986,62.11919],[21.43986,62.1192],[21.43986,62.11923],[21.43982,62.1195]],[[21.43982,62.1195],[21.43981,62.11951],[21.43978,62.11965],[21.43977,62.11976],[21.43977,62.11976],[21.43977,62.11996],[21.43976,62.12016],[21.43976,62.12017],[21.43975,62.12039],[21.43975,62.1204],[21.43973,62.12061],[21.43973,62.12062],[21.43972,62.12068],[21.43973,62.12079],[21.43973,62.12079],[21.43975,62.1209],[21.43978,62.12099],[21.43981,62.12104],[21.43988,62.12118],[21.43989,62.1212],[21.44001,62.1214],[21.44001,62.12141],[21.44002,62.12143],[21.44014,62.12171],[21.44015,62.12173],[21.44026,62.12197],[21.44027,62.12198],[21.44035,62.12219],[21.44036,62.12221],[21.44039,62.12233]],[[21.44039,62.12233],[21.4404,62.12234],[21.44041,62.12245],[21.44041,62.12246],[21.44041,62.12256],[21.44041,62.12257],[21.44041,62.12273],[21.44041,62.12274],[21.44041,62.1229],[21.44041,62.12291],[21.44042,62.12293],[21.44043,62.12299],[21.44044,62.12302],[21.44044,62.12303],[21.44046,62.12306],[21.4405,62.12313]],[[21.4405,62.12313],[21.44051,62.12314],[21.44069,62.1233],[21.44094,62.12348],[21.44096,62.1235],[21.44114,62.12364]],[[21.44114,62.12364],[21.44131,62.12379],[21.44141,62.12389],[21.44142,62.12391],[21.44156,62.12403],[21.44171,62.12416],[21.44172,62.12417],[21.44193,62.12432],[21.44195,62.12433],[21.44199,62.12436],[21.44203,62.12439],[21.44204,62.12441],[21.44206,62.12443],[21.44207,62.12443],[21.44208,62.12445],[21.44213,62.12452]],[[21.44213,62.12452],[21.44218,62.12463]],[[21.44218,62.12463],[21.44219,62.12466],[21.44219,62.12471],[21.44219,62.12479],[21.44216,62.12493],[21.44216,62.12495],[21.44212,62.12516],[21.44212,62.12517],[21.44211,62.12518],[21.44205,62.1254],[21.44204,62.12541],[21.44195,62.12565],[21.44191,62.12578],[21.44189,62.12585],[21.44189,62.12586],[21.44189,62.12588],[21.44188,62.12595],[21.44189,62.12606],[21.44189,62.12607],[21.44192,62.12628],[21.44192,62.1263],[21.44193,62.12664],[21.44193,62.12665],[21.44192,62.12703]],[[21.44192,62.12703],[21.44192,62.12703],[21.44186,62.12735],[21.44186,62.12736],[21.44184,62.12741],[21.44178,62.12755],[21.44178,62.12757],[21.44177,62.12758],[21.44164,62.12781]],[[21.44164,62.12781],[21.44149,62.12806],[21.44148,62.12806],[21.44134,62.12829],[21.44134,62.12829],[21.44119,62.12853]],[[21.44119,62.12853],[21.44102,62.12881],[21.44101,62.12882],[21.44081,62.12919],[21.44064,62.12948],[21.44064,62.12949],[21.44051,62.12975],[21.44041,62.13002],[21.44034,62.13032],[21.44034,62.13033],[21.44029,62.13065],[21.44029,62.13067],[21.44027,62.13095],[21.44027,62.13097],[21.44028,62.13117],[21.44028,62.13117],[21.44028,62.13124],[21.44031,62.13139],[21.44032,62.1314],[21.44038,62.13159]],[[21.44038,62.13159],[21.44038,62.13161],[21.44047,62.13187],[21.44049,62.132],[21.44049,62.13201],[21.44049,62.13211],[21.44048,62.13222],[21.44048,62.13222],[21.44046,62.13231],[21.44043,62.13242],[21.44042,62.13244],[21.44037,62.13254],[21.44031,62.13265],[21.4403,62.13266],[21.44023,62.13275],[21.44023,62.13276],[21.44013,62.13287],[21.43993,62.13307],[21.43992,62.13307],[21.43975,62.13325],[21.43974,62.13327],[21.43956,62.13347],[21.43955,62.13347],[21.43947,62.13355],[21.43945,62.13356],[21.43938,62.13363],[21.43936,62.13364],[21.43935,62.13365],[21.43922,62.13374],[21.43921,62.13375],[21.43916,62.13378],[21.43902,62.13386],[21.439,62.13388],[21.4388,62.13399],[21.4388,62.13399],[21.43851,62.13415],[21.4385,62.13416],[21.43829,62.13429],[21.43825,62.13432],[21.438,62.13446],[21.43799,62.13446],[21.43787,62.13453],[21.43786,62.13454],[21.43766,62.13465],[21.43764,62.13466],[21.4375,62.13474],[21.43748,62.13476],[21.43742,62.1348],[21.43735,62.13485],[21.43735,62.13485],[21.43731,62.13488],[21.43723,62.13497],[21.43722,62.13497],[21.43709,62.13512],[21.43708,62.13513],[21.43694,62.13528],[21.43693,62.13529],[21.43679,62.13544],[21.43678,62.13544],[21.43671,62.13552],[21.43664,62.13561],[21.43663,62.13562],[21.4366,62.13567],[21.43658,62.13571],[21.43658,62.13572],[21.43657,62.13574],[21.43656,62.13578],[21.43655,62.13585],[21.43655,62.13587],[21.43655,62.13596]],[[21.43655,62.13596],[21.43655,62.13596],[21.4366,62.13618],[21.4366,62.13618],[21.43666,62.13642],[21.43666,62.13642],[21.43675,62.13671],[21.43681,62.13699],[21.43681,62.137],[21.43683,62.13727],[21.43683,62.13729],[21.43683,62.13754],[21.43683,62.13755],[21.43681,62.13775],[21.4368,62.13776],[21.43679,62.13781],[21.43676,62.13792],[21.43675,62.13793],[21.4367,62.13804]],[[21.4367,62.13804],[21.4367,62.13804],[21.43657,62.13827],[21.43656,62.13828],[21.43639,62.1385],[21.43639,62.13851],[21.43633,62.13859],[21.43624,62.13875],[21.43624,62.13875],[21.4362,62.13884],[21.43615,62.13898],[21.43615,62.13899],[21.43612,62.13912],[21.43611,62.13922],[21.43611,62.13923],[21.43611,62.13927],[21.43613,62.13947],[21.43613,62.13948],[21.43615,62.1398],[21.43615,62.1398],[21.43615,62.13991],[21.43613,62.14011],[21.43613,62.14012],[21.4361,62.14023],[21.43607,62.1403],[21.43607,62.14032],[21.43604,62.14037],[21.43596,62.14049],[21.43595,62.1405],[21.43581,62.14071]],[[21.43581,62.14071],[21.43581,62.14071],[21.43578,62.1408],[21.43576,62.14085],[21.43576,62.14087],[21.43575,62.14092],[21.43575,62.14098],[21.43576,62.14105],[21.43576,62.14106],[21.43582,62.14131],[21.43582,62.14131],[21.43589,62.14173],[21.43589,62.14174],[21.43597,62.14206],[21.43597,62.14208],[21.43607,62.14238],[21.43607,62.14239],[21.43619,62.14269]],[[21.43619,62.14269],[21.4362,62.14271],[21.43625,62.14281],[21.43626,62.14282],[21.43633,62.14297],[21.43634,62.14299],[21.43637,62.14304],[21.43649,62.14319],[21.4365,62.1432],[21.43666,62.14341],[21.43666,62.14341],[21.43673,62.14349],[21.43675,62.14351],[21.43676,62.14353],[21.43677,62.14354],[21.43677,62.14356],[21.43678,62.14357],[21.43678,62.14359],[21.43679,62.14363],[21.43679,62.14363],[21.43679,62.14365],[21.43679,62.14367],[21.43679,62.14369],[21.43678,62.1437],[21.43678,62.14372],[21.43677,62.14374],[21.43676,62.14376],[21.43675,62.14377],[21.4367,62.14384]],[[21.4367,62.14384],[21.43668,62.14386],[21.43653,62.144],[21.43651,62.14402],[21.43649,62.14403],[21.43637,62.14412],[21.43595,62.1444],[21.43594,62.14441],[21.43544,62.14479],[21.43543,62.14479],[21.43493,62.14516],[21.43493,62.14516],[21.4344,62.14556],[21.4344,62.14556],[21.43418,62.14573],[21.43418,62.14574],[21.43406,62.14585],[21.434,62.14592],[21.43393,62.146],[21.43391,62.14604],[21.43387,62.14609],[21.43386,62.14612],[21.43385,62.14616],[21.43384,62.14618],[21.43384,62.14619],[21.43383,62.14623],[21.43383,62.14632]],[[21.43383,62.14632],[21.43383,62.14632],[21.43385,62.14638],[21.43386,62.14638],[21.43386,62.1464],[21.43389,62.14645],[21.4339,62.14646],[21.43394,62.14653],[21.43397,62.14656],[21.43398,62.14657],[21.43399,62.14659],[21.43412,62.1467],[21.43414,62.14671],[21.43425,62.14683],[21.43426,62.14684],[21.43435,62.14694],[21.43438,62.14697],[21.43439,62.14698],[21.43441,62.14702],[21.43445,62.14709],[21.43452,62.14725],[21.43453,62.14726],[21.43454,62.1473],[21.43457,62.14742],[21.43459,62.1476],[21.4346,62.14762],[21.43461,62.14771],[21.43461,62.14772],[21.43461,62.14785],[21.4346,62.14792],[21.43458,62.14799],[21.43455,62.14808],[21.43455,62.14808],[21.43453,62.14812],[21.43445,62.14826],[21.43445,62.14827],[21.43439,62.14838],[21.43438,62.14841],[21.43437,62.14843],[21.43437,62.14844],[21.43436,62.14848],[21.43436,62.14857]],[[21.43436,62.14857],[21.43436,62.14876]],[[21.43436,62.14876],[21.43435,62.14888],[21.43437,62.14903]],[[21.43437,62.14903],[21.43437,62.14903],[21.43443,62.14923],[21.43443,62.14924],[21.43447,62.14938],[21.43447,62.14939],[21.43451,62.14952],[21.43452,62.14955],[21.43452,62.14957],[21.43452,62.14966],[21.43452,62.14967],[21.43452,62.14969],[21.43453,62.14985],[21.43453,62.14987],[21.43455,62.14994],[21.43456,62.14997],[21.43457,62.15001],[21.43458,62.15002],[21.43459,62.15004],[21.43461,62.15007],[21.43466,62.15014],[21.43467,62.15015],[21.43477,62.15026],[21.43478,62.15027],[21.43491,62.1504],[21.43491,62.15041],[21.435,62.15051],[21.43507,62.15061],[21.43508,62.15065],[21.4351,62.15068],[21.4351,62.1507],[21.43511,62.15071],[21.43511,62.15075],[21.43511,62.15079],[21.43511,62.15084],[21.43511,62.15085],[21.4351,62.15093],[21.43505,62.15109],[21.435,62.15126],[21.43499,62.1513],[21.43499,62.15137],[21.43499,62.15144],[21.435,62.15146],[21.43501,62.15153],[21.43501,62.15154],[21.43507,62.15179],[21.43507,62.1518],[21.43509,62.15187],[21.43517,62.15208],[21.43518,62.15209],[21.4353,62.15232],[21.43531,62.15233],[21.43543,62.15244],[21.43548,62.15249],[21.43554,62.15254],[21.43555,62.15255],[21.43558,62.15256],[21.43574,62.15266],[21.43576,62.15268],[21.43587,62.15275],[21.43602,62.15283],[21.4363,62.15298],[21.43633,62.15299],[21.43635,62.15301],[21.43639,62.15304],[21.43641,62.15305],[21.43643,62.15307],[21.43645,62.15308],[21.43646,62.1531],[21.43648,62.15311],[21.43649,62.15313],[21.43651,62.15315],[21.43652,62.15316],[21.43653,62.15318],[21.43654,62.1532],[21.43654,62.15321],[21.43655,62.15323],[21.43656,62.15325],[21.43656,62.15327],[21.43657,62.15328],[21.43657,62.1533],[21.43657,62.15332],[21.43657,62.15334],[21.43656,62.15336],[21.43656,62.15337],[21.43655,62.15341],[21.43651,62.15352]],[[21.43651,62.15352],[21.4365,62.15352],[21.43636,62.15375],[21.43636,62.15375],[21.4363,62.15384],[21.43627,62.15389],[21.43627,62.15389],[21.43626,62.15391],[21.43625,62.15395],[21.43624,62.15398],[21.43623,62.15402],[21.43623,62.15403],[21.43623,62.15406],[21.43623,62.15412],[21.43625,62.15421],[21.43628,62.15437],[21.43629,62.15438],[21.43629,62.15445],[21.43629,62.1545],[21.43629,62.15454],[21.43628,62.15458],[21.43627,62.15461],[21.43625,62.15465],[21.43624,62.15468],[21.43623,62.15469],[21.43622,62.15471],[21.43619,62.15474],[21.43615,62.15479],[21.43603,62.15491],[21.43603,62.15491],[21.43589,62.15506],[21.43586,62.15509],[21.43584,62.15513],[21.43583,62.15514],[21.43582,62.15516],[21.4358,62.15521],[21.43576,62.15533],[21.43576,62.15535],[21.43571,62.15545],[21.43566,62.15556],[21.43565,62.15558],[21.43554,62.15573],[21.43554,62.15573],[21.4354,62.15594],[21.43539,62.15595],[21.43528,62.15614],[21.43515,62.15631],[21.43515,62.15631],[21.4351,62.15638],[21.43507,62.15641],[21.43505,62.15643],[21.43503,62.15645],[21.43502,62.15646],[21.435,62.15648],[21.43495,62.15651],[21.43493,62.15652],[21.43491,62.15654],[21.43483,62.15658],[21.43482,62.15658],[21.43472,62.15664],[21.43466,62.15666],[21.43464,62.15667],[21.43458,62.15669],[21.43452,62.15671],[21.43443,62.15674],[21.43423,62.1568],[21.43421,62.1568],[21.43363,62.15695]],[[21.43363,62.15695],[21.43362,62.15695],[21.43336,62.15703],[21.43335,62.15704],[21.43306,62.15713]],[[21.43306,62.15713],[21.43213,62.15745],[21.43211,62.15745],[21.4314,62.15767],[21.43137,62.15768],[21.43112,62.15776]],[[21.43112,62.15776],[21.43109,62.15777],[21.43083,62.15784],[21.43076,62.15786],[21.4307,62.15789],[21.43065,62.15791],[21.43062,62.15792],[21.4306,62.15793],[21.43049,62.15799]],[[21.43049,62.15799],[21.4304,62.15807],[21.43037,62.1581],[21.43034,62.15813],[21.43033,62.15814],[21.43031,62.15817],[21.43029,62.15821],[21.43024,62.15829],[21.43024,62.1583],[21.43008,62.15865],[21.43008,62.15865],[21.43002,62.15879]],[[21.43002,62.15879],[21.42982,62.15922],[21.42982,62.15923],[21.42958,62.15966],[21.42958,62.15967],[21.42932,62.16014],[21.42926,62.16027]]]},"properties":{"name":"Mt 17021 Henriksdalsvägen parantaminen","kind":"project","ptype":"road","subtype":"Tiehanke","status":"kaynnissa","date":"2025–2025","url":"https://vayla.fi/hankkeet","source":"Väylävirasto"}},{"type":"Feature","geometry":{"type":"MultiPoint","coordinates":[[21.4958,62.24996]]},"properties":{"name":"EPOELY Lapväärtinjoen silta V-23, 2025, KU","kind":"project","ptype":"road","subtype":"Tiehanke","status":"kaynnissa","date":"2025–2026","url":"https://vayla.fi/hankkeet","source":"Väylävirasto"}}]}