{"type":"FeatureCollection","features":[{"type":"Feature","geometry":{"type":"LineString","coordinates":[[27.73247,63.09751],[27.73248,63.09751]]},"properties":{"name":"Sillankorjausurakka POS ELY 2025-26","kind":"project","ptype":"road","subtype":"Tiehanke","status":"kaynnissa","date":"2025–2026","url":"https://vayla.fi/hankkeet","source":"Väylävirasto"}},{"type":"Feature","geometry":{"type":"LineString","coordinates":[[27.74051,62.98383],[27.74172,62.98395],[27.74173,62.98395],[27.74175,62.98395],[27.74198,62.98397],[27.74199,62.98398]]},"properties":{"name":"Vt 9 Lotteinen-Jännevirta, KU","kind":"project","ptype":"road","subtype":"Tiehanke","status":"kaynnissa","date":"2024–2026","url":"https://vayla.fi/hankkeet","source":"Väylävirasto"}},{"type":"Feature","geometry":{"type":"LineString","coordinates":[[27.26102,63.59514],[26.2622,62.91241],[26.56523,61.47161],[28.12668,61.86545],[28.71633,62.42373],[28.06256,63.39683],[27.2702,63.57624]]},"properties":{"name":"POSELY586/2025 Valaisinvaihdot 2025, Itä-Suomi","kind":"project","ptype":"road","subtype":"Tiehanke","status":"kaynnissa","date":"2024–2025","url":"https://vayla.fi/hankkeet","source":"Väylävirasto"}},{"type":"Feature","geometry":{"type":"LineString","coordinates":[[27.66498,63.08273],[27.67863,63.0952],[27.74005,63.1083],[27.77414,63.13321],[27.79636,63.14217],[27.86648,63.153],[27.91227,63.14926],[28.05568,63.12188],[28.10642,63.12452],[28.11922,63.13437],[28.17344,63.12787],[28.21882,63.11624],[28.24007,63.09919],[28.25955,63.08604],[28.31803,63.0708],[28.3125,63.05398],[28.33622,63.03084],[28.49941,62.98118],[28.56552,62.97268],[28.62155,62.95431],[28.65735,62.93227],[28.69967,62.92527],[28.7789,62.88579],[28.81096,62.86765],[28.83179,62.85223],[28.92969,62.81458],[28.99779,62.77296],[29.08964,62.69634],[29.15362,62.66941],[29.1772,62.65736],[29.21502,62.64725],[29.19134,62.64503],[29.16421,62.62122],[29.14986,62.60456],[29.13371,62.57582],[29.13097,62.56375],[29.09189,62.55482],[29.04562,62.52262],[29.04246,62.49021],[29.03799,62.47946],[29.04151,62.46253],[29.0277,62.43807],[29.0256,62.42079],[29.03221,62.40815],[29.04292,62.40107],[29.04443,62.39585],[29.04032,62.39029],[29.02582,62.38271],[29.00877,62.37863],[28.99198,62.37844],[28.98149,62.3747],[28.92653,62.37504],[28.89732,62.36981],[28.86588,62.3737],[28.83313,62.38668],[28.80799,62.38701],[28.78835,62.38597],[28.74304,62.39216],[28.72063,62.39158],[28.70168,62.38619],[28.67445,62.38262],[28.6596,62.38367],[28.58211,62.38111],[28.52419,62.37829],[28.49794,62.37512],[28.40492,62.35835],[28.37975,62.35773],[28.31029,62.34499],[28.24306,62.33956],[28.22058,62.33586],[28.19516,62.32829],[28.15129,62.32434],[28.1212,62.3155],[28.10155,62.3122],[28.07699,62.30114],[28.05732,62.29697],[28.0202,62.29811],[27.99155,62.30308],[27.94213,62.29758],[27.91989,62.29946],[27.87007,62.31189]]},"properties":{"name":"POKA VT16 Joensuu-Nurmes","kind":"project","ptype":"rail","subtype":"Ratahanke","status":"kaynnissa","date":"2022–2025","url":"https://vayla.fi/hankkeet","source":"Väylävirasto"}},{"type":"Feature","geometry":{"type":"Point","coordinates":[27.6317,62.88459]},"properties":{"name":"Kuopion alueen siltaurakat 2024","kind":"project","ptype":"rail","subtype":"Ratahanke","status":"kaynnissa","date":"2024–2024","url":"https://extranet.vayla.fi/trex/#/rakenne/18036","source":"Väylävirasto"}},{"type":"Feature","geometry":{"type":"Point","coordinates":[27.68671,62.95444]},"properties":{"name":"Kuopion alueen siltaurakat 2024","kind":"project","ptype":"rail","subtype":"Ratahanke","status":"kaynnissa","date":"2024–2024","url":"https://extranet.vayla.fi/trex/#/rakenne/18036","source":"Väylävirasto"}},{"type":"Feature","geometry":{"type":"Point","coordinates":[27.65076,62.89417]},"properties":{"name":"Kuopion alueen siltaurakat 2024","kind":"project","ptype":"rail","subtype":"Ratahanke","status":"kaynnissa","date":"2024–2024","url":"https://extranet.vayla.fi/trex/#/rakenne/18036","source":"Väylävirasto"}},{"type":"Feature","geometry":{"type":"Point","coordinates":[27.51172,62.76721]},"properties":{"name":"Kurkimäki syöttöaseman uudistaminen, ST","kind":"project","ptype":"rail","subtype":"Ratahanke","status":"kaynnissa","date":"2026–2028","url":"https://vayla.fi/hankkeet","source":"Väylävirasto"}},{"type":"Feature","geometry":{"type":"LineString","coordinates":[[27.66498,63.08273],[27.67863,63.0952],[27.74005,63.1083],[27.77414,63.13321],[27.79636,63.14217],[27.86648,63.153],[27.91227,63.14926],[28.05568,63.12188],[28.10642,63.12452],[28.11922,63.13437],[28.17344,63.12787],[28.21882,63.11624],[28.24007,63.09919],[28.25955,63.08604],[28.31803,63.0708],[28.3125,63.05398],[28.33622,63.03084],[28.49941,62.98118],[28.56552,62.97268],[28.62155,62.95431],[28.65735,62.93227],[28.69967,62.92527],[28.7789,62.88579],[28.81096,62.86765],[28.83179,62.85223],[28.92969,62.81458],[28.99779,62.77296],[29.08964,62.69634],[29.15362,62.66941],[29.1772,62.65736],[29.21502,62.64725],[29.19134,62.64503],[29.16421,62.62122],[29.14986,62.60456],[29.13371,62.57582],[29.13097,62.56375],[29.09189,62.55482],[29.04562,62.52262],[29.04246,62.49021],[29.03799,62.47946],[29.04151,62.46253],[29.0277,62.43807],[29.0256,62.42079],[29.03221,62.40815],[29.04292,62.40107],[29.04443,62.39585],[29.04032,62.39029],[29.02582,62.38271],[29.00877,62.37863],[28.99198,62.37844],[28.98149,62.3747],[28.92653,62.37504],[28.89732,62.36981],[28.86588,62.3737],[28.83313,62.38668],[28.80799,62.38701],[28.78835,62.38597],[28.74304,62.39216],[28.72063,62.39158],[28.70168,62.38619],[28.67445,62.38262],[28.6596,62.38367],[28.58211,62.38111],[28.52419,62.37829],[28.49794,62.37512],[28.40492,62.35835],[28.37975,62.35773],[28.31029,62.34499],[28.24306,62.33956],[28.22058,62.33586],[28.19516,62.32829],[28.15129,62.32434],[28.1212,62.3155],[28.10155,62.3122],[28.07699,62.30114],[28.05732,62.29697],[28.0202,62.29811],[27.99155,62.30308],[27.94213,62.29758],[27.91989,62.29946],[27.87007,62.31189]]},"properties":{"name":"POKA VT17.2 Laurila-Patokangas","kind":"project","ptype":"rail","subtype":"Ratahanke","status":"kaynnissa","date":"2022–2025","url":"https://vayla.fi/hankkeet","source":"Väylävirasto"}},{"type":"Feature","geometry":{"type":"Point","coordinates":[27.65076,62.89417]},"properties":{"name":"Pieni Neulamäki, tunnelin korjaus","kind":"project","ptype":"rail","subtype":"Ratahanke","status":"kaynnissa","date":"2024–2024","url":"https://vayla.fi/hankkeet","source":"Väylävirasto"}},{"type":"Feature","geometry":{"type":"Point","coordinates":[27.68671,62.95444]},"properties":{"name":"Pieni Neulamäki, tunnelin korjaus","kind":"project","ptype":"rail","subtype":"Ratahanke","status":"kaynnissa","date":"2024–2024","url":"https://vayla.fi/hankkeet","source":"Väylävirasto"}},{"type":"Feature","geometry":{"type":"Point","coordinates":[27.6317,62.88459]},"properties":{"name":"Pieni Neulamäki, tunnelin korjaus","kind":"project","ptype":"rail","subtype":"Ratahanke","status":"kaynnissa","date":"2024–2024","url":"https://vayla.fi/hankkeet","source":"Väylävirasto"}},{"type":"Feature","geometry":{"type":"LineString","coordinates":[[27.66498,63.08273],[27.67863,63.0952],[27.74005,63.1083],[27.77414,63.13321],[27.79636,63.14217],[27.86648,63.153],[27.91227,63.14926],[28.05568,63.12188],[28.10642,63.12452],[28.11922,63.13437],[28.17344,63.12787],[28.21882,63.11624],[28.24007,63.09919],[28.25955,63.08604],[28.31803,63.0708],[28.3125,63.05398],[28.33622,63.03084],[28.49941,62.98118],[28.56552,62.97268],[28.62155,62.95431],[28.65735,62.93227],[28.69967,62.92527],[28.7789,62.88579],[28.81096,62.86765],[28.83179,62.85223],[28.92969,62.81458],[28.99779,62.77296],[29.08964,62.69634],[29.15362,62.66941],[29.1772,62.65736],[29.21502,62.64725],[29.19134,62.64503],[29.16421,62.62122],[29.14986,62.60456],[29.13371,62.57582],[29.13097,62.56375],[29.09189,62.55482],[29.04562,62.52262],[29.04246,62.49021],[29.03799,62.47946],[29.04151,62.46253],[29.0277,62.43807],[29.0256,62.42079],[29.03221,62.40815],[29.04292,62.40107],[29.04443,62.39585],[29.04032,62.39029],[29.02582,62.38271],[29.00877,62.37863],[28.99198,62.37844],[28.98149,62.3747],[28.92653,62.37504],[28.89732,62.36981],[28.86588,62.3737],[28.83313,62.38668],[28.80799,62.38701],[28.78835,62.38597],[28.74304,62.39216],[28.72063,62.39158],[28.70168,62.38619],[28.67445,62.38262],[28.6596,62.38367],[28.58211,62.38111],[28.52419,62.37829],[28.49794,62.37512],[28.40492,62.35835],[28.37975,62.35773],[28.31029,62.34499],[28.24306,62.33956],[28.22058,62.33586],[28.19516,62.32829],[28.15129,62.32434],[28.1212,62.3155],[28.10155,62.3122],[28.07699,62.30114],[28.05732,62.29697],[28.0202,62.29811],[27.99155,62.30308],[27.94213,62.29758],[27.91989,62.29946],[27.87007,62.31189]]},"properties":{"name":"POKA VT17.1 Tornio-Kolari","kind":"project","ptype":"rail","subtype":"Ratahanke","status":"kaynnissa","date":"2022–2025","url":"https://vayla.fi/hankkeet","source":"Väylävirasto"}},{"type":"Feature","geometry":{"type":"LineString","coordinates":[[27.66511,63.08186],[27.66509,63.0823],[27.66507,63.08287],[27.66509,63.08304],[27.66521,63.08381],[27.66528,63.08405],[27.66554,63.08486],[27.66585,63.08551],[27.66594,63.08566],[27.66612,63.08595],[27.6665,63.08655],[27.66662,63.0867],[27.66684,63.08699],[27.6672,63.0874],[27.66732,63.08753],[27.66797,63.08817],[27.66877,63.08885],[27.66959,63.08944],[27.67042,63.08999],[27.67138,63.09055],[27.67262,63.09119],[27.67409,63.09185],[27.67521,63.09228],[27.67663,63.0928],[27.67702,63.09294],[27.67749,63.09311],[27.6775,63.09312],[27.67839,63.09343],[27.67949,63.0938],[27.68018,63.094],[27.68094,63.0942],[27.68167,63.09436],[27.68244,63.09452],[27.68325,63.09465],[27.68369,63.09472],[27.68399,63.09477],[27.68489,63.09489],[27.6857,63.095],[27.68611,63.09507],[27.68691,63.09519],[27.6887,63.09544],[27.68939,63.09554],[27.6896,63.09557],[27.6898,63.0956],[27.68999,63.09562],[27.69078,63.09573],[27.69147,63.09583],[27.69305,63.09605],[27.69401,63.09618],[27.69502,63.09633],[27.69611,63.09648],[27.69623,63.0965],[27.6973,63.09665],[27.69819,63.09678],[27.6991,63.09693],[27.69993,63.09708],[27.70076,63.09723],[27.70153,63.09739],[27.7022,63.09753],[27.7028,63.09767],[27.70342,63.09782],[27.70397,63.09796],[27.7047,63.09815],[27.70602,63.0985],[27.70725,63.09883],[27.70857,63.09919],[27.71027,63.09964],[27.71159,63.09999],[27.71215,63.10015],[27.71286,63.10033],[27.71361,63.10053],[27.71403,63.10065],[27.71432,63.10072],[27.71482,63.10086],[27.71535,63.10098],[27.71584,63.10108],[27.71635,63.10119],[27.71648,63.10121],[27.71694,63.1013],[27.71722,63.10134],[27.71731,63.10136],[27.71796,63.10145],[27.71856,63.10152],[27.71933,63.1016],[27.72001,63.10166],[27.7208,63.10171],[27.72168,63.10174],[27.72217,63.10175],[27.72313,63.10176],[27.72391,63.10176],[27.72436,63.10176],[27.72509,63.10176],[27.7263,63.10175],[27.72741,63.10176],[27.72839,63.10179],[27.72944,63.10184],[27.73045,63.10193],[27.73164,63.10206],[27.73254,63.10216],[27.73347,63.10226],[27.73348,63.10226],[27.73367,63.10228],[27.73404,63.10232],[27.73461,63.10238],[27.73522,63.10247],[27.7358,63.10257],[27.73691,63.10279],[27.73792,63.10305],[27.73854,63.10322],[27.73883,63.10332],[27.73902,63.10339],[27.73949,63.10357],[27.74001,63.10377],[27.74051,63.10399],[27.74106,63.10425],[27.74158,63.10454],[27.74197,63.10477],[27.74224,63.10495],[27.74256,63.10518],[27.74288,63.10544],[27.74318,63.10571],[27.74347,63.10599],[27.74373,63.10629],[27.74392,63.10656],[27.74416,63.10695],[27.7443,63.10726],[27.74445,63.10767],[27.74456,63.10804],[27.74468,63.10846],[27.74479,63.10881],[27.74485,63.10906],[27.74486,63.1091],[27.74495,63.10943],[27.74508,63.10978],[27.74521,63.11008],[27.74535,63.11032],[27.74548,63.11054],[27.74563,63.11074],[27.74585,63.11101],[27.74611,63.11129],[27.74639,63.11155],[27.74684,63.11191],[27.74733,63.11226],[27.7478,63.11255],[27.74833,63.11284],[27.74889,63.11311],[27.74937,63.11331],[27.74986,63.11351],[27.75048,63.11373],[27.75096,63.11388],[27.7517,63.1141],[27.75216,63.11421],[27.75255,63.1143],[27.75299,63.1144],[27.75345,63.11449],[27.75379,63.11454],[27.75422,63.11461],[27.7548,63.11469],[27.75561,63.1148],[27.75665,63.11489],[27.75721,63.11493],[27.75731,63.11493],[27.75798,63.11499],[27.7588,63.11507],[27.75964,63.11517],[27.76004,63.11523],[27.76035,63.11528],[27.7607,63.11534],[27.76104,63.11542],[27.76137,63.11548],[27.7617,63.11557],[27.76214,63.11568],[27.76251,63.11579],[27.76303,63.11595],[27.76345,63.1161],[27.764,63.11631],[27.76447,63.11651],[27.76486,63.1167],[27.76536,63.11698],[27.76583,63.11727],[27.76627,63.11759],[27.76663,63.11789],[27.76692,63.11818],[27.76719,63.11849],[27.76738,63.11876],[27.76757,63.11909],[27.7677,63.11937],[27.76777,63.11958],[27.76782,63.11976],[27.76786,63.12],[27.76791,63.1203],[27.76794,63.12058],[27.76798,63.12089],[27.76802,63.12123],[27.76807,63.1215],[27.76808,63.12154],[27.76816,63.12187],[27.7683,63.12232],[27.76847,63.12279],[27.76866,63.1232],[27.76888,63.1236],[27.76908,63.12393],[27.76933,63.12432],[27.76959,63.12474],[27.76987,63.12518],[27.77015,63.12563],[27.77035,63.12596],[27.77043,63.12607],[27.7707,63.12653],[27.77099,63.127],[27.77115,63.12725],[27.77138,63.12758],[27.77159,63.12791],[27.77191,63.12833],[27.77213,63.1286],[27.77235,63.12887],[27.77257,63.12909],[27.77283,63.12936],[27.77308,63.12961],[27.77339,63.12989],[27.77367,63.13011],[27.77385,63.13026],[27.77417,63.13052],[27.77467,63.13088],[27.77529,63.13131],[27.77585,63.13166],[27.77638,63.13199],[27.77696,63.13236],[27.77728,63.13255],[27.77778,63.13287],[27.77824,63.13314],[27.77882,63.13351],[27.77935,63.13384],[27.77994,63.13421],[27.78099,63.13487],[27.78164,63.13527],[27.78219,63.1356],[27.78326,63.13628],[27.78392,63.13668],[27.78539,63.1376],[27.78573,63.13781],[27.78631,63.13817],[27.78681,63.13848],[27.78753,63.13893],[27.78882,63.13974],[27.78954,63.14018],[27.78981,63.14033],[27.78982,63.14034],[27.79019,63.14054],[27.79067,63.14078],[27.79113,63.14098],[27.79126,63.14104],[27.79156,63.14115],[27.7919,63.14127],[27.79227,63.1414],[27.79266,63.14152],[27.79296,63.14161],[27.79352,63.14175],[27.79407,63.14189],[27.79465,63.142],[27.79506,63.14207],[27.79541,63.14213],[27.7959,63.14221],[27.79643,63.14227],[27.79697,63.14232],[27.7976,63.14238],[27.79826,63.14242],[27.79876,63.14245],[27.79925,63.14249],[27.80042,63.14257],[27.80054,63.14258],[27.80098,63.14261],[27.80161,63.14265],[27.80236,63.1427],[27.80361,63.14279],[27.80454,63.14285],[27.80544,63.14291],[27.80635,63.14297],[27.80733,63.14304],[27.80881,63.14314],[27.80944,63.14318],[27.81011,63.14323],[27.81067,63.14326],[27.81132,63.1433],[27.81217,63.14336],[27.81287,63.1434],[27.81377,63.14347],[27.81467,63.14353],[27.81525,63.14357],[27.81554,63.14359],[27.81597,63.14361],[27.81647,63.14364],[27.81706,63.14368],[27.81771,63.14373],[27.81838,63.14377],[27.81893,63.14381],[27.81951,63.14385],[27.82,63.14389],[27.82002,63.14389],[27.82062,63.14394],[27.82089,63.14397],[27.82127,63.144],[27.82179,63.14405],[27.8222,63.1441],[27.82278,63.14417],[27.82331,63.14424],[27.82367,63.14428],[27.82398,63.14433],[27.82437,63.14439],[27.82479,63.14446],[27.82518,63.14452],[27.82563,63.14459],[27.82601,63.14467],[27.82646,63.14475],[27.82693,63.14483],[27.82735,63.14491],[27.82785,63.145],[27.82843,63.14511],[27.82915,63.14524],[27.83027,63.14545],[27.83039,63.14548],[27.83091,63.14557],[27.83151,63.14569],[27.83225,63.14582],[27.83327,63.14602],[27.83432,63.14622],[27.83535,63.14641],[27.8364,63.1466],[27.83767,63.14685],[27.83832,63.14696],[27.83868,63.14703],[27.84011,63.1473],[27.84203,63.14766],[27.84397,63.14802],[27.84547,63.14831],[27.84694,63.14859],[27.8482,63.14882],[27.84959,63.14908],[27.85266,63.14966],[27.85464,63.15003],[27.85658,63.15039],[27.85676,63.15042],[27.85876,63.1508],[27.85968,63.15097],[27.86042,63.15109],[27.86101,63.15117],[27.86163,63.15125],[27.86242,63.15132],[27.86342,63.15136],[27.86442,63.15138],[27.86508,63.15137],[27.86604,63.15133],[27.86696,63.15128],[27.86743,63.15126],[27.86774,63.15123],[27.87272,63.15097],[27.87595,63.15079],[27.87643,63.15076],[27.88184,63.15047],[27.8824,63.15043],[27.88246,63.15043],[27.88643,63.15022],[27.88926,63.15006],[27.88926,63.15006],[27.89222,63.1499],[27.89485,63.14975],[27.89549,63.14972],[27.89785,63.1496],[27.90066,63.14944],[27.90341,63.14929],[27.90509,63.14919],[27.9072,63.14908],[27.90957,63.14896],[27.91101,63.14887],[27.91217,63.14878],[27.91346,63.14867],[27.91459,63.14856],[27.9153,63.14848],[27.91611,63.14839],[27.91708,63.14827],[27.91821,63.14809],[27.91925,63.14793],[27.92089,63.14766],[27.92267,63.14738],[27.92451,63.14708],[27.92621,63.1468],[27.92792,63.14653],[27.93007,63.14618],[27.93213,63.14586],[27.93392,63.14556],[27.9342,63.14552],[27.93586,63.14525],[27.93737,63.145],[27.93868,63.1448],[27.9388,63.14478],[27.94157,63.14433],[27.94184,63.14428],[27.94262,63.14416],[27.94376,63.14398],[27.94541,63.14371],[27.94559,63.14368],[27.94706,63.14344],[27.94797,63.14329],[27.94938,63.14306],[27.94988,63.14299],[27.95018,63.14295],[27.95034,63.14292],[27.95063,63.14288],[27.95116,63.14278],[27.95157,63.14271],[27.95203,63.14263],[27.95228,63.1426],[27.9526,63.14255],[27.95335,63.14242],[27.95411,63.1423],[27.95463,63.14222],[27.95533,63.1421],[27.95621,63.14196],[27.95699,63.14184],[27.95779,63.14171],[27.95851,63.14159],[27.95926,63.14147],[27.95999,63.14135],[27.96059,63.14126],[27.96135,63.14113],[27.96216,63.141],[27.9629,63.14088],[27.96348,63.14078],[27.96417,63.14067],[27.96554,63.14046],[27.96634,63.14033],[27.96706,63.14021],[27.96786,63.14008],[27.96863,63.13995],[27.96934,63.13984],[27.97034,63.13968],[27.97135,63.13951],[27.97159,63.13948],[27.97172,63.13946],[27.97232,63.13936],[27.97301,63.13925],[27.97369,63.13914],[27.97431,63.13903],[27.97499,63.13892],[27.97629,63.13872],[27.97698,63.13861],[27.97767,63.13849],[27.97829,63.13839],[27.97889,63.13828],[27.97951,63.13816],[27.98007,63.13804],[27.98053,63.13794],[27.98103,63.13782],[27.98175,63.13764],[27.98245,63.13744],[27.983,63.13727],[27.98343,63.13712],[27.98395,63.13694],[27.98439,63.13679],[27.98481,63.13663],[27.98522,63.13647],[27.98557,63.13632],[27.98606,63.13609],[27.98651,63.13587],[27.98686,63.1357],[27.98729,63.13549],[27.98765,63.13529],[27.9879,63.13514],[27.98794,63.13512],[27.98822,63.13494],[27.98834,63.13486],[27.98851,63.13475],[27.98882,63.13454],[27.98914,63.13432],[27.98936,63.13415],[27.98944,63.13408],[27.98998,63.13365],[27.99046,63.13324],[27.99156,63.13235],[27.99305,63.13135],[27.99436,63.13066],[27.99545,63.13016],[27.99711,63.12957],[27.99867,63.12911],[27.99913,63.129],[28.00045,63.12868],[28.00212,63.12836],[28.00347,63.12816],[28.0039,63.12811],[28.00504,63.12801],[28.00623,63.12793],[28.00848,63.12783],[28.01051,63.12777],[28.01127,63.12774],[28.01361,63.1276],[28.01372,63.12759],[28.01507,63.12745],[28.01606,63.12733],[28.01789,63.12702],[28.01992,63.12667],[28.02053,63.12656],[28.02121,63.12644],[28.0239,63.12598],[28.02617,63.12556],[28.02829,63.12518],[28.02857,63.12513],[28.03056,63.12478],[28.03215,63.12452],[28.03373,63.1243],[28.03547,63.1241],[28.03708,63.12394],[28.03829,63.12385],[28.0393,63.12378],[28.03971,63.12375],[28.04171,63.12364],[28.04371,63.12354],[28.04682,63.12337],[28.0494,63.12324],[28.05241,63.12308],[28.05565,63.12292],[28.05704,63.12285],[28.05896,63.12275],[28.05897,63.12275],[28.06064,63.12267],[28.06193,63.12263],[28.06342,63.1226],[28.06359,63.1226],[28.06552,63.1226],[28.06614,63.12261],[28.06833,63.12269],[28.07088,63.12282],[28.07346,63.12298],[28.07589,63.12313],[28.0759,63.12313],[28.07873,63.12328],[28.07926,63.12331],[28.08219,63.12348],[28.08345,63.12356],[28.08409,63.1236],[28.08474,63.12363],[28.08584,63.1237],[28.08666,63.12375],[28.0869,63.12376],[28.08856,63.12386],[28.09003,63.12395],[28.09131,63.12402],[28.09295,63.12412],[28.09528,63.12425],[28.09648,63.12432],[28.09773,63.12439],[28.09787,63.1244],[28.09844,63.12444],[28.0986,63.12445],[28.09873,63.12445],[28.09962,63.12451],[28.1008,63.12458],[28.10155,63.12461],[28.10169,63.12462],[28.10256,63.12468],[28.10269,63.12468],[28.10363,63.12472],[28.10427,63.12477],[28.1044,63.12478],[28.10504,63.12483],[28.10569,63.12488],[28.10644,63.12497],[28.10704,63.12504],[28.10759,63.12513],[28.10829,63.12525],[28.10909,63.12543],[28.10993,63.12563],[28.1106,63.12583],[28.11126,63.12605],[28.1118,63.12625],[28.11241,63.1265],[28.11286,63.12671],[28.11337,63.12698],[28.11382,63.12723],[28.11423,63.12749],[28.11462,63.12778],[28.11502,63.12808],[28.11525,63.12824],[28.11549,63.12842],[28.1159,63.12873],[28.11633,63.12905],[28.1167,63.12934],[28.11709,63.12961],[28.11747,63.12986],[28.11757,63.12993],[28.11805,63.13019],[28.11855,63.13045],[28.119,63.13065],[28.11947,63.13084],[28.11958,63.13087],[28.1202,63.13109],[28.1207,63.13123],[28.12126,63.13138],[28.12195,63.13154],[28.12252,63.13167],[28.12311,63.13176],[28.12365,63.13184],[28.12429,63.13193],[28.12482,63.13198],[28.12537,63.13203],[28.12589,63.13205],[28.12647,63.13207],[28.12702,63.13208],[28.12783,63.13208],[28.12884,63.13207],[28.12973,63.13207],[28.13052,63.13206],[28.13136,63.13203],[28.13153,63.13202],[28.13198,63.132],[28.13252,63.13195],[28.13317,63.13189],[28.13387,63.13179],[28.13454,63.13169],[28.13519,63.13156],[28.13572,63.13144],[28.13635,63.13129],[28.13715,63.1311],[28.13816,63.13084],[28.13931,63.13056],[28.14038,63.1303],[28.14167,63.12998],[28.14274,63.12973],[28.14333,63.12958],[28.14409,63.1294],[28.14491,63.12921],[28.14563,63.12906],[28.14641,63.12893],[28.14712,63.12884],[28.14808,63.12873],[28.14901,63.12869],[28.14975,63.12866],[28.1499,63.12866],[28.1509,63.12866],[28.15168,63.1287],[28.15238,63.12873],[28.15316,63.12877],[28.1542,63.12884],[28.15512,63.12888],[28.15593,63.12892],[28.15683,63.12894],[28.15784,63.12895],[28.15885,63.12895],[28.1597,63.12893],[28.16083,63.12889],[28.16202,63.12883],[28.16338,63.12874],[28.16451,63.12863],[28.16555,63.12852],[28.16648,63.12839],[28.16754,63.12825],[28.16854,63.1281],[28.16929,63.12796],[28.16949,63.12792],[28.1704,63.12775],[28.17106,63.12761],[28.17175,63.12745],[28.17262,63.12724],[28.17362,63.12697],[28.17439,63.12674],[28.17516,63.12651],[28.17624,63.12616],[28.17757,63.12572],[28.17877,63.12533],[28.18002,63.12492],[28.1813,63.12451],[28.18256,63.12409],[28.18364,63.12374],[28.18488,63.12333],[28.18572,63.12306],[28.18573,63.12305],[28.18592,63.12299],[28.18713,63.12259],[28.1881,63.12227],[28.18911,63.12195],[28.19008,63.12164],[28.19072,63.12147],[28.19149,63.12127],[28.19222,63.12109],[28.19301,63.1209],[28.19435,63.12056],[28.19544,63.12029],[28.19648,63.12003],[28.19768,63.11973],[28.19909,63.11937],[28.2001,63.11912],[28.20183,63.11869],[28.20264,63.11849],[28.2033,63.11833],[28.20497,63.11791],[28.20607,63.11764],[28.20774,63.11722],[28.20876,63.11697],[28.20943,63.1168],[28.21021,63.1166],[28.21119,63.11637],[28.21223,63.1161],[28.21337,63.11582],[28.21436,63.11557],[28.21529,63.11535],[28.21611,63.11513],[28.21671,63.11497],[28.21737,63.11476],[28.21794,63.11454],[28.21847,63.11431],[28.21889,63.11413],[28.21932,63.11391],[28.2194,63.11386],[28.21972,63.11368],[28.22013,63.11343],[28.22038,63.11325],[28.22062,63.11306],[28.22081,63.11291],[28.22127,63.11254],[28.22184,63.11209],[28.22255,63.11151],[28.22303,63.11113],[28.22346,63.11079],[28.22389,63.11043],[28.22438,63.11004],[28.22494,63.1096],[28.22564,63.10903],[28.22612,63.10864],[28.22667,63.10821],[28.22723,63.10777],[28.22784,63.10726],[28.22846,63.10675],[28.22901,63.10632],[28.22931,63.10608],[28.22949,63.10593],[28.23011,63.10544],[28.23061,63.10505],[28.23119,63.10459],[28.23176,63.10414],[28.23221,63.10378],[28.23269,63.10339],[28.23301,63.10314],[28.23342,63.10287],[28.23389,63.1026],[28.2344,63.10233],[28.23484,63.10213],[28.23543,63.10188],[28.23604,63.10164],[28.23665,63.10142],[28.23766,63.10107],[28.23877,63.10068],[28.23966,63.10036],[28.24024,63.10015],[28.24101,63.09987],[28.24182,63.09958],[28.24226,63.0994],[28.2426,63.09927],[28.24334,63.09898],[28.24426,63.09856],[28.24487,63.09827],[28.24539,63.09797],[28.24605,63.09755],[28.24607,63.09753],[28.24661,63.09717],[28.24708,63.0968],[28.2476,63.09634],[28.24816,63.09576],[28.24862,63.0953],[28.24901,63.09488],[28.24967,63.09419],[28.25027,63.09354],[28.25093,63.09284],[28.25183,63.09191],[28.25205,63.09168],[28.25235,63.09137],[28.25308,63.09057],[28.25359,63.09005],[28.25417,63.08949],[28.25504,63.08877],[28.25578,63.08823],[28.25659,63.08771],[28.25722,63.08732],[28.25793,63.08692],[28.25864,63.08656],[28.25965,63.08608],[28.26067,63.08563],[28.26195,63.08512],[28.26329,63.08461],[28.26361,63.08449],[28.26492,63.08399],[28.2663,63.08346],[28.26778,63.08289],[28.26928,63.08231],[28.27039,63.08188],[28.27165,63.0814],[28.27305,63.08086],[28.27434,63.08037],[28.27566,63.07985],[28.27711,63.0793],[28.27731,63.07923],[28.27779,63.07906],[28.27852,63.07877],[28.27875,63.07869],[28.27953,63.0784],[28.28054,63.07806],[28.28156,63.07774],[28.28263,63.07743],[28.28282,63.07738],[28.28385,63.07711],[28.28512,63.07681],[28.28625,63.07657],[28.28758,63.07629],[28.28886,63.07601],[28.28974,63.07582],[28.29071,63.07561],[28.29183,63.07537],[28.29284,63.07515],[28.29403,63.0749],[28.29519,63.07466],[28.29603,63.07448],[28.29625,63.07443],[28.29724,63.07422],[28.29845,63.07396],[28.29941,63.07376],[28.30089,63.07344],[28.30246,63.07311],[28.3038,63.07282],[28.30665,63.07221],[28.30823,63.07187],[28.30951,63.0716],[28.3105,63.0714],[28.31116,63.07125],[28.31219,63.07103],[28.3131,63.07084],[28.31372,63.0707],[28.31382,63.07068],[28.31453,63.07053],[28.31525,63.07038],[28.31605,63.07018],[28.31685,63.06995],[28.31747,63.06972],[28.31801,63.06949],[28.31867,63.06912],[28.31928,63.06866],[28.31971,63.06819],[28.31995,63.0678],[28.32011,63.06729],[28.32012,63.06691],[28.32006,63.06659],[28.31995,63.06628],[28.31974,63.06591],[28.31973,63.06589],[28.31954,63.06559],[28.31943,63.06543],[28.31908,63.06483],[28.31869,63.06423],[28.31832,63.0636],[28.31806,63.06316],[28.31793,63.06296],[28.3176,63.06242],[28.31755,63.06234],[28.31728,63.06186],[28.31685,63.06115],[28.31651,63.06059],[28.31598,63.0597],[28.31561,63.05911],[28.31528,63.05857],[28.31503,63.05814],[28.315,63.05808],[28.31496,63.05802],[28.31482,63.05781],[28.31464,63.0575],[28.31448,63.05727],[28.31441,63.05713],[28.31425,63.05686],[28.31398,63.05639],[28.31375,63.05597],[28.31352,63.05554],[28.31336,63.05522],[28.31309,63.05455],[28.31308,63.0545],[28.31288,63.05375],[28.31278,63.05293],[28.31279,63.05224],[28.3128,63.05208],[28.31289,63.05137],[28.3131,63.05059],[28.31335,63.04996],[28.31374,63.04919],[28.31405,63.04869],[28.31434,63.04827],[28.3147,63.04783],[28.31496,63.04752],[28.31544,63.04703],[28.31574,63.04673],[28.31616,63.04634],[28.31677,63.0458],[28.31678,63.04579],[28.3175,63.04518],[28.31836,63.04442],[28.31923,63.04366],[28.31975,63.04321],[28.32059,63.04245],[28.32136,63.04178],[28.32227,63.04098],[28.32296,63.04038],[28.32405,63.03942],[28.32455,63.03897],[28.32515,63.03844],[28.32566,63.03801],[28.32586,63.03783],[28.32623,63.0375],[28.32704,63.03679],[28.32808,63.03587],[28.32902,63.03505],[28.32993,63.03425],[28.33077,63.03352],[28.33138,63.03298],[28.33188,63.03255],[28.33252,63.03198],[28.33305,63.03154],[28.33356,63.03114],[28.33417,63.03069],[28.33474,63.03029],[28.3353,63.02993],[28.33537,63.02988],[28.33585,63.02959],[28.33631,63.02932],[28.33694,63.02896],[28.33749,63.02866],[28.33799,63.02841],[28.33853,63.02814],[28.33904,63.0279],[28.33962,63.02762],[28.34035,63.02729],[28.34106,63.027],[28.34184,63.02669],[28.34253,63.02643],[28.34336,63.02614],[28.3442,63.02586],[28.34474,63.02569],[28.3454,63.02547],[28.34604,63.02527],[28.34688,63.02502],[28.34759,63.0248],[28.3484,63.02454],[28.3492,63.0243],[28.35005,63.02404],[28.35007,63.02403],[28.35085,63.02379],[28.3527,63.02322],[28.35429,63.02272],[28.35577,63.02226],[28.35719,63.02182],[28.3588,63.02133],[28.36014,63.02092],[28.36153,63.0205],[28.36289,63.02008],[28.36396,63.01974],[28.36546,63.01927],[28.36613,63.01906],[28.36693,63.01882],[28.36787,63.01852],[28.36887,63.01821],[28.36984,63.01792],[28.37062,63.01768],[28.37136,63.01746],[28.37208,63.01723],[28.37295,63.01696],[28.37388,63.01667],[28.37487,63.01635],[28.37612,63.01596],[28.37695,63.0157],[28.37824,63.0153],[28.37883,63.01512],[28.37915,63.01502],[28.38044,63.01463],[28.38127,63.01437],[28.38192,63.01417],[28.38336,63.01372],[28.38464,63.01332],[28.38611,63.01286],[28.3872,63.01254],[28.38736,63.01249],[28.38882,63.01204],[28.39031,63.01157],[28.39179,63.01113],[28.39352,63.01058],[28.39535,63.01002],[28.39742,63.00938],[28.39827,63.00911],[28.39947,63.00872],[28.40086,63.00827],[28.40256,63.0077],[28.40434,63.00711],[28.40579,63.00664],[28.4068,63.00631],[28.40867,63.0057],[28.41067,63.00505],[28.41213,63.00455],[28.41326,63.00418],[28.4141,63.0039],[28.41432,63.00383],[28.41578,63.00336],[28.4167,63.00306],[28.41752,63.00279],[28.4186,63.00243],[28.41955,63.00211],[28.42055,63.00179],[28.42159,63.00147],[28.42279,63.0011],[28.42433,63.00066],[28.42589,63.00026],[28.42688,63.00001],[28.42761,62.99983],[28.42861,62.9996],[28.42954,62.9994],[28.43053,62.99918],[28.43072,62.99914],[28.43205,62.99885],[28.43378,62.99848],[28.43527,62.99814],[28.43714,62.99774],[28.43879,62.99739],[28.44016,62.99709],[28.44152,62.99679],[28.44288,62.9965],[28.44423,62.9962],[28.44503,62.99603],[28.44633,62.99574],[28.44782,62.9954],[28.44846,62.99526],[28.44856,62.99524],[28.44908,62.9951],[28.45011,62.99485],[28.45098,62.99463],[28.45219,62.99433],[28.45356,62.99396],[28.45501,62.99356],[28.45594,62.99329],[28.45684,62.99304],[28.458,62.99271],[28.45936,62.99234],[28.4607,62.99194],[28.46199,62.99158],[28.46319,62.99125],[28.46427,62.99095],[28.46515,62.99069],[28.46547,62.9906],[28.46636,62.99035],[28.46747,62.99004],[28.46866,62.9897],[28.46951,62.98945],[28.47072,62.9891],[28.47127,62.98895],[28.47217,62.9887],[28.47312,62.98843],[28.47401,62.98817],[28.47484,62.98792],[28.47562,62.98769],[28.47632,62.98747],[28.4773,62.98716],[28.47805,62.98693],[28.47873,62.9867],[28.47972,62.98637],[28.4805,62.98612],[28.48136,62.98583],[28.48201,62.98562],[28.48228,62.98553],[28.4832,62.98522],[28.48393,62.98499],[28.48468,62.98475],[28.4855,62.98451],[28.48612,62.98433],[28.4869,62.98412],[28.48766,62.98392],[28.48845,62.98373],[28.48909,62.98358],[28.48984,62.98341],[28.49065,62.98324],[28.49141,62.9831],[28.49194,62.983],[28.49259,62.98289],[28.49331,62.98276],[28.49377,62.98268],[28.49434,62.9826],[28.495,62.9825],[28.49545,62.98243],[28.49603,62.98234],[28.49672,62.98225],[28.49727,62.98217],[28.49777,62.9821],[28.49825,62.98203],[28.49888,62.98194],[28.49921,62.9819],[28.49984,62.9818],[28.49986,62.9818],[28.50226,62.98146],[28.50485,62.98108],[28.50693,62.98077],[28.50854,62.98054],[28.51023,62.98029],[28.51262,62.97993],[28.51487,62.97961],[28.5166,62.97936],[28.51803,62.97915],[28.51874,62.97904],[28.52001,62.97886],[28.52155,62.97863],[28.52289,62.97844],[28.52437,62.97823],[28.52572,62.97803],[28.52907,62.97755],[28.53118,62.97724],[28.53291,62.97699],[28.53479,62.97671],[28.53641,62.97648],[28.53727,62.97635],[28.53834,62.9762],[28.53944,62.97604],[28.54078,62.97584],[28.54222,62.97563],[28.54358,62.97542],[28.54471,62.97527],[28.54601,62.97508],[28.54742,62.97488],[28.54867,62.97469],[28.54991,62.97449],[28.55095,62.97431],[28.55251,62.97401],[28.55397,62.97372],[28.55491,62.97352],[28.55558,62.97338],[28.55605,62.97328],[28.55686,62.97311],[28.55821,62.97281],[28.55976,62.97248],[28.56083,62.97225],[28.562,62.97199],[28.56319,62.97174],[28.56412,62.97153],[28.56528,62.97128],[28.56662,62.97099],[28.56738,62.97083],[28.56824,62.97064],[28.56898,62.97046],[28.56997,62.97022],[28.57084,62.96999],[28.57172,62.96977],[28.57277,62.96947],[28.57331,62.96931],[28.57384,62.96916],[28.57394,62.96912],[28.57507,62.96878],[28.57633,62.96837],[28.57774,62.96789],[28.57874,62.96753],[28.57952,62.96723],[28.58043,62.9669],[28.5813,62.96657],[28.58208,62.96629],[28.58296,62.96594],[28.58392,62.9656],[28.58471,62.9653],[28.58572,62.96493],[28.58707,62.96442],[28.58795,62.96408],[28.58892,62.96373],[28.58896,62.96371],[28.59024,62.96324],[28.59161,62.96274],[28.59287,62.96229],[28.59404,62.96189],[28.59495,62.9616],[28.59517,62.96154],[28.59549,62.96144],[28.59706,62.96097],[28.59846,62.96056],[28.60038,62.96002],[28.60186,62.95958],[28.60351,62.9591],[28.60515,62.95864],[28.60522,62.95862],[28.60691,62.95812],[28.60882,62.95757],[28.61244,62.95652],[28.61409,62.95604],[28.61531,62.95568],[28.61681,62.95522],[28.61745,62.955],[28.61808,62.95477],[28.61929,62.95433],[28.62046,62.95387],[28.62124,62.95355],[28.62195,62.95325],[28.62316,62.95271],[28.62519,62.9517],[28.62682,62.95079],[28.62913,62.9494],[28.63063,62.9485],[28.63243,62.94742],[28.63356,62.94672],[28.63379,62.94658],[28.63521,62.94573],[28.63672,62.94481],[28.63837,62.94377],[28.63976,62.94281],[28.6411,62.94185],[28.64242,62.94088],[28.64343,62.94016],[28.6445,62.93936],[28.6446,62.93929],[28.64562,62.93855],[28.6464,62.93797],[28.6473,62.93731],[28.64816,62.93671],[28.649,62.93616],[28.64964,62.93578],[28.65059,62.93523],[28.65152,62.93476],[28.65293,62.93406],[28.65422,62.9335],[28.65534,62.93306],[28.65576,62.93292],[28.65635,62.9327],[28.6571,62.93243],[28.65727,62.93238],[28.65816,62.93206],[28.65899,62.93181],[28.65965,62.93162],[28.66013,62.93148],[28.6607,62.93133],[28.66118,62.93119],[28.66176,62.93104],[28.66259,62.93083],[28.66326,62.93067],[28.664,62.93048],[28.66483,62.93027],[28.66602,62.92996],[28.66746,62.92961],[28.66857,62.92933],[28.66866,62.92931],[28.66881,62.92927],[28.66895,62.92924],[28.67194,62.9285],[28.67417,62.92792],[28.67472,62.92778],[28.67545,62.92759],[28.67689,62.92726],[28.67743,62.92713],[28.67791,62.92701],[28.67894,62.92675],[28.67932,62.92665],[28.67997,62.92649],[28.68104,62.92621],[28.68202,62.92598],[28.68268,62.92579],[28.68341,62.9256],[28.6842,62.9254],[28.68497,62.92521],[28.6852,62.92515],[28.68555,62.92505],[28.68613,62.9249],[28.68691,62.9247],[28.68788,62.92446],[28.68879,62.92424],[28.68966,62.924],[28.6905,62.9238],[28.69113,62.92363],[28.69142,62.92355],[28.69172,62.92347],[28.69234,62.92329],[28.69307,62.92309],[28.69392,62.92283],[28.6947,62.92256],[28.69548,62.9223],[28.69632,62.92201],[28.69712,62.92168],[28.69793,62.92136],[28.69855,62.92109],[28.69924,62.92081],[28.69968,62.9206],[28.70035,62.92028],[28.70095,62.91997],[28.70151,62.91968],[28.70205,62.91938],[28.70257,62.9191],[28.70302,62.9188],[28.70351,62.9185],[28.704,62.91819],[28.70465,62.91772],[28.70473,62.91766],[28.70507,62.9174],[28.70526,62.91726],[28.70535,62.91719],[28.70573,62.9169],[28.70616,62.91655],[28.70651,62.91629],[28.70705,62.91589],[28.70742,62.91556],[28.708,62.91515],[28.70835,62.91485],[28.7094,62.91405],[28.70989,62.91367],[28.71044,62.91325],[28.71154,62.9124],[28.712,62.91205],[28.71251,62.91166],[28.71294,62.91133],[28.71358,62.91089],[28.71416,62.91052],[28.71468,62.9102],[28.715,62.91],[28.71537,62.90977],[28.71564,62.90961],[28.71574,62.90955],[28.71592,62.90947],[28.71622,62.9093],[28.71654,62.90913],[28.71698,62.90889],[28.7173,62.90873],[28.7176,62.90856],[28.7179,62.90842],[28.71803,62.90836],[28.71828,62.90826],[28.7187,62.90807],[28.71899,62.90793],[28.7193,62.90781],[28.71954,62.90771],[28.71984,62.90759],[28.72247,62.90659],[28.72521,62.90567],[28.72787,62.90476],[28.73036,62.9039],[28.73091,62.90371],[28.73421,62.90245],[28.73696,62.90138],[28.74,62.90018],[28.74283,62.89908],[28.74514,62.89817],[28.74536,62.89808],[28.74536,62.89808],[28.74884,62.89674],[28.74921,62.89658],[28.75134,62.89576],[28.75404,62.8947],[28.75666,62.8936],[28.75676,62.89355],[28.75792,62.89299],[28.75903,62.89242],[28.75962,62.8921],[28.75965,62.89209],[28.7608,62.89146],[28.7622,62.89068],[28.7633,62.89004],[28.76421,62.88953],[28.76539,62.88889],[28.7657,62.88874],[28.7676,62.88783],[28.76939,62.88703],[28.77128,62.88625],[28.77148,62.88618],[28.77302,62.88557],[28.77394,62.8852],[28.77573,62.88452],[28.77769,62.88376],[28.77968,62.88296],[28.77984,62.8829],[28.7822,62.88196],[28.78449,62.88096],[28.78606,62.88019],[28.78725,62.8795],[28.78768,62.87925],[28.78895,62.87842],[28.79014,62.87753],[28.79151,62.87639],[28.79277,62.87533],[28.79411,62.87421],[28.79485,62.87365],[28.79522,62.87339],[28.79561,62.87312],[28.79701,62.87216],[28.79752,62.87188],[28.79856,62.87129],[28.80005,62.87053],[28.80179,62.86965],[28.80358,62.86875],[28.80532,62.86787],[28.80719,62.86692],[28.80898,62.86601],[28.81058,62.86518],[28.81088,62.86503],[28.81198,62.8644],[28.81296,62.86384],[28.81344,62.86354],[28.81368,62.86338],[28.81444,62.86281],[28.81539,62.86208],[28.81615,62.86143],[28.81708,62.86069],[28.81781,62.86011],[28.81837,62.85972],[28.81871,62.85949],[28.8201,62.85857],[28.82107,62.85798],[28.82143,62.85777],[28.8225,62.85714],[28.82348,62.85658],[28.82468,62.85586],[28.82598,62.85511],[28.8272,62.85443],[28.82849,62.85376],[28.82989,62.8531],[28.8313,62.85248],[28.83261,62.85192],[28.83405,62.85129],[28.83449,62.85109],[28.83555,62.85063],[28.83797,62.84956],[28.83925,62.84901],[28.84059,62.84841],[28.84222,62.84771],[28.84231,62.84766],[28.84407,62.84689],[28.84626,62.84594],[28.84858,62.84493],[28.84859,62.84493],[28.85097,62.84395],[28.85275,62.84325],[28.85437,62.84261],[28.85607,62.84195],[28.85751,62.84135],[28.8586,62.8409],[28.86003,62.84033],[28.86173,62.83968],[28.86294,62.83922],[28.8635,62.83903],[28.86468,62.83862],[28.8664,62.83809],[28.86806,62.83758],[28.87,62.83699],[28.87258,62.83621],[28.87462,62.83557],[28.87472,62.83555],[28.87687,62.83488],[28.87784,62.83454],[28.879,62.83413],[28.8797,62.83387],[28.88035,62.83363],[28.8823,62.83291],[28.88391,62.83232],[28.88543,62.83175],[28.88717,62.83112],[28.88929,62.83033],[28.89133,62.82958],[28.89136,62.82957],[28.89323,62.82888],[28.8949,62.82826],[28.89498,62.82823],[28.89751,62.8273],[28.89958,62.82653],[28.90176,62.82568],[28.90341,62.825],[28.90492,62.82435],[28.90629,62.82375],[28.90727,62.82331],[28.90868,62.8227],[28.90963,62.82227],[28.91058,62.82183],[28.91198,62.82121],[28.91324,62.82065],[28.91424,62.82019],[28.91516,62.81979],[28.9162,62.81934],[28.91788,62.8186],[28.91806,62.81851],[28.91809,62.8185],[28.91845,62.81834],[28.91928,62.81799],[28.92013,62.81763],[28.9211,62.81723],[28.92202,62.81685],[28.9233,62.81636],[28.92391,62.81613],[28.92474,62.81583],[28.92686,62.81504],[28.92914,62.81419],[28.93085,62.81357],[28.93265,62.8129],[28.93471,62.81213],[28.93572,62.81176],[28.93616,62.81159],[28.93734,62.81116],[28.93866,62.81067],[28.93915,62.81048],[28.93961,62.8103],[28.94046,62.81],[28.94145,62.80961],[28.94182,62.80947],[28.94327,62.80894],[28.94463,62.80844],[28.94584,62.80799],[28.94666,62.80767],[28.94761,62.80729],[28.9483,62.80699],[28.94893,62.80672],[28.9496,62.80638],[28.95033,62.806],[28.95115,62.80556],[28.95189,62.80515],[28.95267,62.80469],[28.95327,62.80432],[28.95335,62.80427],[28.95398,62.80388],[28.95489,62.80331],[28.95596,62.80267],[28.95723,62.80191],[28.95886,62.80092],[28.96152,62.79929],[28.96255,62.79866],[28.96395,62.79781],[28.96522,62.79705],[28.96525,62.79703],[28.96657,62.79622],[28.96804,62.79533],[28.96903,62.79474],[28.97019,62.79404],[28.97144,62.79328],[28.97309,62.79228],[28.9745,62.79141],[28.97562,62.79073],[28.97653,62.79016],[28.97708,62.78978],[28.97719,62.78971],[28.97804,62.78912],[28.97874,62.78858],[28.97943,62.78804],[28.98004,62.78754],[28.98055,62.7871],[28.98104,62.78665],[28.98163,62.7861],[28.98227,62.78547],[28.98235,62.7854],[28.98314,62.78464],[28.98507,62.78278],[28.98589,62.782],[28.98606,62.78182],[28.98656,62.78132],[28.98735,62.78059],[28.98823,62.77976],[28.98928,62.77873],[28.99023,62.77782],[28.99119,62.77691],[28.9921,62.77607],[28.99282,62.77546],[28.99363,62.77481],[28.99453,62.77407],[28.99484,62.77382],[28.9953,62.77343],[28.99614,62.77276],[28.99701,62.77204],[28.99824,62.77103],[28.99905,62.77037],[29.00015,62.76947],[29.00145,62.76843],[29.00228,62.7677],[29.00292,62.76717],[29.00384,62.76645],[29.00437,62.76601],[29.00458,62.76584],[29.00531,62.76524],[29.00624,62.76449],[29.00705,62.76381],[29.00787,62.7631],[29.00858,62.7624],[29.00927,62.76171],[29.00996,62.76099],[29.01103,62.75991],[29.0119,62.75902],[29.0129,62.75798],[29.01301,62.75786],[29.01392,62.75692],[29.01501,62.75582],[29.01624,62.75457],[29.01745,62.75331],[29.01837,62.75236],[29.01948,62.75119],[29.02047,62.7502],[29.02084,62.74981],[29.02137,62.74926],[29.02224,62.74834],[29.02281,62.74778],[29.02408,62.74648],[29.02542,62.74509],[29.02646,62.74402],[29.02714,62.74336],[29.02815,62.74231],[29.02883,62.74161],[29.02892,62.74153],[29.0295,62.74092],[29.02954,62.74087],[29.03045,62.73992],[29.03116,62.73921],[29.03228,62.73807],[29.03263,62.73771],[29.0329,62.73743],[29.03294,62.73739],[29.03312,62.73721],[29.0334,62.73692],[29.03428,62.73602],[29.03495,62.73523],[29.03545,62.73461],[29.03594,62.73398],[29.03625,62.73353],[29.03637,62.73334],[29.03644,62.73322],[29.03662,62.73293],[29.0368,62.73263],[29.0371,62.73208],[29.0374,62.73151],[29.03761,62.7311],[29.03845,62.72949],[29.03851,62.72936],[29.03889,62.72864],[29.03937,62.72772],[29.03968,62.72714],[29.04,62.72653],[29.04034,62.7259],[29.04079,62.72526],[29.04095,62.72504],[29.04114,62.72482],[29.0413,62.72464],[29.0413,62.72464],[29.0415,62.72443],[29.04176,62.72418],[29.042,62.72396],[29.04233,62.72368],[29.04263,62.72343],[29.04293,62.72319],[29.04321,62.72302],[29.0434,62.72289],[29.04376,62.72264],[29.04437,62.72226],[29.04493,62.72193],[29.0457,62.72153],[29.04632,62.72123],[29.04695,62.72094],[29.04777,62.7206],[29.04872,62.72025],[29.04989,62.71987],[29.05095,62.71956],[29.05293,62.71908],[29.05414,62.71874],[29.05496,62.71852],[29.06098,62.71686],[29.06467,62.71586],[29.06572,62.71558],[29.06676,62.7153],[29.06732,62.71515],[29.06813,62.71493],[29.06875,62.71474],[29.06908,62.71463],[29.06919,62.71459]]},"properties":{"name":"POKA VT15 Siilinjärvi-Viinijärvi-Rantasalmi","kind":"project","ptype":"rail","subtype":"Ratahanke","status":"kaynnissa","date":"2022–2025","url":"https://vayla.fi/hankkeet","source":"Väylävirasto"}}]}