{"type":"FeatureCollection","features":[{"type":"Feature","geometry":{"type":"MultiLineString","coordinates":[[[24.55913,63.29183],[24.55897,63.2923],[24.55896,63.29231],[24.55878,63.29283],[24.55864,63.29323],[24.55863,63.29324],[24.55848,63.29371],[24.55848,63.29372],[24.55837,63.29404],[24.55837,63.29404],[24.55823,63.29447],[24.55822,63.29448]],[[24.55822,63.29448],[24.55803,63.29506],[24.55781,63.29573],[24.5578,63.29575],[24.55761,63.29628],[24.55761,63.2963],[24.55749,63.2967],[24.55748,63.29671],[24.55732,63.29719],[24.55731,63.2972],[24.55711,63.29779],[24.55711,63.29779],[24.557,63.29815],[24.55699,63.29816],[24.55692,63.29846],[24.55692,63.29848],[24.55687,63.29878],[24.55687,63.29879],[24.55686,63.29892],[24.55685,63.29913],[24.55684,63.29914],[24.55684,63.29925]],[[24.55684,63.29925],[24.55682,63.29964],[24.5568,63.29981]],[[24.5568,63.29981],[24.55679,63.29987],[24.55679,63.29988],[24.55677,63.30026],[24.55677,63.30026],[24.55677,63.30046],[24.55677,63.30047],[24.55676,63.30068],[24.55676,63.3007],[24.55677,63.30079],[24.55677,63.30085],[24.55679,63.3009],[24.55681,63.30095],[24.55682,63.30097],[24.55682,63.30098],[24.55687,63.30105],[24.55694,63.30115],[24.557,63.30122],[24.55704,63.30125],[24.55706,63.30127],[24.55708,63.30128],[24.5571,63.3013],[24.5571,63.3013],[24.55712,63.30132],[24.55715,63.30133],[24.55717,63.30134],[24.55725,63.30138],[24.55728,63.3014],[24.55729,63.3014],[24.55746,63.30148],[24.55764,63.30155],[24.55767,63.30156],[24.55804,63.30169],[24.55814,63.30172],[24.55815,63.30173],[24.55875,63.3019],[24.55876,63.30191],[24.55931,63.30206],[24.55933,63.30206],[24.56023,63.30229],[24.56024,63.3023],[24.56084,63.30244],[24.56086,63.30245],[24.56165,63.30266],[24.56168,63.30267],[24.56248,63.30287],[24.5625,63.30287],[24.56302,63.303],[24.56303,63.30301],[24.56352,63.30313],[24.56355,63.30314],[24.56417,63.3033],[24.56469,63.30343],[24.56471,63.30344],[24.56516,63.30355],[24.56573,63.30369],[24.56614,63.30379]],[[24.56614,63.30379],[24.56665,63.30393],[24.56668,63.30394],[24.56712,63.30406],[24.56716,63.30407],[24.56719,63.30408],[24.56744,63.30414],[24.56746,63.30414],[24.56754,63.30416]],[[24.56754,63.30416],[24.56769,63.3042]],[[24.56769,63.3042],[24.56779,63.30423],[24.56781,63.30423],[24.56794,63.30427],[24.56796,63.30428],[24.56806,63.30431],[24.56809,63.30431],[24.56812,63.30432]],[[24.56812,63.30432],[24.56868,63.30446],[24.56869,63.30447],[24.56948,63.30467],[24.56951,63.30468],[24.57045,63.30491],[24.57048,63.30492],[24.571,63.30505],[24.57102,63.30506],[24.57147,63.30517],[24.57149,63.30517],[24.5718,63.30526],[24.57193,63.3053],[24.57212,63.30536],[24.57228,63.30542],[24.57242,63.30548],[24.57259,63.30556],[24.5726,63.30556],[24.57273,63.30563],[24.57283,63.30569],[24.57285,63.3057],[24.57303,63.30582],[24.57303,63.30583],[24.57345,63.30609],[24.57346,63.3061],[24.57377,63.30629],[24.57378,63.30629],[24.57441,63.30669],[24.57442,63.30669],[24.57529,63.30725],[24.5753,63.30726],[24.57548,63.30738],[24.57634,63.30792],[24.57635,63.30792],[24.57736,63.30855],[24.57736,63.30855],[24.57767,63.30874],[24.57828,63.30914],[24.57831,63.30915],[24.57871,63.30942],[24.57872,63.30942]],[[24.57872,63.30942],[24.5795,63.30992],[24.57952,63.30993],[24.58041,63.3105],[24.58043,63.31051],[24.58104,63.31088],[24.58105,63.31089],[24.58151,63.31118],[24.58153,63.31119],[24.58194,63.31145],[24.58195,63.31146]],[[24.58195,63.31146],[24.58249,63.31181],[24.58301,63.31215],[24.58334,63.31235],[24.58335,63.31236]],[[24.58335,63.31236],[24.58388,63.3127],[24.58444,63.31305],[24.58444,63.31305],[24.58518,63.31352],[24.58519,63.31353],[24.58595,63.31402],[24.58596,63.31403],[24.58664,63.31447],[24.58665,63.31448],[24.58749,63.315],[24.5884,63.31559],[24.58842,63.3156],[24.58918,63.31609],[24.5892,63.3161],[24.58942,63.31624]]]},"properties":{"name":"Mt 7520 parantaminen, Perho","kind":"project","ptype":"road","subtype":"Tiehanke","status":"kaynnissa","date":"2025–2025","url":"https://vayla.fi/hankkeet","source":"Väylävirasto"}}]}