{"type":"Topology","bbox":[21.522382757874695,60.06267218956152,25.248944624527955,62.15663825451948],"transform":{"scale":[0.00003726599132644586,0.000020939870048280092],"translate":[21.522382757874695,60.06267218956152]},"objects":{"outlines":{"type":"GeometryCollection","geometries":[{"type":"MultiPolygon","arcs":[[[0]],[[1]],[[2]],[[3]],[[4]],[[5]],[[6]],[[7]],[[8]],[[9]],[[10]],[[11]],[[12]],[[13]],[[14]],[[15]],[[16]],[[17]],[[18]],[[19]],[[20]],[[21]],[[22]],[[23]],[[24]],[[25]],[[26]],[[27]],[[28]],[[29]],[[30]],[[31]],[[32]],[[33]],[[34]],[[35]],[[36]],[[37]],[[38]],[[39]],[[40]],[[41]],[[42]],[[43]],[[44]],[[45]],[[46]],[[47]],[[48]],[[49]],[[50]],[[51]],[[52]],[[53]],[[54]],[[55]],[[56]],[[57]],[[58]],[[59]],[[60]],[[61]],[[62]],[[63]],[[64]],[[65]],[[66]],[[67]],[[68]],[[69]],[[70]],[[71]],[[72]],[[73]],[[74]],[[75]],[[76]],[[77]],[[78]],[[79]],[[80]],[[81]],[[82]],[[83]],[[84]],[[85]],[[86]],[[87]],[[88]],[[89]],[[90]],[[91]],[[92]],[[93]],[[94]],[[95]],[[96]],[[97]],[[98]],[[99]],[[100]],[[101]],[[102]],[[103]],[[104]],[[105]],[[106]],[[107]],[[108]],[[109]],[[110]],[[111]],[[112]],[[113]],[[114]],[[115]],[[116]],[[117]],[[118]],[[119]],[[120]],[[121]],[[122]],[[123]]],"properties":{"city":"helsinki_metro","_isMetroArea":true}},{"type":"MultiPolygon","arcs":[[[124]],[[125]],[[126]],[[127]],[[128]],[[129]],[[130]],[[131]],[[132]],[[133]],[[134]],[[135]],[[136]],[[137]],[[138]],[[139]],[[140]],[[141]],[[142]],[[143]],[[144]],[[145]],[[146]],[[147]],[[148]],[[149]],[[150]],[[151]],[[152]],[[153]],[[154]],[[155]],[[156]],[[157]],[[158]],[[159]],[[160]],[[161]],[[162]],[[163]],[[164]],[[165]],[[166]],[[167]],[[168]],[[169]],[[170]],[[171]],[[172]],[[173]],[[174]],[[175]],[[176]],[[177]],[[178]],[[179]],[[180]],[[181]],[[182]],[[183]],[[184]],[[185]],[[186]],[[187]],[[188]],[[189]],[[190]],[[191]],[[192]],[[193]],[[194]],[[195]],[[196]],[[197]],[[198]],[[199]],[[200]],[[201]],[[202]],[[203]],[[204]],[[205]],[[206]],[[207]],[[208]],[[209]],[[210]],[[211]],[[212]],[[213]],[[214]],[[215]],[[216]],[[217]],[[218]],[[219]],[[220]],[[221]],[[222]],[[223]],[[224]],[[225]],[[226]],[[227]],[[228]],[[229]],[[230]],[[231]],[[232]],[[233]],[[234]],[[235]],[[236]],[[237]],[[238]],[[239]],[[240]],[[241]],[[242]],[[243]],[[244]],[[245]],[[246]],[[247]],[[248]],[[249]],[[250]],[[251]],[[252]],[[253]],[[254]],[[255]],[[256]],[[257]],[[258]],[[259]],[[260]],[[261]],[[262]],[[263]],[[264]],[[265]],[[266]],[[267]],[[268]],[[269]],[[270]],[[271]],[[272]],[[273]],[[274]],[[275]],[[276]],[[277]],[[278]],[[279]],[[280]],[[281]],[[282]],[[283]],[[284]],[[285]],[[286]],[[287]],[[288]],[[289]],[[290]],[[291]],[[292]],[[293]],[[294]],[[295]],[[296]],[[297]],[[298]],[[299]],[[300]],[[301]],[[302]],[[303]],[[304]],[[305]],[[306]],[[307]],[[308]],[[309]],[[310]],[[311]],[[312]],[[313]],[[314]],[[315]],[[316]],[[317]],[[318]],[[319]],[[320]],[[321]],[[322]],[[323]],[[324]],[[325]],[[326]],[[327]],[[328]],[[329]],[[330]],[[331]],[[332]],[[333]],[[334]],[[335]],[[336]],[[337]],[[338]],[[339]],[[340]],[[341]],[[342]],[[343]],[[344]],[[345]],[[346]],[[347]],[[348]],[[349]],[[350]],[[351]],[[352]],[[353]]],"properties":{"city":"turku","_isMetroArea":true}},{"type":"Polygon","arcs":[[354]],"properties":{"city":"tampere","_isMetroArea":true}}]}},"arcs":[[[79148,10256],[6,-134],[180,-244],[256,-196],[296,-304],[143,-121],[-48,-49],[-168,93],[-143,34],[-125,-127],[-34,-171],[58,-219],[721,-626],[103,-126],[190,-21],[31,-50],[-53,-102],[77,-163],[-361,-50],[-193,-247],[-99,-235],[552,-259],[183,-157],[97,-136],[49,-110],[175,-166],[76,-162],[23,-246],[442,-351],[87,-286],[207,134],[89,-9],[24,-37],[90,-328],[74,-67],[92,-12],[105,-95],[62,-90],[55,-22],[163,30],[145,-27],[81,-99],[-6,-99],[46,-46],[257,-67],[67,-58],[73,-121],[163,-146],[57,-136],[108,-199],[47,-217],[84,-27],[263,98],[34,-33],[-57,-130],[98,-39],[96,-6],[59,-35],[42,-246],[22,-58],[128,-201],[28,-140],[109,-152],[25,-73],[53,-19],[198,48],[61,39],[-11,78],[-71,44],[-147,38],[-5,55],[100,179],[40,28],[195,59],[105,0],[81,34],[59,112],[-19,143],[-92,126],[-144,6],[-84,34],[-30,58],[43,43],[122,26],[149,89],[72,10],[111,-37],[93,7],[55,35],[311,277],[106,50],[152,17],[92,-22],[25,-68],[-63,-89],[37,-56],[109,-48],[109,50],[135,-29],[101,35],[48,93],[26,109],[49,71],[53,15],[106,-24],[47,22],[135,155],[29,65],[68,18],[73,-44],[88,6],[135,42],[168,32],[101,58],[163,35],[73,39],[62,131],[61,25],[94,253],[128,102],[26,208],[71,40],[88,2],[9,-106],[-48,-132],[19,-67],[58,-49],[260,-97],[54,90],[-126,100],[-31,81],[58,168],[154,81],[7,126],[-37,78],[51,138],[17,124],[56,183],[-57,74],[-72,24],[-134,-37],[-55,-44],[-138,-59],[-81,-6],[-129,117],[-35,184],[19,47],[212,110],[47,57],[142,250],[33,23],[180,16],[65,40],[58,88],[102,35],[106,-53],[24,-65],[-59,-118],[160,-165],[276,-155],[77,-66],[81,-129],[19,-91],[87,-88],[72,46],[105,-20],[94,-107],[151,-36],[71,-48],[64,-117],[67,3],[94,55],[92,-7],[106,-80],[70,-96],[41,-258],[-128,-16],[-128,-99],[-10,-71],[63,-60],[210,-43],[40,-52],[-81,-69],[-132,-22],[-208,-2],[-28,-61],[53,-139],[192,-205],[12,-57],[-123,-83],[-3,-54],[85,-124],[56,-50],[110,9],[117,-32],[113,157],[84,-23],[-59,-172],[20,-106],[104,-24],[46,140],[124,175],[217,17],[214,53],[170,-53],[83,6],[108,97],[0,85],[-54,118],[-152,201],[-20,55],[25,101],[157,238],[27,94],[-23,129],[19,72],[62,55],[86,-10],[106,-80],[116,-30],[33,42],[82,197],[87,65],[21,53],[26,222],[-3,292],[-95,134],[-40,113],[85,311],[37,239],[67,18],[57,-41],[137,-174],[92,-81],[130,36],[42,92],[17,193],[-57,90],[-77,-10],[-49,-71],[-14,-90],[33,-91],[-76,-46],[-110,102],[27,118],[-4,118],[-32,100],[58,122],[98,70],[64,-26],[53,-100],[146,-111],[111,-119],[213,-21],[54,-121],[85,-128],[-15,-95],[-109,-51],[-32,-50],[25,-47],[125,-115],[12,-150],[-85,-26],[-157,61],[-67,7],[-110,-38],[-145,-19],[-62,-52],[138,-121],[273,-146],[182,-51],[48,-34],[76,-123],[99,-82],[94,-17],[169,42],[81,40],[90,99],[14,112],[32,52],[99,49],[188,44],[83,60],[118,143],[70,23],[162,3],[303,97],[241,2],[25,29],[3,174],[56,62],[173,49],[96,64],[206,256],[85,-5],[-11,-59],[-171,-313],[-275,-289],[-95,-217],[-164,-152],[-83,-118],[-10,-57],[59,-44],[160,133],[207,149],[147,27],[145,-17],[164,90],[120,35],[92,-28],[93,-140],[13,-67],[-21,-128],[80,-56],[257,-92],[81,26],[-9,86],[-93,141],[95,138],[-70,43],[-95,-58],[-93,-18],[-94,61],[-32,71],[-5,99],[45,77],[108,-22],[111,12],[295,75],[99,3],[30,-132],[98,-54],[238,-164],[86,6],[94,79],[189,196],[-31,113],[-211,173],[1,85],[155,115],[102,9],[89,-28],[67,31],[222,166],[32,52],[-135,157],[-10,139],[-47,57],[-220,85],[-39,93],[-97,88],[-132,28],[-33,81],[24,37],[149,-20],[123,-57],[117,1],[3,61],[-103,91],[-31,89],[41,64],[95,18],[116,-51],[152,-10],[101,-44],[78,46],[70,114],[-45,92],[37,88],[181,15],[16,75],[-41,77],[-397,232],[-71,76],[10,37],[96,86],[269,161],[141,30],[210,19],[143,26],[-55,67],[-81,41],[152,259],[-51,132],[384,284],[55,414],[66,408],[-120,160],[-322,365],[-492,-335],[-457,-248],[-770,962],[-242,-13],[-558,194],[-41,257],[509,14],[-368,223],[25,87],[96,172],[12,263],[143,159],[-14,166],[33,178],[-286,-8],[-4,68],[-137,52],[-63,-19],[176,211],[181,155],[99,155],[-507,4],[-36,101],[-184,-140],[-298,384],[-251,71],[-262,5],[-85,-19],[-103,-74],[-75,41],[53,67],[-67,9],[-128,62],[-181,37],[-24,56],[33,121],[-99,79],[-223,76],[-205,-4],[-176,-90],[84,-160],[58,-147],[-203,-153],[-45,-83],[-105,39],[-162,142],[-151,30],[-47,-65],[-19,-100],[63,-177],[17,-142],[-39,-166],[-82,-75],[180,-205],[137,-283],[-82,-65],[-33,-65],[-225,-97],[-277,-136],[-164,-115],[-138,11],[-358,-129],[-198,82],[-759,49],[-205,-4],[-137,98],[-42,121],[55,62],[-99,219],[-129,235],[-381,450],[-548,492],[-121,190],[2,56],[-202,91],[-77,64],[-251,375],[-119,402],[-1,226],[44,239],[-445,-139],[-137,-129],[-347,-98],[-57,-36],[-176,-27],[-205,-261],[-73,-174],[-154,-256],[50,-35],[74,-132],[14,-166],[-256,10],[-135,-169],[-139,-201],[-214,-110],[-103,32],[-87,-76],[-236,-412],[-279,-244],[-176,-295],[-242,-146],[-107,184],[-185,120],[-206,84],[-221,72],[-299,332],[-299,37],[-193,56],[-222,49],[-84,6],[-182,66],[-245,15],[-153,136],[-133,24],[-115,-51],[-21,-58],[-82,-96],[-144,-87],[-292,41],[-199,92],[-626,13],[-425,-294],[-94,-125],[7,-504],[-110,-259],[19,-654],[-340,108],[-391,293],[-385,-136],[-652,356],[-10,28],[-168,146],[-140,187],[-119,201],[-336,-401],[81,-106],[-8,-45],[103,-115],[-3,-131],[-26,-178],[-300,-395],[86,-149],[33,-398],[372,-290],[-5,-304],[-32,-245],[14,-140],[-42,-88],[-123,-100],[-349,-238]],[[83936,1169],[51,-70],[90,36],[4,128],[-44,19],[-62,-32],[-39,-81]],[[83983,1039],[50,-92],[45,-137],[76,91],[124,33],[201,279],[-35,76],[-73,-16],[-169,-166],[-57,-30],[-162,-38]],[[84031,1376],[142,-32],[-34,50],[-95,34],[-13,-52]],[[84072,1720],[6,-57],[86,-73],[137,33],[122,84],[116,31],[119,253],[-18,102],[-103,42],[-91,64],[-129,21],[-92,-63],[-65,-156],[-25,-122],[-63,-159]],[[84082,1438],[59,4],[6,45],[-65,-49]],[[84329,2794],[63,-10],[26,76],[-89,-66]],[[84334,2622],[48,-114],[61,101],[-59,67],[-50,-54]],[[84363,2301],[43,-51],[94,-32],[-12,156],[-41,89],[-47,-40],[-37,-122]],[[84366,920],[83,41],[-36,14],[-47,-55]],[[84527,832],[38,-34],[110,104],[-37,34],[-111,-104]],[[84711,2240],[75,-12],[50,33],[2,91],[-82,60],[21,-68],[-66,-104]],[[84714,1002],[15,-51],[56,-10],[97,109],[-25,63],[-57,-17],[-86,-94]],[[84825,1693],[17,-43],[38,104],[-55,-61]],[[84848,2196],[54,-42],[168,84],[102,-7],[93,-80],[134,-55],[111,-6],[126,45],[285,226],[95,102],[62,119],[175,36],[57,39],[-34,107],[-88,56],[-286,-5],[-230,21],[-94,-22],[-66,-44],[-367,-298],[-180,-106],[-101,-104],[-16,-66]],[[84907,2464],[38,-18],[166,65],[36,58],[121,57],[66,85],[-103,36],[-88,-47],[-47,-74],[-167,-106],[-22,-56]],[[84935,1878],[64,-53],[78,49],[-107,70],[-35,-66]],[[84993,2994],[14,-66],[50,36],[-64,30]],[[85121,2005],[29,-31],[68,31],[-37,55],[-60,-55]],[[85214,3502],[17,-52],[59,4],[1,61],[-77,-13]],[[85250,3070],[339,-180],[119,21],[84,141],[54,3],[104,-139],[84,-2],[29,79],[-52,157],[6,43],[88,76],[-62,113],[-74,33],[-89,-8],[-100,-117],[-110,-49],[-172,63],[-134,12],[-22,-19],[-92,-227]],[[85288,2064],[54,-39],[38,59],[-65,17],[-27,-37]],[[85311,3635],[8,-59],[64,-28],[64,68],[-115,40],[-21,-21]],[[85467,1830],[19,-48],[59,-8],[110,57],[-66,3],[-58,51],[-64,-55]],[[85605,3287],[62,-28],[-7,45],[-55,-17]],[[85606,1886],[84,-52],[8,59],[80,3],[15,78],[-105,16],[-82,-104]],[[85616,106],[19,-64],[50,40],[85,-82],[108,96],[-7,51],[-74,29],[-166,0],[-15,-70]],[[85768,1738],[101,-10],[-16,59],[-85,-49]],[[85780,2047],[26,-76],[79,-49],[26,27],[66,224],[-104,-23],[-93,-103]],[[85787,3629],[77,-11],[45,42],[81,7],[62,84],[-251,-96],[-14,-26]],[[85969,1972],[9,-75],[90,-28],[66,59],[-15,44],[-123,18],[-27,-18]],[[85975,1782],[94,-36],[18,45],[-112,-9]],[[85987,3901],[36,-78],[10,81],[-46,-3]],[[86021,1594],[120,15],[-24,38],[-68,-10],[-28,-43]],[[86045,3076],[66,-89],[62,0],[31,82],[-60,66],[-99,-59]],[[86135,2924],[29,-48],[39,26],[-23,66],[-45,-44]],[[86232,2969],[84,-136],[67,-2],[-1,140],[-31,57],[-77,22],[-42,-81]],[[86246,3117],[41,-33],[11,83],[-52,-50]],[[86290,2438],[38,-73],[79,1],[122,105],[-22,56],[-75,36],[-114,-38],[-28,-87]],[[86326,1135],[54,-44],[86,17],[-18,75],[-122,-48]],[[86494,1800],[47,-38],[23,54],[-70,-16]],[[86513,1466],[40,-72],[101,82],[65,13],[-20,90],[-62,21],[-35,-67],[-89,-67]],[[86594,3616],[35,-26],[121,47],[-7,52],[-138,2],[-11,-75]],[[86616,1936],[26,-130],[33,-39],[94,-21],[191,15],[39,47],[-94,133],[-215,49],[-74,-54]],[[86634,3156],[25,-74],[32,43],[-57,31]],[[86704,2734],[42,-55],[32,51],[-74,4]],[[86750,3870],[105,16],[-14,35],[-91,-51]],[[86775,3649],[81,-116],[47,53],[115,56],[-12,138],[-89,52],[-104,8],[-38,-191]],[[86816,3995],[61,-80],[46,10],[-107,70]],[[86898,2007],[36,-72],[62,-50],[130,-25],[-20,117],[-58,80],[-99,27],[-51,-77]],[[86986,1725],[48,-151],[42,2],[75,113],[-23,35],[-142,1]],[[87000,3345],[62,-44],[136,64],[18,56],[-147,59],[-69,-135]],[[87038,4185],[63,-56],[-26,101],[-37,-45]],[[87072,3080],[55,-71],[38,40],[48,-39],[0,130],[-46,64],[-56,10],[-12,-127],[-27,-7]],[[87255,3221],[50,-51],[144,-18],[145,97],[93,32],[76,138],[-102,115],[-42,8],[-176,-56],[-98,-62],[-59,-91],[-31,-112]],[[87302,3515],[41,-33],[60,21],[15,68],[-48,2],[-68,-58]],[[87338,2960],[19,-15],[86,100],[-85,-23],[-20,-62]],[[87846,4333],[23,-77],[130,-98],[126,20],[-56,76],[-195,126],[-28,-47]],[[87901,3003],[20,-60],[50,11],[-24,71],[-46,-22]],[[88019,4445],[76,-95],[100,-1],[-30,200],[-61,-8],[-85,-96]],[[88067,3108],[53,-51],[48,35],[-68,59],[-33,-43]],[[88182,4618],[96,-42],[-16,68],[-55,19],[-25,-45]],[[88189,3195],[13,-77],[35,-6],[89,109],[57,37],[-36,110],[-99,-67],[-59,-106]],[[88371,4728],[47,-68],[1,57],[-48,11]],[[88426,3994],[26,-47],[206,77],[-82,85],[-132,-68],[-18,-47]],[[88589,4413],[13,-55],[97,-77],[13,115],[-82,45],[-41,-28]],[[88726,1823],[84,-61],[110,40],[-76,95],[-68,-2],[-50,-72]],[[88785,4342],[42,-118],[91,-5],[21,108],[-39,72],[-115,-57]],[[88888,4821],[45,-18],[144,100],[147,-42],[13,-126],[42,-9],[85,131],[-53,53],[-151,17],[-110,50],[-162,-156]],[[88954,4232],[61,-19],[12,86],[-73,-67]],[[89011,4147],[80,-53],[10,87],[-43,26],[-47,-60]],[[89053,4496],[49,-63],[60,5],[-67,92],[-42,-34]],[[89143,5632],[97,-171],[83,-109],[48,-31],[109,-6],[-60,109],[105,151],[-1,55],[-160,117],[-116,-4],[-105,-111]],[[89391,4731],[95,-104],[3,-114],[-52,-141],[2,-53],[81,-56],[353,121],[57,-54],[51,-153],[-15,-121],[-37,-45],[-11,-86],[79,-22],[101,69],[56,8],[148,-40],[37,19],[46,171],[36,69],[-103,169],[-22,149],[139,63],[38,47],[-14,118],[-84,103],[-213,57],[-66,3],[-155,-47],[-208,-3],[-104,58],[-39,52],[-24,148],[-38,31],[-76,-56],[-5,-187],[-56,-173]],[[89401,5832],[123,-100],[204,97],[120,96],[6,33],[-75,95],[-187,-80],[-191,-141]],[[89519,5338],[8,-92],[33,-34],[84,36],[4,66],[-50,55],[-79,-31]],[[89681,5273],[125,-98],[35,5],[-15,117],[-83,-33],[-62,9]],[[90085,5704],[26,-60],[2,-126],[46,-73],[82,-7],[60,45],[27,129],[-8,154],[-50,92],[-48,27],[-56,-22],[-81,-159]],[[90138,3161],[26,-43],[77,14],[153,95],[109,22],[-44,136],[-135,92],[-40,-19],[-49,-122],[-59,-77],[-38,-98]],[[90686,5669],[131,-63],[9,47],[-49,71],[-71,45],[-20,-100]],[[90900,3560],[119,-62],[85,30],[36,121],[-116,42],[-42,-14],[-82,-117]],[[91733,4278],[93,-20],[-19,48],[-74,-28]],[[91868,4269],[34,-54],[55,10],[-89,44]],[[92097,4259],[31,-99],[115,-75],[26,42],[-32,76],[-76,75],[-64,-19]],[[92216,4982],[83,-80],[145,-81],[75,-11],[231,146],[35,41],[-89,87],[-96,14],[-119,-24],[-151,15],[-59,-19],[-55,-88]],[[92340,4717],[90,-40],[2,56],[-92,-16]],[[92347,4622],[85,-5],[-28,33],[-57,-28]],[[92390,4202],[46,-60],[-2,92],[-44,-32]],[[92547,4088],[58,-23],[16,-86],[71,-19],[34,47],[-44,110],[-97,17],[-38,-46]],[[92608,2000],[38,-31],[12,76],[-50,-45]],[[92734,4182],[47,-104],[41,109],[-49,30],[-39,-35]],[[92738,3930],[71,-132],[63,-68],[67,-129],[73,-13],[56,48],[-33,176],[-83,126],[-142,54],[-72,-62]],[[92760,5340],[163,-184],[101,64],[-3,79],[97,97],[-123,-3],[-114,74],[-69,-24],[-52,-103]],[[92833,4068],[210,-202],[71,-16],[43,43],[-74,186],[-64,51],[-149,-8],[-37,-54]],[[92839,5604],[26,-31],[178,-52],[208,57],[76,57],[-22,52],[-68,27],[-214,40],[-154,-85],[-30,-65]],[[93158,5861],[100,-84],[204,-84],[143,-93],[137,-30],[50,29],[-42,127],[89,213],[-83,79],[-195,96],[-138,-23],[-145,-88],[-97,-83],[-23,-59]],[[93162,3530],[15,-94],[44,-84],[-1,-80],[121,1],[260,140],[47,-8],[164,-94],[48,-2],[69,54],[-19,141],[-64,53],[-218,-51],[-38,55],[-16,113],[-116,31],[-141,-19],[-89,-34],[-60,-56],[-6,-66]],[[93588,4292],[25,-79],[84,-17],[74,158],[-89,88],[-51,-15],[-43,-135]],[[93593,5140],[26,-155],[-4,-96],[51,-95],[87,-7],[179,62],[183,-83],[74,54],[82,15],[98,-69],[107,-105],[148,-27],[203,-4],[105,-22],[159,-59],[156,13],[188,61],[71,-53],[361,108],[58,104],[-8,98],[-93,144],[-136,-7],[-42,38],[-20,82],[-72,84],[-53,23],[-133,-52],[-22,-111],[-54,-63],[-156,-101],[-44,-10],[-45,68],[66,96],[-13,141],[-74,129],[-6,61],[34,114],[-1,81],[-74,273],[-98,86],[-60,8],[-279,-75],[-62,-77],[71,-66],[-18,-107],[-152,-30],[-137,49],[-144,-33],[-147,-96],[-264,-218],[-77,-95],[-19,-76]],[[94032,3921],[69,-154],[-20,-228],[30,-131],[86,-36],[104,83],[149,11],[194,102],[214,-54],[117,20],[47,70],[-150,121],[-16,96],[26,60],[138,61],[324,-18],[145,23],[85,51],[-11,43],[-118,139],[-190,55],[-138,68],[-140,-14],[-193,177],[-79,14],[-82,-21],[-94,-70],[-258,-298],[-146,-78],[-93,-92]],[[94430,1829],[42,-196],[39,-60],[56,3],[124,72],[84,83],[339,196],[195,184],[-63,-16],[-109,-91],[-191,-10],[-220,31],[-234,-37],[-62,-159]],[[94648,6104],[33,-51],[180,-23],[136,-87],[78,9],[87,48],[81,110],[36,134],[-47,60],[-131,49],[-104,-96],[-71,-40],[-201,-43],[-77,-70]],[[95110,5792],[35,-155],[84,-49],[151,-12],[39,20],[93,117],[118,105],[8,57],[-36,144],[-31,46],[-114,8],[-105,-20],[-57,-49],[-31,-115],[-104,-24],[-50,-73]],[[95372,6142],[35,-17],[73,100],[-46,-2],[-62,-81]],[[95476,5498],[79,-110],[102,-8],[35,62],[-23,55],[-96,22],[-97,-21]],[[95650,6479],[45,-60],[84,-20],[42,30],[-7,73],[-46,24],[-65,-59],[-53,12]],[[95787,4070],[50,-50],[95,-16],[27,46],[83,27],[-77,84],[-71,-1],[-107,-90]],[[95823,4439],[38,-57],[139,-8],[74,62],[137,7],[198,-114],[105,-17],[141,3],[101,27],[26,81],[-55,45],[-84,22],[-32,73],[96,136],[-8,21],[-261,37],[-200,9],[-76,-68],[23,-71],[-36,-36],[-98,43],[-71,5],[-146,-155],[-11,-45]],[[96071,5385],[28,-45],[58,5],[-9,85],[-77,-45]],[[96096,4417],[47,-128],[9,104],[-56,24]],[[96179,4314],[89,-63],[97,26],[20,34],[-105,50],[-41,-52],[-49,60],[-11,-55]],[[96240,4005],[25,-21],[131,54],[66,3],[6,42],[-154,-21],[-74,-57]],[[96358,5218],[29,-65],[186,-52],[15,62],[-152,72],[-78,-17]],[[96379,5336],[47,-42],[91,-12],[13,85],[-151,-31]],[[96436,5882],[30,-30],[86,17],[7,54],[-123,-41]],[[96499,5570],[27,-53],[87,26],[-81,69],[-33,-42]],[[96760,4522],[15,-35],[105,-51],[70,5],[115,53],[159,50],[56,68],[-184,46],[-103,-6],[-92,-64],[-141,-66]],[[96782,5656],[44,-34],[115,16],[-4,39],[-103,21],[-52,-42]],[[97351,5479],[47,-69],[64,111],[-86,-9],[-25,-33]],[[97399,5232],[39,-92],[126,-8],[-10,59],[-155,41]],[[97631,5987],[46,17],[-32,77],[-14,-94]],[[97657,5854],[60,-87],[58,-3],[-65,121],[-53,-31]],[[98711,6798],[57,-114],[64,-42],[160,10],[94,-75],[57,-4],[-46,115],[-111,100],[-75,27],[-192,15],[-8,-32]],[[98794,8995],[38,-47],[228,-126],[247,-74],[158,85],[90,-51],[113,43],[50,100],[-133,222],[-102,72],[-105,21],[-224,-34],[-229,-99],[-131,-112]],[[0,17279],[38,-61],[67,12],[59,69],[-4,61],[-82,30],[-78,-111]],[[55,16920],[81,-85],[144,-21],[-28,75],[-63,66],[-111,-2],[-23,-33]],[[152,16640],[58,-68],[56,9],[-81,94],[-33,-35]],[[808,16943],[157,-27],[2,37],[-116,57],[-43,-67]],[[957,16566],[122,-313],[49,-65],[117,21],[119,-30],[42,27],[-31,86],[-209,231],[-166,78],[-43,-35]],[[1289,18198],[59,-127],[159,-45],[-34,216],[-124,39],[-60,-83]],[[1340,16876],[77,-73],[144,-27],[-5,-100],[42,-114],[64,-48],[165,-18],[38,86],[-208,255],[-22,83],[22,170],[-64,68],[-84,-23],[18,-115],[-45,-42],[-124,-53],[-18,-49]],[[1368,16468],[61,-50],[62,67],[-16,87],[54,110],[-121,-51],[-40,-163]],[[1937,17137],[33,-52],[62,29],[5,139],[-45,15],[-55,-131]],[[2078,16754],[11,-299],[68,-101],[75,9],[247,147],[41,64],[-42,58],[71,107],[178,107],[48,56],[-35,105],[107,90],[-32,79],[-69,67],[-50,100],[-22,151],[33,17],[187,-40],[218,-120],[87,-2],[29,46],[28,191],[-48,125],[67,120],[-1,40],[-87,90],[-42,115],[6,71],[99,125],[27,101],[-18,56],[-113,132],[-52,99],[-36,159],[-78,92],[-80,-82],[-56,-118],[-145,-101],[-24,-111],[-169,-192],[-13,-51],[73,-143],[43,-121],[-5,-52],[-81,-22],[-119,163],[-51,27],[-48,-45],[-85,-134],[-32,-111],[13,-185],[-2,-170],[29,-121],[-9,-149],[-44,-156],[39,-77],[67,-45],[72,-2],[33,102],[74,35],[59,-55],[-21,-66],[-74,-107],[-94,-11],[-164,33],[-63,-16],[-25,-74]],[[2136,18434],[20,-69],[60,-62],[73,17],[-28,109],[-58,41],[-67,-36]],[[2166,14467],[26,-50],[100,13],[-46,121],[-54,16],[-26,-100]],[[2182,14231],[20,-114],[30,0],[8,122],[-58,-8]],[[2231,14644],[36,-51],[58,15],[-38,140],[-38,-6],[-18,-98]],[[2238,14077],[37,-87],[86,-29],[155,62],[165,-24],[63,79],[-91,18],[-96,57],[-106,-16],[-76,36],[-137,-96]],[[2445,14736],[19,-35],[89,107],[-40,8],[-68,-80]],[[2518,14662],[32,-67],[67,-40],[91,-9],[64,55],[-49,85],[-135,48],[-53,-6],[-17,-66]],[[2606,16108],[22,-63],[51,35],[-37,62],[-36,-34]],[[2807,13793],[16,-59],[74,8],[-13,42],[-77,9]],[[2867,16778],[62,-13],[173,41],[145,60],[-284,30],[-68,-40],[-28,-78]],[[2907,13876],[19,-73],[65,-31],[177,2],[41,34],[-34,124],[-107,6],[-73,43],[-57,-15],[-31,-90]],[[2907,14126],[91,-74],[94,-3],[-53,102],[-88,39],[-44,-64]],[[3071,14203],[57,-134],[75,14],[-19,60],[-113,60]],[[3079,14286],[7,-59],[112,-8],[-119,67]],[[3081,14630],[44,-71],[56,18],[-100,53]],[[3158,19194],[20,-34],[138,-104],[106,-43],[198,-40],[180,29],[91,96],[134,-27],[59,55],[29,94],[-28,232],[-106,159],[-238,227],[-72,19],[-161,-26],[-89,56],[-147,11],[-37,-76],[76,-71],[135,-187],[-81,-106],[-143,-59],[5,-107],[-69,-98]],[[3174,14308],[40,-101],[143,-221],[191,-167],[11,-99],[-46,-189],[23,-53],[194,-96],[94,49],[-4,50],[53,69],[95,18],[44,-22],[111,-131],[170,46],[85,5],[160,-95],[201,-73],[346,-56],[114,16],[50,71],[-32,238],[-49,90],[-55,28],[-300,48],[-133,51],[-123,17],[-101,131],[-111,5],[-31,65],[61,34],[119,23],[70,78],[-68,61],[-484,110],[-416,68],[-166,-24],[-189,-10],[-67,-34]],[[3182,14656],[22,-42],[121,-19],[-48,45],[-95,16]],[[3265,15010],[14,-81],[153,-65],[137,-16],[244,-78],[111,-75],[170,-83],[179,-179],[150,-74],[257,-47],[31,37],[31,179],[-106,127],[-164,73],[-256,15],[-104,66],[-102,301],[-84,83],[-277,79],[-200,-4],[-105,-38],[-74,-104],[-5,-116]],[[3318,18899],[154,-105],[64,-18],[18,51],[-69,117],[-167,-45]],[[3318,20150],[90,-72],[62,25],[-66,40],[-86,7]],[[3382,18746],[152,-66],[-7,56],[-102,33],[-43,-23]],[[3416,13052],[35,-74],[177,-213],[118,-26],[222,35],[49,-28],[27,-76],[115,-123],[55,-23],[139,23],[149,-25],[333,16],[192,-8],[92,14],[64,69],[-16,42],[-198,72],[-220,38],[-177,45],[-303,-58],[-83,23],[14,167],[90,55],[111,-22],[101,49],[-43,89],[-153,178],[-117,-39],[-105,-96],[-202,13],[-170,-149],[-89,-15],[-93,77],[-78,21],[-36,-51]],[[3432,14664],[159,-110],[329,-126],[187,-9],[-42,98],[-312,172],[-144,41],[-145,-21],[-32,-45]],[[3446,13759],[22,-54],[35,63],[-57,-9]],[[3557,18522],[15,-46],[207,-31],[76,23],[63,62],[-12,73],[-92,207],[-87,41],[-165,-282],[-5,-47]],[[3614,15447],[60,-64],[84,8],[-121,75],[-23,-19]],[[3680,20102],[87,-80],[85,-42],[136,-31],[70,109],[-22,149],[-44,50],[-81,18],[-40,-36],[-142,-11],[-49,-126]],[[3751,15733],[46,-54],[140,-83],[130,-30],[98,-50],[73,3],[13,103],[-37,55],[-145,94],[-135,46],[-183,-84]],[[3757,16163],[2,-42],[82,-34],[1,52],[-85,24]],[[3985,13349],[27,-38],[108,-21],[-38,71],[-97,-12]],[[3991,17034],[28,-71],[83,4],[139,93],[32,170],[-54,103],[-41,24],[-91,-28],[-96,-295]],[[3994,17500],[109,-4],[2,-65],[55,15],[-23,80],[-59,47],[-84,-73]],[[4117,16349],[28,-219],[146,-134],[68,-35],[120,14],[71,93],[-17,131],[-55,93],[-9,124],[-123,258],[-69,58],[-82,25],[-56,-71],[37,-123],[-59,-214]],[[4187,18085],[30,-112],[74,-50],[67,5],[61,68],[71,17],[68,-47],[57,1],[82,108],[-11,96],[47,57],[164,70],[0,71],[-105,68],[-113,-17],[-70,78],[-220,-52],[-154,5],[-29,-72],[16,-185],[-35,-109]],[[4304,18795],[41,-75],[105,-38],[174,-21],[61,100],[-91,103],[-40,132],[-85,30],[-106,-73],[-59,-158]],[[4317,19913],[49,-70],[73,49],[-31,80],[-91,-59]],[[4382,15828],[148,-110],[41,-58],[17,-114],[69,-77],[91,-8],[64,146],[0,83],[-50,167],[-54,60],[-102,26],[-156,-40],[-68,-75]],[[4476,17270],[34,-263],[54,-46],[116,-26],[52,-95],[10,-101],[52,-75],[75,17],[124,99],[89,104],[54,98],[101,79],[45,115],[44,48],[8,94],[-82,62],[-61,87],[-214,23],[-23,63],[119,151],[24,81],[-21,95],[-93,174],[-14,89],[-57,79],[-68,-9],[-50,-71],[-2,-68],[-115,-214],[-51,-164],[-93,-202],[12,-82],[-69,-142]],[[4542,19782],[49,16],[-37,43],[-12,-59]],[[4602,19437],[18,-84],[82,-103],[25,-105],[63,-109],[282,-145],[78,0],[98,152],[177,100],[27,31],[-1,204],[35,127],[49,75],[57,25],[126,8],[71,68],[-2,63],[-63,64],[-196,38],[-42,44],[40,52],[82,18],[27,64],[5,136],[29,163],[-92,108],[58,93],[106,71],[134,144],[93,139],[143,69],[159,-55],[101,31],[78,147],[61,32],[113,11],[76,49],[52,82],[-45,106],[29,49],[88,21],[55,54],[20,131],[66,74],[126,101],[29,96],[17,207],[24,70],[163,-17],[93,152],[-13,90],[76,192],[44,175],[-33,97],[-194,99],[-54,61],[21,156],[-12,51],[-144,90],[-46,49],[-102,-21],[-100,-208],[-58,19],[-190,162],[-65,73],[-144,77],[-55,54],[-86,12],[-134,-180],[-53,-123],[-114,-112],[-34,-76],[58,-111],[36,-167],[-27,-140],[-57,-70],[-65,-27],[-85,-97],[-48,-89],[-204,-60],[-184,-158],[-38,-107],[-80,-73],[-120,-25],[-60,-47],[0,-134],[-39,-111],[-86,-47],[-11,-98],[52,-100],[151,-166],[-74,-201],[-26,-133],[-67,-66],[-111,-33],[-94,-128],[-82,-48],[-8,-43],[81,-61],[109,-27],[96,-102],[-3,-79],[-63,-154],[55,-97],[-23,-49],[-116,-12],[-56,-42],[-3,-136],[-132,-350]],[[4691,20910],[72,-69],[109,23],[33,72],[-147,67],[-49,-12],[-18,-81]],[[4797,15294],[83,-76],[162,41],[-7,59],[-229,13],[-9,-37]],[[4809,12918],[114,-33],[211,1],[227,-56],[387,-41],[80,4],[58,42],[0,63],[-72,51],[-69,2],[-273,-42],[-63,6],[-23,51],[-393,85],[-126,-34],[-58,-99]],[[4868,14317],[32,-34],[150,-31],[192,18],[-4,90],[-179,99],[-134,-8],[-57,-134]],[[4981,16525],[21,-64],[77,-39],[182,12],[48,32],[100,204],[18,67],[-107,250],[-139,-22],[-55,-84],[-129,-268],[-16,-88]],[[5073,12264],[152,-124],[44,54],[-47,165],[-69,-6],[-80,-89]],[[5075,14080],[54,-101],[75,1],[9,57],[-68,70],[-70,-27]],[[5085,14873],[17,-55],[90,47],[-107,8]],[[5147,23087],[26,-76],[79,-45],[31,88],[-50,117],[-85,10],[-1,-94]],[[5159,18093],[19,-60],[53,-20],[23,65],[-56,60],[-39,-45]],[[5286,12778],[40,-78],[53,9],[-32,77],[-61,-8]],[[5320,18582],[92,-53],[-41,74],[-51,-21]],[[5355,16246],[8,-45],[123,7],[52,67],[-31,47],[-90,9],[-62,-85]],[[5450,16904],[53,-11],[-20,70],[-33,-59]],[[5507,14790],[25,-68],[107,-135],[142,-69],[216,53],[84,-85],[57,-21],[151,15],[88,95],[181,59],[342,58],[69,27],[55,137],[47,69],[131,103],[58,107],[-47,117],[-114,16],[-188,-132],[-109,-104],[-175,-54],[-69,-36],[-66,-114],[-168,-31],[-119,24],[-191,-15],[-83,81],[31,132],[68,139],[-33,55],[-145,5],[-178,-67],[-91,-91],[-76,-270]],[[5511,18604],[42,-132],[45,-58],[107,-77],[51,25],[-37,158],[-208,84]],[[5511,13234],[54,-82],[57,35],[-57,56],[-54,-9]],[[5549,12025],[71,-169],[87,-108],[55,-29],[179,39],[-3,58],[-126,133],[-125,67],[-91,27],[-47,-18]],[[5605,16249],[57,-78],[96,37],[-31,82],[-97,-2],[-25,-39]],[[5659,16486],[67,-12],[-25,53],[-42,-41]],[[5665,19103],[68,-58],[69,-101],[220,-31],[1,37],[-120,68],[41,108],[-41,47],[-99,4],[-99,-34],[-40,-40]],[[5718,19425],[25,-51],[101,-6],[-7,60],[-119,-3]],[[5740,18697],[18,-178],[102,62],[-67,94],[-53,22]],[[5783,20416],[33,-179],[129,-106],[-23,-78],[24,-62],[110,-69],[169,-36],[75,-43],[20,-97],[37,-43],[141,-42],[72,2],[139,97],[56,92],[-21,55],[-73,65],[-32,128],[29,165],[-21,127],[23,45],[108,53],[-11,141],[20,54],[90,50],[111,-39],[37,-125],[38,-25],[166,-38],[164,-83],[160,30],[93,42],[123,12],[159,280],[62,66],[76,25],[116,-18],[195,-68],[186,-18],[169,-49],[79,-84],[88,-36],[223,-42],[64,-61],[57,-188],[41,-67],[277,-200],[100,-84],[77,-29],[115,62],[75,161],[59,84],[104,87],[30,77],[-89,201],[-175,111],[14,102],[62,151],[-46,100],[-102,11],[-111,-19],[-50,66],[-26,171],[-34,90],[-87,111],[-30,114],[-1,98],[112,208],[9,150],[-40,85],[-165,151],[-6,104],[41,206],[-8,92],[-68,166],[-89,57],[-42,91],[23,194],[68,35],[130,15],[95,-28],[-37,-97],[48,-67],[141,-51],[86,-110],[-90,-157],[-50,-157],[-19,-140],[26,-51],[100,-40],[106,50],[-7,165],[27,92],[136,139],[24,152],[36,92],[61,50],[-7,195],[15,51],[81,27],[83,-9],[168,-51],[103,-71],[211,-2],[40,-33],[2,-76],[-96,-132],[-95,19],[-132,94],[-62,-88],[26,-139],[-25,-142],[17,-84],[152,-160],[32,-84],[-31,-179],[27,-50],[93,-72],[74,-16],[174,48],[72,-34],[86,18],[-15,122],[8,117],[93,162],[343,64],[141,105],[97,3],[80,-83],[-51,-139],[-74,-93],[12,-138],[56,-70],[66,-166],[75,-51],[2,-84],[-41,-119],[-83,-85],[-46,-113],[-65,-36],[-108,-11],[-12,-104],[68,-40],[129,20],[28,-21],[-19,-95],[33,-57],[154,-103],[166,-34],[68,23],[54,156],[241,183],[127,37],[75,-7],[34,-59],[-73,-96],[-147,-136],[-75,-106],[-104,-214],[-7,-128],[105,-240],[46,-68],[144,-108],[57,-18],[156,4],[163,-52],[132,31],[72,149],[163,44],[47,-14],[55,-91],[92,-307],[-8,-47],[-118,-18],[-155,16],[-68,-42],[36,-66],[240,-43],[136,-88],[45,-80],[-83,-57],[-175,27],[-65,-7],[-125,-82],[-27,-68],[-9,-152],[65,-181],[100,-88],[70,-33],[184,-48],[121,-90],[101,-41],[215,-20],[190,-56],[257,-7],[110,-115],[199,-71],[91,-56],[317,-278],[137,-4],[238,98],[102,127],[1,151],[25,82],[63,98],[243,313],[-3,118],[-92,84],[-24,97],[63,133],[81,36],[124,-83],[-37,-108],[-6,-110],[69,-188],[4,-101],[-122,-128],[11,-125],[-68,-165],[-18,-215],[16,-85],[57,-46],[76,23],[133,97],[134,21],[-20,-100],[-81,-142],[18,-61],[114,-68],[106,-16],[170,44],[79,66],[219,47],[105,-61],[83,-15],[393,47],[105,34],[379,152],[78,1],[89,-45],[86,-115],[100,-267],[48,-9],[80,105],[133,-31],[-16,-132],[-32,-64],[146,-71],[135,-18],[60,-52],[23,-71],[93,-116],[70,-188],[53,-43],[164,-22],[150,-82],[139,-165],[99,-153],[252,-284],[61,-48],[72,-9],[148,54],[105,16],[53,-54],[-46,-156],[14,-156],[-15,-161],[97,-259],[96,-288],[80,-74],[139,8],[329,106],[452,77],[184,61],[273,76],[201,40],[319,114],[308,28],[127,49],[143,21],[223,109],[141,102],[346,122],[299,23],[134,25],[150,114],[226,81],[294,123],[217,60],[266,-29],[83,13],[141,195],[125,69],[264,59],[139,-12],[59,-43],[46,-119],[-16,-79],[-208,-277],[-358,-421],[-48,-76],[-47,-169],[-172,-123],[28,-90],[269,-210],[235,-106],[191,-23],[386,40],[219,-25],[394,-23],[125,-33],[52,10],[107,111],[147,49],[143,2],[70,-46],[64,-108],[66,-23],[131,47],[67,-66],[28,-102],[92,-75],[121,-45],[93,-6],[84,29],[190,145],[129,117],[186,130],[162,219],[181,155],[128,226],[199,172],[78,196],[138,51],[135,-44],[84,-103],[-11,-99],[-243,-208],[-149,-108],[-30,-64],[-71,-64],[4,-91],[-31,-105],[-90,-192],[-226,-99],[-117,-98],[-139,-169],[-64,-113],[-5,-108],[1156,-158],[321,45],[236,138],[187,20],[291,-140],[142,-180],[202,35],[228,420],[198,512],[448,541],[66,-120],[229,-312],[608,-531],[585,-397],[757,40],[93,92],[285,804],[138,373],[3,596],[-239,333],[452,138],[67,187],[26,182],[-176,302],[-69,309],[-173,247],[594,130],[195,165],[20,392],[-188,188],[-481,735],[25,126],[59,179],[317,178],[250,476],[193,599],[-10,136],[-50,101],[-480,189],[-430,294],[-717,-34],[-12,21],[196,915],[-371,752],[68,823],[4,112],[64,192],[75,436],[147,97],[386,435],[451,470],[-162,873],[-609,-109],[-480,-113],[-174,3],[-51,22],[-512,72],[-297,-8],[-468,87],[-79,380],[-695,121],[-408,129],[-167,147],[-163,169],[-206,317],[-599,108],[-570,668],[-426,-29],[-556,-223],[-313,33],[98,-108],[-44,-91],[-68,-13],[-92,60],[-110,-69],[44,-133],[-847,-20],[-421,94],[-93,178],[-73,282],[-171,262],[-388,372],[-411,353],[-193,438],[227,633],[-50,43],[-482,118],[-37,42],[-356,758],[-1011,-391],[-786,-1011],[-52,-76],[-118,-54],[-153,40],[-139,75],[-347,135],[-71,-19],[-408,-958],[-530,-464],[-258,-403],[-423,-212],[-347,-719],[-262,-175],[-205,-37],[-168,-43],[-135,-89],[-95,-351],[58,-181],[66,-1463],[-282,-88],[-338,55],[-156,-151],[-176,-36],[-21,215],[-182,376],[-431,-172],[-569,-203],[-384,-174],[-157,-51],[-68,-3],[-70,-118],[-103,-26],[-1046,-500],[-214,-170],[-125,-13],[-313,19],[-102,-26],[-473,-407],[-290,-87],[-22,-41],[46,-104],[88,39],[145,-61],[-216,-102],[-326,-28],[-104,20],[92,271],[10,69],[-21,180],[-180,148],[-100,39],[-30,-28],[-205,6],[-55,-44],[-73,5],[-118,-58],[-93,85],[5,98],[-16,267],[-32,193],[-116,547],[-320,208],[-138,112],[-508,-8],[-409,92],[-280,-109],[-240,-131],[-70,-69],[-118,-252],[35,-142],[-367,-333],[-122,-57],[-33,158],[-261,108],[-130,-171],[35,-54],[-258,-169],[-212,-55],[-141,125],[-309,92],[-641,81],[-187,-1],[-28,-210],[62,-60],[31,-78],[-78,-56],[-130,-11],[-105,-97],[11,-187],[-32,-136],[91,-121],[186,-106],[59,-138],[-64,-58],[-176,51],[-101,-40],[-39,-48],[-2,-83],[53,-137],[66,-53],[115,3],[47,-37],[-49,-131],[-3,-70],[44,-136],[-19,-187],[-82,-74],[-95,-158],[-79,-25],[-24,-90],[102,-80],[-19,-86],[-114,-101],[4,-68],[51,-128],[-25,-92],[-140,-45],[-22,-175],[-165,-114],[-52,-70],[58,-140],[-17,-122],[24,-126],[44,-118],[-18,-91],[-246,-164],[-116,-35],[-147,32],[-220,-37],[-89,68],[-113,-5],[-56,-44],[-67,-137],[-142,-44],[-197,8],[-150,-87],[-146,-184],[-12,-78]],[[5783,16653],[45,-54],[139,-41],[30,26],[-42,110],[-121,68],[-51,-109]],[[5798,17249],[22,-60],[99,-115],[95,-34],[154,-84],[62,1],[67,63],[-19,69],[-75,134],[-24,153],[-167,101],[-79,-87],[-95,-71],[-40,-70]],[[5848,18350],[38,-42],[59,62],[-1,73],[-56,15],[5,-69],[-45,-39]],[[5873,16822],[19,-46],[117,-46],[-38,106],[-98,-14]],[[6067,18389],[98,-49],[29,41],[-72,70],[-55,-62]],[[6096,17894],[9,-56],[56,-53],[344,-77],[-73,128],[7,86],[-55,43],[-172,24],[-93,-37],[-23,-58]],[[6241,15578],[92,19],[-25,32],[-67,-51]],[[6330,18837],[25,-54],[76,-26],[97,8],[52,50],[-66,57],[-74,17],[-40,63],[-59,-50],[-11,-65]],[[6330,17156],[80,-121],[49,36],[-57,78],[-72,7]],[[6354,17462],[42,-73],[58,-10],[63,45],[81,14],[22,-47],[-19,-83],[38,-58],[59,189],[-55,64],[4,65],[-58,120],[-127,-137],[-78,-35],[-30,-54]],[[6373,15670],[70,18],[-27,36],[-43,-54]],[[6409,19245],[50,-52],[52,25],[-63,52],[-39,-25]],[[6426,11159],[53,-64],[116,-90],[109,-42],[122,93],[65,105],[-96,161],[-85,69],[-63,-14],[-20,-82],[-201,-136]],[[6460,15450],[46,-22],[48,44],[-94,-22]],[[6469,15088],[45,-42],[139,-13],[127,92],[-5,32],[-226,-36],[-80,-33]],[[6602,18665],[17,-41],[184,13],[-8,55],[-70,42],[-97,14],[-26,-83]],[[6609,14381],[82,-30],[-14,64],[-68,-34]],[[6613,14152],[44,-51],[41,22],[-85,29]],[[6648,13990],[92,-69],[111,4],[60,30],[-81,75],[-182,-40]],[[6664,13268],[13,-60],[111,-17],[121,-51],[118,69],[146,55],[210,-42],[164,73],[-79,66],[-163,61],[-113,17],[-260,10],[-149,58],[-49,-21],[-45,-86],[-25,-132]],[[6744,15534],[43,-88],[74,8],[124,60],[0,101],[-191,-23],[-50,-58]],[[6786,18350],[65,-21],[14,54],[-79,-33]],[[6835,18559],[62,-62],[171,16],[-97,115],[-82,-1],[-54,-68]],[[6849,17637],[69,-34],[33,45],[-102,-11]],[[6858,19550],[26,-125],[126,30],[64,36],[3,122],[-64,64],[-60,17],[-33,-90],[-62,-54]],[[6874,15285],[7,-51],[82,35],[-46,38],[-43,-22]],[[6909,18984],[36,-61],[90,-14],[-20,257],[-81,-29],[-25,-153]],[[6926,15720],[81,-10],[42,51],[-41,56],[-82,-97]],[[6931,17453],[54,-164],[49,-28],[137,-1],[191,69],[171,16],[101,-94],[202,-37],[84,-104],[96,1],[40,94],[65,37],[26,62],[-15,86],[23,69],[98,141],[18,98],[-84,49],[-98,5],[-105,70],[-71,215],[-77,93],[-202,138],[-149,-8],[-21,172],[-76,-4],[-123,-41],[-166,-23],[-45,-39],[-25,-169],[11,-63],[123,-43],[201,-29],[119,-69],[-25,-63],[-196,15],[-52,-80],[74,-32],[137,10],[150,-13],[141,-33],[75,-61],[-21,-54],[-90,-21],[-307,32],[-92,-19],[-186,-94],[-90,-10],[-70,-76]],[[7019,17996],[31,-58],[113,24],[-63,55],[-81,-21]],[[7074,18851],[54,-77],[115,67],[-10,75],[-80,14],[-16,-73],[-63,-6]],[[7160,18995],[76,-51],[68,35],[2,95],[-30,14],[-95,-42],[-21,-51]],[[7200,11727],[18,-33],[101,-1],[-33,76],[-86,-42]],[[7224,16070],[80,-149],[92,-18],[95,57],[118,-43],[33,-55],[-64,-78],[-137,-76],[-20,-79],[39,-36],[140,-33],[23,-35],[-23,-88],[130,-38],[44,24],[-71,92],[-9,70],[77,70],[90,-94],[151,-58],[99,-85],[-95,-86],[31,-104],[188,-112],[196,-41],[133,-61],[157,-45],[77,-142],[43,-24],[354,-97],[335,-63],[44,-30],[17,-70],[62,-43],[291,-64],[290,-51],[179,-3],[217,50],[95,-3],[44,-42],[36,-142],[-46,-60],[-172,-19],[-79,-51],[-245,-193],[-81,-117],[-17,-57],[37,-84],[60,-25],[267,-57],[114,-14],[771,-24],[287,-47],[125,-38],[292,-27],[80,-24],[57,-88],[55,-26],[142,4],[105,23],[307,154],[86,89],[61,29],[152,27],[397,9],[98,34],[105,79],[168,64],[151,11],[63,31],[3,54],[-37,232],[-44,44],[-107,0],[-118,-50],[-95,-17],[-105,11],[-170,-17],[-154,-54],[-290,33],[-149,-11],[-309,10],[-68,37],[31,56],[90,25],[181,-15],[225,20],[102,-13],[134,15],[103,-8],[120,-37],[66,39],[63,133],[108,76],[46,74],[2,86],[-46,43],[-193,-25],[-14,79],[80,118],[-43,97],[-263,-26],[-87,10],[-109,156],[-2,29],[141,59],[30,95],[-81,32],[-229,8],[-110,18],[-179,61],[-237,-6],[-149,-30],[-216,30],[-263,-15],[-54,-35],[-28,-93],[-158,-94],[-76,-20],[-73,27],[-5,54],[155,75],[92,206],[159,319],[52,72],[109,47],[118,134],[149,89],[-24,48],[-109,-13],[-196,-96],[-267,-13],[-119,-64],[-141,25],[-137,96],[-316,70],[-411,47],[-57,-36],[1,-68],[43,-195],[-48,-39],[-55,13],[-42,87],[-14,148],[-49,51],[-142,42],[-40,31],[34,130],[84,160],[78,85],[68,25],[61,-49],[-27,-164],[85,-88],[385,-63],[164,-3],[115,-44],[357,-44],[326,6],[274,69],[69,50],[4,178],[-73,53],[-67,-16],[-68,-96],[-87,-22],[-148,35],[78,59],[115,33],[31,38],[83,203],[-7,95],[-62,70],[-131,36],[-79,81],[-30,91],[76,77],[-55,75],[-97,-1],[-28,48],[1,107],[-43,73],[-87,52],[-193,51],[-147,95],[21,127],[-77,199],[-38,201],[-209,57],[-72,183],[-45,75],[-106,100],[-25,136],[23,93],[54,96],[110,126],[-47,99],[-55,3],[-93,-58],[-14,-113],[-48,-30],[-66,26],[-118,141],[-42,164],[-95,156],[-95,190],[-81,119],[-110,48],[-189,-14],[-162,52],[-135,133],[-109,78],[-211,120],[-125,127],[-56,33],[-98,-5],[-130,35],[-188,27],[-79,-26],[19,-118],[-34,-36],[-116,4],[-213,53],[-54,-3],[-75,-67],[-53,-83],[0,-73],[119,-97],[7,-30],[-77,-53],[-26,-54],[60,-175],[12,-167],[-40,-142],[13,-157],[131,-166],[31,-59],[-77,-53],[-98,30],[-170,2],[-69,-96],[91,-78],[213,18],[92,-43],[171,-40],[48,-76],[-2,-125],[-162,-24],[-80,8],[-74,154],[-87,91],[-120,-7],[-64,-49],[-19,-96],[23,-81],[95,-145],[-49,-74],[2,-57],[73,-93],[110,-44],[97,103],[205,-14],[-16,-60],[-77,-62],[47,-115],[197,-97],[64,-88],[102,14],[41,-57],[-150,-147],[3,-108],[71,-85],[82,-47],[104,7],[59,126],[57,-1],[26,-159],[117,-103],[51,-97],[279,-213],[56,-67],[-21,-51],[-213,-58],[-374,83],[-119,46],[-16,67],[53,34],[121,24],[178,-69],[41,9],[49,83],[-139,135],[-117,55],[-249,63],[-100,124],[-97,77],[-69,-42],[-14,-101],[-79,-245],[-77,-158],[-58,-25],[-361,-36],[-51,-33],[-294,33],[-87,-73],[-50,-75],[-19,-118],[230,-70],[253,39],[28,-57],[-110,-176],[-96,-47],[-104,3],[-176,-74],[-74,-128]],[[7228,14301],[92,-49],[161,132],[-26,90],[-36,13],[-95,-144],[-96,-42]],[[7237,19446],[31,-67],[14,-124],[69,100],[21,159],[-135,-68]],[[7308,18857],[66,-11],[-41,58],[-25,-47]],[[7344,19644],[105,5],[11,39],[-116,-44]],[[7354,19010],[73,-14],[-7,44],[-66,-30]],[[7391,19537],[35,-25],[82,108],[-12,26],[-105,-109]],[[7439,19231],[15,-61],[59,-40],[157,8],[57,62],[40,92],[14,136],[95,167],[-43,84],[-128,21],[-53,-28],[-135,-223],[-78,-218]],[[7571,12453],[35,-39],[242,-73],[89,-88],[82,-44],[159,22],[249,13],[69,70],[-60,49],[-206,63],[-170,-13],[-160,121],[-87,11],[-188,-28],[-54,-64]],[[7574,11873],[166,-166],[80,-14],[122,32],[-43,89],[60,146],[-111,30],[-55,-65],[-183,12],[-36,-64]],[[7715,20336],[63,-69],[-16,93],[-47,-24]],[[7766,19095],[43,-71],[-7,79],[-36,-8]],[[7852,13855],[14,-37],[70,4],[-3,47],[-81,-14]],[[7896,14945],[44,-67],[204,-33],[73,-33],[127,-158],[58,-42],[313,-39],[239,17],[-19,58],[-138,104],[-247,104],[-127,18],[-58,49],[-95,29],[-300,40],[-74,-47]],[[7971,14716],[100,-22],[23,52],[-123,-30]],[[8018,14430],[99,-136],[103,-201],[66,-40],[214,-74],[124,-25],[118,7],[288,-44],[368,-145],[324,-75],[236,-11],[92,41],[78,71],[255,270],[56,137],[-161,42],[-243,3],[-210,54],[-141,66],[-183,54],[-83,6],[-353,-6],[-206,60],[-199,-27],[-138,7],[-117,49],[-107,20],[-194,-34],[-86,-69]],[[8207,12127],[55,-30],[39,27],[-86,42],[-8,-39]],[[8213,17839],[101,-67],[23,20],[-61,59],[-63,-12]],[[8399,20705],[51,-38],[34,31],[-85,7]],[[8488,10581],[90,-83],[62,25],[-10,122],[42,32],[268,75],[61,57],[15,76],[-17,157],[-70,60],[-120,-22],[-99,-79],[-188,13],[-34,-433]],[[8490,11627],[12,-38],[149,-74],[66,5],[1,45],[-192,189],[-25,-2],[-11,-125]],[[8685,11734],[93,-29],[-55,50],[-38,-21]],[[8707,13259],[40,-59],[176,-69],[221,-14],[126,8],[78,-39],[54,48],[-263,107],[-142,1],[-85,23],[-205,-6]],[[8775,12960],[47,-81],[51,-22],[76,35],[31,92],[-159,52],[-46,-76]],[[8916,13632],[140,-65],[79,-91],[126,-41],[235,-27],[133,-32],[84,4],[-117,67],[-123,-2],[-106,137],[-288,81],[-163,-31]],[[8982,12826],[84,-99],[87,63],[-19,38],[-122,17],[-30,-19]],[[8992,12276],[81,-112],[93,-60],[201,-46],[73,30],[113,1],[-43,106],[-169,76],[-66,10],[-162,-42],[-50,56],[-71,-19]],[[8995,13818],[195,-45],[-70,67],[-125,-22]],[[9002,12601],[29,-49],[45,22],[-74,27]],[[9005,12906],[61,-9],[-1,47],[-60,-38]],[[9005,13389],[39,-52],[33,26],[-72,26]],[[9072,14606],[26,-35],[139,11],[-32,36],[-133,-12]],[[9117,11957],[52,-45],[24,39],[-76,6]],[[9134,12584],[16,-48],[150,-7],[-43,61],[-102,19],[-21,-25]],[[9187,12762],[22,-43],[99,-35],[287,-24],[228,-31],[228,-15],[92,-22],[171,-2],[212,-31],[127,-4],[240,17],[164,39],[39,97],[-76,31],[-694,72],[-192,76],[-113,-12],[-495,71],[-113,6],[-59,-27],[-130,-105],[-37,-58]],[[9286,12397],[249,-69],[-47,37],[-202,32]],[[9327,11689],[9,-36],[177,-67],[99,-75],[132,-57],[92,-261],[11,-106],[-24,-32],[-183,-71],[-46,-79],[38,-107],[207,-35],[100,29],[161,97],[244,108],[6,41],[-48,119],[78,58],[150,-14],[221,14],[126,-22],[-7,-107],[-38,-16],[-160,11],[-144,-38],[-207,-157],[-240,-71],[-58,-53],[-8,-156],[46,-88],[85,-47],[187,-9],[89,-27],[26,-106],[71,-46],[347,-60],[179,37],[188,-51],[213,-3],[60,110],[38,20],[154,-21],[24,58],[-49,52],[-105,51],[-28,56],[47,85],[156,104],[48,14],[217,-51],[86,67],[22,59],[-22,268],[-49,116],[48,167],[125,115],[38,78],[158,55],[-14,71],[-173,142],[-44,13],[-312,-25],[-66,-27],[-139,-132],[-159,22],[-113,107],[17,33],[114,0],[129,-59],[91,39],[95,99],[-80,68],[-190,18],[-148,-58],[-271,88],[-194,-3],[-320,34],[-39,-58],[101,-63],[-31,-73],[-130,-27],[-160,-5],[-222,-51],[-98,-4],[-226,35],[-342,13],[-128,-51],[-35,-66]],[[9414,11300],[80,-79],[137,-19],[70,90],[-214,33],[-73,-25]],[[9549,13497],[94,-22],[-11,34],[-83,-12]],[[9579,12390],[18,-36],[120,-47],[93,6],[251,-64],[95,0],[339,160],[-44,40],[-126,26],[-419,27],[-191,36],[-67,-2],[-69,-146]],[[9621,12147],[50,-51],[132,-10],[39,47],[-104,62],[-74,-6],[-43,-42]],[[9697,10468],[11,-52],[105,-112],[186,-84],[106,-11],[275,-100],[98,10],[27,30],[-52,46],[-131,23],[-116,46],[-127,4],[-156,65],[43,195],[-96,113],[-69,-9],[-70,-76],[-34,-88]],[[9708,21837],[68,-109],[99,1],[75,47],[17,118],[-54,43],[-151,-9],[-54,-91]],[[9908,13037],[69,-21],[103,6],[-48,51],[-124,-36]],[[9964,12146],[87,-44],[95,15],[-69,42],[-113,-13]],[[9988,20159],[68,-33],[193,37],[109,-43],[49,51],[-58,123],[-57,7],[-58,-69],[-156,34],[-72,-55],[-18,-52]],[[9998,13337],[43,-40],[141,-30],[198,26],[76,-14],[67,49],[-160,91],[-129,-39],[-200,0],[-36,-43]],[[10084,20002],[23,-69],[96,-86],[86,-228],[102,-214],[79,-21],[38,48],[-25,213],[-77,140],[-81,188],[-110,96],[-66,20],[-65,-87]],[[10095,21599],[75,-30],[-43,63],[-32,-33]],[[10141,21160],[86,-48],[46,53],[-11,95],[-95,19],[-26,-119]],[[10227,21555],[60,-54],[2,55],[-62,-1]],[[10250,20487],[52,-99],[50,29],[-43,84],[-59,-14]],[[10359,14296],[205,-19],[26,38],[-133,3],[-98,-22]],[[10433,20353],[57,-106],[72,28],[-5,96],[-120,35],[-4,-53]],[[10452,19282],[65,-87],[44,17],[-3,144],[-73,16],[-33,-90]],[[10505,21212],[77,-74],[283,-88],[94,-8],[137,65],[-45,57],[-110,31],[-213,20],[-123,-17],[-100,14]],[[10515,11922],[15,-53],[82,0],[-13,64],[-84,-11]],[[10539,12388],[73,18],[-34,41],[-39,-59]],[[10603,12964],[51,-69],[94,-48],[177,-29],[56,13],[47,71],[81,46],[116,8],[7,80],[-84,17],[-129,-11],[-134,38],[-147,-82],[-64,10],[-71,-44]],[[10626,13284],[36,-76],[160,-74],[143,26],[163,-39],[271,5],[105,72],[-90,74],[-193,48],[-214,32],[-114,2],[-237,-22],[-30,-48]],[[10694,12213],[144,-44],[7,45],[-151,-1]],[[10767,20787],[76,-82],[98,3],[40,105],[-75,47],[-130,-26],[-9,-47]],[[10776,20075],[38,-420],[77,-391],[42,-166],[-14,-91],[26,-102],[35,-19],[142,11],[62,-94],[-47,-126],[46,-135],[113,-37],[232,-23],[203,13],[99,-47],[117,-29],[7,-36],[-258,6],[-381,29],[-56,-58],[73,-46],[209,-69],[207,-108],[434,-99],[149,-75],[38,-85],[-61,-203],[58,-164],[81,-84],[63,-136],[84,-90],[153,-25],[117,35],[428,-72],[106,34],[123,120],[58,-6],[126,-111],[104,-16],[227,67],[185,68],[65,-10],[154,60],[87,13],[106,175],[18,237],[95,200],[26,107],[-27,92],[-124,110],[-178,-26],[-110,38],[-115,-19],[0,-83],[45,-74],[-33,-36],[-123,7],[-275,45],[-171,10],[-68,51],[122,116],[80,118],[3,97],[-55,70],[-7,82],[-134,195],[-121,78],[-262,73],[-129,79],[-167,41],[-33,30],[-59,138],[-61,70],[-76,19],[-136,-78],[-75,-5],[-55,52],[-28,186],[-147,141],[-134,42],[-213,96],[-102,28],[-202,7],[-77,36],[-124,92],[-167,89],[-138,52],[-112,18],[-190,-41],[-18,-38]],[[10787,12358],[39,-77],[169,-47],[294,-8],[355,-44],[132,-28],[191,-93],[222,-34],[112,-92],[164,-23],[289,-99],[149,-100],[92,-18],[111,37],[165,111],[132,-52],[112,2],[183,116],[105,129],[51,218],[-32,124],[19,93],[-126,119],[-182,85],[-128,21],[-48,33],[15,130],[-45,63],[-223,175],[-232,10],[-82,-48],[-300,-35],[-95,48],[-101,-9],[-232,-128],[-138,-31],[-192,-87],[-229,-78],[-18,-78],[72,-98],[-112,-59],[-108,-1],[-217,45],[-190,-68],[-104,-70],[-39,-54]],[[10812,21831],[23,-62],[147,-156],[88,-42],[76,-67],[114,10],[25,38],[-79,157],[49,102],[-48,99],[-131,26],[-79,-36],[-153,3],[-32,-72]],[[11148,20803],[90,-76],[61,3],[68,137],[-100,0],[-119,-64]],[[11191,20560],[47,-64],[102,-84],[82,5],[-24,123],[-80,54],[-127,-34]],[[11363,22020],[18,-93],[76,-186],[137,-17],[-26,100],[-151,221],[-54,-25]],[[11501,20627],[13,-112],[114,29],[88,92],[-48,47],[-49,-52],[-118,-4]],[[11578,13185],[61,-58],[91,-26],[295,3],[272,46],[36,54],[-39,42],[-121,29],[-174,-21],[-126,54],[-190,-31],[-76,-35],[-29,-57]],[[11773,13029],[50,-89],[86,28],[8,70],[-127,10],[-17,-19]],[[11785,15506],[70,-31],[308,36],[255,-8],[152,59],[60,131],[-17,49],[39,47],[150,76],[24,85],[-253,170],[-81,23],[-242,-129],[-107,-81],[-115,-141],[-191,-164],[-52,-122]],[[12012,10559],[42,-41],[173,-45],[141,18],[319,141],[129,74],[266,259],[26,124],[-93,163],[-62,63],[-87,-2],[-139,-122],[-102,-53],[-155,-42],[-73,-71],[-39,-182],[-200,-157],[-108,-62],[-38,-65]],[[12145,20190],[50,-45],[119,4],[22,40],[-65,138],[-89,-45],[-37,-92]],[[12211,11152],[82,-41],[63,55],[-28,81],[102,120],[151,40],[131,125],[-81,22],[-64,-41],[-141,-39],[-79,-102],[-136,-220]],[[12711,13243],[54,-66],[203,-1],[22,23],[-70,67],[-193,-4],[-16,-19]],[[12737,15482],[44,-37],[35,40],[-79,-3]],[[12807,16459],[10,-24],[119,19],[4,50],[-71,16],[-62,-61]],[[12854,19581],[132,-48],[37,96],[-119,71],[-50,-119]],[[13024,15605],[30,-42],[88,0],[-62,53],[-56,-11]],[[13061,13426],[47,-57],[103,-45],[99,-3],[227,58],[65,53],[-43,114],[-107,18],[-296,-43],[-95,-95]],[[13101,19720],[103,14],[-65,71],[-38,-85]],[[13326,13017],[65,-32],[36,71],[-72,23],[-29,-62]],[[13414,15318],[41,-40],[19,71],[-60,-31]],[[13423,16357],[44,-86],[151,-78],[73,-74],[67,-26],[240,52],[129,57],[108,4],[102,132],[105,198],[36,196],[-51,139],[-129,93],[-128,-9],[-141,-87],[-79,-107],[-258,-163],[-99,-21],[-108,-95],[-62,-125]],[[13634,13450],[91,-29],[-22,43],[-69,-14]],[[13761,13454],[53,-45],[106,0],[-28,64],[-131,-19]],[[14048,15990],[41,-32],[117,11],[86,90],[110,50],[236,203],[19,37],[-65,124],[-153,-25],[-42,-82],[-88,-85],[-38,-107],[-79,-72],[-123,-77],[-21,-35]],[[14161,15444],[13,-37],[83,-11],[36,75],[-132,-27]],[[14181,15124],[66,-59],[111,-3],[100,24],[95,-84],[96,54],[28,90],[-213,90],[-106,22],[-153,-88],[-24,-46]],[[14419,17142],[35,-30],[195,-3],[49,31],[-4,56],[-95,25],[-180,-79]],[[14657,16736],[73,-47],[107,97],[-7,60],[-129,-20],[-44,-90]],[[15190,17259],[30,-61],[79,-66],[101,-20],[64,27],[37,71],[111,85],[119,31],[40,-59],[-78,-385],[40,-150],[68,-127],[-83,-122],[57,-55],[69,6],[152,105],[105,146],[42,120],[70,90],[147,103],[39,66],[-43,104],[22,87],[55,43],[89,-43],[60,-112],[71,-9],[77,42],[97,96],[92,64],[122,-5],[163,-89],[101,-37],[122,-14],[118,57],[225,154],[176,188],[109,100],[239,124],[11,91],[-84,258],[-135,34],[-134,-93],[-101,-122],[-125,-50],[-108,4],[-90,43],[-106,11],[-187,-15],[-153,-55],[-122,-84],[-74,-142],[-114,-72],[-128,-8],[-120,15],[-281,101],[-81,18],[-213,-43],[-180,-157],[-205,-86],[-254,-73],[-103,-74],[-17,-56]],[[15477,13750],[35,-49],[125,-4],[139,79],[107,109],[41,119],[147,104],[153,18],[162,-25],[116,31],[172,76],[936,297],[115,49],[98,88],[70,34],[209,26],[363,18],[81,40],[48,56],[29,139],[85,78],[182,94],[40,36],[-60,99],[-157,33],[-267,-41],[-133,-44],[-165,58],[-544,-51],[-310,29],[-79,-8],[-132,-79],[-47,-3],[-79,64],[-105,34],[-241,-9],[-221,-62],[-156,-84],[-146,-136],[-97,-170],[-53,-258],[3,-116],[-43,-131],[-96,-169],[-51,-59],[-104,-59],[-127,-135],[-43,-116]],[[15977,13582],[33,-14],[29,133],[-51,-41],[-11,-78]],[[16015,15350],[55,-66],[417,52],[305,19],[75,30],[37,59],[-86,162],[-182,37],[-124,-122],[-193,-66],[-57,21],[-104,-14],[-112,-62],[-31,-50]],[[16390,15854],[69,10],[-11,36],[-58,-46]],[[16485,13746],[10,-74],[50,-57],[80,-30],[106,15],[-35,106],[-93,114],[-86,18],[-32,-92]],[[16512,16852],[37,-158],[59,-38],[103,17],[193,158],[34,86],[-72,109],[-89,5],[-237,-124],[-28,-55]],[[16517,13456],[172,-85],[70,10],[-37,72],[-148,38],[-57,-35]],[[16571,16066],[64,-26],[34,42],[-98,-16]],[[16685,14001],[45,-116],[116,-80],[109,28],[192,25],[42,-72],[-51,-91],[121,-236],[55,-48],[197,-105],[103,-28],[169,24],[246,-1],[277,61],[111,83],[129,32],[162,16],[110,71],[105,5],[321,127],[428,108],[456,58],[313,58],[351,149],[215,82],[46,97],[-13,67],[-89,204],[-22,262],[-55,79],[-63,28],[-89,126],[-260,-35],[-335,-28],[-211,-2],[-164,-30],[-135,-57],[-188,-50],[-340,-57],[-188,-93],[-102,-15],[-91,32],[-124,-57],[-186,-5],[-232,-74],[-193,-14],[-458,-112],[-302,-91],[-359,-130],[-133,-75],[-36,-120]],[[16720,15831],[67,-4],[14,43],[-81,-39]],[[16758,16406],[94,-132],[124,-95],[51,-3],[114,122],[187,96],[74,-16],[39,-120],[64,-74],[-14,-64],[-227,-72],[-205,-45],[-28,-65],[50,-145],[132,-96],[180,-59],[24,-23],[-44,-129],[30,-53],[61,-7],[239,37],[176,-16],[176,30],[90,60],[110,-5],[117,-132],[60,-9],[300,-1],[167,36],[81,63],[42,99],[46,16],[170,-19],[198,43],[77,81],[-27,88],[-87,150],[40,50],[254,-12],[89,-44],[96,-105],[220,-145],[105,-32],[80,16],[-23,280],[-50,53],[-194,10],[-260,278],[-66,259],[-112,299],[-87,131],[-99,83],[-222,57],[-158,80],[-87,155],[-78,217],[-173,55],[-233,-44],[-206,-27],[-80,-67],[-43,-118],[-79,-126],[-139,3],[-139,-32],[-176,-113],[-123,-99],[-164,-34],[-76,-32],[-162,-144],[-130,-99],[-99,-202],[-67,-92]],[[16809,13444],[107,-27],[35,-67],[85,-4],[33,78],[-134,68],[-93,-11],[-33,-37]],[[16890,15860],[85,-12],[-68,47],[-17,-35]],[[17110,15457],[11,-67],[143,-11],[25,18],[-108,112],[-71,-52]],[[17910,13064],[117,-54],[364,25],[18,101],[-106,36],[-224,-72],[-114,-8],[-55,-28]],[[18681,14889],[92,-54],[119,28],[113,62],[-29,35],[-83,-13],[-97,28],[-115,-86]],[[19051,14956],[70,-22],[215,43],[50,51],[-124,5],[-112,-22],[-99,-55]],[[19175,15208],[23,-71],[44,-8],[265,28],[41,-14],[68,-133],[56,-16],[141,17],[74,40],[185,163],[144,-11],[127,35],[1,73],[-74,68],[-34,106],[-50,43],[-173,3],[-336,-41],[-105,-37],[-310,-65],[-59,-57],[-28,-123]],[[19348,13533],[54,-65],[106,-8],[278,90],[43,29],[-4,116],[-236,-33],[-195,-90],[-46,-39]],[[19505,15642],[49,-74],[89,-18],[86,16],[35,102],[-60,115],[-73,-2],[-97,-81],[-29,-58]],[[20019,13695],[24,-21],[104,23],[-79,37],[-49,-39]],[[20896,13872],[28,-35],[42,55],[-70,-20]],[[21123,15029],[22,-156],[124,-148],[120,-63],[173,-40],[183,-5],[120,-34],[214,-117],[158,-3],[121,56],[494,167],[86,41],[172,144],[73,42],[234,12],[294,90],[247,62],[241,33],[242,60],[132,80],[52,63],[190,-54],[70,-1],[108,132],[143,67],[206,136],[33,57],[21,126],[-84,53],[-170,11],[-54,52],[26,83],[85,76],[179,57],[84,60],[119,17],[77,58],[30,71],[-34,105],[-75,79],[-268,-1],[-252,-118],[-242,-60],[-222,-93],[-238,-47],[-218,-57],[-200,-10],[-254,-84],[-217,-35],[-253,-116],[-209,-39],[-159,-48],[-721,-185],[-104,-38],[-87,-63],[-105,-36],[-310,-71],[-65,-25],[-297,-254],[-35,-89]],[[21147,14533],[57,-122],[109,35],[83,164],[-107,64],[-100,-45],[-42,-96]],[[21291,14325],[27,-25],[97,8],[130,70],[121,28],[15,57],[-79,17],[-225,-78],[-86,-77]],[[24459,14110],[48,-106],[72,-51],[212,-66],[391,-84],[94,-5],[94,43],[95,103],[135,46],[287,34],[125,-62],[78,12],[80,238],[96,206],[88,48],[219,26],[55,69],[0,98],[52,91],[76,81],[25,70],[81,40],[151,21],[121,100],[19,75],[-81,52],[-114,-5],[-147,-56],[-154,3],[-155,27],[-440,-73],[-456,-114],[-179,-77],[-165,-48],[-208,10],[-125,-73],[-193,-175],[-35,-64],[50,-45],[88,-10],[112,37],[95,0],[151,-27],[32,-54],[-46,-30],[-124,-16],[-175,-63],[-125,-10],[-90,-37],[-116,-119],[-94,-60]],[[25149,13667],[60,-64],[79,9],[-29,72],[-92,11],[-18,-28]],[[25255,15158],[43,-40],[114,-22],[215,16],[297,61],[63,29],[-36,55],[-151,-26],[-102,33],[-330,2],[-70,-41],[-43,-67]],[[27123,14173],[34,-45],[151,-16],[75,35],[33,107],[-69,49],[-171,-55],[-53,-75]],[[43810,66892],[160,-561],[543,-379],[-113,-163],[191,-292],[110,-388],[109,-118],[281,-554],[241,-348],[117,-325],[153,-547],[-273,-588],[104,-65],[1167,-108],[-57,-216],[596,-351],[88,-110],[738,15],[293,-168],[518,-267],[27,-35],[292,-119],[354,-313],[53,-227],[738,-130],[254,-31],[1003,275],[221,116],[22,63],[-73,81],[-220,93],[-202,153],[-410,160],[-336,326],[-50,-26],[-313,248],[260,132],[614,413],[-432,470],[-137,219],[-18,116],[277,138],[247,258],[226,200],[191,-70],[233,-109],[139,-213],[107,-113],[89,-45],[248,86],[431,348],[32,-89],[701,-688],[546,-1145],[415,-67],[333,-524],[-44,-93],[129,-62],[239,-31],[116,19],[137,-88],[311,-57],[49,-155],[196,-319],[203,-113],[242,117],[177,165],[140,91],[88,-5],[163,-76],[58,-55],[129,-265],[147,-126],[450,-294],[390,-184],[63,-109],[-208,-589],[-111,-337],[-360,-53],[-97,-223],[1,-127],[326,-158],[94,-153],[229,5],[449,-158],[-43,-53],[-10,-151],[109,-182],[-187,-92],[-132,175],[-33,4],[-153,-147],[18,-66],[194,-108],[112,-113],[5,-55],[-38,-114],[115,-157],[179,25],[152,-175],[22,-95],[109,-83],[72,10],[152,72],[1,261],[-10,81],[52,78],[59,24],[139,-52],[226,89],[143,0],[52,-27],[219,-221],[169,-2],[147,-164],[10,-57],[115,-57],[70,-73],[354,-82],[43,-36],[164,-6],[242,-90],[156,68],[106,-31],[90,-261],[299,-139],[59,335],[121,84],[268,91],[-5,61],[321,159],[120,213],[-6,44],[786,634],[741,941],[-144,111],[-130,259],[-302,204],[605,454],[423,-158],[152,85],[163,173],[24,193],[-30,36],[-113,443],[480,321],[-185,416],[698,-112],[486,753],[-36,137],[55,29],[1127,301],[424,176],[97,-76],[-80,-165],[-39,-42],[414,-53],[54,108],[250,84],[164,128],[245,-167],[49,-89],[-34,-118],[81,-294],[256,-295],[106,-74],[1068,390],[26,79],[61,331],[162,111],[135,34],[233,23],[158,74],[294,60],[154,154],[-91,119],[221,185],[291,19],[190,-74],[340,449],[208,569],[170,-128],[161,10],[35,160],[229,-7],[130,173],[135,22],[71,-37],[258,-209],[720,-172],[259,470],[-22,36],[48,132],[133,178],[70,61],[110,8],[16,-197],[89,-72],[199,43],[208,-85],[232,-44],[-11,383],[-333,345],[-85,266],[154,109],[458,56],[485,-181],[967,-304],[200,-97],[374,-293],[299,-91],[395,305],[1001,131],[636,33],[442,-56],[771,1114],[1239,-942],[870,727],[911,486],[561,25],[708,70],[560,9],[705,-100],[380,-245],[290,265],[1,11],[281,268],[-112,538],[405,-216],[228,-434],[333,-22],[197,737],[455,237],[321,47],[343,-174],[403,-183],[366,-147],[535,259],[146,202],[-465,520],[-208,368],[-42,396],[-182,186],[-182,125],[50,91],[246,-25],[22,202],[55,677],[72,825],[-39,128],[-400,-57],[-631,-24],[-639,315],[-498,366],[-214,187],[-148,-20],[-41,186],[82,153],[223,197],[-2,231],[48,474],[-398,123],[164,556],[-311,246],[-41,151],[-43,19],[-365,365],[-297,506],[-202,230],[-233,109],[270,436],[-743,85],[-65,-281],[-84,-55],[-156,429],[-114,572],[-225,95],[42,148],[181,113],[48,82],[-30,663],[70,501],[565,437],[200,696],[-219,198],[6,109],[-67,99],[-104,95],[-372,94],[-319,-117],[-606,-360],[-178,-272],[-274,324],[53,529],[47,718],[-146,1068],[768,1237],[242,1006],[-835,1153],[-102,-142],[-753,-713],[-310,-171],[-282,-48],[-284,40],[-603,-444],[-9,-744],[-253,-463],[-752,-1190],[-150,-42],[-486,-308],[-439,-6],[-159,-320],[-372,-312],[-429,-117],[-439,-37],[-303,39],[-307,69],[-117,2],[-106,-21],[-136,-63],[-365,-70],[-224,-108],[-328,-107],[-280,-104],[-612,1609],[-636,240],[-464,196],[-1389,1145],[-523,746],[-608,502],[-1197,797],[-835,-403],[-75,-53],[-837,-390],[-166,-197],[-447,-15],[-816,-215],[-238,-145],[-577,-664],[-1168,-92],[-236,56],[-56,25],[-486,-78],[-307,-116],[-279,174],[-177,96],[-121,43],[-151,10],[-143,-8],[-435,709],[-349,250],[-311,72],[-542,464],[-295,362],[1,233],[189,729],[63,842],[-112,818],[-419,305],[-136,431],[-174,899],[-127,349],[-379,475],[-157,919],[296,859],[77,779],[-386,1138],[-750,662],[-1208,523],[-817,827],[-750,1037],[-709,-56],[-307,-98],[-646,123],[-977,103],[-763,851],[218,1055],[-1417,132],[-2898,1508],[-492,-336],[-468,-390],[-375,-95],[-585,-19],[-330,-453],[-35,-996],[-448,-135],[-400,-260],[-298,-228],[91,-263],[1583,-321],[320,-277],[179,-604],[75,-624],[-33,-653],[-10,-69],[-57,-1074],[-227,-501],[-122,-322],[-346,-292],[-111,-196],[-247,-272],[-54,-272],[-68,-234],[718,-872],[313,-1582],[1857,-32],[1097,-63],[166,-52],[293,-698],[710,-1336],[119,-247],[273,-456],[485,-925],[-60,-178],[-341,-1362],[-250,214],[-234,38],[-283,143],[-498,97],[-1208,65],[-471,-295],[441,-1357],[-262,-72],[-597,-86],[-684,-134],[-416,56],[-419,-39],[-310,-320],[-99,-13],[-164,-182],[207,-145],[366,-163],[-344,-324],[-24,-45],[-586,-391],[-499,-87],[-312,304],[-535,123],[-418,-16],[-457,-396],[-328,-131],[-494,-5],[-194,-303],[-50,-227],[80,-243],[203,-222],[-128,-240],[199,-175],[379,-247],[192,-157],[60,-80],[-295,-843],[134,-101],[471,-273],[91,-122],[-191,-128],[90,-72],[102,51],[68,5],[135,75],[110,-127],[-22,-46],[157,-154],[1268,124],[145,-111],[46,-323],[0,-191],[241,-387],[425,-103],[505,94],[233,331],[621,94],[308,187],[329,158],[158,11],[729,24],[507,5],[182,-86],[275,227],[56,-1],[109,-369],[129,-216],[32,-183],[-43,-371],[-218,-488],[-234,-381],[-150,-80],[28,-216],[341,-207],[106,-200],[36,-468],[8,-301],[-201,-96],[-78,-281],[-10,-413],[-48,-395],[85,-159],[124,-107],[171,-60],[56,-198],[226,-141],[151,-73],[435,-326],[46,-73],[-238,-161],[-529,-708],[-324,-287],[-114,-83],[-1328,252],[-305,40],[-92,324],[-360,443],[-538,682],[-1242,-220],[-526,107],[-108,-129],[-207,-223],[88,-268],[51,-374],[-96,-255],[-124,-213],[-191,-9],[-282,-135],[-97,-20],[-426,186],[-453,85],[-470,378],[-573,230],[-588,130],[-89,-6],[-56,-101],[582,-546],[147,-114],[143,-182],[3,-363],[-115,-473],[-144,-681],[6,-291],[71,-269],[-96,-144],[-226,-97],[-92,-12],[-720,-33],[-208,-339]]]}
